{"type":"FeatureCollection","features":[{"type":"Feature","properties":{"region_code":"CN-SOUTH-CHINA-SEA-1","parent_region_code":"CN-SOUTH-CHINA-SEA","name":"西沙群岛","level":"inset","has_children":false,"full_path":"中国 / 南海诸岛 / 西沙群岛","source_admin_code":null,"osm_element_type":"relation","osm_element_id":2417005,"osm_relation_id":2417005},"geometry":{"type":"Point","coordinates":[112.0369386,16.4110305]}},{"type":"Feature","properties":{"region_code":"CN-SOUTH-CHINA-SEA-2","parent_region_code":"CN-SOUTH-CHINA-SEA","name":"中沙群岛","level":"inset","has_children":false,"full_path":"中国 / 南海诸岛 / 中沙群岛","source_admin_code":null,"osm_element_type":"relation","osm_element_id":3959723,"osm_relation_id":3959723},"geometry":{"type":"Point","coordinates":[115.8364615,16.7503617]}},{"type":"Feature","properties":{"region_code":"CN-SOUTH-CHINA-SEA-3","parent_region_code":"CN-SOUTH-CHINA-SEA","name":"南沙群岛","level":"inset","has_children":false,"full_path":"中国 / 南海诸岛 / 南沙群岛","source_admin_code":null,"osm_element_type":"relation","osm_element_id":4856843,"osm_relation_id":4856843},"geometry":{"type":"Point","coordinates":[112.698816,7.9237259]}},{"type":"Feature","properties":{"region_code":"CN-SOUTH-CHINA-SEA-4","parent_region_code":"CN-SOUTH-CHINA-SEA","name":"曾母暗沙","level":"inset","has_children":false,"full_path":"中国 / 南海诸岛 / 曾母暗沙","source_admin_code":null,"osm_element_type":"way","osm_element_id":890873502,"osm_relation_id":null},"geometry":{"type":"Point","coordinates":[112.2818183,3.9765578]}}]}
