{"type":"FeatureCollection", "features": [
{"type":"Feature","geometry":{"type":"Polygon","coordinates":[[[117.8705,40.8349],[117.8847,40.8437],[117.9004,40.8419],[117.9223,40.8292],[117.914,40.7806],[117.9057,40.7617],[117.9102,40.7323],[117.9309,40.7257],[117.9446,40.7347],[117.9979,40.7375],[118.0487,40.749],[118.0684,40.7626],[118.0917,40.8157],[118.1148,40.8178],[118.1255,40.8396],[118.1221,40.8601],[118.099,40.8622],[118.0844,40.8789],[118.0842,40.9021],[118.0581,40.9102],[118.069,40.925],[118.0651,40.9519],[118.0427,40.9797],[118.0186,40.9994],[118.0258,41.0194],[118.0598,41.0311],[118.0278,41.0932],[117.9871,41.1183],[117.9782,41.1349],[117.9555,41.1367],[117.9343,41.127],[117.934,41.1049],[117.9215,41.0873],[117.8901,41.0938],[117.8567,41.0881],[117.8473,41.0543],[117.8494,41.0078],[117.864,40.9948],[117.8655,40.9517],[117.8789,40.9387],[117.8902,40.9133],[117.8928,40.8832],[117.864,40.8842],[117.8471,40.8786],[117.8417,40.8558],[117.8705,40.8349]]]},"properties":{"region_code":"CN-13-1308-130802","parent_region_code":"CN-13-1308","name":"双桥区","level":"county","has_children":false,"full_path":"中国 / 河北省 / 承德市 / 双桥区","source_admin_code":"130802","osm_relation_id":2989034}},
{"type":"Feature","geometry":{"type":"Polygon","coordinates":[[[117.8567,41.0881],[117.8506,41.1271],[117.8364,41.1372],[117.8276,41.16],[117.8452,41.1732],[117.8197,41.1962],[117.7923,41.1949],[117.7677,41.2023],[117.7733,41.1581],[117.7623,41.1381],[117.7607,41.1023],[117.769,41.0586],[117.7482,41.0425],[117.7305,41.04],[117.7213,41.0275],[117.6929,41.0152],[117.686,40.9972],[117.6712,40.9899],[117.671,40.9706],[117.6479,40.9474],[117.6334,40.9447],[117.6291,40.927],[117.6457,40.9065],[117.6678,40.8991],[117.6871,40.9028],[117.7202,40.92],[117.7479,40.9182],[117.7616,40.8955],[117.7417,40.8587],[117.7526,40.8199],[117.7428,40.8032],[117.758,40.8007],[117.8239,40.8064],[117.8592,40.8151],[117.8705,40.8349],[117.8417,40.8558],[117.8471,40.8786],[117.864,40.8842],[117.8928,40.8832],[117.8902,40.9133],[117.8789,40.9387],[117.8655,40.9517],[117.864,40.9948],[117.8494,41.0078],[117.8473,41.0543],[117.8567,41.0881]]]},"properties":{"region_code":"CN-13-1308-130803","parent_region_code":"CN-13-1308","name":"双滦区","level":"county","has_children":false,"full_path":"中国 / 河北省 / 承德市 / 双滦区","source_admin_code":"130803","osm_relation_id":2989033}},
{"type":"Feature","geometry":{"type":"MultiPolygon","coordinates":[[[[117.7111,40.5136],[117.7357,40.5088],[117.7568,40.5126],[117.7397,40.5514],[117.7164,40.5652],[117.696,40.5505],[117.6798,40.5511],[117.6726,40.5627],[117.6507,40.5719],[117.6241,40.5657],[117.6295,40.5445],[117.6228,40.529],[117.6063,40.5384],[117.5843,40.5279],[117.5981,40.5146],[117.5993,40.5021],[117.645,40.4746],[117.6631,40.4907],[117.6846,40.4895],[117.7111,40.5136]]],[[[117.8466,40.6228],[117.8367,40.6239],[117.8211,40.5975],[117.7911,40.602],[117.7695,40.5777],[117.7878,40.5579],[117.7898,40.5393],[117.8588,40.5489],[117.8848,40.5666],[117.8779,40.5959],[117.8661,40.608],[117.8466,40.6228]]]]},"properties":{"region_code":"CN-13-1308-130804","parent_region_code":"CN-13-1308","name":"鹰手营子矿区","level":"county","has_children":false,"full_path":"中国 / 河北省 / 承德市 / 鹰手营子矿区","source_admin_code":"130804","osm_relation_id":2989000}},
{"type":"Feature","geometry":{"type":"Polygon","coordinates":[[[117.8705,40.8349],[117.8592,40.8151],[117.8239,40.8064],[117.758,40.8007],[117.7428,40.8032],[117.6992,40.7978],[117.6555,40.8204],[117.644,40.8121],[117.6055,40.8159],[117.5963,40.8049],[117.5747,40.7971],[117.5459,40.7999],[117.5053,40.7961],[117.5032,40.7737],[117.4951,40.7554],[117.5174,40.7045],[117.511,40.6782],[117.4992,40.6657],[117.4986,40.6452],[117.527,40.6187],[117.4979,40.5784],[117.5187,40.5737],[117.557,40.5988],[117.6004,40.6084],[117.6338,40.6351],[117.6594,40.6382],[117.6721,40.6177],[117.6992,40.6331],[117.7037,40.6505],[117.7657,40.6772],[117.771,40.6986],[117.8054,40.702],[117.8214,40.7099],[117.8464,40.711],[117.855,40.7028],[117.8624,40.6706],[117.8583,40.6424],[117.8466,40.6228],[117.8661,40.608],[117.8762,40.6138],[117.929,40.6215],[117.9443,40.6311],[117.9835,40.6361],[118.021,40.6571],[118.0348,40.6812],[118.0685,40.6761],[118.0974,40.678],[118.1256,40.6706],[118.1414,40.6536],[118.1775,40.648],[118.1573,40.6312],[118.1634,40.6237],[118.1884,40.6217],[118.2073,40.6099],[118.2403,40.6083],[118.244,40.621],[118.2618,40.6276],[118.2925,40.6275],[118.3171,40.6339],[118.3353,40.6445],[118.3542,40.6746],[118.3798,40.6824],[118.4216,40.7064],[118.4587,40.6998],[118.4799,40.7033],[118.4901,40.7165],[118.5369,40.7624],[118.531,40.7758],[118.5332,40.8126],[118.5512,40.8273],[118.5562,40.8468],[118.5474,40.8746],[118.509,40.8787],[118.4942,40.8936],[118.475,40.8837],[118.4509,40.8854],[118.4442,40.8524],[118.3583,40.8467],[118.3498,40.8566],[118.3604,40.8823],[118.353,40.8927],[118.3558,40.9107],[118.3684,40.9237],[118.3712,40.9479],[118.3819,40.9575],[118.4097,40.9631],[118.3647,40.9827],[118.3726,40.996],[118.3919,41.0612],[118.413,41.0951],[118.4475,41.1062],[118.4679,41.1085],[118.4737,41.1337],[118.4572,41.1445],[118.4398,41.1781],[118.4462,41.1929],[118.437,41.2201],[118.4103,41.2372],[118.437,41.2608],[118.4356,41.2732],[118.411,41.2874],[118.3942,41.307],[118.3705,41.3109],[118.3495,41.3295],[118.3497,41.3634],[118.3601,41.3823],[118.3391,41.3977],[118.3498,41.4219],[118.3364,41.4433],[118.2874,41.4606],[118.2641,41.4656],[118.2435,41.4584],[118.2159,41.456],[118.1687,41.4263],[118.1384,41.4035],[118.1275,41.3723],[118.1102,41.3607],[118.0834,41.3599],[118.0566,41.3722],[118.0466,41.3835],[118.0442,41.411],[118.0302,41.4107],[118.0091,41.395],[118.0033,41.3825],[117.988,41.3784],[117.9848,41.3603],[117.9928,41.3394],[117.9839,41.3217],[117.9884,41.307],[117.9805,41.2822],[117.9952,41.2626],[117.9983,41.2303],[117.9864,41.214],[117.9985,41.1894],[117.9964,41.1759],[117.9688,41.1644],[117.9018,41.1673],[117.8833,41.1732],[117.8452,41.1732],[117.8276,41.16],[117.8364,41.1372],[117.8506,41.1271],[117.8567,41.0881],[117.8901,41.0938],[117.9215,41.0873],[117.934,41.1049],[117.9343,41.127],[117.9555,41.1367],[117.9782,41.1349],[117.9871,41.1183],[118.0278,41.0932],[118.0598,41.0311],[118.0258,41.0194],[118.0186,40.9994],[118.0427,40.9797],[118.0651,40.9519],[118.069,40.925],[118.0581,40.9102],[118.0842,40.9021],[118.0844,40.8789],[118.099,40.8622],[118.1221,40.8601],[118.1255,40.8396],[118.1148,40.8178],[118.0917,40.8157],[118.0684,40.7626],[118.0487,40.749],[117.9979,40.7375],[117.9446,40.7347],[117.9309,40.7257],[117.9102,40.7323],[117.9057,40.7617],[117.914,40.7806],[117.9223,40.8292],[117.9004,40.8419],[117.8847,40.8437],[117.8705,40.8349]]]},"properties":{"region_code":"CN-13-1308-130821","parent_region_code":"CN-13-1308","name":"承德县","level":"county","has_children":false,"full_path":"中国 / 河北省 / 承德市 / 承德县","source_admin_code":"130821","osm_relation_id":2989028}},
{"type":"Feature","geometry":{"type":"Polygon","coordinates":[[[117.8466,40.6228],[117.8583,40.6424],[117.8624,40.6706],[117.855,40.7028],[117.8464,40.711],[117.8214,40.7099],[117.8054,40.702],[117.771,40.6986],[117.7657,40.6772],[117.7037,40.6505],[117.6992,40.6331],[117.6721,40.6177],[117.6594,40.6382],[117.6338,40.6351],[117.6004,40.6084],[117.557,40.5988],[117.5187,40.5737],[117.4979,40.5784],[117.527,40.6187],[117.4986,40.6452],[117.4939,40.6348],[117.4713,40.6338],[117.4553,40.6515],[117.4422,40.6268],[117.4179,40.6203],[117.406,40.6035],[117.415,40.5916],[117.4145,40.5675],[117.3968,40.5727],[117.3826,40.5597],[117.3592,40.5744],[117.3398,40.5804],[117.3053,40.5766],[117.2976,40.569],[117.263,40.5591],[117.2431,40.5468],[117.2577,40.5154],[117.2404,40.5106],[117.2135,40.5129],[117.2021,40.4997],[117.2218,40.4803],[117.2301,40.4552],[117.2569,40.441],[117.2276,40.4158],[117.2341,40.3963],[117.2226,40.3855],[117.2197,40.3677],[117.2359,40.3687],[117.2478,40.3558],[117.2507,40.3402],[117.2649,40.3241],[117.2679,40.3073],[117.2868,40.2954],[117.2888,40.2772],[117.3274,40.2843],[117.3333,40.2448],[117.3455,40.228],[117.3631,40.2321],[117.3801,40.2257],[117.4023,40.231],[117.4127,40.2484],[117.4319,40.2518],[117.4549,40.2472],[117.4979,40.2259],[117.542,40.2315],[117.5655,40.2181],[117.5611,40.2046],[117.5695,40.1915],[117.6038,40.1946],[117.6098,40.206],[117.6385,40.2028],[117.6506,40.215],[117.6809,40.2253],[117.6844,40.2357],[117.7063,40.24],[117.7457,40.2269],[117.7608,40.2448],[117.7749,40.2446],[117.8016,40.2603],[117.8386,40.2594],[117.8558,40.2673],[117.8906,40.2681],[117.9044,40.2858],[117.9375,40.2862],[117.9609,40.2922],[117.9858,40.2908],[118.0353,40.306],[118.0668,40.3251],[118.0659,40.338],[118.086,40.3602],[118.1161,40.3511],[118.1291,40.3751],[118.1603,40.3989],[118.1471,40.4055],[118.1484,40.4196],[118.1855,40.4301],[118.1992,40.4413],[118.1796,40.4631],[118.1858,40.4731],[118.1848,40.5],[118.1935,40.5096],[118.2433,40.5216],[118.2526,40.532],[118.2299,40.5503],[118.2342,40.5607],[118.2146,40.5853],[118.243,40.5945],[118.2403,40.6083],[118.2073,40.6099],[118.1884,40.6217],[118.1634,40.6237],[118.1573,40.6312],[118.1775,40.648],[118.1414,40.6536],[118.1256,40.6706],[118.0974,40.678],[118.0685,40.6761],[118.0348,40.6812],[118.021,40.6571],[117.9835,40.6361],[117.9443,40.6311],[117.929,40.6215],[117.8762,40.6138],[117.8661,40.608],[117.8779,40.5959],[117.8848,40.5666],[117.8588,40.5489],[117.7898,40.5393],[117.7878,40.5579],[117.7695,40.5777],[117.7911,40.602],[117.8211,40.5975],[117.8367,40.6239],[117.8466,40.6228]],[[117.7111,40.5136],[117.6846,40.4895],[117.6631,40.4907],[117.645,40.4746],[117.5993,40.5021],[117.5981,40.5146],[117.5843,40.5279],[117.6063,40.5384],[117.6228,40.529],[117.6295,40.5445],[117.6241,40.5657],[117.6507,40.5719],[117.6726,40.5627],[117.6798,40.5511],[117.696,40.5505],[117.7164,40.5652],[117.7397,40.5514],[117.7568,40.5126],[117.7357,40.5088],[117.7111,40.5136]]]},"properties":{"region_code":"CN-13-1308-130822","parent_region_code":"CN-13-1308","name":"兴隆县","level":"county","has_children":false,"full_path":"中国 / 河北省 / 承德市 / 兴隆县","source_admin_code":"130822","osm_relation_id":2988999}},
{"type":"Feature","geometry":{"type":"Polygon","coordinates":[[[117.7677,41.2023],[117.7514,41.2118],[117.7318,41.2095],[117.704,41.1835],[117.6572,41.1887],[117.6312,41.1836],[117.6113,41.1861],[117.5997,41.1978],[117.5782,41.1997],[117.5444,41.1808],[117.5414,41.2051],[117.5083,41.2207],[117.4943,41.234],[117.4928,41.2496],[117.4563,41.2634],[117.44,41.2571],[117.4237,41.2282],[117.4086,41.2148],[117.3917,41.1853],[117.3846,41.1438],[117.393,41.1327],[117.3869,41.1168],[117.3821,41.0783],[117.3574,41.0719],[117.3144,41.0399],[117.2749,41.0432],[117.2484,41.0547],[117.2123,41.0447],[117.2037,41.0255],[117.1849,41.0064],[117.1539,40.9924],[117.1542,40.9668],[117.1332,40.9535],[117.1165,40.9334],[117.0865,40.9198],[117.0565,40.9186],[117.0133,40.9358],[116.971,40.9377],[116.9352,40.9305],[116.8587,40.9599],[116.8161,40.9497],[116.798,40.9518],[116.786,40.965],[116.7569,40.9821],[116.739,40.9993],[116.7202,40.9996],[116.6927,41.0196],[116.677,40.9989],[116.6718,40.9694],[116.6967,40.9349],[116.7149,40.9248],[116.7072,40.9116],[116.7239,40.8964],[116.7533,40.8883],[116.791,40.8585],[116.7989,40.8392],[116.8175,40.8411],[116.8504,40.8336],[116.8907,40.7951],[116.891,40.7764],[116.9173,40.7724],[116.9205,40.7436],[116.9542,40.7196],[116.959,40.7082],[116.9992,40.6934],[117.038,40.6988],[117.0702,40.6984],[117.104,40.7066],[117.1111,40.6984],[117.1529,40.6947],[117.1627,40.6975],[117.2019,40.6929],[117.2352,40.6752],[117.2549,40.6797],[117.2797,40.6595],[117.3146,40.6568],[117.3358,40.6719],[117.3531,40.6723],[117.4025,40.6856],[117.4306,40.682],[117.4585,40.672],[117.4867,40.6738],[117.4992,40.6657],[117.511,40.6782],[117.5174,40.7045],[117.4951,40.7554],[117.5032,40.7737],[117.5053,40.7961],[117.5459,40.7999],[117.5747,40.7971],[117.5963,40.8049],[117.6055,40.8159],[117.644,40.8121],[117.6555,40.8204],[117.6992,40.7978],[117.7428,40.8032],[117.7526,40.8199],[117.7417,40.8587],[117.7616,40.8955],[117.7479,40.9182],[117.7202,40.92],[117.6871,40.9028],[117.6678,40.8991],[117.6457,40.9065],[117.6291,40.927],[117.6334,40.9447],[117.6479,40.9474],[117.671,40.9706],[117.6712,40.9899],[117.686,40.9972],[117.6929,41.0152],[117.7213,41.0275],[117.7305,41.04],[117.7482,41.0425],[117.769,41.0586],[117.7607,41.1023],[117.7623,41.1381],[117.7733,41.1581],[117.7677,41.2023]]]},"properties":{"region_code":"CN-13-1308-130824","parent_region_code":"CN-13-1308","name":"滦平县","level":"county","has_children":false,"full_path":"中国 / 河北省 / 承德市 / 滦平县","source_admin_code":"130824","osm_relation_id":2989032}},
{"type":"Feature","geometry":{"type":"Polygon","coordinates":[[[117.8452,41.1732],[117.8833,41.1732],[117.9018,41.1673],[117.9688,41.1644],[117.9964,41.1759],[117.9985,41.1894],[117.9864,41.214],[117.9983,41.2303],[117.9952,41.2626],[117.9805,41.2822],[117.9884,41.307],[117.9839,41.3217],[117.9928,41.3394],[117.9848,41.3603],[117.988,41.3784],[118.0033,41.3825],[118.0091,41.395],[118.0302,41.4107],[118.0442,41.411],[118.0466,41.3835],[118.0566,41.3722],[118.0834,41.3599],[118.1102,41.3607],[118.1275,41.3723],[118.1384,41.4035],[118.1687,41.4263],[118.2159,41.456],[118.2435,41.4584],[118.2641,41.4656],[118.2754,41.4794],[118.2999,41.4846],[118.3093,41.5104],[118.2966,41.5444],[118.3057,41.5644],[118.2752,41.5624],[118.2196,41.5829],[118.2035,41.6085],[118.2075,41.64],[118.1667,41.6757],[118.1542,41.6782],[118.1329,41.6467],[118.1,41.6479],[118.0804,41.623],[118.0766,41.5941],[118.0487,41.593],[118.037,41.6226],[118.0566,41.6664],[118.0446,41.677],[118.0079,41.6769],[117.9808,41.6924],[117.9559,41.689],[117.9212,41.6933],[117.8832,41.6842],[117.8622,41.6923],[117.8333,41.7104],[117.7869,41.706],[117.7561,41.7129],[117.7416,41.6904],[117.6851,41.6835],[117.6561,41.6861],[117.6425,41.6973],[117.6381,41.7288],[117.6241,41.738],[117.5984,41.7315],[117.5698,41.75],[117.5304,41.7591],[117.5232,41.7848],[117.4991,41.7792],[117.4645,41.7793],[117.4562,41.7934],[117.4276,41.8141],[117.4156,41.8292],[117.3822,41.8361],[117.337,41.8336],[117.2939,41.8271],[117.2646,41.8293],[117.2313,41.8158],[117.2054,41.7919],[117.1859,41.7879],[117.1714,41.7767],[117.1437,41.7802],[117.1199,41.7649],[117.0928,41.7579],[117.0853,41.6918],[117.0721,41.6899],[117.0542,41.7033],[117.0482,41.734],[117.0256,41.7346],[117.0136,41.752],[116.9797,41.7729],[116.9569,41.7786],[116.9492,41.8043],[116.9147,41.7987],[116.8955,41.8006],[116.8658,41.8119],[116.8144,41.8231],[116.8152,41.8102],[116.8342,41.7991],[116.846,41.7729],[116.8416,41.7599],[116.8483,41.7182],[116.8484,41.6908],[116.8658,41.6693],[116.8915,41.6524],[116.8901,41.6367],[116.868,41.6219],[116.8709,41.5952],[116.8358,41.5756],[116.7975,41.5712],[116.7977,41.5564],[116.8654,41.5358],[116.8746,41.5279],[116.8757,41.4941],[116.9034,41.5021],[116.9655,41.4811],[117.0067,41.4914],[117.0281,41.5052],[117.058,41.496],[117.0995,41.4977],[117.1235,41.4774],[117.1519,41.4622],[117.1652,41.4398],[117.1813,41.424],[117.2248,41.4048],[117.2252,41.3978],[117.2522,41.3792],[117.2561,41.3615],[117.2703,41.3432],[117.2673,41.3277],[117.289,41.3138],[117.2876,41.2921],[117.3174,41.2688],[117.3011,41.2299],[117.3046,41.2165],[117.3287,41.179],[117.3667,41.151],[117.3846,41.1438],[117.3917,41.1853],[117.4086,41.2148],[117.4237,41.2282],[117.44,41.2571],[117.4563,41.2634],[117.4928,41.2496],[117.4943,41.234],[117.5083,41.2207],[117.5414,41.2051],[117.5444,41.1808],[117.5782,41.1997],[117.5997,41.1978],[117.6113,41.1861],[117.6312,41.1836],[117.6572,41.1887],[117.704,41.1835],[117.7318,41.2095],[117.7514,41.2118],[117.7677,41.2023],[117.7923,41.1949],[117.8197,41.1962],[117.8452,41.1732]]]},"properties":{"region_code":"CN-13-1308-130825","parent_region_code":"CN-13-1308","name":"隆化县","level":"county","has_children":false,"full_path":"中国 / 河北省 / 承德市 / 隆化县","source_admin_code":"130825","osm_relation_id":2989031}},
{"type":"Feature","geometry":{"type":"Polygon","coordinates":[[[117.3846,41.1438],[117.3667,41.151],[117.3287,41.179],[117.3046,41.2165],[117.3011,41.2299],[117.3174,41.2688],[117.2876,41.2921],[117.289,41.3138],[117.2673,41.3277],[117.2703,41.3432],[117.2561,41.3615],[117.2522,41.3792],[117.2252,41.3978],[117.2248,41.4048],[117.1813,41.424],[117.1652,41.4398],[117.1519,41.4622],[117.1235,41.4774],[117.0995,41.4977],[117.058,41.496],[117.0281,41.5052],[117.0067,41.4914],[116.9655,41.4811],[116.9034,41.5021],[116.8757,41.4941],[116.8746,41.5279],[116.8654,41.5358],[116.7977,41.5564],[116.7975,41.5712],[116.8358,41.5756],[116.8709,41.5952],[116.868,41.6219],[116.8901,41.6367],[116.8915,41.6524],[116.8658,41.6693],[116.8484,41.6908],[116.8483,41.7182],[116.8416,41.7599],[116.846,41.7729],[116.8342,41.7991],[116.8152,41.8102],[116.8144,41.8231],[116.7975,41.8408],[116.795,41.8811],[116.753,41.9079],[116.7243,41.9167],[116.7236,41.9282],[116.709,41.9412],[116.688,41.9417],[116.6648,41.9458],[116.6439,41.9402],[116.6348,41.9286],[116.5861,41.9243],[116.5498,41.9291],[116.5276,41.937],[116.5001,41.9748],[116.4771,41.9705],[116.4474,41.9437],[116.4183,41.9363],[116.3903,41.9396],[116.3802,41.9501],[116.4047,41.9696],[116.4026,41.9917],[116.3672,42.0077],[116.3208,42.0035],[116.3039,41.995],[116.2886,41.963],[116.2355,41.9411],[116.205,41.9047],[116.2048,41.8795],[116.1887,41.8604],[116.1653,41.8714],[116.1355,41.8462],[116.0995,41.834],[116.1006,41.7897],[116.0778,41.7794],[116.0498,41.7315],[116.008,41.7133],[115.9666,41.6781],[115.9301,41.6544],[115.9039,41.6415],[115.9235,41.5942],[115.918,41.567],[115.9666,41.5423],[115.9832,41.4809],[115.9773,41.4693],[115.9981,41.4616],[115.9901,41.4442],[116.0039,41.4291],[116.0288,41.4191],[116.0246,41.4048],[116.035,41.3911],[116.0714,41.3855],[116.0956,41.3695],[116.1419,41.3679],[116.169,41.3547],[116.2036,41.3195],[116.1926,41.3005],[116.1869,41.2759],[116.1919,41.2563],[116.2281,41.1975],[116.2154,41.1761],[116.2397,41.1617],[116.233,41.1215],[116.2626,41.1007],[116.2709,41.0805],[116.2857,41.069],[116.2588,41.0364],[116.2661,41.021],[116.2876,41.0055],[116.2883,40.987],[116.3073,40.9803],[116.3393,40.9794],[116.3409,40.9646],[116.37,40.9379],[116.3924,40.9042],[116.4078,40.898],[116.4713,40.9001],[116.4673,40.918],[116.4477,40.948],[116.4492,40.9787],[116.5107,40.9737],[116.536,40.9887],[116.5632,40.9901],[116.5918,40.9733],[116.6086,40.9818],[116.616,41.0142],[116.6076,41.0392],[116.6247,41.0591],[116.6414,41.0578],[116.6592,41.0451],[116.6825,41.043],[116.6927,41.0196],[116.7202,40.9996],[116.739,40.9993],[116.7569,40.9821],[116.786,40.965],[116.798,40.9518],[116.8161,40.9497],[116.8587,40.9599],[116.9352,40.9305],[116.971,40.9377],[117.0133,40.9358],[117.0565,40.9186],[117.0865,40.9198],[117.1165,40.9334],[117.1332,40.9535],[117.1542,40.9668],[117.1539,40.9924],[117.1849,41.0064],[117.2037,41.0255],[117.2123,41.0447],[117.2484,41.0547],[117.2749,41.0432],[117.3144,41.0399],[117.3574,41.0719],[117.3821,41.0783],[117.3869,41.1168],[117.393,41.1327],[117.3846,41.1438]]]},"properties":{"region_code":"CN-13-1308-130826","parent_region_code":"CN-13-1308","name":"丰宁满族自治县","level":"county","has_children":false,"full_path":"中国 / 河北省 / 承德市 / 丰宁满族自治县","source_admin_code":"130826","osm_relation_id":2989029}},
{"type":"Feature","geometry":{"type":"Polygon","coordinates":[[[118.2403,40.6083],[118.243,40.5945],[118.2146,40.5853],[118.2342,40.5607],[118.2299,40.5503],[118.2526,40.532],[118.2433,40.5216],[118.1935,40.5096],[118.1848,40.5],[118.1858,40.4731],[118.1796,40.4631],[118.1992,40.4413],[118.2315,40.453],[118.2546,40.455],[118.2563,40.4395],[118.2718,40.4239],[118.3021,40.4164],[118.3211,40.4264],[118.3537,40.4273],[118.3857,40.4344],[118.4008,40.4134],[118.4951,40.4007],[118.5191,40.404],[118.5479,40.4155],[118.5611,40.4005],[118.5446,40.3836],[118.5548,40.3707],[118.5331,40.359],[118.5321,40.322],[118.5268,40.2978],[118.5631,40.2851],[118.5775,40.3081],[118.5916,40.3074],[118.5999,40.3256],[118.6146,40.3316],[118.6454,40.3701],[118.6332,40.3813],[118.6122,40.4326],[118.6516,40.4493],[118.6646,40.4654],[118.696,40.4904],[118.7166,40.4725],[118.7486,40.4791],[118.7677,40.4786],[118.7834,40.4941],[118.7894,40.51],[118.8158,40.5309],[118.857,40.5262],[118.8671,40.5347],[118.8923,40.5391],[118.9202,40.5292],[118.9594,40.5352],[118.955,40.5579],[118.9741,40.5601],[118.9794,40.5719],[119.007,40.5761],[119.0592,40.6046],[119.0826,40.5873],[119.0991,40.6022],[119.1351,40.6061],[119.1475,40.6191],[119.1381,40.6319],[119.15,40.6456],[119.1938,40.6714],[119.1578,40.6933],[119.1028,40.6629],[119.0785,40.6744],[119.0484,40.6631],[119.0443,40.6771],[119.0211,40.6906],[119.0065,40.6857],[118.955,40.7191],[118.9433,40.7462],[118.9023,40.755],[118.89,40.7523],[118.8532,40.7298],[118.8189,40.7214],[118.7801,40.6896],[118.7505,40.6891],[118.731,40.7103],[118.7264,40.7237],[118.6389,40.7346],[118.6284,40.7178],[118.5978,40.7152],[118.5654,40.6984],[118.5489,40.6969],[118.5402,40.6739],[118.5149,40.6874],[118.491,40.6901],[118.4799,40.7033],[118.4587,40.6998],[118.4216,40.7064],[118.3798,40.6824],[118.3542,40.6746],[118.3353,40.6445],[118.3171,40.6339],[118.2925,40.6275],[118.2618,40.6276],[118.244,40.621],[118.2403,40.6083]]]},"properties":{"region_code":"CN-13-1308-130827","parent_region_code":"CN-13-1308","name":"宽城满族自治县","level":"county","has_children":false,"full_path":"中国 / 河北省 / 承德市 / 宽城满族自治县","source_admin_code":"130827","osm_relation_id":2145043}},
{"type":"Feature","geometry":{"type":"Polygon","coordinates":[[[118.1542,41.6782],[118.1457,41.7167],[118.129,41.7267],[118.1239,41.74],[118.138,41.794],[118.1735,41.8114],[118.2126,41.8132],[118.2292,41.8053],[118.2364,41.777],[118.2516,41.7618],[118.2693,41.759],[118.2858,41.7707],[118.3107,41.8263],[118.3289,41.8428],[118.333,41.8696],[118.2985,41.8921],[118.2844,41.9064],[118.2561,41.9184],[118.2597,41.9279],[118.3005,41.9379],[118.2924,41.9473],[118.3002,41.9776],[118.2799,42.0058],[118.2354,42.0094],[118.2371,42.0165],[118.2771,42.0249],[118.2915,42.0496],[118.2623,42.083],[118.2328,42.0907],[118.206,42.079],[118.2137,42.0564],[118.2063,42.0393],[118.1933,42.0309],[118.1255,42.0293],[118.1085,42.0436],[118.1333,42.0526],[118.1586,42.0833],[118.0958,42.1016],[118.0817,42.1173],[118.1015,42.1613],[118.0869,42.18],[118.0513,42.1875],[118.0269,42.197],[118.0102,42.2133],[117.9708,42.227],[117.9643,42.2465],[118.0175,42.2646],[118.0468,42.2844],[118.0532,42.296],[118.0226,42.3157],[118.0013,42.3519],[118.0175,42.3752],[118.0127,42.393],[117.9921,42.414],[117.9579,42.4352],[117.9341,42.4604],[117.8697,42.5062],[117.8573,42.5271],[117.8261,42.5604],[117.791,42.5829],[117.7856,42.5963],[117.7945,42.6098],[117.7739,42.6165],[117.6813,42.5803],[117.6593,42.5793],[117.6376,42.5886],[117.6042,42.5905],[117.5938,42.6011],[117.5338,42.6039],[117.5216,42.5888],[117.4681,42.6004],[117.4554,42.597],[117.4269,42.5537],[117.3902,42.5344],[117.3855,42.5189],[117.41,42.5101],[117.4066,42.4698],[117.3841,42.4601],[117.3253,42.4593],[117.2689,42.4801],[117.2554,42.4732],[117.2078,42.4734],[117.1958,42.4656],[117.1696,42.4637],[117.1102,42.4709],[117.0895,42.4822],[117.0735,42.4644],[117.0559,42.4554],[117.0091,42.4535],[116.99,42.4235],[116.9603,42.425],[116.9204,42.4029],[116.8933,42.3816],[116.8801,42.3642],[116.8834,42.333],[116.9049,42.2822],[116.9049,42.2457],[116.9121,42.2275],[116.9042,42.1902],[116.8525,42.1952],[116.7828,42.198],[116.8195,42.1531],[116.8439,42.154],[116.8586,42.1222],[116.8778,42.1085],[116.8843,42.0761],[116.8739,42.0475],[116.8728,42.0164],[116.8626,42.0015],[116.8329,42.0037],[116.8192,41.9981],[116.8078,41.9799],[116.7907,41.9759],[116.7595,41.9882],[116.7358,41.9783],[116.7183,41.9504],[116.688,41.9417],[116.709,41.9412],[116.7236,41.9282],[116.7243,41.9167],[116.753,41.9079],[116.795,41.8811],[116.7975,41.8408],[116.8144,41.8231],[116.8658,41.8119],[116.8955,41.8006],[116.9147,41.7987],[116.9492,41.8043],[116.9569,41.7786],[116.9797,41.7729],[117.0136,41.752],[117.0256,41.7346],[117.0482,41.734],[117.0542,41.7033],[117.0721,41.6899],[117.0853,41.6918],[117.0928,41.7579],[117.1199,41.7649],[117.1437,41.7802],[117.1714,41.7767],[117.1859,41.7879],[117.2054,41.7919],[117.2313,41.8158],[117.2646,41.8293],[117.2939,41.8271],[117.337,41.8336],[117.3822,41.8361],[117.4156,41.8292],[117.4276,41.8141],[117.4562,41.7934],[117.4645,41.7793],[117.4991,41.7792],[117.5232,41.7848],[117.5304,41.7591],[117.5698,41.75],[117.5984,41.7315],[117.6241,41.738],[117.6381,41.7288],[117.6425,41.6973],[117.6561,41.6861],[117.6851,41.6835],[117.7416,41.6904],[117.7561,41.7129],[117.7869,41.706],[117.8333,41.7104],[117.8622,41.6923],[117.8832,41.6842],[117.9212,41.6933],[117.9559,41.689],[117.9808,41.6924],[118.0079,41.6769],[118.0446,41.677],[118.0566,41.6664],[118.037,41.6226],[118.0487,41.593],[118.0766,41.5941],[118.0804,41.623],[118.1,41.6479],[118.1329,41.6467],[118.1542,41.6782]]]},"properties":{"region_code":"CN-13-1308-130828","parent_region_code":"CN-13-1308","name":"围场满族蒙古族自治县","level":"county","has_children":false,"full_path":"中国 / 河北省 / 承德市 / 围场满族蒙古族自治县","source_admin_code":"130828","osm_relation_id":2989030}},
{"type":"Feature","geometry":{"type":"Polygon","coordinates":[[[118.4799,40.7033],[118.491,40.6901],[118.5149,40.6874],[118.5402,40.6739],[118.5489,40.6969],[118.5654,40.6984],[118.5978,40.7152],[118.6284,40.7178],[118.6389,40.7346],[118.7264,40.7237],[118.731,40.7103],[118.7505,40.6891],[118.7801,40.6896],[118.8189,40.7214],[118.8532,40.7298],[118.89,40.7523],[118.9022,40.7701],[118.8733,40.7805],[118.8399,40.8208],[118.8523,40.8399],[118.8671,40.8468],[118.8757,40.8614],[118.8848,40.8999],[118.88,40.9227],[118.8878,40.9291],[118.8961,40.9601],[118.9136,40.9657],[118.9494,40.9561],[118.9944,40.9654],[118.9988,40.983],[119.0141,40.9961],[119.0072,41.0058],[118.9459,41.0168],[118.9296,41.0359],[118.9306,41.0511],[118.9584,41.0772],[119.0278,41.0636],[119.0398,41.0776],[119.0548,41.0757],[119.074,41.093],[119.0747,41.1294],[119.0963,41.1368],[119.1199,41.1366],[119.1523,41.167],[119.1734,41.178],[119.1825,41.1962],[119.1563,41.2144],[119.1643,41.2213],[119.1979,41.2204],[119.2038,41.2426],[119.2277,41.2561],[119.2421,41.2742],[119.2331,41.3125],[119.2083,41.3031],[119.1943,41.2803],[119.1536,41.296],[119.1065,41.2954],[119.0812,41.2919],[119.0672,41.2969],[119.0469,41.2927],[119.0076,41.3039],[118.9466,41.3133],[118.9286,41.3028],[118.8925,41.2982],[118.8662,41.3027],[118.8502,41.3347],[118.8341,41.3534],[118.8376,41.3726],[118.7637,41.351],[118.7487,41.3234],[118.7103,41.3283],[118.6611,41.3531],[118.6409,41.3459],[118.5994,41.347],[118.5799,41.3522],[118.5453,41.3519],[118.5201,41.3563],[118.5097,41.344],[118.478,41.3469],[118.4457,41.3374],[118.4097,41.3332],[118.4103,41.322],[118.3942,41.307],[118.411,41.2874],[118.4356,41.2732],[118.437,41.2608],[118.4103,41.2372],[118.437,41.2201],[118.4462,41.1929],[118.4398,41.1781],[118.4572,41.1445],[118.4737,41.1337],[118.4679,41.1085],[118.4475,41.1062],[118.413,41.0951],[118.3919,41.0612],[118.3726,40.996],[118.3647,40.9827],[118.4097,40.9631],[118.3819,40.9575],[118.3712,40.9479],[118.3684,40.9237],[118.3558,40.9107],[118.353,40.8927],[118.3604,40.8823],[118.3498,40.8566],[118.3583,40.8467],[118.4442,40.8524],[118.4509,40.8854],[118.475,40.8837],[118.4942,40.8936],[118.509,40.8787],[118.5474,40.8746],[118.5562,40.8468],[118.5512,40.8273],[118.5332,40.8126],[118.531,40.7758],[118.5369,40.7624],[118.4901,40.7165],[118.4799,40.7033]]]},"properties":{"region_code":"CN-13-1308-130881","parent_region_code":"CN-13-1308","name":"平泉市","level":"county","has_children":false,"full_path":"中国 / 河北省 / 承德市 / 平泉市","source_admin_code":"130881","osm_relation_id":2144973}}
]}