{"type":"FeatureCollection", "features": [
{"type":"Feature","geometry":{"type":"Polygon","coordinates":[[[112.8284,35.4764],[112.8098,35.4684],[112.8081,35.4557],[112.8316,35.441],[112.8404,35.4266],[112.8615,35.4473],[112.8865,35.43],[112.8855,35.4612],[112.8968,35.4841],[112.8849,35.4892],[112.8853,35.505],[112.8754,35.5117],[112.8748,35.5225],[112.8995,35.5182],[112.9073,35.5223],[112.9172,35.5471],[112.917,35.5608],[112.9009,35.567],[112.9002,35.5767],[112.8747,35.5903],[112.8614,35.5813],[112.8416,35.5817],[112.8375,35.5684],[112.8287,35.5588],[112.812,35.552],[112.7966,35.5522],[112.7849,35.5607],[112.7705,35.5607],[112.7711,35.5484],[112.754,35.5355],[112.7497,35.5209],[112.7607,35.5008],[112.7878,35.5024],[112.8018,35.4828],[112.8189,35.4866],[112.8284,35.4764]]]},"properties":{"region_code":"CN-14-1405-140502","parent_region_code":"CN-14-1405","name":"城区","level":"county","has_children":false,"full_path":"中国 / 山西省 / 晋城市 / 城区","source_admin_code":"140502","osm_relation_id":3237067}},
{"type":"Feature","geometry":{"type":"Polygon","coordinates":[[[112.7727,35.9856],[112.7331,35.9945],[112.7155,36.0119],[112.7082,36.0147],[112.6815,36.0051],[112.6569,36.0311],[112.652,36.0438],[112.6102,36.0664],[112.5962,36.0515],[112.586,36.0545],[112.5698,36.0456],[112.5422,36.0453],[112.5241,36.0384],[112.5176,36.0183],[112.5208,36.0002],[112.5307,35.9742],[112.5171,35.9638],[112.4887,35.9569],[112.4844,35.9495],[112.4517,35.9369],[112.4273,35.9243],[112.4218,35.9129],[112.408,35.9088],[112.4011,35.9002],[112.379,35.895],[112.3391,35.9012],[112.3126,35.8963],[112.2844,35.8965],[112.2795,35.905],[112.2569,35.905],[112.2428,35.8987],[112.2243,35.9061],[112.1978,35.9067],[112.1825,35.9174],[112.149,35.9069],[112.1365,35.91],[112.1357,35.8972],[112.1455,35.8953],[112.1495,35.8764],[112.1671,35.8782],[112.1857,35.8653],[112.1945,35.8655],[112.2182,35.8381],[112.2164,35.828],[112.1826,35.8142],[112.1578,35.8212],[112.1393,35.8209],[112.1263,35.8293],[112.1041,35.833],[112.0942,35.8383],[112.0799,35.8356],[112.0589,35.8438],[112.0475,35.8577],[112.0322,35.8635],[112.0359,35.8416],[112.0322,35.8274],[112.0235,35.8159],[112.0535,35.7846],[112.0507,35.7688],[112.0202,35.7542],[112.0151,35.7376],[112.0266,35.7276],[112.0248,35.7082],[112.0168,35.6899],[111.988,35.6799],[111.9856,35.6666],[111.9645,35.6694],[111.9555,35.654],[111.9527,35.6282],[111.9351,35.6272],[111.9342,35.6078],[111.9407,35.6001],[111.94,35.578],[111.9531,35.5747],[111.9612,35.5617],[111.9492,35.5437],[111.9574,35.529],[111.9565,35.5179],[111.9378,35.5152],[111.9379,35.5081],[111.9603,35.4826],[111.9568,35.4699],[111.9648,35.4487],[111.968,35.4234],[111.9812,35.4165],[111.9917,35.4036],[112.0106,35.3999],[112.0262,35.3884],[112.0511,35.3931],[112.0652,35.4111],[112.0669,35.431],[112.0765,35.4581],[112.0897,35.4804],[112.1081,35.4919],[112.137,35.4951],[112.1581,35.4898],[112.1724,35.4962],[112.1728,35.5134],[112.1803,35.5235],[112.197,35.5312],[112.2232,35.5293],[112.2363,35.5385],[112.2065,35.5775],[112.2048,35.6024],[112.2005,35.6173],[112.1883,35.6311],[112.1842,35.6419],[112.1892,35.6515],[112.2032,35.6585],[112.2433,35.6443],[112.261,35.6464],[112.2719,35.6529],[112.2824,35.6745],[112.3119,35.6842],[112.3518,35.6842],[112.3739,35.6774],[112.4014,35.678],[112.4183,35.6733],[112.4341,35.6575],[112.4407,35.6422],[112.4482,35.6093],[112.4606,35.6023],[112.4546,35.5782],[112.4656,35.5627],[112.49,35.5683],[112.5004,35.5662],[112.512,35.5542],[112.5221,35.5526],[112.5432,35.5611],[112.5924,35.5595],[112.5911,35.545],[112.5955,35.5308],[112.6104,35.5329],[112.6145,35.5579],[112.6314,35.5639],[112.6303,35.588],[112.6527,35.5967],[112.6457,35.6138],[112.6437,35.6477],[112.6582,35.6699],[112.6604,35.6866],[112.6671,35.7017],[112.7023,35.7132],[112.7149,35.714],[112.7259,35.724],[112.7264,35.7339],[112.712,35.7533],[112.7246,35.7751],[112.7142,35.7968],[112.7231,35.8098],[112.7403,35.8252],[112.7473,35.8392],[112.7735,35.8662],[112.7751,35.8815],[112.7703,35.9039],[112.7792,35.9367],[112.7798,35.9511],[112.7727,35.9856]]]},"properties":{"region_code":"CN-14-1405-140521","parent_region_code":"CN-14-1405","name":"沁水县","level":"county","has_children":false,"full_path":"中国 / 山西省 / 晋城市 / 沁水县","source_admin_code":"140521","osm_relation_id":3237069}},
{"type":"Feature","geometry":{"type":"Polygon","coordinates":[[[112.0262,35.3884],[112.0146,35.3544],[112.0196,35.3482],[112.0487,35.3414],[112.051,35.3266],[112.0642,35.3103],[112.0569,35.2919],[112.0615,35.2785],[112.0861,35.2809],[112.1115,35.2724],[112.1298,35.272],[112.1725,35.264],[112.1884,35.2572],[112.2093,35.2535],[112.2091,35.2408],[112.2372,35.2363],[112.2617,35.2486],[112.2968,35.2469],[112.2806,35.2208],[112.3608,35.2202],[112.3743,35.2277],[112.3843,35.2394],[112.3997,35.2415],[112.447,35.2264],[112.4588,35.231],[112.477,35.2251],[112.5093,35.2191],[112.528,35.2246],[112.5486,35.2137],[112.5624,35.2194],[112.5883,35.2242],[112.6155,35.2211],[112.6204,35.2304],[112.6312,35.2311],[112.6346,35.2405],[112.6134,35.2464],[112.6076,35.2539],[112.6127,35.2712],[112.6051,35.2802],[112.616,35.294],[112.6084,35.3095],[112.5939,35.3227],[112.5919,35.349],[112.581,35.3486],[112.5749,35.3691],[112.5567,35.3873],[112.5727,35.3871],[112.5719,35.403],[112.5977,35.3975],[112.607,35.3997],[112.6036,35.4187],[112.6134,35.4365],[112.6228,35.4418],[112.6107,35.4508],[112.6009,35.466],[112.6097,35.4929],[112.6104,35.5329],[112.5955,35.5308],[112.5911,35.545],[112.5924,35.5595],[112.5432,35.5611],[112.5221,35.5526],[112.512,35.5542],[112.5004,35.5662],[112.49,35.5683],[112.4656,35.5627],[112.4546,35.5782],[112.4606,35.6023],[112.4482,35.6093],[112.4407,35.6422],[112.4341,35.6575],[112.4183,35.6733],[112.4014,35.678],[112.3739,35.6774],[112.3518,35.6842],[112.3119,35.6842],[112.2824,35.6745],[112.2719,35.6529],[112.261,35.6464],[112.2433,35.6443],[112.2032,35.6585],[112.1892,35.6515],[112.1842,35.6419],[112.1883,35.6311],[112.2005,35.6173],[112.2048,35.6024],[112.2065,35.5775],[112.2363,35.5385],[112.2232,35.5293],[112.197,35.5312],[112.1803,35.5235],[112.1728,35.5134],[112.1724,35.4962],[112.1581,35.4898],[112.137,35.4951],[112.1081,35.4919],[112.0897,35.4804],[112.0765,35.4581],[112.0669,35.431],[112.0652,35.4111],[112.0511,35.3931],[112.0262,35.3884]]]},"properties":{"region_code":"CN-14-1405-140522","parent_region_code":"CN-14-1405","name":"阳城县","level":"county","has_children":false,"full_path":"中国 / 山西省 / 晋城市 / 阳城县","source_admin_code":"140522","osm_relation_id":3237070}},
{"type":"Feature","geometry":{"type":"Polygon","coordinates":[[[113.2298,35.4538],[113.2587,35.4361],[113.2762,35.4353],[113.296,35.4263],[113.2924,35.448],[113.3018,35.4607],[113.2883,35.4653],[113.2968,35.4773],[113.3124,35.479],[113.3195,35.4698],[113.3386,35.4688],[113.3513,35.4796],[113.3639,35.48],[113.3806,35.504],[113.3958,35.5073],[113.4104,35.5167],[113.4302,35.5081],[113.4794,35.5212],[113.501,35.5165],[113.503,35.5235],[113.4922,35.5328],[113.5031,35.5565],[113.4971,35.5731],[113.5114,35.58],[113.5229,35.5935],[113.5368,35.5968],[113.5387,35.6145],[113.5494,35.6266],[113.5435,35.6438],[113.5671,35.6484],[113.5705,35.6321],[113.5814,35.634],[113.6189,35.6328],[113.6195,35.6554],[113.612,35.6632],[113.6171,35.676],[113.6084,35.6861],[113.5988,35.6852],[113.5951,35.699],[113.5979,35.7185],[113.5862,35.7342],[113.5822,35.7489],[113.5979,35.7604],[113.5984,35.7762],[113.593,35.7896],[113.605,35.8],[113.5836,35.817],[113.5869,35.824],[113.5596,35.8298],[113.52,35.8535],[113.4898,35.8525],[113.4685,35.8622],[113.4487,35.8645],[113.4249,35.8576],[113.421,35.8448],[113.4111,35.8336],[113.3955,35.8314],[113.3702,35.8363],[113.3593,35.8464],[113.3607,35.8628],[113.3543,35.8761],[113.3439,35.883],[113.3242,35.8874],[113.3092,35.8834],[113.279,35.8658],[113.257,35.867],[113.2331,35.8923],[113.1976,35.8889],[113.1934,35.8978],[113.1519,35.8803],[113.1428,35.8684],[113.1331,35.8252],[113.1272,35.8193],[113.1004,35.8108],[113.1127,35.771],[113.1473,35.7494],[113.1552,35.732],[113.1394,35.7206],[113.1185,35.7131],[113.1309,35.6838],[113.0869,35.667],[113.0709,35.6658],[113.0566,35.6569],[113.0385,35.6416],[113.0346,35.6336],[113.0422,35.6228],[113.0551,35.6173],[113.0798,35.5875],[113.0882,35.5825],[113.1208,35.5753],[113.1317,35.5689],[113.144,35.5439],[113.174,35.5336],[113.1947,35.505],[113.2124,35.4884],[113.2173,35.4681],[113.2298,35.4538]]]},"properties":{"region_code":"CN-14-1405-140524","parent_region_code":"CN-14-1405","name":"陵川县","level":"county","has_children":false,"full_path":"中国 / 山西省 / 晋城市 / 陵川县","source_admin_code":"140524","osm_relation_id":3236755}},
{"type":"Feature","geometry":{"type":"Polygon","coordinates":[[[112.6104,35.5329],[112.6097,35.4929],[112.6009,35.466],[112.6107,35.4508],[112.6228,35.4418],[112.6134,35.4365],[112.6036,35.4187],[112.607,35.3997],[112.5977,35.3975],[112.5719,35.403],[112.5727,35.3871],[112.5567,35.3873],[112.5749,35.3691],[112.581,35.3486],[112.5919,35.349],[112.5939,35.3227],[112.6084,35.3095],[112.616,35.294],[112.6051,35.2802],[112.6127,35.2712],[112.6076,35.2539],[112.6225,35.2666],[112.646,35.2609],[112.649,35.2437],[112.6676,35.2356],[112.692,35.2202],[112.7051,35.1894],[112.7204,35.2124],[112.7298,35.2125],[112.761,35.2048],[112.7687,35.2101],[112.7795,35.2368],[112.7926,35.2406],[112.816,35.2596],[112.8358,35.257],[112.8619,35.2457],[112.891,35.2495],[112.8995,35.2451],[112.9155,35.2505],[112.9297,35.2644],[112.9297,35.285],[112.9477,35.2874],[112.961,35.2957],[112.9787,35.2893],[112.9868,35.3],[112.9809,35.3116],[112.9792,35.3396],[112.988,35.3466],[112.9901,35.3627],[113.0136,35.3559],[113.0307,35.361],[113.057,35.3508],[113.0641,35.3533],[113.0854,35.3377],[113.0994,35.3371],[113.1145,35.3295],[113.1282,35.3339],[113.1319,35.3472],[113.1404,35.3516],[113.1486,35.3792],[113.163,35.3869],[113.1671,35.3949],[113.1602,35.4109],[113.1821,35.4173],[113.1862,35.433],[113.1856,35.4497],[113.2062,35.4471],[113.2298,35.4538],[113.2173,35.4681],[113.2124,35.4884],[113.1947,35.505],[113.174,35.5336],[113.144,35.5439],[113.1317,35.5689],[113.1208,35.5753],[113.0882,35.5825],[113.0798,35.5875],[113.0551,35.6173],[113.0422,35.6228],[113.0346,35.6336],[113.0385,35.6416],[113.0566,35.6569],[113.0388,35.6725],[113.0195,35.6774],[113.0031,35.696],[112.9978,35.6972],[112.9806,35.6794],[112.9632,35.6718],[112.9336,35.6743],[112.9004,35.6848],[112.8672,35.7038],[112.8596,35.7038],[112.847,35.6883],[112.8301,35.6798],[112.8048,35.6772],[112.7682,35.6818],[112.7468,35.6884],[112.7307,35.7092],[112.7149,35.714],[112.7023,35.7132],[112.6671,35.7017],[112.6604,35.6866],[112.6582,35.6699],[112.6437,35.6477],[112.6457,35.6138],[112.6527,35.5967],[112.6303,35.588],[112.6314,35.5639],[112.6145,35.5579],[112.6104,35.5329]],[[112.8284,35.4764],[112.8189,35.4866],[112.8018,35.4828],[112.7878,35.5024],[112.7607,35.5008],[112.7497,35.5209],[112.754,35.5355],[112.7711,35.5484],[112.7705,35.5607],[112.7849,35.5607],[112.7966,35.5522],[112.812,35.552],[112.8287,35.5588],[112.8375,35.5684],[112.8416,35.5817],[112.8614,35.5813],[112.8747,35.5903],[112.9002,35.5767],[112.9009,35.567],[112.917,35.5608],[112.9172,35.5471],[112.9073,35.5223],[112.8995,35.5182],[112.8748,35.5225],[112.8754,35.5117],[112.8853,35.505],[112.8849,35.4892],[112.8968,35.4841],[112.8855,35.4612],[112.8865,35.43],[112.8615,35.4473],[112.8404,35.4266],[112.8316,35.441],[112.8081,35.4557],[112.8098,35.4684],[112.8284,35.4764]]]},"properties":{"region_code":"CN-14-1405-140525","parent_region_code":"CN-14-1405","name":"泽州县","level":"county","has_children":false,"full_path":"中国 / 山西省 / 晋城市 / 泽州县","source_admin_code":"140525","osm_relation_id":3237071}},
{"type":"Feature","geometry":{"type":"Polygon","coordinates":[[[112.7149,35.714],[112.7307,35.7092],[112.7468,35.6884],[112.7682,35.6818],[112.8048,35.6772],[112.8301,35.6798],[112.847,35.6883],[112.8596,35.7038],[112.8672,35.7038],[112.9004,35.6848],[112.9336,35.6743],[112.9632,35.6718],[112.9806,35.6794],[112.9978,35.6972],[113.0031,35.696],[113.0195,35.6774],[113.0388,35.6725],[113.0566,35.6569],[113.0709,35.6658],[113.0869,35.667],[113.1309,35.6838],[113.1185,35.7131],[113.1394,35.7206],[113.1552,35.732],[113.1473,35.7494],[113.1127,35.771],[113.1004,35.8108],[113.1272,35.8193],[113.1331,35.8252],[113.1428,35.8684],[113.1341,35.8714],[113.116,35.8863],[113.0964,35.8861],[113.0869,35.8923],[113.0709,35.8892],[113.0418,35.894],[113.0404,35.9051],[113.0311,35.9147],[113.0178,35.9142],[113.0006,35.921],[112.9964,35.9354],[112.9712,35.9224],[112.9623,35.9273],[112.9397,35.9215],[112.9318,35.9256],[112.9134,35.9237],[112.8816,35.925],[112.8702,35.9342],[112.8687,35.9521],[112.8756,35.9613],[112.8692,35.9725],[112.8472,35.9814],[112.8229,35.9873],[112.7907,35.9776],[112.7727,35.9856],[112.7798,35.9511],[112.7792,35.9367],[112.7703,35.9039],[112.7751,35.8815],[112.7735,35.8662],[112.7473,35.8392],[112.7403,35.8252],[112.7231,35.8098],[112.7142,35.7968],[112.7246,35.7751],[112.712,35.7533],[112.7264,35.7339],[112.7259,35.724],[112.7149,35.714]]]},"properties":{"region_code":"CN-14-1405-140581","parent_region_code":"CN-14-1405","name":"高平市","level":"county","has_children":false,"full_path":"中国 / 山西省 / 晋城市 / 高平市","source_admin_code":"140581","osm_relation_id":3237068}}
]}