{"type":"FeatureCollection", "features": [
{"type":"Feature","geometry":{"type":"Polygon","coordinates":[[[117.2052,39.1325],[117.188,39.1336],[117.1748,39.136],[117.1729,39.101],[117.1899,39.1012],[117.2163,39.1164],[117.2052,39.1325]]]},"properties":{"region_code":"CN-12-120101","parent_region_code":"CN-12","name":"和平区","level":"county","has_children":false,"full_path":"中国 / 天津市 / 和平区","source_admin_code":"120101","osm_relation_id":3286891}},
{"type":"Feature","geometry":{"type":"MultiPolygon","coordinates":[[[[113.7405,36.5751],[113.7561,36.5748],[113.7563,36.6002],[113.7721,36.6162],[113.7723,36.6257],[113.7831,36.6336],[113.7696,36.6443],[113.7479,36.6433],[113.7512,36.6192],[113.7595,36.617],[113.736,36.5969],[113.7421,36.5893],[113.7405,36.5751]]],[[[117.2163,39.1164],[117.2348,39.0981],[117.2392,39.0877],[117.2599,39.0789],[117.266,39.0894],[117.2933,39.086],[117.3032,39.0997],[117.2692,39.1073],[117.2642,39.1258],[117.2802,39.1308],[117.2737,39.146],[117.2836,39.1562],[117.2711,39.1617],[117.2543,39.158],[117.2438,39.1486],[117.208,39.1472],[117.1977,39.1401],[117.2052,39.1325],[117.2163,39.1164]]]]},"properties":{"region_code":"CN-12-120102","parent_region_code":"CN-12","name":"河东区","level":"county","has_children":false,"full_path":"中国 / 天津市 / 河东区","source_admin_code":"120102","osm_relation_id":3286890}},
{"type":"Feature","geometry":{"type":"Polygon","coordinates":[[[117.1729,39.101],[117.1772,39.0726],[117.1826,39.0659],[117.1976,39.0706],[117.2115,39.055],[117.2115,39.0333],[117.2247,39.0322],[117.261,39.0382],[117.2612,39.0496],[117.2821,39.0589],[117.2796,39.069],[117.2878,39.0763],[117.2599,39.0789],[117.2392,39.0877],[117.2348,39.0981],[117.2163,39.1164],[117.1899,39.1012],[117.1729,39.101]]]},"properties":{"region_code":"CN-12-120103","parent_region_code":"CN-12","name":"河西区","level":"county","has_children":false,"full_path":"中国 / 天津市 / 河西区","source_admin_code":"120103","osm_relation_id":3286892}},
{"type":"Feature","geometry":{"type":"Polygon","coordinates":[[[117.188,39.1336],[117.1882,39.146],[117.1654,39.1454],[117.1533,39.1404],[117.1304,39.1454],[117.1218,39.1511],[117.1043,39.1324],[117.1246,39.1145],[117.1305,39.09],[117.1164,39.0831],[117.1569,39.059],[117.1826,39.0659],[117.1772,39.0726],[117.1729,39.101],[117.1748,39.136],[117.188,39.1336]]]},"properties":{"region_code":"CN-12-120104","parent_region_code":"CN-12","name":"南开区","level":"county","has_children":false,"full_path":"中国 / 天津市 / 南开区","source_admin_code":"120104","osm_relation_id":3286897}},
{"type":"Feature","geometry":{"type":"Polygon","coordinates":[[[117.2052,39.1325],[117.1977,39.1401],[117.208,39.1472],[117.2438,39.1486],[117.2543,39.158],[117.2438,39.1775],[117.2272,39.1919],[117.2163,39.183],[117.2044,39.192],[117.1916,39.1853],[117.186,39.1908],[117.1616,39.1827],[117.1712,39.1807],[117.1697,39.1637],[117.1882,39.146],[117.188,39.1336],[117.2052,39.1325]]]},"properties":{"region_code":"CN-12-120105","parent_region_code":"CN-12","name":"河北区","level":"county","has_children":false,"full_path":"中国 / 天津市 / 河北区","source_admin_code":"120105","osm_relation_id":3286889}},
{"type":"Feature","geometry":{"type":"Polygon","coordinates":[[[117.1882,39.146],[117.1697,39.1637],[117.1712,39.1807],[117.1616,39.1827],[117.1537,39.1891],[117.1294,39.1858],[117.1234,39.1707],[117.1215,39.1638],[117.0933,39.1607],[117.0929,39.155],[117.1218,39.1511],[117.1304,39.1454],[117.1533,39.1404],[117.1654,39.1454],[117.1882,39.146]]]},"properties":{"region_code":"CN-12-120106","parent_region_code":"CN-12","name":"红桥区","level":"county","has_children":false,"full_path":"中国 / 天津市 / 红桥区","source_admin_code":"120106","osm_relation_id":3286893}},
{"type":"Feature","geometry":{"type":"Polygon","coordinates":[[[117.2599,39.0789],[117.2878,39.0763],[117.3053,39.0749],[117.3199,39.0685],[117.33,39.0593],[117.3473,39.0513],[117.3715,39.0522],[117.3838,39.0359],[117.3971,39.0251],[117.417,39.0192],[117.4426,39.0223],[117.4586,39.032],[117.4631,39.0159],[117.477,39.013],[117.4885,39.0156],[117.5031,38.9949],[117.5203,39.0054],[117.518,39.014],[117.5228,39.031],[117.5128,39.0369],[117.521,39.0455],[117.5238,39.0569],[117.5532,39.054],[117.5512,39.0639],[117.5568,39.076],[117.5469,39.078],[117.5459,39.1001],[117.5294,39.1059],[117.4964,39.1071],[117.5028,39.1357],[117.5105,39.151],[117.5339,39.142],[117.5471,39.1472],[117.5528,39.1602],[117.5605,39.1615],[117.5626,39.1762],[117.5314,39.1815],[117.5073,39.1914],[117.4809,39.2112],[117.4812,39.2196],[117.4679,39.2284],[117.4513,39.2269],[117.4461,39.2342],[117.4187,39.2283],[117.4019,39.2292],[117.3944,39.2395],[117.3792,39.2291],[117.3602,39.2326],[117.3266,39.2344],[117.2937,39.2431],[117.2883,39.2391],[117.291,39.2223],[117.2475,39.2068],[117.2272,39.1919],[117.2438,39.1775],[117.2543,39.158],[117.2711,39.1617],[117.2836,39.1562],[117.2737,39.146],[117.2802,39.1308],[117.2642,39.1258],[117.2692,39.1073],[117.3032,39.0997],[117.2933,39.086],[117.266,39.0894],[117.2599,39.0789]]]},"properties":{"region_code":"CN-12-120110","parent_region_code":"CN-12","name":"东丽区","level":"county","has_children":false,"full_path":"中国 / 天津市 / 东丽区","source_admin_code":"120110","osm_relation_id":3286888}},
{"type":"Feature","geometry":{"type":"Polygon","coordinates":[[[117.1826,39.0659],[117.1569,39.059],[117.1164,39.0831],[117.1305,39.09],[117.1246,39.1145],[117.1043,39.1324],[117.1218,39.1511],[117.0929,39.155],[117.0933,39.1607],[117.1215,39.1638],[117.1234,39.1707],[117.0998,39.1748],[117.079,39.1728],[117.0605,39.1636],[117.0258,39.1561],[117.0066,39.1499],[116.9981,39.1691],[116.9868,39.1705],[116.9665,39.1665],[116.9477,39.1688],[116.9431,39.1649],[116.9223,39.1598],[116.9169,39.1486],[116.9222,39.1345],[116.9162,39.1305],[116.9202,39.1189],[116.9134,39.1085],[116.9053,39.1103],[116.8964,39.09],[116.8909,39.0909],[116.8763,39.0707],[116.8926,39.0661],[116.8953,39.0603],[116.919,39.0609],[116.9361,39.0488],[116.9436,39.0535],[116.9567,39.05],[116.9639,39.0382],[117.0002,39.0324],[117.0323,39.0208],[117.0292,38.9963],[117.0502,38.9948],[117.0564,39.0042],[117.0711,38.994],[117.1053,38.9804],[117.1248,38.9683],[117.1386,38.9536],[117.1493,38.9364],[117.1799,38.8977],[117.2052,38.8797],[117.2433,38.8501],[117.3059,38.8298],[117.3221,38.8222],[117.3214,38.836],[117.3391,38.8511],[117.3319,38.8601],[117.327,38.8777],[117.3206,38.8863],[117.2993,38.8863],[117.2633,38.9185],[117.2564,38.9282],[117.2602,38.9418],[117.2546,38.951],[117.2634,38.9625],[117.2616,38.9721],[117.2759,38.972],[117.2862,38.9876],[117.2734,39.0005],[117.2694,39.0123],[117.2594,39.0194],[117.261,39.0382],[117.2247,39.0322],[117.2115,39.0333],[117.2115,39.055],[117.1976,39.0706],[117.1826,39.0659]]]},"properties":{"region_code":"CN-12-120111","parent_region_code":"CN-12","name":"西青区","level":"county","has_children":false,"full_path":"中国 / 天津市 / 西青区","source_admin_code":"120111","osm_relation_id":3286900}},
{"type":"Feature","geometry":{"type":"Polygon","coordinates":[[[117.261,39.0382],[117.2594,39.0194],[117.2694,39.0123],[117.2734,39.0005],[117.2862,38.9876],[117.2759,38.972],[117.2616,38.9721],[117.2634,38.9625],[117.2546,38.951],[117.2602,38.9418],[117.2564,38.9282],[117.2633,38.9185],[117.2993,38.8863],[117.3206,38.8863],[117.327,38.8777],[117.3319,38.8601],[117.3391,38.8511],[117.3433,38.849],[117.3803,38.8707],[117.4008,38.8864],[117.4303,38.8583],[117.441,38.8779],[117.4804,38.9045],[117.4965,38.9067],[117.4909,38.9419],[117.5229,38.9523],[117.5447,38.9421],[117.5434,38.9672],[117.554,38.9886],[117.5404,38.9929],[117.5277,39.0048],[117.5203,39.0054],[117.5031,38.9949],[117.4885,39.0156],[117.477,39.013],[117.4631,39.0159],[117.4586,39.032],[117.4426,39.0223],[117.417,39.0192],[117.3971,39.0251],[117.3838,39.0359],[117.3715,39.0522],[117.3473,39.0513],[117.33,39.0593],[117.3199,39.0685],[117.3053,39.0749],[117.2878,39.0763],[117.2796,39.069],[117.2821,39.0589],[117.2612,39.0496],[117.261,39.0382]]]},"properties":{"region_code":"CN-12-120112","parent_region_code":"CN-12","name":"津南区","level":"county","has_children":false,"full_path":"中国 / 天津市 / 津南区","source_admin_code":"120112","osm_relation_id":3286896}},
{"type":"Feature","geometry":{"type":"Polygon","coordinates":[[[117.2272,39.1919],[117.2475,39.2068],[117.291,39.2223],[117.2883,39.2391],[117.2937,39.2431],[117.3266,39.2344],[117.3602,39.2326],[117.3792,39.2291],[117.3944,39.2395],[117.4019,39.2292],[117.4031,39.2359],[117.3875,39.2471],[117.4004,39.2734],[117.399,39.2813],[117.3766,39.279],[117.3365,39.3091],[117.3324,39.3177],[117.3175,39.3283],[117.2978,39.3256],[117.2855,39.3462],[117.2634,39.3502],[117.2585,39.3441],[117.2449,39.3526],[117.2312,39.3561],[117.2166,39.3548],[117.1853,39.3428],[117.1865,39.3327],[117.1491,39.3219],[117.1485,39.3103],[117.1326,39.3033],[117.114,39.3136],[117.0891,39.3114],[117.074,39.3055],[117.0824,39.2982],[117.0587,39.2799],[117.0474,39.28],[117.042,39.2902],[117.0104,39.2868],[117.0179,39.2692],[117.0167,39.2558],[117.0052,39.2558],[117.0033,39.2433],[116.99,39.2421],[116.9735,39.2298],[116.962,39.2287],[116.9648,39.2079],[116.9529,39.1922],[116.937,39.191],[116.9351,39.1703],[116.9431,39.1649],[116.9477,39.1688],[116.9665,39.1665],[116.9868,39.1705],[116.9981,39.1691],[117.0066,39.1499],[117.0258,39.1561],[117.0605,39.1636],[117.079,39.1728],[117.0998,39.1748],[117.1234,39.1707],[117.1294,39.1858],[117.1537,39.1891],[117.1616,39.1827],[117.186,39.1908],[117.1916,39.1853],[117.2044,39.192],[117.2163,39.183],[117.2272,39.1919]]]},"properties":{"region_code":"CN-12-120113","parent_region_code":"CN-12","name":"北辰区","level":"county","has_children":false,"full_path":"中国 / 天津市 / 北辰区","source_admin_code":"120113","osm_relation_id":3286886}},
{"type":"Feature","geometry":{"type":"Polygon","coordinates":[[[116.9431,39.1649],[116.9351,39.1703],[116.937,39.191],[116.9529,39.1922],[116.9648,39.2079],[116.962,39.2287],[116.9735,39.2298],[116.99,39.2421],[117.0033,39.2433],[117.0052,39.2558],[117.0167,39.2558],[117.0179,39.2692],[117.0104,39.2868],[117.042,39.2902],[117.0474,39.28],[117.0587,39.2799],[117.0824,39.2982],[117.074,39.3055],[117.0891,39.3114],[117.114,39.3136],[117.1326,39.3033],[117.1485,39.3103],[117.1491,39.3219],[117.1865,39.3327],[117.1853,39.3428],[117.2166,39.3548],[117.2312,39.3561],[117.2449,39.3526],[117.2585,39.3441],[117.2634,39.3502],[117.2855,39.3462],[117.2978,39.3256],[117.3175,39.3283],[117.3217,39.3487],[117.3095,39.3546],[117.3078,39.365],[117.2963,39.3675],[117.2927,39.3779],[117.3062,39.3885],[117.3065,39.4012],[117.3212,39.3979],[117.3297,39.4045],[117.3277,39.4171],[117.3185,39.4368],[117.293,39.4686],[117.2881,39.4902],[117.2725,39.4982],[117.259,39.4993],[117.2641,39.5143],[117.2486,39.5223],[117.2695,39.5264],[117.2684,39.5317],[117.2477,39.5443],[117.2309,39.547],[117.227,39.5549],[117.1453,39.6106],[117.1416,39.6212],[117.1194,39.6164],[117.0968,39.6238],[117.0944,39.6283],[117.0507,39.6432],[117.0095,39.6528],[116.9982,39.6433],[116.9685,39.6357],[116.9576,39.6424],[116.9493,39.6576],[116.9515,39.6652],[116.9397,39.6697],[116.9372,39.6931],[116.9449,39.7058],[116.911,39.7054],[116.911,39.6983],[116.9006,39.6766],[116.8775,39.6743],[116.8547,39.6663],[116.844,39.6665],[116.8455,39.6514],[116.8211,39.6371],[116.8326,39.6211],[116.8137,39.6179],[116.8041,39.6072],[116.7939,39.603],[116.794,39.5854],[116.8057,39.576],[116.791,39.5669],[116.7811,39.5508],[116.7894,39.5447],[116.8003,39.5279],[116.8161,39.5334],[116.8198,39.5113],[116.8081,39.5093],[116.8152,39.4813],[116.7827,39.4709],[116.7841,39.4642],[116.7982,39.4459],[116.8097,39.4506],[116.8207,39.4445],[116.8265,39.4343],[116.8494,39.4422],[116.8649,39.4261],[116.832,39.4093],[116.8278,39.3979],[116.8351,39.3803],[116.8317,39.3731],[116.8124,39.3726],[116.8265,39.3619],[116.8193,39.3525],[116.8234,39.3379],[116.8433,39.3386],[116.8545,39.3532],[116.87,39.3383],[116.8838,39.3371],[116.8838,39.3215],[116.8784,39.3043],[116.8621,39.3015],[116.8667,39.2902],[116.873,39.2544],[116.8658,39.2169],[116.8499,39.2149],[116.8574,39.2005],[116.86,39.1568],[116.8642,39.1529],[116.8876,39.154],[116.9044,39.1497],[116.9129,39.1376],[116.9202,39.1189],[116.9162,39.1305],[116.9222,39.1345],[116.9169,39.1486],[116.9223,39.1598],[116.9431,39.1649]]]},"properties":{"region_code":"CN-12-120114","parent_region_code":"CN-12","name":"武清区","level":"county","has_children":false,"full_path":"中国 / 天津市 / 武清区","source_admin_code":"120114","osm_relation_id":3286899}},
{"type":"Feature","geometry":{"type":"Polygon","coordinates":[[[117.3217,39.3487],[117.331,39.358],[117.3438,39.3602],[117.383,39.359],[117.3859,39.3513],[117.4271,39.3457],[117.4265,39.354],[117.4351,39.3603],[117.4604,39.36],[117.4795,39.3707],[117.4788,39.3782],[117.4944,39.3836],[117.4845,39.4125],[117.4766,39.4445],[117.4933,39.4535],[117.5059,39.4555],[117.5185,39.4654],[117.5355,39.4634],[117.5512,39.4708],[117.559,39.4797],[117.5499,39.4937],[117.5611,39.4966],[117.5743,39.4839],[117.6016,39.4886],[117.6043,39.5109],[117.6245,39.515],[117.6311,39.5213],[117.6283,39.5361],[117.6523,39.5303],[117.6848,39.5365],[117.6844,39.5465],[117.6993,39.5484],[117.685,39.5577],[117.6932,39.5669],[117.6926,39.5776],[117.6794,39.5874],[117.6682,39.5887],[117.6641,39.5796],[117.651,39.5734],[117.65,39.5864],[117.6357,39.5919],[117.629,39.6026],[117.6125,39.603],[117.657,39.6357],[117.6623,39.6621],[117.6505,39.668],[117.638,39.6881],[117.6232,39.7019],[117.5978,39.7042],[117.5711,39.7258],[117.5909,39.7364],[117.5892,39.7456],[117.5561,39.7543],[117.5466,39.7607],[117.5345,39.7593],[117.5183,39.7673],[117.5041,39.7643],[117.4958,39.7728],[117.4776,39.7736],[117.4578,39.7678],[117.4423,39.7672],[117.4313,39.7541],[117.4077,39.7592],[117.3935,39.7694],[117.376,39.7865],[117.3597,39.7926],[117.3271,39.7955],[117.3167,39.7923],[117.3127,39.8038],[117.2875,39.8118],[117.2717,39.8245],[117.2508,39.8289],[117.2319,39.8325],[117.22,39.8296],[117.1859,39.8317],[117.1843,39.825],[117.1609,39.8224],[117.1501,39.816],[117.1514,39.7957],[117.1725,39.7941],[117.1744,39.7812],[117.1997,39.7625],[117.1786,39.7506],[117.1556,39.7467],[117.1593,39.7374],[117.1475,39.7349],[117.147,39.7214],[117.1545,39.7195],[117.1622,39.7069],[117.1639,39.672],[117.1527,39.6599],[117.1578,39.6504],[117.1715,39.6443],[117.1665,39.6352],[117.1515,39.6351],[117.1416,39.6212],[117.1453,39.6106],[117.227,39.5549],[117.2309,39.547],[117.2477,39.5443],[117.2684,39.5317],[117.2695,39.5264],[117.2486,39.5223],[117.2641,39.5143],[117.259,39.4993],[117.2725,39.4982],[117.2881,39.4902],[117.293,39.4686],[117.3185,39.4368],[117.3277,39.4171],[117.3297,39.4045],[117.3212,39.3979],[117.3065,39.4012],[117.3062,39.3885],[117.2927,39.3779],[117.2963,39.3675],[117.3078,39.365],[117.3095,39.3546],[117.3217,39.3487]]]},"properties":{"region_code":"CN-12-120115","parent_region_code":"CN-12","name":"宝坻区","level":"county","has_children":false,"full_path":"中国 / 天津市 / 宝坻区","source_admin_code":"120115","osm_relation_id":3286885}},
{"type":"Feature","geometry":{"type":"Polygon","coordinates":[[[117.5203,39.0054],[117.5277,39.0048],[117.5404,38.9929],[117.554,38.9886],[117.5434,38.9672],[117.5447,38.9421],[117.5229,38.9523],[117.4909,38.9419],[117.4965,38.9067],[117.4804,38.9045],[117.441,38.8779],[117.4303,38.8583],[117.4008,38.8864],[117.3803,38.8707],[117.3433,38.849],[117.3391,38.8511],[117.3214,38.836],[117.3221,38.8222],[117.3059,38.8298],[117.2433,38.8501],[117.2052,38.8797],[117.1528,38.8296],[117.1983,38.8046],[117.1887,38.795],[117.2091,38.7825],[117.1585,38.7551],[117.1292,38.7415],[117.1307,38.7337],[117.1495,38.7255],[117.1523,38.6959],[117.1428,38.6905],[117.1472,38.671],[117.1571,38.6546],[117.1498,38.6318],[117.1503,38.6206],[117.1436,38.6167],[117.1597,38.6142],[117.1944,38.6213],[117.2044,38.6295],[117.2071,38.6398],[117.2192,38.6434],[117.2296,38.6304],[117.2308,38.6183],[117.2495,38.6137],[117.2531,38.6023],[117.2396,38.5948],[117.2324,38.5806],[117.2471,38.556],[117.2592,38.5561],[117.2862,38.5621],[117.2995,38.5557],[117.3188,38.563],[117.3445,38.5651],[117.352,38.57],[117.3487,38.5799],[117.3624,38.5816],[117.3627,38.5639],[117.3905,38.5737],[117.4094,38.5899],[117.4262,38.6003],[117.4588,38.6091],[117.492,38.6149],[117.5182,38.6104],[117.5219,38.6],[117.5418,38.6185],[117.5521,38.6129],[117.5688,38.6109],[117.5792,38.6147],[117.6007,38.614],[117.758,38.637],[117.8545,38.6437],[117.9897,39.0187],[118.0225,39.202],[118.0308,39.2292],[118.0584,39.2299],[118.0579,39.2549],[118.0302,39.2639],[118.0223,39.2767],[117.986,39.2956],[117.9715,39.2996],[117.9659,39.3134],[117.9182,39.3186],[117.9135,39.3168],[117.8857,39.3223],[117.8822,39.3312],[117.8407,39.3277],[117.8306,39.3051],[117.8463,39.297],[117.8226,39.2619],[117.8006,39.269],[117.8034,39.2774],[117.7825,39.2867],[117.7783,39.3033],[117.7545,39.2938],[117.7261,39.2894],[117.7029,39.2765],[117.7097,39.2557],[117.7194,39.2451],[117.7371,39.2369],[117.7144,39.206],[117.7127,39.1723],[117.6773,39.1725],[117.6747,39.1877],[117.6609,39.1879],[117.6373,39.2141],[117.6292,39.2119],[117.6116,39.2039],[117.6114,39.1859],[117.6175,39.1818],[117.6094,39.1652],[117.5902,39.1682],[117.5626,39.1762],[117.5605,39.1615],[117.5528,39.1602],[117.5471,39.1472],[117.5339,39.142],[117.5105,39.151],[117.5028,39.1357],[117.4964,39.1071],[117.5294,39.1059],[117.5459,39.1001],[117.5469,39.078],[117.5568,39.076],[117.5512,39.0639],[117.5532,39.054],[117.5238,39.0569],[117.521,39.0455],[117.5128,39.0369],[117.5228,39.031],[117.518,39.014],[117.5203,39.0054]]]},"properties":{"region_code":"CN-12-120116","parent_region_code":"CN-12","name":"滨海新区","level":"county","has_children":false,"full_path":"中国 / 天津市 / 滨海新区","source_admin_code":"120116","osm_relation_id":3286887}},
{"type":"Feature","geometry":{"type":"Polygon","coordinates":[[[117.5626,39.1762],[117.5902,39.1682],[117.6094,39.1652],[117.6175,39.1818],[117.6114,39.1859],[117.5777,39.1773],[117.5427,39.1868],[117.5013,39.2153],[117.4993,39.2238],[117.5573,39.2248],[117.5575,39.2173],[117.5766,39.2191],[117.6221,39.22],[117.6292,39.2119],[117.6373,39.2141],[117.6024,39.2593],[117.6739,39.2591],[117.674,39.2768],[117.7029,39.2765],[117.7261,39.2894],[117.7545,39.2938],[117.7783,39.3033],[117.7825,39.2867],[117.8034,39.2774],[117.8213,39.3027],[117.8306,39.3051],[117.8407,39.3277],[117.8358,39.3354],[117.8438,39.3413],[117.8545,39.3638],[117.8311,39.3497],[117.827,39.3551],[117.8036,39.3541],[117.7962,39.3613],[117.7983,39.3721],[117.8328,39.3766],[117.8543,39.3836],[117.8532,39.4022],[117.8657,39.4105],[117.8645,39.4539],[117.872,39.4661],[117.8799,39.4658],[117.8934,39.4747],[117.8898,39.4838],[117.8927,39.5087],[117.903,39.5105],[117.9067,39.5206],[117.8984,39.5318],[117.9116,39.5523],[117.9279,39.5727],[117.8965,39.59],[117.877,39.5896],[117.8571,39.5948],[117.834,39.5888],[117.8197,39.5898],[117.7959,39.6007],[117.7826,39.5961],[117.7614,39.5977],[117.7427,39.5888],[117.7471,39.575],[117.7317,39.5728],[117.7297,39.5596],[117.7388,39.5469],[117.7252,39.5346],[117.7037,39.5351],[117.6993,39.5484],[117.6844,39.5465],[117.6848,39.5365],[117.6523,39.5303],[117.6283,39.5361],[117.6311,39.5213],[117.6245,39.515],[117.6043,39.5109],[117.6016,39.4886],[117.5743,39.4839],[117.5611,39.4966],[117.5499,39.4937],[117.559,39.4797],[117.5512,39.4708],[117.5355,39.4634],[117.5185,39.4654],[117.5059,39.4555],[117.4933,39.4535],[117.4766,39.4445],[117.4845,39.4125],[117.4944,39.3836],[117.4788,39.3782],[117.4795,39.3707],[117.4604,39.36],[117.4351,39.3603],[117.4265,39.354],[117.4271,39.3457],[117.3859,39.3513],[117.383,39.359],[117.3438,39.3602],[117.331,39.358],[117.3217,39.3487],[117.3175,39.3283],[117.3324,39.3177],[117.3365,39.3091],[117.3766,39.279],[117.399,39.2813],[117.4004,39.2734],[117.3875,39.2471],[117.4031,39.2359],[117.4019,39.2292],[117.4187,39.2283],[117.4461,39.2342],[117.4513,39.2269],[117.4679,39.2284],[117.4812,39.2196],[117.4809,39.2112],[117.5073,39.1914],[117.5314,39.1815],[117.5626,39.1762]],[[117.6758,39.3221],[117.6446,39.3141],[117.6358,39.3383],[117.6294,39.3429],[117.6106,39.3435],[117.5892,39.3482],[117.5645,39.3419],[117.5299,39.3361],[117.5144,39.3552],[117.5224,39.3593],[117.5174,39.3707],[117.5331,39.3734],[117.5517,39.3846],[117.5542,39.3955],[117.5694,39.4031],[117.5845,39.4045],[117.5961,39.4182],[117.6146,39.4066],[117.6373,39.4048],[117.663,39.411],[117.667,39.3856],[117.696,39.3878],[117.6936,39.4066],[117.7309,39.4095],[117.7763,39.3935],[117.7784,39.3761],[117.7387,39.3535],[117.7021,39.3506],[117.6865,39.3546],[117.665,39.3553],[117.6633,39.3232],[117.6758,39.3221]]]},"properties":{"region_code":"CN-12-120117","parent_region_code":"CN-12","name":"宁河区","level":"county","has_children":false,"full_path":"中国 / 天津市 / 宁河区","source_admin_code":"120117","osm_relation_id":3286898}},
{"type":"Feature","geometry":{"type":"Polygon","coordinates":[[[116.8763,39.0707],[116.864,39.0691],[116.8658,39.0538],[116.8546,39.0498],[116.8025,39.0494],[116.7882,39.053],[116.7726,39.0482],[116.7506,39.0494],[116.7453,39.0335],[116.7531,39.0203],[116.7446,38.9931],[116.7344,38.98],[116.7227,38.9745],[116.7104,38.9381],[116.7024,38.931],[116.702,38.8962],[116.7167,38.8964],[116.7172,38.8515],[116.74,38.8506],[116.7371,38.8341],[116.7403,38.8238],[116.7382,38.8046],[116.7316,38.7837],[116.7453,38.7794],[116.7396,38.7554],[116.753,38.7541],[116.7604,38.7412],[116.7852,38.7394],[116.7905,38.7459],[116.8534,38.7406],[116.8651,38.7318],[116.8607,38.7163],[116.8667,38.7045],[116.8716,38.6801],[116.8898,38.6799],[116.9031,38.6847],[116.925,38.685],[116.9886,38.6951],[117.0082,38.6891],[117.0096,38.7001],[117.0367,38.7058],[117.0326,38.6879],[117.0622,38.6796],[117.055,38.6728],[117.0499,38.6533],[117.0492,38.6384],[117.0579,38.6348],[117.0638,38.6204],[117.0646,38.6065],[117.08,38.6056],[117.0905,38.5999],[117.0918,38.586],[117.1132,38.5886],[117.1147,38.5969],[117.1299,38.5978],[117.145,38.6087],[117.1436,38.6167],[117.1503,38.6206],[117.1498,38.6318],[117.1571,38.6546],[117.1472,38.671],[117.1428,38.6905],[117.1523,38.6959],[117.1495,38.7255],[117.1307,38.7337],[117.1292,38.7415],[117.1585,38.7551],[117.2091,38.7825],[117.1887,38.795],[117.1983,38.8046],[117.1528,38.8296],[117.2052,38.8797],[117.1799,38.8977],[117.1493,38.9364],[117.1386,38.9536],[117.1248,38.9683],[117.1053,38.9804],[117.0711,38.994],[117.0564,39.0042],[117.0502,38.9948],[117.0292,38.9963],[117.0323,39.0208],[117.0002,39.0324],[116.9639,39.0382],[116.9567,39.05],[116.9436,39.0535],[116.9361,39.0488],[116.919,39.0609],[116.8953,39.0603],[116.8926,39.0661],[116.8763,39.0707]]]},"properties":{"region_code":"CN-12-120118","parent_region_code":"CN-12","name":"静海区","level":"county","has_children":false,"full_path":"中国 / 天津市 / 静海区","source_admin_code":"120118","osm_relation_id":3286895}},
{"type":"Feature","geometry":{"type":"Polygon","coordinates":[[[117.5345,39.7593],[117.5484,39.7704],[117.54,39.7756],[117.5474,39.7838],[117.548,39.7944],[117.5553,39.7989],[117.552,39.8112],[117.5328,39.8309],[117.5417,39.8384],[117.5151,39.8696],[117.5126,39.8912],[117.5039,39.8929],[117.5014,39.9079],[117.505,39.9189],[117.5158,39.9196],[117.5195,39.9285],[117.5063,39.9327],[117.5089,39.9453],[117.5272,39.9516],[117.5329,39.9695],[117.5418,39.9759],[117.5312,39.9892],[117.5404,39.9979],[117.5728,39.9927],[117.5938,39.9927],[117.6074,39.9807],[117.6083,39.9717],[117.6255,39.9676],[117.6317,39.9712],[117.6697,39.9743],[117.6834,39.9833],[117.7003,39.985],[117.7175,39.9795],[117.7215,39.971],[117.7372,39.9716],[117.7507,39.9647],[117.7567,39.9711],[117.7733,39.9659],[117.7808,39.973],[117.7818,39.9847],[117.7902,39.9983],[117.7857,40.015],[117.7765,40.0224],[117.7645,40.0225],[117.7518,40.0163],[117.7382,40.0171],[117.7371,40.0303],[117.7418,40.0464],[117.7517,40.0432],[117.7672,40.0507],[117.7684,40.0563],[117.7451,40.0809],[117.7272,40.0764],[117.7161,40.0784],[117.6994,40.0915],[117.685,40.0932],[117.6816,40.0817],[117.6689,40.0861],[117.6603,40.0997],[117.6502,40.0897],[117.6384,40.0949],[117.6466,40.1096],[117.6436,40.127],[117.6147,40.1454],[117.612,40.1563],[117.5943,40.17],[117.5817,40.1674],[117.5694,40.1781],[117.5599,40.212],[117.5655,40.2181],[117.5566,40.2282],[117.542,40.2315],[117.4979,40.2259],[117.4776,40.234],[117.4549,40.2472],[117.4319,40.2518],[117.4219,40.2454],[117.4127,40.2484],[117.4023,40.231],[117.3914,40.234],[117.3759,40.2187],[117.3728,40.1979],[117.3782,40.1864],[117.391,40.1915],[117.401,40.1861],[117.3849,40.1762],[117.3654,40.1751],[117.3445,40.1703],[117.354,40.1556],[117.3451,40.1492],[117.3497,40.1395],[117.338,40.1333],[117.3255,40.1328],[117.3167,40.1394],[117.3011,40.1357],[117.2965,40.1246],[117.279,40.1201],[117.2604,40.1109],[117.2429,40.1152],[117.2318,40.1105],[117.2168,40.0938],[117.2048,40.0953],[117.2034,40.081],[117.2166,40.0643],[117.1752,40.0572],[117.1821,40.046],[117.1812,40.0245],[117.1911,40.0093],[117.1915,39.9915],[117.1846,39.9806],[117.172,39.976],[117.1731,39.9648],[117.1614,39.9624],[117.1601,39.9536],[117.144,39.943],[117.1505,39.9343],[117.1361,39.9174],[117.1487,39.9093],[117.1428,39.8948],[117.1517,39.8882],[117.1484,39.8809],[117.1771,39.8629],[117.2051,39.8582],[117.2214,39.8517],[117.2397,39.8601],[117.2537,39.8427],[117.2508,39.8289],[117.2717,39.8245],[117.2875,39.8118],[117.3127,39.8038],[117.3167,39.7923],[117.3271,39.7955],[117.3597,39.7926],[117.376,39.7865],[117.3935,39.7694],[117.4077,39.7592],[117.4313,39.7541],[117.4423,39.7672],[117.4578,39.7678],[117.4776,39.7736],[117.4958,39.7728],[117.5041,39.7643],[117.5183,39.7673],[117.5345,39.7593]]]},"properties":{"region_code":"CN-12-120119","parent_region_code":"CN-12","name":"蓟州区","level":"county","has_children":false,"full_path":"中国 / 天津市 / 蓟州区","source_admin_code":"120119","osm_relation_id":3286894}}
]}