{"type":"FeatureCollection", "features": [
{"type":"Feature","geometry":{"type":"Polygon","coordinates":[[[112.5345,37.8137],[112.5336,37.7907],[112.5287,37.774],[112.5402,37.7492],[112.5428,37.7291],[112.527,37.7043],[112.5161,37.698],[112.5091,37.6844],[112.4996,37.6784],[112.4702,37.6821],[112.4341,37.6471],[112.419,37.6454],[112.4054,37.6364],[112.3946,37.6218],[112.4106,37.6046],[112.4277,37.5969],[112.4514,37.6043],[112.4528,37.6223],[112.4906,37.6136],[112.5036,37.6252],[112.5212,37.6191],[112.5303,37.6052],[112.538,37.6068],[112.5609,37.6006],[112.5741,37.605],[112.5718,37.6297],[112.5809,37.6406],[112.592,37.6347],[112.6047,37.6356],[112.6149,37.6457],[112.6029,37.6539],[112.5981,37.6646],[112.6195,37.6808],[112.6198,37.6901],[112.6094,37.6954],[112.6214,37.7074],[112.6438,37.7094],[112.6477,37.7306],[112.6608,37.7422],[112.6558,37.7595],[112.6448,37.7734],[112.6548,37.7757],[112.676,37.797],[112.6688,37.8105],[112.671,37.8234],[112.6843,37.8312],[112.6873,37.8407],[112.6778,37.8509],[112.6672,37.8482],[112.6536,37.8264],[112.6354,37.8151],[112.6042,37.8106],[112.5815,37.8154],[112.5802,37.8388],[112.5325,37.838],[112.5367,37.8271],[112.5345,37.8137]]]},"properties":{"region_code":"CN-14-1401-140105","parent_region_code":"CN-14-1401","name":"小店区","level":"county","has_children":false,"full_path":"中国 / 山西省 / 太原市 / 小店区","source_admin_code":"140105","osm_relation_id":3441533}},
{"type":"Feature","geometry":{"type":"Polygon","coordinates":[[[112.6873,37.8407],[112.7164,37.8488],[112.7269,37.858],[112.7292,37.8726],[112.7647,37.8815],[112.7729,37.886],[112.7617,37.898],[112.7594,37.9134],[112.7473,37.9219],[112.7113,37.921],[112.7083,37.9165],[112.6788,37.9073],[112.671,37.8921],[112.6744,37.8869],[112.6554,37.8701],[112.6248,37.8609],[112.579,37.864],[112.574,37.8698],[112.5309,37.8683],[112.5325,37.838],[112.5802,37.8388],[112.5815,37.8154],[112.6042,37.8106],[112.6354,37.8151],[112.6536,37.8264],[112.6672,37.8482],[112.6778,37.8509],[112.6873,37.8407]]]},"properties":{"region_code":"CN-14-1401-140106","parent_region_code":"CN-14-1401","name":"迎泽区","level":"county","has_children":false,"full_path":"中国 / 山西省 / 太原市 / 迎泽区","source_admin_code":"140106","osm_relation_id":3441536}},
{"type":"Feature","geometry":{"type":"Polygon","coordinates":[[[112.7594,37.9134],[112.7721,37.9274],[112.762,37.9381],[112.7392,37.9553],[112.7203,37.9377],[112.6777,37.9523],[112.6535,37.974],[112.6432,37.9745],[112.6206,37.978],[112.6133,37.972],[112.5752,37.965],[112.5746,37.9458],[112.5588,37.9479],[112.5625,37.9151],[112.5569,37.9032],[112.5389,37.8985],[112.5314,37.881],[112.5309,37.8683],[112.574,37.8698],[112.579,37.864],[112.6248,37.8609],[112.6554,37.8701],[112.6744,37.8869],[112.671,37.8921],[112.6788,37.9073],[112.7083,37.9165],[112.7113,37.921],[112.7473,37.9219],[112.7594,37.9134]]]},"properties":{"region_code":"CN-14-1401-140107","parent_region_code":"CN-14-1401","name":"杏花岭区","level":"county","has_children":false,"full_path":"中国 / 山西省 / 太原市 / 杏花岭区","source_admin_code":"140107","osm_relation_id":3441534}},
{"type":"Feature","geometry":{"type":"Polygon","coordinates":[[[112.6432,37.9745],[112.6244,37.9859],[112.6201,38.0042],[112.6084,38.0154],[112.6119,38.0242],[112.5997,38.0393],[112.5709,38.0443],[112.5626,38.0496],[112.5471,38.0465],[112.5265,38.0476],[112.5198,38.0416],[112.4956,38.0528],[112.4778,38.0502],[112.4791,38.0598],[112.4578,38.0762],[112.4482,38.0636],[112.4227,38.0551],[112.4274,38.0466],[112.4217,38.0252],[112.4029,38.0142],[112.3892,37.9998],[112.3721,37.9989],[112.3783,37.9866],[112.3556,37.9751],[112.3565,37.9522],[112.3462,37.9467],[112.3622,37.933],[112.3717,37.9328],[112.3914,37.9227],[112.399,37.9347],[112.4292,37.9249],[112.4368,37.9146],[112.4475,37.9151],[112.4701,37.905],[112.4728,37.8959],[112.5032,37.8922],[112.5314,37.881],[112.5389,37.8985],[112.5569,37.9032],[112.5625,37.9151],[112.5588,37.9479],[112.5746,37.9458],[112.5752,37.965],[112.6133,37.972],[112.6206,37.978],[112.6432,37.9745]]]},"properties":{"region_code":"CN-14-1401-140108","parent_region_code":"CN-14-1401","name":"尖草坪区","level":"county","has_children":false,"full_path":"中国 / 山西省 / 太原市 / 尖草坪区","source_admin_code":"140108","osm_relation_id":3441529}},
{"type":"Feature","geometry":{"type":"Polygon","coordinates":[[[112.5325,37.838],[112.5309,37.8683],[112.5314,37.881],[112.5032,37.8922],[112.4728,37.8959],[112.4701,37.905],[112.4475,37.9151],[112.4368,37.9146],[112.4292,37.9249],[112.399,37.9347],[112.3914,37.9227],[112.3717,37.9328],[112.3622,37.933],[112.3462,37.9467],[112.3565,37.9522],[112.3556,37.9751],[112.352,37.98],[112.3297,37.9802],[112.3157,37.9767],[112.3308,37.9564],[112.3023,37.9343],[112.2666,37.9255],[112.2585,37.9188],[112.2803,37.8819],[112.296,37.8826],[112.2945,37.8718],[112.2801,37.8769],[112.2783,37.8633],[112.2874,37.8482],[112.3136,37.8254],[112.3319,37.8212],[112.3294,37.7969],[112.3213,37.7927],[112.3238,37.7814],[112.349,37.7856],[112.3792,37.7959],[112.3952,37.7971],[112.4097,37.8031],[112.4109,37.8125],[112.425,37.82],[112.4484,37.8088],[112.4828,37.8066],[112.482,37.8247],[112.5081,37.8154],[112.5138,37.8072],[112.5345,37.8137],[112.5367,37.8271],[112.5325,37.838]]]},"properties":{"region_code":"CN-14-1401-140109","parent_region_code":"CN-14-1401","name":"万柏林区","level":"county","has_children":false,"full_path":"中国 / 山西省 / 太原市 / 万柏林区","source_admin_code":"140109","osm_relation_id":3441532}},
{"type":"Feature","geometry":{"type":"Polygon","coordinates":[[[112.5345,37.8137],[112.5138,37.8072],[112.5081,37.8154],[112.482,37.8247],[112.4828,37.8066],[112.4484,37.8088],[112.425,37.82],[112.4109,37.8125],[112.4097,37.8031],[112.3952,37.7971],[112.3792,37.7959],[112.349,37.7856],[112.3238,37.7814],[112.3325,37.7702],[112.3334,37.7541],[112.3403,37.7472],[112.3356,37.738],[112.319,37.7277],[112.3238,37.7169],[112.3201,37.6979],[112.3381,37.6728],[112.3609,37.6533],[112.3611,37.6286],[112.3694,37.6111],[112.3826,37.6061],[112.3946,37.6218],[112.4054,37.6364],[112.419,37.6454],[112.4341,37.6471],[112.4702,37.6821],[112.4996,37.6784],[112.5091,37.6844],[112.5161,37.698],[112.527,37.7043],[112.5428,37.7291],[112.5402,37.7492],[112.5287,37.774],[112.5336,37.7907],[112.5345,37.8137]]]},"properties":{"region_code":"CN-14-1401-140110","parent_region_code":"CN-14-1401","name":"晋源区","level":"county","has_children":false,"full_path":"中国 / 山西省 / 太原市 / 晋源区","source_admin_code":"140110","osm_relation_id":3441530}},
{"type":"Feature","geometry":{"type":"Polygon","coordinates":[[[112.3946,37.6218],[112.3826,37.6061],[112.3694,37.6111],[112.3611,37.6286],[112.3609,37.6533],[112.3381,37.6728],[112.3201,37.6979],[112.3238,37.7169],[112.319,37.7277],[112.3356,37.738],[112.3403,37.7472],[112.3334,37.7541],[112.3325,37.7702],[112.3238,37.7814],[112.2968,37.7595],[112.2724,37.7452],[112.2472,37.7125],[112.2525,37.7055],[112.2445,37.6969],[112.2279,37.6976],[112.2117,37.6921],[112.2034,37.6843],[112.1907,37.6856],[112.1723,37.669],[112.1629,37.6398],[112.1745,37.6332],[112.1856,37.6189],[112.1988,37.6096],[112.2031,37.6002],[112.221,37.5918],[112.2258,37.5695],[112.2393,37.5611],[112.2674,37.5597],[112.2856,37.565],[112.2884,37.552],[112.2683,37.5309],[112.2672,37.5235],[112.2896,37.5208],[112.2921,37.5078],[112.3087,37.5062],[112.3082,37.4949],[112.2957,37.4951],[112.2829,37.4873],[112.2946,37.4793],[112.3157,37.474],[112.3095,37.4533],[112.3421,37.4606],[112.3513,37.4841],[112.3826,37.4818],[112.3794,37.4701],[112.387,37.4606],[112.4275,37.4613],[112.4254,37.4674],[112.438,37.4784],[112.4498,37.4768],[112.4572,37.4657],[112.4842,37.4756],[112.4974,37.4764],[112.5068,37.5],[112.5168,37.5101],[112.5445,37.5168],[112.5567,37.5131],[112.5624,37.5045],[112.5844,37.5036],[112.5796,37.5148],[112.5861,37.5222],[112.6073,37.5196],[112.6202,37.5319],[112.6075,37.5366],[112.5974,37.5479],[112.6034,37.5711],[112.594,37.5882],[112.5923,37.6008],[112.5741,37.605],[112.5609,37.6006],[112.538,37.6068],[112.5303,37.6052],[112.5212,37.6191],[112.5036,37.6252],[112.4906,37.6136],[112.4528,37.6223],[112.4514,37.6043],[112.4277,37.5969],[112.4106,37.6046],[112.3946,37.6218]]]},"properties":{"region_code":"CN-14-1401-140121","parent_region_code":"CN-14-1401","name":"清徐县","level":"county","has_children":false,"full_path":"中国 / 山西省 / 太原市 / 清徐县","source_admin_code":"140121","osm_relation_id":3441531}},
{"type":"Feature","geometry":{"type":"Polygon","coordinates":[[[112.762,37.9381],[112.7898,37.9695],[112.7908,37.975],[112.8139,37.9852],[112.8095,37.9985],[112.8214,38.0046],[112.8448,37.9905],[112.8598,37.9905],[112.8798,37.997],[112.8909,37.9916],[112.915,37.997],[112.9374,37.9883],[112.9512,38.0017],[112.9598,38.0178],[112.9834,38.0009],[112.9992,38.0055],[113.0004,38.0168],[113.0165,38.0271],[113.0081,38.0373],[113.0098,38.0466],[113.0277,38.0502],[113.0457,38.0457],[113.062,38.0547],[113.0357,38.0761],[113.019,38.0841],[113.0096,38.0813],[112.9894,38.093],[112.9566,38.1193],[112.9565,38.1367],[112.9345,38.1345],[112.9158,38.1442],[112.916,38.1611],[112.9301,38.1576],[112.9312,38.1776],[112.945,38.1987],[112.9548,38.2023],[112.9564,38.2163],[112.9653,38.2304],[112.982,38.2364],[112.9968,38.2488],[113.0282,38.2586],[113.0278,38.2676],[113.0449,38.2729],[113.0672,38.2979],[113.0693,38.3043],[113.1008,38.3055],[113.1122,38.3134],[113.1212,38.3119],[113.1445,38.3264],[113.1512,38.3398],[113.1356,38.3585],[113.147,38.3787],[113.1347,38.4001],[113.1388,38.4134],[113.1135,38.4203],[113.0831,38.416],[113.0718,38.4108],[113.0798,38.3985],[113.066,38.3889],[113.0523,38.3885],[113.0333,38.3811],[113.0285,38.369],[112.9998,38.3429],[112.9794,38.3383],[112.9707,38.3434],[112.9652,38.3567],[112.941,38.3336],[112.9145,38.3291],[112.9087,38.3227],[112.8561,38.3062],[112.8444,38.307],[112.8204,38.2917],[112.8032,38.271],[112.7946,38.2534],[112.7757,38.2476],[112.7322,38.2446],[112.7228,38.2379],[112.7024,38.2446],[112.6772,38.2369],[112.6479,38.248],[112.6365,38.2407],[112.6448,38.2281],[112.6317,38.2149],[112.6174,38.2077],[112.5942,38.2101],[112.5837,38.2065],[112.5643,38.2083],[112.5519,38.222],[112.5582,38.238],[112.5375,38.2583],[112.5193,38.2688],[112.5192,38.2514],[112.4973,38.2374],[112.4501,38.2509],[112.4379,38.2784],[112.4282,38.2801],[112.4007,38.2658],[112.3818,38.2738],[112.3589,38.2755],[112.3306,38.304],[112.3116,38.3105],[112.2961,38.3047],[112.2665,38.3115],[112.2421,38.2921],[112.2453,38.2808],[112.2618,38.2737],[112.2624,38.2679],[112.2316,38.264],[112.2136,38.251],[112.2313,38.2294],[112.2428,38.2237],[112.2475,38.2008],[112.2588,38.1876],[112.2503,38.1538],[112.2318,38.1414],[112.2146,38.1463],[112.2086,38.1328],[112.1975,38.1184],[112.2188,38.1093],[112.2232,38.0977],[112.2373,38.0906],[112.2235,38.0736],[112.2459,38.0705],[112.2464,38.0583],[112.2574,38.0519],[112.2748,38.051],[112.2949,38.027],[112.3088,38.0182],[112.3297,37.9802],[112.352,37.98],[112.3556,37.9751],[112.3783,37.9866],[112.3721,37.9989],[112.3892,37.9998],[112.4029,38.0142],[112.4217,38.0252],[112.4274,38.0466],[112.4227,38.0551],[112.4482,38.0636],[112.4578,38.0762],[112.4791,38.0598],[112.4778,38.0502],[112.4956,38.0528],[112.5198,38.0416],[112.5265,38.0476],[112.5471,38.0465],[112.5626,38.0496],[112.5709,38.0443],[112.5997,38.0393],[112.6119,38.0242],[112.6084,38.0154],[112.6201,38.0042],[112.6244,37.9859],[112.6432,37.9745],[112.6535,37.974],[112.6777,37.9523],[112.7203,37.9377],[112.7392,37.9553],[112.762,37.9381]]]},"properties":{"region_code":"CN-14-1401-140122","parent_region_code":"CN-14-1401","name":"阳曲县","level":"county","has_children":false,"full_path":"中国 / 山西省 / 太原市 / 阳曲县","source_admin_code":"140122","osm_relation_id":3441535}},
{"type":"Feature","geometry":{"type":"Polygon","coordinates":[[[112.0399,38.1712],[111.9968,38.1872],[111.9572,38.1737],[111.9445,38.1674],[111.9295,38.1785],[111.9086,38.1804],[111.8912,38.1977],[111.873,38.1932],[111.8584,38.2015],[111.8628,38.2197],[111.8404,38.2295],[111.8338,38.2129],[111.8171,38.2155],[111.8035,38.2094],[111.784,38.1887],[111.7149,38.1773],[111.7095,38.1609],[111.6865,38.1508],[111.6732,38.1274],[111.6461,38.1214],[111.6093,38.1018],[111.5592,38.0944],[111.5403,38.0817],[111.5347,38.0696],[111.5161,38.0651],[111.5094,38.0494],[111.5208,38.0343],[111.5106,38.0236],[111.5169,38.0029],[111.5306,37.9963],[111.5322,37.977],[111.5377,37.9591],[111.5534,37.9363],[111.5716,37.9232],[111.5678,37.9133],[111.5702,37.8976],[111.5414,37.8847],[111.5576,37.8794],[111.566,37.8481],[111.5877,37.8565],[111.5992,37.8546],[111.6349,37.8618],[111.6484,37.8559],[111.6625,37.8632],[111.6752,37.8618],[111.6842,37.8749],[111.706,37.8774],[111.7291,37.8735],[111.7273,37.8823],[111.7467,37.9049],[111.7816,37.9054],[111.8137,37.8967],[111.8396,37.9],[111.8579,37.8892],[111.8707,37.8936],[111.9173,37.8911],[111.9305,37.8854],[111.9418,37.8893],[111.9418,37.899],[111.9511,37.9083],[111.9989,37.9309],[112.0328,37.9356],[112.0465,37.949],[112.0167,37.9604],[112.0212,37.9757],[112.0302,37.9722],[112.0354,37.9889],[112.0285,38.013],[112.0112,38.0256],[112.0137,38.0776],[112.0099,38.0967],[112.0011,38.1028],[111.9925,38.1197],[112.0193,38.1515],[112.029,38.1556],[112.0399,38.1712]]]},"properties":{"region_code":"CN-14-1401-140123","parent_region_code":"CN-14-1401","name":"娄烦县","level":"county","has_children":false,"full_path":"中国 / 山西省 / 太原市 / 娄烦县","source_admin_code":"140123","osm_relation_id":3022867}},
{"type":"Feature","geometry":{"type":"Polygon","coordinates":[[[112.3297,37.9802],[112.3088,38.0182],[112.2949,38.027],[112.2748,38.051],[112.2574,38.0519],[112.2464,38.0583],[112.2459,38.0705],[112.2235,38.0736],[112.2373,38.0906],[112.2232,38.0977],[112.2188,38.1093],[112.1975,38.1184],[112.2086,38.1328],[112.1962,38.1417],[112.1756,38.1417],[112.1527,38.1492],[112.1227,38.1422],[112.1098,38.1576],[112.085,38.1688],[112.0716,38.1662],[112.0495,38.175],[112.0399,38.1712],[112.029,38.1556],[112.0193,38.1515],[111.9925,38.1197],[112.0011,38.1028],[112.0099,38.0967],[112.0137,38.0776],[112.0112,38.0256],[112.0285,38.013],[112.0354,37.9889],[112.0302,37.9722],[112.0212,37.9757],[112.0167,37.9604],[112.0465,37.949],[112.0328,37.9356],[111.9989,37.9309],[111.9511,37.9083],[111.9418,37.899],[111.9418,37.8893],[111.9305,37.8854],[111.9173,37.8911],[111.8707,37.8936],[111.8579,37.8892],[111.8396,37.9],[111.8137,37.8967],[111.7816,37.9054],[111.7467,37.9049],[111.7273,37.8823],[111.7291,37.8735],[111.7405,37.8701],[111.7383,37.8593],[111.7615,37.8407],[111.7686,37.8275],[111.7856,37.8267],[111.8117,37.8093],[111.8179,37.7933],[111.8349,37.7919],[111.8507,37.7958],[111.8723,37.7916],[111.8901,37.7982],[111.9073,37.7914],[111.9051,37.7773],[111.9113,37.774],[111.9179,37.7531],[111.9257,37.747],[111.93,37.7309],[111.9503,37.731],[111.9554,37.7173],[111.9629,37.7129],[111.9942,37.7215],[112.0165,37.7227],[112.0281,37.7104],[112.0401,37.7069],[112.066,37.7153],[112.0862,37.7123],[112.0962,37.716],[112.1119,37.6978],[112.1203,37.6987],[112.1286,37.6871],[112.1515,37.6846],[112.1723,37.669],[112.1907,37.6856],[112.2034,37.6843],[112.2117,37.6921],[112.2279,37.6976],[112.2445,37.6969],[112.2525,37.7055],[112.2472,37.7125],[112.2724,37.7452],[112.2968,37.7595],[112.3238,37.7814],[112.3213,37.7927],[112.3294,37.7969],[112.3319,37.8212],[112.3136,37.8254],[112.2874,37.8482],[112.2783,37.8633],[112.2801,37.8769],[112.2945,37.8718],[112.296,37.8826],[112.2803,37.8819],[112.2585,37.9188],[112.2666,37.9255],[112.3023,37.9343],[112.3308,37.9564],[112.3157,37.9767],[112.3297,37.9802]]]},"properties":{"region_code":"CN-14-1401-140181","parent_region_code":"CN-14-1401","name":"古交市","level":"county","has_children":false,"full_path":"中国 / 山西省 / 太原市 / 古交市","source_admin_code":"140181","osm_relation_id":3441528}}
]}