{"type":"FeatureCollection", "features": [
{"type":"Feature","geometry":{"type":"Polygon","coordinates":[[[111.6519,35.9029],[111.6581,35.9058],[111.6653,35.9065],[111.6718,35.9185],[111.6715,35.9244],[111.6753,35.9366],[111.6793,35.9377],[111.686,35.9356],[111.6887,35.941],[111.6942,35.944],[111.6981,35.9579],[111.7025,35.963],[111.704,35.9698],[111.7075,35.9718],[111.7082,35.9771],[111.7131,35.9817],[111.7108,35.9914],[111.7146,35.9974],[111.7165,36.0099],[111.7224,36.0129],[111.7307,36.0136],[111.7481,36.0237],[111.7568,36.0251],[111.77,36.0201],[111.7732,36.0285],[111.7808,36.0345],[111.7831,36.0413],[111.7963,36.044],[111.8038,36.0493],[111.8151,36.0517],[111.8199,36.0619],[111.8185,36.0708],[111.8151,36.0741],[111.8123,36.0772],[111.8112,36.086],[111.8124,36.0895],[111.8194,36.0963],[111.8204,36.1016],[111.8044,36.1064],[111.7959,36.1095],[111.7794,36.1081],[111.7737,36.1096],[111.7552,36.1063],[111.7416,36.0991],[111.7235,36.0997],[111.7149,36.0959],[111.7051,36.0967],[111.6904,36.092],[111.6798,36.0963],[111.6712,36.0941],[111.6636,36.0952],[111.6612,36.0998],[111.65,36.1008],[111.641,36.108],[111.6343,36.1104],[111.639,36.1183],[111.6399,36.1278],[111.6443,36.1431],[111.6437,36.1513],[111.636,36.1554],[111.6159,36.1555],[111.6076,36.1578],[111.6046,36.1612],[111.5972,36.1564],[111.5933,36.1516],[111.5873,36.1518],[111.5804,36.1551],[111.5662,36.1574],[111.562,36.1653],[111.5683,36.1735],[111.5708,36.1849],[111.5748,36.1908],[111.5904,36.196],[111.5914,36.2003],[111.5986,36.2073],[111.5926,36.2122],[111.5803,36.211],[111.5661,36.2193],[111.5592,36.2219],[111.5564,36.2254],[111.5495,36.2275],[111.539,36.224],[111.5346,36.221],[111.5301,36.2223],[111.5239,36.2273],[111.5195,36.2276],[111.5075,36.2343],[111.5005,36.2366],[111.4974,36.2412],[111.4916,36.2438],[111.4923,36.2518],[111.4947,36.254],[111.4937,36.2635],[111.4899,36.2695],[111.4764,36.2753],[111.4748,36.2801],[111.4632,36.2916],[111.4539,36.2918],[111.4462,36.3003],[111.4429,36.306],[111.436,36.309],[111.4306,36.3156],[111.4152,36.321],[111.413,36.3199],[111.3991,36.3208],[111.3789,36.3194],[111.3664,36.3143],[111.3606,36.3181],[111.36,36.3268],[111.3487,36.3274],[111.3437,36.3303],[111.3424,36.3261],[111.3362,36.3199],[111.3241,36.3134],[111.3214,36.3097],[111.3186,36.2964],[111.3124,36.2939],[111.3031,36.2855],[111.3051,36.2753],[111.2994,36.2724],[111.2959,36.2662],[111.2874,36.2638],[111.2872,36.2586],[111.2836,36.2544],[111.2931,36.2506],[111.2948,36.2421],[111.2977,36.2407],[111.2918,36.2332],[111.2876,36.2304],[111.2829,36.2226],[111.2654,36.223],[111.2588,36.2172],[111.2512,36.2158],[111.2452,36.2127],[111.2267,36.2007],[111.2252,36.1933],[111.2195,36.1928],[111.2158,36.197],[111.2053,36.1975],[111.2061,36.2031],[111.1834,36.215],[111.1789,36.2056],[111.1663,36.202],[111.1536,36.2057],[111.1468,36.2032],[111.1398,36.208],[111.133,36.2067],[111.1269,36.2111],[111.123,36.211],[111.1209,36.1976],[111.1086,36.1927],[111.1075,36.1858],[111.1037,36.1766],[111.102,36.1585],[111.0968,36.1559],[111.0856,36.147],[111.0947,36.1343],[111.1071,36.1352],[111.1145,36.1315],[111.1265,36.1292],[111.1319,36.1224],[111.1388,36.1192],[111.1445,36.1189],[111.1655,36.1203],[111.1744,36.1199],[111.1796,36.1162],[111.1824,36.1107],[111.1952,36.112],[111.214,36.1157],[111.2235,36.1195],[111.2333,36.1179],[111.2391,36.1148],[111.2408,36.0979],[111.2467,36.0918],[111.2505,36.0817],[111.2645,36.0676],[111.2781,36.0619],[111.2808,36.0531],[111.2895,36.0481],[111.2954,36.052],[111.3016,36.0506],[111.3048,36.0471],[111.3203,36.0441],[111.3318,36.0394],[111.3442,36.0434],[111.3554,36.0396],[111.357,36.037],[111.3698,36.0323],[111.3894,36.0264],[111.397,36.0258],[111.4036,36.0352],[111.4104,36.0352],[111.4175,36.0301],[111.4205,36.0229],[111.4165,36.017],[111.419,36.0144],[111.425,36.0153],[111.4454,36.0141],[111.4575,36.0173],[111.4621,36.0173],[111.4836,36.0106],[111.4892,36.0066],[111.494,35.9988],[111.4877,35.9804],[111.496,35.9807],[111.5102,35.978],[111.52,35.9799],[111.5301,35.9797],[111.5456,35.9814],[111.5547,35.9709],[111.5627,35.9517],[111.564,35.943],[111.569,35.9392],[111.5776,35.9399],[111.5852,35.9386],[111.5871,35.9313],[111.5909,35.928],[111.6045,35.9235],[111.6097,35.9341],[111.6179,35.9356],[111.6262,35.9297],[111.6344,35.9153],[111.6442,35.9121],[111.6487,35.9087],[111.6519,35.9029]]]},"properties":{"region_code":"CN-14-1410-141002","parent_region_code":"CN-14-1410","name":"尧都区","level":"county","has_children":false,"full_path":"中国 / 山西省 / 临汾市 / 尧都区","source_admin_code":"141002","osm_relation_id":3286001}},
{"type":"Feature","geometry":{"type":"Polygon","coordinates":[[[111.4374,35.5588],[111.4558,35.5647],[111.4592,35.5623],[111.4664,35.5625],[111.4739,35.5599],[111.4782,35.5642],[111.4851,35.5661],[111.4919,35.5621],[111.5005,35.5668],[111.5112,35.5691],[111.5138,35.5712],[111.5279,35.5683],[111.5338,35.5657],[111.5447,35.5675],[111.5535,35.5671],[111.562,35.5554],[111.5698,35.553],[111.5733,35.5584],[111.5789,35.5591],[111.5769,35.5674],[111.5769,35.583],[111.5857,35.5862],[111.5828,35.594],[111.5897,35.5919],[111.595,35.5937],[111.595,35.5983],[111.5987,35.6032],[111.597,35.6129],[111.6,35.6166],[111.6021,35.6291],[111.6123,35.6375],[111.6151,35.6457],[111.61,35.6502],[111.6118,35.6539],[111.6108,35.661],[111.618,35.6685],[111.6177,35.671],[111.6073,35.6752],[111.6002,35.6704],[111.5946,35.6761],[111.5928,35.6837],[111.5962,35.6946],[111.6062,35.6964],[111.6097,35.7057],[111.6202,35.7064],[111.6209,35.712],[111.6245,35.713],[111.6251,35.7218],[111.5944,35.7247],[111.5924,35.7304],[111.5803,35.7277],[111.5769,35.7246],[111.5665,35.7237],[111.5666,35.7313],[111.5718,35.741],[111.5754,35.7438],[111.5814,35.7439],[111.5871,35.7498],[111.5898,35.7595],[111.5833,35.7633],[111.5845,35.7827],[111.5937,35.7862],[111.5946,35.795],[111.589,35.8025],[111.5927,35.8063],[111.591,35.8099],[111.5923,35.817],[111.5965,35.8174],[111.5951,35.8249],[111.5974,35.8291],[111.5939,35.8522],[111.5835,35.8541],[111.5749,35.8624],[111.5696,35.8528],[111.5615,35.8496],[111.5548,35.8445],[111.5512,35.8367],[111.5462,35.8301],[111.5306,35.8244],[111.5203,35.8243],[111.5152,35.8199],[111.5067,35.8156],[111.5026,35.8178],[111.4909,35.8176],[111.4857,35.8192],[111.4821,35.8147],[111.477,35.8134],[111.469,35.799],[111.4613,35.7982],[111.4547,35.8027],[111.4333,35.7999],[111.4311,35.7931],[111.4387,35.7881],[111.4335,35.7814],[111.437,35.7791],[111.4342,35.7727],[111.4294,35.7701],[111.426,35.7607],[111.4149,35.7532],[111.4136,35.7493],[111.4047,35.7452],[111.3975,35.7356],[111.3926,35.7324],[111.3894,35.725],[111.3887,35.7124],[111.376,35.707],[111.3796,35.7035],[111.3856,35.7025],[111.3908,35.699],[111.4029,35.7013],[111.4048,35.6966],[111.4131,35.6941],[111.411,35.6843],[111.4128,35.6798],[111.4311,35.6791],[111.4317,35.6826],[111.438,35.6827],[111.4449,35.6866],[111.4439,35.6766],[111.4402,35.6716],[111.4401,35.6662],[111.4369,35.6644],[111.4396,35.658],[111.4467,35.6553],[111.4459,35.6477],[111.4411,35.6366],[111.4471,35.6253],[111.4534,35.6193],[111.4498,35.613],[111.4426,35.6092],[111.4418,35.5975],[111.4456,35.5956],[111.4446,35.5906],[111.4493,35.5875],[111.4474,35.5739],[111.4375,35.561],[111.4374,35.5588]]]},"properties":{"region_code":"CN-14-1410-141021","parent_region_code":"CN-14-1410","name":"曲沃县","level":"county","has_children":false,"full_path":"中国 / 山西省 / 临汾市 / 曲沃县","source_admin_code":"141021","osm_relation_id":3285997}},
{"type":"Feature","geometry":{"type":"Polygon","coordinates":[[[111.6151,35.6457],[111.6261,35.6397],[111.6492,35.643],[111.655,35.643],[111.6587,35.6491],[111.6641,35.6477],[111.6693,35.6569],[111.6751,35.6564],[111.678,35.6514],[111.6758,35.6478],[111.665,35.6419],[111.6731,35.639],[111.682,35.641],[111.6937,35.6412],[111.6993,35.6426],[111.7204,35.6356],[111.7291,35.6341],[111.7375,35.6292],[111.7546,35.6166],[111.7593,35.6154],[111.7736,35.6051],[111.7732,35.6022],[111.7839,35.6006],[111.7879,35.5978],[111.7979,35.5984],[111.808,35.5966],[111.8241,35.6011],[111.8311,35.6048],[111.8451,35.5994],[111.8458,35.5969],[111.8415,35.5891],[111.8273,35.58],[111.829,35.5779],[111.8276,35.5691],[111.8355,35.5593],[111.8372,35.5538],[111.8557,35.5527],[111.858,35.5494],[111.8696,35.548],[111.8779,35.5487],[111.8847,35.5447],[111.9023,35.5426],[111.9024,35.5333],[111.8967,35.5314],[111.8969,35.524],[111.8821,35.5098],[111.8768,35.5156],[111.8684,35.5146],[111.8635,35.5163],[111.8535,35.5126],[111.8433,35.5112],[111.8452,35.5001],[111.8383,35.4937],[111.8384,35.4864],[111.8405,35.4825],[111.8319,35.4825],[111.8277,35.4792],[111.8291,35.4702],[111.8316,35.4642],[111.8321,35.454],[111.8263,35.452],[111.8251,35.4465],[111.8166,35.4452],[111.8144,35.4396],[111.806,35.4366],[111.811,35.43],[111.82,35.4294],[111.8267,35.435],[111.8322,35.4349],[111.8361,35.4285],[111.8424,35.4252],[111.8452,35.4145],[111.8454,35.3992],[111.848,35.4004],[111.8684,35.3949],[111.872,35.3906],[111.8791,35.3881],[111.8881,35.3892],[111.8913,35.3877],[111.9021,35.3907],[111.9153,35.3865],[111.9199,35.388],[111.9298,35.3875],[111.9359,35.3888],[111.9374,35.3974],[111.9492,35.4017],[111.9519,35.4062],[111.9507,35.4118],[111.9552,35.4168],[111.9592,35.4253],[111.9675,35.4326],[111.9648,35.4487],[111.9659,35.4531],[111.9595,35.4557],[111.9607,35.463],[111.9568,35.4699],[111.9601,35.4758],[111.9603,35.4826],[111.9548,35.4898],[111.9508,35.4904],[111.9476,35.4993],[111.9379,35.5081],[111.9378,35.5152],[111.9472,35.5156],[111.9565,35.5179],[111.9574,35.529],[111.9502,35.539],[111.9492,35.5437],[111.954,35.5478],[111.9546,35.5515],[111.9612,35.5617],[111.9602,35.569],[111.9531,35.5747],[111.9468,35.574],[111.94,35.578],[111.9404,35.5862],[111.9378,35.5923],[111.9407,35.6001],[111.9342,35.6078],[111.937,35.6158],[111.9345,35.6209],[111.9351,35.6272],[111.943,35.6268],[111.9527,35.6282],[111.9545,35.6331],[111.9527,35.6403],[111.9555,35.654],[111.9525,35.6588],[111.958,35.6675],[111.9645,35.6694],[111.9856,35.6666],[111.9878,35.6725],[111.988,35.6799],[112.0006,35.6841],[112.0078,35.689],[112.0168,35.6899],[112.0187,35.7018],[112.0248,35.7082],[112.0266,35.7276],[112.0151,35.7376],[112.0161,35.7437],[112.0193,35.7456],[112.0202,35.7542],[112.0308,35.7579],[112.0439,35.7672],[112.0507,35.7688],[112.0535,35.7846],[112.0404,35.8001],[112.03,35.8075],[112.0235,35.8159],[112.0193,35.8168],[112.0244,35.8238],[112.0322,35.8274],[112.0359,35.8416],[112.0324,35.8543],[112.0242,35.853],[112.0155,35.8496],[111.9931,35.8514],[111.9859,35.8501],[111.979,35.8464],[111.9713,35.8503],[111.9704,35.8585],[111.9591,35.8545],[111.9518,35.8544],[111.9452,35.8505],[111.9386,35.85],[111.9321,35.8474],[111.9199,35.8454],[111.9132,35.8482],[111.9057,35.8546],[111.8971,35.8501],[111.909,35.8394],[111.9042,35.838],[111.8991,35.8427],[111.8887,35.8394],[111.8698,35.8426],[111.861,35.8353],[111.8612,35.8321],[111.8518,35.8217],[111.8549,35.8182],[111.851,35.8151],[111.8401,35.8156],[111.8325,35.8219],[111.825,35.8207],[111.8156,35.8254],[111.8016,35.8281],[111.7943,35.8307],[111.7805,35.8324],[111.7839,35.8367],[111.7896,35.8394],[111.7913,35.8448],[111.7807,35.8479],[111.7691,35.8448],[111.7601,35.8439],[111.7567,35.8391],[111.7505,35.8438],[111.7477,35.8489],[111.7391,35.8501],[111.7355,35.8457],[111.7286,35.8485],[111.7215,35.8564],[111.716,35.8542],[111.7126,35.8464],[111.7062,35.8475],[111.7003,35.8554],[111.6953,35.8585],[111.6845,35.8583],[111.6807,35.8538],[111.6625,35.8424],[111.6515,35.8421],[111.6438,35.8447],[111.641,35.8496],[111.6334,35.8559],[111.6184,35.8549],[111.6048,35.8627],[111.5749,35.8624],[111.5835,35.8541],[111.5939,35.8522],[111.5974,35.8291],[111.5951,35.8249],[111.5965,35.8174],[111.5923,35.817],[111.591,35.8099],[111.5927,35.8063],[111.589,35.8025],[111.5946,35.795],[111.5937,35.7862],[111.5845,35.7827],[111.5833,35.7633],[111.5898,35.7595],[111.5871,35.7498],[111.5814,35.7439],[111.5754,35.7438],[111.5718,35.741],[111.5666,35.7313],[111.5665,35.7237],[111.5769,35.7246],[111.5803,35.7277],[111.5924,35.7304],[111.5944,35.7247],[111.6251,35.7218],[111.6245,35.713],[111.6209,35.712],[111.6202,35.7064],[111.6097,35.7057],[111.6062,35.6964],[111.5962,35.6946],[111.5928,35.6837],[111.5946,35.6761],[111.6002,35.6704],[111.6073,35.6752],[111.6177,35.671],[111.618,35.6685],[111.6108,35.661],[111.6118,35.6539],[111.61,35.6502],[111.6151,35.6457]]]},"properties":{"region_code":"CN-14-1410-141022","parent_region_code":"CN-14-1410","name":"翼城县","level":"county","has_children":false,"full_path":"中国 / 山西省 / 临汾市 / 翼城县","source_admin_code":"141022","osm_relation_id":3286002}},
{"type":"Feature","geometry":{"type":"Polygon","coordinates":[[[111.2808,36.0531],[111.273,36.0428],[111.2872,36.0336],[111.2849,36.0244],[111.2819,36.023],[111.2798,36.0096],[111.2772,36.0047],[111.271,36.0022],[111.2738,35.9984],[111.2725,35.9915],[111.2742,35.9773],[111.2773,35.9742],[111.2768,35.9668],[111.2799,35.9647],[111.2769,35.9538],[111.2706,35.9429],[111.2656,35.9402],[111.2552,35.9375],[111.2485,35.9284],[111.2398,35.9227],[111.2361,35.9221],[111.2247,35.9121],[111.2195,35.9156],[111.2156,35.9112],[111.2102,35.909],[111.2081,35.9017],[111.209,35.8925],[111.2014,35.8829],[111.2054,35.8784],[111.2039,35.8714],[111.1971,35.8692],[111.1921,35.8594],[111.1857,35.8511],[111.1763,35.8473],[111.1682,35.8423],[111.1593,35.8441],[111.1544,35.8421],[111.1478,35.8439],[111.1385,35.8403],[111.1334,35.8342],[111.1325,35.8297],[111.1269,35.8289],[111.1164,35.8242],[111.1136,35.8212],[111.1153,35.8156],[111.1231,35.8086],[111.1285,35.8069],[111.1349,35.8079],[111.1401,35.8063],[111.149,35.7978],[111.155,35.795],[111.1659,35.7738],[111.1763,35.7702],[111.1848,35.7655],[111.1853,35.7459],[111.1885,35.743],[111.1887,35.7215],[111.1902,35.7099],[111.2096,35.7104],[111.2197,35.7118],[111.2333,35.7086],[111.2376,35.7033],[111.2378,35.6958],[111.2411,35.6959],[111.2412,35.6851],[111.2439,35.6832],[111.2612,35.6832],[111.2693,35.6848],[111.2769,35.6924],[111.2789,35.7046],[111.2894,35.7019],[111.2982,35.7074],[111.3049,35.7081],[111.3073,35.7111],[111.3178,35.7109],[111.3183,35.7152],[111.3294,35.7126],[111.3331,35.7076],[111.3356,35.6997],[111.3312,35.6906],[111.3417,35.6817],[111.3413,35.6714],[111.3449,35.6684],[111.3502,35.6684],[111.3583,35.6747],[111.3566,35.6808],[111.3594,35.6871],[111.3617,35.6979],[111.3641,35.7006],[111.376,35.707],[111.3887,35.7124],[111.3894,35.725],[111.3926,35.7324],[111.3975,35.7356],[111.4047,35.7452],[111.4136,35.7493],[111.4149,35.7532],[111.426,35.7607],[111.4294,35.7701],[111.4342,35.7727],[111.437,35.7791],[111.4335,35.7814],[111.4387,35.7881],[111.4311,35.7931],[111.4333,35.7999],[111.4547,35.8027],[111.4613,35.7982],[111.469,35.799],[111.477,35.8134],[111.4821,35.8147],[111.4857,35.8192],[111.4909,35.8176],[111.5026,35.8178],[111.5067,35.8156],[111.5152,35.8199],[111.5203,35.8243],[111.5306,35.8244],[111.5462,35.8301],[111.5512,35.8367],[111.5548,35.8445],[111.5615,35.8496],[111.5696,35.8528],[111.5749,35.8624],[111.6048,35.8627],[111.6184,35.8549],[111.6334,35.8559],[111.641,35.8496],[111.6438,35.8447],[111.6515,35.8421],[111.6625,35.8424],[111.6807,35.8538],[111.6761,35.8603],[111.6668,35.866],[111.6667,35.8686],[111.6588,35.874],[111.6533,35.8748],[111.6477,35.8785],[111.6469,35.899],[111.6519,35.9029],[111.6487,35.9087],[111.6442,35.9121],[111.6344,35.9153],[111.6262,35.9297],[111.6179,35.9356],[111.6097,35.9341],[111.6045,35.9235],[111.5909,35.928],[111.5871,35.9313],[111.5852,35.9386],[111.5776,35.9399],[111.569,35.9392],[111.564,35.943],[111.5627,35.9517],[111.5547,35.9709],[111.5456,35.9814],[111.5301,35.9797],[111.52,35.9799],[111.5102,35.978],[111.496,35.9807],[111.4877,35.9804],[111.494,35.9988],[111.4892,36.0066],[111.4836,36.0106],[111.4621,36.0173],[111.4575,36.0173],[111.4454,36.0141],[111.425,36.0153],[111.419,36.0144],[111.4165,36.017],[111.4205,36.0229],[111.4175,36.0301],[111.4104,36.0352],[111.4036,36.0352],[111.397,36.0258],[111.3894,36.0264],[111.3698,36.0323],[111.357,36.037],[111.3554,36.0396],[111.3442,36.0434],[111.3318,36.0394],[111.3203,36.0441],[111.3048,36.0471],[111.3016,36.0506],[111.2954,36.052],[111.2895,36.0481],[111.2808,36.0531]]]},"properties":{"region_code":"CN-14-1410-141023","parent_region_code":"CN-14-1410","name":"襄汾县","level":"county","has_children":false,"full_path":"中国 / 山西省 / 临汾市 / 襄汾县","source_admin_code":"141023","osm_relation_id":3285999}},
{"type":"Feature","geometry":{"type":"Polygon","coordinates":[[[111.8044,36.1064],[111.8094,36.11],[111.8165,36.1105],[111.8189,36.1157],[111.8261,36.1189],[111.8322,36.1259],[111.8412,36.1269],[111.8443,36.1327],[111.8568,36.1395],[111.8616,36.1449],[111.8744,36.1624],[111.8899,36.1679],[111.8945,36.1718],[111.8913,36.18],[111.8851,36.1816],[111.8823,36.186],[111.878,36.1979],[111.8741,36.2038],[111.8605,36.2149],[111.8559,36.221],[111.8602,36.2345],[111.8603,36.2397],[111.8656,36.2472],[111.8698,36.2493],[111.8715,36.2698],[111.8781,36.2694],[111.8809,36.2728],[111.8863,36.2698],[111.8891,36.2788],[111.8862,36.2853],[111.8902,36.2901],[111.8871,36.2972],[111.8837,36.3112],[111.8927,36.318],[111.8949,36.3274],[111.8921,36.3362],[111.8873,36.3404],[111.8804,36.3424],[111.8827,36.3499],[111.8703,36.3574],[111.865,36.3619],[111.8645,36.3727],[111.8625,36.3768],[111.8654,36.3841],[111.8596,36.3925],[111.8617,36.4042],[111.8695,36.4083],[111.8756,36.4093],[111.8853,36.4184],[111.8814,36.426],[111.8832,36.4296],[111.8784,36.4394],[111.8686,36.4422],[111.8618,36.4424],[111.8544,36.4387],[111.8431,36.4387],[111.8398,36.4414],[111.8192,36.4477],[111.8136,36.4572],[111.8093,36.4594],[111.7919,36.4608],[111.7902,36.4576],[111.7813,36.4559],[111.7778,36.4535],[111.7732,36.4569],[111.7602,36.4551],[111.7542,36.4487],[111.7468,36.4447],[111.7425,36.4546],[111.7303,36.4543],[111.7304,36.4587],[111.7191,36.4617],[111.7114,36.46],[111.705,36.4624],[111.7018,36.4601],[111.6949,36.461],[111.6914,36.4658],[111.6933,36.4684],[111.6984,36.4864],[111.702,36.488],[111.7041,36.4951],[111.7024,36.5004],[111.6911,36.5035],[111.6805,36.5025],[111.6767,36.4913],[111.6703,36.486],[111.6594,36.4867],[111.6519,36.4852],[111.6462,36.4862],[111.6368,36.4835],[111.6234,36.4681],[111.6206,36.47],[111.6113,36.4692],[111.6089,36.4644],[111.6158,36.4611],[111.6101,36.4575],[111.6001,36.4568],[111.5967,36.4503],[111.5874,36.4517],[111.5853,36.4569],[111.5774,36.4603],[111.5773,36.4654],[111.5707,36.4777],[111.5606,36.4794],[111.558,36.4846],[111.5596,36.4901],[111.5558,36.4997],[111.5481,36.5038],[111.5441,36.5027],[111.5425,36.4966],[111.5323,36.4965],[111.523,36.495],[111.5151,36.4902],[111.5053,36.4873],[111.5071,36.4827],[111.5015,36.482],[111.4975,36.4873],[111.4842,36.4883],[111.4781,36.4927],[111.4714,36.4879],[111.4646,36.4858],[111.4501,36.4857],[111.446,36.4922],[111.4391,36.4948],[111.434,36.4918],[111.4303,36.4941],[111.429,36.5016],[111.4216,36.5068],[111.4221,36.512],[111.4145,36.5142],[111.4081,36.5207],[111.3992,36.5197],[111.3881,36.5425],[111.385,36.5384],[111.3732,36.5359],[111.3712,36.5261],[111.3739,36.5208],[111.3697,36.5181],[111.3623,36.5203],[111.3566,36.5097],[111.3589,36.5025],[111.3748,36.4862],[111.3765,36.4787],[111.3866,36.4757],[111.3871,36.4662],[111.3826,36.4575],[111.3889,36.4525],[111.3927,36.4432],[111.3935,36.4371],[111.3754,36.4365],[111.3614,36.4239],[111.3644,36.4137],[111.3707,36.4096],[111.3752,36.4026],[111.3725,36.3952],[111.3737,36.3854],[111.3726,36.3757],[111.3583,36.3744],[111.3535,36.3707],[111.3523,36.3632],[111.3446,36.3609],[111.3477,36.3485],[111.3419,36.3402],[111.3409,36.335],[111.3437,36.3303],[111.3487,36.3274],[111.36,36.3268],[111.3606,36.3181],[111.3664,36.3143],[111.3789,36.3194],[111.3991,36.3208],[111.413,36.3199],[111.4152,36.321],[111.4306,36.3156],[111.436,36.309],[111.4429,36.306],[111.4462,36.3003],[111.4539,36.2918],[111.4632,36.2916],[111.4748,36.2801],[111.4764,36.2753],[111.4899,36.2695],[111.4937,36.2635],[111.4947,36.254],[111.4923,36.2518],[111.4916,36.2438],[111.4974,36.2412],[111.5005,36.2366],[111.5075,36.2343],[111.5195,36.2276],[111.5239,36.2273],[111.5301,36.2223],[111.5346,36.221],[111.539,36.224],[111.5495,36.2275],[111.5564,36.2254],[111.5592,36.2219],[111.5661,36.2193],[111.5803,36.211],[111.5926,36.2122],[111.5986,36.2073],[111.5914,36.2003],[111.5904,36.196],[111.5748,36.1908],[111.5708,36.1849],[111.5683,36.1735],[111.562,36.1653],[111.5662,36.1574],[111.5804,36.1551],[111.5873,36.1518],[111.5933,36.1516],[111.5972,36.1564],[111.6046,36.1612],[111.6076,36.1578],[111.6159,36.1555],[111.636,36.1554],[111.6437,36.1513],[111.6443,36.1431],[111.6399,36.1278],[111.639,36.1183],[111.6343,36.1104],[111.641,36.108],[111.65,36.1008],[111.6612,36.0998],[111.6636,36.0952],[111.6712,36.0941],[111.6798,36.0963],[111.6904,36.092],[111.7051,36.0967],[111.7149,36.0959],[111.7235,36.0997],[111.7416,36.0991],[111.7552,36.1063],[111.7737,36.1096],[111.7794,36.1081],[111.7959,36.1095],[111.8044,36.1064]]]},"properties":{"region_code":"CN-14-1410-141024","parent_region_code":"CN-14-1410","name":"洪洞县","level":"county","has_children":false,"full_path":"中国 / 山西省 / 临汾市 / 洪洞县","source_admin_code":"141024","osm_relation_id":3285992}},
{"type":"Feature","geometry":{"type":"Polygon","coordinates":[[[111.8151,36.0741],[111.8222,36.0789],[111.8237,36.0823],[111.8343,36.0838],[111.8387,36.0826],[111.841,36.0777],[111.8481,36.0794],[111.8472,36.0904],[111.8399,36.1007],[111.8473,36.1008],[111.8522,36.0965],[111.857,36.1002],[111.8716,36.0984],[111.8807,36.0954],[111.8841,36.1018],[111.8876,36.0941],[111.8854,36.0911],[111.8848,36.0802],[111.8886,36.078],[111.9015,36.0787],[111.9065,36.0697],[111.9172,36.073],[111.9228,36.073],[111.9372,36.0695],[111.9394,36.0666],[111.9468,36.0635],[111.956,36.0647],[111.9569,36.0607],[111.965,36.0582],[111.9715,36.0668],[111.9782,36.0702],[111.9827,36.0697],[111.9939,36.064],[111.9957,36.0588],[112.0065,36.0594],[112.0144,36.0572],[112.0184,36.0502],[112.0311,36.0475],[112.0403,36.0432],[112.0468,36.037],[112.0528,36.0407],[112.0567,36.0482],[112.0714,36.0467],[112.0788,36.0448],[112.0865,36.0489],[112.0936,36.0609],[112.1046,36.0698],[112.1105,36.0802],[112.1211,36.0858],[112.1266,36.0826],[112.1424,36.0864],[112.1494,36.0904],[112.1522,36.095],[112.1579,36.0986],[112.1592,36.1029],[112.1705,36.1055],[112.1758,36.1092],[112.1815,36.1091],[112.1824,36.1173],[112.1876,36.1248],[112.1774,36.1319],[112.1585,36.1349],[112.1539,36.143],[112.156,36.1483],[112.1561,36.1554],[112.1525,36.1585],[112.1453,36.1599],[112.1419,36.1744],[112.1456,36.1784],[112.144,36.185],[112.1438,36.2073],[112.1511,36.2126],[112.138,36.2145],[112.1303,36.2179],[112.1272,36.2251],[112.1287,36.2311],[112.1205,36.2348],[112.1213,36.243],[112.1147,36.2502],[112.1141,36.2589],[112.1117,36.2684],[112.1138,36.2719],[112.1116,36.2763],[112.1141,36.2841],[112.1066,36.2849],[112.0985,36.2914],[112.0931,36.2912],[112.0892,36.2975],[112.0846,36.2986],[112.077,36.3124],[112.0651,36.3208],[112.0645,36.33],[112.0503,36.3306],[112.04,36.325],[112.0348,36.3245],[112.0272,36.3181],[112.0218,36.3165],[112.0133,36.3181],[112.0059,36.3214],[111.9993,36.3295],[112.0037,36.3321],[112.0155,36.3304],[112.0223,36.3323],[112.0196,36.3455],[112.0269,36.3524],[112.0346,36.3507],[112.0441,36.3529],[112.0506,36.3563],[112.0488,36.3642],[112.0519,36.3679],[112.0565,36.3667],[112.0631,36.3684],[112.0671,36.372],[112.066,36.3819],[112.0747,36.3872],[112.0725,36.3954],[112.0789,36.3975],[112.087,36.404],[112.084,36.4143],[112.0842,36.4209],[112.0869,36.4274],[112.0829,36.4337],[112.0842,36.4398],[112.0758,36.4484],[112.0786,36.4517],[112.0779,36.4564],[112.0863,36.4575],[112.0862,36.4603],[112.0792,36.4654],[112.0819,36.4742],[112.076,36.4816],[112.0757,36.4949],[112.0729,36.4988],[112.0746,36.5025],[112.0908,36.5051],[112.0953,36.5005],[112.099,36.5009],[112.1112,36.4921],[112.1162,36.4927],[112.1251,36.4825],[112.1304,36.4814],[112.1348,36.4732],[112.1378,36.459],[112.1475,36.4569],[112.1512,36.453],[112.1713,36.4527],[112.1795,36.4537],[112.1802,36.4623],[112.173,36.4701],[112.1739,36.4794],[112.1762,36.484],[112.1757,36.4904],[112.1629,36.4998],[112.1618,36.5115],[112.1558,36.516],[112.1488,36.5149],[112.1428,36.5169],[112.1327,36.526],[112.1266,36.5251],[112.1117,36.5402],[112.1014,36.545],[112.092,36.5565],[112.0863,36.56],[112.0804,36.5685],[112.0853,36.5762],[112.0767,36.5818],[112.0648,36.5858],[112.0623,36.5836],[112.0474,36.5841],[112.0413,36.5876],[112.0393,36.5914],[112.0359,36.5884],[112.0306,36.589],[112.0178,36.5861],[112.0121,36.5896],[112.0071,36.5855],[111.9959,36.5892],[111.9922,36.589],[111.9807,36.5815],[111.9718,36.5798],[111.9677,36.5762],[111.9732,36.5676],[111.9699,36.564],[111.9692,36.5575],[111.9621,36.5568],[111.9496,36.5507],[111.9502,36.5474],[111.9448,36.536],[111.9476,36.5318],[111.9433,36.5263],[111.9274,36.5152],[111.9237,36.5139],[111.9144,36.5175],[111.9089,36.5133],[111.9055,36.5081],[111.8887,36.5005],[111.8781,36.4979],[111.8746,36.4878],[111.8746,36.483],[111.8693,36.4773],[111.8614,36.4742],[111.8585,36.4665],[111.8589,36.4558],[111.8632,36.4483],[111.8618,36.4424],[111.8686,36.4422],[111.8784,36.4394],[111.8832,36.4296],[111.8814,36.426],[111.8853,36.4184],[111.8756,36.4093],[111.8695,36.4083],[111.8617,36.4042],[111.8596,36.3925],[111.8654,36.3841],[111.8625,36.3768],[111.8645,36.3727],[111.865,36.3619],[111.8703,36.3574],[111.8827,36.3499],[111.8804,36.3424],[111.8873,36.3404],[111.8921,36.3362],[111.8949,36.3274],[111.8927,36.318],[111.8837,36.3112],[111.8871,36.2972],[111.8902,36.2901],[111.8862,36.2853],[111.8891,36.2788],[111.8863,36.2698],[111.8809,36.2728],[111.8781,36.2694],[111.8715,36.2698],[111.8698,36.2493],[111.8656,36.2472],[111.8603,36.2397],[111.8602,36.2345],[111.8559,36.221],[111.8605,36.2149],[111.8741,36.2038],[111.878,36.1979],[111.8823,36.186],[111.8851,36.1816],[111.8913,36.18],[111.8945,36.1718],[111.8899,36.1679],[111.8744,36.1624],[111.8616,36.1449],[111.8568,36.1395],[111.8443,36.1327],[111.8412,36.1269],[111.8322,36.1259],[111.8261,36.1189],[111.8189,36.1157],[111.8165,36.1105],[111.8094,36.11],[111.8044,36.1064],[111.8204,36.1016],[111.8194,36.0963],[111.8124,36.0895],[111.8112,36.086],[111.8123,36.0772],[111.8151,36.0741]]]},"properties":{"region_code":"CN-14-1410-141025","parent_region_code":"CN-14-1410","name":"古县","level":"county","has_children":false,"full_path":"中国 / 山西省 / 临汾市 / 古县","source_admin_code":"141025","osm_relation_id":3285991}},
{"type":"Feature","geometry":{"type":"Polygon","coordinates":[[[112.0528,36.0407],[112.0627,36.0417],[112.0702,36.039],[112.0755,36.0306],[112.0681,36.0263],[112.0689,36.0237],[112.0838,36.0162],[112.0725,36.0112],[112.0673,36.0044],[112.0744,35.9966],[112.0883,35.9881],[112.0909,35.9781],[112.0972,35.9696],[112.1072,35.9643],[112.1179,35.9475],[112.1248,35.9414],[112.128,35.9409],[112.1365,35.9345],[112.1425,35.9169],[112.1368,35.9102],[112.149,35.9069],[112.1678,35.9108],[112.1825,35.9174],[112.1932,35.9117],[112.1978,35.9067],[112.2145,35.9034],[112.2243,35.9061],[112.234,35.8995],[112.2428,35.8987],[112.2569,35.905],[112.2795,35.905],[112.2771,35.9008],[112.2844,35.8965],[112.3001,35.8978],[112.3126,35.8963],[112.3229,35.8993],[112.3391,35.9012],[112.3493,35.8983],[112.365,35.8967],[112.369,35.8887],[112.379,35.895],[112.385,35.8952],[112.3929,35.898],[112.3936,35.9022],[112.4011,35.9002],[112.408,35.9088],[112.4218,35.9129],[112.4273,35.9243],[112.4425,35.9304],[112.4468,35.9282],[112.4509,35.9322],[112.4517,35.9369],[112.471,35.9434],[112.4752,35.9475],[112.4844,35.9495],[112.4887,35.9569],[112.4972,35.9582],[112.5064,35.9633],[112.5171,35.9638],[112.5277,35.9684],[112.5307,35.9742],[112.5266,35.9817],[112.5281,35.9854],[112.5208,36.0002],[112.5176,36.0183],[112.5198,36.0294],[112.5134,36.0307],[112.5092,36.0291],[112.4907,36.0308],[112.4884,36.0323],[112.4913,36.0401],[112.4898,36.0468],[112.4902,36.0546],[112.4834,36.0661],[112.4939,36.0752],[112.4943,36.0813],[112.5005,36.089],[112.5042,36.0884],[112.5177,36.0918],[112.5229,36.1004],[112.5307,36.1033],[112.535,36.1011],[112.5409,36.1033],[112.5502,36.1144],[112.5626,36.1218],[112.565,36.1295],[112.5616,36.1374],[112.5603,36.1451],[112.5521,36.1493],[112.5462,36.1627],[112.5503,36.1719],[112.5537,36.1727],[112.5545,36.1823],[112.5676,36.1904],[112.5577,36.1959],[112.5537,36.2011],[112.5578,36.2061],[112.5574,36.2123],[112.5512,36.2166],[112.5553,36.2223],[112.5641,36.2475],[112.5636,36.2557],[112.5676,36.261],[112.5653,36.2673],[112.5667,36.2746],[112.5582,36.2733],[112.5495,36.2657],[112.5457,36.2597],[112.538,36.2549],[112.5276,36.2552],[112.5112,36.2584],[112.5025,36.2581],[112.4956,36.2641],[112.4904,36.2606],[112.4853,36.2684],[112.4782,36.2693],[112.4706,36.2655],[112.4645,36.2658],[112.4668,36.2725],[112.4635,36.2809],[112.465,36.2873],[112.4624,36.2918],[112.4575,36.2946],[112.4485,36.3073],[112.4539,36.31],[112.446,36.3185],[112.4438,36.3252],[112.447,36.3276],[112.4453,36.3341],[112.4409,36.338],[112.4337,36.3404],[112.4258,36.337],[112.4181,36.344],[112.3936,36.3431],[112.3872,36.3447],[112.3703,36.3442],[112.3573,36.3398],[112.3515,36.3394],[112.3409,36.3414],[112.333,36.3451],[112.3351,36.3532],[112.3337,36.3572],[112.3271,36.3621],[112.3165,36.3626],[112.305,36.3728],[112.2963,36.3749],[112.289,36.3784],[112.2813,36.3774],[112.2751,36.3895],[112.2698,36.3971],[112.2643,36.4],[112.2593,36.4068],[112.2527,36.408],[112.2436,36.4129],[112.2383,36.412],[112.2352,36.4077],[112.2218,36.4058],[112.2141,36.4061],[112.2068,36.4044],[112.2018,36.4093],[112.2023,36.4158],[112.2052,36.421],[112.2021,36.4245],[112.2006,36.4313],[112.1929,36.4314],[112.1866,36.4371],[112.1857,36.4435],[112.1795,36.4537],[112.1713,36.4527],[112.1512,36.453],[112.1475,36.4569],[112.1378,36.459],[112.1348,36.4732],[112.1304,36.4814],[112.1251,36.4825],[112.1162,36.4927],[112.1112,36.4921],[112.099,36.5009],[112.0953,36.5005],[112.0908,36.5051],[112.0746,36.5025],[112.0729,36.4988],[112.0757,36.4949],[112.076,36.4816],[112.0819,36.4742],[112.0792,36.4654],[112.0862,36.4603],[112.0863,36.4575],[112.0779,36.4564],[112.0786,36.4517],[112.0758,36.4484],[112.0842,36.4398],[112.0829,36.4337],[112.0869,36.4274],[112.0842,36.4209],[112.084,36.4143],[112.087,36.404],[112.0789,36.3975],[112.0725,36.3954],[112.0747,36.3872],[112.066,36.3819],[112.0671,36.372],[112.0631,36.3684],[112.0565,36.3667],[112.0519,36.3679],[112.0488,36.3642],[112.0506,36.3563],[112.0441,36.3529],[112.0346,36.3507],[112.0269,36.3524],[112.0196,36.3455],[112.0223,36.3323],[112.0155,36.3304],[112.0037,36.3321],[111.9993,36.3295],[112.0059,36.3214],[112.0133,36.3181],[112.0218,36.3165],[112.0272,36.3181],[112.0348,36.3245],[112.04,36.325],[112.0503,36.3306],[112.0645,36.33],[112.0651,36.3208],[112.077,36.3124],[112.0846,36.2986],[112.0892,36.2975],[112.0931,36.2912],[112.0985,36.2914],[112.1066,36.2849],[112.1141,36.2841],[112.1116,36.2763],[112.1138,36.2719],[112.1117,36.2684],[112.1141,36.2589],[112.1147,36.2502],[112.1213,36.243],[112.1205,36.2348],[112.1287,36.2311],[112.1272,36.2251],[112.1303,36.2179],[112.138,36.2145],[112.1511,36.2126],[112.1438,36.2073],[112.144,36.185],[112.1456,36.1784],[112.1419,36.1744],[112.1453,36.1599],[112.1525,36.1585],[112.1561,36.1554],[112.156,36.1483],[112.1539,36.143],[112.1585,36.1349],[112.1774,36.1319],[112.1876,36.1248],[112.1824,36.1173],[112.1815,36.1091],[112.1758,36.1092],[112.1705,36.1055],[112.1592,36.1029],[112.1579,36.0986],[112.1522,36.095],[112.1494,36.0904],[112.1424,36.0864],[112.1266,36.0826],[112.1211,36.0858],[112.1105,36.0802],[112.1046,36.0698],[112.0936,36.0609],[112.0865,36.0489],[112.0788,36.0448],[112.0714,36.0467],[112.0567,36.0482],[112.0528,36.0407]]]},"properties":{"region_code":"CN-14-1410-141026","parent_region_code":"CN-14-1410","name":"安泽县","level":"county","has_children":false,"full_path":"中国 / 山西省 / 临汾市 / 安泽县","source_admin_code":"141026","osm_relation_id":3285986}},
{"type":"Feature","geometry":{"type":"Polygon","coordinates":[[[111.6519,35.9029],[111.6469,35.899],[111.6477,35.8785],[111.6533,35.8748],[111.6588,35.874],[111.6667,35.8686],[111.6668,35.866],[111.6761,35.8603],[111.6807,35.8538],[111.6845,35.8583],[111.6953,35.8585],[111.7003,35.8554],[111.7062,35.8475],[111.7126,35.8464],[111.716,35.8542],[111.7215,35.8564],[111.7286,35.8485],[111.7355,35.8457],[111.7391,35.8501],[111.7477,35.8489],[111.7505,35.8438],[111.7567,35.8391],[111.7601,35.8439],[111.7691,35.8448],[111.7807,35.8479],[111.7913,35.8448],[111.7896,35.8394],[111.7839,35.8367],[111.7805,35.8324],[111.7943,35.8307],[111.8016,35.8281],[111.8156,35.8254],[111.825,35.8207],[111.8325,35.8219],[111.8401,35.8156],[111.851,35.8151],[111.8549,35.8182],[111.8518,35.8217],[111.8612,35.8321],[111.861,35.8353],[111.8698,35.8426],[111.8887,35.8394],[111.8991,35.8427],[111.9042,35.838],[111.909,35.8394],[111.8971,35.8501],[111.9057,35.8546],[111.9132,35.8482],[111.9199,35.8454],[111.9321,35.8474],[111.9386,35.85],[111.9452,35.8505],[111.9518,35.8544],[111.9591,35.8545],[111.9704,35.8585],[111.9713,35.8503],[111.979,35.8464],[111.9859,35.8501],[111.9931,35.8514],[112.0155,35.8496],[112.0242,35.853],[112.0324,35.8543],[112.0322,35.8635],[112.0382,35.8632],[112.0475,35.8577],[112.0483,35.851],[112.0589,35.8438],[112.0649,35.8449],[112.0705,35.8388],[112.0799,35.8356],[112.0942,35.8383],[112.1041,35.833],[112.1109,35.8343],[112.1167,35.8305],[112.1263,35.8293],[112.1277,35.8255],[112.1341,35.8246],[112.1393,35.8209],[112.1459,35.8226],[112.1578,35.8212],[112.1701,35.8173],[112.1787,35.8168],[112.1826,35.8142],[112.1888,35.8198],[112.193,35.8174],[112.1968,35.8222],[112.201,35.8223],[112.2164,35.828],[112.2182,35.8381],[112.2143,35.8407],[112.2093,35.8481],[112.2024,35.8523],[112.2028,35.8564],[112.1945,35.8655],[112.1857,35.8653],[112.1807,35.868],[112.178,35.8728],[112.171,35.8777],[112.1671,35.8782],[112.1554,35.8716],[112.1495,35.8764],[112.1455,35.8953],[112.1357,35.8972],[112.1368,35.9102],[112.1425,35.9169],[112.1365,35.9345],[112.128,35.9409],[112.1248,35.9414],[112.1179,35.9475],[112.1072,35.9643],[112.0972,35.9696],[112.0909,35.9781],[112.0883,35.9881],[112.0744,35.9966],[112.0673,36.0044],[112.0725,36.0112],[112.0838,36.0162],[112.0689,36.0237],[112.0681,36.0263],[112.0755,36.0306],[112.0702,36.039],[112.0627,36.0417],[112.0528,36.0407],[112.0468,36.037],[112.0403,36.0432],[112.0311,36.0475],[112.0184,36.0502],[112.0144,36.0572],[112.0065,36.0594],[111.9957,36.0588],[111.9939,36.064],[111.9827,36.0697],[111.9782,36.0702],[111.9715,36.0668],[111.965,36.0582],[111.9569,36.0607],[111.956,36.0647],[111.9468,36.0635],[111.9394,36.0666],[111.9372,36.0695],[111.9228,36.073],[111.9172,36.073],[111.9065,36.0697],[111.9015,36.0787],[111.8886,36.078],[111.8848,36.0802],[111.8854,36.0911],[111.8876,36.0941],[111.8841,36.1018],[111.8807,36.0954],[111.8716,36.0984],[111.857,36.1002],[111.8522,36.0965],[111.8473,36.1008],[111.8399,36.1007],[111.8472,36.0904],[111.8481,36.0794],[111.841,36.0777],[111.8387,36.0826],[111.8343,36.0838],[111.8237,36.0823],[111.8222,36.0789],[111.8151,36.0741],[111.8185,36.0708],[111.8199,36.0619],[111.8151,36.0517],[111.8038,36.0493],[111.7963,36.044],[111.7831,36.0413],[111.7808,36.0345],[111.7732,36.0285],[111.77,36.0201],[111.7568,36.0251],[111.7481,36.0237],[111.7307,36.0136],[111.7224,36.0129],[111.7165,36.0099],[111.7146,35.9974],[111.7108,35.9914],[111.7131,35.9817],[111.7082,35.9771],[111.7075,35.9718],[111.704,35.9698],[111.7025,35.963],[111.6981,35.9579],[111.6942,35.944],[111.6887,35.941],[111.686,35.9356],[111.6793,35.9377],[111.6753,35.9366],[111.6715,35.9244],[111.6718,35.9185],[111.6653,35.9065],[111.6581,35.9058],[111.6519,35.9029]]]},"properties":{"region_code":"CN-14-1410-141027","parent_region_code":"CN-14-1410","name":"浮山县","level":"county","has_children":false,"full_path":"中国 / 山西省 / 临汾市 / 浮山县","source_admin_code":"141027","osm_relation_id":3285990}},
{"type":"Feature","geometry":{"type":"Polygon","coordinates":[[[111.123,36.211],[111.123,36.2175],[111.1173,36.2208],[111.1117,36.2202],[111.101,36.2254],[111.0993,36.2315],[111.0944,36.2356],[111.0837,36.2378],[111.0756,36.2494],[111.0688,36.2494],[111.0537,36.2546],[111.0489,36.2508],[111.0435,36.2571],[111.0419,36.2635],[111.0349,36.2678],[111.0298,36.2677],[111.0207,36.2744],[111.014,36.272],[111.0109,36.2774],[111.0031,36.2831],[110.9981,36.2824],[110.9908,36.2782],[110.9865,36.2734],[110.9803,36.2812],[110.9694,36.2807],[110.9606,36.2816],[110.9575,36.2838],[110.9497,36.2842],[110.9414,36.2794],[110.9369,36.2889],[110.9307,36.2939],[110.9278,36.293],[110.9142,36.296],[110.9115,36.2989],[110.9091,36.3069],[110.9016,36.3062],[110.8968,36.3012],[110.8873,36.2961],[110.8855,36.2922],[110.8756,36.2892],[110.8706,36.2942],[110.8595,36.296],[110.8545,36.2994],[110.8498,36.2991],[110.8423,36.295],[110.8293,36.2993],[110.823,36.3036],[110.8251,36.3087],[110.8306,36.3116],[110.8336,36.3193],[110.8263,36.3298],[110.8221,36.333],[110.8191,36.328],[110.8105,36.3247],[110.7975,36.3294],[110.7914,36.3236],[110.7728,36.3185],[110.7644,36.3171],[110.761,36.3068],[110.7643,36.2999],[110.7575,36.2995],[110.7472,36.3028],[110.7331,36.304],[110.7262,36.3015],[110.7156,36.2937],[110.7052,36.2971],[110.695,36.2986],[110.6918,36.2944],[110.6851,36.2965],[110.683,36.2997],[110.6715,36.3038],[110.6674,36.3037],[110.6619,36.309],[110.6472,36.3127],[110.6428,36.3152],[110.6382,36.3218],[110.6261,36.3237],[110.6225,36.3227],[110.615,36.327],[110.5976,36.3247],[110.5882,36.3288],[110.5839,36.3278],[110.5693,36.3325],[110.5649,36.3285],[110.5538,36.3266],[110.5436,36.3212],[110.5259,36.3222],[110.52,36.3244],[110.5276,36.3336],[110.5125,36.3391],[110.4991,36.3413],[110.4929,36.3383],[110.4828,36.3414],[110.4787,36.3469],[110.4635,36.3499],[110.4558,36.3403],[110.4536,36.3341],[110.4572,36.3234],[110.4678,36.3118],[110.4685,36.3069],[110.4632,36.2985],[110.4624,36.2916],[110.4687,36.2843],[110.4708,36.2793],[110.4692,36.2689],[110.4712,36.2562],[110.4681,36.2472],[110.4502,36.2259],[110.4469,36.2183],[110.4482,36.2126],[110.4534,36.2039],[110.4532,36.1922],[110.444,36.1752],[110.4414,36.1669],[110.4439,36.148],[110.4442,36.1343],[110.452,36.1098],[110.4576,36.1012],[110.465,36.0946],[110.465,36.0829],[110.4627,36.073],[110.471,36.0619],[110.4752,36.0582],[110.477,36.0521],[110.4846,36.0409],[110.4876,36.0333],[110.4877,36.0252],[110.491,36.0132],[110.4939,36.0094],[110.4931,36.0036],[110.4865,35.9951],[110.4866,35.9922],[110.494,35.9829],[110.5062,35.9777],[110.5113,35.9722],[110.5104,35.9609],[110.5075,35.9562],[110.5005,35.9534],[110.497,35.9477],[110.4991,35.9383],[110.5106,35.9248],[110.5113,35.9196],[110.5078,35.9088],[110.5103,35.8994],[110.5089,35.8929],[110.5158,35.8933],[110.5187,35.8893],[110.5245,35.8875],[110.5379,35.8914],[110.5413,35.8941],[110.5377,35.8985],[110.5446,35.904],[110.5539,35.9038],[110.5598,35.9115],[110.5641,35.9081],[110.5694,35.9141],[110.5761,35.9165],[110.58,35.9201],[110.5922,35.9176],[110.5982,35.9209],[110.5987,35.9247],[110.6161,35.9231],[110.6319,35.9312],[110.6434,35.9335],[110.6475,35.9378],[110.6562,35.9358],[110.656,35.9403],[110.6664,35.953],[110.6749,35.9543],[110.6816,35.9461],[110.6926,35.9528],[110.6969,35.9586],[110.7063,35.955],[110.7135,35.9547],[110.7188,35.9576],[110.7276,35.9553],[110.7333,35.9592],[110.7363,35.9661],[110.7372,35.9778],[110.7407,35.9852],[110.7475,35.9909],[110.7525,35.9974],[110.7643,36.0012],[110.7674,36.0059],[110.7857,36.0189],[110.7911,36.0195],[110.7953,36.0228],[110.7989,36.0335],[110.7949,36.0436],[110.7938,36.0517],[110.7952,36.0566],[110.8016,36.0607],[110.8046,36.0657],[110.8146,36.0641],[110.8195,36.067],[110.8241,36.0757],[110.8318,36.0832],[110.8334,36.0876],[110.8386,36.087],[110.8417,36.0934],[110.8474,36.0931],[110.8483,36.1013],[110.8507,36.1024],[110.8573,36.0948],[110.8663,36.0945],[110.8653,36.0895],[110.8746,36.0851],[110.8851,36.0913],[110.8889,36.0912],[110.897,36.0967],[110.9027,36.0935],[110.9096,36.0961],[110.9147,36.0945],[110.9253,36.0963],[110.9319,36.0918],[110.9381,36.0957],[110.9456,36.1078],[110.9555,36.1109],[110.9597,36.1069],[110.9668,36.1057],[110.9693,36.1081],[110.9803,36.1126],[110.9929,36.1227],[110.9966,36.1231],[111.0051,36.1198],[111.0103,36.1142],[111.021,36.1125],[111.0281,36.1065],[111.0352,36.1078],[111.0394,36.1131],[111.0463,36.1145],[111.047,36.1193],[111.0539,36.1257],[111.0536,36.1375],[111.0563,36.1411],[111.063,36.1438],[111.0627,36.1467],[111.0685,36.1521],[111.0771,36.1517],[111.0856,36.147],[111.0968,36.1559],[111.102,36.1585],[111.1037,36.1766],[111.1075,36.1858],[111.1086,36.1927],[111.1209,36.1976],[111.123,36.211]]]},"properties":{"region_code":"CN-14-1410-141028","parent_region_code":"CN-14-1410","name":"吉县","level":"county","has_children":false,"full_path":"中国 / 山西省 / 临汾市 / 吉县","source_admin_code":"141028","osm_relation_id":3285995}},
{"type":"Feature","geometry":{"type":"Polygon","coordinates":[[[111.0856,36.147],[111.0771,36.1517],[111.0685,36.1521],[111.0627,36.1467],[111.063,36.1438],[111.0563,36.1411],[111.0536,36.1375],[111.0539,36.1257],[111.047,36.1193],[111.0463,36.1145],[111.0394,36.1131],[111.0352,36.1078],[111.0281,36.1065],[111.021,36.1125],[111.0103,36.1142],[111.0051,36.1198],[110.9966,36.1231],[110.9929,36.1227],[110.9803,36.1126],[110.9693,36.1081],[110.9668,36.1057],[110.9597,36.1069],[110.9555,36.1109],[110.9456,36.1078],[110.9381,36.0957],[110.9319,36.0918],[110.9253,36.0963],[110.9147,36.0945],[110.9096,36.0961],[110.9027,36.0935],[110.897,36.0967],[110.8889,36.0912],[110.8851,36.0913],[110.8746,36.0851],[110.8653,36.0895],[110.8663,36.0945],[110.8573,36.0948],[110.8507,36.1024],[110.8483,36.1013],[110.8474,36.0931],[110.8417,36.0934],[110.8386,36.087],[110.8334,36.0876],[110.8318,36.0832],[110.8241,36.0757],[110.8195,36.067],[110.8146,36.0641],[110.8046,36.0657],[110.8016,36.0607],[110.7952,36.0566],[110.7938,36.0517],[110.7949,36.0436],[110.7989,36.0335],[110.7953,36.0228],[110.7911,36.0195],[110.7857,36.0189],[110.7674,36.0059],[110.7643,36.0012],[110.7525,35.9974],[110.7475,35.9909],[110.7407,35.9852],[110.7372,35.9778],[110.7363,35.9661],[110.7333,35.9592],[110.7276,35.9553],[110.7188,35.9576],[110.7135,35.9547],[110.7063,35.955],[110.6969,35.9586],[110.6926,35.9528],[110.6816,35.9461],[110.6749,35.9543],[110.6664,35.953],[110.656,35.9403],[110.6562,35.9358],[110.6475,35.9378],[110.6434,35.9335],[110.6319,35.9312],[110.6161,35.9231],[110.5987,35.9247],[110.5982,35.9209],[110.5922,35.9176],[110.58,35.9201],[110.5761,35.9165],[110.5694,35.9141],[110.5641,35.9081],[110.5598,35.9115],[110.5539,35.9038],[110.5446,35.904],[110.5377,35.8985],[110.5413,35.8941],[110.5379,35.8914],[110.5245,35.8875],[110.5187,35.8893],[110.5158,35.8933],[110.5089,35.8929],[110.5059,35.88],[110.5181,35.8758],[110.5246,35.8756],[110.5372,35.8795],[110.546,35.8754],[110.5446,35.8647],[110.5438,35.8479],[110.5477,35.8344],[110.558,35.8262],[110.5594,35.8165],[110.5661,35.8038],[110.566,35.8003],[110.5589,35.7892],[110.5592,35.783],[110.5689,35.7703],[110.5705,35.7649],[110.5692,35.7497],[110.5726,35.7378],[110.5908,35.7458],[110.5927,35.7503],[110.6014,35.7527],[110.6051,35.7609],[110.6111,35.7619],[110.6203,35.7736],[110.6224,35.7814],[110.6287,35.785],[110.6396,35.7865],[110.643,35.7885],[110.6511,35.7876],[110.6583,35.7846],[110.6669,35.7785],[110.6694,35.7748],[110.6685,35.7701],[110.6746,35.7673],[110.6808,35.7677],[110.6848,35.7634],[110.689,35.7636],[110.6962,35.7519],[110.6868,35.754],[110.6771,35.7487],[110.6744,35.7434],[110.6769,35.7386],[110.6777,35.7305],[110.699,35.7321],[110.7134,35.7364],[110.72,35.743],[110.7291,35.7402],[110.7379,35.7449],[110.7485,35.7427],[110.7536,35.737],[110.765,35.7317],[110.7674,35.7344],[110.7752,35.7325],[110.7819,35.7278],[110.795,35.724],[110.8128,35.726],[110.8191,35.7215],[110.8282,35.7196],[110.83,35.7233],[110.8375,35.7241],[110.8455,35.7202],[110.8505,35.7205],[110.851,35.7148],[110.8657,35.7116],[110.8837,35.7011],[110.8894,35.6932],[110.8928,35.6918],[110.9169,35.6952],[110.9201,35.6986],[110.9263,35.7104],[110.9332,35.7132],[110.9442,35.7154],[110.9401,35.7234],[110.942,35.7278],[110.939,35.7354],[110.9437,35.7485],[110.947,35.7536],[110.9434,35.7587],[110.941,35.7661],[110.943,35.7729],[110.9499,35.7738],[110.9476,35.7791],[110.9494,35.789],[110.9542,35.7938],[110.9562,35.7996],[110.9668,35.8077],[110.9718,35.8085],[110.974,35.8036],[110.9711,35.8001],[110.9698,35.7899],[110.9755,35.7863],[110.9775,35.7796],[110.9808,35.7778],[110.9773,35.7697],[110.979,35.7662],[110.9886,35.7633],[110.9923,35.7562],[110.9878,35.7504],[110.9937,35.74],[110.9992,35.7405],[111.0011,35.737],[111.0216,35.7404],[111.0302,35.7394],[111.0327,35.7367],[111.0471,35.7367],[111.0532,35.7384],[111.0514,35.748],[111.0528,35.7565],[111.0681,35.7644],[111.0718,35.7688],[111.0705,35.7732],[111.0703,35.7851],[111.0789,35.7888],[111.0925,35.8003],[111.088,35.8088],[111.0945,35.8133],[111.1048,35.8173],[111.1076,35.8205],[111.1136,35.8212],[111.1164,35.8242],[111.1269,35.8289],[111.1325,35.8297],[111.1334,35.8342],[111.1385,35.8403],[111.1478,35.8439],[111.1544,35.8421],[111.1593,35.8441],[111.1682,35.8423],[111.1763,35.8473],[111.1857,35.8511],[111.1921,35.8594],[111.1971,35.8692],[111.2039,35.8714],[111.2054,35.8784],[111.2014,35.8829],[111.209,35.8925],[111.2081,35.9017],[111.2102,35.909],[111.2156,35.9112],[111.2195,35.9156],[111.2247,35.9121],[111.2361,35.9221],[111.2398,35.9227],[111.2485,35.9284],[111.2552,35.9375],[111.2656,35.9402],[111.2706,35.9429],[111.2769,35.9538],[111.2799,35.9647],[111.2768,35.9668],[111.2773,35.9742],[111.2742,35.9773],[111.2725,35.9915],[111.2738,35.9984],[111.271,36.0022],[111.2772,36.0047],[111.2798,36.0096],[111.2819,36.023],[111.2849,36.0244],[111.2872,36.0336],[111.273,36.0428],[111.2808,36.0531],[111.2781,36.0619],[111.2645,36.0676],[111.2505,36.0817],[111.2467,36.0918],[111.2408,36.0979],[111.2391,36.1148],[111.2333,36.1179],[111.2235,36.1195],[111.214,36.1157],[111.1952,36.112],[111.1824,36.1107],[111.1796,36.1162],[111.1744,36.1199],[111.1655,36.1203],[111.1445,36.1189],[111.1388,36.1192],[111.1319,36.1224],[111.1265,36.1292],[111.1145,36.1315],[111.1071,36.1352],[111.0947,36.1343],[111.0856,36.147]]]},"properties":{"region_code":"CN-14-1410-141029","parent_region_code":"CN-14-1410","name":"乡宁县","level":"county","has_children":false,"full_path":"中国 / 山西省 / 临汾市 / 乡宁县","source_admin_code":"141029","osm_relation_id":3286000}},
{"type":"Feature","geometry":{"type":"Polygon","coordinates":[[[111.0109,36.2774],[111.0108,36.2888],[111.0075,36.2937],[111.0072,36.3031],[110.9971,36.3043],[110.992,36.3083],[110.9802,36.3107],[110.9598,36.313],[110.9559,36.3121],[110.9455,36.3235],[110.9381,36.3247],[110.9327,36.3292],[110.9197,36.3266],[110.9144,36.3205],[110.9095,36.3231],[110.9051,36.3287],[110.9024,36.3422],[110.8944,36.3559],[110.8879,36.3768],[110.8675,36.392],[110.8718,36.3982],[110.8821,36.4019],[110.8818,36.4139],[110.877,36.4186],[110.8732,36.4264],[110.8732,36.4328],[110.8666,36.4351],[110.8642,36.44],[110.8514,36.4487],[110.8485,36.4544],[110.8451,36.4679],[110.858,36.4581],[110.8663,36.4622],[110.8587,36.4682],[110.8546,36.4746],[110.8571,36.4786],[110.8479,36.489],[110.8399,36.4893],[110.8326,36.4937],[110.8336,36.5003],[110.8378,36.5044],[110.8442,36.5043],[110.8435,36.5164],[110.8401,36.5233],[110.8443,36.5344],[110.8431,36.5541],[110.8385,36.554],[110.8333,36.5591],[110.8363,36.5624],[110.8334,36.5667],[110.8242,36.568],[110.8208,36.5714],[110.8158,36.5687],[110.8077,36.57],[110.8017,36.5735],[110.7942,36.5747],[110.7917,36.5818],[110.7828,36.579],[110.7738,36.5853],[110.7782,36.5949],[110.7723,36.6072],[110.7679,36.6082],[110.7523,36.5983],[110.7475,36.6009],[110.742,36.611],[110.7346,36.6154],[110.7337,36.6102],[110.7373,36.593],[110.7251,36.5857],[110.7221,36.5811],[110.715,36.5824],[110.7119,36.586],[110.6956,36.5789],[110.6922,36.5763],[110.682,36.5791],[110.6697,36.5732],[110.6706,36.5583],[110.6694,36.5545],[110.6621,36.5517],[110.6571,36.553],[110.6527,36.5492],[110.6561,36.5402],[110.6541,36.5333],[110.6482,36.5319],[110.64,36.5221],[110.6355,36.5232],[110.6283,36.5154],[110.6233,36.5222],[110.6172,36.5196],[110.6125,36.521],[110.6089,36.5261],[110.6038,36.5225],[110.5991,36.5283],[110.5851,36.534],[110.5675,36.5276],[110.5574,36.5266],[110.5476,36.5304],[110.5432,36.5347],[110.5316,36.5378],[110.5274,36.5345],[110.5097,36.5368],[110.504,36.534],[110.5026,36.5392],[110.5132,36.5461],[110.5163,36.554],[110.5119,36.5586],[110.495,36.5526],[110.4938,36.5501],[110.4861,36.5482],[110.494,36.5397],[110.4964,36.5334],[110.495,36.5187],[110.4961,36.5064],[110.4989,36.5002],[110.4983,36.4872],[110.493,36.4752],[110.4853,36.4705],[110.4723,36.4602],[110.4673,36.4523],[110.468,36.4467],[110.4757,36.4369],[110.4832,36.4313],[110.4864,36.4252],[110.4852,36.4142],[110.4811,36.4014],[110.482,36.3945],[110.4698,36.3749],[110.4646,36.3707],[110.463,36.3645],[110.4649,36.353],[110.4635,36.3499],[110.4787,36.3469],[110.4828,36.3414],[110.4929,36.3383],[110.4991,36.3413],[110.5125,36.3391],[110.5276,36.3336],[110.52,36.3244],[110.5259,36.3222],[110.5436,36.3212],[110.5538,36.3266],[110.5649,36.3285],[110.5693,36.3325],[110.5839,36.3278],[110.5882,36.3288],[110.5976,36.3247],[110.615,36.327],[110.6225,36.3227],[110.6261,36.3237],[110.6382,36.3218],[110.6428,36.3152],[110.6472,36.3127],[110.6619,36.309],[110.6674,36.3037],[110.6715,36.3038],[110.683,36.2997],[110.6851,36.2965],[110.6918,36.2944],[110.695,36.2986],[110.7052,36.2971],[110.7156,36.2937],[110.7262,36.3015],[110.7331,36.304],[110.7472,36.3028],[110.7575,36.2995],[110.7643,36.2999],[110.761,36.3068],[110.7644,36.3171],[110.7728,36.3185],[110.7914,36.3236],[110.7975,36.3294],[110.8105,36.3247],[110.8191,36.328],[110.8221,36.333],[110.8263,36.3298],[110.8336,36.3193],[110.8306,36.3116],[110.8251,36.3087],[110.823,36.3036],[110.8293,36.2993],[110.8423,36.295],[110.8498,36.2991],[110.8545,36.2994],[110.8595,36.296],[110.8706,36.2942],[110.8756,36.2892],[110.8855,36.2922],[110.8873,36.2961],[110.8968,36.3012],[110.9016,36.3062],[110.9091,36.3069],[110.9115,36.2989],[110.9142,36.296],[110.9278,36.293],[110.9307,36.2939],[110.9369,36.2889],[110.9414,36.2794],[110.9497,36.2842],[110.9575,36.2838],[110.9606,36.2816],[110.9694,36.2807],[110.9803,36.2812],[110.9865,36.2734],[110.9908,36.2782],[110.9981,36.2824],[111.0031,36.2831],[111.0109,36.2774]]]},"properties":{"region_code":"CN-14-1410-141030","parent_region_code":"CN-14-1410","name":"大宁县","level":"county","has_children":false,"full_path":"中国 / 山西省 / 临汾市 / 大宁县","source_admin_code":"141030","osm_relation_id":3285987}},
{"type":"Feature","geometry":{"type":"Polygon","coordinates":[[[110.8663,36.4622],[110.8744,36.4561],[110.8808,36.4614],[110.8781,36.4651],[110.8857,36.4717],[110.8914,36.4712],[110.8947,36.4757],[110.8896,36.4816],[110.8884,36.4945],[110.8971,36.4955],[110.9025,36.5003],[110.9143,36.495],[110.9199,36.509],[110.942,36.5273],[110.9526,36.5296],[110.9648,36.537],[110.9661,36.5461],[110.9732,36.5479],[110.9799,36.5546],[110.9854,36.5643],[110.9928,36.5643],[111.0005,36.5602],[111.0122,36.5614],[111.0365,36.568],[111.0369,36.572],[111.0416,36.574],[111.0469,36.5728],[111.0523,36.5675],[111.0771,36.5679],[111.0875,36.5695],[111.0917,36.5716],[111.0987,36.5671],[111.1121,36.5668],[111.1165,36.5699],[111.1194,36.5777],[111.1277,36.5731],[111.155,36.5619],[111.1665,36.5626],[111.1742,36.5663],[111.1927,36.5643],[111.2002,36.5715],[111.2022,36.5832],[111.2109,36.587],[111.2111,36.5945],[111.2058,36.6011],[111.2045,36.6063],[111.2095,36.6106],[111.2204,36.6104],[111.2277,36.6049],[111.2332,36.605],[111.2375,36.6102],[111.2471,36.6139],[111.2498,36.6193],[111.2516,36.6314],[111.2569,36.6375],[111.2592,36.6416],[111.2556,36.6445],[111.2599,36.6495],[111.2606,36.6561],[111.2557,36.6646],[111.2508,36.6697],[111.2574,36.6716],[111.2646,36.6846],[111.2654,36.6917],[111.2543,36.6957],[111.2514,36.7028],[111.2512,36.709],[111.2457,36.7166],[111.255,36.7194],[111.2574,36.7241],[111.252,36.7301],[111.2517,36.7343],[111.2471,36.7405],[111.2389,36.7405],[111.2278,36.7388],[111.2221,36.7403],[111.21,36.7418],[111.2071,36.7541],[111.2067,36.7606],[111.2032,36.7644],[111.2042,36.7719],[111.1983,36.7751],[111.2019,36.7808],[111.1994,36.7834],[111.1994,36.7898],[111.1961,36.7908],[111.1939,36.7972],[111.186,36.8048],[111.1787,36.8085],[111.1832,36.8131],[111.1762,36.8222],[111.1745,36.8276],[111.176,36.8362],[111.1787,36.8403],[111.1726,36.8479],[111.1654,36.8433],[111.1537,36.8408],[111.1485,36.8441],[111.1389,36.8432],[111.1284,36.8458],[111.1242,36.8422],[111.108,36.8349],[111.1021,36.8387],[111.095,36.8385],[111.0909,36.8358],[111.0823,36.8398],[111.0774,36.8455],[111.0657,36.854],[111.0617,36.853],[111.0623,36.8631],[111.065,36.8654],[111.0656,36.8768],[111.068,36.8841],[111.0753,36.887],[111.0753,36.8983],[111.0781,36.9059],[111.0882,36.9137],[111.0848,36.9182],[111.0795,36.9202],[111.0785,36.9255],[111.0745,36.9306],[111.04,36.928],[111.037,36.9245],[111.0308,36.9243],[111.0251,36.9167],[111.0135,36.9168],[111.0146,36.9078],[111.0088,36.9051],[111.0098,36.9005],[110.994,36.8978],[111.0012,36.9081],[110.9972,36.9159],[110.9982,36.9226],[110.9954,36.9257],[110.9869,36.9268],[110.9831,36.9293],[110.9834,36.914],[110.9877,36.9079],[110.9817,36.9018],[110.9742,36.8988],[110.9673,36.9003],[110.9652,36.8957],[110.9599,36.8948],[110.9578,36.9025],[110.9512,36.9007],[110.9459,36.9061],[110.9375,36.9027],[110.934,36.9089],[110.925,36.8964],[110.919,36.8956],[110.9181,36.8912],[110.9067,36.8897],[110.9022,36.8929],[110.8972,36.8878],[110.8936,36.8878],[110.8944,36.8802],[110.8865,36.8767],[110.8818,36.8809],[110.868,36.8718],[110.8688,36.8684],[110.8577,36.8682],[110.8477,36.8591],[110.8435,36.8612],[110.8312,36.8546],[110.8203,36.8618],[110.817,36.8556],[110.8264,36.8514],[110.827,36.8452],[110.8246,36.8409],[110.8177,36.8367],[110.8155,36.831],[110.8064,36.8279],[110.807,36.8226],[110.7963,36.8204],[110.7961,36.8135],[110.7925,36.8047],[110.787,36.8079],[110.781,36.803],[110.7838,36.7974],[110.7941,36.7903],[110.7957,36.7858],[110.8032,36.7801],[110.8074,36.7795],[110.8098,36.7745],[110.8098,36.7662],[110.8043,36.7661],[110.8047,36.7583],[110.7996,36.7588],[110.7875,36.7501],[110.7824,36.7438],[110.7769,36.7422],[110.7798,36.7376],[110.7773,36.735],[110.7814,36.7279],[110.7871,36.7327],[110.7917,36.7313],[110.7964,36.7193],[110.7881,36.7124],[110.7925,36.7082],[110.7977,36.7073],[110.8007,36.6998],[110.7964,36.6968],[110.7959,36.6865],[110.7986,36.678],[110.8002,36.6663],[110.7962,36.6637],[110.7985,36.6582],[110.7926,36.6502],[110.7845,36.657],[110.7785,36.6578],[110.7723,36.6498],[110.7669,36.6464],[110.773,36.6396],[110.7731,36.634],[110.7796,36.63],[110.771,36.6275],[110.764,36.6288],[110.7443,36.6262],[110.7476,36.621],[110.754,36.6173],[110.7579,36.6119],[110.7679,36.6082],[110.7723,36.6072],[110.7782,36.5949],[110.7738,36.5853],[110.7828,36.579],[110.7917,36.5818],[110.7942,36.5747],[110.8017,36.5735],[110.8077,36.57],[110.8158,36.5687],[110.8208,36.5714],[110.8242,36.568],[110.8334,36.5667],[110.8363,36.5624],[110.8333,36.5591],[110.8385,36.554],[110.8431,36.5541],[110.8443,36.5344],[110.8401,36.5233],[110.8435,36.5164],[110.8442,36.5043],[110.8378,36.5044],[110.8336,36.5003],[110.8326,36.4937],[110.8399,36.4893],[110.8479,36.489],[110.8571,36.4786],[110.8546,36.4746],[110.8587,36.4682],[110.8663,36.4622]]]},"properties":{"region_code":"CN-14-1410-141031","parent_region_code":"CN-14-1410","name":"隰县","level":"county","has_children":false,"full_path":"中国 / 山西省 / 临汾市 / 隰县","source_admin_code":"141031","osm_relation_id":3285998}},
{"type":"Feature","geometry":{"type":"Polygon","coordinates":[[[110.7679,36.6082],[110.7579,36.6119],[110.754,36.6173],[110.7476,36.621],[110.7443,36.6262],[110.764,36.6288],[110.771,36.6275],[110.7796,36.63],[110.7731,36.634],[110.773,36.6396],[110.7669,36.6464],[110.7723,36.6498],[110.7785,36.6578],[110.7845,36.657],[110.7926,36.6502],[110.7985,36.6582],[110.7962,36.6637],[110.8002,36.6663],[110.7986,36.678],[110.7959,36.6865],[110.7964,36.6968],[110.8007,36.6998],[110.7977,36.7073],[110.7925,36.7082],[110.7881,36.7124],[110.7964,36.7193],[110.7917,36.7313],[110.7871,36.7327],[110.7814,36.7279],[110.7773,36.735],[110.7798,36.7376],[110.7769,36.7422],[110.7824,36.7438],[110.7875,36.7501],[110.7996,36.7588],[110.8047,36.7583],[110.8043,36.7661],[110.8098,36.7662],[110.8098,36.7745],[110.8074,36.7795],[110.8032,36.7801],[110.7957,36.7858],[110.7941,36.7903],[110.7838,36.7974],[110.781,36.803],[110.787,36.8079],[110.7925,36.8047],[110.7961,36.8135],[110.7963,36.8204],[110.807,36.8226],[110.8064,36.8279],[110.8155,36.831],[110.8177,36.8367],[110.8246,36.8409],[110.827,36.8452],[110.8264,36.8514],[110.817,36.8556],[110.8057,36.8604],[110.7998,36.8612],[110.796,36.8659],[110.7889,36.861],[110.7816,36.8589],[110.7739,36.8661],[110.7713,36.8782],[110.7671,36.8809],[110.7691,36.8915],[110.7615,36.8958],[110.7593,36.8994],[110.7494,36.9026],[110.7372,36.9086],[110.7274,36.9058],[110.7227,36.9086],[110.717,36.9186],[110.7139,36.9135],[110.708,36.9104],[110.7062,36.9161],[110.7142,36.9219],[110.7145,36.93],[110.7113,36.9356],[110.7116,36.9408],[110.708,36.9426],[110.6971,36.9316],[110.6923,36.9377],[110.6883,36.9387],[110.6793,36.9367],[110.674,36.9286],[110.6639,36.9348],[110.6566,36.9351],[110.6551,36.9311],[110.6411,36.9247],[110.6392,36.915],[110.6402,36.9092],[110.6348,36.9024],[110.6363,36.8993],[110.6438,36.8959],[110.6434,36.888],[110.6372,36.88],[110.6315,36.8826],[110.6305,36.8753],[110.6243,36.872],[110.6139,36.8748],[110.611,36.8774],[110.6032,36.8716],[110.5974,36.8753],[110.5927,36.8725],[110.5931,36.8684],[110.5681,36.8615],[110.5657,36.8667],[110.5577,36.8648],[110.5537,36.8718],[110.55,36.8721],[110.5386,36.8668],[110.5392,36.8583],[110.5345,36.8593],[110.5301,36.8693],[110.5171,36.8714],[110.5136,36.8738],[110.5017,36.8731],[110.4961,36.8786],[110.4907,36.8797],[110.488,36.8766],[110.4769,36.8844],[110.4686,36.883],[110.4721,36.8754],[110.4634,36.8754],[110.4588,36.8808],[110.4576,36.8862],[110.4489,36.888],[110.4419,36.8915],[110.4403,36.8881],[110.4284,36.8853],[110.4243,36.8892],[110.4231,36.8958],[110.4135,36.8979],[110.4047,36.8974],[110.4011,36.8893],[110.3881,36.8839],[110.3734,36.8838],[110.3695,36.8813],[110.3699,36.875],[110.3764,36.8703],[110.3962,36.8687],[110.4014,36.8675],[110.4144,36.8618],[110.4189,36.8543],[110.417,36.8421],[110.4133,36.8336],[110.4019,36.8286],[110.404,36.8228],[110.4154,36.8206],[110.4175,36.8107],[110.4142,36.7982],[110.403,36.7782],[110.399,36.7736],[110.3936,36.7722],[110.3852,36.7749],[110.3786,36.775],[110.3783,36.7671],[110.3865,36.7641],[110.3957,36.764],[110.4107,36.7618],[110.4224,36.7547],[110.4262,36.7457],[110.4207,36.7377],[110.4123,36.7318],[110.4088,36.7245],[110.4166,36.7213],[110.4226,36.7236],[110.4318,36.7359],[110.4405,36.7374],[110.4474,36.7317],[110.4434,36.7222],[110.4309,36.711],[110.4291,36.7076],[110.4289,36.698],[110.4325,36.6882],[110.429,36.6806],[110.4235,36.6792],[110.4139,36.6839],[110.4083,36.6932],[110.4014,36.6965],[110.3906,36.6947],[110.3867,36.6904],[110.3851,36.6813],[110.3932,36.6728],[110.4039,36.6674],[110.414,36.6637],[110.4227,36.6553],[110.4292,36.644],[110.4399,36.6229],[110.4501,36.6103],[110.4655,36.5961],[110.4798,36.5875],[110.4857,36.5863],[110.4919,36.5818],[110.4924,36.5749],[110.4853,36.5647],[110.4823,36.5582],[110.4861,36.5482],[110.4938,36.5501],[110.495,36.5526],[110.5119,36.5586],[110.5163,36.554],[110.5132,36.5461],[110.5026,36.5392],[110.504,36.534],[110.5097,36.5368],[110.5274,36.5345],[110.5316,36.5378],[110.5432,36.5347],[110.5476,36.5304],[110.5574,36.5266],[110.5675,36.5276],[110.5851,36.534],[110.5991,36.5283],[110.6038,36.5225],[110.6089,36.5261],[110.6125,36.521],[110.6172,36.5196],[110.6233,36.5222],[110.6283,36.5154],[110.6355,36.5232],[110.64,36.5221],[110.6482,36.5319],[110.6541,36.5333],[110.6561,36.5402],[110.6527,36.5492],[110.6571,36.553],[110.6621,36.5517],[110.6694,36.5545],[110.6706,36.5583],[110.6697,36.5732],[110.682,36.5791],[110.6922,36.5763],[110.6956,36.5789],[110.7119,36.586],[110.715,36.5824],[110.7221,36.5811],[110.7251,36.5857],[110.7373,36.593],[110.7337,36.6102],[110.7346,36.6154],[110.742,36.611],[110.7475,36.6009],[110.7523,36.5983],[110.7679,36.6082]]]},"properties":{"region_code":"CN-14-1410-141032","parent_region_code":"CN-14-1410","name":"永和县","level":"county","has_children":false,"full_path":"中国 / 山西省 / 临汾市 / 永和县","source_admin_code":"141032","osm_relation_id":3285988}},
{"type":"Feature","geometry":{"type":"Polygon","coordinates":[[[111.3437,36.3303],[111.3409,36.335],[111.3419,36.3402],[111.3477,36.3485],[111.3446,36.3609],[111.3523,36.3632],[111.3535,36.3707],[111.3583,36.3744],[111.3726,36.3757],[111.3737,36.3854],[111.3725,36.3952],[111.3752,36.4026],[111.3707,36.4096],[111.3644,36.4137],[111.3614,36.4239],[111.3754,36.4365],[111.3935,36.4371],[111.3927,36.4432],[111.3889,36.4525],[111.3826,36.4575],[111.3871,36.4662],[111.3866,36.4757],[111.3765,36.4787],[111.3748,36.4862],[111.3589,36.5025],[111.3566,36.5097],[111.3623,36.5203],[111.3697,36.5181],[111.3739,36.5208],[111.3712,36.5261],[111.3732,36.5359],[111.385,36.5384],[111.3881,36.5425],[111.3848,36.5515],[111.3811,36.5558],[111.3815,36.5601],[111.3864,36.5683],[111.3806,36.5736],[111.3805,36.5799],[111.3829,36.5881],[111.3702,36.5912],[111.371,36.5959],[111.3661,36.6015],[111.3594,36.6056],[111.3508,36.6068],[111.3482,36.6108],[111.3385,36.6145],[111.3318,36.6188],[111.3239,36.6164],[111.3176,36.6217],[111.3098,36.6247],[111.2981,36.6213],[111.2885,36.6199],[111.2834,36.6266],[111.2789,36.6278],[111.2723,36.6253],[111.2622,36.6267],[111.2574,36.633],[111.2569,36.6375],[111.2516,36.6314],[111.2498,36.6193],[111.2471,36.6139],[111.2375,36.6102],[111.2332,36.605],[111.2277,36.6049],[111.2204,36.6104],[111.2095,36.6106],[111.2045,36.6063],[111.2058,36.6011],[111.2111,36.5945],[111.2109,36.587],[111.2022,36.5832],[111.2002,36.5715],[111.1927,36.5643],[111.1742,36.5663],[111.1665,36.5626],[111.155,36.5619],[111.1277,36.5731],[111.1194,36.5777],[111.1165,36.5699],[111.1121,36.5668],[111.0987,36.5671],[111.0917,36.5716],[111.0875,36.5695],[111.0771,36.5679],[111.0523,36.5675],[111.0469,36.5728],[111.0416,36.574],[111.0369,36.572],[111.0365,36.568],[111.0122,36.5614],[111.0005,36.5602],[110.9928,36.5643],[110.9854,36.5643],[110.9799,36.5546],[110.9732,36.5479],[110.9661,36.5461],[110.9648,36.537],[110.9526,36.5296],[110.942,36.5273],[110.9199,36.509],[110.9143,36.495],[110.9025,36.5003],[110.8971,36.4955],[110.8884,36.4945],[110.8896,36.4816],[110.8947,36.4757],[110.8914,36.4712],[110.8857,36.4717],[110.8781,36.4651],[110.8808,36.4614],[110.8744,36.4561],[110.8663,36.4622],[110.858,36.4581],[110.8451,36.4679],[110.8485,36.4544],[110.8514,36.4487],[110.8642,36.44],[110.8666,36.4351],[110.8732,36.4328],[110.8732,36.4264],[110.877,36.4186],[110.8818,36.4139],[110.8821,36.4019],[110.8718,36.3982],[110.8675,36.392],[110.8879,36.3768],[110.8944,36.3559],[110.9024,36.3422],[110.9051,36.3287],[110.9095,36.3231],[110.9144,36.3205],[110.9197,36.3266],[110.9327,36.3292],[110.9381,36.3247],[110.9455,36.3235],[110.9559,36.3121],[110.9598,36.313],[110.9802,36.3107],[110.992,36.3083],[110.9971,36.3043],[111.0072,36.3031],[111.0075,36.2937],[111.0108,36.2888],[111.0109,36.2774],[111.014,36.272],[111.0207,36.2744],[111.0298,36.2677],[111.0349,36.2678],[111.0419,36.2635],[111.0435,36.2571],[111.0489,36.2508],[111.0537,36.2546],[111.0688,36.2494],[111.0756,36.2494],[111.0837,36.2378],[111.0944,36.2356],[111.0993,36.2315],[111.101,36.2254],[111.1117,36.2202],[111.1173,36.2208],[111.123,36.2175],[111.123,36.211],[111.1269,36.2111],[111.133,36.2067],[111.1398,36.208],[111.1468,36.2032],[111.1536,36.2057],[111.1663,36.202],[111.1789,36.2056],[111.1834,36.215],[111.2061,36.2031],[111.2053,36.1975],[111.2158,36.197],[111.2195,36.1928],[111.2252,36.1933],[111.2267,36.2007],[111.2452,36.2127],[111.2512,36.2158],[111.2588,36.2172],[111.2654,36.223],[111.2829,36.2226],[111.2876,36.2304],[111.2918,36.2332],[111.2977,36.2407],[111.2948,36.2421],[111.2931,36.2506],[111.2836,36.2544],[111.2872,36.2586],[111.2874,36.2638],[111.2959,36.2662],[111.2994,36.2724],[111.3051,36.2753],[111.3031,36.2855],[111.3124,36.2939],[111.3186,36.2964],[111.3214,36.3097],[111.3241,36.3134],[111.3362,36.3199],[111.3424,36.3261],[111.3437,36.3303]]]},"properties":{"region_code":"CN-14-1410-141033","parent_region_code":"CN-14-1410","name":"蒲县","level":"county","has_children":false,"full_path":"中国 / 山西省 / 临汾市 / 蒲县","source_admin_code":"141033","osm_relation_id":3285996}},
{"type":"Feature","geometry":{"type":"Polygon","coordinates":[[[111.6805,36.5025],[111.672,36.5024],[111.6723,36.5079],[111.6671,36.51],[111.6659,36.5158],[111.6587,36.5195],[111.651,36.5273],[111.6425,36.5271],[111.6336,36.5385],[111.6286,36.5419],[111.6214,36.5431],[111.6229,36.5512],[111.628,36.5583],[111.6282,36.5645],[111.6363,36.5674],[111.6414,36.5759],[111.649,36.5776],[111.6591,36.5918],[111.6485,36.6009],[111.6482,36.6043],[111.6412,36.6083],[111.6422,36.611],[111.6371,36.6201],[111.6378,36.6258],[111.6335,36.6351],[111.6427,36.6407],[111.6512,36.6418],[111.6544,36.6387],[111.6604,36.6398],[111.6653,36.6435],[111.6699,36.6458],[111.6703,36.6535],[111.6515,36.658],[111.6455,36.6641],[111.6453,36.6679],[111.6394,36.6733],[111.6322,36.6757],[111.6269,36.6739],[111.6157,36.6753],[111.6179,36.6841],[111.6144,36.6894],[111.6155,36.6936],[111.6063,36.7012],[111.6044,36.6976],[111.5946,36.6959],[111.5925,36.6998],[111.5853,36.7039],[111.5802,36.709],[111.5762,36.7086],[111.5729,36.7142],[111.5628,36.7171],[111.5598,36.7245],[111.5598,36.7311],[111.5472,36.7453],[111.5372,36.7519],[111.5315,36.7529],[111.533,36.7654],[111.5385,36.7706],[111.545,36.7707],[111.5434,36.7802],[111.5385,36.7883],[111.5336,36.7886],[111.5264,36.7837],[111.5229,36.7888],[111.5172,36.7924],[111.5138,36.7905],[111.5103,36.7792],[111.5048,36.7829],[111.506,36.7903],[111.4998,36.7952],[111.4975,36.802],[111.4917,36.7993],[111.4817,36.7797],[111.4718,36.7787],[111.4627,36.7725],[111.4577,36.7751],[111.4483,36.7747],[111.4398,36.7699],[111.4305,36.7771],[111.4299,36.7855],[111.4243,36.7903],[111.4225,36.7979],[111.4194,36.7994],[111.4089,36.7982],[111.4015,36.8007],[111.3878,36.7943],[111.3761,36.7961],[111.375,36.7871],[111.3708,36.7818],[111.3581,36.7769],[111.3602,36.7684],[111.3586,36.7651],[111.3492,36.7661],[111.3456,36.7603],[111.3515,36.7573],[111.3474,36.7527],[111.332,36.7506],[111.3209,36.756],[111.3172,36.7538],[111.3193,36.7402],[111.3148,36.7356],[111.3065,36.7416],[111.3006,36.7381],[111.2923,36.7375],[111.2846,36.7401],[111.2825,36.7376],[111.269,36.7381],[111.2692,36.7449],[111.2728,36.749],[111.2709,36.7581],[111.2662,36.7599],[111.2577,36.7576],[111.2505,36.7589],[111.2457,36.7575],[111.2399,36.7597],[111.2327,36.7528],[111.2339,36.7476],[111.2221,36.7403],[111.2278,36.7388],[111.2389,36.7405],[111.2471,36.7405],[111.2517,36.7343],[111.252,36.7301],[111.2574,36.7241],[111.255,36.7194],[111.2457,36.7166],[111.2512,36.709],[111.2514,36.7028],[111.2543,36.6957],[111.2654,36.6917],[111.2646,36.6846],[111.2574,36.6716],[111.2508,36.6697],[111.2557,36.6646],[111.2606,36.6561],[111.2599,36.6495],[111.2556,36.6445],[111.2592,36.6416],[111.2569,36.6375],[111.2574,36.633],[111.2622,36.6267],[111.2723,36.6253],[111.2789,36.6278],[111.2834,36.6266],[111.2885,36.6199],[111.2981,36.6213],[111.3098,36.6247],[111.3176,36.6217],[111.3239,36.6164],[111.3318,36.6188],[111.3385,36.6145],[111.3482,36.6108],[111.3508,36.6068],[111.3594,36.6056],[111.3661,36.6015],[111.371,36.5959],[111.3702,36.5912],[111.3829,36.5881],[111.3805,36.5799],[111.3806,36.5736],[111.3864,36.5683],[111.3815,36.5601],[111.3811,36.5558],[111.3848,36.5515],[111.3881,36.5425],[111.3992,36.5197],[111.4081,36.5207],[111.4145,36.5142],[111.4221,36.512],[111.4216,36.5068],[111.429,36.5016],[111.4303,36.4941],[111.434,36.4918],[111.4391,36.4948],[111.446,36.4922],[111.4501,36.4857],[111.4646,36.4858],[111.4714,36.4879],[111.4781,36.4927],[111.4842,36.4883],[111.4975,36.4873],[111.5015,36.482],[111.5071,36.4827],[111.5053,36.4873],[111.5151,36.4902],[111.523,36.495],[111.5323,36.4965],[111.5425,36.4966],[111.5441,36.5027],[111.5481,36.5038],[111.5558,36.4997],[111.5596,36.4901],[111.558,36.4846],[111.5606,36.4794],[111.5707,36.4777],[111.5773,36.4654],[111.5774,36.4603],[111.5853,36.4569],[111.5874,36.4517],[111.5967,36.4503],[111.6001,36.4568],[111.6101,36.4575],[111.6158,36.4611],[111.6089,36.4644],[111.6113,36.4692],[111.6206,36.47],[111.6234,36.4681],[111.6368,36.4835],[111.6462,36.4862],[111.6519,36.4852],[111.6594,36.4867],[111.6703,36.486],[111.6767,36.4913],[111.6805,36.5025]]]},"properties":{"region_code":"CN-14-1410-141034","parent_region_code":"CN-14-1410","name":"汾西县","level":"county","has_children":false,"full_path":"中国 / 山西省 / 临汾市 / 汾西县","source_admin_code":"141034","osm_relation_id":3285989}},
{"type":"Feature","geometry":{"type":"Polygon","coordinates":[[[111.376,35.707],[111.3641,35.7006],[111.3617,35.6979],[111.3594,35.6871],[111.3566,35.6808],[111.3583,35.6747],[111.3502,35.6684],[111.3449,35.6684],[111.3413,35.6714],[111.34,35.6677],[111.3297,35.6712],[111.3275,35.676],[111.3215,35.6782],[111.2972,35.6753],[111.2887,35.6734],[111.2855,35.6708],[111.2898,35.6609],[111.2964,35.6522],[111.2959,35.647],[111.2854,35.6424],[111.2855,35.6305],[111.2792,35.6286],[111.2744,35.6325],[111.2621,35.6344],[111.2613,35.6226],[111.2629,35.6142],[111.2607,35.6078],[111.2648,35.5944],[111.2655,35.5879],[111.2682,35.5843],[111.2754,35.5831],[111.2815,35.5725],[111.2791,35.5697],[111.272,35.569],[111.2706,35.5596],[111.2746,35.5528],[111.2823,35.5536],[111.2902,35.5487],[111.293,35.5378],[111.3008,35.5357],[111.3124,35.5365],[111.3278,35.5446],[111.331,35.5514],[111.3405,35.5566],[111.3488,35.5573],[111.3539,35.5535],[111.3619,35.5567],[111.3695,35.5566],[111.3704,35.5628],[111.3758,35.5618],[111.3884,35.5636],[111.3959,35.5679],[111.4059,35.5653],[111.4195,35.5584],[111.4374,35.5588],[111.4375,35.561],[111.4474,35.5739],[111.4493,35.5875],[111.4446,35.5906],[111.4456,35.5956],[111.4418,35.5975],[111.4426,35.6092],[111.4498,35.613],[111.4534,35.6193],[111.4471,35.6253],[111.4411,35.6366],[111.4459,35.6477],[111.4467,35.6553],[111.4396,35.658],[111.4369,35.6644],[111.4401,35.6662],[111.4402,35.6716],[111.4439,35.6766],[111.4449,35.6866],[111.438,35.6827],[111.4317,35.6826],[111.4311,35.6791],[111.4128,35.6798],[111.411,35.6843],[111.4131,35.6941],[111.4048,35.6966],[111.4029,35.7013],[111.3908,35.699],[111.3856,35.7025],[111.3796,35.7035],[111.376,35.707]]]},"properties":{"region_code":"CN-14-1410-141081","parent_region_code":"CN-14-1410","name":"侯马市","level":"county","has_children":false,"full_path":"中国 / 山西省 / 临汾市 / 侯马市","source_admin_code":"141081","osm_relation_id":3285993}},
{"type":"Feature","geometry":{"type":"Polygon","coordinates":[[[111.8618,36.4424],[111.8632,36.4483],[111.8589,36.4558],[111.8585,36.4665],[111.8614,36.4742],[111.8693,36.4773],[111.8746,36.483],[111.8746,36.4878],[111.8781,36.4979],[111.8887,36.5005],[111.9055,36.5081],[111.9089,36.5133],[111.9144,36.5175],[111.9237,36.5139],[111.9274,36.5152],[111.9433,36.5263],[111.9476,36.5318],[111.9448,36.536],[111.9502,36.5474],[111.9496,36.5507],[111.9621,36.5568],[111.9692,36.5575],[111.9699,36.564],[111.9732,36.5676],[111.9677,36.5762],[111.9718,36.5798],[111.9807,36.5815],[111.9922,36.589],[111.9959,36.5892],[112.0071,36.5855],[112.0121,36.5896],[112.0178,36.5861],[112.0306,36.589],[112.0359,36.5884],[112.0393,36.5914],[112.0377,36.5987],[112.0286,36.6063],[112.0276,36.6132],[112.0315,36.6156],[112.0335,36.6212],[112.0325,36.6292],[112.0353,36.6453],[112.0281,36.6519],[112.0161,36.6563],[112.0163,36.6629],[112.014,36.6763],[112.0082,36.6857],[111.9998,36.6912],[111.9914,36.6906],[111.9888,36.6855],[111.9757,36.6797],[111.9669,36.6833],[111.9592,36.6887],[111.9498,36.701],[111.9394,36.7034],[111.9376,36.7074],[111.929,36.7093],[111.9105,36.7078],[111.8999,36.7137],[111.897,36.7137],[111.8873,36.7075],[111.8737,36.7162],[111.8678,36.7165],[111.8606,36.7112],[111.8523,36.7139],[111.8518,36.7053],[111.8471,36.6998],[111.8395,36.6964],[111.8312,36.6955],[111.8326,36.7026],[111.8389,36.7054],[111.8372,36.7112],[111.8265,36.7133],[111.8197,36.7079],[111.8108,36.7139],[111.8062,36.7132],[111.8032,36.7084],[111.7925,36.7098],[111.7868,36.7067],[111.7794,36.7071],[111.7785,36.7026],[111.7608,36.7077],[111.7566,36.7126],[111.7545,36.7187],[111.7491,36.7234],[111.7327,36.7126],[111.7261,36.7132],[111.7238,36.7179],[111.7162,36.7152],[111.7119,36.7073],[111.7044,36.71],[111.6928,36.7037],[111.6861,36.6968],[111.6816,36.6977],[111.6774,36.6942],[111.67,36.6935],[111.6686,36.6875],[111.675,36.6795],[111.6822,36.6756],[111.6842,36.6656],[111.6779,36.6563],[111.6756,36.645],[111.6726,36.6429],[111.6653,36.6435],[111.6604,36.6398],[111.6544,36.6387],[111.6512,36.6418],[111.6427,36.6407],[111.6335,36.6351],[111.6378,36.6258],[111.6371,36.6201],[111.6422,36.611],[111.6412,36.6083],[111.6482,36.6043],[111.6485,36.6009],[111.6591,36.5918],[111.649,36.5776],[111.6414,36.5759],[111.6363,36.5674],[111.6282,36.5645],[111.628,36.5583],[111.6229,36.5512],[111.6214,36.5431],[111.6286,36.5419],[111.6336,36.5385],[111.6425,36.5271],[111.651,36.5273],[111.6587,36.5195],[111.6659,36.5158],[111.6671,36.51],[111.6723,36.5079],[111.672,36.5024],[111.6805,36.5025],[111.6911,36.5035],[111.7024,36.5004],[111.7041,36.4951],[111.702,36.488],[111.6984,36.4864],[111.6933,36.4684],[111.6914,36.4658],[111.6949,36.461],[111.7018,36.4601],[111.705,36.4624],[111.7114,36.46],[111.7191,36.4617],[111.7304,36.4587],[111.7303,36.4543],[111.7425,36.4546],[111.7468,36.4447],[111.7542,36.4487],[111.7602,36.4551],[111.7732,36.4569],[111.7778,36.4535],[111.7813,36.4559],[111.7902,36.4576],[111.7919,36.4608],[111.8093,36.4594],[111.8136,36.4572],[111.8192,36.4477],[111.8398,36.4414],[111.8431,36.4387],[111.8544,36.4387],[111.8618,36.4424]]]},"properties":{"region_code":"CN-14-1410-141082","parent_region_code":"CN-14-1410","name":"霍州市","level":"county","has_children":false,"full_path":"中国 / 山西省 / 临汾市 / 霍州市","source_admin_code":"141082","osm_relation_id":3285994}}
]}