{"type":"FeatureCollection", "features": [
{"type":"Feature","geometry":{"type":"Polygon","coordinates":[[[114.5034,37.1627],[114.4994,37.1269],[114.4783,37.1077],[114.4928,37.0964],[114.482,37.045],[114.4974,37.0117],[114.4857,36.9979],[114.4947,36.9933],[114.5457,37.0036],[114.5956,36.9998],[114.6192,37.0303],[114.6297,37.0912],[114.6373,37.1325],[114.6174,37.1594],[114.5903,37.1747],[114.5675,37.1729],[114.5034,37.1627]]]},"properties":{"region_code":"CN-13-1305-130502","parent_region_code":"CN-13-1305","name":"襄都区","level":"county","has_children":false,"full_path":"中国 / 河北省 / 邢台市 / 襄都区","source_admin_code":"130502","osm_relation_id":5673961}},
{"type":"Feature","geometry":{"type":"Polygon","coordinates":[[[114.5034,37.1627],[114.4167,37.1876],[114.3922,37.2194],[114.3348,37.2509],[114.2935,37.2494],[114.2629,37.2566],[114.2218,37.3097],[114.1927,37.3006],[114.1877,37.3207],[114.161,37.3374],[114.1246,37.3186],[114.0525,37.3244],[114.0249,37.3505],[113.9498,37.3664],[113.9463,37.3442],[113.9206,37.3486],[113.8886,37.3122],[113.8939,37.2891],[113.8743,37.2454],[113.848,37.2062],[113.8247,37.1871],[113.822,37.1706],[113.7657,37.1513],[113.7671,37.1064],[113.7517,37.0752],[113.7776,37.059],[113.7793,37.0382],[113.7616,37.0181],[113.7869,36.9956],[113.8099,37.0158],[113.8331,37.0132],[113.8571,37.0295],[113.8814,37.0434],[113.9521,37.0469],[113.9986,37.0363],[114.0226,37.0128],[114.051,37.0038],[114.0752,37.0111],[114.0949,36.9893],[114.1361,36.994],[114.1337,37.008],[114.1585,37.029],[114.2295,37.0318],[114.2177,36.9778],[114.2653,36.9806],[114.3091,36.9716],[114.3813,36.9697],[114.4224,36.9615],[114.4446,36.995],[114.4857,36.9979],[114.4974,37.0117],[114.482,37.045],[114.4928,37.0964],[114.4783,37.1077],[114.4994,37.1269],[114.5034,37.1627]]]},"properties":{"region_code":"CN-13-1305-130503","parent_region_code":"CN-13-1305","name":"信都区","level":"county","has_children":false,"full_path":"中国 / 河北省 / 邢台市 / 信都区","source_admin_code":"130503","osm_relation_id":5673958}},
{"type":"Feature","geometry":{"type":"Polygon","coordinates":[[[114.6297,37.0912],[114.6651,37.1054],[114.6865,37.082],[114.7144,37.0903],[114.7346,37.0751],[114.7679,37.0731],[114.7847,37.0959],[114.878,37.0902],[114.8946,37.0854],[114.91,37.1006],[114.9048,37.1345],[114.9217,37.162],[114.8882,37.1721],[114.8924,37.2027],[114.8723,37.2232],[114.871,37.2417],[114.8413,37.2452],[114.8369,37.2587],[114.7866,37.2862],[114.7716,37.2787],[114.7584,37.2494],[114.7353,37.2288],[114.6467,37.2105],[114.5954,37.2269],[114.5758,37.2104],[114.5675,37.1729],[114.5903,37.1747],[114.6174,37.1594],[114.6373,37.1325],[114.6297,37.0912]]]},"properties":{"region_code":"CN-13-1305-130505","parent_region_code":"CN-13-1305","name":"任泽区","level":"county","has_children":false,"full_path":"中国 / 河北省 / 邢台市 / 任泽区","source_admin_code":"130505","osm_relation_id":5673959}},
{"type":"Feature","geometry":{"type":"Polygon","coordinates":[[[114.5956,36.9998],[114.6242,36.9875],[114.5991,36.9696],[114.6035,36.9539],[114.6331,36.9572],[114.6371,36.9246],[114.6653,36.9165],[114.6897,36.907],[114.7112,36.9318],[114.7813,36.9125],[114.8322,36.9504],[114.8429,36.9665],[114.8851,36.9705],[114.8665,36.983],[114.8946,37.0854],[114.878,37.0902],[114.7847,37.0959],[114.7679,37.0731],[114.7346,37.0751],[114.7144,37.0903],[114.6865,37.082],[114.6651,37.1054],[114.6297,37.0912],[114.6192,37.0303],[114.5956,36.9998]]]},"properties":{"region_code":"CN-13-1305-130506","parent_region_code":"CN-13-1305","name":"南和区","level":"county","has_children":false,"full_path":"中国 / 河北省 / 邢台市 / 南和区","source_admin_code":"130506","osm_relation_id":5673955}},
{"type":"Feature","geometry":{"type":"Polygon","coordinates":[[[114.0616,37.4445],[114.0887,37.426],[114.1338,37.4078],[114.1661,37.3644],[114.2449,37.3667],[114.2453,37.3922],[114.2716,37.4075],[114.2864,37.3884],[114.318,37.3761],[114.3566,37.3755],[114.3647,37.3594],[114.3913,37.3471],[114.4178,37.3826],[114.4562,37.3692],[114.4642,37.348],[114.512,37.3761],[114.567,37.3777],[114.5565,37.4087],[114.566,37.4167],[114.6161,37.4164],[114.6216,37.434],[114.5988,37.4896],[114.5985,37.5447],[114.5809,37.5444],[114.508,37.5833],[114.4572,37.5763],[114.43,37.5516],[114.4043,37.5477],[114.3231,37.5],[114.2946,37.5075],[114.2642,37.4937],[114.237,37.5073],[114.2084,37.51],[114.178,37.5307],[114.1578,37.5273],[114.149,37.5048],[114.0952,37.4976],[114.0616,37.4445]]]},"properties":{"region_code":"CN-13-1305-130522","parent_region_code":"CN-13-1305","name":"临城县","level":"county","has_children":false,"full_path":"中国 / 河北省 / 邢台市 / 临城县","source_admin_code":"130522","osm_relation_id":3383301}},
{"type":"Feature","geometry":{"type":"Polygon","coordinates":[[[114.5675,37.1729],[114.5758,37.2104],[114.5954,37.2269],[114.6149,37.2634],[114.6388,37.2744],[114.6413,37.2915],[114.5985,37.2974],[114.5787,37.3196],[114.5748,37.3415],[114.6105,37.3603],[114.588,37.3828],[114.567,37.3777],[114.512,37.3761],[114.4642,37.348],[114.4562,37.3692],[114.4178,37.3826],[114.3913,37.3471],[114.3647,37.3594],[114.3566,37.3755],[114.318,37.3761],[114.2864,37.3884],[114.2716,37.4075],[114.2453,37.3922],[114.2449,37.3667],[114.1661,37.3644],[114.1338,37.4078],[114.0887,37.426],[114.0616,37.4445],[114.0258,37.4467],[114.0057,37.4195],[113.9702,37.4089],[113.9498,37.3664],[114.0249,37.3505],[114.0525,37.3244],[114.1246,37.3186],[114.161,37.3374],[114.1877,37.3207],[114.1927,37.3006],[114.2218,37.3097],[114.2629,37.2566],[114.2935,37.2494],[114.3348,37.2509],[114.3922,37.2194],[114.4167,37.1876],[114.5034,37.1627],[114.5675,37.1729]]]},"properties":{"region_code":"CN-13-1305-130523","parent_region_code":"CN-13-1305","name":"内丘县","level":"county","has_children":false,"full_path":"中国 / 河北省 / 邢台市 / 内丘县","source_admin_code":"130523","osm_relation_id":3387288}},
{"type":"Feature","geometry":{"type":"Polygon","coordinates":[[[114.6161,37.4164],[114.6503,37.4077],[114.652,37.4257],[114.6857,37.436],[114.7432,37.4257],[114.7647,37.4381],[114.7486,37.4717],[114.7671,37.4797],[114.7848,37.5499],[114.7629,37.6176],[114.7457,37.6224],[114.7001,37.6128],[114.6858,37.5632],[114.5985,37.5447],[114.5988,37.4896],[114.6216,37.434],[114.6161,37.4164]]]},"properties":{"region_code":"CN-13-1305-130524","parent_region_code":"CN-13-1305","name":"柏乡县","level":"county","has_children":false,"full_path":"中国 / 河北省 / 邢台市 / 柏乡县","source_admin_code":"130524","osm_relation_id":3383329}},
{"type":"Feature","geometry":{"type":"Polygon","coordinates":[[[114.8369,37.2587],[114.9191,37.2819],[114.9631,37.3221],[114.9842,37.3652],[115.0125,37.3853],[115.0116,37.4053],[114.9524,37.4421],[114.9234,37.4402],[114.8588,37.4803],[114.8254,37.521],[114.8042,37.5212],[114.7848,37.5499],[114.7671,37.4797],[114.7486,37.4717],[114.7647,37.4381],[114.7432,37.4257],[114.6857,37.436],[114.652,37.4257],[114.6503,37.4077],[114.6161,37.4164],[114.566,37.4167],[114.5565,37.4087],[114.567,37.3777],[114.588,37.3828],[114.6105,37.3603],[114.5748,37.3415],[114.5787,37.3196],[114.5985,37.2974],[114.6413,37.2915],[114.6388,37.2744],[114.6149,37.2634],[114.5954,37.2269],[114.6467,37.2105],[114.7353,37.2288],[114.7584,37.2494],[114.7716,37.2787],[114.7866,37.2862],[114.8369,37.2587]]]},"properties":{"region_code":"CN-13-1305-130525","parent_region_code":"CN-13-1305","name":"隆尧县","level":"county","has_children":false,"full_path":"中国 / 河北省 / 邢台市 / 隆尧县","source_admin_code":"130525","osm_relation_id":5673954}},
{"type":"Feature","geometry":{"type":"Polygon","coordinates":[[[114.7848,37.5499],[114.8042,37.5212],[114.8254,37.521],[114.8588,37.4803],[114.9234,37.4402],[114.9524,37.4421],[115.0116,37.4053],[115.0575,37.411],[115.1058,37.3997],[115.1113,37.4283],[115.073,37.4432],[115.0873,37.4827],[115.1011,37.4989],[115.0917,37.5265],[115.1201,37.523],[115.138,37.5404],[115.1616,37.5395],[115.1852,37.5672],[115.1689,37.5984],[115.1908,37.6141],[115.1944,37.6447],[115.2552,37.6466],[115.258,37.6893],[115.2391,37.722],[115.1518,37.7621],[115.1575,37.7878],[115.1182,37.8109],[115.0672,37.7873],[115.0618,37.7413],[115.0368,37.7322],[115.0179,37.7446],[114.957,37.7192],[114.9,37.7278],[114.8374,37.6752],[114.8045,37.6594],[114.7901,37.6258],[114.7629,37.6176],[114.7848,37.5499]]]},"properties":{"region_code":"CN-13-1305-130528","parent_region_code":"CN-13-1305","name":"宁晋县","level":"county","has_children":false,"full_path":"中国 / 河北省 / 邢台市 / 宁晋县","source_admin_code":"130528","osm_relation_id":3383313}},
{"type":"Feature","geometry":{"type":"Polygon","coordinates":[[[114.9217,37.162],[115.0016,37.1498],[115.0089,37.1339],[115.0453,37.1275],[115.0999,37.1271],[115.1151,37.1919],[115.1777,37.2217],[115.1492,37.2254],[115.1474,37.2525],[115.1645,37.2644],[115.2154,37.2689],[115.2134,37.2876],[115.1861,37.3543],[115.189,37.4063],[115.1568,37.3909],[115.1495,37.419],[115.1113,37.4283],[115.1058,37.3997],[115.0575,37.411],[115.0116,37.4053],[115.0125,37.3853],[114.9842,37.3652],[114.9631,37.3221],[114.9191,37.2819],[114.8369,37.2587],[114.8413,37.2452],[114.871,37.2417],[114.8723,37.2232],[114.8924,37.2027],[114.8882,37.1721],[114.9217,37.162]]]},"properties":{"region_code":"CN-13-1305-130529","parent_region_code":"CN-13-1305","name":"巨鹿县","level":"county","has_children":false,"full_path":"中国 / 河北省 / 邢台市 / 巨鹿县","source_admin_code":"130529","osm_relation_id":5673953}},
{"type":"Feature","geometry":{"type":"Polygon","coordinates":[[[115.1113,37.4283],[115.1495,37.419],[115.1743,37.4166],[115.2128,37.4401],[115.3126,37.4138],[115.3042,37.4406],[115.3348,37.4468],[115.3577,37.4645],[115.3884,37.4731],[115.3986,37.5369],[115.3582,37.5426],[115.3476,37.525],[115.3091,37.563],[115.2781,37.5764],[115.2281,37.5804],[115.2165,37.5619],[115.1852,37.5672],[115.1616,37.5395],[115.138,37.5404],[115.1201,37.523],[115.0917,37.5265],[115.1011,37.4989],[115.0873,37.4827],[115.073,37.4432],[115.1113,37.4283]]]},"properties":{"region_code":"CN-13-1305-130530","parent_region_code":"CN-13-1305","name":"新河县","level":"county","has_children":false,"full_path":"中国 / 河北省 / 邢台市 / 新河县","source_admin_code":"130530","osm_relation_id":3290706}},
{"type":"Feature","geometry":{"type":"Polygon","coordinates":[[[115.0999,37.1271],[115.1068,37.0156],[115.1196,36.996],[115.1138,36.9625],[115.097,36.9579],[115.1156,36.9327],[115.1092,36.9045],[115.1642,36.8911],[115.1526,36.8496],[115.2075,36.8672],[115.2178,36.8987],[115.2417,36.9101],[115.2524,36.9344],[115.2341,36.9514],[115.2396,37.0103],[115.2641,37.0333],[115.2705,37.0787],[115.2477,37.0954],[115.2295,37.1545],[115.2336,37.1891],[115.2616,37.1895],[115.2759,37.2229],[115.2665,37.2454],[115.2783,37.2733],[115.2554,37.2955],[115.2134,37.2876],[115.2154,37.2689],[115.1645,37.2644],[115.1474,37.2525],[115.1492,37.2254],[115.1777,37.2217],[115.1151,37.1919],[115.0999,37.1271]]]},"properties":{"region_code":"CN-13-1305-130531","parent_region_code":"CN-13-1305","name":"广宗县","level":"county","has_children":false,"full_path":"中国 / 河北省 / 邢台市 / 广宗县","source_admin_code":"130531","osm_relation_id":5673952}},
{"type":"Feature","geometry":{"type":"Polygon","coordinates":[[[114.8946,37.0854],[114.8665,36.983],[114.8851,36.9705],[114.935,36.948],[114.975,36.9507],[115.0201,36.9622],[115.097,36.9579],[115.1138,36.9625],[115.1196,36.996],[115.1068,37.0156],[115.0999,37.1271],[115.0453,37.1275],[115.0089,37.1339],[115.0016,37.1498],[114.9217,37.162],[114.9048,37.1345],[114.91,37.1006],[114.8946,37.0854]]]},"properties":{"region_code":"CN-13-1305-130532","parent_region_code":"CN-13-1305","name":"平乡县","level":"county","has_children":false,"full_path":"中国 / 河北省 / 邢台市 / 平乡县","source_admin_code":"130532","osm_relation_id":5673956}},
{"type":"Feature","geometry":{"type":"Polygon","coordinates":[[[115.2075,36.8672],[115.2723,36.8533],[115.3146,36.8693],[115.361,36.8726],[115.3626,36.8893],[115.3903,36.9073],[115.4261,36.9048],[115.4406,36.9188],[115.4783,36.9128],[115.5021,36.9368],[115.5716,36.9424],[115.5457,36.9715],[115.5152,36.9732],[115.5179,37.0326],[115.5419,37.0541],[115.5339,37.0759],[115.5689,37.091],[115.5702,37.1243],[115.5555,37.1444],[115.5076,37.1624],[115.5091,37.1411],[115.4914,37.1271],[115.4569,37.142],[115.4698,37.1677],[115.447,37.1746],[115.4633,37.2131],[115.4528,37.2331],[115.4334,37.2348],[115.4231,37.276],[115.3981,37.2868],[115.3662,37.2816],[115.2554,37.2955],[115.2783,37.2733],[115.2665,37.2454],[115.2759,37.2229],[115.2616,37.1895],[115.2336,37.1891],[115.2295,37.1545],[115.2477,37.0954],[115.2705,37.0787],[115.2641,37.0333],[115.2396,37.0103],[115.2341,36.9514],[115.2524,36.9344],[115.2417,36.9101],[115.2178,36.8987],[115.2075,36.8672]]]},"properties":{"region_code":"CN-13-1305-130533","parent_region_code":"CN-13-1305","name":"威县","level":"county","has_children":false,"full_path":"中国 / 河北省 / 邢台市 / 威县","source_admin_code":"130533","osm_relation_id":3290705}},
{"type":"Feature","geometry":{"type":"Polygon","coordinates":[[[115.5716,36.9424],[115.5768,36.9311],[115.6309,36.924],[115.7003,36.9439],[115.7548,36.934],[115.7781,36.9465],[115.7916,36.9688],[115.7704,36.992],[115.8062,37.0147],[115.8247,37.0426],[115.8456,37.0566],[115.8301,37.0725],[115.8224,37.115],[115.7817,37.12],[115.7573,37.1452],[115.7484,37.1797],[115.711,37.1661],[115.7145,37.1442],[115.661,37.1305],[115.6632,37.1045],[115.6377,37.09],[115.5689,37.091],[115.5339,37.0759],[115.5419,37.0541],[115.5179,37.0326],[115.5152,36.9732],[115.5457,36.9715],[115.5716,36.9424]]]},"properties":{"region_code":"CN-13-1305-130534","parent_region_code":"CN-13-1305","name":"清河县","level":"county","has_children":false,"full_path":"中国 / 河北省 / 邢台市 / 清河县","source_admin_code":"130534","osm_relation_id":3290704}},
{"type":"Feature","geometry":{"type":"Polygon","coordinates":[[[115.3146,36.8693],[115.2968,36.8399],[115.3194,36.8011],[115.3141,36.7799],[115.3394,36.7781],[115.3667,36.7638],[115.4045,36.7678],[115.4724,36.7541],[115.5103,36.7666],[115.5796,36.7815],[115.6833,36.8187],[115.6963,36.8691],[115.7364,36.903],[115.7593,36.9083],[115.7548,36.934],[115.7003,36.9439],[115.6309,36.924],[115.5768,36.9311],[115.5716,36.9424],[115.5021,36.9368],[115.4783,36.9128],[115.4406,36.9188],[115.4261,36.9048],[115.3903,36.9073],[115.3626,36.8893],[115.361,36.8726],[115.3146,36.8693]]]},"properties":{"region_code":"CN-13-1305-130535","parent_region_code":"CN-13-1305","name":"临西县","level":"county","has_children":false,"full_path":"中国 / 河北省 / 邢台市 / 临西县","source_admin_code":"130535","osm_relation_id":3290702}},
{"type":"Feature","geometry":{"type":"Polygon","coordinates":[[[115.2134,37.2876],[115.2554,37.2955],[115.3662,37.2816],[115.3981,37.2868],[115.4231,37.276],[115.4334,37.2348],[115.4528,37.2331],[115.4633,37.2131],[115.447,37.1746],[115.4698,37.1677],[115.4569,37.142],[115.4914,37.1271],[115.5091,37.1411],[115.5076,37.1624],[115.5555,37.1444],[115.5702,37.1243],[115.5689,37.091],[115.6377,37.09],[115.6632,37.1045],[115.661,37.1305],[115.7145,37.1442],[115.711,37.1661],[115.7484,37.1797],[115.7586,37.2003],[115.7094,37.2341],[115.7014,37.2582],[115.6805,37.2603],[115.6643,37.2788],[115.6265,37.274],[115.6226,37.2993],[115.5848,37.304],[115.5348,37.3224],[115.5134,37.3379],[115.5191,37.3535],[115.4876,37.3627],[115.4622,37.3888],[115.4134,37.3867],[115.3952,37.4226],[115.3493,37.4317],[115.3348,37.4468],[115.3042,37.4406],[115.3126,37.4138],[115.2128,37.4401],[115.1743,37.4166],[115.1495,37.419],[115.1568,37.3909],[115.189,37.4063],[115.1861,37.3543],[115.2134,37.2876]]]},"properties":{"region_code":"CN-13-1305-130581","parent_region_code":"CN-13-1305","name":"南宫市","level":"county","has_children":false,"full_path":"中国 / 河北省 / 邢台市 / 南宫市","source_admin_code":"130581","osm_relation_id":3290703}},
{"type":"Feature","geometry":{"type":"Polygon","coordinates":[[[114.4857,36.9979],[114.4446,36.995],[114.4224,36.9615],[114.3813,36.9697],[114.3091,36.9716],[114.2653,36.9806],[114.2177,36.9778],[114.2295,37.0318],[114.1585,37.029],[114.1337,37.008],[114.1361,36.994],[114.0949,36.9893],[114.0752,37.0111],[114.051,37.0038],[114.0226,37.0128],[113.9986,37.0363],[113.9521,37.0469],[113.8814,37.0434],[113.8571,37.0295],[113.8943,36.9896],[113.9287,36.9925],[113.9458,36.9645],[113.9777,36.941],[113.981,36.9155],[113.9962,36.8944],[114.0192,36.8958],[114.0395,36.8695],[114.07,36.8849],[114.0769,36.8513],[114.091,36.8406],[114.1457,36.8449],[114.2133,36.842],[114.2465,36.8559],[114.2967,36.8557],[114.3357,36.8442],[114.3792,36.8615],[114.3812,36.8442],[114.4249,36.8386],[114.4481,36.847],[114.473,36.8328],[114.5459,36.8319],[114.5505,36.8857],[114.6427,36.8965],[114.6653,36.9165],[114.6371,36.9246],[114.6331,36.9572],[114.6035,36.9539],[114.5991,36.9696],[114.6242,36.9875],[114.5956,36.9998],[114.5457,37.0036],[114.4947,36.9933],[114.4857,36.9979]]]},"properties":{"region_code":"CN-13-1305-130582","parent_region_code":"CN-13-1305","name":"沙河市","level":"county","has_children":false,"full_path":"中国 / 河北省 / 邢台市 / 沙河市","source_admin_code":"130582","osm_relation_id":5673960}}
]}