{"type":"FeatureCollection", "features": [
{"type":"Feature","geometry":{"type":"Polygon","coordinates":[[[113.6792,37.8664],[113.6613,37.8696],[113.6447,37.8611],[113.6361,37.8542],[113.6125,37.8488],[113.6084,37.8566],[113.5954,37.8589],[113.5885,37.8657],[113.5773,37.8669],[113.5632,37.872],[113.5609,37.8773],[113.5639,37.8627],[113.5545,37.8548],[113.5313,37.8564],[113.525,37.8483],[113.5114,37.84],[113.5125,37.8246],[113.5282,37.823],[113.5396,37.818],[113.5439,37.8117],[113.5555,37.8154],[113.5582,37.8198],[113.5756,37.8248],[113.6006,37.8271],[113.6099,37.8206],[113.6346,37.8165],[113.6463,37.8201],[113.6468,37.8264],[113.6585,37.8395],[113.6786,37.8541],[113.6792,37.8664]]]},"properties":{"region_code":"CN-14-1403-140302","parent_region_code":"CN-14-1403","name":"城区","level":"county","has_children":false,"full_path":"中国 / 山西省 / 阳泉市 / 城区","source_admin_code":"140302","osm_relation_id":3285000}},
{"type":"Feature","geometry":{"type":"MultiPolygon","coordinates":[[[[113.5698,37.7857],[113.5837,37.7789],[113.5775,37.7717],[113.5647,37.7628],[113.5428,37.7634],[113.5432,37.7572],[113.5789,37.7577],[113.5911,37.7725],[113.585,37.7841],[113.5698,37.7857]]],[[[113.5609,37.8773],[113.5525,37.8814],[113.5518,37.8875],[113.5413,37.9008],[113.5332,37.9047],[113.5426,37.9121],[113.5435,37.9197],[113.5331,37.9239],[113.5235,37.9356],[113.5238,37.9436],[113.5167,37.951],[113.5028,37.9414],[113.4814,37.9403],[113.4624,37.9521],[113.4561,37.9519],[113.4475,37.9472],[113.4393,37.9472],[113.4407,37.9378],[113.447,37.9359],[113.4471,37.9183],[113.4445,37.9151],[113.4576,37.8941],[113.4622,37.8818],[113.4744,37.8859],[113.4844,37.8751],[113.4802,37.8697],[113.4816,37.8605],[113.4773,37.8532],[113.4806,37.8415],[113.4836,37.8451],[113.4954,37.8401],[113.5114,37.84],[113.525,37.8483],[113.5313,37.8564],[113.5545,37.8548],[113.5639,37.8627],[113.5609,37.8773]]]]},"properties":{"region_code":"CN-14-1403-140303","parent_region_code":"CN-14-1403","name":"矿区","level":"county","has_children":false,"full_path":"中国 / 山西省 / 阳泉市 / 矿区","source_admin_code":"140303","osm_relation_id":3285002}},
{"type":"Feature","geometry":{"type":"MultiPolygon","coordinates":[[[[113.6792,37.8664],[113.6785,37.8775],[113.683,37.8847],[113.6971,37.8848],[113.6919,37.8962],[113.7034,37.8961],[113.7033,37.9094],[113.6999,37.914],[113.6782,37.9224],[113.6677,37.9455],[113.6601,37.9451],[113.6473,37.9671],[113.6552,37.9674],[113.6629,37.9751],[113.6683,37.9868],[113.6788,37.983],[113.6871,37.9926],[113.6844,37.997],[113.6673,38.0001],[113.6564,38.0078],[113.6643,38.014],[113.6741,38.014],[113.685,38.0226],[113.672,38.0249],[113.6675,38.0453],[113.6621,38.0511],[113.6448,38.0552],[113.6462,38.0693],[113.6439,38.0882],[113.6203,38.0888],[113.6122,38.0753],[113.6023,38.0829],[113.5979,38.092],[113.5906,38.087],[113.5867,38.0796],[113.5884,38.0664],[113.5699,38.0629],[113.5681,38.0713],[113.5549,38.0718],[113.5403,38.052],[113.5301,38.0552],[113.5063,38.0408],[113.5,38.0408],[113.4963,38.0286],[113.5027,38.0269],[113.514,38.0042],[113.5074,37.9906],[113.4992,37.9891],[113.4941,37.9936],[113.4914,38.0041],[113.4848,38.0046],[113.4766,38.0115],[113.4688,38.0122],[113.4619,38.0046],[113.4633,37.9972],[113.4541,37.9876],[113.4591,37.9686],[113.4549,37.9623],[113.4561,37.9519],[113.4624,37.9521],[113.4814,37.9403],[113.5028,37.9414],[113.5167,37.951],[113.5238,37.9436],[113.5235,37.9356],[113.5331,37.9239],[113.5435,37.9197],[113.5426,37.9121],[113.5332,37.9047],[113.5413,37.9008],[113.5518,37.8875],[113.5525,37.8814],[113.5609,37.8773],[113.5632,37.872],[113.5773,37.8669],[113.5885,37.8657],[113.5954,37.8589],[113.6084,37.8566],[113.6125,37.8488],[113.6361,37.8542],[113.6447,37.8611],[113.6613,37.8696],[113.6792,37.8664]]],[[[113.4393,37.9472],[113.419,37.9508],[113.4061,37.9493],[113.3892,37.9571],[113.3722,37.9519],[113.3541,37.9603],[113.3526,37.9669],[113.3384,37.9659],[113.3334,37.9631],[113.3335,37.953],[113.3264,37.9451],[113.3245,37.9329],[113.3185,37.9257],[113.3298,37.9159],[113.3306,37.9082],[113.3266,37.899],[113.3381,37.8855],[113.3352,37.8755],[113.3396,37.8699],[113.349,37.8718],[113.3543,37.8627],[113.3613,37.8379],[113.3711,37.8287],[113.3937,37.8222],[113.3917,37.8162],[113.3997,37.8036],[113.4046,37.7906],[113.4262,37.7772],[113.4324,37.7707],[113.4538,37.7896],[113.47,37.7897],[113.4762,37.7983],[113.481,37.8169],[113.4724,37.8346],[113.4806,37.8415],[113.4773,37.8532],[113.4816,37.8605],[113.4802,37.8697],[113.4844,37.8751],[113.4744,37.8859],[113.4622,37.8818],[113.4576,37.8941],[113.4445,37.9151],[113.4471,37.9183],[113.447,37.9359],[113.4407,37.9378],[113.4393,37.9472]]]]},"properties":{"region_code":"CN-14-1403-140311","parent_region_code":"CN-14-1403","name":"郊区","level":"county","has_children":false,"full_path":"中国 / 山西省 / 阳泉市 / 郊区","source_admin_code":"140311","osm_relation_id":3285001}},
{"type":"Feature","geometry":{"type":"Polygon","coordinates":[[[113.5114,37.84],[113.4954,37.8401],[113.4836,37.8451],[113.4806,37.8415],[113.4724,37.8346],[113.481,37.8169],[113.4762,37.7983],[113.47,37.7897],[113.4538,37.7896],[113.4324,37.7707],[113.4375,37.7552],[113.4337,37.7479],[113.4358,37.7376],[113.4423,37.736],[113.4442,37.7285],[113.4603,37.7204],[113.4689,37.712],[113.4694,37.7053],[113.4786,37.6937],[113.5048,37.6975],[113.51,37.6948],[113.5107,37.6857],[113.519,37.6791],[113.5349,37.6739],[113.5514,37.6775],[113.5771,37.674],[113.5978,37.6823],[113.6148,37.6816],[113.6203,37.6728],[113.6281,37.6672],[113.643,37.6655],[113.6525,37.6591],[113.6708,37.6647],[113.6777,37.6736],[113.6854,37.6735],[113.6933,37.6854],[113.7092,37.6844],[113.7178,37.6862],[113.7545,37.6827],[113.7632,37.6667],[113.7888,37.6753],[113.8001,37.6743],[113.8072,37.6695],[113.8185,37.6728],[113.8241,37.6787],[113.8449,37.6835],[113.845,37.6908],[113.8616,37.696],[113.8629,37.7016],[113.8895,37.7104],[113.9065,37.7052],[113.9128,37.7068],[113.9226,37.7021],[113.9362,37.7024],[113.9379,37.6967],[113.9494,37.6921],[113.9627,37.6784],[113.9837,37.6793],[113.9886,37.6918],[113.9881,37.6993],[113.9944,37.707],[113.986,37.7132],[113.9864,37.729],[113.9923,37.7413],[114.0106,37.7468],[114.0218,37.7462],[114.0368,37.7533],[114.034,37.7588],[114.037,37.7663],[114.0345,37.7748],[114.0366,37.7873],[114.0042,37.8034],[114.0095,37.8133],[113.9873,37.8186],[113.9671,37.8168],[113.9585,37.8276],[113.9626,37.849],[113.9618,37.8559],[113.9701,37.8622],[113.9681,37.8762],[113.9599,37.886],[113.9563,37.9025],[113.9459,37.9161],[113.9254,37.921],[113.9154,37.9372],[113.9213,37.9473],[113.9135,37.9521],[113.9131,37.9584],[113.9002,37.9669],[113.8916,37.9847],[113.8812,37.9908],[113.8709,37.989],[113.8597,37.9937],[113.8555,37.9998],[113.8695,38.0026],[113.8713,38.0109],[113.8676,38.0157],[113.8747,38.028],[113.8671,38.0384],[113.8667,38.0473],[113.8721,38.0516],[113.8696,38.058],[113.8495,38.0654],[113.8534,38.0706],[113.8441,38.0834],[113.8298,38.0938],[113.8277,38.1002],[113.8167,38.1074],[113.8055,38.1094],[113.787,38.1052],[113.7815,38.1002],[113.777,38.0888],[113.7681,38.0885],[113.7567,38.0782],[113.7287,38.0798],[113.7242,38.0845],[113.7249,38.0951],[113.7009,38.1025],[113.6829,38.1025],[113.671,38.0954],[113.6668,38.0837],[113.6439,38.0882],[113.6462,38.0693],[113.6448,38.0552],[113.6621,38.0511],[113.6675,38.0453],[113.672,38.0249],[113.685,38.0226],[113.6741,38.014],[113.6643,38.014],[113.6564,38.0078],[113.6673,38.0001],[113.6844,37.997],[113.6871,37.9926],[113.6788,37.983],[113.6683,37.9868],[113.6629,37.9751],[113.6552,37.9674],[113.6473,37.9671],[113.6601,37.9451],[113.6677,37.9455],[113.6782,37.9224],[113.6999,37.914],[113.7033,37.9094],[113.7034,37.8961],[113.6919,37.8962],[113.6971,37.8848],[113.683,37.8847],[113.6785,37.8775],[113.6792,37.8664],[113.6786,37.8541],[113.6585,37.8395],[113.6468,37.8264],[113.6463,37.8201],[113.6346,37.8165],[113.6099,37.8206],[113.6006,37.8271],[113.5756,37.8248],[113.5582,37.8198],[113.5555,37.8154],[113.5439,37.8117],[113.5396,37.818],[113.5282,37.823],[113.5125,37.8246],[113.5114,37.84]],[[113.5698,37.7857],[113.585,37.7841],[113.5911,37.7725],[113.5789,37.7577],[113.5432,37.7572],[113.5428,37.7634],[113.5647,37.7628],[113.5775,37.7717],[113.5837,37.7789],[113.5698,37.7857]]]},"properties":{"region_code":"CN-14-1403-140321","parent_region_code":"CN-14-1403","name":"平定县","level":"county","has_children":false,"full_path":"中国 / 山西省 / 阳泉市 / 平定县","source_admin_code":"140321","osm_relation_id":3285003}},
{"type":"Feature","geometry":{"type":"Polygon","coordinates":[[[113.4561,37.9519],[113.4549,37.9623],[113.4591,37.9686],[113.4541,37.9876],[113.4633,37.9972],[113.4619,38.0046],[113.4688,38.0122],[113.4766,38.0115],[113.4848,38.0046],[113.4914,38.0041],[113.4941,37.9936],[113.4992,37.9891],[113.5074,37.9906],[113.514,38.0042],[113.5027,38.0269],[113.4963,38.0286],[113.5,38.0408],[113.5063,38.0408],[113.5301,38.0552],[113.5403,38.052],[113.5549,38.0718],[113.5681,38.0713],[113.5699,38.0629],[113.5884,38.0664],[113.5867,38.0796],[113.5906,38.087],[113.5979,38.092],[113.6023,38.0829],[113.6122,38.0753],[113.6203,38.0888],[113.6439,38.0882],[113.6668,38.0837],[113.671,38.0954],[113.6829,38.1025],[113.7009,38.1025],[113.7249,38.0951],[113.7242,38.0845],[113.7287,38.0798],[113.7567,38.0782],[113.7681,38.0885],[113.777,38.0888],[113.7815,38.1002],[113.787,38.1052],[113.8055,38.1094],[113.8105,38.1281],[113.8148,38.1291],[113.8182,38.1418],[113.8159,38.1507],[113.8291,38.1639],[113.8137,38.1672],[113.7911,38.1598],[113.7672,38.1672],[113.7458,38.1711],[113.7228,38.1678],[113.7171,38.1732],[113.7339,38.1841],[113.7257,38.1943],[113.716,38.1908],[113.7111,38.1951],[113.711,38.208],[113.6973,38.2128],[113.6873,38.2057],[113.6781,38.2048],[113.6686,38.2156],[113.6588,38.2193],[113.6445,38.2345],[113.6211,38.2289],[113.6166,38.2344],[113.5998,38.2368],[113.5796,38.2357],[113.5616,38.2379],[113.5573,38.2468],[113.5386,38.2587],[113.5373,38.2752],[113.5336,38.2846],[113.5388,38.2951],[113.5373,38.304],[113.5421,38.3073],[113.5419,38.3188],[113.5461,38.3244],[113.5576,38.33],[113.5558,38.3413],[113.5412,38.3553],[113.5321,38.3543],[113.5243,38.3692],[113.5174,38.3754],[113.5179,38.3826],[113.5264,38.3933],[113.5284,38.4046],[113.5274,38.4197],[113.5416,38.4257],[113.5576,38.4234],[113.562,38.4371],[113.5627,38.45],[113.5711,38.4552],[113.5839,38.4572],[113.5821,38.4649],[113.5705,38.4696],[113.5661,38.4758],[113.5529,38.4798],[113.5469,38.4963],[113.5512,38.5057],[113.5372,38.519],[113.5231,38.5223],[113.5146,38.5175],[113.5006,38.5195],[113.4828,38.5062],[113.4762,38.5078],[113.4644,38.5048],[113.4467,38.5085],[113.4231,38.5219],[113.4153,38.5236],[113.4044,38.5148],[113.3799,38.5077],[113.3679,38.4968],[113.3423,38.4955],[113.3233,38.4876],[113.3198,38.4825],[113.3044,38.4802],[113.3018,38.4729],[113.2795,38.4671],[113.2801,38.4567],[113.2754,38.4458],[113.2641,38.4391],[113.2499,38.4377],[113.2404,38.4311],[113.2261,38.4332],[113.2143,38.4316],[113.2125,38.4267],[113.1947,38.4149],[113.1662,38.415],[113.1593,38.4121],[113.1505,38.4151],[113.1382,38.4098],[113.1347,38.4001],[113.147,38.3787],[113.1441,38.3692],[113.1356,38.3585],[113.1478,38.3484],[113.1512,38.3398],[113.1445,38.3264],[113.1212,38.3119],[113.1122,38.3134],[113.1008,38.3055],[113.0893,38.3072],[113.0693,38.3043],[113.0672,38.2979],[113.0567,38.2916],[113.0576,38.2863],[113.0449,38.2729],[113.0278,38.2676],[113.0282,38.2586],[112.9968,38.2488],[112.9849,38.2414],[112.982,38.2364],[112.9653,38.2304],[112.9648,38.2245],[112.9564,38.2163],[112.9511,38.2169],[112.9548,38.2023],[112.945,38.1987],[112.9312,38.1776],[112.9343,38.1643],[112.9301,38.1576],[112.916,38.1611],[112.9158,38.1442],[112.925,38.1413],[112.9345,38.1345],[112.9498,38.14],[112.9565,38.1367],[112.9586,38.1298],[112.9566,38.1193],[112.9624,38.1131],[112.9894,38.093],[113.0096,38.0813],[113.019,38.0841],[113.038,38.0791],[113.0357,38.0761],[113.0445,38.0653],[113.0601,38.0586],[113.0769,38.0536],[113.0929,38.0567],[113.0956,38.0676],[113.1111,38.0779],[113.1187,38.0803],[113.1267,38.0737],[113.1346,38.0629],[113.1418,38.0625],[113.1468,38.0556],[113.1567,38.0524],[113.1684,38.0569],[113.1837,38.0534],[113.1955,38.076],[113.2075,38.0813],[113.2103,38.0917],[113.2234,38.0932],[113.2295,38.0878],[113.2516,38.0892],[113.2554,38.0816],[113.2493,38.0692],[113.2499,38.0643],[113.2434,38.0544],[113.2539,38.0474],[113.2564,38.0275],[113.2808,38.0247],[113.2852,38.0158],[113.2795,38.0075],[113.2792,37.999],[113.2867,37.9971],[113.2901,37.9896],[113.322,37.9829],[113.3295,37.9713],[113.3384,37.9659],[113.3526,37.9669],[113.3541,37.9603],[113.3722,37.9519],[113.3892,37.9571],[113.4061,37.9493],[113.419,37.9508],[113.4393,37.9472],[113.4475,37.9472],[113.4561,37.9519]]]},"properties":{"region_code":"CN-14-1403-140322","parent_region_code":"CN-14-1403","name":"盂县","level":"county","has_children":false,"full_path":"中国 / 山西省 / 阳泉市 / 盂县","source_admin_code":"140322","osm_relation_id":3285004}}
]}