{"type":"FeatureCollection", "features": [
{"type":"Feature","geometry":{"type":"Polygon","coordinates":[[[114.9227,40.8368],[114.9124,40.8332],[114.9045,40.8404],[114.8901,40.8443],[114.8892,40.8299],[114.8747,40.8116],[114.8759,40.8008],[114.8668,40.7677],[114.849,40.7476],[114.8544,40.7366],[114.8737,40.7267],[114.8937,40.7205],[114.9097,40.7195],[114.9122,40.7135],[114.9401,40.696],[114.9487,40.6965],[114.9659,40.6869],[114.9982,40.6773],[115.0142,40.6617],[115.0404,40.67],[115.0685,40.6821],[115.077,40.6759],[115.081,40.7108],[115.1136,40.7104],[115.1335,40.7184],[115.1361,40.7337],[115.1427,40.7417],[115.1643,40.7407],[115.1812,40.72],[115.2252,40.7069],[115.2486,40.6972],[115.2574,40.7004],[115.2536,40.7239],[115.248,40.7327],[115.2544,40.7408],[115.2456,40.7489],[115.2561,40.7632],[115.2528,40.7962],[115.238,40.7969],[115.2295,40.7912],[115.2018,40.7939],[115.1828,40.7984],[115.1592,40.7961],[115.1402,40.8094],[115.1161,40.8174],[115.1095,40.8285],[115.0973,40.8309],[115.0872,40.8206],[115.0726,40.8147],[115.0445,40.8096],[115.0305,40.8105],[115.0044,40.8243],[114.9689,40.8127],[114.9346,40.8286],[114.9227,40.8368]]]},"properties":{"region_code":"CN-13-1307-130702","parent_region_code":"CN-13-1307","name":"桥东区","level":"county","has_children":false,"full_path":"中国 / 河北省 / 张家口市 / 桥东区","source_admin_code":"130702","osm_relation_id":5659832}},
{"type":"Feature","geometry":{"type":"Polygon","coordinates":[[[114.9227,40.8368],[114.9278,40.8518],[114.9048,40.8616],[114.896,40.8724],[114.8737,40.8874],[114.8763,40.8966],[114.867,40.91],[114.8335,40.9141],[114.8229,40.9266],[114.8066,40.9534],[114.8076,40.9608],[114.8002,40.9641],[114.7836,40.9389],[114.7903,40.9298],[114.7905,40.9009],[114.7836,40.8897],[114.796,40.8785],[114.7704,40.8732],[114.7579,40.8753],[114.7635,40.8576],[114.771,40.8509],[114.8055,40.8502],[114.8117,40.8379],[114.8206,40.8352],[114.8354,40.8023],[114.8306,40.7872],[114.8151,40.7768],[114.8238,40.7629],[114.8197,40.7555],[114.8047,40.7524],[114.7987,40.7352],[114.8002,40.7154],[114.7906,40.7135],[114.7851,40.7004],[114.8104,40.6902],[114.8344,40.6741],[114.8436,40.6638],[114.8806,40.654],[114.9009,40.6508],[114.9255,40.6433],[114.9342,40.651],[114.9325,40.6611],[114.9389,40.673],[114.9583,40.6704],[114.9659,40.6869],[114.9487,40.6965],[114.9401,40.696],[114.9122,40.7135],[114.9097,40.7195],[114.8937,40.7205],[114.8737,40.7267],[114.8544,40.7366],[114.849,40.7476],[114.8668,40.7677],[114.8759,40.8008],[114.8747,40.8116],[114.8892,40.8299],[114.8901,40.8443],[114.9045,40.8404],[114.9124,40.8332],[114.9227,40.8368]]]},"properties":{"region_code":"CN-13-1307-130703","parent_region_code":"CN-13-1307","name":"桥西区","level":"county","has_children":false,"full_path":"中国 / 河北省 / 张家口市 / 桥西区","source_admin_code":"130703","osm_relation_id":3295553}},
{"type":"Feature","geometry":{"type":"Polygon","coordinates":[[[114.9659,40.6869],[114.9583,40.6704],[114.9389,40.673],[114.9325,40.6611],[114.9342,40.651],[114.9255,40.6433],[114.9009,40.6508],[114.8806,40.654],[114.8436,40.6638],[114.8344,40.6741],[114.8104,40.6902],[114.7851,40.7004],[114.776,40.7044],[114.7615,40.687],[114.7622,40.6814],[114.7797,40.6714],[114.7866,40.6603],[114.776,40.6559],[114.7763,40.6481],[114.7663,40.6414],[114.79,40.6076],[114.7842,40.5967],[114.7879,40.5783],[114.7795,40.5626],[114.7824,40.5459],[114.7769,40.5417],[114.7793,40.5255],[114.7892,40.5268],[114.8129,40.5115],[114.7978,40.498],[114.7722,40.4966],[114.7447,40.492],[114.7542,40.4812],[114.7529,40.4678],[114.7386,40.4626],[114.7396,40.4503],[114.7234,40.4446],[114.7091,40.4269],[114.6956,40.4246],[114.6994,40.4093],[114.7126,40.3982],[114.7054,40.3881],[114.7111,40.3809],[114.6975,40.3712],[114.7249,40.3658],[114.7362,40.3562],[114.744,40.3579],[114.7718,40.3371],[114.776,40.3251],[114.7715,40.3108],[114.7735,40.2953],[114.7799,40.2901],[114.7815,40.2745],[114.7996,40.2514],[114.7933,40.2434],[114.7915,40.2178],[114.806,40.1897],[114.8024,40.1706],[114.7964,40.1659],[114.8146,40.1539],[114.826,40.1623],[114.8411,40.1626],[114.8468,40.1716],[114.8687,40.1817],[114.8721,40.1874],[114.8936,40.1838],[114.9082,40.1728],[114.9004,40.1623],[114.9186,40.1595],[114.925,40.1696],[114.9367,40.1663],[114.9683,40.1727],[114.9556,40.1942],[114.9623,40.2088],[114.9388,40.2274],[114.9253,40.2503],[114.9381,40.2587],[114.9615,40.2665],[114.9523,40.2726],[114.9641,40.2819],[114.9638,40.2883],[114.9791,40.2966],[114.9774,40.3123],[114.9606,40.3129],[114.9498,40.3173],[114.9445,40.3364],[114.9569,40.3459],[114.9623,40.3569],[114.995,40.3519],[114.998,40.3574],[115.0169,40.3501],[115.0382,40.3616],[115.0372,40.3794],[115.0585,40.3887],[115.0629,40.3999],[115.078,40.3872],[115.0975,40.3773],[115.1064,40.3921],[115.1176,40.4236],[115.1284,40.4322],[115.126,40.4472],[115.1471,40.4527],[115.1524,40.4665],[115.1648,40.4739],[115.1746,40.4908],[115.1726,40.5041],[115.1412,40.5005],[115.1268,40.5065],[115.1273,40.5166],[115.1447,40.5118],[115.1496,40.5201],[115.1607,40.5237],[115.1678,40.5346],[115.1668,40.5462],[115.1779,40.5468],[115.2064,40.5615],[115.2093,40.5769],[115.2233,40.5896],[115.2355,40.5948],[115.2611,40.5942],[115.284,40.6153],[115.3251,40.6292],[115.3378,40.6292],[115.3541,40.6229],[115.3689,40.6056],[115.3954,40.605],[115.405,40.5983],[115.4193,40.6008],[115.4385,40.566],[115.4597,40.5792],[115.4894,40.5625],[115.5034,40.5651],[115.5087,40.578],[115.5006,40.599],[115.4868,40.6067],[115.5074,40.6426],[115.5186,40.6484],[115.5132,40.6581],[115.5204,40.6632],[115.5053,40.6799],[115.4937,40.6825],[115.4931,40.6942],[115.4829,40.705],[115.4898,40.7289],[115.4797,40.7356],[115.4544,40.7448],[115.4404,40.7554],[115.4414,40.7662],[115.4512,40.7782],[115.4446,40.7912],[115.428,40.7916],[115.4213,40.7932],[115.3986,40.7834],[115.3722,40.7756],[115.3554,40.7866],[115.3332,40.7947],[115.3192,40.7912],[115.3061,40.7938],[115.2925,40.8027],[115.2708,40.8085],[115.2528,40.7962],[115.2561,40.7632],[115.2456,40.7489],[115.2544,40.7408],[115.248,40.7327],[115.2536,40.7239],[115.2574,40.7004],[115.2486,40.6972],[115.2252,40.7069],[115.1812,40.72],[115.1643,40.7407],[115.1427,40.7417],[115.1361,40.7337],[115.1335,40.7184],[115.1136,40.7104],[115.081,40.7108],[115.077,40.6759],[115.0685,40.6821],[115.0404,40.67],[115.0142,40.6617],[114.9982,40.6773],[114.9659,40.6869]]]},"properties":{"region_code":"CN-13-1307-130705","parent_region_code":"CN-13-1307","name":"宣化区","level":"county","has_children":false,"full_path":"中国 / 河北省 / 张家口市 / 宣化区","source_admin_code":"130705","osm_relation_id":5659835}},
{"type":"Feature","geometry":{"type":"Polygon","coordinates":[[[115.1648,40.4739],[115.1751,40.4742],[115.1909,40.4878],[115.2125,40.4909],[115.2014,40.4697],[115.21,40.4684],[115.2173,40.4474],[115.2349,40.4409],[115.2524,40.4504],[115.2845,40.4497],[115.2785,40.4656],[115.3079,40.4701],[115.3251,40.4886],[115.3248,40.4978],[115.3368,40.5079],[115.3393,40.5165],[115.3584,40.5075],[115.3789,40.5058],[115.3965,40.498],[115.4142,40.4983],[115.416,40.5109],[115.4394,40.5239],[115.4588,40.5292],[115.4894,40.5625],[115.4597,40.5792],[115.4385,40.566],[115.4193,40.6008],[115.405,40.5983],[115.3954,40.605],[115.3689,40.6056],[115.3541,40.6229],[115.3378,40.6292],[115.3251,40.6292],[115.284,40.6153],[115.2611,40.5942],[115.2355,40.5948],[115.2233,40.5896],[115.2093,40.5769],[115.2064,40.5615],[115.1779,40.5468],[115.1668,40.5462],[115.1678,40.5346],[115.1607,40.5237],[115.1496,40.5201],[115.1447,40.5118],[115.1273,40.5166],[115.1268,40.5065],[115.1412,40.5005],[115.1726,40.5041],[115.1746,40.4908],[115.1648,40.4739]]]},"properties":{"region_code":"CN-13-1307-130706","parent_region_code":"CN-13-1307","name":"下花园区","level":"county","has_children":false,"full_path":"中国 / 河北省 / 张家口市 / 下花园区","source_admin_code":"130706","osm_relation_id":5659833}},
{"type":"Feature","geometry":{"type":"Polygon","coordinates":[[[114.8002,40.9641],[114.7991,40.9813],[114.7856,40.9963],[114.7658,41.0054],[114.7439,41.0089],[114.7353,41.0137],[114.7211,41.0117],[114.6654,41.0204],[114.6189,41.0002],[114.5838,40.9936],[114.5668,40.996],[114.5466,40.9931],[114.5275,40.9971],[114.5235,40.9824],[114.5059,40.9767],[114.4749,40.9515],[114.4418,40.9493],[114.4247,40.9284],[114.4224,40.9149],[114.4082,40.8883],[114.383,40.8681],[114.3671,40.8579],[114.3619,40.8416],[114.3656,40.8215],[114.3781,40.8079],[114.3833,40.7838],[114.3716,40.7664],[114.373,40.7469],[114.3466,40.7327],[114.3562,40.7124],[114.4078,40.7022],[114.4428,40.6992],[114.4612,40.6946],[114.4875,40.6798],[114.5046,40.6736],[114.5407,40.675],[114.5691,40.683],[114.5899,40.6822],[114.6628,40.6979],[114.7069,40.718],[114.7217,40.7205],[114.7496,40.7184],[114.776,40.7044],[114.7851,40.7004],[114.7906,40.7135],[114.8002,40.7154],[114.7987,40.7352],[114.8047,40.7524],[114.8197,40.7555],[114.8238,40.7629],[114.8151,40.7768],[114.8306,40.7872],[114.8354,40.8023],[114.8206,40.8352],[114.8117,40.8379],[114.8055,40.8502],[114.771,40.8509],[114.7635,40.8576],[114.7579,40.8753],[114.7704,40.8732],[114.796,40.8785],[114.7836,40.8897],[114.7905,40.9009],[114.7903,40.9298],[114.7836,40.9389],[114.8002,40.9641]]]},"properties":{"region_code":"CN-13-1307-130708","parent_region_code":"CN-13-1307","name":"万全区","level":"county","has_children":false,"full_path":"中国 / 河北省 / 张家口市 / 万全区","source_admin_code":"130708","osm_relation_id":3295554}},
{"type":"Feature","geometry":{"type":"Polygon","coordinates":[[[115.2528,40.7962],[115.2708,40.8085],[115.2925,40.8027],[115.3061,40.7938],[115.3192,40.7912],[115.3332,40.7947],[115.3554,40.7866],[115.3722,40.7756],[115.3986,40.7834],[115.4213,40.7932],[115.428,40.7916],[115.4315,40.7978],[115.4229,40.8068],[115.4255,40.8212],[115.4374,40.8341],[115.4367,40.8506],[115.43,40.8564],[115.4368,40.8683],[115.4582,40.8769],[115.4778,40.8907],[115.4925,40.891],[115.4958,40.9013],[115.508,40.9105],[115.512,40.9254],[115.5056,40.9356],[115.5136,40.9477],[115.5094,40.9557],[115.4917,40.966],[115.4774,40.962],[115.4744,40.9759],[115.4853,41.0097],[115.4859,41.0287],[115.5013,41.0632],[115.4905,41.0903],[115.5209,41.1422],[115.5189,41.1525],[115.5089,41.1611],[115.5021,41.1857],[115.4847,41.2173],[115.5099,41.2411],[115.5425,41.2469],[115.5512,41.2441],[115.5677,41.2495],[115.5676,41.2582],[115.552,41.2616],[115.5412,41.2729],[115.5434,41.2873],[115.5159,41.2788],[115.4915,41.2923],[115.4873,41.2869],[115.4722,41.2898],[115.4633,41.2849],[115.4622,41.2718],[115.453,41.2701],[115.4427,41.2627],[115.4397,41.2524],[115.4117,41.2418],[115.3768,41.2422],[115.3539,41.2297],[115.3336,41.2322],[115.3334,41.2439],[115.3225,41.254],[115.3098,41.2547],[115.3028,41.2488],[115.2791,41.2436],[115.2524,41.245],[115.2284,41.2492],[115.1771,41.2315],[115.1653,41.2342],[115.1395,41.258],[115.1223,41.2608],[115.1083,41.2471],[115.0894,41.2439],[115.0673,41.2508],[115.0256,41.2126],[115.0187,41.2033],[115.0314,41.1962],[115.0475,41.1996],[115.059,41.1971],[115.0632,41.1889],[115.0514,41.1788],[115.0286,41.1462],[115.0076,41.1352],[114.9834,41.1295],[114.9686,41.1096],[114.9574,41.1029],[114.9549,41.0921],[114.9657,41.079],[114.9501,41.0694],[114.9425,41.0534],[114.9271,41.0351],[114.9099,41.0473],[114.8913,41.0384],[114.8659,41.0438],[114.8419,41.0368],[114.8099,41.0318],[114.7991,41.026],[114.7964,41.0039],[114.804,40.9914],[114.8232,40.9851],[114.8396,40.9735],[114.8168,40.9681],[114.8076,40.9608],[114.8066,40.9534],[114.8229,40.9266],[114.8335,40.9141],[114.867,40.91],[114.8763,40.8966],[114.8737,40.8874],[114.896,40.8724],[114.9048,40.8616],[114.9278,40.8518],[114.9227,40.8368],[114.9346,40.8286],[114.9689,40.8127],[115.0044,40.8243],[115.0305,40.8105],[115.0445,40.8096],[115.0726,40.8147],[115.0872,40.8206],[115.0973,40.8309],[115.1095,40.8285],[115.1161,40.8174],[115.1402,40.8094],[115.1592,40.7961],[115.1828,40.7984],[115.2018,40.7939],[115.2295,40.7912],[115.238,40.7969],[115.2528,40.7962]]]},"properties":{"region_code":"CN-13-1307-130709","parent_region_code":"CN-13-1307","name":"崇礼区","level":"county","has_children":false,"full_path":"中国 / 河北省 / 张家口市 / 崇礼区","source_admin_code":"130709","osm_relation_id":5658710}},
{"type":"Feature","geometry":{"type":"Polygon","coordinates":[[[114.8076,40.9608],[114.8168,40.9681],[114.8396,40.9735],[114.8232,40.9851],[114.804,40.9914],[114.7964,41.0039],[114.7991,41.026],[114.8099,41.0318],[114.8419,41.0368],[114.8659,41.0438],[114.8913,41.0384],[114.9099,41.0473],[114.9271,41.0351],[114.9425,41.0534],[114.9501,41.0694],[114.9657,41.079],[114.9549,41.0921],[114.9574,41.1029],[114.9686,41.1096],[114.9834,41.1295],[115.0076,41.1352],[115.0286,41.1462],[115.0514,41.1788],[115.0632,41.1889],[115.059,41.1971],[115.0475,41.1996],[115.0314,41.1962],[115.0187,41.2033],[115.0256,41.2126],[115.0673,41.2508],[115.0894,41.2439],[115.1083,41.2471],[115.1223,41.2608],[115.1395,41.258],[115.1653,41.2342],[115.1771,41.2315],[115.2284,41.2492],[115.2524,41.245],[115.2791,41.2436],[115.3028,41.2488],[115.3098,41.2547],[115.3225,41.254],[115.3334,41.2439],[115.3336,41.2322],[115.3539,41.2297],[115.3768,41.2422],[115.4117,41.2418],[115.4397,41.2524],[115.4427,41.2627],[115.453,41.2701],[115.4442,41.2863],[115.4535,41.2934],[115.4433,41.326],[115.4393,41.3543],[115.4351,41.3607],[115.4181,41.3695],[115.4052,41.3828],[115.3973,41.3965],[115.3777,41.4128],[115.3598,41.4157],[115.3434,41.4243],[115.3236,41.4278],[115.3091,41.4374],[115.2925,41.4635],[115.2743,41.4739],[115.2591,41.4897],[115.2013,41.4989],[115.1809,41.5069],[115.148,41.5061],[115.1346,41.5022],[115.0813,41.5055],[115.0569,41.5242],[115.0289,41.5299],[115.0027,41.5256],[114.9877,41.5203],[114.974,41.5107],[114.9579,41.5149],[114.942,41.5288],[114.9262,41.5185],[114.9302,41.5053],[114.9454,41.5046],[114.9618,41.4941],[114.9423,41.4856],[114.907,41.4924],[114.882,41.4917],[114.8713,41.5102],[114.8439,41.517],[114.818,41.4923],[114.7977,41.48],[114.6987,41.469],[114.65,41.46],[114.5956,41.4431],[114.5439,41.4406],[114.5318,41.4262],[114.4997,41.4425],[114.496,41.4592],[114.4834,41.4778],[114.4519,41.4944],[114.4445,41.5014],[114.43,41.5244],[114.4168,41.5298],[114.3918,41.5544],[114.3619,41.574],[114.3374,41.5625],[114.3351,41.554],[114.3003,41.531],[114.2677,41.5311],[114.2668,41.5259],[114.2472,41.5205],[114.2421,41.5066],[114.2215,41.5128],[114.2072,41.5093],[114.1844,41.4862],[114.1953,41.4777],[114.1911,41.467],[114.1939,41.4562],[114.2172,41.4447],[114.2036,41.4313],[114.2153,41.4262],[114.2221,41.416],[114.2203,41.3995],[114.2134,41.394],[114.22,41.3837],[114.2447,41.3731],[114.2542,41.3516],[114.266,41.3474],[114.3028,41.3188],[114.3112,41.2949],[114.304,41.28],[114.2724,41.2551],[114.2736,41.2217],[114.2834,41.2113],[114.2937,41.1913],[114.3108,41.1749],[114.3528,41.1521],[114.3666,41.1387],[114.3676,41.1207],[114.3623,41.1096],[114.3679,41.0919],[114.352,41.0747],[114.3489,41.052],[114.3522,41.0157],[114.3611,41.0044],[114.3768,40.9974],[114.3968,40.995],[114.4139,40.9777],[114.44,40.9559],[114.4418,40.9493],[114.4749,40.9515],[114.5059,40.9767],[114.5235,40.9824],[114.5275,40.9971],[114.5466,40.9931],[114.5668,40.996],[114.5838,40.9936],[114.6189,41.0002],[114.6654,41.0204],[114.7211,41.0117],[114.7353,41.0137],[114.7439,41.0089],[114.7658,41.0054],[114.7856,40.9963],[114.7991,40.9813],[114.8002,40.9641],[114.8076,40.9608]]]},"properties":{"region_code":"CN-13-1307-130722","parent_region_code":"CN-13-1307","name":"张北县","level":"county","has_children":false,"full_path":"中国 / 河北省 / 张家口市 / 张北县","source_admin_code":"130722","osm_relation_id":2990910}},
{"type":"Feature","geometry":{"type":"Polygon","coordinates":[[[114.8439,41.517],[114.846,41.539],[114.8564,41.5545],[114.8627,41.5851],[114.8611,41.5976],[114.8559,41.6021],[114.8894,41.6345],[114.8967,41.6875],[114.8936,41.7544],[114.8834,41.7757],[114.8695,41.7907],[114.8621,41.8114],[114.8812,41.8088],[114.914,41.8219],[114.9337,41.8451],[114.9158,41.8748],[114.9146,41.8949],[114.9301,41.9024],[114.9105,41.9098],[114.9143,41.9225],[114.9099,41.9353],[114.9274,41.9357],[114.9091,41.9575],[114.9106,41.9804],[114.9027,42.0022],[114.8951,42.0135],[114.8846,42.0112],[114.8791,42.0197],[114.8833,42.0292],[114.8776,42.0383],[114.8675,42.0409],[114.8556,42.0523],[114.8506,42.108],[114.8411,42.1116],[114.8348,42.1232],[114.8192,42.1378],[114.8189,42.1467],[114.7875,42.1472],[114.7832,42.1295],[114.7494,42.113],[114.7048,42.1126],[114.7013,42.1191],[114.6691,42.1185],[114.641,42.1067],[114.6238,42.1091],[114.5838,42.1273],[114.565,42.1319],[114.5052,42.1077],[114.505,42.1001],[114.4946,42.0833],[114.4996,42.0765],[114.4955,42.064],[114.4854,42.0565],[114.4742,42.0614],[114.4682,42.0446],[114.4597,42.0359],[114.463,42.0231],[114.4783,42.0138],[114.4754,42.0061],[114.4824,41.9956],[114.4959,41.989],[114.505,41.9787],[114.5048,41.9707],[114.4849,41.9657],[114.4706,41.9521],[114.4259,41.9436],[114.4153,41.9399],[114.3839,41.952],[114.3673,41.9538],[114.3568,41.9456],[114.3462,41.9512],[114.3439,41.9273],[114.3205,41.927],[114.3237,41.9147],[114.3167,41.9091],[114.2787,41.8642],[114.2366,41.8308],[114.2051,41.7976],[114.1943,41.7893],[114.1931,41.7776],[114.2017,41.7689],[114.1989,41.7565],[114.2086,41.7543],[114.2001,41.7363],[114.2289,41.7073],[114.2309,41.6971],[114.2211,41.6948],[114.2081,41.684],[114.2321,41.65],[114.2489,41.6227],[114.2203,41.6193],[114.2225,41.6046],[114.2299,41.5901],[114.2136,41.5749],[114.2148,41.5597],[114.2232,41.5395],[114.2215,41.5128],[114.2421,41.5066],[114.2472,41.5205],[114.2668,41.5259],[114.2677,41.5311],[114.3003,41.531],[114.3351,41.554],[114.3374,41.5625],[114.3619,41.574],[114.3918,41.5544],[114.4168,41.5298],[114.43,41.5244],[114.4445,41.5014],[114.4519,41.4944],[114.4834,41.4778],[114.496,41.4592],[114.4997,41.4425],[114.5318,41.4262],[114.5439,41.4406],[114.5956,41.4431],[114.65,41.46],[114.6987,41.469],[114.7977,41.48],[114.818,41.4923],[114.8439,41.517]]]},"properties":{"region_code":"CN-13-1307-130723","parent_region_code":"CN-13-1307","name":"康保县","level":"county","has_children":false,"full_path":"中国 / 河北省 / 张家口市 / 康保县","source_admin_code":"130723","osm_relation_id":2990909}},
{"type":"Feature","geometry":{"type":"Polygon","coordinates":[[[115.5676,41.2582],[115.5784,41.2641],[115.5891,41.283],[115.6031,41.2976],[115.6214,41.3094],[115.6359,41.3146],[115.6538,41.3164],[115.6701,41.3248],[115.6795,41.3459],[115.6951,41.3587],[115.7095,41.358],[115.7194,41.3694],[115.7449,41.3662],[115.7506,41.3566],[115.7802,41.3312],[115.7929,41.3265],[115.7982,41.3069],[115.8134,41.2931],[115.8199,41.2756],[115.8411,41.2778],[115.8594,41.2737],[115.8816,41.2571],[115.8864,41.242],[115.8955,41.2337],[115.9135,41.2333],[115.9222,41.2409],[115.9451,41.2369],[115.9559,41.2486],[115.9515,41.2593],[115.9601,41.2792],[115.9595,41.2937],[115.9636,41.3059],[115.9851,41.3011],[116.0126,41.3262],[116.0104,41.3356],[116.0186,41.3456],[116.0257,41.3654],[116.0218,41.374],[116.0415,41.3883],[116.0246,41.4048],[116.0288,41.4191],[116.0039,41.4291],[116.0071,41.4406],[115.9901,41.4442],[115.9981,41.4616],[115.9773,41.4693],[115.9832,41.4809],[115.9752,41.4969],[115.9779,41.509],[115.9666,41.5423],[115.9283,41.5643],[115.918,41.567],[115.9233,41.579],[115.9235,41.5942],[115.9039,41.6415],[115.9301,41.6544],[115.9502,41.6698],[115.9666,41.6781],[116.008,41.7133],[116.0287,41.72],[116.0498,41.7315],[116.0778,41.7794],[116.0279,41.7805],[116.0101,41.7754],[116.0072,41.7878],[115.995,41.802],[115.9964,41.8257],[115.9559,41.8703],[115.9309,41.9075],[115.9188,41.9401],[115.9098,41.9433],[115.8902,41.9404],[115.8569,41.9258],[115.8425,41.9274],[115.8271,41.9365],[115.81,41.9274],[115.805,41.911],[115.7885,41.9087],[115.7827,41.9006],[115.7525,41.8848],[115.7259,41.8923],[115.7236,41.8694],[115.7123,41.8677],[115.6482,41.8333],[115.645,41.8265],[115.6147,41.8164],[115.6107,41.8123],[115.5279,41.7703],[115.4339,41.7406],[115.413,41.7299],[115.341,41.7115],[115.3083,41.702],[115.3097,41.6921],[115.324,41.6821],[115.3302,41.6729],[115.3488,41.67],[115.3542,41.6591],[115.3388,41.6334],[115.3583,41.6101],[115.3708,41.6002],[115.3593,41.5939],[115.303,41.5916],[115.2909,41.6122],[115.2753,41.6194],[115.2567,41.6135],[115.2599,41.5908],[115.2507,41.5789],[115.1976,41.5693],[115.1992,41.5978],[115.1918,41.6022],[115.145,41.6008],[115.1417,41.6142],[115.1075,41.6132],[115.0922,41.6217],[115.0808,41.6206],[115.0625,41.6002],[115.0477,41.5957],[115.0159,41.6116],[114.9798,41.6065],[114.963,41.6125],[114.9327,41.6112],[114.9251,41.6082],[114.8754,41.6053],[114.8611,41.5976],[114.8627,41.5851],[114.8564,41.5545],[114.846,41.539],[114.8439,41.517],[114.8713,41.5102],[114.882,41.4917],[114.907,41.4924],[114.9423,41.4856],[114.9618,41.4941],[114.9454,41.5046],[114.9302,41.5053],[114.9262,41.5185],[114.942,41.5288],[114.9579,41.5149],[114.974,41.5107],[114.9877,41.5203],[115.0027,41.5256],[115.0289,41.5299],[115.0569,41.5242],[115.0813,41.5055],[115.1346,41.5022],[115.148,41.5061],[115.1809,41.5069],[115.2013,41.4989],[115.2591,41.4897],[115.2743,41.4739],[115.2925,41.4635],[115.3091,41.4374],[115.3236,41.4278],[115.3434,41.4243],[115.3598,41.4157],[115.3777,41.4128],[115.3973,41.3965],[115.4052,41.3828],[115.4181,41.3695],[115.4351,41.3607],[115.4393,41.3543],[115.4433,41.326],[115.4535,41.2934],[115.4442,41.2863],[115.453,41.2701],[115.4622,41.2718],[115.4633,41.2849],[115.4722,41.2898],[115.4873,41.2869],[115.4915,41.2923],[115.5159,41.2788],[115.5434,41.2873],[115.5412,41.2729],[115.552,41.2616],[115.5676,41.2582]]]},"properties":{"region_code":"CN-13-1307-130724","parent_region_code":"CN-13-1307","name":"沽源县","level":"county","has_children":false,"full_path":"中国 / 河北省 / 张家口市 / 沽源县","source_admin_code":"130724","osm_relation_id":2990672}},
{"type":"Feature","geometry":{"type":"Polygon","coordinates":[[[114.4418,40.9493],[114.44,40.9559],[114.4139,40.9777],[114.3968,40.995],[114.3768,40.9974],[114.3611,41.0044],[114.3522,41.0157],[114.3489,41.052],[114.352,41.0747],[114.3679,41.0919],[114.3623,41.1096],[114.3676,41.1207],[114.3666,41.1387],[114.3528,41.1521],[114.3108,41.1749],[114.2937,41.1913],[114.2834,41.2113],[114.2736,41.2217],[114.2724,41.2551],[114.304,41.28],[114.3112,41.2949],[114.3028,41.3188],[114.266,41.3474],[114.2542,41.3516],[114.2447,41.3731],[114.22,41.3837],[114.2134,41.394],[114.2203,41.3995],[114.2221,41.416],[114.2153,41.4262],[114.2036,41.4313],[114.2172,41.4447],[114.1939,41.4562],[114.1911,41.467],[114.1953,41.4777],[114.1844,41.4862],[114.2072,41.5093],[114.1984,41.5157],[114.0953,41.5357],[114.0773,41.5274],[114.0616,41.5296],[114.0525,41.5246],[114.0331,41.5308],[114.0082,41.5175],[113.9712,41.5053],[113.9685,41.4975],[113.9478,41.4825],[113.9238,41.4833],[113.9149,41.4565],[113.9029,41.4448],[113.8785,41.4367],[113.8694,41.4271],[113.8645,41.4107],[113.9122,41.4017],[113.9376,41.3893],[113.9271,41.3753],[113.9314,41.3556],[113.9184,41.3437],[113.9203,41.3247],[113.893,41.314],[113.908,41.2927],[113.9292,41.2931],[113.9446,41.2812],[113.9463,41.2526],[113.971,41.2526],[113.9699,41.2646],[113.9862,41.2662],[113.9886,41.2572],[114.0002,41.2492],[114.0057,41.2314],[113.9995,41.2173],[113.9949,41.1828],[113.977,41.1812],[113.9497,41.1707],[113.9321,41.1751],[113.9069,41.1691],[113.896,41.1399],[113.8776,41.1323],[113.8763,41.1204],[113.8674,41.109],[113.8415,41.1061],[113.8331,41.1078],[113.8182,41.0989],[113.8231,41.0868],[113.8322,41.0783],[113.8459,41.0736],[113.8562,41.0772],[113.8661,41.0625],[113.9016,41.0359],[113.9137,41.0319],[113.9122,41.0242],[113.921,41.0131],[113.9506,41.0032],[113.9557,40.9901],[113.9689,40.9936],[113.9754,40.9811],[113.9726,40.9462],[113.9893,40.9364],[114.0332,40.9299],[114.0354,40.9026],[114.0454,40.8917],[114.0465,40.8629],[114.0693,40.8531],[114.0502,40.8414],[114.038,40.8295],[114.0478,40.8243],[114.054,40.8086],[114.0741,40.7888],[114.0943,40.7958],[114.099,40.7788],[114.094,40.7678],[114.0981,40.7571],[114.1266,40.745],[114.1387,40.7332],[114.147,40.752],[114.1701,40.761],[114.1998,40.7675],[114.2211,40.7519],[114.2539,40.7551],[114.2715,40.7509],[114.2887,40.7427],[114.3003,40.7469],[114.3133,40.7403],[114.3171,40.7327],[114.3366,40.7378],[114.3466,40.7327],[114.373,40.7469],[114.3716,40.7664],[114.3833,40.7838],[114.3781,40.8079],[114.3656,40.8215],[114.3619,40.8416],[114.3671,40.8579],[114.383,40.8681],[114.4082,40.8883],[114.4224,40.9149],[114.4247,40.9284],[114.4418,40.9493]]]},"properties":{"region_code":"CN-13-1307-130725","parent_region_code":"CN-13-1307","name":"尚义县","level":"county","has_children":false,"full_path":"中国 / 河北省 / 张家口市 / 尚义县","source_admin_code":"130725","osm_relation_id":2990718}},
{"type":"Feature","geometry":{"type":"Polygon","coordinates":[[[114.7964,40.1659],[114.7899,40.1661],[114.7736,40.1785],[114.7769,40.1824],[114.7671,40.1977],[114.7476,40.1911],[114.7172,40.1919],[114.6945,40.1948],[114.6865,40.1827],[114.6708,40.1785],[114.6549,40.1829],[114.6459,40.1739],[114.6551,40.1686],[114.6593,40.1532],[114.6749,40.1484],[114.6698,40.1401],[114.6692,40.117],[114.6613,40.1076],[114.6456,40.0986],[114.6099,40.0929],[114.5789,40.1024],[114.5683,40.103],[114.5547,40.0842],[114.5549,40.0691],[114.5621,40.0481],[114.5432,40.0362],[114.516,40.0342],[114.4995,40.0238],[114.4874,40.0234],[114.4893,40.0116],[114.4773,39.9984],[114.4617,39.988],[114.4305,39.994],[114.3998,39.9921],[114.4019,40.007],[114.3977,40.0148],[114.3793,40.0135],[114.3679,40.0012],[114.3457,39.9927],[114.3477,39.9856],[114.3306,39.9776],[114.3329,39.9607],[114.3228,39.9486],[114.3025,39.9482],[114.28,39.9397],[114.2705,39.9406],[114.2508,39.933],[114.2341,39.9348],[114.2411,39.946],[114.2396,39.958],[114.2277,39.9651],[114.2149,39.9571],[114.2012,39.9541],[114.192,39.9431],[114.2069,39.9338],[114.2053,39.9178],[114.2203,39.9064],[114.2213,39.8947],[114.198,39.884],[114.1952,39.8715],[114.2093,39.8609],[114.2391,39.8607],[114.2704,39.8733],[114.2804,39.8699],[114.2826,39.857],[114.2958,39.8612],[114.3101,39.8589],[114.323,39.8641],[114.3427,39.8611],[114.376,39.8682],[114.389,39.8659],[114.3918,39.8411],[114.4002,39.8321],[114.3838,39.8179],[114.3909,39.81],[114.3919,39.799],[114.4089,39.7693],[114.4021,39.7678],[114.408,39.7484],[114.4015,39.7454],[114.4017,39.7114],[114.3932,39.6582],[114.3981,39.6428],[114.4072,39.6392],[114.4204,39.6211],[114.4176,39.6147],[114.4308,39.6054],[114.4549,39.6113],[114.4855,39.6013],[114.4956,39.6026],[114.4984,39.5892],[114.5092,39.5639],[114.5526,39.5812],[114.5708,39.576],[114.5792,39.5843],[114.5918,39.5773],[114.5987,39.5659],[114.6121,39.564],[114.6255,39.5512],[114.6396,39.5796],[114.6378,39.5898],[114.6509,39.5986],[114.6528,39.5858],[114.6907,39.5884],[114.7008,39.5871],[114.7067,39.5991],[114.7039,39.6168],[114.7113,39.6194],[114.7254,39.6102],[114.7407,39.6108],[114.7464,39.6158],[114.7905,39.5974],[114.8031,39.6087],[114.8157,39.6077],[114.8262,39.5995],[114.826,39.5916],[114.8396,39.5859],[114.8459,39.6003],[114.86,39.6017],[114.8644,39.6123],[114.8776,39.6215],[114.8757,39.6303],[114.8899,39.6397],[114.906,39.6402],[114.9111,39.648],[114.9273,39.6585],[114.9289,39.6716],[114.9524,39.66],[114.9677,39.6714],[114.9817,39.6747],[115.0064,39.6749],[115.013,39.6832],[115.0099,39.7048],[115.0019,39.7093],[115.0011,39.728],[115.0052,39.7406],[114.9994,39.7475],[115.0188,39.7667],[115.0128,39.775],[115.028,39.7984],[115.0107,39.8108],[115.0091,39.8403],[115.0003,39.8519],[115.0101,39.867],[115.032,39.8756],[115.0188,39.9088],[115.0344,39.9265],[115.0368,39.9379],[115.0557,39.9429],[115.065,39.9521],[115.056,39.9625],[115.0588,39.9731],[115.056,39.9874],[115.0285,40.0315],[115.0291,40.0431],[115.0175,40.0578],[115.0157,40.0753],[114.9947,40.1067],[115.0108,40.1337],[114.9933,40.1444],[114.9888,40.1521],[114.9663,40.1611],[114.9683,40.1727],[114.9367,40.1663],[114.925,40.1696],[114.9186,40.1595],[114.9004,40.1623],[114.9082,40.1728],[114.8936,40.1838],[114.8721,40.1874],[114.8687,40.1817],[114.8468,40.1716],[114.8411,40.1626],[114.826,40.1623],[114.8146,40.1539],[114.7964,40.1659]]]},"properties":{"region_code":"CN-13-1307-130726","parent_region_code":"CN-13-1307","name":"蔚县","level":"county","has_children":false,"full_path":"中国 / 河北省 / 张家口市 / 蔚县","source_admin_code":"130726","osm_relation_id":3295570}},
{"type":"Feature","geometry":{"type":"Polygon","coordinates":[[[114.6975,40.3712],[114.6787,40.3699],[114.6693,40.3739],[114.6513,40.3711],[114.6187,40.357],[114.6065,40.3647],[114.5962,40.3551],[114.5794,40.3557],[114.5257,40.3421],[114.5201,40.3157],[114.5016,40.2963],[114.4892,40.2914],[114.4923,40.2846],[114.485,40.2726],[114.4517,40.2571],[114.4088,40.2425],[114.3808,40.238],[114.3516,40.248],[114.3336,40.2435],[114.3204,40.2357],[114.3062,40.2361],[114.3018,40.2257],[114.2873,40.2298],[114.2781,40.2237],[114.2581,40.2265],[114.2538,40.2353],[114.2365,40.2172],[114.2212,40.2107],[114.2298,40.1979],[114.2092,40.1884],[114.1863,40.1913],[114.1562,40.1855],[114.145,40.1759],[114.1278,40.1741],[114.1162,40.1771],[114.1167,40.187],[114.091,40.1922],[114.081,40.1862],[114.0603,40.1807],[114.0746,40.1448],[114.0823,40.1201],[114.0944,40.1074],[114.0949,40.0985],[114.0848,40.0844],[114.0846,40.0748],[114.0738,40.0686],[114.0533,40.066],[114.0371,40.0556],[114.0284,40.0638],[114.0281,40.0794],[114.0136,40.101],[113.9829,40.1112],[113.9719,40.1095],[113.9673,40.096],[113.9717,40.0908],[113.9745,40.0721],[113.9666,40.0519],[113.9494,40.0288],[113.908,40.0211],[113.9029,40.0106],[113.9067,40.0022],[113.9311,40.007],[113.9539,40],[113.9879,39.9936],[114.0146,39.9907],[114.0228,39.9842],[114.0208,39.9678],[114.0311,39.9375],[114.0406,39.9164],[114.0659,39.9217],[114.076,39.9126],[114.1126,39.9082],[114.1338,39.9011],[114.1409,39.8947],[114.1602,39.9001],[114.1698,39.8978],[114.184,39.9068],[114.1994,39.9098],[114.2053,39.9178],[114.2069,39.9338],[114.192,39.9431],[114.2012,39.9541],[114.2149,39.9571],[114.2277,39.9651],[114.2396,39.958],[114.2411,39.946],[114.2341,39.9348],[114.2508,39.933],[114.2705,39.9406],[114.28,39.9397],[114.3025,39.9482],[114.3228,39.9486],[114.3329,39.9607],[114.3306,39.9776],[114.3477,39.9856],[114.3457,39.9927],[114.3679,40.0012],[114.3793,40.0135],[114.3977,40.0148],[114.4019,40.007],[114.3998,39.9921],[114.4305,39.994],[114.4617,39.988],[114.4773,39.9984],[114.4893,40.0116],[114.4874,40.0234],[114.4995,40.0238],[114.516,40.0342],[114.5432,40.0362],[114.5621,40.0481],[114.5549,40.0691],[114.5547,40.0842],[114.5683,40.103],[114.5789,40.1024],[114.6099,40.0929],[114.6456,40.0986],[114.6613,40.1076],[114.6692,40.117],[114.6698,40.1401],[114.6749,40.1484],[114.6593,40.1532],[114.6551,40.1686],[114.6459,40.1739],[114.6549,40.1829],[114.6708,40.1785],[114.6865,40.1827],[114.6945,40.1948],[114.7172,40.1919],[114.7476,40.1911],[114.7671,40.1977],[114.7769,40.1824],[114.7736,40.1785],[114.7899,40.1661],[114.7964,40.1659],[114.8024,40.1706],[114.806,40.1897],[114.7915,40.2178],[114.7933,40.2434],[114.7996,40.2514],[114.7815,40.2745],[114.7799,40.2901],[114.7735,40.2953],[114.7715,40.3108],[114.776,40.3251],[114.7718,40.3371],[114.744,40.3579],[114.7362,40.3562],[114.7249,40.3658],[114.6975,40.3712]]]},"properties":{"region_code":"CN-13-1307-130727","parent_region_code":"CN-13-1307","name":"阳原县","level":"county","has_children":false,"full_path":"中国 / 河北省 / 张家口市 / 阳原县","source_admin_code":"130727","osm_relation_id":3295751}},
{"type":"Feature","geometry":{"type":"Polygon","coordinates":[[[114.776,40.7044],[114.7496,40.7184],[114.7217,40.7205],[114.7069,40.718],[114.6628,40.6979],[114.5899,40.6822],[114.5691,40.683],[114.5407,40.675],[114.5046,40.6736],[114.4875,40.6798],[114.4612,40.6946],[114.4428,40.6992],[114.4078,40.7022],[114.3562,40.7124],[114.3466,40.7327],[114.3366,40.7378],[114.3171,40.7327],[114.3133,40.7403],[114.3003,40.7469],[114.2887,40.7427],[114.2715,40.7509],[114.2539,40.7551],[114.2211,40.7519],[114.1998,40.7675],[114.1701,40.761],[114.147,40.752],[114.1387,40.7332],[114.1543,40.7134],[114.1588,40.6998],[114.1731,40.6752],[114.2079,40.6387],[114.2031,40.6287],[114.218,40.6106],[114.2327,40.6053],[114.2461,40.605],[114.2548,40.6111],[114.2675,40.5984],[114.2771,40.5955],[114.2791,40.5815],[114.2697,40.575],[114.2727,40.5656],[114.2679,40.5516],[114.2836,40.549],[114.2899,40.5347],[114.2798,40.5261],[114.2796,40.5098],[114.2608,40.4729],[114.2629,40.4625],[114.2765,40.4587],[114.2798,40.4496],[114.2926,40.4435],[114.2819,40.43],[114.2906,40.398],[114.2974,40.3876],[114.2963,40.371],[114.3017,40.3643],[114.3267,40.3641],[114.3458,40.3672],[114.3611,40.3595],[114.3756,40.3607],[114.377,40.3526],[114.3945,40.3491],[114.4009,40.3586],[114.4136,40.3657],[114.4274,40.3637],[114.445,40.3708],[114.458,40.3602],[114.4709,40.3434],[114.4875,40.3458],[114.505,40.3566],[114.5257,40.3421],[114.5794,40.3557],[114.5962,40.3551],[114.6065,40.3647],[114.6187,40.357],[114.6513,40.3711],[114.6693,40.3739],[114.6787,40.3699],[114.6975,40.3712],[114.7111,40.3809],[114.7054,40.3881],[114.7126,40.3982],[114.6994,40.4093],[114.6956,40.4246],[114.7091,40.4269],[114.7234,40.4446],[114.7396,40.4503],[114.7386,40.4626],[114.7529,40.4678],[114.7542,40.4812],[114.7447,40.492],[114.7722,40.4966],[114.7978,40.498],[114.8129,40.5115],[114.7892,40.5268],[114.7793,40.5255],[114.7769,40.5417],[114.7824,40.5459],[114.7795,40.5626],[114.7879,40.5783],[114.7842,40.5967],[114.79,40.6076],[114.7663,40.6414],[114.7763,40.6481],[114.776,40.6559],[114.7866,40.6603],[114.7797,40.6714],[114.7622,40.6814],[114.7615,40.687],[114.776,40.7044]]]},"properties":{"region_code":"CN-13-1307-130728","parent_region_code":"CN-13-1307","name":"怀安县","level":"county","has_children":false,"full_path":"中国 / 河北省 / 张家口市 / 怀安县","source_admin_code":"130728","osm_relation_id":3007835}},
{"type":"Feature","geometry":{"type":"Polygon","coordinates":[[[115.4894,40.5625],[115.4588,40.5292],[115.4394,40.5239],[115.416,40.5109],[115.4142,40.4983],[115.3965,40.498],[115.3789,40.5058],[115.3584,40.5075],[115.3393,40.5165],[115.3368,40.5079],[115.3248,40.4978],[115.3251,40.4886],[115.3079,40.4701],[115.2785,40.4656],[115.2845,40.4497],[115.2844,40.4423],[115.3029,40.4218],[115.3024,40.4161],[115.3262,40.3952],[115.3468,40.3835],[115.3695,40.3794],[115.4317,40.362],[115.4211,40.3492],[115.4242,40.3347],[115.4369,40.3327],[115.4455,40.3408],[115.4589,40.3409],[115.4901,40.3362],[115.4878,40.3169],[115.477,40.3174],[115.4635,40.2979],[115.4555,40.2962],[115.4603,40.282],[115.4468,40.2595],[115.4394,40.2532],[115.4419,40.2402],[115.473,40.2095],[115.4688,40.1805],[115.4722,40.1604],[115.4802,40.1532],[115.4785,40.1378],[115.4899,40.1156],[115.5,40.1055],[115.5067,40.0823],[115.4991,40.0745],[115.5032,40.0642],[115.5211,40.0749],[115.5362,40.0748],[115.5493,40.0816],[115.5476,40.0906],[115.5573,40.0969],[115.5846,40.0954],[115.5888,40.1153],[115.593,40.119],[115.6357,40.1148],[115.6385,40.1256],[115.7024,40.1331],[115.7278,40.1282],[115.743,40.1365],[115.7486,40.1442],[115.7433,40.1518],[115.7506,40.1631],[115.7619,40.1643],[115.7668,40.175],[115.7807,40.1692],[115.8004,40.1521],[115.8161,40.1515],[115.8403,40.146],[115.8475,40.1531],[115.8383,40.1669],[115.8481,40.1788],[115.8494,40.1878],[115.8643,40.185],[115.8713,40.1998],[115.8803,40.2056],[115.8771,40.2151],[115.8917,40.2323],[115.906,40.2334],[115.9099,40.2449],[115.9241,40.2535],[115.954,40.2555],[115.9628,40.2631],[115.9464,40.28],[115.9266,40.3185],[115.9167,40.3248],[115.9181,40.34],[115.9123,40.3528],[115.9036,40.3565],[115.887,40.3545],[115.8565,40.3597],[115.8558,40.3723],[115.8353,40.3767],[115.8304,40.3845],[115.7804,40.4358],[115.7698,40.4405],[115.7641,40.4636],[115.7759,40.4908],[115.758,40.4979],[115.7345,40.4966],[115.7331,40.5115],[115.7199,40.5196],[115.7149,40.539],[115.724,40.5461],[115.7265,40.5564],[115.7216,40.567],[115.7201,40.5839],[115.6943,40.5824],[115.6732,40.5628],[115.6643,40.5747],[115.6345,40.5816],[115.6289,40.5669],[115.5968,40.5706],[115.5889,40.5649],[115.5422,40.5653],[115.5276,40.5775],[115.5087,40.578],[115.5034,40.5651],[115.4894,40.5625]]]},"properties":{"region_code":"CN-13-1307-130730","parent_region_code":"CN-13-1307","name":"怀来县","level":"county","has_children":false,"full_path":"中国 / 河北省 / 张家口市 / 怀来县","source_admin_code":"130730","osm_relation_id":3295552}},
{"type":"Feature","geometry":{"type":"Polygon","coordinates":[[[114.9683,40.1727],[114.9663,40.1611],[114.9888,40.1521],[114.9933,40.1444],[115.0108,40.1337],[114.9947,40.1067],[115.0157,40.0753],[115.0175,40.0578],[115.0291,40.0431],[115.0285,40.0315],[115.056,39.9874],[115.0588,39.9731],[115.056,39.9625],[115.065,39.9521],[115.0557,39.9429],[115.0368,39.9379],[115.0344,39.9265],[115.0188,39.9088],[115.032,39.8756],[115.0101,39.867],[115.0003,39.8519],[115.0091,39.8403],[115.0107,39.8108],[115.028,39.7984],[115.0128,39.775],[115.0188,39.7667],[114.9994,39.7475],[115.0052,39.7406],[115.0011,39.728],[115.0019,39.7093],[115.0099,39.7048],[115.013,39.6832],[115.0184,39.6841],[115.0336,39.7041],[115.0481,39.7018],[115.0621,39.7054],[115.0973,39.7027],[115.12,39.6891],[115.1317,39.6874],[115.1508,39.6736],[115.1655,39.6715],[115.1737,39.678],[115.1728,39.7013],[115.1929,39.7007],[115.2109,39.7071],[115.2265,39.7182],[115.2404,39.736],[115.2524,39.7363],[115.2735,39.7443],[115.307,39.7822],[115.3261,39.7888],[115.3237,39.8053],[115.3367,39.8157],[115.3389,39.8401],[115.3524,39.8514],[115.36,39.8678],[115.3548,39.8757],[115.3585,39.8842],[115.3883,39.8846],[115.388,39.8989],[115.406,39.9201],[115.4068,39.933],[115.4196,39.949],[115.4168,39.9684],[115.422,39.983],[115.4427,40.0006],[115.4356,40.0095],[115.448,40.0284],[115.4721,40.0349],[115.499,40.0557],[115.5032,40.0642],[115.4991,40.0745],[115.5067,40.0823],[115.5,40.1055],[115.4899,40.1156],[115.4785,40.1378],[115.4802,40.1532],[115.4722,40.1604],[115.4688,40.1805],[115.473,40.2095],[115.4419,40.2402],[115.4394,40.2532],[115.4468,40.2595],[115.4603,40.282],[115.4555,40.2962],[115.4635,40.2979],[115.477,40.3174],[115.4878,40.3169],[115.4901,40.3362],[115.4589,40.3409],[115.4455,40.3408],[115.4369,40.3327],[115.4242,40.3347],[115.4211,40.3492],[115.4317,40.362],[115.3695,40.3794],[115.3468,40.3835],[115.3262,40.3952],[115.3024,40.4161],[115.3029,40.4218],[115.2844,40.4423],[115.2845,40.4497],[115.2524,40.4504],[115.2349,40.4409],[115.2173,40.4474],[115.21,40.4684],[115.2014,40.4697],[115.2125,40.4909],[115.1909,40.4878],[115.1751,40.4742],[115.1648,40.4739],[115.1524,40.4665],[115.1471,40.4527],[115.126,40.4472],[115.1284,40.4322],[115.1176,40.4236],[115.1064,40.3921],[115.0975,40.3773],[115.078,40.3872],[115.0629,40.3999],[115.0585,40.3887],[115.0372,40.3794],[115.0382,40.3616],[115.0169,40.3501],[114.998,40.3574],[114.995,40.3519],[114.9623,40.3569],[114.9569,40.3459],[114.9445,40.3364],[114.9498,40.3173],[114.9606,40.3129],[114.9774,40.3123],[114.9791,40.2966],[114.9638,40.2883],[114.9641,40.2819],[114.9523,40.2726],[114.9615,40.2665],[114.9381,40.2587],[114.9253,40.2503],[114.9388,40.2274],[114.9623,40.2088],[114.9556,40.1942],[114.9683,40.1727]]]},"properties":{"region_code":"CN-13-1307-130731","parent_region_code":"CN-13-1307","name":"涿鹿县","level":"county","has_children":false,"full_path":"中国 / 河北省 / 张家口市 / 涿鹿县","source_admin_code":"130731","osm_relation_id":3295824}},
{"type":"Feature","geometry":{"type":"Polygon","coordinates":[[[115.5087,40.578],[115.5276,40.5775],[115.5422,40.5653],[115.5889,40.5649],[115.5968,40.5706],[115.6289,40.5669],[115.6345,40.5816],[115.6643,40.5747],[115.6732,40.5628],[115.6943,40.5824],[115.7201,40.5839],[115.7216,40.567],[115.7265,40.5564],[115.724,40.5461],[115.7149,40.539],[115.7199,40.5196],[115.7331,40.5115],[115.7639,40.5467],[115.7859,40.56],[115.7928,40.5564],[115.8136,40.5581],[115.8212,40.5857],[115.84,40.5918],[115.8488,40.5889],[115.8617,40.5946],[115.8821,40.5958],[115.8999,40.6148],[115.9143,40.6154],[115.9423,40.6076],[115.9613,40.6046],[115.976,40.5777],[115.9981,40.5825],[116.017,40.6034],[116.0221,40.5982],[116.0382,40.6005],[116.0671,40.6106],[116.0703,40.6183],[116.0924,40.629],[116.1119,40.6264],[116.1062,40.6469],[116.1188,40.6525],[116.1305,40.6661],[116.1549,40.6609],[116.1674,40.6875],[116.165,40.6944],[116.186,40.7232],[116.2142,40.7432],[116.2295,40.7736],[116.2289,40.7816],[116.2418,40.7903],[116.2634,40.7757],[116.2712,40.7601],[116.284,40.7628],[116.2917,40.7553],[116.3114,40.7706],[116.3367,40.7715],[116.3468,40.7686],[116.3735,40.7707],[116.4015,40.7787],[116.4101,40.7677],[116.4477,40.7642],[116.4596,40.7729],[116.4509,40.7966],[116.4337,40.8074],[116.4305,40.819],[116.4161,40.821],[116.4001,40.8316],[116.3929,40.8487],[116.3754,40.8617],[116.3596,40.8784],[116.3282,40.9029],[116.3278,40.9191],[116.3438,40.9343],[116.3588,40.9415],[116.3547,40.9507],[116.3409,40.9646],[116.3393,40.9794],[116.321,40.9822],[116.3073,40.9803],[116.2883,40.987],[116.2876,41.0055],[116.2661,41.021],[116.2588,41.0364],[116.2763,41.0553],[116.2857,41.0597],[116.2857,41.069],[116.2709,41.0805],[116.2727,41.0883],[116.2626,41.1007],[116.2477,41.1087],[116.233,41.1215],[116.2295,41.1307],[116.2377,41.1395],[116.2397,41.1617],[116.2249,41.167],[116.2154,41.1761],[116.2281,41.1975],[116.229,41.21],[116.2174,41.218],[116.1919,41.2563],[116.1869,41.2759],[116.1918,41.2832],[116.1926,41.3005],[116.2032,41.3045],[116.2036,41.3195],[116.1846,41.3391],[116.1777,41.3397],[116.169,41.3547],[116.1419,41.3679],[116.0956,41.3695],[116.0861,41.3796],[116.0714,41.3855],[116.0415,41.3883],[116.0218,41.374],[116.0257,41.3654],[116.0186,41.3456],[116.0104,41.3356],[116.0126,41.3262],[115.9851,41.3011],[115.9636,41.3059],[115.9595,41.2937],[115.9601,41.2792],[115.9515,41.2593],[115.9559,41.2486],[115.9451,41.2369],[115.9222,41.2409],[115.9135,41.2333],[115.8955,41.2337],[115.8864,41.242],[115.8816,41.2571],[115.8594,41.2737],[115.8411,41.2778],[115.8199,41.2756],[115.8134,41.2931],[115.7982,41.3069],[115.7929,41.3265],[115.7802,41.3312],[115.7506,41.3566],[115.7449,41.3662],[115.7194,41.3694],[115.7095,41.358],[115.6951,41.3587],[115.6795,41.3459],[115.6701,41.3248],[115.6538,41.3164],[115.6359,41.3146],[115.6214,41.3094],[115.6031,41.2976],[115.5891,41.283],[115.5784,41.2641],[115.5676,41.2582],[115.5677,41.2495],[115.5512,41.2441],[115.5425,41.2469],[115.5099,41.2411],[115.4847,41.2173],[115.5021,41.1857],[115.5089,41.1611],[115.5189,41.1525],[115.5209,41.1422],[115.4905,41.0903],[115.5013,41.0632],[115.4859,41.0287],[115.4853,41.0097],[115.4744,40.9759],[115.4774,40.962],[115.4917,40.966],[115.5094,40.9557],[115.5136,40.9477],[115.5056,40.9356],[115.512,40.9254],[115.508,40.9105],[115.4958,40.9013],[115.4925,40.891],[115.4778,40.8907],[115.4582,40.8769],[115.4368,40.8683],[115.43,40.8564],[115.4367,40.8506],[115.4374,40.8341],[115.4255,40.8212],[115.4229,40.8068],[115.4315,40.7978],[115.428,40.7916],[115.4446,40.7912],[115.4512,40.7782],[115.4414,40.7662],[115.4404,40.7554],[115.4544,40.7448],[115.4797,40.7356],[115.4898,40.7289],[115.4829,40.705],[115.4931,40.6942],[115.4937,40.6825],[115.5053,40.6799],[115.5204,40.6632],[115.5132,40.6581],[115.5186,40.6484],[115.5074,40.6426],[115.4868,40.6067],[115.5006,40.599],[115.5087,40.578]]]},"properties":{"region_code":"CN-13-1307-130732","parent_region_code":"CN-13-1307","name":"赤城县","level":"county","has_children":false,"full_path":"中国 / 河北省 / 张家口市 / 赤城县","source_admin_code":"130732","osm_relation_id":3883180}}
]}