{"type":"FeatureCollection", "features": [
{"type":"Feature","geometry":{"type":"Polygon","coordinates":[[[113.0378,41.1706],[113.043,41.1548],[113.0354,41.1457],[113.0393,41.1362],[113.0492,41.1374],[113.0568,41.1283],[113.0693,41.128],[113.0728,41.1082],[113.0844,41.0786],[113.0714,41.0722],[113.0692,41.0627],[113.0328,41.0535],[113.0421,41.0348],[113.0407,41.0218],[113.0248,41.0111],[113.0218,40.9928],[113.039,40.9878],[113.0474,40.9792],[113.0637,40.9799],[113.0702,40.9902],[113.0897,40.9859],[113.1023,40.9709],[113.0974,40.9638],[113.1067,40.9562],[113.1199,40.9548],[113.1429,40.9645],[113.1913,40.9665],[113.226,40.9658],[113.2329,40.9394],[113.2701,40.9273],[113.2927,40.9451],[113.2902,40.9618],[113.3172,40.9823],[113.3157,40.9928],[113.3219,41.008],[113.3188,41.0695],[113.2525,41.0694],[113.2393,41.0666],[113.2382,41.0817],[113.2423,41.1314],[113.2488,41.1362],[113.2515,41.1504],[113.2439,41.1594],[113.251,41.1699],[113.2284,41.1741],[113.1996,41.1904],[113.182,41.203],[113.1578,41.206],[113.1322,41.2169],[113.1138,41.2198],[113.1045,41.2119],[113.0893,41.1835],[113.0624,41.1735],[113.0619,41.1635],[113.0527,41.1579],[113.0378,41.1706]]]},"properties":{"region_code":"CN-15-1509-150902","parent_region_code":"CN-15-1509","name":"集宁区","level":"county","has_children":false,"full_path":"中国 / 内蒙古自治区 / 乌兰察布市 / 集宁区","source_admin_code":"150902","osm_relation_id":2103640}},
{"type":"Feature","geometry":{"type":"Polygon","coordinates":[[[112.9044,40.8036],[112.8865,40.8258],[112.8888,40.8499],[112.8922,40.8574],[112.9232,40.8726],[112.922,40.8901],[112.9091,40.9033],[112.9036,40.9166],[112.9192,40.9223],[112.9329,40.9227],[112.9417,40.9286],[112.9534,40.9281],[112.95,40.942],[112.9316,40.9612],[112.9333,40.9746],[112.9182,40.9854],[112.9153,40.9925],[112.8888,40.987],[112.8639,40.9953],[112.8221,41.0031],[112.8372,41.0187],[112.8709,41.0251],[112.8755,41.028],[112.8799,41.0489],[112.8724,41.0556],[112.8286,41.0595],[112.81,41.0815],[112.8067,41.0911],[112.8104,41.1034],[112.8014,41.1088],[112.7815,41.1056],[112.763,41.0894],[112.764,41.0793],[112.746,41.0662],[112.7417,41.0782],[112.7276,41.1013],[112.7339,41.1075],[112.7346,41.1193],[112.7202,41.1439],[112.7139,41.1515],[112.7019,41.1508],[112.6977,41.1371],[112.6666,41.121],[112.635,41.1127],[112.6122,41.1162],[112.6064,41.1231],[112.5915,41.1278],[112.5813,41.1148],[112.5901,41.1021],[112.5841,41.0934],[112.5986,41.0887],[112.6253,41.0649],[112.6089,41.0524],[112.6066,41.0369],[112.5947,41.0221],[112.5627,41.0245],[112.5443,41.0287],[112.5183,41.021],[112.5043,41.0191],[112.4893,41.029],[112.4697,41.0357],[112.4516,41.0374],[112.4281,41.0343],[112.4208,41.0276],[112.3983,41.0316],[112.3893,41.0251],[112.3779,41.0279],[112.3529,41.0543],[112.3225,41.0546],[112.3156,41.0727],[112.3465,41.0683],[112.3503,41.0749],[112.3536,41.0991],[112.3662,41.1047],[112.3795,41.1052],[112.3671,41.1176],[112.3602,41.1315],[112.3365,41.1381],[112.3107,41.132],[112.2935,41.1307],[112.2823,41.1405],[112.2758,41.1382],[112.2616,41.1598],[112.252,41.1574],[112.2422,41.1728],[112.2294,41.1846],[112.2079,41.1919],[112.1936,41.1995],[112.1877,41.2095],[112.176,41.2146],[112.1661,41.2264],[112.1542,41.2281],[112.1477,41.2368],[112.1252,41.2389],[112.116,41.244],[112.0763,41.2294],[112.0746,41.2366],[112.0438,41.25],[112.0117,41.2474],[112.0005,41.2402],[111.9806,41.246],[111.9811,41.2526],[111.9587,41.2618],[111.9516,41.2574],[111.9274,41.2546],[111.9174,41.2263],[111.9237,41.2119],[111.9231,41.2025],[111.9151,41.1932],[111.902,41.1946],[111.8898,41.2164],[111.8726,41.2245],[111.853,41.2168],[111.8621,41.2041],[111.8558,41.189],[111.8636,41.1786],[111.8598,41.1734],[111.8691,41.1565],[111.8673,41.1427],[111.8755,41.1283],[111.9106,41.1204],[111.9022,41.1124],[111.9237,41.0933],[111.9478,41.0857],[111.9686,41.0754],[111.9682,41.0696],[112.0009,41.0623],[112.0144,41.0494],[112.027,41.0459],[112.0295,41.0311],[112.0224,41.0301],[112.011,41.0126],[112.0126,41.0004],[112.0283,40.9875],[112.0258,40.9824],[112.041,40.9654],[112.0651,40.9593],[112.0881,40.9464],[112.1157,40.9583],[112.1257,40.9538],[112.1279,40.9417],[112.1364,40.9368],[112.1369,40.913],[112.1445,40.9003],[112.1588,40.8952],[112.148,40.879],[112.1808,40.8491],[112.1818,40.8384],[112.1745,40.8092],[112.1881,40.8185],[112.209,40.8259],[112.2126,40.8364],[112.2237,40.8437],[112.2361,40.8421],[112.2409,40.8203],[112.2339,40.8163],[112.2323,40.8019],[112.2401,40.7886],[112.2651,40.7928],[112.284,40.7999],[112.2843,40.7849],[112.2997,40.7877],[112.3031,40.7733],[112.2918,40.7574],[112.2971,40.7485],[112.3091,40.7492],[112.335,40.7364],[112.3387,40.7271],[112.3474,40.7241],[112.3557,40.6987],[112.3807,40.6795],[112.3958,40.6732],[112.407,40.6809],[112.4175,40.6814],[112.4336,40.676],[112.4572,40.675],[112.4716,40.6692],[112.4731,40.6588],[112.4847,40.6448],[112.4949,40.6436],[112.5018,40.6627],[112.5345,40.6526],[112.5459,40.6621],[112.5457,40.6721],[112.5791,40.6763],[112.5839,40.6903],[112.5991,40.6978],[112.6105,40.6904],[112.6224,40.6893],[112.6378,40.6961],[112.6493,40.695],[112.6532,40.7079],[112.6646,40.7146],[112.6898,40.7066],[112.7083,40.7079],[112.7177,40.7173],[112.722,40.7284],[112.7179,40.745],[112.7332,40.7547],[112.7246,40.7664],[112.73,40.7824],[112.7479,40.78],[112.7515,40.7685],[112.7667,40.7716],[112.7778,40.766],[112.7922,40.7662],[112.8082,40.7367],[112.82,40.7445],[112.8362,40.7424],[112.8528,40.7515],[112.8624,40.7689],[112.8739,40.7695],[112.8796,40.759],[112.901,40.7576],[112.8846,40.7716],[112.8945,40.7879],[112.8946,40.8003],[112.9044,40.8036]]]},"properties":{"region_code":"CN-15-1509-150921","parent_region_code":"CN-15-1509","name":"卓资县","level":"county","has_children":false,"full_path":"中国 / 内蒙古自治区 / 乌兰察布市 / 卓资县","source_admin_code":"150921","osm_relation_id":2752976}},
{"type":"Feature","geometry":{"type":"Polygon","coordinates":[[[113.5591,42.1169],[113.5592,42.0996],[113.5641,42.0905],[113.576,42.089],[113.5733,42.0793],[113.6346,42.0793],[113.6407,42.0687],[113.6674,42.0509],[113.6847,42.0505],[113.6903,42.0416],[113.688,42.0298],[113.6954,42.0237],[113.6964,42.0124],[113.7123,41.9986],[113.713,41.9656],[113.7037,41.9557],[113.6957,41.955],[113.6864,41.9391],[113.7112,41.913],[113.7452,41.9037],[113.7573,41.8895],[113.7548,41.8734],[113.7747,41.8629],[113.7987,41.8614],[113.8086,41.8476],[113.7822,41.8483],[113.7844,41.8375],[113.8123,41.8401],[113.8029,41.8174],[113.8272,41.7981],[113.8248,41.7736],[113.8179,41.7653],[113.8296,41.7406],[113.8471,41.7309],[113.8466,41.7225],[113.8667,41.7183],[113.8781,41.6974],[113.9043,41.6939],[113.9218,41.7083],[113.9283,41.7056],[113.9349,41.6882],[113.928,41.6769],[113.9201,41.6514],[113.9291,41.6355],[113.9235,41.6219],[113.9429,41.6181],[113.9519,41.6243],[113.9768,41.6195],[113.9847,41.6135],[113.994,41.6195],[113.9971,41.6302],[114.018,41.6331],[114.0294,41.6407],[114.0442,41.6431],[114.0566,41.6497],[114.0574,41.6696],[114.0755,41.6643],[114.0874,41.6924],[114.0952,41.6993],[114.1121,41.6978],[114.1297,41.7061],[114.1314,41.7259],[114.1402,41.7303],[114.17,41.7269],[114.1835,41.7332],[114.2001,41.7363],[114.2086,41.7543],[114.1989,41.7565],[114.2017,41.7689],[114.1931,41.7776],[114.1943,41.7893],[114.2051,41.7976],[114.2366,41.8308],[114.2787,41.8642],[114.3167,41.9091],[114.3237,41.9147],[114.3205,41.927],[114.3371,41.924],[114.3439,41.9273],[114.3462,41.9512],[114.3568,41.9456],[114.3673,41.9538],[114.3839,41.952],[114.4153,41.9399],[114.4259,41.9436],[114.4706,41.9521],[114.4849,41.9657],[114.5048,41.9707],[114.505,41.9787],[114.4959,41.989],[114.4824,41.9956],[114.4754,42.0061],[114.4783,42.0138],[114.463,42.0231],[114.4597,42.0359],[114.4682,42.0446],[114.4742,42.0614],[114.4854,42.0565],[114.4955,42.064],[114.4996,42.0765],[114.4946,42.0833],[114.505,42.1001],[114.5052,42.1077],[114.565,42.1319],[114.5838,42.1273],[114.6238,42.1091],[114.641,42.1067],[114.6691,42.1185],[114.7013,42.1191],[114.7048,42.1126],[114.7494,42.113],[114.7693,42.1209],[114.7832,42.1295],[114.7875,42.1472],[114.8009,42.1466],[114.7969,42.1732],[114.783,42.1846],[114.7976,42.1879],[114.8016,42.1977],[114.7695,42.2121],[114.7522,42.2157],[114.6701,42.1959],[114.6802,42.2192],[114.6634,42.2459],[114.6828,42.2623],[114.6792,42.2712],[114.6663,42.2781],[114.645,42.2667],[114.6055,42.2784],[114.5906,42.2868],[114.5689,42.2941],[114.5541,42.2685],[114.5192,42.2333],[114.4918,42.2189],[114.4557,42.2111],[114.4372,42.2094],[114.3994,42.1976],[114.4035,42.1888],[114.4198,42.1847],[114.4317,42.1691],[114.4587,42.1684],[114.4718,42.1284],[114.4728,42.1125],[114.452,42.1062],[114.4385,42.096],[114.4029,42.0974],[114.3707,42.1075],[114.3702,42.1496],[114.3629,42.1594],[114.3318,42.1791],[114.3144,42.1869],[114.305,42.181],[114.2843,42.1895],[114.2678,42.1855],[114.2349,42.167],[114.22,42.1329],[114.2066,42.1285],[114.19,42.1287],[114.1636,42.1251],[114.1341,42.1236],[114.1119,42.1339],[114.1054,42.1329],[114.089,42.1179],[114.0757,42.0959],[114.062,42.0814],[114.0567,42.0676],[114.056,42.0454],[114.0485,42.0318],[114.0816,42.0023],[114.0884,41.9926],[114.0846,41.9872],[114.0685,41.9899],[114.0583,41.9839],[114.0553,41.964],[114.0378,41.9625],[114.0122,41.9743],[113.9783,41.9658],[113.9531,41.9487],[113.9456,41.953],[113.9384,41.9671],[113.9156,41.9753],[113.9064,41.9841],[113.908,42.0035],[113.8976,42.0302],[113.9093,42.0483],[113.9058,42.055],[113.892,42.0571],[113.86,42.0549],[113.8146,42.058],[113.7883,42.0628],[113.7631,42.0825],[113.7324,42.0946],[113.728,42.1114],[113.721,42.1239],[113.7037,42.1306],[113.6851,42.1283],[113.6662,42.1127],[113.6377,42.1076],[113.6138,42.1121],[113.5655,42.1298],[113.5591,42.1169]]]},"properties":{"region_code":"CN-15-1509-150922","parent_region_code":"CN-15-1509","name":"化德县","level":"county","has_children":false,"full_path":"中国 / 内蒙古自治区 / 乌兰察布市 / 化德县","source_admin_code":"150922","osm_relation_id":2752971}},
{"type":"Feature","geometry":{"type":"Polygon","coordinates":[[[113.5591,42.1169],[113.5378,42.1311],[113.4422,42.1362],[113.365,42.1415],[113.3233,42.1164],[113.282,42.0821],[113.2775,42.0701],[113.2443,42.0374],[113.2086,42.0091],[113.1571,41.9881],[113.1774,41.9692],[113.1967,41.959],[113.2158,41.9457],[113.2085,41.9331],[113.2074,41.9103],[113.226,41.9032],[113.253,41.8969],[113.2574,41.8907],[113.2426,41.8843],[113.2054,41.8809],[113.18,41.8814],[113.1785,41.8898],[113.1557,41.892],[113.1449,41.8802],[113.1323,41.8767],[113.1252,41.8661],[113.1465,41.8579],[113.1582,41.8433],[113.1866,41.8354],[113.1988,41.8358],[113.2009,41.8226],[113.1869,41.8221],[113.1514,41.7924],[113.1581,41.7713],[113.1652,41.7587],[113.1877,41.7522],[113.2117,41.751],[113.2184,41.7419],[113.2393,41.736],[113.2501,41.7272],[113.2563,41.7022],[113.2293,41.6997],[113.2286,41.6907],[113.2372,41.6805],[113.2182,41.6775],[113.2199,41.6557],[113.242,41.653],[113.2369,41.6334],[113.2494,41.6129],[113.2498,41.5927],[113.2452,41.5887],[113.2722,41.5624],[113.3008,41.5659],[113.2995,41.5566],[113.308,41.5461],[113.3225,41.5437],[113.3308,41.5341],[113.3762,41.5318],[113.3719,41.5391],[113.395,41.5481],[113.389,41.5547],[113.3574,41.5745],[113.3543,41.587],[113.3676,41.5924],[113.3627,41.6055],[113.3879,41.6077],[113.3947,41.6052],[113.4036,41.5845],[113.3969,41.5739],[113.4088,41.5574],[113.4037,41.5533],[113.4078,41.5213],[113.4247,41.5267],[113.4248,41.546],[113.4377,41.5351],[113.4293,41.5106],[113.4443,41.4859],[113.4644,41.4936],[113.4609,41.5041],[113.4793,41.5138],[113.4995,41.512],[113.5074,41.5018],[113.5121,41.4879],[113.4815,41.4779],[113.4651,41.4684],[113.4579,41.4597],[113.4431,41.4599],[113.4332,41.4665],[113.4162,41.4709],[113.3937,41.4806],[113.3457,41.4778],[113.3305,41.475],[113.2948,41.4757],[113.3045,41.4619],[113.3161,41.4527],[113.3309,41.4524],[113.3288,41.4606],[113.3436,41.4641],[113.3676,41.4433],[113.3486,41.4273],[113.3297,41.4336],[113.307,41.4253],[113.2947,41.4104],[113.3095,41.4045],[113.3309,41.408],[113.3492,41.4201],[113.3756,41.4206],[113.3815,41.4117],[113.4259,41.4276],[113.42,41.4396],[113.3908,41.4436],[113.3767,41.4485],[113.3927,41.4605],[113.4134,41.4517],[113.4383,41.4561],[113.462,41.4483],[113.4613,41.4349],[113.4519,41.4292],[113.453,41.4214],[113.4763,41.4179],[113.4597,41.4002],[113.469,41.392],[113.4781,41.3933],[113.4874,41.4144],[113.4988,41.4177],[113.5095,41.4109],[113.5363,41.3997],[113.541,41.3909],[113.5661,41.3899],[113.5644,41.4199],[113.5594,41.4284],[113.5554,41.4484],[113.5912,41.4482],[113.6245,41.4448],[113.6332,41.4302],[113.6573,41.4386],[113.6661,41.4254],[113.6772,41.4229],[113.6819,41.4154],[113.6665,41.4077],[113.6551,41.3964],[113.6635,41.3877],[113.6601,41.3801],[113.6328,41.3878],[113.6268,41.3693],[113.616,41.3644],[113.6199,41.3556],[113.6157,41.3466],[113.6196,41.3377],[113.6413,41.3343],[113.6352,41.3149],[113.6477,41.2983],[113.6641,41.3009],[113.6648,41.3116],[113.6758,41.3366],[113.6709,41.3422],[113.6897,41.3514],[113.7234,41.3513],[113.7294,41.34],[113.7468,41.3357],[113.7704,41.3349],[113.7806,41.3311],[113.7989,41.3335],[113.815,41.3185],[113.829,41.3161],[113.8275,41.3079],[113.8409,41.2987],[113.8646,41.2962],[113.8786,41.3022],[113.893,41.314],[113.9066,41.3216],[113.9203,41.3247],[113.9184,41.3437],[113.9314,41.3556],[113.9271,41.3753],[113.9376,41.3893],[113.9122,41.4017],[113.8645,41.4107],[113.8694,41.4271],[113.8785,41.4367],[113.9029,41.4448],[113.9149,41.4565],[113.9238,41.4833],[113.9478,41.4825],[113.9685,41.4975],[113.9712,41.5053],[114.0082,41.5175],[114.0331,41.5308],[114.0525,41.5246],[114.0616,41.5296],[114.0773,41.5274],[114.0953,41.5357],[114.1984,41.5157],[114.2072,41.5093],[114.2215,41.5128],[114.2232,41.5395],[114.2148,41.5597],[114.2136,41.5749],[114.2299,41.5901],[114.2225,41.6046],[114.2203,41.6193],[114.2489,41.6227],[114.2321,41.65],[114.2081,41.684],[114.2211,41.6948],[114.2309,41.6971],[114.2289,41.7073],[114.2001,41.7363],[114.1835,41.7332],[114.17,41.7269],[114.1402,41.7303],[114.1314,41.7259],[114.1297,41.7061],[114.1121,41.6978],[114.0952,41.6993],[114.0874,41.6924],[114.0755,41.6643],[114.0574,41.6696],[114.0566,41.6497],[114.0442,41.6431],[114.0294,41.6407],[114.018,41.6331],[113.9971,41.6302],[113.994,41.6195],[113.9847,41.6135],[113.9768,41.6195],[113.9519,41.6243],[113.9429,41.6181],[113.9235,41.6219],[113.9291,41.6355],[113.9201,41.6514],[113.928,41.6769],[113.9349,41.6882],[113.9283,41.7056],[113.9218,41.7083],[113.9043,41.6939],[113.8781,41.6974],[113.8667,41.7183],[113.8466,41.7225],[113.8471,41.7309],[113.8296,41.7406],[113.8179,41.7653],[113.8248,41.7736],[113.8272,41.7981],[113.8029,41.8174],[113.8123,41.8401],[113.7844,41.8375],[113.7822,41.8483],[113.8086,41.8476],[113.7987,41.8614],[113.7747,41.8629],[113.7548,41.8734],[113.7573,41.8895],[113.7452,41.9037],[113.7112,41.913],[113.6864,41.9391],[113.6957,41.955],[113.7037,41.9557],[113.713,41.9656],[113.7123,41.9986],[113.6964,42.0124],[113.6954,42.0237],[113.688,42.0298],[113.6903,42.0416],[113.6847,42.0505],[113.6674,42.0509],[113.6407,42.0687],[113.6346,42.0793],[113.5733,42.0793],[113.576,42.089],[113.5641,42.0905],[113.5592,42.0996],[113.5591,42.1169]]]},"properties":{"region_code":"CN-15-1509-150923","parent_region_code":"CN-15-1509","name":"商都县","level":"county","has_children":false,"full_path":"中国 / 内蒙古自治区 / 乌兰察布市 / 商都县","source_admin_code":"150923","osm_relation_id":2752973}},
{"type":"Feature","geometry":{"type":"Polygon","coordinates":[[[113.469,41.392],[113.4354,41.3788],[113.4144,41.3498],[113.399,41.3369],[113.3863,41.3308],[113.3815,41.3108],[113.3585,41.2951],[113.3585,41.2837],[113.3511,41.2722],[113.389,41.2647],[113.4058,41.2504],[113.4155,41.2231],[113.4059,41.2191],[113.4122,41.2015],[113.4312,41.2003],[113.449,41.2072],[113.4613,41.1988],[113.4756,41.2015],[113.5006,41.194],[113.5138,41.204],[113.5295,41.205],[113.5325,41.1975],[113.5539,41.2028],[113.5662,41.189],[113.569,41.1698],[113.5862,41.179],[113.6,41.1793],[113.6027,41.172],[113.6142,41.1654],[113.6094,41.157],[113.575,41.1428],[113.5708,41.1353],[113.5764,41.1282],[113.6076,41.1282],[113.6289,41.1165],[113.6392,41.1167],[113.6538,41.1106],[113.663,41.0923],[113.6432,41.0862],[113.6326,41.0949],[113.6125,41.0948],[113.6106,41.083],[113.6037,41.0791],[113.6106,41.0571],[113.6306,41.0438],[113.6343,41.0335],[113.6252,41.0238],[113.5926,41.0033],[113.5797,40.9996],[113.5818,40.9921],[113.573,40.9838],[113.5711,40.9723],[113.5622,40.9684],[113.5589,40.9474],[113.5509,40.942],[113.5545,40.9296],[113.5835,40.8992],[113.5542,40.8883],[113.5511,40.8752],[113.5513,40.8573],[113.5348,40.849],[113.5161,40.8548],[113.5063,40.8383],[113.4981,40.8355],[113.527,40.8176],[113.5305,40.8003],[113.5247,40.791],[113.509,40.7917],[113.4977,40.777],[113.5029,40.7627],[113.4955,40.7541],[113.4903,40.7475],[113.4878,40.723],[113.4941,40.7039],[113.5058,40.7013],[113.5062,40.6917],[113.5217,40.6661],[113.5717,40.6585],[113.5859,40.6474],[113.615,40.6418],[113.6243,40.6468],[113.671,40.6312],[113.6836,40.6141],[113.7143,40.6169],[113.7228,40.6201],[113.7332,40.6084],[113.7643,40.58],[113.7683,40.5551],[113.7735,40.5477],[113.7888,40.5462],[113.7831,40.5281],[113.7875,40.518],[113.7979,40.5144],[113.8069,40.5036],[113.8175,40.4989],[113.8313,40.4789],[113.856,40.4609],[113.8634,40.4483],[113.8736,40.4516],[113.8814,40.4611],[113.896,40.4678],[113.8939,40.4759],[113.9114,40.4888],[113.9183,40.4893],[113.9366,40.5026],[113.9413,40.5156],[113.9671,40.5249],[113.9767,40.5217],[113.9971,40.5218],[114.0096,40.5182],[114.0314,40.5295],[114.0348,40.5261],[114.0687,40.5396],[114.0778,40.5548],[114.0685,40.5609],[114.0717,40.5781],[114.0553,40.5861],[114.0438,40.6023],[114.0348,40.6078],[114.0413,40.622],[114.0612,40.6417],[114.0606,40.6589],[114.065,40.6866],[114.0541,40.7013],[114.056,40.7213],[114.0884,40.7404],[114.1103,40.7336],[114.1266,40.745],[114.0981,40.7571],[114.094,40.7678],[114.099,40.7788],[114.0943,40.7958],[114.0741,40.7888],[114.054,40.8086],[114.0478,40.8243],[114.038,40.8295],[114.0502,40.8414],[114.0629,40.8456],[114.0693,40.8531],[114.0465,40.8629],[114.0454,40.8917],[114.0354,40.9026],[114.0346,40.9157],[114.0399,40.9219],[114.0332,40.9299],[114.0076,40.9328],[113.9922,40.9446],[113.9893,40.9364],[113.9726,40.9462],[113.9754,40.9811],[113.9689,40.9936],[113.9557,40.9901],[113.9506,41.0032],[113.9346,41.0065],[113.921,41.0131],[113.9122,41.0242],[113.9137,41.0319],[113.9016,41.0359],[113.8661,41.0625],[113.8562,41.0772],[113.8459,41.0736],[113.8322,41.0783],[113.8231,41.0868],[113.8182,41.0989],[113.8331,41.1078],[113.8415,41.1061],[113.8674,41.109],[113.8763,41.1204],[113.8776,41.1323],[113.896,41.1399],[113.9069,41.1691],[113.9321,41.1751],[113.9497,41.1707],[113.977,41.1812],[113.9949,41.1828],[113.9995,41.2173],[114.0057,41.2314],[114.0002,41.2492],[113.9886,41.2572],[113.9862,41.2662],[113.9699,41.2646],[113.971,41.2526],[113.9463,41.2526],[113.9479,41.2651],[113.9446,41.2812],[113.9292,41.2931],[113.9159,41.2894],[113.908,41.2927],[113.893,41.314],[113.8786,41.3022],[113.8646,41.2962],[113.8409,41.2987],[113.8275,41.3079],[113.829,41.3161],[113.815,41.3185],[113.7989,41.3335],[113.7806,41.3311],[113.7704,41.3349],[113.7468,41.3357],[113.7294,41.34],[113.7234,41.3513],[113.6897,41.3514],[113.6709,41.3422],[113.6758,41.3366],[113.6648,41.3116],[113.6641,41.3009],[113.6477,41.2983],[113.6352,41.3149],[113.6413,41.3343],[113.6196,41.3377],[113.6157,41.3466],[113.6199,41.3556],[113.616,41.3644],[113.6268,41.3693],[113.6328,41.3878],[113.6601,41.3801],[113.6635,41.3877],[113.6551,41.3964],[113.6665,41.4077],[113.6819,41.4154],[113.6772,41.4229],[113.6661,41.4254],[113.6573,41.4386],[113.6332,41.4302],[113.6245,41.4448],[113.5912,41.4482],[113.5554,41.4484],[113.5594,41.4284],[113.5644,41.4199],[113.5661,41.3899],[113.541,41.3909],[113.5363,41.3997],[113.5095,41.4109],[113.4988,41.4177],[113.4874,41.4144],[113.4781,41.3933],[113.469,41.392]]]},"properties":{"region_code":"CN-15-1509-150924","parent_region_code":"CN-15-1509","name":"兴和县","level":"county","has_children":false,"full_path":"中国 / 内蒙古自治区 / 乌兰察布市 / 兴和县","source_admin_code":"150924","osm_relation_id":2752975}},
{"type":"Feature","geometry":{"type":"Polygon","coordinates":[[[112.1745,40.8092],[112.1517,40.7954],[112.1447,40.7784],[112.1454,40.7639],[112.1247,40.751],[112.0961,40.7456],[112.0864,40.7391],[112.0978,40.73],[112.0985,40.7177],[112.1139,40.7151],[112.1234,40.6962],[112.1041,40.6827],[112.1091,40.6671],[112.0908,40.6612],[112.0797,40.6654],[112.0387,40.6546],[112.0402,40.6426],[112.0796,40.6188],[112.0904,40.5945],[112.0915,40.582],[112.0793,40.5744],[112.0667,40.574],[112.0551,40.5834],[112.0462,40.5727],[112.0468,40.5566],[112.0599,40.5529],[112.0613,40.5464],[112.0792,40.5374],[112.0872,40.5233],[112.098,40.5214],[112.1049,40.5086],[112.1174,40.5054],[112.1322,40.5093],[112.1496,40.4937],[112.1548,40.4821],[112.1773,40.4627],[112.2181,40.4476],[112.2115,40.4264],[112.2327,40.411],[112.2411,40.397],[112.2585,40.3938],[112.2584,40.3869],[112.2445,40.3775],[112.2289,40.3583],[112.2391,40.3528],[112.2632,40.3566],[112.2595,40.3284],[112.2755,40.3279],[112.2789,40.3151],[112.286,40.3071],[112.2778,40.2929],[112.2825,40.2781],[112.2987,40.2742],[112.3022,40.2583],[112.3418,40.2529],[112.3584,40.2583],[112.3626,40.2664],[112.3852,40.2719],[112.4056,40.2943],[112.4581,40.2982],[112.4711,40.2853],[112.4923,40.2782],[112.4956,40.2731],[112.5179,40.2626],[112.5719,40.2515],[112.5773,40.246],[112.6193,40.2375],[112.6374,40.2206],[112.6476,40.2184],[112.6695,40.2014],[112.6785,40.1907],[112.6862,40.1919],[112.7067,40.177],[112.7144,40.1771],[112.7257,40.1645],[112.738,40.1625],[112.7553,40.1669],[112.7694,40.1759],[112.7936,40.185],[112.8446,40.201],[112.8481,40.2037],[112.8778,40.2764],[112.8875,40.2977],[112.8915,40.3166],[112.8899,40.3263],[112.9043,40.3316],[112.9756,40.3517],[112.9751,40.3624],[112.9639,40.3848],[112.9596,40.3989],[112.9652,40.4084],[112.955,40.427],[112.9393,40.4299],[112.9187,40.4401],[112.9167,40.456],[112.9117,40.4614],[112.9287,40.4825],[112.95,40.4874],[112.9779,40.4838],[112.995,40.5004],[112.9936,40.5157],[112.9873,40.5249],[112.9869,40.5394],[113.0027,40.5518],[113.0187,40.5507],[113.0159,40.5631],[112.9865,40.5651],[112.9688,40.5765],[112.954,40.5958],[112.9345,40.5956],[112.925,40.6053],[112.8996,40.6019],[112.8863,40.6031],[112.8607,40.5977],[112.8092,40.6218],[112.8029,40.6313],[112.7963,40.6538],[112.8195,40.6492],[112.8278,40.6421],[112.8399,40.641],[112.826,40.6655],[112.8292,40.6746],[112.822,40.6909],[112.8243,40.702],[112.8399,40.7224],[112.8303,40.7332],[112.8362,40.7424],[112.82,40.7445],[112.8082,40.7367],[112.7922,40.7662],[112.7778,40.766],[112.7667,40.7716],[112.7515,40.7685],[112.7479,40.78],[112.73,40.7824],[112.7246,40.7664],[112.7332,40.7547],[112.7179,40.745],[112.722,40.7284],[112.7177,40.7173],[112.7083,40.7079],[112.6898,40.7066],[112.6646,40.7146],[112.6532,40.7079],[112.6493,40.695],[112.6378,40.6961],[112.6224,40.6893],[112.6105,40.6904],[112.5991,40.6978],[112.5839,40.6903],[112.5791,40.6763],[112.5457,40.6721],[112.5459,40.6621],[112.5345,40.6526],[112.5018,40.6627],[112.4949,40.6436],[112.4847,40.6448],[112.4731,40.6588],[112.4716,40.6692],[112.4572,40.675],[112.4336,40.676],[112.4175,40.6814],[112.407,40.6809],[112.3958,40.6732],[112.3807,40.6795],[112.3557,40.6987],[112.3474,40.7241],[112.3387,40.7271],[112.335,40.7364],[112.3091,40.7492],[112.2971,40.7485],[112.2918,40.7574],[112.3031,40.7733],[112.2997,40.7877],[112.2843,40.7849],[112.284,40.7999],[112.2651,40.7928],[112.2401,40.7886],[112.2323,40.8019],[112.2339,40.8163],[112.2409,40.8203],[112.2361,40.8421],[112.2237,40.8437],[112.2126,40.8364],[112.209,40.8259],[112.1881,40.8185],[112.1745,40.8092]]]},"properties":{"region_code":"CN-15-1509-150925","parent_region_code":"CN-15-1509","name":"凉城县","level":"county","has_children":false,"full_path":"中国 / 内蒙古自治区 / 乌兰察布市 / 凉城县","source_admin_code":"150925","osm_relation_id":2752972}},
{"type":"Feature","geometry":{"type":"Polygon","coordinates":[[[113.0378,41.1706],[113.0236,41.1735],[113.009,41.1876],[112.9971,41.1834],[113.0034,41.1659],[112.9796,41.1737],[112.9699,41.1734],[112.9553,41.1532],[112.9378,41.1417],[112.9135,41.139],[112.8921,41.131],[112.8834,41.1192],[112.8758,41.1165],[112.8531,41.1183],[112.836,41.1102],[112.8232,41.1099],[112.8104,41.1034],[112.8067,41.0911],[112.81,41.0815],[112.8286,41.0595],[112.8724,41.0556],[112.8799,41.0489],[112.8755,41.028],[112.8709,41.0251],[112.8372,41.0187],[112.8221,41.0031],[112.8639,40.9953],[112.8888,40.987],[112.9153,40.9925],[112.9182,40.9854],[112.9333,40.9746],[112.9316,40.9612],[112.95,40.942],[112.9534,40.9281],[112.9417,40.9286],[112.9329,40.9227],[112.9192,40.9223],[112.9036,40.9166],[112.9091,40.9033],[112.922,40.8901],[112.9232,40.8726],[112.8922,40.8574],[112.8888,40.8499],[112.8865,40.8258],[112.9044,40.8036],[112.9152,40.8038],[112.9292,40.7966],[112.9352,40.788],[112.9468,40.7837],[112.9659,40.7713],[112.9975,40.7543],[113.0057,40.7367],[113.024,40.7273],[113.0371,40.7375],[113.0529,40.7413],[113.0609,40.7372],[113.07,40.717],[113.1011,40.7003],[113.1378,40.6862],[113.1569,40.6907],[113.1701,40.6862],[113.1774,40.7039],[113.1609,40.7242],[113.1761,40.7306],[113.1939,40.7229],[113.2007,40.7295],[113.2117,40.7289],[113.227,40.7352],[113.2471,40.7296],[113.2638,40.7164],[113.2758,40.7192],[113.3028,40.6992],[113.3157,40.7059],[113.3275,40.7175],[113.3407,40.7207],[113.354,40.7192],[113.3605,40.7276],[113.3546,40.7455],[113.3653,40.7523],[113.3748,40.7518],[113.3793,40.7677],[113.3894,40.7851],[113.408,40.7896],[113.4184,40.7838],[113.4348,40.7814],[113.4587,40.767],[113.4757,40.7644],[113.4955,40.7541],[113.5029,40.7627],[113.4977,40.777],[113.509,40.7917],[113.5247,40.791],[113.5305,40.8003],[113.527,40.8176],[113.4981,40.8355],[113.5063,40.8383],[113.5161,40.8548],[113.5348,40.849],[113.5513,40.8573],[113.5511,40.8752],[113.5542,40.8883],[113.5835,40.8992],[113.5545,40.9296],[113.5509,40.942],[113.5589,40.9474],[113.5622,40.9684],[113.5711,40.9723],[113.573,40.9838],[113.5818,40.9921],[113.5797,40.9996],[113.5926,41.0033],[113.6252,41.0238],[113.6343,41.0335],[113.6306,41.0438],[113.6106,41.0571],[113.6037,41.0791],[113.6106,41.083],[113.6125,41.0948],[113.6326,41.0949],[113.6432,41.0862],[113.663,41.0923],[113.6538,41.1106],[113.6392,41.1167],[113.6289,41.1165],[113.6076,41.1282],[113.5764,41.1282],[113.5708,41.1353],[113.575,41.1428],[113.6094,41.157],[113.6142,41.1654],[113.6027,41.172],[113.6,41.1793],[113.5862,41.179],[113.569,41.1698],[113.5662,41.189],[113.5539,41.2028],[113.5325,41.1975],[113.5295,41.205],[113.5138,41.204],[113.5006,41.194],[113.4756,41.2015],[113.4613,41.1988],[113.449,41.2072],[113.4312,41.2003],[113.4122,41.2015],[113.3996,41.1861],[113.3826,41.179],[113.3657,41.1677],[113.3655,41.1581],[113.3557,41.1517],[113.3414,41.1542],[113.3261,41.1709],[113.3045,41.1748],[113.2842,41.1828],[113.271,41.1762],[113.2561,41.1761],[113.251,41.1699],[113.2439,41.1594],[113.2515,41.1504],[113.2488,41.1362],[113.2423,41.1314],[113.2382,41.0817],[113.2393,41.0666],[113.2525,41.0694],[113.3188,41.0695],[113.3219,41.008],[113.3157,40.9928],[113.3172,40.9823],[113.2902,40.9618],[113.2927,40.9451],[113.2701,40.9273],[113.2329,40.9394],[113.226,40.9658],[113.1913,40.9665],[113.1429,40.9645],[113.1199,40.9548],[113.1067,40.9562],[113.0974,40.9638],[113.1023,40.9709],[113.0897,40.9859],[113.0702,40.9902],[113.0637,40.9799],[113.0474,40.9792],[113.039,40.9878],[113.0218,40.9928],[113.0248,41.0111],[113.0407,41.0218],[113.0421,41.0348],[113.0328,41.0535],[113.0692,41.0627],[113.0714,41.0722],[113.0844,41.0786],[113.0728,41.1082],[113.0693,41.128],[113.0568,41.1283],[113.0492,41.1374],[113.0393,41.1362],[113.0354,41.1457],[113.043,41.1548],[113.0378,41.1706]]]},"properties":{"region_code":"CN-15-1509-150926","parent_region_code":"CN-15-1509","name":"察哈尔右翼前旗","level":"county","has_children":false,"full_path":"中国 / 内蒙古自治区 / 乌兰察布市 / 察哈尔右翼前旗","source_admin_code":"150926","osm_relation_id":2103639}},
{"type":"Feature","geometry":{"type":"Polygon","coordinates":[[[112.7202,41.1439],[112.702,41.1801],[112.7226,41.1981],[112.7298,41.1953],[112.7424,41.2072],[112.7445,41.218],[112.7622,41.2246],[112.775,41.234],[112.7775,41.2469],[112.7929,41.2541],[112.8019,41.2696],[112.8012,41.2832],[112.8154,41.2937],[112.815,41.3137],[112.8305,41.3198],[112.8389,41.3413],[112.8348,41.3577],[112.8277,41.3641],[112.8386,41.384],[112.8307,41.3929],[112.8555,41.413],[112.8542,41.4331],[112.8425,41.4618],[112.8253,41.4889],[112.8224,41.4981],[112.8051,41.5202],[112.7864,41.5304],[112.779,41.5449],[112.7791,41.5695],[112.7664,41.5941],[112.7692,41.6313],[112.7672,41.6451],[112.7676,41.6814],[112.763,41.7],[112.764,41.7089],[112.7868,41.7318],[112.7918,41.7416],[112.7914,41.7724],[112.782,41.7954],[112.7798,41.819],[112.7653,41.8184],[112.7523,41.8224],[112.7239,41.8253],[112.7018,41.824],[112.6589,41.8158],[112.5955,41.7925],[112.5545,41.7979],[112.5246,41.7903],[112.5151,41.7766],[112.4903,41.7593],[112.4576,41.7307],[112.4553,41.7173],[112.4594,41.7044],[112.4565,41.6933],[112.4389,41.6746],[112.4305,41.6609],[112.4248,41.6438],[112.4057,41.6384],[112.3988,41.6472],[112.3692,41.6519],[112.3453,41.673],[112.3313,41.6768],[112.312,41.6766],[112.2861,41.6813],[112.2753,41.675],[112.254,41.6798],[112.2417,41.6685],[112.2328,41.6685],[112.2139,41.6766],[112.2038,41.6761],[112.1759,41.6616],[112.1477,41.653],[112.1477,41.6434],[112.1708,41.628],[112.1627,41.6116],[112.1303,41.6039],[112.1356,41.5794],[112.1221,41.5644],[112.1177,41.5443],[112.0954,41.537],[112.0877,41.5309],[112.0864,41.5199],[112.1023,41.4721],[112.1116,41.4595],[112.1155,41.4366],[112.1084,41.4293],[112.0779,41.428],[112.0669,41.4192],[112.0386,41.4158],[112.0328,41.4009],[112.0157,41.3955],[112.0014,41.4049],[111.9917,41.4031],[111.9657,41.3784],[111.9629,41.3602],[111.9531,41.3435],[111.9296,41.3312],[111.925,41.3232],[111.9331,41.2905],[111.9534,41.276],[111.9587,41.2618],[111.9811,41.2526],[111.9806,41.246],[112.0005,41.2402],[112.0117,41.2474],[112.0438,41.25],[112.0746,41.2366],[112.0763,41.2294],[112.116,41.244],[112.1252,41.2389],[112.1477,41.2368],[112.1542,41.2281],[112.1661,41.2264],[112.176,41.2146],[112.1877,41.2095],[112.1936,41.1995],[112.2079,41.1919],[112.2294,41.1846],[112.2422,41.1728],[112.252,41.1574],[112.2616,41.1598],[112.2758,41.1382],[112.2823,41.1405],[112.2935,41.1307],[112.3107,41.132],[112.3365,41.1381],[112.3602,41.1315],[112.3671,41.1176],[112.3795,41.1052],[112.3662,41.1047],[112.3536,41.0991],[112.3503,41.0749],[112.3465,41.0683],[112.3156,41.0727],[112.3225,41.0546],[112.3529,41.0543],[112.3779,41.0279],[112.3893,41.0251],[112.3983,41.0316],[112.4208,41.0276],[112.4281,41.0343],[112.4516,41.0374],[112.4697,41.0357],[112.4893,41.029],[112.5043,41.0191],[112.5183,41.021],[112.5443,41.0287],[112.5627,41.0245],[112.5947,41.0221],[112.6066,41.0369],[112.6089,41.0524],[112.6253,41.0649],[112.5986,41.0887],[112.5841,41.0934],[112.5901,41.1021],[112.5813,41.1148],[112.5915,41.1278],[112.6064,41.1231],[112.6122,41.1162],[112.635,41.1127],[112.6666,41.121],[112.6977,41.1371],[112.7019,41.1508],[112.7139,41.1515],[112.7202,41.1439]]]},"properties":{"region_code":"CN-15-1509-150927","parent_region_code":"CN-15-1509","name":"察哈尔右翼中旗","level":"county","has_children":false,"full_path":"中国 / 内蒙古自治区 / 乌兰察布市 / 察哈尔右翼中旗","source_admin_code":"150927","osm_relation_id":2752969}},
{"type":"Feature","geometry":{"type":"Polygon","coordinates":[[[113.251,41.1699],[113.2561,41.1761],[113.271,41.1762],[113.2842,41.1828],[113.3045,41.1748],[113.3261,41.1709],[113.3414,41.1542],[113.3557,41.1517],[113.3655,41.1581],[113.3657,41.1677],[113.3826,41.179],[113.3996,41.1861],[113.4122,41.2015],[113.4059,41.2191],[113.4155,41.2231],[113.4058,41.2504],[113.389,41.2647],[113.3511,41.2722],[113.3585,41.2837],[113.3585,41.2951],[113.3815,41.3108],[113.3863,41.3308],[113.399,41.3369],[113.4144,41.3498],[113.4354,41.3788],[113.469,41.392],[113.4597,41.4002],[113.4763,41.4179],[113.453,41.4214],[113.4519,41.4292],[113.4613,41.4349],[113.462,41.4483],[113.4383,41.4561],[113.4134,41.4517],[113.3927,41.4605],[113.3767,41.4485],[113.3908,41.4436],[113.42,41.4396],[113.4259,41.4276],[113.3815,41.4117],[113.3756,41.4206],[113.3492,41.4201],[113.3309,41.408],[113.3095,41.4045],[113.2947,41.4104],[113.307,41.4253],[113.3297,41.4336],[113.3486,41.4273],[113.3676,41.4433],[113.3436,41.4641],[113.3288,41.4606],[113.3309,41.4524],[113.3161,41.4527],[113.3045,41.4619],[113.2948,41.4757],[113.3305,41.475],[113.3457,41.4778],[113.3937,41.4806],[113.4162,41.4709],[113.4332,41.4665],[113.4431,41.4599],[113.4579,41.4597],[113.4651,41.4684],[113.4815,41.4779],[113.5121,41.4879],[113.5074,41.5018],[113.4995,41.512],[113.4793,41.5138],[113.4609,41.5041],[113.4644,41.4936],[113.4443,41.4859],[113.4293,41.5106],[113.4377,41.5351],[113.4248,41.546],[113.4247,41.5267],[113.4078,41.5213],[113.4037,41.5533],[113.4088,41.5574],[113.3969,41.5739],[113.4036,41.5845],[113.3947,41.6052],[113.3879,41.6077],[113.3627,41.6055],[113.3676,41.5924],[113.3543,41.587],[113.3574,41.5745],[113.389,41.5547],[113.395,41.5481],[113.3719,41.5391],[113.3762,41.5318],[113.3308,41.5341],[113.3225,41.5437],[113.308,41.5461],[113.2995,41.5566],[113.3008,41.5659],[113.2722,41.5624],[113.2452,41.5887],[113.2498,41.5927],[113.2494,41.6129],[113.2369,41.6334],[113.242,41.653],[113.2199,41.6557],[113.2182,41.6775],[113.2372,41.6805],[113.2286,41.6907],[113.2293,41.6997],[113.2563,41.7022],[113.2501,41.7272],[113.2393,41.736],[113.2184,41.7419],[113.2117,41.751],[113.1877,41.7522],[113.1652,41.7587],[113.1581,41.7713],[113.1514,41.7924],[113.1869,41.8221],[113.2009,41.8226],[113.1988,41.8358],[113.1866,41.8354],[113.1582,41.8433],[113.1465,41.8579],[113.1252,41.8661],[113.1323,41.8767],[113.1449,41.8802],[113.1557,41.892],[113.1785,41.8898],[113.18,41.8814],[113.2054,41.8809],[113.2426,41.8843],[113.2574,41.8907],[113.253,41.8969],[113.226,41.9032],[113.2074,41.9103],[113.2085,41.9331],[113.2158,41.9457],[113.1967,41.959],[113.1774,41.9692],[113.1571,41.9881],[113.1413,41.9764],[113.1441,41.9645],[113.1629,41.9621],[113.1647,41.9481],[113.1563,41.942],[113.1341,41.9408],[113.1198,41.9519],[113.1083,41.9438],[113.079,41.9307],[113.0715,41.9322],[113.0525,41.9574],[113.0514,41.97],[113.0351,41.9838],[112.995,41.9866],[112.983,41.9858],[112.9627,41.9662],[112.9156,41.9504],[112.8796,41.9412],[112.8604,41.9276],[112.859,41.922],[112.8263,41.9243],[112.8225,41.909],[112.8134,41.9121],[112.8012,41.8956],[112.7738,41.8919],[112.7696,41.8459],[112.7798,41.819],[112.782,41.7954],[112.7914,41.7724],[112.7918,41.7416],[112.7868,41.7318],[112.764,41.7089],[112.763,41.7],[112.7676,41.6814],[112.7672,41.6451],[112.7692,41.6313],[112.7664,41.5941],[112.7791,41.5695],[112.779,41.5449],[112.7864,41.5304],[112.8051,41.5202],[112.8224,41.4981],[112.8253,41.4889],[112.8425,41.4618],[112.8542,41.4331],[112.8555,41.413],[112.8307,41.3929],[112.8386,41.384],[112.8277,41.3641],[112.8348,41.3577],[112.8389,41.3413],[112.8305,41.3198],[112.815,41.3137],[112.8154,41.2937],[112.8012,41.2832],[112.8019,41.2696],[112.7929,41.2541],[112.7775,41.2469],[112.775,41.234],[112.7622,41.2246],[112.7445,41.218],[112.7424,41.2072],[112.7298,41.1953],[112.7226,41.1981],[112.702,41.1801],[112.7202,41.1439],[112.7346,41.1193],[112.7339,41.1075],[112.7276,41.1013],[112.7417,41.0782],[112.746,41.0662],[112.764,41.0793],[112.763,41.0894],[112.7815,41.1056],[112.8014,41.1088],[112.8104,41.1034],[112.8232,41.1099],[112.836,41.1102],[112.8531,41.1183],[112.8758,41.1165],[112.8834,41.1192],[112.8921,41.131],[112.9135,41.139],[112.9378,41.1417],[112.9553,41.1532],[112.9699,41.1734],[112.9796,41.1737],[113.0034,41.1659],[112.9971,41.1834],[113.009,41.1876],[113.0236,41.1735],[113.0378,41.1706],[113.0527,41.1579],[113.0619,41.1635],[113.0624,41.1735],[113.0893,41.1835],[113.1045,41.2119],[113.1138,41.2198],[113.1322,41.2169],[113.1578,41.206],[113.182,41.203],[113.1996,41.1904],[113.2284,41.1741],[113.251,41.1699]]]},"properties":{"region_code":"CN-15-1509-150928","parent_region_code":"CN-15-1509","name":"察哈尔右翼后旗","level":"county","has_children":false,"full_path":"中国 / 内蒙古自治区 / 乌兰察布市 / 察哈尔右翼后旗","source_admin_code":"150928","osm_relation_id":2752968}},
{"type":"Feature","geometry":{"type":"Polygon","coordinates":[[[111.9587,41.2618],[111.9534,41.276],[111.9331,41.2905],[111.925,41.3232],[111.9296,41.3312],[111.9531,41.3435],[111.9629,41.3602],[111.9657,41.3784],[111.9917,41.4031],[112.0014,41.4049],[112.0157,41.3955],[112.0328,41.4009],[112.0386,41.4158],[112.0669,41.4192],[112.0779,41.428],[112.1084,41.4293],[112.1155,41.4366],[112.1116,41.4595],[112.1023,41.4721],[112.0864,41.5199],[112.0877,41.5309],[112.0954,41.537],[112.1177,41.5443],[112.1221,41.5644],[112.1356,41.5794],[112.1303,41.6039],[112.1627,41.6116],[112.1708,41.628],[112.1477,41.6434],[112.1477,41.653],[112.1759,41.6616],[112.2038,41.6761],[112.2139,41.6766],[112.2328,41.6685],[112.2417,41.6685],[112.254,41.6798],[112.2753,41.675],[112.2861,41.6813],[112.312,41.6766],[112.3313,41.6768],[112.3453,41.673],[112.3692,41.6519],[112.3988,41.6472],[112.4057,41.6384],[112.4248,41.6438],[112.4305,41.6609],[112.4389,41.6746],[112.4565,41.6933],[112.4594,41.7044],[112.4553,41.7173],[112.4576,41.7307],[112.4903,41.7593],[112.5151,41.7766],[112.5246,41.7903],[112.5545,41.7979],[112.5955,41.7925],[112.6589,41.8158],[112.7018,41.824],[112.7239,41.8253],[112.7523,41.8224],[112.7653,41.8184],[112.7798,41.819],[112.7696,41.8459],[112.7738,41.8919],[112.8012,41.8956],[112.8134,41.9121],[112.8225,41.909],[112.8263,41.9243],[112.859,41.922],[112.8604,41.9276],[112.8796,41.9412],[112.9156,41.9504],[112.9627,41.9662],[112.983,41.9858],[112.995,41.9866],[112.9535,41.9972],[112.935,42.0246],[112.9306,42.0354],[112.9162,42.0525],[112.9041,42.0811],[112.8945,42.0952],[112.8477,42.1267],[112.8315,42.1342],[112.8014,42.1392],[112.7624,42.1421],[112.7374,42.1608],[112.7057,42.1759],[112.7039,42.1817],[112.7163,42.206],[112.7169,42.2264],[112.7222,42.2437],[112.7149,42.2568],[112.6917,42.2688],[112.6686,42.2944],[112.6682,42.3077],[112.6571,42.3262],[112.6356,42.3378],[112.6173,42.351],[112.6061,42.3678],[112.6104,42.3844],[112.6043,42.392],[112.5668,42.4071],[112.5467,42.4091],[112.5176,42.4038],[112.4472,42.3816],[112.411,42.3838],[112.386,42.3821],[112.364,42.3774],[112.3541,42.3782],[112.3313,42.3883],[112.2943,42.3965],[112.2839,42.4064],[112.2847,42.4237],[112.2712,42.4357],[112.261,42.4382],[112.2382,42.4514],[112.2152,42.472],[112.2019,42.4757],[112.1576,42.4699],[112.1452,42.472],[112.124,42.4917],[112.1209,42.5317],[112.1157,42.5487],[112.1087,42.559],[112.063,42.5947],[112.0098,42.6104],[112.0011,42.6179],[111.9997,42.6435],[111.991,42.6543],[111.9727,42.6562],[111.9666,42.666],[111.9517,42.679],[111.9379,42.7101],[111.9079,42.7518],[111.9039,42.7717],[111.8986,42.7806],[111.8816,42.7973],[111.8506,42.8437],[111.8494,42.8695],[111.8594,42.8885],[111.8585,42.8953],[111.8364,42.9138],[111.8181,42.9408],[111.8119,42.9461],[111.7897,42.9543],[111.7698,42.9675],[111.7433,42.9924],[111.7252,42.9904],[111.6974,42.9958],[111.675,43.0123],[111.64,43.0307],[111.6147,43.0533],[111.5877,43.1113],[111.5864,43.1344],[111.5814,43.1403],[111.5407,43.153],[111.5241,43.1649],[111.5084,43.1833],[111.4977,43.1915],[111.4871,43.1927],[111.4558,43.1896],[111.4082,43.1901],[111.3778,43.1962],[111.342,43.2255],[111.3294,43.231],[111.2877,43.2418],[111.2704,43.2533],[111.2491,43.285],[111.2267,43.3105],[111.2046,43.3305],[111.1913,43.3482],[111.156,43.377],[111.1001,43.3608],[111.0854,43.3591],[111.0297,43.3322],[111.0061,43.322],[110.9633,43.2857],[110.8487,43.1773],[110.806,43.1377],[110.7666,43.099],[110.7294,43.0834],[110.682,43.0353],[110.684,43.017],[110.6551,42.9773],[110.6293,42.9393],[110.6155,42.928],[110.4641,42.8326],[110.4362,42.7819],[110.4222,42.7718],[110.3605,42.7473],[110.338,42.7354],[110.3765,42.7109],[110.4099,42.7004],[110.4423,42.6978],[110.4699,42.6855],[110.4822,42.6756],[110.4924,42.6419],[110.5016,42.6303],[110.5319,42.6046],[110.5482,42.595],[110.616,42.5474],[110.6711,42.516],[110.6988,42.4879],[110.7095,42.4512],[110.7159,42.4362],[110.728,42.3949],[110.7458,42.361],[110.7464,42.3455],[110.7327,42.3136],[110.7356,42.3033],[110.7561,42.2923],[110.765,42.2803],[110.7717,42.2602],[110.7733,42.2358],[110.784,42.2164],[110.7892,42.1718],[110.7953,42.159],[110.807,42.1506],[110.839,42.119],[110.8706,42.0817],[110.9003,42.0377],[110.9181,42.0208],[110.9302,41.9959],[110.9413,41.9837],[110.9571,41.9508],[110.9723,41.9281],[110.9876,41.9139],[110.9919,41.8988],[111.0085,41.874],[111.0151,41.8523],[111.0353,41.8241],[111.0503,41.8087],[111.0602,41.7908],[111.0721,41.7875],[111.0782,41.7619],[111.1032,41.7474],[111.1215,41.748],[111.1473,41.7415],[111.1556,41.7366],[111.1527,41.7183],[111.1549,41.7041],[111.1868,41.689],[111.1985,41.6858],[111.2293,41.6869],[111.2662,41.6606],[111.2864,41.6577],[111.2969,41.6438],[111.3097,41.6413],[111.3421,41.6447],[111.3525,41.6413],[111.3691,41.623],[111.3716,41.6057],[111.3866,41.5888],[111.398,41.5658],[111.4247,41.5393],[111.4302,41.5284],[111.4303,41.506],[111.4331,41.4916],[111.4339,41.4644],[111.4363,41.4594],[111.429,41.4347],[111.4199,41.4296],[111.4234,41.4147],[111.4124,41.4007],[111.3926,41.3946],[111.3779,41.3778],[111.3902,41.3584],[111.4133,41.3484],[111.4179,41.3377],[111.4168,41.3196],[111.4453,41.3284],[111.4615,41.3223],[111.4827,41.331],[111.4983,41.3261],[111.5146,41.3334],[111.5286,41.3323],[111.535,41.3159],[111.5424,41.3138],[111.5594,41.3198],[111.5755,41.305],[111.6114,41.3057],[111.6436,41.3042],[111.704,41.31],[111.7223,41.3045],[111.7244,41.2912],[111.7314,41.2871],[111.7469,41.2892],[111.7593,41.2858],[111.7716,41.2765],[111.7803,41.2628],[111.7888,41.2583],[111.824,41.2594],[111.8273,41.2492],[111.8194,41.2256],[111.8218,41.2137],[111.8312,41.2142],[111.8433,41.2222],[111.853,41.2168],[111.8726,41.2245],[111.8898,41.2164],[111.902,41.1946],[111.9151,41.1932],[111.9231,41.2025],[111.9237,41.2119],[111.9174,41.2263],[111.9274,41.2546],[111.9516,41.2574],[111.9587,41.2618]]]},"properties":{"region_code":"CN-15-1509-150929","parent_region_code":"CN-15-1509","name":"四子王旗","level":"county","has_children":false,"full_path":"中国 / 内蒙古自治区 / 乌兰察布市 / 四子王旗","source_admin_code":"150929","osm_relation_id":2752974}},
{"type":"Feature","geometry":{"type":"Polygon","coordinates":[[[112.8362,40.7424],[112.8303,40.7332],[112.8399,40.7224],[112.8243,40.702],[112.822,40.6909],[112.8292,40.6746],[112.826,40.6655],[112.8399,40.641],[112.8278,40.6421],[112.8195,40.6492],[112.7963,40.6538],[112.8029,40.6313],[112.8092,40.6218],[112.8607,40.5977],[112.8863,40.6031],[112.8996,40.6019],[112.925,40.6053],[112.9345,40.5956],[112.954,40.5958],[112.9688,40.5765],[112.9865,40.5651],[113.0159,40.5631],[113.0187,40.5507],[113.0027,40.5518],[112.9869,40.5394],[112.9873,40.5249],[112.9936,40.5157],[112.995,40.5004],[112.9779,40.4838],[112.95,40.4874],[112.9287,40.4825],[112.9117,40.4614],[112.9167,40.456],[112.9187,40.4401],[112.9393,40.4299],[112.955,40.427],[112.9652,40.4084],[112.9596,40.3989],[112.9639,40.3848],[112.9751,40.3624],[112.9756,40.3517],[112.9914,40.3544],[113.0225,40.3641],[113.1197,40.3756],[113.1355,40.3836],[113.1736,40.3932],[113.2246,40.4012],[113.2506,40.4144],[113.2519,40.3995],[113.2702,40.386],[113.2842,40.3638],[113.2916,40.3405],[113.3093,40.3186],[113.3521,40.3169],[113.3577,40.3124],[113.4084,40.3196],[113.4342,40.3218],[113.4518,40.3262],[113.5079,40.3357],[113.5305,40.3334],[113.5675,40.3489],[113.573,40.3601],[113.5842,40.3708],[113.6147,40.389],[113.6307,40.4065],[113.656,40.4153],[113.6657,40.4245],[113.6751,40.444],[113.6879,40.4447],[113.7297,40.4677],[113.7508,40.4686],[113.7649,40.4867],[113.7774,40.4916],[113.7875,40.518],[113.7831,40.5281],[113.7888,40.5462],[113.7735,40.5477],[113.7683,40.5551],[113.7643,40.58],[113.7332,40.6084],[113.7228,40.6201],[113.7143,40.6169],[113.6836,40.6141],[113.671,40.6312],[113.6243,40.6468],[113.615,40.6418],[113.5859,40.6474],[113.5717,40.6585],[113.5217,40.6661],[113.5062,40.6917],[113.5058,40.7013],[113.4941,40.7039],[113.4878,40.723],[113.4903,40.7475],[113.4955,40.7541],[113.4757,40.7644],[113.4587,40.767],[113.4348,40.7814],[113.4184,40.7838],[113.408,40.7896],[113.3894,40.7851],[113.3793,40.7677],[113.3748,40.7518],[113.3653,40.7523],[113.3546,40.7455],[113.3605,40.7276],[113.354,40.7192],[113.3407,40.7207],[113.3275,40.7175],[113.3157,40.7059],[113.3028,40.6992],[113.2758,40.7192],[113.2638,40.7164],[113.2471,40.7296],[113.227,40.7352],[113.2117,40.7289],[113.2007,40.7295],[113.1939,40.7229],[113.1761,40.7306],[113.1609,40.7242],[113.1774,40.7039],[113.1701,40.6862],[113.1569,40.6907],[113.1378,40.6862],[113.1011,40.7003],[113.07,40.717],[113.0609,40.7372],[113.0529,40.7413],[113.0371,40.7375],[113.024,40.7273],[113.0057,40.7367],[112.9975,40.7543],[112.9659,40.7713],[112.9468,40.7837],[112.9352,40.788],[112.9292,40.7966],[112.9152,40.8038],[112.9044,40.8036],[112.8946,40.8003],[112.8945,40.7879],[112.8846,40.7716],[112.901,40.7576],[112.8796,40.759],[112.8739,40.7695],[112.8624,40.7689],[112.8528,40.7515],[112.8362,40.7424]]]},"properties":{"region_code":"CN-15-1509-150981","parent_region_code":"CN-15-1509","name":"丰镇市","level":"county","has_children":false,"full_path":"中国 / 内蒙古自治区 / 乌兰察布市 / 丰镇市","source_admin_code":"150981","osm_relation_id":2752970}}
]}