{"type":"FeatureCollection", "features": [
{"type":"Feature","geometry":{"type":"Polygon","coordinates":[[[116.8609,39.1551],[116.8574,39.2005],[116.8499,39.2149],[116.8658,39.2169],[116.873,39.2544],[116.8667,39.2902],[116.8621,39.3015],[116.8784,39.3043],[116.8838,39.3215],[116.8838,39.3371],[116.87,39.3383],[116.8545,39.3532],[116.8433,39.3386],[116.8234,39.3379],[116.8193,39.3525],[116.8351,39.3803],[116.8278,39.3979],[116.832,39.4093],[116.8649,39.4261],[116.8494,39.4422],[116.8265,39.4343],[116.8097,39.4506],[116.7982,39.4459],[116.7796,39.4661],[116.7632,39.4659],[116.7619,39.4778],[116.7024,39.5097],[116.6361,39.5481],[116.6074,39.5365],[116.6101,39.5228],[116.6285,39.5227],[116.6291,39.5127],[116.6457,39.5135],[116.6572,39.5026],[116.6524,39.4902],[116.637,39.4995],[116.6213,39.5028],[116.61,39.499],[116.6117,39.4856],[116.5908,39.4719],[116.596,39.4585],[116.6126,39.4373],[116.6391,39.4342],[116.639,39.4202],[116.6601,39.3995],[116.6768,39.3897],[116.6697,39.3772],[116.6728,39.3496],[116.6841,39.3335],[116.6856,39.302],[116.6764,39.2663],[116.6787,39.2528],[116.6883,39.2447],[116.6867,39.2338],[116.7152,39.2318],[116.7198,39.2247],[116.7435,39.2246],[116.7383,39.188],[116.7281,39.184],[116.7343,39.1713],[116.7602,39.1606],[116.7612,39.1559],[116.7984,39.1467],[116.8126,39.157],[116.8193,39.149],[116.8609,39.1551]]]},"properties":{"region_code":"CN-13-1310-131002","parent_region_code":"CN-13-1310","name":"安次区","level":"county","has_children":false,"full_path":"中国 / 河北省 / 廊坊市 / 安次区","source_admin_code":"131002","osm_relation_id":2989319}},
{"type":"Feature","geometry":{"type":"Polygon","coordinates":[[[116.7796,39.4661],[116.7827,39.4709],[116.8152,39.4813],[116.8081,39.5093],[116.8198,39.5113],[116.8161,39.5334],[116.8003,39.5279],[116.7811,39.5508],[116.791,39.5669],[116.8057,39.576],[116.794,39.5854],[116.7939,39.603],[116.772,39.5921],[116.7682,39.6043],[116.7477,39.6171],[116.732,39.6142],[116.7195,39.6229],[116.7041,39.6168],[116.6988,39.6081],[116.7211,39.5918],[116.6991,39.5867],[116.688,39.6004],[116.6595,39.6045],[116.6409,39.5983],[116.6146,39.6008],[116.611,39.6132],[116.5734,39.6225],[116.5602,39.6152],[116.5608,39.6034],[116.5347,39.5934],[116.5186,39.5956],[116.5135,39.5654],[116.502,39.559],[116.5026,39.5499],[116.4669,39.5518],[116.4731,39.5376],[116.4584,39.5265],[116.4305,39.525],[116.4377,39.5084],[116.4185,39.5084],[116.4153,39.5239],[116.3964,39.5256],[116.3964,39.5131],[116.4126,39.505],[116.4063,39.4805],[116.4381,39.481],[116.4487,39.452],[116.4567,39.452],[116.4858,39.454],[116.486,39.4694],[116.5281,39.4678],[116.5549,39.4764],[116.5769,39.46],[116.596,39.4585],[116.5908,39.4719],[116.6117,39.4856],[116.61,39.499],[116.6213,39.5028],[116.637,39.4995],[116.6524,39.4902],[116.6572,39.5026],[116.6457,39.5135],[116.6291,39.5127],[116.6285,39.5227],[116.6101,39.5228],[116.6074,39.5365],[116.6361,39.5481],[116.7024,39.5097],[116.7619,39.4778],[116.7632,39.4659],[116.7796,39.4661]]]},"properties":{"region_code":"CN-13-1310-131003","parent_region_code":"CN-13-1310","name":"广阳区","level":"county","has_children":false,"full_path":"中国 / 河北省 / 廊坊市 / 广阳区","source_admin_code":"131003","osm_relation_id":2989324}},
{"type":"Feature","geometry":{"type":"Polygon","coordinates":[[[116.4487,39.452],[116.4309,39.4447],[116.4028,39.4491],[116.3616,39.4505],[116.3317,39.4545],[116.3139,39.4672],[116.3004,39.4876],[116.2731,39.4902],[116.2517,39.4993],[116.2386,39.5162],[116.1982,39.5093],[116.1978,39.5018],[116.1747,39.4953],[116.1653,39.4773],[116.1452,39.47],[116.1375,39.4488],[116.1263,39.43],[116.1235,39.3898],[116.1126,39.3783],[116.1115,39.3635],[116.1231,39.3558],[116.1419,39.3525],[116.1897,39.3544],[116.2029,39.3133],[116.1984,39.3002],[116.1985,39.2623],[116.1925,39.2444],[116.1833,39.2398],[116.1829,39.2201],[116.1778,39.2124],[116.2044,39.2057],[116.1982,39.1669],[116.2147,39.1494],[116.2559,39.138],[116.2582,39.1321],[116.2827,39.1372],[116.2922,39.1439],[116.2924,39.1645],[116.2871,39.1818],[116.2983,39.1887],[116.3279,39.1914],[116.3293,39.2001],[116.3438,39.2078],[116.3487,39.2186],[116.3659,39.2096],[116.3778,39.2136],[116.371,39.2373],[116.3794,39.2494],[116.3843,39.2827],[116.3923,39.287],[116.3923,39.3049],[116.3766,39.3067],[116.3733,39.3163],[116.3756,39.3345],[116.3953,39.3365],[116.4055,39.3425],[116.4045,39.3541],[116.4235,39.3547],[116.4337,39.3758],[116.4572,39.3801],[116.4704,39.3898],[116.4729,39.406],[116.4538,39.4098],[116.4567,39.452],[116.4487,39.452]]]},"properties":{"region_code":"CN-13-1310-131022","parent_region_code":"CN-13-1310","name":"固安县","level":"county","has_children":false,"full_path":"中国 / 河北省 / 廊坊市 / 固安县","source_admin_code":"131022","osm_relation_id":2989323}},
{"type":"Feature","geometry":{"type":"Polygon","coordinates":[[[116.596,39.4585],[116.5769,39.46],[116.5549,39.4764],[116.5281,39.4678],[116.486,39.4694],[116.4858,39.454],[116.4567,39.452],[116.4538,39.4098],[116.4729,39.406],[116.4704,39.3898],[116.4572,39.3801],[116.4337,39.3758],[116.4235,39.3547],[116.4045,39.3541],[116.4055,39.3425],[116.3953,39.3365],[116.3756,39.3345],[116.3733,39.3163],[116.3766,39.3067],[116.3923,39.3049],[116.3923,39.287],[116.3843,39.2827],[116.3794,39.2494],[116.371,39.2373],[116.3778,39.2136],[116.3874,39.2047],[116.4159,39.2045],[116.4353,39.1892],[116.4534,39.189],[116.4597,39.1995],[116.4747,39.1947],[116.4848,39.1731],[116.4942,39.1725],[116.5081,39.156],[116.5223,39.1496],[116.5254,39.1391],[116.5369,39.1336],[116.5615,39.1396],[116.5816,39.1294],[116.5956,39.1294],[116.59,39.1567],[116.5972,39.1629],[116.6615,39.1623],[116.6794,39.1654],[116.68,39.174],[116.719,39.1871],[116.7281,39.184],[116.7383,39.188],[116.7435,39.2246],[116.7198,39.2247],[116.7152,39.2318],[116.6867,39.2338],[116.6883,39.2447],[116.6787,39.2528],[116.6764,39.2663],[116.6856,39.302],[116.6841,39.3335],[116.6728,39.3496],[116.6697,39.3772],[116.6768,39.3897],[116.6601,39.3995],[116.639,39.4202],[116.6391,39.4342],[116.6126,39.4373],[116.596,39.4585]]]},"properties":{"region_code":"CN-13-1310-131023","parent_region_code":"CN-13-1310","name":"永清县","level":"county","has_children":false,"full_path":"中国 / 河北省 / 廊坊市 / 永清县","source_admin_code":"131023","osm_relation_id":2989328}},
{"type":"Feature","geometry":{"type":"Polygon","coordinates":[[[116.9115,39.8459],[116.92,39.8345],[116.9233,39.8108],[116.9325,39.7921],[116.9337,39.7803],[116.9154,39.7794],[116.915,39.768],[116.8956,39.7543],[116.9074,39.745],[116.9055,39.7305],[116.8816,39.7244],[116.8767,39.7175],[116.8875,39.6947],[116.897,39.6894],[116.911,39.6983],[116.911,39.7054],[116.9449,39.7058],[116.9372,39.6931],[116.9397,39.6697],[116.9576,39.6424],[116.9685,39.6357],[116.9982,39.6433],[117.0095,39.6528],[117.0507,39.6432],[117.0944,39.6283],[117.1194,39.6164],[117.1464,39.6223],[117.1515,39.6351],[117.1665,39.6352],[117.1715,39.6443],[117.1578,39.6504],[117.1527,39.6599],[117.1639,39.672],[117.1622,39.7069],[117.147,39.7214],[117.1475,39.7349],[117.1556,39.7467],[117.1786,39.7506],[117.1997,39.7625],[117.1744,39.7812],[117.1725,39.7941],[117.1514,39.7957],[117.1528,39.8206],[117.133,39.8257],[117.1106,39.8207],[117.0995,39.8086],[117.0703,39.8097],[117.0486,39.8138],[117.0434,39.8288],[117.0222,39.8272],[117.0137,39.8371],[116.9993,39.8411],[116.9874,39.8515],[116.9641,39.8417],[116.9489,39.8509],[116.9287,39.8547],[116.9115,39.8459]]]},"properties":{"region_code":"CN-13-1310-131024","parent_region_code":"CN-13-1310","name":"香河县","level":"county","has_children":false,"full_path":"中国 / 河北省 / 廊坊市 / 香河县","source_admin_code":"131024","osm_relation_id":2989327}},
{"type":"Feature","geometry":{"type":"Polygon","coordinates":[[[116.7172,38.8515],[116.6908,38.8489],[116.6821,38.8703],[116.6548,38.8718],[116.6445,38.8615],[116.6318,38.838],[116.6277,38.8122],[116.6023,38.8024],[116.6028,38.7931],[116.5913,38.7828],[116.5766,38.777],[116.5516,38.7743],[116.553,38.7504],[116.5222,38.7394],[116.4848,38.7444],[116.4641,38.7617],[116.4431,38.7522],[116.4256,38.7526],[116.4292,38.7355],[116.4187,38.7111],[116.4042,38.7127],[116.3894,38.6993],[116.373,38.695],[116.3678,38.6833],[116.3575,38.6847],[116.354,38.6563],[116.3855,38.6036],[116.4054,38.6039],[116.4229,38.5928],[116.4196,38.5863],[116.4486,38.5795],[116.442,38.5671],[116.4494,38.5573],[116.4262,38.5514],[116.4251,38.5386],[116.4506,38.5282],[116.4432,38.5128],[116.4588,38.5019],[116.4595,38.4935],[116.4785,38.4887],[116.5137,38.4875],[116.5324,38.495],[116.5537,38.4962],[116.5635,38.4704],[116.573,38.4691],[116.5837,38.4835],[116.6042,38.4782],[116.6217,38.5006],[116.6156,38.5139],[116.6415,38.5059],[116.6488,38.5184],[116.6625,38.5295],[116.6669,38.546],[116.6409,38.5526],[116.6377,38.5642],[116.6659,38.5659],[116.6565,38.5807],[116.6626,38.5922],[116.6745,38.5921],[116.6877,38.6142],[116.697,38.6185],[116.7092,38.6087],[116.7278,38.6133],[116.7374,38.6337],[116.7618,38.637],[116.7684,38.6635],[116.7593,38.682],[116.7566,38.7003],[116.7602,38.7383],[116.753,38.7541],[116.7396,38.7554],[116.7453,38.7794],[116.7316,38.7837],[116.7382,38.8046],[116.74,38.8506],[116.7172,38.8515]]]},"properties":{"region_code":"CN-13-1310-131025","parent_region_code":"CN-13-1310","name":"大城县","level":"county","has_children":false,"full_path":"中国 / 河北省 / 廊坊市 / 大城县","source_admin_code":"131025","osm_relation_id":2989322}},
{"type":"Feature","geometry":{"type":"Polygon","coordinates":[[[116.7172,38.8515],[116.7167,38.8964],[116.702,38.8962],[116.7024,38.931],[116.7104,38.9381],[116.7227,38.9745],[116.7344,38.98],[116.7446,38.9931],[116.7531,39.0203],[116.7453,39.0335],[116.7256,39.027],[116.6888,39.035],[116.681,39.0258],[116.681,39.0135],[116.6513,39.0121],[116.6462,39.0293],[116.6511,39.0394],[116.6256,39.0391],[116.608,39.0348],[116.6026,39.047],[116.5857,39.0467],[116.5881,39.0276],[116.6001,39.0238],[116.5895,39.0078],[116.5664,39.0034],[116.5601,39.0105],[116.5452,39.0091],[116.5372,39.0212],[116.5028,39.0196],[116.4893,39.037],[116.4587,39.0511],[116.4396,39.0423],[116.4193,39.0499],[116.4073,39.0419],[116.3784,39.0529],[116.3797,39.0406],[116.3592,39.042],[116.3355,39.0348],[116.3396,39.024],[116.3689,39.0306],[116.3641,39.0149],[116.3293,38.9831],[116.3082,38.9624],[116.29,38.9727],[116.2834,38.9594],[116.2845,38.9459],[116.2671,38.9417],[116.2503,38.932],[116.2369,38.9325],[116.2374,38.9485],[116.2215,38.9417],[116.221,38.9286],[116.2052,38.9253],[116.1964,38.9114],[116.2024,38.8742],[116.211,38.8654],[116.2384,38.8629],[116.2434,38.8452],[116.2729,38.8336],[116.2733,38.8182],[116.2854,38.8109],[116.3219,38.8046],[116.3239,38.8161],[116.343,38.8248],[116.3371,38.8011],[116.3548,38.7979],[116.3626,38.7916],[116.3792,38.7915],[116.3858,38.7828],[116.4062,38.7786],[116.4138,38.7635],[116.4256,38.7526],[116.4431,38.7522],[116.4641,38.7617],[116.4848,38.7444],[116.5222,38.7394],[116.553,38.7504],[116.5516,38.7743],[116.5766,38.777],[116.5913,38.7828],[116.6028,38.7931],[116.6023,38.8024],[116.6277,38.8122],[116.6318,38.838],[116.6445,38.8615],[116.6548,38.8718],[116.6821,38.8703],[116.6908,38.8489],[116.7172,38.8515]]]},"properties":{"region_code":"CN-13-1310-131026","parent_region_code":"CN-13-1310","name":"文安县","level":"county","has_children":false,"full_path":"中国 / 河北省 / 廊坊市 / 文安县","source_admin_code":"131026","osm_relation_id":2989326}},
{"type":"Feature","geometry":{"type":"Polygon","coordinates":[[[117.0434,39.8288],[117.0447,39.8417],[117.0562,39.8538],[117.0654,39.8709],[117.0379,39.8794],[117.0296,39.8917],[116.9899,39.9006],[116.9863,39.9143],[116.9769,39.9269],[116.9576,39.9268],[116.9565,39.9464],[116.9439,39.9752],[116.9104,39.9708],[116.9097,39.9824],[116.8775,39.977],[116.8707,39.9593],[116.8826,39.9599],[116.8935,39.9442],[116.8944,39.9343],[116.877,39.9281],[116.8785,39.9111],[116.8619,39.907],[116.8614,39.8931],[116.8434,39.8865],[116.8382,39.8933],[116.8063,39.8885],[116.8071,39.8802],[116.8211,39.8765],[116.8263,39.8686],[116.8495,39.8494],[116.866,39.841],[116.8777,39.8446],[116.8915,39.8316],[116.9018,39.833],[116.8971,39.8473],[116.9115,39.8459],[116.9287,39.8547],[116.9489,39.8509],[116.9641,39.8417],[116.9874,39.8515],[116.9993,39.8411],[117.0137,39.8371],[117.0222,39.8272],[117.0434,39.8288]]]},"properties":{"region_code":"CN-13-1310-131028","parent_region_code":"CN-13-1310","name":"大厂回族自治县","level":"county","has_children":false,"full_path":"中国 / 河北省 / 廊坊市 / 大厂回族自治县","source_admin_code":"131028","osm_relation_id":2989321}},
{"type":"Feature","geometry":{"type":"Polygon","coordinates":[[[116.7281,39.184],[116.719,39.1871],[116.68,39.174],[116.6794,39.1654],[116.6615,39.1623],[116.5972,39.1629],[116.59,39.1567],[116.5956,39.1294],[116.5816,39.1294],[116.5615,39.1396],[116.5369,39.1336],[116.5254,39.1391],[116.5223,39.1496],[116.5081,39.156],[116.4942,39.1725],[116.4848,39.1731],[116.4747,39.1947],[116.4597,39.1995],[116.4534,39.189],[116.4353,39.1892],[116.4159,39.2045],[116.3874,39.2047],[116.3778,39.2136],[116.3659,39.2096],[116.3487,39.2186],[116.3438,39.2078],[116.3293,39.2001],[116.3279,39.1914],[116.2983,39.1887],[116.2871,39.1818],[116.2924,39.1645],[116.2922,39.1439],[116.2827,39.1372],[116.2582,39.1321],[116.2574,39.1197],[116.2744,39.1162],[116.2713,39.1077],[116.297,39.1001],[116.2964,39.0906],[116.3137,39.0825],[116.3092,39.0642],[116.3129,39.0311],[116.2979,39.0306],[116.287,39.0057],[116.2996,38.9914],[116.3154,38.9973],[116.3293,38.9831],[116.3641,39.0149],[116.3689,39.0306],[116.3396,39.024],[116.3355,39.0348],[116.3592,39.042],[116.3797,39.0406],[116.3784,39.0529],[116.4073,39.0419],[116.4193,39.0499],[116.4396,39.0423],[116.4587,39.0511],[116.4893,39.037],[116.5028,39.0196],[116.5372,39.0212],[116.5452,39.0091],[116.5601,39.0105],[116.5664,39.0034],[116.5895,39.0078],[116.6001,39.0238],[116.5881,39.0276],[116.5857,39.0467],[116.6026,39.047],[116.608,39.0348],[116.6256,39.0391],[116.6511,39.0394],[116.6462,39.0293],[116.6513,39.0121],[116.681,39.0135],[116.681,39.0258],[116.6888,39.035],[116.7256,39.027],[116.7453,39.0335],[116.7506,39.0494],[116.7726,39.0482],[116.7882,39.053],[116.8025,39.0494],[116.8546,39.0498],[116.8658,39.0538],[116.864,39.0691],[116.8763,39.0707],[116.9053,39.1103],[116.918,39.1228],[116.9044,39.1497],[116.8876,39.154],[116.8609,39.1551],[116.8193,39.149],[116.8126,39.157],[116.7984,39.1467],[116.7612,39.1559],[116.7602,39.1606],[116.7343,39.1713],[116.7281,39.184]]]},"properties":{"region_code":"CN-13-1310-131081","parent_region_code":"CN-13-1310","name":"霸州市","level":"county","has_children":false,"full_path":"中国 / 河北省 / 廊坊市 / 霸州市","source_admin_code":"131081","osm_relation_id":2989320}},
{"type":"Feature","geometry":{"type":"Polygon","coordinates":[[[117.1528,39.8206],[117.1843,39.825],[117.1859,39.8317],[117.22,39.8296],[117.2457,39.8336],[117.2537,39.8427],[117.2397,39.8601],[117.2214,39.8517],[117.2051,39.8582],[117.1771,39.8629],[117.1484,39.8809],[117.1428,39.8948],[117.1487,39.9093],[117.1361,39.9174],[117.1505,39.9343],[117.144,39.943],[117.1731,39.9648],[117.172,39.976],[117.1846,39.9806],[117.1915,39.9915],[117.1911,40.0093],[117.1812,40.0245],[117.1821,40.046],[117.1752,40.0572],[117.1988,40.069],[117.1703,40.0698],[117.1542,40.0752],[117.1497,40.068],[117.1327,40.0626],[117.113,40.071],[117.0791,40.0737],[117.0632,40.0662],[117.045,40.0498],[117.0322,40.048],[117.0083,40.0295],[116.9805,40.0375],[116.9642,40.0355],[116.9544,40.0501],[116.9393,40.0404],[116.9329,40.05],[116.8749,40.0451],[116.8619,40.0408],[116.8519,40.0511],[116.8256,40.0499],[116.8168,40.0454],[116.8139,40.0272],[116.7718,40.0314],[116.7657,40.0077],[116.7694,39.9917],[116.752,39.9665],[116.7538,39.957],[116.7765,39.9464],[116.7788,39.8901],[116.7899,39.8796],[116.8063,39.8885],[116.8382,39.8933],[116.8434,39.8865],[116.8614,39.8931],[116.8619,39.907],[116.8785,39.9111],[116.877,39.9281],[116.8944,39.9343],[116.8935,39.9442],[116.8826,39.9599],[116.8707,39.9593],[116.8775,39.977],[116.9097,39.9824],[116.9104,39.9708],[116.9439,39.9752],[116.9565,39.9464],[116.9576,39.9268],[116.9769,39.9269],[116.9863,39.9143],[116.9899,39.9006],[117.0296,39.8917],[117.0379,39.8794],[117.0654,39.8709],[117.0562,39.8538],[117.0447,39.8417],[117.0434,39.8288],[117.0486,39.8138],[117.0703,39.8097],[117.0995,39.8086],[117.1106,39.8207],[117.133,39.8257],[117.1528,39.8206]]]},"properties":{"region_code":"CN-13-1310-131082","parent_region_code":"CN-13-1310","name":"三河市","level":"county","has_children":false,"full_path":"中国 / 河北省 / 廊坊市 / 三河市","source_admin_code":"131082","osm_relation_id":2989325}}
]}