{"type":"FeatureCollection", "features": [
{"type":"Feature","geometry":{"type":"Polygon","coordinates":[[[111.9676,43.7445],[111.9462,43.69],[111.8831,43.6722],[111.799,43.6696],[111.7416,43.628],[111.5729,43.4908],[111.5528,43.4871],[111.4534,43.4893],[111.4016,43.4764],[111.3449,43.4307],[111.3624,43.4163],[111.4227,43.3888],[111.5015,43.3665],[111.529,43.3779],[111.6023,43.3356],[111.6813,43.326],[111.7546,43.3066],[111.8329,43.3292],[111.929,43.2675],[111.9811,43.22],[111.9639,43.1452],[111.9716,43.1125],[111.9858,42.9619],[112.0408,42.983],[112.1563,43.0028],[112.3133,43.0832],[112.3497,43.0963],[112.4033,43.1594],[112.3536,43.2273],[112.3853,43.2383],[112.3707,43.3093],[112.3884,43.3763],[112.4368,43.5101],[112.4318,43.5945],[112.4157,43.6257],[112.4122,43.6609],[112.3862,43.6524],[112.3487,43.6791],[112.2782,43.6666],[112.2492,43.6687],[112.1425,43.7043],[112.1061,43.7303],[112.081,43.7634],[111.9676,43.7445]]]},"properties":{"region_code":"CN-15-1525-152501","parent_region_code":"CN-15-1525","name":"二连浩特市","level":"county","has_children":false,"full_path":"中国 / 内蒙古自治区 / 锡林郭勒盟 / 二连浩特市","source_admin_code":"152501","osm_relation_id":2753021}},
{"type":"Feature","geometry":{"type":"Polygon","coordinates":[[[116.4879,43.0516],[116.4295,43.0757],[116.4125,43.1019],[116.3498,43.1546],[116.3634,43.2411],[116.4074,43.2544],[116.4127,43.2902],[116.4298,43.3262],[116.5305,43.3734],[116.5995,43.4177],[116.5963,43.4422],[116.6157,43.5031],[116.6747,43.5147],[116.7282,43.5067],[116.7837,43.4818],[116.8244,43.5047],[116.7981,43.563],[116.8071,43.6106],[116.8322,43.6134],[116.8521,43.6553],[116.9263,43.6709],[116.9656,43.6715],[117.0473,43.751],[116.9943,43.7804],[116.9796,43.8383],[117.0066,43.8485],[116.9908,43.8742],[116.993,43.9103],[117.0249,43.9407],[117.015,43.9679],[116.9645,43.9864],[116.9443,43.9763],[116.8731,43.9633],[116.815,43.9963],[116.7689,44.0315],[116.7378,44.0643],[116.7279,44.1343],[116.7289,44.1644],[116.7116,44.1723],[116.6189,44.1676],[116.6059,44.1923],[116.6097,44.2468],[116.5388,44.2668],[116.4912,44.3239],[116.4713,44.3316],[116.368,44.315],[116.3315,44.3222],[116.3055,44.3527],[116.3098,44.3814],[116.3484,44.4188],[116.4609,44.479],[116.4925,44.4996],[116.5199,44.5293],[116.5027,44.5573],[116.499,44.587],[116.5281,44.6416],[116.5558,44.6646],[116.566,44.7018],[116.5666,44.7446],[116.5159,44.7609],[116.4936,44.8044],[116.4368,44.8434],[116.429,44.8653],[116.4033,44.8722],[116.2833,44.9371],[116.1751,44.8706],[116.0729,44.7928],[116.0328,44.7314],[116.0108,44.6817],[115.9404,44.674],[115.9065,44.6953],[115.8927,44.7332],[115.8212,44.7818],[115.769,44.8443],[115.7308,44.8779],[115.654,44.8503],[115.6124,44.821],[115.5594,44.8211],[115.5263,44.8083],[115.4986,44.7686],[115.4718,44.7531],[115.4814,44.7237],[115.4643,44.6668],[115.432,44.6299],[115.3931,44.6179],[115.3893,44.5888],[115.3557,44.5877],[115.3393,44.5726],[115.3466,44.5099],[115.3621,44.504],[115.4068,44.4205],[115.4279,44.4],[115.4559,44.3223],[115.4865,44.313],[115.4966,44.2861],[115.5519,44.2787],[115.5498,44.2452],[115.5318,44.2172],[115.5347,44.1971],[115.518,44.1705],[115.4718,44.1349],[115.4436,44.093],[115.4104,44.0973],[115.3471,44.0529],[115.3151,43.9919],[115.338,43.9499],[115.3379,43.9155],[115.4367,43.86],[115.4732,43.8524],[115.5779,43.7995],[115.669,43.7666],[115.7607,43.6964],[115.8306,43.6899],[115.8613,43.6515],[115.9046,43.6452],[115.9143,43.634],[115.9148,43.5933],[115.9331,43.5384],[115.9576,43.5151],[116.0046,43.4945],[116.0432,43.453],[116.0495,43.4209],[116.099,43.3618],[116.1057,43.3208],[116.1393,43.2182],[116.1298,43.1825],[116.0841,43.1079],[116.145,43.0912],[116.2148,43.0818],[116.2541,43.054],[116.2852,43.0452],[116.3292,43.0452],[116.4219,43.0307],[116.4879,43.0516]]]},"properties":{"region_code":"CN-15-1525-152502","parent_region_code":"CN-15-1525","name":"锡林浩特市","level":"county","has_children":false,"full_path":"中国 / 内蒙古自治区 / 锡林郭勒盟 / 锡林浩特市","source_admin_code":"152502","osm_relation_id":2753028}},
{"type":"Feature","geometry":{"type":"Polygon","coordinates":[[[115.7308,44.8779],[115.6873,44.903],[115.6119,44.9372],[115.6064,44.9495],[115.5483,44.9825],[115.5188,45.0079],[115.4191,45.0495],[115.3881,45.0696],[115.3412,45.1239],[115.3432,45.1673],[115.3166,45.2269],[115.2392,45.2695],[115.2334,45.3031],[115.2046,45.3206],[115.1982,45.3446],[115.1648,45.3962],[115.1122,45.3882],[114.9741,45.376],[114.9155,45.3817],[114.8618,45.4014],[114.7372,45.4373],[114.6797,45.4198],[114.5976,45.4052],[114.5411,45.3845],[114.5416,45.3471],[114.528,45.2927],[114.4562,45.2061],[114.4037,45.1655],[114.3847,45.1434],[114.2983,45.0999],[114.2164,45.0498],[114.177,45.0338],[114.1605,44.9956],[114.1334,44.9667],[114.0562,44.9256],[113.9068,44.9147],[113.8769,44.8801],[113.8447,44.862],[113.7763,44.839],[113.6806,44.7688],[113.6256,44.7424],[113.5378,44.757],[113.5059,44.772],[113.463,44.7759],[113.4551,44.7482],[113.4907,44.7306],[113.504,44.7016],[113.5128,44.6487],[113.5472,44.6149],[113.5628,44.5833],[113.6555,44.5624],[113.7137,44.5272],[113.7306,44.5022],[113.7592,44.4884],[113.7657,44.4582],[113.7915,44.441],[113.8161,44.3807],[113.8999,44.3128],[113.946,44.2692],[113.9817,44.2155],[114,44.2],[114.2,44],[114.2149,43.9825],[114.2066,43.9589],[114.2872,43.9159],[114.327,43.889],[114.3891,43.8069],[114.4278,43.7927],[114.445,43.7716],[114.4487,43.7369],[114.4801,43.7243],[114.5089,43.6653],[114.5047,43.6205],[114.5216,43.5982],[114.6363,43.5142],[114.6493,43.4807],[114.6752,43.4531],[114.736,43.4076],[114.7618,43.3657],[114.8087,43.343],[114.8564,43.2901],[114.9156,43.236],[114.9844,43.1838],[115.0417,43.15],[115.1102,43.126],[115.1818,43.0868],[115.2873,43.074],[115.3436,43.0903],[115.4468,43.1046],[115.4874,43.1056],[115.501,43.1185],[115.5809,43.1358],[115.6596,43.1077],[115.6783,43.0959],[115.7239,43.1175],[115.7783,43.1151],[115.807,43.0981],[115.8616,43.0939],[115.949,43.1069],[116.0068,43.1208],[116.0841,43.1079],[116.1298,43.1825],[116.1393,43.2182],[116.1057,43.3208],[116.099,43.3618],[116.0495,43.4209],[116.0432,43.453],[116.0046,43.4945],[115.9576,43.5151],[115.9331,43.5384],[115.9148,43.5933],[115.9143,43.634],[115.9046,43.6452],[115.8613,43.6515],[115.8306,43.6899],[115.7607,43.6964],[115.669,43.7666],[115.5779,43.7995],[115.4732,43.8524],[115.4367,43.86],[115.3379,43.9155],[115.338,43.9499],[115.3151,43.9919],[115.3471,44.0529],[115.4104,44.0973],[115.4436,44.093],[115.4718,44.1349],[115.518,44.1705],[115.5347,44.1971],[115.5318,44.2172],[115.5498,44.2452],[115.5519,44.2787],[115.4966,44.2861],[115.4865,44.313],[115.4559,44.3223],[115.4279,44.4],[115.4068,44.4205],[115.3621,44.504],[115.3466,44.5099],[115.3393,44.5726],[115.3557,44.5877],[115.3893,44.5888],[115.3931,44.6179],[115.432,44.6299],[115.4643,44.6668],[115.4814,44.7237],[115.4718,44.7531],[115.4986,44.7686],[115.5263,44.8083],[115.5594,44.8211],[115.6124,44.821],[115.654,44.8503],[115.7308,44.8779]]]},"properties":{"region_code":"CN-15-1525-152522","parent_region_code":"CN-15-1525","name":"阿巴嘎旗","level":"county","has_children":false,"full_path":"中国 / 内蒙古自治区 / 锡林郭勒盟 / 阿巴嘎旗","source_admin_code":"152522","osm_relation_id":2753017}},
{"type":"Feature","geometry":{"type":"Polygon","coordinates":[[[112.4122,43.6609],[112.4395,43.6731],[112.5087,43.6378],[112.5596,43.5998],[112.71,43.5895],[112.7619,43.5807],[112.8509,43.5424],[112.9601,43.5097],[112.9952,43.5175],[113.0339,43.545],[113.1644,43.5497],[113.1969,43.5391],[113.2479,43.5035],[113.2956,43.4983],[113.3425,43.474],[113.3857,43.4891],[113.4375,43.4859],[113.4738,43.5025],[113.5031,43.5019],[113.5199,43.4427],[113.5522,43.3549],[113.5742,43.3164],[113.6667,43.214],[113.7183,43.1727],[113.7534,43.155],[113.892,43.0291],[113.9666,42.9332],[114,42.8772],[114.0721,42.8397],[114.1154,42.8346],[114.1891,42.8144],[114.2235,42.7947],[114.264,42.7585],[114.3109,42.7622],[114.3556,42.7997],[114.4058,42.8246],[114.4588,42.8404],[114.5298,42.8437],[114.5806,42.8334],[114.6,42.8547],[114.6355,42.8598],[114.7232,42.8861],[114.7546,42.8821],[114.782,42.9113],[114.8228,42.9331],[114.8287,42.9562],[114.8972,42.9706],[114.9406,42.9901],[114.9855,43.0301],[115.0296,43.0483],[115.088,43.0609],[115.163,43.0752],[115.1818,43.0868],[115.1102,43.126],[115.0417,43.15],[114.9844,43.1838],[114.9156,43.236],[114.8564,43.2901],[114.8087,43.343],[114.7618,43.3657],[114.736,43.4076],[114.6752,43.4531],[114.6493,43.4807],[114.6363,43.5142],[114.5216,43.5982],[114.5047,43.6205],[114.5089,43.6653],[114.4801,43.7243],[114.4487,43.7369],[114.445,43.7716],[114.4278,43.7927],[114.3891,43.8069],[114.327,43.889],[114.2872,43.9159],[114.2066,43.9589],[114.2149,43.9825],[114.2,44],[114,44.2],[113.9817,44.2155],[113.946,44.2692],[113.8999,44.3128],[113.8161,44.3807],[113.7915,44.441],[113.7657,44.4582],[113.7592,44.4884],[113.7306,44.5022],[113.7137,44.5272],[113.6555,44.5624],[113.5628,44.5833],[113.5472,44.6149],[113.5128,44.6487],[113.504,44.7016],[113.4907,44.7306],[113.4551,44.7482],[113.463,44.7759],[113.3114,44.7824],[113.1276,44.7954],[113.0222,44.8231],[112.931,44.8395],[112.8635,44.8372],[112.7568,44.8626],[112.702,44.8809],[112.585,44.9361],[112.5188,45.0126],[112.4255,45.0742],[112.3743,45.0616],[112.1114,45.0716],[112.0523,45.0931],[112.0089,45.0918],[111.9627,45.0762],[111.874,45.038],[111.7695,44.9806],[111.7194,44.919],[111.7039,44.8916],[111.6049,44.7558],[111.5739,44.6982],[111.5534,44.6454],[111.5611,44.5713],[111.5238,44.5464],[111.5116,44.5126],[111.4637,44.4714],[111.4249,44.4009],[111.4093,44.3446],[111.4251,44.3175],[111.4894,44.2997],[111.5192,44.2709],[111.5192,44.249],[111.5392,44.1918],[111.6092,44.1062],[111.6543,44.062],[111.6931,44.0354],[111.7882,43.996],[111.8739,43.9322],[111.9546,43.8276],[111.9676,43.7445],[112.081,43.7634],[112.1061,43.7303],[112.1425,43.7043],[112.2492,43.6687],[112.2782,43.6666],[112.3487,43.6791],[112.3862,43.6524],[112.4122,43.6609]]]},"properties":{"region_code":"CN-15-1525-152523","parent_region_code":"CN-15-1525","name":"苏尼特左旗","level":"county","has_children":false,"full_path":"中国 / 内蒙古自治区 / 锡林郭勒盟 / 苏尼特左旗","source_admin_code":"152523","osm_relation_id":2753024}},
{"type":"Feature","geometry":{"type":"Polygon","coordinates":[[[111.3449,43.4307],[111.2768,43.4174],[111.164,43.3857],[111.156,43.377],[111.1913,43.3482],[111.2877,43.2418],[111.342,43.2255],[111.3778,43.1962],[111.4082,43.1901],[111.4977,43.1915],[111.5407,43.153],[111.5814,43.1403],[111.5877,43.1113],[111.6147,43.0533],[111.64,43.0307],[111.6974,42.9958],[111.7433,42.9924],[111.7698,42.9675],[111.8181,42.9408],[111.8585,42.8953],[111.8506,42.8437],[111.9039,42.7717],[111.9079,42.7518],[111.9727,42.6562],[111.9997,42.6435],[112.0098,42.6104],[112.063,42.5947],[112.1087,42.559],[112.1209,42.5317],[112.124,42.4917],[112.1452,42.472],[112.2019,42.4757],[112.2847,42.4237],[112.2943,42.3965],[112.3541,42.3782],[112.4472,42.3816],[112.5176,42.4038],[112.5668,42.4071],[112.6043,42.392],[112.6173,42.351],[112.6571,42.3262],[112.6686,42.2944],[112.7222,42.2437],[112.7057,42.1759],[112.7624,42.1421],[112.8315,42.1342],[112.8945,42.0952],[112.9162,42.0525],[112.9535,41.9972],[113.0351,41.9838],[113.079,41.9307],[113.1198,41.9519],[113.1563,41.942],[113.1629,41.9621],[113.1413,41.9764],[113.2086,42.0091],[113.2775,42.0701],[113.3233,42.1164],[113.3698,42.1412],[113.4205,42.2243],[113.4492,42.2477],[113.4915,42.2496],[113.5436,42.2913],[113.5304,42.3265],[113.5927,42.3628],[113.6285,42.4018],[113.6573,42.4047],[113.7142,42.4248],[113.7911,42.4759],[113.8831,42.5756],[114,42.6576],[114.0512,42.6603],[114.0995,42.694],[114.1562,42.6995],[114.2108,42.7344],[114.264,42.7585],[114.2235,42.7947],[114.1891,42.8144],[114.1154,42.8346],[114.0721,42.8397],[114,42.8772],[113.9666,42.9332],[113.892,43.0291],[113.7534,43.155],[113.7183,43.1727],[113.6667,43.214],[113.5742,43.3164],[113.5522,43.3549],[113.5199,43.4427],[113.5031,43.5019],[113.4738,43.5025],[113.4375,43.4859],[113.3857,43.4891],[113.3425,43.474],[113.2956,43.4983],[113.2479,43.5035],[113.1969,43.5391],[113.1644,43.5497],[113.0339,43.545],[112.9952,43.5175],[112.9601,43.5097],[112.8509,43.5424],[112.7619,43.5807],[112.71,43.5895],[112.5596,43.5998],[112.5087,43.6378],[112.4395,43.6731],[112.4122,43.6609],[112.4157,43.6257],[112.4318,43.5945],[112.4368,43.5101],[112.3884,43.3763],[112.3707,43.3093],[112.3853,43.2383],[112.3536,43.2273],[112.4033,43.1594],[112.3497,43.0963],[112.3133,43.0832],[112.1563,43.0028],[112.0408,42.983],[111.9858,42.9619],[111.9716,43.1125],[111.9639,43.1452],[111.9811,43.22],[111.929,43.2675],[111.8329,43.3292],[111.7546,43.3066],[111.6813,43.326],[111.6023,43.3356],[111.529,43.3779],[111.5015,43.3665],[111.4227,43.3888],[111.3624,43.4163],[111.3449,43.4307]]]},"properties":{"region_code":"CN-15-1525-152524","parent_region_code":"CN-15-1525","name":"苏尼特右旗","level":"county","has_children":false,"full_path":"中国 / 内蒙古自治区 / 锡林郭勒盟 / 苏尼特右旗","source_admin_code":"152524","osm_relation_id":2753025}},
{"type":"Feature","geometry":{"type":"Polygon","coordinates":[[[116.429,44.8653],[116.4629,44.8639],[116.4798,44.8768],[116.5136,44.9692],[116.5115,45.0012],[116.5247,45.0304],[116.55,45.0441],[116.6313,45.0483],[116.8816,45.0354],[117.0777,45.049],[117.1555,45.0604],[117.1858,45.0735],[117.2242,45.073],[117.2846,45.1017],[117.3515,45.1026],[117.4094,45.1332],[117.5919,45.2185],[117.7498,45.2892],[117.9222,45.3706],[117.9627,45.3651],[118.0258,45.3775],[118.1162,45.3641],[118.2147,45.369],[118.2321,45.3659],[118.2872,45.3226],[118.3619,45.2763],[118.4291,45.2472],[118.5097,45.2461],[118.6278,45.2539],[118.7111,45.2932],[118.7543,45.2936],[118.8312,45.2836],[118.8821,45.3308],[118.9057,45.3396],[119.0344,45.3446],[119.1105,45.328],[119.1384,45.3287],[119.1646,45.3081],[119.2352,45.2856],[119.3166,45.4179],[119.3219,45.4712],[119.3493,45.4915],[119.4486,45.534],[119.4839,45.5626],[119.4905,45.5986],[119.5082,45.6108],[119.5471,45.6108],[119.57,45.6373],[119.5628,45.6525],[119.5796,45.6782],[119.6248,45.6815],[119.6701,45.6568],[119.7041,45.6713],[119.748,45.7189],[119.814,45.838],[119.8363,45.9139],[119.8375,46.0317],[119.8488,46.072],[119.8565,46.2147],[119.8683,46.2877],[119.8705,46.3623],[119.8853,46.4714],[119.8833,46.5043],[119.8963,46.5784],[119.8986,46.6651],[119.8069,46.6674],[119.7746,46.6253],[119.6807,46.5907],[119.6661,46.6171],[119.6376,46.625],[119.5814,46.6137],[119.5555,46.6339],[119.472,46.6297],[119.4305,46.6386],[119.3836,46.6083],[119.3481,46.6175],[119.3006,46.6087],[119.2449,46.6429],[119.1864,46.6438],[119.1643,46.6536],[119.1008,46.6475],[119.0744,46.6667],[118.9999,46.7511],[118.9159,46.724],[118.9115,46.7635],[118.8969,46.7758],[118.8425,46.7707],[118.7834,46.7172],[118.7921,46.687],[118.6737,46.6961],[118.6352,46.7201],[118.5755,46.6934],[118.437,46.7067],[118.4024,46.727],[118.3009,46.7383],[118.2589,46.7162],[118.2278,46.713],[118.1842,46.6813],[118.1156,46.6787],[118.0567,46.6345],[117.9681,46.6113],[117.9348,46.6166],[117.889,46.5914],[117.8589,46.5644],[117.8641,46.5465],[117.8342,46.5314],[117.702,46.5133],[117.6353,46.5547],[117.6327,46.5791],[117.5882,46.6033],[117.5715,46.5955],[117.4938,46.5984],[117.4151,46.5805],[117.4407,46.5255],[117.3922,46.4782],[117.3694,46.4085],[117.3803,46.3969],[117.3685,46.3605],[117.2432,46.3649],[117.0885,46.3544],[116.8315,46.3837],[116.8109,46.3554],[116.7661,46.341],[116.7611,46.3292],[116.6578,46.3211],[116.5983,46.303],[116.5776,46.2887],[116.5661,46.2537],[116.5148,46.2157],[116.4343,46.1377],[116.3979,46.126],[116.2639,45.9614],[116.2376,45.8726],[116.268,45.8521],[116.28,45.7707],[116.2605,45.7697],[116.2146,45.7417],[116.216,45.7254],[116.17,45.6885],[116.1224,45.6775],[116.0305,45.6824],[116.0149,45.6561],[115.9317,45.63],[115.8694,45.5794],[115.6897,45.4587],[115.5576,45.4362],[115.356,45.3894],[115.1648,45.3962],[115.1982,45.3446],[115.2046,45.3206],[115.2334,45.3031],[115.2392,45.2695],[115.3166,45.2269],[115.3432,45.1673],[115.3412,45.1239],[115.3881,45.0696],[115.4191,45.0495],[115.5188,45.0079],[115.5483,44.9825],[115.6064,44.9495],[115.6119,44.9372],[115.6873,44.903],[115.7308,44.8779],[115.769,44.8443],[115.8212,44.7818],[115.8927,44.7332],[115.9065,44.6953],[115.9404,44.674],[116.0108,44.6817],[116.0328,44.7314],[116.0729,44.7928],[116.1751,44.8706],[116.2833,44.9371],[116.4033,44.8722],[116.429,44.8653]]]},"properties":{"region_code":"CN-15-1525-152525","parent_region_code":"CN-15-1525","name":"东乌珠穆沁旗","level":"county","has_children":false,"full_path":"中国 / 内蒙古自治区 / 锡林郭勒盟 / 东乌珠穆沁旗","source_admin_code":"152525","osm_relation_id":2753020}},
{"type":"Feature","geometry":{"type":"Polygon","coordinates":[[[116.9645,43.9864],[116.955,44.0229],[117.0043,44.0556],[117.1135,44.1773],[117.1589,44.1907],[117.1994,44.2183],[117.4451,44.2331],[117.5158,44.225],[117.5463,44.1844],[117.6016,44.1668],[117.6279,44.1467],[117.618,44.1271],[117.6797,44.0932],[117.6371,44.041],[117.643,44.0296],[117.6946,44.0145],[117.7828,44.0177],[117.7924,44.0376],[117.8468,44.0726],[117.862,44.0943],[117.898,44.12],[117.9554,44.1194],[117.9934,44.1036],[118.0694,44.1155],[118.1088,44.1292],[118.1239,44.1618],[118.1219,44.189],[118.1427,44.2132],[118.1703,44.2049],[118.2049,44.2551],[118.2427,44.2461],[118.2438,44.2793],[118.2175,44.3054],[118.2494,44.3265],[118.3091,44.3197],[118.3379,44.3076],[118.3746,44.3164],[118.3936,44.3071],[118.4754,44.3582],[118.4676,44.3855],[118.4963,44.3958],[118.553,44.4017],[118.5466,44.4325],[118.5827,44.441],[118.6009,44.462],[118.6433,44.4588],[118.6492,44.444],[118.737,44.4667],[118.7745,44.4538],[118.8343,44.5005],[118.8647,44.5],[118.9022,44.5142],[118.9709,44.5548],[118.9708,44.5727],[118.9947,44.6472],[118.9683,44.6812],[118.9227,44.7175],[118.9472,44.7292],[118.9944,44.7123],[119.0679,44.7113],[119.0869,44.7237],[119.1407,44.7295],[119.1189,44.7602],[119.1659,44.7585],[119.1406,44.8072],[119.1421,44.8241],[119.0709,44.8551],[119.0604,44.8696],[119.079,44.9328],[119.1043,44.9178],[119.1377,44.9231],[119.2176,44.908],[119.2233,44.9337],[119.1783,44.952],[119.1537,45.0054],[119.2023,44.9955],[119.2223,45.0164],[119.1906,45.0332],[119.1499,45.0725],[119.1521,45.0981],[119.1985,45.1482],[119.2753,45.1248],[119.287,45.0851],[119.3395,45.0825],[119.3629,45.0988],[119.355,45.1633],[119.3007,45.1894],[119.3125,45.2308],[119.3012,45.2535],[119.2352,45.2856],[119.1646,45.3081],[119.1384,45.3287],[119.1105,45.328],[119.0344,45.3446],[118.9057,45.3396],[118.8821,45.3308],[118.8312,45.2836],[118.7543,45.2936],[118.7111,45.2932],[118.6278,45.2539],[118.5097,45.2461],[118.4291,45.2472],[118.3619,45.2763],[118.2872,45.3226],[118.2321,45.3659],[118.2147,45.369],[118.1162,45.3641],[118.0258,45.3775],[117.9627,45.3651],[117.9222,45.3706],[117.7498,45.2892],[117.5919,45.2185],[117.4094,45.1332],[117.3515,45.1026],[117.2846,45.1017],[117.2242,45.073],[117.1858,45.0735],[117.1555,45.0604],[117.0777,45.049],[116.8816,45.0354],[116.6313,45.0483],[116.55,45.0441],[116.5247,45.0304],[116.5115,45.0012],[116.5136,44.9692],[116.4798,44.8768],[116.4629,44.8639],[116.429,44.8653],[116.4368,44.8434],[116.4936,44.8044],[116.5159,44.7609],[116.5666,44.7446],[116.566,44.7018],[116.5558,44.6646],[116.5281,44.6416],[116.499,44.587],[116.5027,44.5573],[116.5199,44.5293],[116.4925,44.4996],[116.4609,44.479],[116.3484,44.4188],[116.3098,44.3814],[116.3055,44.3527],[116.3315,44.3222],[116.368,44.315],[116.4713,44.3316],[116.4912,44.3239],[116.5388,44.2668],[116.6097,44.2468],[116.6059,44.1923],[116.6189,44.1676],[116.7116,44.1723],[116.7289,44.1644],[116.7279,44.1343],[116.7378,44.0643],[116.7689,44.0315],[116.815,43.9963],[116.8731,43.9633],[116.9443,43.9763],[116.9645,43.9864]]]},"properties":{"region_code":"CN-15-1525-152526","parent_region_code":"CN-15-1525","name":"西乌珠穆沁旗","level":"county","has_children":false,"full_path":"中国 / 内蒙古自治区 / 锡林郭勒盟 / 西乌珠穆沁旗","source_admin_code":"152526","osm_relation_id":2753027}},
{"type":"Feature","geometry":{"type":"Polygon","coordinates":[[[114.8554,42.1006],[114.8556,42.0523],[114.8833,42.0292],[114.9106,41.9804],[114.9158,41.8748],[114.9337,41.8451],[114.914,41.8219],[114.8812,41.8088],[114.8695,41.7907],[114.8936,41.7544],[114.8967,41.6875],[114.8894,41.6345],[114.8559,41.6021],[114.963,41.6125],[115.0159,41.6116],[115.0477,41.5957],[115.0808,41.6206],[115.1417,41.6142],[115.145,41.6008],[115.1918,41.6022],[115.1976,41.5693],[115.2507,41.5789],[115.2567,41.6135],[115.2909,41.6122],[115.303,41.5916],[115.3708,41.6002],[115.3388,41.6334],[115.3542,41.6591],[115.3302,41.6729],[115.3083,41.702],[115.413,41.7299],[115.4339,41.7406],[115.5279,41.7703],[115.7123,41.8677],[115.7259,41.8923],[115.7525,41.8848],[115.805,41.911],[115.8203,41.9334],[115.7759,42.0069],[115.8082,42.0532],[115.8113,42.1046],[115.7692,42.1287],[115.7161,42.1142],[115.6817,42.1194],[115.5982,42.1084],[115.5971,42.1427],[115.5768,42.1483],[115.5044,42.1114],[115.5,42.166],[115.4613,42.1696],[115.4233,42.1645],[115.3863,42.1463],[115.3645,42.1133],[115.3023,42.0972],[115.2555,42.1037],[115.2244,42.0965],[115.1894,42.1043],[115.1506,42.0961],[115.093,42.114],[114.9706,42.0998],[114.9029,42.0957],[114.8819,42.1104],[114.8554,42.1006]]]},"properties":{"region_code":"CN-15-1525-152527","parent_region_code":"CN-15-1525","name":"太仆寺旗","level":"county","has_children":false,"full_path":"中国 / 内蒙古自治区 / 锡林郭勒盟 / 太仆寺旗","source_admin_code":"152527","osm_relation_id":2753026}},
{"type":"Feature","geometry":{"type":"Polygon","coordinates":[[[113.3698,42.1412],[113.5655,42.1298],[113.6377,42.1076],[113.6851,42.1283],[113.721,42.1239],[113.7324,42.0946],[113.7883,42.0628],[113.86,42.0549],[113.892,42.0571],[113.9064,41.9841],[113.9531,41.9487],[113.9783,41.9658],[114.0122,41.9743],[114.0553,41.964],[114.0583,41.9839],[114.0816,42.0023],[114.0485,42.0318],[114.062,42.0814],[114.089,42.1179],[114.1119,42.1339],[114.1341,42.1236],[114.22,42.1329],[114.2349,42.167],[114.2678,42.1855],[114.3144,42.1869],[114.3702,42.1496],[114.3707,42.1075],[114.4385,42.096],[114.4728,42.1125],[114.4587,42.1684],[114.4317,42.1691],[114.3994,42.1976],[114.4918,42.2189],[114.5192,42.2333],[114.5541,42.2685],[114.5689,42.2941],[114.645,42.2667],[114.6802,42.2192],[114.6701,42.1959],[114.7522,42.2157],[114.7301,42.248],[114.7441,42.3307],[114.7289,42.4298],[114.6989,42.4478],[114.655,42.4504],[114.6359,42.4926],[114.6045,42.5306],[114.5173,42.6047],[114.4919,42.6412],[114.4147,42.6764],[114.3944,42.6973],[114.3299,42.7198],[114.264,42.7585],[114.2108,42.7344],[114.1562,42.6995],[114.0995,42.694],[114.0512,42.6603],[114,42.6576],[113.8831,42.5756],[113.7911,42.4759],[113.7142,42.4248],[113.6573,42.4047],[113.6285,42.4018],[113.5927,42.3628],[113.5304,42.3265],[113.5436,42.2913],[113.4915,42.2496],[113.4492,42.2477],[113.4205,42.2243],[113.3698,42.1412]]]},"properties":{"region_code":"CN-15-1525-152528","parent_region_code":"CN-15-1525","name":"镶黄旗","level":"county","has_children":false,"full_path":"中国 / 内蒙古自治区 / 锡林郭勒盟 / 镶黄旗","source_admin_code":"152528","osm_relation_id":2753018}},
{"type":"Feature","geometry":{"type":"Polygon","coordinates":[[[114.264,42.7585],[114.3299,42.7198],[114.3944,42.6973],[114.4147,42.6764],[114.4919,42.6412],[114.5173,42.6047],[114.6045,42.5306],[114.6359,42.4926],[114.655,42.4504],[114.6989,42.4478],[114.7289,42.4298],[114.7441,42.3307],[114.7301,42.248],[114.7522,42.2157],[114.8016,42.1977],[114.8009,42.1466],[114.8192,42.1378],[114.8554,42.1006],[114.8819,42.1104],[114.9029,42.0957],[114.9706,42.0998],[115.093,42.114],[115.1506,42.0961],[115.1894,42.1043],[115.2244,42.0965],[115.2555,42.1037],[115.3023,42.0972],[115.3645,42.1133],[115.3863,42.1463],[115.4233,42.1645],[115.4613,42.1696],[115.4882,42.219],[115.5231,42.2595],[115.5707,42.3038],[115.5734,42.331],[115.6002,42.3476],[115.5942,42.4006],[115.5338,42.4105],[115.4656,42.4557],[115.4411,42.5244],[115.4257,42.5447],[115.4273,42.5781],[115.3675,42.626],[115.3412,42.6375],[115.3293,42.6645],[115.2887,42.6705],[115.3159,42.7056],[115.304,42.744],[115.3374,42.7636],[115.3095,42.7849],[115.2934,42.8404],[115.2665,42.882],[115.289,42.8925],[115.3113,42.924],[115.3398,42.9426],[115.3153,42.9603],[115.2473,42.962],[115.2212,42.9733],[115.0868,42.9846],[115.0163,42.9766],[115.0055,42.9917],[115.0857,43.046],[115.088,43.0609],[115.0296,43.0483],[114.9855,43.0301],[114.9406,42.9901],[114.8972,42.9706],[114.8287,42.9562],[114.8228,42.9331],[114.782,42.9113],[114.7546,42.8821],[114.7232,42.8861],[114.6355,42.8598],[114.6,42.8547],[114.5806,42.8334],[114.5298,42.8437],[114.4588,42.8404],[114.4058,42.8246],[114.3556,42.7997],[114.3109,42.7622],[114.264,42.7585]]]},"properties":{"region_code":"CN-15-1525-152529","parent_region_code":"CN-15-1525","name":"正镶白旗","level":"county","has_children":false,"full_path":"中国 / 内蒙古自治区 / 锡林郭勒盟 / 正镶白旗","source_admin_code":"152529","osm_relation_id":2753023}},
{"type":"Feature","geometry":{"type":"Polygon","coordinates":[[[116.0841,43.1079],[116.0068,43.1208],[115.949,43.1069],[115.8616,43.0939],[115.807,43.0981],[115.7783,43.1151],[115.7239,43.1175],[115.6783,43.0959],[115.6596,43.1077],[115.5809,43.1358],[115.501,43.1185],[115.4874,43.1056],[115.4468,43.1046],[115.3436,43.0903],[115.2873,43.074],[115.1818,43.0868],[115.163,43.0752],[115.088,43.0609],[115.0857,43.046],[115.0055,42.9917],[115.0163,42.9766],[115.0868,42.9846],[115.2212,42.9733],[115.2473,42.962],[115.3153,42.9603],[115.3398,42.9426],[115.3113,42.924],[115.289,42.8925],[115.2665,42.882],[115.2934,42.8404],[115.3095,42.7849],[115.3374,42.7636],[115.304,42.744],[115.3159,42.7056],[115.2887,42.6705],[115.3293,42.6645],[115.3412,42.6375],[115.3675,42.626],[115.4273,42.5781],[115.4257,42.5447],[115.4411,42.5244],[115.4656,42.4557],[115.5338,42.4105],[115.5942,42.4006],[115.6002,42.3476],[115.5734,42.331],[115.5707,42.3038],[115.5231,42.2595],[115.4882,42.219],[115.4613,42.1696],[115.5,42.166],[115.5044,42.1114],[115.5768,42.1483],[115.5971,42.1427],[115.5982,42.1084],[115.6817,42.1194],[115.7161,42.1142],[115.7692,42.1287],[115.8113,42.1046],[115.8082,42.0532],[115.7759,42.0069],[115.8203,41.9334],[115.8569,41.9258],[115.8902,41.9404],[115.9188,41.9401],[115.9918,42.0784],[116.0662,42.118],[116.0724,42.138],[116.1137,42.1773],[116.1661,42.1943],[116.1959,42.2384],[116.2018,42.2635],[116.1965,42.3071],[116.2433,42.3628],[116.2708,42.3686],[116.2847,42.3935],[116.3712,42.3741],[116.3966,42.3465],[116.4845,42.3312],[116.4957,42.3526],[116.5236,42.3697],[116.5336,42.4068],[116.5481,42.4128],[116.5584,42.451],[116.5369,42.4771],[116.532,42.5138],[116.5588,42.5421],[116.5615,42.5717],[116.582,42.598],[116.5748,42.6118],[116.6022,42.6342],[116.6133,42.6699],[116.6678,42.7594],[116.6598,42.8148],[116.6679,42.8875],[116.6586,42.9311],[116.5747,42.9836],[116.4944,43.0131],[116.4879,43.0516],[116.4219,43.0307],[116.3292,43.0452],[116.2852,43.0452],[116.2541,43.054],[116.2148,43.0818],[116.145,43.0912],[116.0841,43.1079]]]},"properties":{"region_code":"CN-15-1525-152530","parent_region_code":"CN-15-1525","name":"正蓝旗","level":"county","has_children":false,"full_path":"中国 / 内蒙古自治区 / 锡林郭勒盟 / 正蓝旗","source_admin_code":"152530","osm_relation_id":2753022}},
{"type":"Feature","geometry":{"type":"Polygon","coordinates":[[[115.9188,41.9401],[115.9309,41.9075],[115.9559,41.8703],[115.9964,41.8257],[115.995,41.802],[116.0279,41.7805],[116.0884,41.7769],[116.1006,41.7897],[116.0995,41.834],[116.1355,41.8462],[116.1653,41.8714],[116.1887,41.8604],[116.2048,41.8795],[116.205,41.9047],[116.2355,41.9411],[116.2886,41.963],[116.3039,41.995],[116.3672,42.0077],[116.4026,41.9917],[116.4047,41.9696],[116.3802,41.9501],[116.4183,41.9363],[116.4474,41.9437],[116.4771,41.9705],[116.5001,41.9748],[116.5276,41.937],[116.5861,41.9243],[116.6348,41.9286],[116.6558,41.9452],[116.7183,41.9504],[116.7358,41.9783],[116.7595,41.9882],[116.7907,41.9759],[116.8329,42.0037],[116.8626,42.0015],[116.8843,42.0761],[116.8778,42.1085],[116.8586,42.1222],[116.8439,42.154],[116.8195,42.1531],[116.7828,42.198],[116.9042,42.1902],[116.9121,42.2275],[116.9049,42.2822],[116.8834,42.333],[116.884,42.39],[116.8998,42.4442],[116.8689,42.4787],[116.8795,42.5328],[116.8355,42.5445],[116.7951,42.581],[116.6929,42.5902],[116.6676,42.5736],[116.6321,42.5755],[116.6294,42.6128],[116.582,42.598],[116.5615,42.5717],[116.5588,42.5421],[116.532,42.5138],[116.5369,42.4771],[116.5584,42.451],[116.5481,42.4128],[116.5336,42.4068],[116.5236,42.3697],[116.4957,42.3526],[116.4845,42.3312],[116.3966,42.3465],[116.3712,42.3741],[116.2847,42.3935],[116.2708,42.3686],[116.2433,42.3628],[116.1965,42.3071],[116.2018,42.2635],[116.1959,42.2384],[116.1661,42.1943],[116.1137,42.1773],[116.0724,42.138],[116.0662,42.118],[115.9918,42.0784],[115.9188,41.9401]]]},"properties":{"region_code":"CN-15-1525-152531","parent_region_code":"CN-15-1525","name":"多伦县","level":"county","has_children":false,"full_path":"中国 / 内蒙古自治区 / 锡林郭勒盟 / 多伦县","source_admin_code":"152531","osm_relation_id":2753019}}
]}