{"type":"FeatureCollection", "features": [
{"type":"Feature","geometry":{"type":"Polygon","coordinates":[[[109.9734,39.6523],[109.9726,39.6794],[110.0307,39.6949],[110.0682,39.7328],[110.1495,39.7144],[110.1645,39.7743],[110.3136,39.733],[110.3551,39.7434],[110.3862,39.7944],[110.3407,39.814],[110.2118,39.8633],[110.1256,39.9363],[110.0665,39.9233],[110.0029,39.9407],[109.9707,39.976],[109.8495,39.9016],[109.742,39.9153],[109.6801,39.9007],[109.5849,39.9428],[109.5422,39.912],[109.4674,39.9431],[109.3712,39.9502],[109.2913,39.9394],[109.2032,39.9594],[109.1529,39.9521],[109.1684,39.852],[109.2379,39.7759],[109.2612,39.8013],[109.3231,39.7808],[109.3613,39.7196],[109.5618,39.7391],[109.6716,39.7448],[109.8581,39.6761],[109.9734,39.6523]]]},"properties":{"region_code":"CN-15-1506-150602","parent_region_code":"CN-15-1506","name":"东胜区","level":"county","has_children":false,"full_path":"中国 / 内蒙古自治区 / 鄂尔多斯市 / 东胜区","source_admin_code":"150602","osm_relation_id":2752775}},
{"type":"Feature","geometry":{"type":"Polygon","coordinates":[[[109.6716,39.7448],[109.6708,39.7108],[109.6175,39.695],[109.6303,39.6463],[109.7069,39.6386],[109.7642,39.5829],[109.8541,39.5944],[109.9327,39.5775],[110.0176,39.5459],[110.0154,39.5863],[109.9734,39.6523],[109.8581,39.6761],[109.6716,39.7448]]]},"properties":{"region_code":"CN-15-1506-150603","parent_region_code":"CN-15-1506","name":"康巴什区","level":"county","has_children":false,"full_path":"中国 / 内蒙古自治区 / 鄂尔多斯市 / 康巴什区","source_admin_code":"150603","osm_relation_id":7507797}},
{"type":"Feature","geometry":{"type":"Polygon","coordinates":[[[110.3407,39.814],[110.4049,39.836],[110.3996,39.8976],[110.4259,39.9227],[110.4992,39.9277],[110.5645,39.9477],[110.5779,39.9847],[110.6303,39.9913],[110.6704,40.0335],[110.6594,40.0733],[110.7035,40.1682],[110.6843,40.2438],[110.6397,40.2994],[110.5543,40.3305],[110.5086,40.3914],[110.4212,40.3998],[110.3153,40.4934],[110.2558,40.5087],[110.2108,40.5522],[110.172,40.5502],[110.1357,40.5067],[110.0828,40.5281],[110.0515,40.5168],[109.9266,40.5302],[109.8603,40.5069],[109.8168,40.5137],[109.724,40.4937],[109.6707,40.5065],[109.5907,40.5534],[109.5392,40.5429],[109.5146,40.5126],[109.4404,40.5201],[109.4464,40.4787],[109.3719,40.4705],[109.2668,40.5192],[109.1402,40.5207],[109.1069,40.5482],[109.0522,40.5395],[109.057,40.4738],[108.9992,40.4184],[109.0212,40.3437],[109.0623,40.3038],[109.1199,40.3008],[109.1295,40.2577],[109.0703,40.1729],[109.0815,40.0994],[109.103,40.0615],[109.2094,40.0345],[109.2032,39.9594],[109.2913,39.9394],[109.3712,39.9502],[109.4674,39.9431],[109.5422,39.912],[109.5849,39.9428],[109.6801,39.9007],[109.742,39.9153],[109.8495,39.9016],[109.9707,39.976],[110.0029,39.9407],[110.0665,39.9233],[110.1256,39.9363],[110.2118,39.8633],[110.3407,39.814]]]},"properties":{"region_code":"CN-15-1506-150621","parent_region_code":"CN-15-1506","name":"达拉特旗","level":"county","has_children":false,"full_path":"中国 / 内蒙古自治区 / 鄂尔多斯市 / 达拉特旗","source_admin_code":"150621","osm_relation_id":2752774}},
{"type":"Feature","geometry":{"type":"Polygon","coordinates":[[[110.1495,39.7144],[110.1066,39.6333],[110.1217,39.5851],[110.193,39.5659],[110.2458,39.6132],[110.3019,39.6091],[110.365,39.5192],[110.4158,39.4648],[110.4293,39.4306],[110.5077,39.3807],[110.5941,39.2789],[110.6798,39.2669],[110.7267,39.3079],[110.7373,39.3547],[110.8016,39.4117],[110.8778,39.5053],[110.9748,39.5278],[110.999,39.5525],[111.1483,39.568],[111.136,39.5243],[111.1003,39.4983],[111.0837,39.4561],[111.0534,39.4451],[111.0578,39.4003],[111.0957,39.3577],[111.1366,39.4058],[111.2109,39.4264],[111.3325,39.4192],[111.3569,39.4658],[111.4223,39.5045],[111.416,39.5417],[111.4346,39.5948],[111.4316,39.6443],[111.3906,39.7019],[111.3553,39.7215],[111.3652,39.7906],[111.4096,39.8257],[111.4094,39.8657],[111.4371,39.8935],[111.4057,40.0428],[111.2992,40.1564],[111.2101,40.1796],[111.1992,40.2009],[111.1048,40.2564],[110.9459,40.2706],[110.8103,40.259],[110.7271,40.2926],[110.6889,40.3229],[110.6397,40.2994],[110.6843,40.2438],[110.7035,40.1682],[110.6594,40.0733],[110.6704,40.0335],[110.6303,39.9913],[110.5779,39.9847],[110.5645,39.9477],[110.4992,39.9277],[110.4259,39.9227],[110.3996,39.8976],[110.4049,39.836],[110.3407,39.814],[110.3862,39.7944],[110.3551,39.7434],[110.3136,39.733],[110.1645,39.7743],[110.1495,39.7144]]]},"properties":{"region_code":"CN-15-1506-150622","parent_region_code":"CN-15-1506","name":"准格尔旗","level":"county","has_children":false,"full_path":"中国 / 内蒙古自治区 / 鄂尔多斯市 / 准格尔旗","source_admin_code":"150622","osm_relation_id":2105193}},
{"type":"Feature","geometry":{"type":"Polygon","coordinates":[[[106.7995,38.8176],[106.7381,38.7342],[106.705,38.7167],[106.6571,38.6005],[106.6436,38.492],[106.5895,38.3858],[106.4777,38.3187],[106.5413,38.268],[106.6147,38.2344],[106.7241,38.2025],[106.7879,38.1658],[107.0118,38.1195],[107.0742,38.1418],[107.1071,38.136],[107.1673,38.1578],[107.2586,38.0981],[107.3286,38.0906],[107.357,38.0452],[107.4282,37.9968],[107.4009,37.9628],[107.4446,37.9323],[107.4882,37.945],[107.5558,37.8933],[107.6466,37.8643],[107.7036,37.8687],[107.736,37.8439],[107.8358,37.8287],[107.8795,37.8077],[107.9757,37.7857],[107.9868,37.7352],[108.0194,37.6955],[108.0165,37.6496],[108.0791,37.6501],[108.1479,37.617],[108.2525,37.6666],[108.3073,37.6348],[108.4215,37.6482],[108.5236,37.6904],[108.4904,37.7859],[108.3221,37.8359],[108.2983,37.9853],[108.3683,38.0141],[108.4151,38.0626],[108.4385,38.1729],[108.4171,38.2645],[108.4424,38.3199],[108.4301,38.375],[108.2388,38.4677],[108.098,38.5467],[108,38.618],[107.9721,38.6734],[107.9027,38.7656],[107.7905,38.7634],[107.715,38.7782],[107.6435,38.7173],[107.5198,38.6612],[107.4016,38.643],[107.328,38.6429],[107.2207,38.6811],[107.1356,38.694],[107.0219,38.7344],[106.9404,38.7723],[106.7995,38.8176]]]},"properties":{"region_code":"CN-15-1506-150623","parent_region_code":"CN-15-1506","name":"鄂托克前旗","level":"county","has_children":false,"full_path":"中国 / 内蒙古自治区 / 鄂尔多斯市 / 鄂托克前旗","source_admin_code":"150623","osm_relation_id":2752779}},
{"type":"Feature","geometry":{"type":"Polygon","coordinates":[[[108.4301,38.375],[108.4164,38.3965],[108.4335,38.4904],[108.462,38.5401],[108.4763,38.6943],[108.5162,38.7558],[108.5013,38.8089],[108.4473,38.8864],[108.4369,38.9651],[108.5013,38.9528],[108.5035,39.0429],[108.5422,39.1603],[108.573,39.1867],[108.6791,39.2401],[108.7505,39.2409],[108.7782,39.2747],[108.8817,39.3621],[108.8894,39.3897],[108.8181,39.4486],[108.768,39.5342],[108.7297,39.5787],[108.6265,39.6261],[108.4574,39.6554],[108.4003,39.6555],[108.3547,39.6981],[108.2702,39.6957],[108.2242,39.7211],[107.9501,39.8098],[107.8731,39.8183],[107.816,39.8672],[107.7573,39.8312],[107.6825,39.8543],[107.5071,39.9405],[107.4109,39.9208],[107.2982,39.9972],[107.2195,40.0124],[107.1523,40.0471],[107.0019,40.1513],[106.9446,40.2077],[106.9042,40.1714],[106.8606,40.1751],[106.8095,40.0999],[106.7126,40.032],[106.7348,39.9802],[106.7162,39.9021],[106.7724,39.8099],[106.8569,39.8423],[106.929,39.9137],[106.9311,39.8584],[106.8751,39.8064],[106.9106,39.7053],[106.8764,39.6609],[106.9262,39.5758],[106.93,39.5164],[106.9595,39.4191],[106.9165,39.3755],[106.9509,39.3436],[106.9381,39.2984],[107.0281,39.2505],[107.0546,39.2217],[107.1195,39.2518],[107.0856,39.0808],[107.0265,39.0363],[106.9651,39.0327],[106.9494,38.944],[106.7995,38.8176],[106.9404,38.7723],[107.0219,38.7344],[107.1356,38.694],[107.2207,38.6811],[107.328,38.6429],[107.4016,38.643],[107.5198,38.6612],[107.6435,38.7173],[107.715,38.7782],[107.7905,38.7634],[107.9027,38.7656],[107.9721,38.6734],[108,38.618],[108.098,38.5467],[108.2388,38.4677],[108.4301,38.375]]]},"properties":{"region_code":"CN-15-1506-150624","parent_region_code":"CN-15-1506","name":"鄂托克旗","level":"county","has_children":false,"full_path":"中国 / 内蒙古自治区 / 鄂尔多斯市 / 鄂托克旗","source_admin_code":"150624","osm_relation_id":2752778}},
{"type":"Feature","geometry":{"type":"Polygon","coordinates":[[[109.2032,39.9594],[109.2094,40.0345],[109.103,40.0615],[109.0815,40.0994],[109.0703,40.1729],[109.1295,40.2577],[109.1199,40.3008],[109.0623,40.3038],[109.0212,40.3437],[108.9992,40.4184],[109.057,40.4738],[109.0522,40.5395],[108.9162,40.5293],[108.8903,40.569],[108.8484,40.5584],[108.7622,40.567],[108.7711,40.6186],[108.7011,40.6073],[108.6909,40.6327],[108.5932,40.6679],[108.5754,40.7118],[108.5058,40.7213],[108.4791,40.7597],[108.4215,40.8012],[108.336,40.8016],[108.3068,40.8206],[108.2299,40.8138],[108.1858,40.8708],[108.1172,40.8356],[108.0084,40.8333],[107.9826,40.8616],[107.936,40.8521],[107.8344,40.8677],[107.7962,40.8471],[107.7154,40.8361],[107.6753,40.7838],[107.6416,40.7854],[107.5734,40.7575],[107.5596,40.7357],[107.4903,40.7096],[107.4549,40.6664],[107.4084,40.6692],[107.3016,40.6545],[107.2623,40.6163],[107.2569,40.5798],[107.2101,40.5682],[107.1522,40.4615],[107.1685,40.3982],[107.1082,40.3752],[107.0281,40.3076],[107.0189,40.2588],[106.9446,40.2077],[107.0019,40.1513],[107.1523,40.0471],[107.2195,40.0124],[107.2982,39.9972],[107.4109,39.9208],[107.5071,39.9405],[107.6825,39.8543],[107.7573,39.8312],[107.816,39.8672],[107.8731,39.8183],[107.9501,39.8098],[108.2242,39.7211],[108.2702,39.6957],[108.3547,39.6981],[108.4003,39.6555],[108.4574,39.6554],[108.6265,39.6261],[108.7297,39.5787],[108.768,39.5342],[108.8181,39.4486],[108.8894,39.3897],[108.9501,39.4016],[109.0104,39.3925],[109.0321,39.4294],[109.0474,39.5734],[109.0752,39.5959],[109.2044,39.5848],[109.2091,39.6689],[109.247,39.6792],[109.2657,39.7131],[109.2379,39.7759],[109.1684,39.852],[109.1529,39.9521],[109.2032,39.9594]]]},"properties":{"region_code":"CN-15-1506-150625","parent_region_code":"CN-15-1506","name":"杭锦旗","level":"county","has_children":false,"full_path":"中国 / 内蒙古自治区 / 鄂尔多斯市 / 杭锦旗","source_admin_code":"150625","osm_relation_id":2752777}},
{"type":"Feature","geometry":{"type":"Polygon","coordinates":[[[108.5236,37.6904],[108.6096,37.6537],[108.7838,37.6869],[108.7832,37.7594],[108.8013,37.7883],[108.7914,37.8577],[108.7998,37.9399],[108.8266,37.9913],[108.8303,38.05],[108.8815,38.0152],[108.8956,37.9734],[108.938,37.9197],[109.0006,37.9654],[109.0621,38.0903],[108.959,38.1547],[108.9334,38.2047],[108.9699,38.248],[108.9555,38.2654],[109,38.357],[109.0457,38.3843],[109.0448,38.4296],[109.1704,38.518],[109.1972,38.5582],[109.271,38.6279],[109.3296,38.5973],[109.3626,38.628],[109.3213,38.6605],[109.3303,38.7],[109.3983,38.7197],[109.4439,38.7851],[109.5126,38.8328],[109.5413,38.805],[109.6396,38.8772],[109.6747,38.9498],[109.572,38.9468],[109.4894,38.973],[109.48,38.9959],[109.5333,39.0625],[109.5373,39.0982],[109.5031,39.1728],[109.5267,39.2061],[109.4728,39.2484],[109.417,39.2675],[109.3625,39.2472],[109.3193,39.2589],[109.3314,39.3338],[109.3152,39.3553],[109.236,39.3848],[109.2099,39.3732],[109.1651,39.3081],[109.1383,39.3097],[109.1034,39.3817],[109.0515,39.3765],[109.0104,39.3925],[108.9501,39.4016],[108.8894,39.3897],[108.8817,39.3621],[108.7782,39.2747],[108.7505,39.2409],[108.6791,39.2401],[108.573,39.1867],[108.5422,39.1603],[108.5035,39.0429],[108.5013,38.9528],[108.4369,38.9651],[108.4473,38.8864],[108.5013,38.8089],[108.5162,38.7558],[108.4763,38.6943],[108.462,38.5401],[108.4335,38.4904],[108.4164,38.3965],[108.4301,38.375],[108.4424,38.3199],[108.4171,38.2645],[108.4385,38.1729],[108.4151,38.0626],[108.3683,38.0141],[108.2983,37.9853],[108.3221,37.8359],[108.4904,37.7859],[108.5236,37.6904]]]},"properties":{"region_code":"CN-15-1506-150626","parent_region_code":"CN-15-1506","name":"乌审旗","level":"county","has_children":false,"full_path":"中国 / 内蒙古自治区 / 鄂尔多斯市 / 乌审旗","source_admin_code":"150626","osm_relation_id":2752780}},
{"type":"Feature","geometry":{"type":"Polygon","coordinates":[[[109.2379,39.7759],[109.2657,39.7131],[109.247,39.6792],[109.2091,39.6689],[109.2044,39.5848],[109.0752,39.5959],[109.0474,39.5734],[109.0321,39.4294],[109.0104,39.3925],[109.0515,39.3765],[109.1034,39.3817],[109.1383,39.3097],[109.1651,39.3081],[109.2099,39.3732],[109.236,39.3848],[109.3152,39.3553],[109.3314,39.3338],[109.3193,39.2589],[109.3625,39.2472],[109.417,39.2675],[109.4728,39.2484],[109.5267,39.2061],[109.5031,39.1728],[109.5373,39.0982],[109.5333,39.0625],[109.48,38.9959],[109.4894,38.973],[109.572,38.9468],[109.6747,38.9498],[109.7136,39.0656],[109.764,39.0669],[109.9528,39.1872],[110.0384,39.2161],[110.2015,39.2923],[110.1711,39.3685],[110.1339,39.3871],[110.1167,39.4352],[110.1431,39.4612],[110.2388,39.4429],[110.2806,39.3771],[110.3787,39.3108],[110.422,39.3394],[110.4229,39.3755],[110.5077,39.3807],[110.4293,39.4306],[110.4158,39.4648],[110.365,39.5192],[110.3019,39.6091],[110.2458,39.6132],[110.193,39.5659],[110.1217,39.5851],[110.1066,39.6333],[110.1495,39.7144],[110.0682,39.7328],[110.0307,39.6949],[109.9726,39.6794],[109.9734,39.6523],[110.0154,39.5863],[110.0176,39.5459],[109.9327,39.5775],[109.8541,39.5944],[109.7642,39.5829],[109.7069,39.6386],[109.6303,39.6463],[109.6175,39.695],[109.6708,39.7108],[109.6716,39.7448],[109.5618,39.7391],[109.3613,39.7196],[109.3231,39.7808],[109.2612,39.8013],[109.2379,39.7759]]]},"properties":{"region_code":"CN-15-1506-150627","parent_region_code":"CN-15-1506","name":"伊金霍洛旗","level":"county","has_children":false,"full_path":"中国 / 内蒙古自治区 / 鄂尔多斯市 / 伊金霍洛旗","source_admin_code":"150627","osm_relation_id":2752776}}
]}