{"type":"FeatureCollection", "features": [
{"type":"Feature","geometry":{"type":"Polygon","coordinates":[[[116.4373,39.8709],[116.4394,39.8771],[116.4379,39.8885],[116.441,39.8929],[116.4424,39.9018],[116.4302,39.9017],[116.4281,39.9273],[116.4376,39.9272],[116.4383,39.9398],[116.4405,39.9447],[116.4239,39.9488],[116.4228,39.9556],[116.4188,39.9608],[116.3833,39.9615],[116.3813,39.9597],[116.3871,39.9557],[116.3879,39.9392],[116.3903,39.9268],[116.393,39.9222],[116.3859,39.9211],[116.3866,39.9072],[116.3893,39.9065],[116.3916,39.8972],[116.393,39.8708],[116.375,39.8698],[116.3749,39.8653],[116.385,39.8638],[116.3893,39.8572],[116.4049,39.8575],[116.4095,39.8623],[116.41,39.8701],[116.4168,39.8714],[116.4373,39.8709]]]},"properties":{"region_code":"CN-11-110101","parent_region_code":"CN-11","name":"东城区","level":"county","has_children":false,"full_path":"中国 / 北京市 / 东城区","source_admin_code":"110101","osm_relation_id":288600}},
{"type":"Feature","geometry":{"type":"MultiPolygon","coordinates":[[[[117.6069,39.2593],[117.5984,39.2566],[117.6135,39.2433],[117.6225,39.2314],[117.6354,39.2189],[117.6397,39.2101],[117.6462,39.2044],[117.6609,39.1879],[117.6747,39.1877],[117.6739,39.1707],[117.6773,39.1725],[117.7127,39.1723],[117.7136,39.1927],[117.7101,39.1935],[117.7144,39.206],[117.7192,39.2136],[117.7342,39.2319],[117.7371,39.2369],[117.7194,39.2451],[117.7097,39.2557],[117.7045,39.2666],[117.7029,39.2765],[117.674,39.2768],[117.6739,39.2591],[117.6449,39.2597],[117.6069,39.2593]]],[[[117.6114,39.1859],[117.6116,39.2039],[117.6222,39.2064],[117.6292,39.2119],[117.6221,39.22],[117.5766,39.2191],[117.5575,39.2173],[117.5573,39.2248],[117.4993,39.2238],[117.5013,39.2153],[117.5427,39.1868],[117.5777,39.1773],[117.5953,39.1799],[117.6114,39.1859]]],[[[116.3813,39.9597],[116.3819,39.9645],[116.388,39.968],[116.3879,39.9716],[116.3747,39.9712],[116.3742,39.9666],[116.3639,39.9665],[116.3657,39.9472],[116.35,39.9427],[116.3345,39.9408],[116.3266,39.9425],[116.3284,39.9216],[116.3287,39.8974],[116.3197,39.8956],[116.3196,39.8894],[116.3149,39.8801],[116.3149,39.8737],[116.3353,39.8747],[116.3432,39.8723],[116.3442,39.8675],[116.375,39.8698],[116.393,39.8708],[116.3916,39.8972],[116.3893,39.9065],[116.3866,39.9072],[116.3859,39.9211],[116.393,39.9222],[116.3903,39.9268],[116.3879,39.9392],[116.3871,39.9557],[116.3813,39.9597]]]]},"properties":{"region_code":"CN-11-110102","parent_region_code":"CN-11","name":"西城区","level":"county","has_children":false,"full_path":"中国 / 北京市 / 西城区","source_admin_code":"110102","osm_relation_id":568660}},
{"type":"Feature","geometry":{"type":"MultiPolygon","coordinates":[[[[116.5981,40.083],[116.5971,40.0927],[116.5901,40.0892],[116.5749,40.0873],[116.5725,40.1018],[116.5678,40.1041],[116.573,40.0711],[116.5809,40.0732],[116.584,40.0555],[116.5819,40.0496],[116.586,40.0476],[116.5842,40.0425],[116.594,40.0403],[116.5976,40.0462],[116.5977,40.0518],[116.6027,40.0541],[116.5981,40.083]]],[[[116.4373,39.8709],[116.4368,39.8646],[116.4571,39.8548],[116.4581,39.849],[116.449,39.8492],[116.4398,39.8467],[116.4405,39.8427],[116.4306,39.8384],[116.4255,39.8316],[116.4189,39.8305],[116.4302,39.8265],[116.437,39.8266],[116.4383,39.8193],[116.4465,39.8213],[116.4572,39.8132],[116.4629,39.8133],[116.4675,39.809],[116.4792,39.8115],[116.4794,39.8157],[116.489,39.8149],[116.5043,39.8205],[116.5105,39.8286],[116.5202,39.8286],[116.5289,39.8236],[116.537,39.8289],[116.5378,39.8338],[116.5514,39.8338],[116.5637,39.8324],[116.5713,39.8296],[116.5777,39.8238],[116.5935,39.8245],[116.596,39.8401],[116.5987,39.849],[116.6075,39.8493],[116.6214,39.8599],[116.6145,39.868],[116.6235,39.8805],[116.6223,39.8893],[116.6099,39.8885],[116.6096,39.8943],[116.6181,39.9032],[116.6144,39.9072],[116.6173,39.9127],[116.6152,39.9219],[116.6247,39.9207],[116.6181,39.9292],[116.6237,39.9302],[116.6283,39.9373],[116.6243,39.9456],[116.6263,39.9494],[116.6393,39.9453],[116.637,39.9518],[116.6362,39.9668],[116.6341,39.9815],[116.6273,39.9848],[116.6381,39.9885],[116.637,39.9958],[116.6301,40.0027],[116.6252,40.0003],[116.6222,40.0066],[116.6127,40.0106],[116.5993,40.0117],[116.5892,40.0165],[116.5649,40.0311],[116.5565,40.0397],[116.5458,40.0439],[116.5459,40.057],[116.5378,40.058],[116.5231,40.0694],[116.5061,40.0697],[116.4946,40.0783],[116.4807,40.0798],[116.4772,40.0827],[116.4675,40.084],[116.4608,40.0888],[116.4603,40.0807],[116.4524,40.0694],[116.4557,40.0647],[116.4538,40.0585],[116.448,40.0605],[116.4433,40.0574],[116.432,40.0606],[116.4228,40.0606],[116.4097,40.055],[116.4033,40.0542],[116.4,40.0483],[116.4024,40.0419],[116.3977,40.0371],[116.3891,40.0353],[116.3845,40.0398],[116.3841,40.0353],[116.3888,40.0313],[116.3728,40.0298],[116.3447,40.0253],[116.3708,39.9907],[116.3752,39.9757],[116.3747,39.9712],[116.3879,39.9716],[116.388,39.968],[116.3819,39.9645],[116.3813,39.9597],[116.3833,39.9615],[116.4188,39.9608],[116.4228,39.9556],[116.4239,39.9488],[116.4405,39.9447],[116.4383,39.9398],[116.4376,39.9272],[116.4281,39.9273],[116.4302,39.9017],[116.4424,39.9018],[116.441,39.8929],[116.4379,39.8885],[116.4394,39.8771],[116.4373,39.8709]]]]},"properties":{"region_code":"CN-11-110105","parent_region_code":"CN-11","name":"朝阳区","level":"county","has_children":false,"full_path":"中国 / 北京市 / 朝阳区","source_admin_code":"110105","osm_relation_id":2988933}},
{"type":"Feature","geometry":{"type":"Polygon","coordinates":[[[116.375,39.8698],[116.3442,39.8675],[116.3432,39.8723],[116.3353,39.8747],[116.3149,39.8737],[116.3149,39.8801],[116.3196,39.8894],[116.3197,39.8956],[116.3084,39.8957],[116.3003,39.8896],[116.2888,39.8853],[116.2887,39.895],[116.2529,39.8952],[116.2319,39.893],[116.2296,39.8882],[116.2218,39.8878],[116.2222,39.882],[116.2128,39.8801],[116.212,39.8754],[116.2043,39.8771],[116.201,39.8749],[116.1943,39.8808],[116.1858,39.8805],[116.1717,39.8822],[116.1612,39.8856],[116.1504,39.8879],[116.1444,39.8829],[116.1337,39.8827],[116.119,39.8764],[116.1143,39.877],[116.1065,39.8721],[116.0958,39.8713],[116.081,39.8646],[116.0713,39.8689],[116.0611,39.8644],[116.0641,39.8579],[116.0575,39.8496],[116.0502,39.8494],[116.0484,39.8446],[116.0505,39.8417],[116.0669,39.8372],[116.0786,39.8259],[116.0821,39.8172],[116.0791,39.815],[116.0802,39.8075],[116.08,39.7917],[116.0831,39.7903],[116.0882,39.7804],[116.1036,39.788],[116.1144,39.7891],[116.116,39.7847],[116.1252,39.7836],[116.1265,39.7784],[116.1172,39.7786],[116.1128,39.7736],[116.1135,39.7665],[116.1255,39.7634],[116.1529,39.7666],[116.1599,39.7737],[116.1635,39.783],[116.1776,39.7826],[116.1939,39.7767],[116.1958,39.785],[116.1953,39.795],[116.1971,39.8006],[116.2025,39.8054],[116.2099,39.816],[116.2073,39.8228],[116.2254,39.8234],[116.2335,39.8162],[116.2436,39.8021],[116.2442,39.7921],[116.2506,39.7935],[116.2567,39.7918],[116.2814,39.798],[116.2882,39.7967],[116.2882,39.7895],[116.2967,39.7719],[116.3051,39.7684],[116.3106,39.782],[116.3155,39.7818],[116.317,39.7971],[116.3221,39.8005],[116.3348,39.8047],[116.3496,39.805],[116.351,39.7989],[116.361,39.7981],[116.3614,39.7836],[116.3725,39.7842],[116.3729,39.7776],[116.3841,39.7789],[116.3851,39.7637],[116.3925,39.7644],[116.3912,39.7829],[116.3896,39.7856],[116.4138,39.7865],[116.4149,39.7927],[116.4234,39.7924],[116.4231,39.8023],[116.4179,39.8071],[116.4122,39.8079],[116.4134,39.814],[116.4095,39.8281],[116.4189,39.8305],[116.4255,39.8316],[116.4306,39.8384],[116.4405,39.8427],[116.4398,39.8467],[116.449,39.8492],[116.4581,39.849],[116.4571,39.8548],[116.4368,39.8646],[116.4373,39.8709],[116.4168,39.8714],[116.41,39.8701],[116.4095,39.8623],[116.4049,39.8575],[116.3893,39.8572],[116.385,39.8638],[116.3749,39.8653],[116.375,39.8698]]]},"properties":{"region_code":"CN-11-110106","parent_region_code":"CN-11","name":"丰台区","level":"county","has_children":false,"full_path":"中国 / 北京市 / 丰台区","source_admin_code":"110106","osm_relation_id":2988946}},
{"type":"Feature","geometry":{"type":"Polygon","coordinates":[[[116.2529,39.8952],[116.2468,39.8958],[116.2467,39.914],[116.2399,39.9173],[116.2262,39.9155],[116.2224,39.9175],[116.2004,39.9154],[116.2007,39.9229],[116.2085,39.9251],[116.2096,39.9396],[116.2056,39.9483],[116.1949,39.9598],[116.1844,39.9639],[116.1795,39.9686],[116.1805,39.9826],[116.1726,39.9823],[116.1649,39.9752],[116.1609,39.9862],[116.152,39.9826],[116.1448,39.9923],[116.1291,39.9867],[116.1126,39.9847],[116.1072,39.98],[116.1103,39.9705],[116.1165,39.9672],[116.1147,39.9601],[116.1088,39.9566],[116.1139,39.9492],[116.1072,39.9469],[116.1058,39.9413],[116.1141,39.9315],[116.1184,39.9333],[116.1229,39.9233],[116.1353,39.9202],[116.1367,39.9116],[116.147,39.906],[116.1492,39.8979],[116.1551,39.8958],[116.1612,39.8856],[116.1717,39.8822],[116.1858,39.8805],[116.1943,39.8808],[116.201,39.8749],[116.2043,39.8771],[116.212,39.8754],[116.2128,39.8801],[116.2222,39.882],[116.2218,39.8878],[116.2296,39.8882],[116.2319,39.893],[116.2529,39.8952]]]},"properties":{"region_code":"CN-11-110107","parent_region_code":"CN-11","name":"石景山区","level":"county","has_children":false,"full_path":"中国 / 北京市 / 石景山区","source_admin_code":"110107","osm_relation_id":5505985}},
{"type":"Feature","geometry":{"type":"Polygon","coordinates":[[[116.3747,39.9712],[116.3752,39.9757],[116.3708,39.9907],[116.3447,40.0253],[116.3728,40.0298],[116.3888,40.0313],[116.3841,40.0353],[116.3845,40.0398],[116.3715,40.0416],[116.3631,40.0456],[116.3611,40.0516],[116.3736,40.0598],[116.3724,40.0649],[116.3661,40.0673],[116.357,40.0645],[116.3458,40.0632],[116.3411,40.0591],[116.3272,40.0566],[116.3195,40.0534],[116.3123,40.0604],[116.307,40.0584],[116.2998,40.061],[116.2967,40.0587],[116.2842,40.0818],[116.274,40.0786],[116.2675,40.0906],[116.2592,40.0934],[116.2564,40.0972],[116.2584,40.1047],[116.2573,40.1093],[116.2511,40.1094],[116.2387,40.1042],[116.2378,40.1107],[116.241,40.1349],[116.2281,40.1353],[116.2001,40.1419],[116.1994,40.1494],[116.196,40.1597],[116.1794,40.156],[116.1743,40.1501],[116.1742,40.1458],[116.1674,40.1413],[116.1614,40.1412],[116.1621,40.1345],[116.1655,40.1266],[116.1615,40.1233],[116.1464,40.1203],[116.1266,40.1199],[116.1213,40.1149],[116.1049,40.114],[116.0958,40.1145],[116.0897,40.1198],[116.0785,40.1183],[116.0717,40.1137],[116.0675,40.114],[116.0632,40.1036],[116.0566,40.1014],[116.0495,40.095],[116.0425,40.0839],[116.0499,40.0753],[116.0576,40.0716],[116.0598,40.0642],[116.0648,40.0606],[116.0617,40.0505],[116.0718,40.0313],[116.0778,40.0295],[116.1096,40.0313],[116.117,40.0282],[116.1234,40.0297],[116.1338,40.0273],[116.143,40.0207],[116.1511,40.0196],[116.1692,40.0049],[116.1666,39.9996],[116.1498,39.9968],[116.1448,39.9923],[116.152,39.9826],[116.1609,39.9862],[116.1649,39.9752],[116.1726,39.9823],[116.1805,39.9826],[116.1795,39.9686],[116.1844,39.9639],[116.1949,39.9598],[116.2056,39.9483],[116.2096,39.9396],[116.2085,39.9251],[116.2007,39.9229],[116.2004,39.9154],[116.2224,39.9175],[116.2262,39.9155],[116.2399,39.9173],[116.2467,39.914],[116.2468,39.8958],[116.2529,39.8952],[116.2887,39.895],[116.2888,39.8853],[116.3003,39.8896],[116.3084,39.8957],[116.3197,39.8956],[116.3287,39.8974],[116.3284,39.9216],[116.3266,39.9425],[116.3345,39.9408],[116.35,39.9427],[116.3657,39.9472],[116.3639,39.9665],[116.3742,39.9666],[116.3747,39.9712]]]},"properties":{"region_code":"CN-11-110108","parent_region_code":"CN-11","name":"海淀区","level":"county","has_children":false,"full_path":"中国 / 北京市 / 海淀区","source_admin_code":"110108","osm_relation_id":5505984}},
{"type":"Feature","geometry":{"type":"Polygon","coordinates":[[[116.1612,39.8856],[116.1551,39.8958],[116.1492,39.8979],[116.147,39.906],[116.1367,39.9116],[116.1353,39.9202],[116.1229,39.9233],[116.1184,39.9333],[116.1141,39.9315],[116.1058,39.9413],[116.1072,39.9469],[116.1139,39.9492],[116.1088,39.9566],[116.1147,39.9601],[116.1165,39.9672],[116.1103,39.9705],[116.1072,39.98],[116.1126,39.9847],[116.1291,39.9867],[116.1448,39.9923],[116.1498,39.9968],[116.1666,39.9996],[116.1692,40.0049],[116.1511,40.0196],[116.143,40.0207],[116.1338,40.0273],[116.1234,40.0297],[116.117,40.0282],[116.1096,40.0313],[116.0778,40.0295],[116.0718,40.0313],[116.0617,40.0505],[116.0648,40.0606],[116.0598,40.0642],[116.0576,40.0716],[116.0499,40.0753],[116.0425,40.0839],[116.0317,40.0832],[116.0246,40.0808],[116.0173,40.0749],[116.0103,40.0747],[115.9898,40.082],[115.9741,40.0806],[115.9625,40.0743],[115.9605,40.0834],[115.9544,40.0913],[115.9572,40.1003],[115.9484,40.097],[115.9372,40.1022],[115.9419,40.1063],[115.9275,40.1237],[115.916,40.1331],[115.9019,40.1373],[115.8755,40.1379],[115.8591,40.1475],[115.8504,40.1463],[115.8473,40.1482],[115.8403,40.146],[115.8161,40.1515],[115.8004,40.1521],[115.7807,40.1692],[115.7808,40.1775],[115.7668,40.175],[115.7619,40.1643],[115.7559,40.1614],[115.7506,40.1631],[115.7433,40.1518],[115.7486,40.1442],[115.743,40.1365],[115.7278,40.1282],[115.7186,40.1276],[115.7096,40.1322],[115.7024,40.1331],[115.6945,40.1303],[115.691,40.1256],[115.6861,40.1311],[115.6516,40.127],[115.6484,40.1302],[115.6385,40.1256],[115.6357,40.1148],[115.6254,40.1168],[115.6101,40.1161],[115.6009,40.119],[115.593,40.119],[115.5888,40.1153],[115.5884,40.1084],[115.5854,40.1027],[115.5846,40.0954],[115.5724,40.0953],[115.5701,40.0998],[115.5616,40.0955],[115.5573,40.0969],[115.5476,40.0906],[115.5493,40.0816],[115.546,40.0782],[115.5362,40.0748],[115.5317,40.0767],[115.5211,40.0749],[115.5087,40.0658],[115.499,40.0557],[115.4819,40.0449],[115.4815,40.0421],[115.4721,40.0349],[115.4619,40.0306],[115.4542,40.0309],[115.448,40.0284],[115.4456,40.0194],[115.4356,40.0095],[115.4373,40.0047],[115.4427,40.0006],[115.4438,39.9919],[115.4374,39.9933],[115.4288,39.9889],[115.422,39.983],[115.4168,39.9684],[115.4204,39.9639],[115.4172,39.9543],[115.4228,39.9481],[115.4319,39.9512],[115.4458,39.9469],[115.4565,39.9395],[115.4743,39.9346],[115.4809,39.9226],[115.5006,39.9127],[115.5026,39.9095],[115.5139,39.9014],[115.5168,39.8978],[115.5027,39.883],[115.5201,39.8745],[115.5211,39.8687],[115.5157,39.867],[115.5166,39.8612],[115.5104,39.8474],[115.5047,39.8439],[115.5082,39.8372],[115.5203,39.8341],[115.5252,39.8291],[115.5292,39.8296],[115.5397,39.8252],[115.5416,39.8218],[115.5633,39.8123],[115.5696,39.8109],[115.5824,39.8136],[115.5896,39.8195],[115.5932,39.828],[115.5994,39.8336],[115.6014,39.8397],[115.6069,39.8424],[115.6103,39.8564],[115.6168,39.8656],[115.6248,39.8708],[115.634,39.8705],[115.638,39.8751],[115.6427,39.8743],[115.6481,39.8809],[115.672,39.8854],[115.6763,39.8918],[115.6855,39.8984],[115.7029,39.9039],[115.7133,39.9034],[115.7153,39.9056],[115.7248,39.906],[115.7342,39.9112],[115.7426,39.9139],[115.7433,39.9174],[115.7551,39.9196],[115.7635,39.924],[115.768,39.9193],[115.7866,39.9196],[115.7927,39.9215],[115.8007,39.9184],[115.805,39.9125],[115.814,39.9129],[115.8199,39.9103],[115.829,39.8984],[115.8337,39.8993],[115.8391,39.8959],[115.8538,39.8994],[115.8639,39.9057],[115.867,39.911],[115.8739,39.9153],[115.8839,39.9163],[115.8972,39.9124],[115.9206,39.9131],[115.9301,39.9167],[115.9355,39.9162],[115.9401,39.9097],[115.9371,39.9045],[115.9395,39.9007],[115.9297,39.8969],[115.9291,39.8941],[115.916,39.8833],[115.9192,39.876],[115.936,39.8713],[115.9415,39.8715],[115.9463,39.8665],[115.9706,39.8671],[115.9702,39.8693],[115.9847,39.8751],[115.9908,39.8742],[115.983,39.8605],[115.9794,39.8581],[115.9782,39.8479],[115.9852,39.839],[115.9964,39.8444],[116.0019,39.8494],[116.0113,39.8475],[116.012,39.8419],[116.0197,39.8404],[116.0396,39.846],[116.0484,39.8446],[116.0502,39.8494],[116.0575,39.8496],[116.0641,39.8579],[116.0611,39.8644],[116.0713,39.8689],[116.081,39.8646],[116.0958,39.8713],[116.1065,39.8721],[116.1143,39.877],[116.119,39.8764],[116.1337,39.8827],[116.1444,39.8829],[116.1504,39.8879],[116.1612,39.8856]]]},"properties":{"region_code":"CN-11-110109","parent_region_code":"CN-11","name":"门头沟区","level":"county","has_children":false,"full_path":"中国 / 北京市 / 门头沟区","source_admin_code":"110109","osm_relation_id":2988898}},
{"type":"Feature","geometry":{"type":"Polygon","coordinates":[[[116.0484,39.8446],[116.0396,39.846],[116.0197,39.8404],[116.012,39.8419],[116.0113,39.8475],[116.0019,39.8494],[115.9964,39.8444],[115.9852,39.839],[115.9782,39.8479],[115.9794,39.8581],[115.983,39.8605],[115.9908,39.8742],[115.9847,39.8751],[115.9702,39.8693],[115.9706,39.8671],[115.9463,39.8665],[115.9415,39.8715],[115.936,39.8713],[115.9192,39.876],[115.916,39.8833],[115.9291,39.8941],[115.9297,39.8969],[115.9395,39.9007],[115.9371,39.9045],[115.9401,39.9097],[115.9355,39.9162],[115.9301,39.9167],[115.9206,39.9131],[115.8972,39.9124],[115.8839,39.9163],[115.8739,39.9153],[115.867,39.911],[115.8639,39.9057],[115.8538,39.8994],[115.8391,39.8959],[115.8337,39.8993],[115.829,39.8984],[115.8199,39.9103],[115.814,39.9129],[115.805,39.9125],[115.8007,39.9184],[115.7927,39.9215],[115.7866,39.9196],[115.768,39.9193],[115.7635,39.924],[115.7551,39.9196],[115.7433,39.9174],[115.7426,39.9139],[115.7342,39.9112],[115.7248,39.906],[115.7153,39.9056],[115.7133,39.9034],[115.7029,39.9039],[115.6855,39.8984],[115.6763,39.8918],[115.672,39.8854],[115.6481,39.8809],[115.6427,39.8743],[115.638,39.8751],[115.634,39.8705],[115.6248,39.8708],[115.6168,39.8656],[115.6103,39.8564],[115.6069,39.8424],[115.6014,39.8397],[115.5994,39.8336],[115.5932,39.828],[115.5896,39.8195],[115.5824,39.8136],[115.5696,39.8109],[115.5633,39.8123],[115.5606,39.8037],[115.5564,39.8025],[115.5522,39.7968],[115.5452,39.7934],[115.539,39.7947],[115.5313,39.7913],[115.5079,39.7876],[115.5013,39.7824],[115.4893,39.7923],[115.4775,39.7975],[115.4695,39.7906],[115.452,39.7811],[115.4472,39.7807],[115.4375,39.7844],[115.4276,39.781],[115.4248,39.7742],[115.4293,39.7691],[115.4281,39.7632],[115.4334,39.7507],[115.4466,39.7471],[115.4608,39.7389],[115.4647,39.7411],[115.4799,39.7404],[115.486,39.7346],[115.4821,39.7284],[115.487,39.7089],[115.4863,39.7005],[115.4929,39.6953],[115.4937,39.6901],[115.4899,39.6845],[115.4824,39.68],[115.4802,39.6726],[115.4853,39.6677],[115.477,39.6625],[115.4733,39.6578],[115.4723,39.6498],[115.4782,39.6502],[115.4872,39.6476],[115.4907,39.6514],[115.5006,39.6509],[115.5054,39.6432],[115.5164,39.6389],[115.5144,39.632],[115.5155,39.6215],[115.5068,39.6097],[115.506,39.6037],[115.5093,39.5935],[115.5245,39.6018],[115.5272,39.6099],[115.533,39.615],[115.5397,39.6177],[115.5485,39.608],[115.5584,39.6049],[115.5616,39.5981],[115.5678,39.5955],[115.5657,39.5905],[115.5809,39.5885],[115.586,39.5953],[115.6121,39.6023],[115.6197,39.5983],[115.6283,39.597],[115.6283,39.6025],[115.6357,39.6021],[115.6373,39.5978],[115.6441,39.5998],[115.6516,39.599],[115.6594,39.6042],[115.6615,39.6087],[115.6794,39.6025],[115.6833,39.5975],[115.6833,39.5916],[115.6882,39.5865],[115.6874,39.5792],[115.6934,39.5759],[115.6892,39.5629],[115.7059,39.5609],[115.7111,39.5589],[115.7167,39.5512],[115.7156,39.5436],[115.7242,39.5463],[115.7307,39.5444],[115.7359,39.5351],[115.7378,39.5254],[115.7464,39.5142],[115.7533,39.5127],[115.7654,39.5139],[115.7806,39.5089],[115.7864,39.5096],[115.8147,39.5085],[115.8226,39.5058],[115.8235,39.5117],[115.8162,39.513],[115.8181,39.5213],[115.8133,39.5239],[115.8128,39.5297],[115.8223,39.5343],[115.8221,39.54],[115.8362,39.5405],[115.8401,39.5422],[115.8416,39.5493],[115.8495,39.5529],[115.8603,39.5453],[115.8675,39.5479],[115.877,39.5471],[115.8872,39.5553],[115.8875,39.5609],[115.8841,39.5668],[115.8901,39.5689],[115.9018,39.5658],[115.905,39.5685],[115.9098,39.5819],[115.9028,39.583],[115.9015,39.5931],[115.906,39.5983],[115.9179,39.5963],[115.9244,39.5923],[115.9283,39.5871],[115.932,39.5764],[115.9431,39.572],[115.9441,39.5653],[115.9539,39.5624],[115.9616,39.5634],[115.963,39.5698],[115.9685,39.5697],[115.9716,39.578],[115.9712,39.5897],[115.9748,39.5933],[115.9851,39.5925],[115.9846,39.5849],[115.9908,39.582],[115.9936,39.5769],[116.0016,39.5756],[116.0079,39.5866],[116.0204,39.5844],[116.0185,39.5741],[116.0331,39.5706],[116.0927,39.5735],[116.0995,39.5752],[116.0997,39.5695],[116.1153,39.5692],[116.1324,39.5678],[116.1387,39.5708],[116.1457,39.5777],[116.1456,39.5822],[116.1544,39.5819],[116.1706,39.5848],[116.171,39.5888],[116.1787,39.5897],[116.1844,39.5862],[116.195,39.5852],[116.2002,39.5821],[116.202,39.5765],[116.215,39.5775],[116.2207,39.5886],[116.2121,39.6062],[116.2115,39.6137],[116.2133,39.6277],[116.2097,39.6435],[116.217,39.6631],[116.2139,39.6682],[116.2154,39.6726],[116.2138,39.6814],[116.2217,39.6883],[116.2204,39.695],[116.2232,39.7074],[116.2332,39.7124],[116.24,39.7187],[116.2422,39.7265],[116.2374,39.7402],[116.2467,39.7501],[116.247,39.7748],[116.2442,39.7921],[116.2436,39.8021],[116.2335,39.8162],[116.2254,39.8234],[116.2073,39.8228],[116.2099,39.816],[116.2025,39.8054],[116.1971,39.8006],[116.1953,39.795],[116.1958,39.785],[116.1939,39.7767],[116.1776,39.7826],[116.1635,39.783],[116.1599,39.7737],[116.1529,39.7666],[116.1255,39.7634],[116.1135,39.7665],[116.1128,39.7736],[116.1172,39.7786],[116.1265,39.7784],[116.1252,39.7836],[116.116,39.7847],[116.1144,39.7891],[116.1036,39.788],[116.0882,39.7804],[116.0831,39.7903],[116.08,39.7917],[116.0802,39.8075],[116.0791,39.815],[116.0821,39.8172],[116.0786,39.8259],[116.0669,39.8372],[116.0505,39.8417],[116.0484,39.8446]]]},"properties":{"region_code":"CN-11-110111","parent_region_code":"CN-11","name":"房山区","level":"county","has_children":false,"full_path":"中国 / 北京市 / 房山区","source_admin_code":"110111","osm_relation_id":2988896}},
{"type":"Feature","geometry":{"type":"Polygon","coordinates":[[[116.5289,39.8236],[116.5304,39.8144],[116.5347,39.8108],[116.5354,39.8023],[116.5288,39.7996],[116.5256,39.791],[116.5265,39.7852],[116.5321,39.7799],[116.5246,39.7773],[116.5341,39.7601],[116.5188,39.7611],[116.5168,39.748],[116.5259,39.7473],[116.5215,39.7423],[116.5265,39.7385],[116.526,39.729],[116.5317,39.7274],[116.5313,39.7213],[116.5264,39.7143],[116.5301,39.711],[116.5399,39.7142],[116.5654,39.7137],[116.5677,39.7084],[116.5739,39.7112],[116.5948,39.7114],[116.5988,39.7175],[116.6036,39.7182],[116.6071,39.7229],[116.6159,39.7273],[116.6215,39.7273],[116.6314,39.7234],[116.6331,39.7148],[116.6377,39.7096],[116.6473,39.703],[116.6402,39.6999],[116.645,39.6873],[116.6606,39.6862],[116.6638,39.6824],[116.6603,39.6788],[116.6629,39.6738],[116.6794,39.6758],[116.6979,39.6732],[116.6991,39.6662],[116.6961,39.6572],[116.6969,39.6486],[116.7044,39.6385],[116.718,39.6374],[116.7157,39.6283],[116.7195,39.6229],[116.732,39.6142],[116.7416,39.6171],[116.7477,39.6171],[116.7567,39.6127],[116.7682,39.6043],[116.772,39.5921],[116.7786,39.5929],[116.7867,39.6011],[116.7839,39.6095],[116.8027,39.6133],[116.8137,39.6179],[116.8258,39.6159],[116.8326,39.6211],[116.8205,39.632],[116.8211,39.6371],[116.8347,39.6432],[116.8332,39.6465],[116.8455,39.6514],[116.844,39.6665],[116.8547,39.6663],[116.8579,39.6693],[116.8673,39.6704],[116.8775,39.6743],[116.8852,39.6731],[116.9006,39.6766],[116.9034,39.6819],[116.897,39.6894],[116.8871,39.6877],[116.8875,39.6947],[116.8823,39.7017],[116.8801,39.7082],[116.8814,39.713],[116.8767,39.7175],[116.8816,39.7244],[116.8939,39.725],[116.8964,39.7283],[116.9055,39.7305],[116.9047,39.74],[116.9074,39.745],[116.8956,39.7543],[116.8959,39.7626],[116.9043,39.7612],[116.915,39.768],[116.9106,39.7747],[116.9154,39.7794],[116.9337,39.7803],[116.9398,39.7763],[116.9439,39.7775],[116.9422,39.7843],[116.948,39.7851],[116.9449,39.7905],[116.9325,39.7921],[116.9289,39.8001],[116.9369,39.8006],[116.9233,39.8108],[116.9217,39.8279],[116.92,39.8345],[116.9115,39.8459],[116.9045,39.8495],[116.8971,39.8473],[116.8969,39.8404],[116.9018,39.833],[116.8973,39.8295],[116.8915,39.8316],[116.8777,39.8446],[116.866,39.841],[116.8597,39.8459],[116.8495,39.8494],[116.8463,39.858],[116.8413,39.8575],[116.8334,39.8646],[116.8263,39.8686],[116.8211,39.8765],[116.8111,39.8777],[116.8025,39.884],[116.7983,39.8838],[116.7983,39.8769],[116.7899,39.8796],[116.7788,39.8901],[116.7765,39.9094],[116.7763,39.9269],[116.7797,39.9379],[116.7765,39.9464],[116.7711,39.9499],[116.7719,39.9548],[116.763,39.9536],[116.7538,39.957],[116.752,39.9665],[116.7604,39.9754],[116.7608,39.9811],[116.7694,39.9917],[116.77,40.0018],[116.7657,40.0077],[116.7667,40.0146],[116.7476,40.0149],[116.7412,40.0243],[116.7364,40.0264],[116.7114,40.0186],[116.71,40.0227],[116.7035,40.0256],[116.6979,40.0191],[116.6914,40.0151],[116.6826,40.0149],[116.6731,40.0127],[116.6597,40.0141],[116.6542,40.0206],[116.649,40.0181],[116.645,40.0245],[116.6318,40.02],[116.621,40.0203],[116.6083,40.0306],[116.597,40.0274],[116.5941,40.0173],[116.5892,40.0165],[116.5993,40.0117],[116.6127,40.0106],[116.6222,40.0066],[116.6252,40.0003],[116.6301,40.0027],[116.637,39.9958],[116.6381,39.9885],[116.6273,39.9848],[116.6341,39.9815],[116.6362,39.9668],[116.637,39.9518],[116.6393,39.9453],[116.6263,39.9494],[116.6243,39.9456],[116.6283,39.9373],[116.6237,39.9302],[116.6181,39.9292],[116.6247,39.9207],[116.6152,39.9219],[116.6173,39.9127],[116.6144,39.9072],[116.6181,39.9032],[116.6096,39.8943],[116.6099,39.8885],[116.6223,39.8893],[116.6235,39.8805],[116.6145,39.868],[116.6214,39.8599],[116.6075,39.8493],[116.5987,39.849],[116.596,39.8401],[116.5935,39.8245],[116.5777,39.8238],[116.5713,39.8296],[116.5637,39.8324],[116.5514,39.8338],[116.5378,39.8338],[116.537,39.8289],[116.5289,39.8236]]]},"properties":{"region_code":"CN-11-110112","parent_region_code":"CN-11","name":"通州区","level":"county","has_children":false,"full_path":"中国 / 北京市 / 通州区","source_admin_code":"110112","osm_relation_id":2988902}},
{"type":"Feature","geometry":{"type":"Polygon","coordinates":[[[116.5892,40.0165],[116.5941,40.0173],[116.597,40.0274],[116.6083,40.0306],[116.621,40.0203],[116.6318,40.02],[116.645,40.0245],[116.649,40.0181],[116.6542,40.0206],[116.6597,40.0141],[116.6731,40.0127],[116.6826,40.0149],[116.6914,40.0151],[116.6979,40.0191],[116.7035,40.0256],[116.71,40.0227],[116.7114,40.0186],[116.7364,40.0264],[116.7412,40.0243],[116.7476,40.0149],[116.7667,40.0146],[116.7698,40.0206],[116.7718,40.0314],[116.7748,40.0336],[116.7941,40.0277],[116.7972,40.031],[116.8139,40.0272],[116.8146,40.0378],[116.8168,40.0454],[116.8256,40.0499],[116.8519,40.0511],[116.8619,40.0408],[116.8692,40.0403],[116.8749,40.0451],[116.884,40.045],[116.8956,40.0469],[116.9035,40.0515],[116.9094,40.0472],[116.9182,40.0465],[116.9195,40.0503],[116.9329,40.05],[116.9373,40.0476],[116.9393,40.0404],[116.9559,40.0502],[116.9563,40.0624],[116.9674,40.0652],[116.9725,40.0638],[116.9802,40.0772],[116.9751,40.0803],[116.9692,40.0939],[116.964,40.1007],[116.9673,40.1026],[116.97,40.1101],[116.9631,40.1176],[116.9655,40.1231],[116.9597,40.1267],[116.9674,40.1446],[116.9724,40.1481],[116.9631,40.1592],[116.9624,40.1643],[116.9554,40.1691],[116.956,40.1744],[116.9454,40.1737],[116.9394,40.1795],[116.9429,40.1897],[116.9313,40.1957],[116.9237,40.2105],[116.9321,40.2095],[116.935,40.2228],[116.9292,40.2288],[116.9251,40.2295],[116.9161,40.2191],[116.9015,40.2227],[116.9007,40.2276],[116.889,40.2308],[116.8944,40.2379],[116.8884,40.2389],[116.8863,40.2446],[116.8806,40.2508],[116.8756,40.2604],[116.8686,40.2674],[116.8704,40.2732],[116.8658,40.2804],[116.8654,40.2898],[116.8535,40.2897],[116.851,40.292],[116.8485,40.3021],[116.843,40.31],[116.8324,40.309],[116.823,40.3032],[116.8185,40.2898],[116.8191,40.2842],[116.8128,40.2815],[116.7945,40.2879],[116.7883,40.286],[116.7819,40.2882],[116.7817,40.2802],[116.778,40.2782],[116.7764,40.2717],[116.7608,40.2668],[116.7467,40.2742],[116.7368,40.2777],[116.7328,40.2828],[116.7229,40.2737],[116.7048,40.255],[116.6986,40.2559],[116.6985,40.2503],[116.6905,40.2469],[116.6912,40.242],[116.6847,40.2397],[116.678,40.2331],[116.6643,40.2337],[116.6649,40.2435],[116.6674,40.2456],[116.6599,40.2615],[116.6426,40.259],[116.6372,40.256],[116.6294,40.2603],[116.6178,40.2595],[116.6162,40.2494],[116.5979,40.2503],[116.5988,40.255],[116.5949,40.2579],[116.5938,40.2643],[116.585,40.263],[116.5826,40.2684],[116.5643,40.2677],[116.5647,40.272],[116.5577,40.2753],[116.535,40.2738],[116.5342,40.266],[116.5298,40.2604],[116.519,40.2598],[116.5031,40.2568],[116.4999,40.2601],[116.4954,40.2577],[116.4973,40.2505],[116.4882,40.2491],[116.4771,40.2453],[116.4788,40.2221],[116.4713,40.2229],[116.4676,40.2198],[116.4647,40.2081],[116.4662,40.2036],[116.4783,40.1952],[116.482,40.1903],[116.4811,40.1815],[116.4729,40.1586],[116.4819,40.1566],[116.4809,40.1487],[116.4731,40.1452],[116.4787,40.1389],[116.4809,40.1256],[116.4862,40.1087],[116.4811,40.0983],[116.4602,40.0935],[116.4608,40.0888],[116.4675,40.084],[116.4772,40.0827],[116.4807,40.0798],[116.4946,40.0783],[116.5061,40.0697],[116.5231,40.0694],[116.5378,40.058],[116.5459,40.057],[116.5458,40.0439],[116.5565,40.0397],[116.5649,40.0311],[116.5892,40.0165]],[[116.5981,40.083],[116.6027,40.0541],[116.5977,40.0518],[116.5976,40.0462],[116.594,40.0403],[116.5842,40.0425],[116.586,40.0476],[116.5819,40.0496],[116.584,40.0555],[116.5809,40.0732],[116.573,40.0711],[116.5678,40.1041],[116.5725,40.1018],[116.5749,40.0873],[116.5901,40.0892],[116.5971,40.0927],[116.5981,40.083]]]},"properties":{"region_code":"CN-11-110113","parent_region_code":"CN-11","name":"顺义区","level":"county","has_children":false,"full_path":"中国 / 北京市 / 顺义区","source_admin_code":"110113","osm_relation_id":2988901}},
{"type":"Feature","geometry":{"type":"Polygon","coordinates":[[[116.4608,40.0888],[116.4602,40.0935],[116.4811,40.0983],[116.4862,40.1087],[116.4809,40.1256],[116.4787,40.1389],[116.4731,40.1452],[116.4809,40.1487],[116.4819,40.1566],[116.4729,40.1586],[116.4811,40.1815],[116.482,40.1903],[116.4783,40.1952],[116.4662,40.2036],[116.4647,40.2081],[116.4676,40.2198],[116.4713,40.2229],[116.4788,40.2221],[116.4771,40.2453],[116.4882,40.2491],[116.4973,40.2505],[116.4954,40.2577],[116.4999,40.2601],[116.4871,40.2612],[116.4781,40.2663],[116.4778,40.2747],[116.4725,40.2787],[116.4668,40.279],[116.4541,40.2857],[116.4432,40.2843],[116.4447,40.2916],[116.4417,40.299],[116.4375,40.301],[116.4495,40.3128],[116.4378,40.3214],[116.4315,40.3309],[116.4279,40.3276],[116.4084,40.3301],[116.3865,40.3363],[116.3782,40.3376],[116.3615,40.3348],[116.3636,40.3409],[116.3589,40.3463],[116.3631,40.3551],[116.3576,40.3575],[116.3425,40.355],[116.3465,40.3629],[116.3537,40.3654],[116.3491,40.3699],[116.3389,40.3716],[116.3314,40.3782],[116.3217,40.3841],[116.3069,40.3881],[116.2965,40.3861],[116.2924,40.3834],[116.2876,40.3911],[116.2837,40.3903],[116.2835,40.3785],[116.278,40.3746],[116.2648,40.3813],[116.2551,40.3792],[116.2472,40.38],[116.246,40.375],[116.2302,40.3759],[116.2257,40.3736],[116.2207,40.3799],[116.2052,40.3804],[116.2018,40.3757],[116.1749,40.367],[116.1707,40.3695],[116.1624,40.3652],[116.1529,40.3648],[116.1419,40.3603],[116.1423,40.3554],[116.1391,40.3496],[116.1494,40.3433],[116.1462,40.3362],[116.142,40.3343],[116.1384,40.3471],[116.132,40.3437],[116.1312,40.335],[116.1324,40.3222],[116.1355,40.3153],[116.1263,40.3105],[116.116,40.3113],[116.104,40.3293],[116.0921,40.3285],[116.0799,40.3293],[116.0768,40.3343],[116.067,40.3383],[116.0606,40.3351],[116.0553,40.3353],[116.047,40.3254],[116.0506,40.3207],[116.0448,40.3144],[116.0362,40.3154],[116.0338,40.3113],[116.0247,40.311],[116.0198,40.3191],[116.0202,40.3229],[116.0105,40.3333],[116.0045,40.333],[115.9957,40.328],[115.9881,40.3276],[115.9765,40.3229],[115.9684,40.3164],[115.9694,40.3074],[115.9817,40.3025],[115.972,40.2919],[115.9751,40.284],[115.9727,40.2804],[115.9756,40.2756],[115.9703,40.2697],[115.961,40.2645],[115.9596,40.2583],[115.954,40.2555],[115.9443,40.2551],[115.9362,40.2525],[115.9241,40.2535],[115.9099,40.2449],[115.9106,40.2413],[115.906,40.2334],[115.8917,40.2323],[115.8771,40.2151],[115.8803,40.2056],[115.8713,40.1998],[115.8703,40.1929],[115.8643,40.185],[115.857,40.185],[115.8494,40.1878],[115.842,40.1827],[115.8481,40.1788],[115.8383,40.1669],[115.8475,40.1531],[115.8473,40.1482],[115.8504,40.1463],[115.8591,40.1475],[115.8755,40.1379],[115.9019,40.1373],[115.916,40.1331],[115.9275,40.1237],[115.9419,40.1063],[115.9372,40.1022],[115.9484,40.097],[115.9572,40.1003],[115.9544,40.0913],[115.9605,40.0834],[115.9625,40.0743],[115.9741,40.0806],[115.9898,40.082],[116.0103,40.0747],[116.0173,40.0749],[116.0246,40.0808],[116.0317,40.0832],[116.0425,40.0839],[116.0495,40.095],[116.0566,40.1014],[116.0632,40.1036],[116.0675,40.114],[116.0717,40.1137],[116.0785,40.1183],[116.0897,40.1198],[116.0958,40.1145],[116.1049,40.114],[116.1213,40.1149],[116.1266,40.1199],[116.1464,40.1203],[116.1615,40.1233],[116.1655,40.1266],[116.1621,40.1345],[116.1614,40.1412],[116.1674,40.1413],[116.1742,40.1458],[116.1743,40.1501],[116.1794,40.156],[116.196,40.1597],[116.1994,40.1494],[116.2001,40.1419],[116.2281,40.1353],[116.241,40.1349],[116.2378,40.1107],[116.2387,40.1042],[116.2511,40.1094],[116.2573,40.1093],[116.2584,40.1047],[116.2564,40.0972],[116.2592,40.0934],[116.2675,40.0906],[116.274,40.0786],[116.2842,40.0818],[116.2967,40.0587],[116.2998,40.061],[116.307,40.0584],[116.3123,40.0604],[116.3195,40.0534],[116.3272,40.0566],[116.3411,40.0591],[116.3458,40.0632],[116.357,40.0645],[116.3661,40.0673],[116.3724,40.0649],[116.3736,40.0598],[116.3611,40.0516],[116.3631,40.0456],[116.3715,40.0416],[116.3845,40.0398],[116.3891,40.0353],[116.3977,40.0371],[116.4024,40.0419],[116.4,40.0483],[116.4033,40.0542],[116.4097,40.055],[116.4228,40.0606],[116.432,40.0606],[116.4433,40.0574],[116.448,40.0605],[116.4538,40.0585],[116.4557,40.0647],[116.4524,40.0694],[116.4603,40.0807],[116.4608,40.0888]]]},"properties":{"region_code":"CN-11-110114","parent_region_code":"CN-11","name":"昌平区","level":"county","has_children":false,"full_path":"中国 / 北京市 / 昌平区","source_admin_code":"110114","osm_relation_id":2988894}},
{"type":"Feature","geometry":{"type":"Polygon","coordinates":[[[116.4189,39.8305],[116.4095,39.8281],[116.4134,39.814],[116.4122,39.8079],[116.4179,39.8071],[116.4231,39.8023],[116.4234,39.7924],[116.4149,39.7927],[116.4138,39.7865],[116.3896,39.7856],[116.3912,39.7829],[116.3925,39.7644],[116.3851,39.7637],[116.3841,39.7789],[116.3729,39.7776],[116.3725,39.7842],[116.3614,39.7836],[116.361,39.7981],[116.351,39.7989],[116.3496,39.805],[116.3348,39.8047],[116.3221,39.8005],[116.317,39.7971],[116.3155,39.7818],[116.3106,39.782],[116.3051,39.7684],[116.2967,39.7719],[116.2882,39.7895],[116.2882,39.7967],[116.2814,39.798],[116.2567,39.7918],[116.2506,39.7935],[116.2442,39.7921],[116.247,39.7748],[116.2467,39.7501],[116.2374,39.7402],[116.2422,39.7265],[116.24,39.7187],[116.2332,39.7124],[116.2232,39.7074],[116.2204,39.695],[116.2217,39.6883],[116.2138,39.6814],[116.2154,39.6726],[116.2139,39.6682],[116.217,39.6631],[116.2097,39.6435],[116.2133,39.6277],[116.2115,39.6137],[116.2121,39.6062],[116.2207,39.5886],[116.215,39.5775],[116.2187,39.5686],[116.2233,39.5643],[116.2344,39.5629],[116.2362,39.5518],[116.2403,39.5386],[116.2373,39.5231],[116.2406,39.5188],[116.2397,39.5136],[116.2476,39.5089],[116.2517,39.4993],[116.263,39.4943],[116.2694,39.494],[116.2731,39.4902],[116.2867,39.491],[116.3004,39.4876],[116.3007,39.4838],[116.3079,39.4755],[116.3137,39.4724],[116.3139,39.4672],[116.3194,39.4617],[116.3317,39.4545],[116.3558,39.4537],[116.3616,39.4505],[116.3824,39.4495],[116.3856,39.4517],[116.3934,39.4488],[116.4028,39.4491],[116.4185,39.446],[116.4281,39.4416],[116.4309,39.4447],[116.4441,39.4473],[116.4473,39.4565],[116.4425,39.4634],[116.4425,39.475],[116.4381,39.481],[116.4297,39.4817],[116.4237,39.48],[116.4209,39.4861],[116.4063,39.4805],[116.4112,39.4939],[116.4168,39.4953],[116.4126,39.505],[116.4025,39.5067],[116.3964,39.5131],[116.3964,39.5256],[116.4051,39.5233],[116.4153,39.5239],[116.4175,39.52],[116.4185,39.5084],[116.4268,39.506],[116.4377,39.5084],[116.4305,39.525],[116.4475,39.5252],[116.4584,39.5265],[116.4584,39.5304],[116.4731,39.5376],[116.4685,39.5444],[116.4669,39.5518],[116.4758,39.5523],[116.4836,39.549],[116.5026,39.5499],[116.502,39.559],[116.5056,39.5643],[116.5135,39.5654],[116.5145,39.576],[116.5171,39.5819],[116.5154,39.5891],[116.5186,39.5956],[116.53,39.5952],[116.5347,39.5934],[116.5437,39.5952],[116.5515,39.6006],[116.5608,39.6034],[116.5602,39.6152],[116.5633,39.6194],[116.5736,39.6187],[116.5734,39.6225],[116.5943,39.6187],[116.5964,39.6236],[116.6021,39.6238],[116.611,39.6132],[116.6112,39.6063],[116.6146,39.6008],[116.6226,39.5986],[116.6297,39.599],[116.6326,39.6025],[116.6409,39.5983],[116.6517,39.5995],[116.6595,39.6045],[116.6745,39.6003],[116.6767,39.5977],[116.688,39.6004],[116.6904,39.5941],[116.6991,39.5867],[116.7211,39.5918],[116.7123,39.6017],[116.6988,39.6081],[116.6946,39.6198],[116.7041,39.6168],[116.7195,39.6229],[116.7157,39.6283],[116.718,39.6374],[116.7044,39.6385],[116.6969,39.6486],[116.6961,39.6572],[116.6991,39.6662],[116.6979,39.6732],[116.6794,39.6758],[116.6629,39.6738],[116.6603,39.6788],[116.6638,39.6824],[116.6606,39.6862],[116.645,39.6873],[116.6402,39.6999],[116.6473,39.703],[116.6377,39.7096],[116.6331,39.7148],[116.6314,39.7234],[116.6215,39.7273],[116.6159,39.7273],[116.6071,39.7229],[116.6036,39.7182],[116.5988,39.7175],[116.5948,39.7114],[116.5739,39.7112],[116.5677,39.7084],[116.5654,39.7137],[116.5399,39.7142],[116.5301,39.711],[116.5264,39.7143],[116.5313,39.7213],[116.5317,39.7274],[116.526,39.729],[116.5265,39.7385],[116.5215,39.7423],[116.5259,39.7473],[116.5168,39.748],[116.5188,39.7611],[116.5341,39.7601],[116.5246,39.7773],[116.5321,39.7799],[116.5265,39.7852],[116.5256,39.791],[116.5288,39.7996],[116.5354,39.8023],[116.5347,39.8108],[116.5304,39.8144],[116.5289,39.8236],[116.5202,39.8286],[116.5105,39.8286],[116.5043,39.8205],[116.489,39.8149],[116.4794,39.8157],[116.4792,39.8115],[116.4675,39.809],[116.4629,39.8133],[116.4572,39.8132],[116.4465,39.8213],[116.4383,39.8193],[116.437,39.8266],[116.4302,39.8265],[116.4189,39.8305]]]},"properties":{"region_code":"CN-11-110115","parent_region_code":"CN-11","name":"大兴区","level":"county","has_children":false,"full_path":"中国 / 北京市 / 大兴区","source_admin_code":"110115","osm_relation_id":2988895}},
{"type":"Feature","geometry":{"type":"Polygon","coordinates":[[[116.7328,40.2828],[116.7483,40.3024],[116.7568,40.3091],[116.7672,40.3147],[116.7625,40.3165],[116.7536,40.3256],[116.7524,40.3326],[116.7388,40.338],[116.7252,40.3337],[116.7184,40.3378],[116.7229,40.3543],[116.7207,40.3599],[116.712,40.3601],[116.7138,40.3678],[116.708,40.3673],[116.7004,40.3725],[116.701,40.3757],[116.7102,40.3828],[116.7056,40.3856],[116.7076,40.3913],[116.707,40.4005],[116.7124,40.4008],[116.7227,40.4085],[116.7347,40.4131],[116.7271,40.417],[116.7192,40.4169],[116.716,40.4235],[116.717,40.4344],[116.7134,40.4395],[116.7197,40.4418],[116.7134,40.4489],[116.7169,40.4572],[116.7088,40.4557],[116.7029,40.457],[116.6948,40.4635],[116.6873,40.4748],[116.6872,40.4893],[116.6921,40.4918],[116.695,40.5092],[116.7053,40.5151],[116.7061,40.5207],[116.7109,40.524],[116.7008,40.5312],[116.6963,40.5368],[116.6958,40.5442],[116.6846,40.5481],[116.6762,40.5476],[116.6708,40.5531],[116.6763,40.5555],[116.6736,40.5607],[116.6803,40.5632],[116.6932,40.5622],[116.7037,40.5641],[116.7087,40.5696],[116.7082,40.5789],[116.7028,40.5887],[116.7051,40.5988],[116.6998,40.6023],[116.7005,40.6095],[116.6918,40.617],[116.6996,40.6234],[116.6956,40.6319],[116.7024,40.6361],[116.7055,40.641],[116.7065,40.6498],[116.7037,40.6612],[116.7071,40.6684],[116.7088,40.6786],[116.7192,40.6832],[116.7194,40.6876],[116.7296,40.6902],[116.7501,40.7042],[116.7568,40.7049],[116.763,40.7013],[116.7778,40.699],[116.7805,40.7019],[116.7805,40.7088],[116.7836,40.7139],[116.7843,40.7275],[116.7745,40.75],[116.7779,40.7561],[116.7876,40.7467],[116.7946,40.7446],[116.8125,40.749],[116.8201,40.7479],[116.8256,40.7499],[116.8337,40.761],[116.8289,40.7674],[116.8443,40.7735],[116.8452,40.7775],[116.8614,40.7831],[116.8593,40.7932],[116.8652,40.7934],[116.8672,40.7974],[116.8745,40.7961],[116.8809,40.7997],[116.8742,40.803],[116.8761,40.8125],[116.8683,40.8206],[116.8554,40.8239],[116.8504,40.8336],[116.8336,40.8376],[116.8317,40.8401],[116.8175,40.8411],[116.8146,40.8468],[116.8075,40.8469],[116.7989,40.8392],[116.7954,40.8437],[116.7962,40.8497],[116.7908,40.8533],[116.791,40.8585],[116.7706,40.8768],[116.7632,40.8814],[116.7523,40.8804],[116.7533,40.8883],[116.7441,40.8901],[116.7332,40.8951],[116.7239,40.8964],[116.7175,40.9047],[116.7072,40.9116],[116.7149,40.9248],[116.6967,40.9349],[116.6959,40.9396],[116.6901,40.9429],[116.6836,40.9512],[116.6811,40.961],[116.6718,40.9694],[116.6719,40.9744],[116.6765,40.9847],[116.677,40.9989],[116.6848,41.0056],[116.6927,41.0196],[116.6891,41.026],[116.689,41.0316],[116.6825,41.043],[116.6768,41.0401],[116.6672,41.0447],[116.6592,41.0451],[116.651,41.0497],[116.6479,41.0547],[116.6414,41.0578],[116.6247,41.0591],[116.6119,41.0485],[116.6076,41.0392],[116.6153,41.0274],[116.616,41.0142],[116.609,41.0021],[116.6111,40.9972],[116.6086,40.9818],[116.5918,40.9733],[116.5774,40.9788],[116.5632,40.9901],[116.5553,40.9919],[116.5526,40.9871],[116.5418,40.9864],[116.536,40.9887],[116.5186,40.9794],[116.5135,40.9799],[116.5107,40.9737],[116.4984,40.9742],[116.4875,40.9762],[116.4794,40.9807],[116.4679,40.9768],[116.4578,40.9827],[116.4492,40.9787],[116.4454,40.9669],[116.447,40.9628],[116.4411,40.952],[116.4477,40.948],[116.456,40.9335],[116.4609,40.9296],[116.4621,40.9234],[116.4673,40.918],[116.4713,40.9001],[116.4677,40.8943],[116.4577,40.8947],[116.4524,40.8989],[116.4303,40.8976],[116.4245,40.9016],[116.4125,40.9005],[116.4078,40.898],[116.3984,40.9039],[116.3924,40.9042],[116.3785,40.9211],[116.37,40.9379],[116.364,40.9419],[116.3588,40.9415],[116.3526,40.9343],[116.3438,40.9343],[116.3336,40.9277],[116.3278,40.9191],[116.3292,40.9088],[116.3282,40.9029],[116.3359,40.8982],[116.3384,40.893],[116.3596,40.8784],[116.3603,40.8749],[116.3685,40.8698],[116.3754,40.8617],[116.3836,40.8596],[116.3854,40.8531],[116.3929,40.8487],[116.3998,40.8362],[116.4001,40.8316],[116.4094,40.827],[116.4161,40.821],[116.4305,40.819],[116.4337,40.8074],[116.4509,40.7966],[116.4551,40.7869],[116.4544,40.7808],[116.4592,40.7711],[116.4741,40.7699],[116.4789,40.7636],[116.4885,40.7585],[116.494,40.7592],[116.4967,40.755],[116.4956,40.745],[116.5066,40.7405],[116.5038,40.7334],[116.5046,40.7248],[116.497,40.7142],[116.4999,40.7093],[116.4957,40.7053],[116.4957,40.6956],[116.4905,40.6953],[116.4827,40.6904],[116.4771,40.6778],[116.4802,40.6732],[116.4954,40.6697],[116.4998,40.6716],[116.5095,40.6698],[116.5138,40.6629],[116.5123,40.6594],[116.521,40.6571],[116.5234,40.6532],[116.534,40.6553],[116.539,40.6488],[116.5479,40.6415],[116.5576,40.6359],[116.5683,40.6345],[116.5689,40.6311],[116.5645,40.6249],[116.5553,40.6272],[116.5457,40.6239],[116.539,40.6257],[116.5333,40.6243],[116.5269,40.6051],[116.5299,40.5981],[116.5249,40.5945],[116.5255,40.5899],[116.5191,40.5816],[116.5134,40.5784],[116.507,40.5714],[116.5034,40.5713],[116.499,40.5612],[116.4938,40.5594],[116.4902,40.5537],[116.4783,40.5513],[116.4735,40.5419],[116.4547,40.5228],[116.4578,40.5183],[116.4643,40.5175],[116.4707,40.5126],[116.4914,40.5167],[116.4943,40.5095],[116.5131,40.4952],[116.513,40.4905],[116.5023,40.4818],[116.486,40.4796],[116.4776,40.4834],[116.4619,40.4835],[116.4517,40.4869],[116.4491,40.4791],[116.4369,40.4803],[116.4268,40.4766],[116.4213,40.4768],[116.4103,40.4814],[116.4001,40.4804],[116.3872,40.471],[116.3802,40.4738],[116.381,40.4805],[116.3716,40.4831],[116.3725,40.4895],[116.3691,40.4967],[116.3633,40.4988],[116.3491,40.5003],[116.3423,40.4976],[116.336,40.499],[116.3304,40.4971],[116.3242,40.4993],[116.317,40.4987],[116.3082,40.4939],[116.2976,40.4844],[116.2855,40.4839],[116.2874,40.4755],[116.2956,40.4666],[116.3002,40.4649],[116.2947,40.4575],[116.2876,40.4514],[116.2848,40.4429],[116.2845,40.4343],[116.2883,40.4279],[116.2905,40.4193],[116.2827,40.4135],[116.2854,40.4071],[116.2799,40.3947],[116.2837,40.3903],[116.2876,40.3911],[116.2924,40.3834],[116.2965,40.3861],[116.3069,40.3881],[116.3217,40.3841],[116.3314,40.3782],[116.3389,40.3716],[116.3491,40.3699],[116.3537,40.3654],[116.3465,40.3629],[116.3425,40.355],[116.3576,40.3575],[116.3631,40.3551],[116.3589,40.3463],[116.3636,40.3409],[116.3615,40.3348],[116.3782,40.3376],[116.3865,40.3363],[116.4084,40.3301],[116.4279,40.3276],[116.4315,40.3309],[116.4378,40.3214],[116.4495,40.3128],[116.4375,40.301],[116.4417,40.299],[116.4447,40.2916],[116.4432,40.2843],[116.4541,40.2857],[116.4668,40.279],[116.4725,40.2787],[116.4778,40.2747],[116.4781,40.2663],[116.4871,40.2612],[116.4999,40.2601],[116.5031,40.2568],[116.519,40.2598],[116.5298,40.2604],[116.5342,40.266],[116.535,40.2738],[116.5577,40.2753],[116.5647,40.272],[116.5643,40.2677],[116.5826,40.2684],[116.585,40.263],[116.5938,40.2643],[116.5949,40.2579],[116.5988,40.255],[116.5979,40.2503],[116.6162,40.2494],[116.6178,40.2595],[116.6294,40.2603],[116.6372,40.256],[116.6426,40.259],[116.6599,40.2615],[116.6674,40.2456],[116.6649,40.2435],[116.6643,40.2337],[116.678,40.2331],[116.6847,40.2397],[116.6912,40.242],[116.6905,40.2469],[116.6985,40.2503],[116.6986,40.2559],[116.7048,40.255],[116.7229,40.2737],[116.7328,40.2828]]]},"properties":{"region_code":"CN-11-110116","parent_region_code":"CN-11","name":"怀柔区","level":"county","has_children":false,"full_path":"中国 / 北京市 / 怀柔区","source_admin_code":"110116","osm_relation_id":2988897}},
{"type":"Feature","geometry":{"type":"Polygon","coordinates":[[[116.9559,40.0502],[116.9632,40.0475],[116.9642,40.0355],[116.9805,40.0375],[116.9939,40.031],[116.9939,40.0286],[117.0083,40.0295],[117.0222,40.0327],[117.0207,40.0375],[117.0264,40.0407],[117.0322,40.048],[117.045,40.0498],[117.0455,40.0584],[117.0547,40.0587],[117.0641,40.0628],[117.0632,40.0662],[117.0785,40.0672],[117.0791,40.0737],[117.0974,40.0742],[117.1012,40.0704],[117.113,40.071],[117.1223,40.064],[117.1327,40.0626],[117.1497,40.068],[117.1542,40.0752],[117.1703,40.0698],[117.1771,40.0708],[117.1823,40.0791],[117.1852,40.0719],[117.194,40.0677],[117.1988,40.069],[117.2018,40.0755],[117.1978,40.0784],[117.2076,40.085],[117.2046,40.0895],[117.2048,40.0953],[117.2168,40.0938],[117.2226,40.1022],[117.2318,40.1105],[117.2429,40.1152],[117.2492,40.112],[117.2604,40.1109],[117.2635,40.106],[117.2702,40.1081],[117.2692,40.1124],[117.279,40.1201],[117.2865,40.1183],[117.2965,40.1246],[117.3011,40.1357],[117.3073,40.1387],[117.3167,40.1394],[117.3255,40.1328],[117.338,40.1333],[117.3448,40.1385],[117.3497,40.1395],[117.3451,40.1492],[117.354,40.1556],[117.3445,40.1703],[117.3654,40.1751],[117.3849,40.1762],[117.401,40.1861],[117.391,40.1915],[117.3782,40.1864],[117.3728,40.1979],[117.3866,40.2024],[117.3745,40.2086],[117.3722,40.2148],[117.3759,40.2187],[117.387,40.2202],[117.3833,40.2266],[117.3631,40.2321],[117.3536,40.2312],[117.3455,40.228],[117.3333,40.2448],[117.3356,40.2551],[117.3327,40.2582],[117.3274,40.2843],[117.3247,40.2883],[117.3168,40.2831],[117.3103,40.2838],[117.3075,40.2787],[117.2978,40.2769],[117.2888,40.2772],[117.2859,40.2847],[117.2882,40.2896],[117.2868,40.2954],[117.2679,40.3073],[117.2649,40.3241],[117.2684,40.3313],[117.2566,40.3339],[117.2507,40.3402],[117.2478,40.3558],[117.2434,40.3574],[117.2359,40.3687],[117.2197,40.3677],[117.2174,40.3744],[117.2121,40.3764],[117.2047,40.3725],[117.1983,40.3718],[117.1933,40.3745],[117.1787,40.3764],[117.1735,40.3737],[117.164,40.373],[117.1615,40.3701],[117.1474,40.3717],[117.1358,40.3613],[117.1217,40.3575],[117.1109,40.3523],[117.0943,40.3591],[117.0879,40.3568],[117.0787,40.349],[117.0604,40.3416],[117.0545,40.3364],[117.0464,40.3363],[117.0418,40.3402],[117.0264,40.3362],[117.0196,40.3371],[117.0144,40.3348],[117.0064,40.3255],[117.0013,40.3135],[117.005,40.3058],[116.9958,40.2984],[116.9978,40.2926],[116.9849,40.2865],[116.9776,40.2867],[116.9655,40.2809],[116.964,40.2754],[116.9559,40.2723],[116.9449,40.26],[116.9565,40.2515],[116.9633,40.2527],[116.9698,40.2484],[116.9677,40.2431],[116.9595,40.2377],[116.9539,40.2315],[116.9475,40.235],[116.9309,40.2312],[116.9292,40.2288],[116.935,40.2228],[116.9321,40.2095],[116.9237,40.2105],[116.9313,40.1957],[116.9429,40.1897],[116.9394,40.1795],[116.9454,40.1737],[116.956,40.1744],[116.9554,40.1691],[116.9624,40.1643],[116.9631,40.1592],[116.9724,40.1481],[116.9674,40.1446],[116.9597,40.1267],[116.9655,40.1231],[116.9631,40.1176],[116.97,40.1101],[116.9673,40.1026],[116.964,40.1007],[116.9692,40.0939],[116.9751,40.0803],[116.9802,40.0772],[116.9725,40.0638],[116.9674,40.0652],[116.9563,40.0624],[116.9559,40.0502]]]},"properties":{"region_code":"CN-11-110117","parent_region_code":"CN-11","name":"平谷区","level":"county","has_children":false,"full_path":"中国 / 北京市 / 平谷区","source_admin_code":"110117","osm_relation_id":2988900}},
{"type":"Feature","geometry":{"type":"Polygon","coordinates":[[[116.9292,40.2288],[116.9309,40.2312],[116.9475,40.235],[116.9539,40.2315],[116.9595,40.2377],[116.9677,40.2431],[116.9698,40.2484],[116.9633,40.2527],[116.9565,40.2515],[116.9449,40.26],[116.9559,40.2723],[116.964,40.2754],[116.9655,40.2809],[116.9776,40.2867],[116.9849,40.2865],[116.9978,40.2926],[116.9958,40.2984],[117.005,40.3058],[117.0013,40.3135],[117.0064,40.3255],[117.0144,40.3348],[117.0196,40.3371],[117.0264,40.3362],[117.0418,40.3402],[117.0464,40.3363],[117.0545,40.3364],[117.0604,40.3416],[117.0787,40.349],[117.0879,40.3568],[117.0943,40.3591],[117.1109,40.3523],[117.1217,40.3575],[117.1358,40.3613],[117.1474,40.3717],[117.1615,40.3701],[117.164,40.373],[117.1735,40.3737],[117.1787,40.3764],[117.1933,40.3745],[117.1983,40.3718],[117.2047,40.3725],[117.2121,40.3764],[117.2174,40.3744],[117.2226,40.3855],[117.2289,40.3882],[117.2341,40.3963],[117.2302,40.3995],[117.2311,40.4065],[117.2276,40.4158],[117.2374,40.4215],[117.2403,40.4256],[117.2517,40.4344],[117.2569,40.441],[117.2464,40.4445],[117.2457,40.4491],[117.2369,40.4541],[117.2301,40.4552],[117.2268,40.4619],[117.2308,40.4675],[117.2245,40.4691],[117.2193,40.4745],[117.2218,40.4803],[117.2115,40.4932],[117.2056,40.4933],[117.2021,40.4997],[117.208,40.5055],[117.2086,40.5119],[117.2135,40.5129],[117.2235,40.5097],[117.2331,40.5154],[117.2404,40.5106],[117.2577,40.5154],[117.2487,40.5266],[117.2431,40.5468],[117.2526,40.5512],[117.263,40.5591],[117.2728,40.559],[117.2791,40.5637],[117.2874,40.5646],[117.2976,40.569],[117.3053,40.5766],[117.3189,40.5767],[117.328,40.575],[117.3398,40.5804],[117.3549,40.5745],[117.3592,40.5744],[117.3717,40.5618],[117.3826,40.5597],[117.3858,40.5652],[117.3938,40.5678],[117.3968,40.5727],[117.4065,40.5683],[117.4145,40.5675],[117.4232,40.5746],[117.4165,40.5799],[117.415,40.5916],[117.406,40.6035],[117.4124,40.6155],[117.4179,40.6203],[117.4138,40.6276],[117.4144,40.6338],[117.4208,40.6367],[117.4248,40.624],[117.4422,40.6268],[117.4473,40.6413],[117.4428,40.649],[117.4553,40.6515],[117.4664,40.6429],[117.4713,40.6338],[117.4809,40.6323],[117.4833,40.6345],[117.4939,40.6348],[117.4954,40.6431],[117.4985,40.6447],[117.4963,40.6516],[117.5073,40.6546],[117.5081,40.6591],[117.4964,40.6682],[117.4867,40.6738],[117.4781,40.6756],[117.4692,40.6752],[117.4585,40.672],[117.4502,40.6753],[117.4355,40.675],[117.4306,40.682],[117.4259,40.68],[117.4197,40.6837],[117.4025,40.6856],[117.3927,40.6825],[117.3802,40.6825],[117.372,40.6773],[117.3639,40.6781],[117.3531,40.6723],[117.3358,40.6719],[117.3301,40.6654],[117.331,40.6629],[117.3146,40.6568],[117.2797,40.6595],[117.2721,40.663],[117.2613,40.6752],[117.2549,40.6797],[117.2352,40.6752],[117.2267,40.6821],[117.2182,40.6853],[117.2104,40.6906],[117.2019,40.6929],[117.1913,40.6928],[117.1787,40.6946],[117.1713,40.6918],[117.1627,40.6975],[117.1529,40.6947],[117.1409,40.6974],[117.1359,40.6956],[117.1222,40.6993],[117.1111,40.6984],[117.104,40.7066],[117.0889,40.7041],[117.0702,40.6984],[117.0518,40.6999],[117.0487,40.6983],[117.038,40.6988],[117.0216,40.6927],[116.9992,40.6934],[116.9962,40.6959],[116.9819,40.7017],[116.9737,40.7014],[116.959,40.7082],[116.9603,40.7139],[116.9542,40.7196],[116.9366,40.7285],[116.9346,40.7385],[116.9205,40.7436],[116.9175,40.7493],[116.922,40.7559],[116.9171,40.7656],[116.9173,40.7724],[116.891,40.7764],[116.8872,40.7826],[116.8907,40.7951],[116.8809,40.7997],[116.8745,40.7961],[116.8672,40.7974],[116.8652,40.7934],[116.8593,40.7932],[116.8614,40.7831],[116.8452,40.7775],[116.8443,40.7735],[116.8289,40.7674],[116.8337,40.761],[116.8256,40.7499],[116.8201,40.7479],[116.8125,40.749],[116.7946,40.7446],[116.7876,40.7467],[116.7779,40.7561],[116.7745,40.75],[116.7843,40.7275],[116.7836,40.7139],[116.7805,40.7088],[116.7805,40.7019],[116.7778,40.699],[116.763,40.7013],[116.7568,40.7049],[116.7501,40.7042],[116.7296,40.6902],[116.7194,40.6876],[116.7192,40.6832],[116.7088,40.6786],[116.7071,40.6684],[116.7037,40.6612],[116.7065,40.6498],[116.7055,40.641],[116.7024,40.6361],[116.6956,40.6319],[116.6996,40.6234],[116.6918,40.617],[116.7005,40.6095],[116.6998,40.6023],[116.7051,40.5988],[116.7028,40.5887],[116.7082,40.5789],[116.7087,40.5696],[116.7037,40.5641],[116.6932,40.5622],[116.6803,40.5632],[116.6736,40.5607],[116.6763,40.5555],[116.6708,40.5531],[116.6762,40.5476],[116.6846,40.5481],[116.6958,40.5442],[116.6963,40.5368],[116.7008,40.5312],[116.7109,40.524],[116.7061,40.5207],[116.7053,40.5151],[116.695,40.5092],[116.6921,40.4918],[116.6872,40.4893],[116.6873,40.4748],[116.6948,40.4635],[116.7029,40.457],[116.7088,40.4557],[116.7169,40.4572],[116.7134,40.4489],[116.7197,40.4418],[116.7134,40.4395],[116.717,40.4344],[116.716,40.4235],[116.7192,40.4169],[116.7271,40.417],[116.7347,40.4131],[116.7227,40.4085],[116.7124,40.4008],[116.707,40.4005],[116.7076,40.3913],[116.7056,40.3856],[116.7102,40.3828],[116.701,40.3757],[116.7004,40.3725],[116.708,40.3673],[116.7138,40.3678],[116.712,40.3601],[116.7207,40.3599],[116.7229,40.3543],[116.7184,40.3378],[116.7252,40.3337],[116.7388,40.338],[116.7524,40.3326],[116.7536,40.3256],[116.7625,40.3165],[116.7672,40.3147],[116.7568,40.3091],[116.7483,40.3024],[116.7328,40.2828],[116.7368,40.2777],[116.7467,40.2742],[116.7608,40.2668],[116.7764,40.2717],[116.778,40.2782],[116.7817,40.2802],[116.7819,40.2882],[116.7883,40.286],[116.7945,40.2879],[116.8128,40.2815],[116.8191,40.2842],[116.8185,40.2898],[116.823,40.3032],[116.8324,40.309],[116.843,40.31],[116.8485,40.3021],[116.851,40.292],[116.8535,40.2897],[116.8654,40.2898],[116.8658,40.2804],[116.8704,40.2732],[116.8686,40.2674],[116.8756,40.2604],[116.8806,40.2508],[116.8863,40.2446],[116.8884,40.2389],[116.8944,40.2379],[116.889,40.2308],[116.9007,40.2276],[116.9015,40.2227],[116.9161,40.2191],[116.9251,40.2295],[116.9292,40.2288]]]},"properties":{"region_code":"CN-11-110118","parent_region_code":"CN-11","name":"密云区","level":"county","has_children":false,"full_path":"中国 / 北京市 / 密云区","source_admin_code":"110118","osm_relation_id":2988899}},
{"type":"Feature","geometry":{"type":"Polygon","coordinates":[[[116.2837,40.3903],[116.2799,40.3947],[116.2854,40.4071],[116.2827,40.4135],[116.2905,40.4193],[116.2883,40.4279],[116.2845,40.4343],[116.2848,40.4429],[116.2876,40.4514],[116.2947,40.4575],[116.3002,40.4649],[116.2956,40.4666],[116.2874,40.4755],[116.2855,40.4839],[116.2976,40.4844],[116.3082,40.4939],[116.317,40.4987],[116.3242,40.4993],[116.3304,40.4971],[116.336,40.499],[116.3423,40.4976],[116.3491,40.5003],[116.3633,40.4988],[116.3691,40.4967],[116.3725,40.4895],[116.3716,40.4831],[116.381,40.4805],[116.3802,40.4738],[116.3872,40.471],[116.4001,40.4804],[116.4103,40.4814],[116.4213,40.4768],[116.4268,40.4766],[116.4369,40.4803],[116.4491,40.4791],[116.4517,40.4869],[116.4619,40.4835],[116.4776,40.4834],[116.486,40.4796],[116.5023,40.4818],[116.513,40.4905],[116.5131,40.4952],[116.4943,40.5095],[116.4914,40.5167],[116.4707,40.5126],[116.4643,40.5175],[116.4578,40.5183],[116.4547,40.5228],[116.4735,40.5419],[116.4783,40.5513],[116.4902,40.5537],[116.4938,40.5594],[116.499,40.5612],[116.5034,40.5713],[116.507,40.5714],[116.5134,40.5784],[116.5191,40.5816],[116.5255,40.5899],[116.5249,40.5945],[116.5299,40.5981],[116.5269,40.6051],[116.5333,40.6243],[116.539,40.6257],[116.5457,40.6239],[116.5553,40.6272],[116.5645,40.6249],[116.5689,40.6311],[116.5683,40.6345],[116.5576,40.6359],[116.5479,40.6415],[116.539,40.6488],[116.534,40.6553],[116.5234,40.6532],[116.521,40.6571],[116.5123,40.6594],[116.5138,40.6629],[116.5095,40.6698],[116.4998,40.6716],[116.4954,40.6697],[116.4802,40.6732],[116.4771,40.6778],[116.4827,40.6904],[116.4905,40.6953],[116.4957,40.6956],[116.4957,40.7053],[116.4999,40.7093],[116.497,40.7142],[116.5046,40.7248],[116.5038,40.7334],[116.5066,40.7405],[116.4956,40.745],[116.4967,40.755],[116.494,40.7592],[116.4885,40.7585],[116.4789,40.7636],[116.4741,40.7699],[116.4592,40.7711],[116.4477,40.7642],[116.4381,40.7675],[116.4314,40.7652],[116.4185,40.7658],[116.4101,40.7677],[116.4079,40.7762],[116.4015,40.7787],[116.3863,40.7767],[116.3735,40.7707],[116.3614,40.7692],[116.3549,40.771],[116.3468,40.7686],[116.3367,40.7715],[116.3239,40.7722],[116.3114,40.7706],[116.307,40.7686],[116.3018,40.7622],[116.3049,40.7536],[116.2917,40.7553],[116.284,40.7628],[116.2753,40.7624],[116.2712,40.7601],[116.2637,40.7692],[116.2634,40.7757],[116.2549,40.7814],[116.2517,40.7864],[116.2418,40.7903],[116.2391,40.7869],[116.2289,40.7816],[116.2295,40.7736],[116.2256,40.77],[116.2238,40.7609],[116.2275,40.7584],[116.2178,40.7528],[116.2142,40.7432],[116.207,40.7386],[116.1985,40.7384],[116.1995,40.7315],[116.186,40.7232],[116.1786,40.7121],[116.1716,40.7064],[116.1699,40.699],[116.165,40.6944],[116.1674,40.6875],[116.1613,40.6711],[116.1549,40.6609],[116.1451,40.6618],[116.1305,40.6661],[116.1188,40.6525],[116.1062,40.6469],[116.1063,40.6394],[116.114,40.6317],[116.1119,40.6264],[116.0964,40.6256],[116.0924,40.629],[116.0821,40.6251],[116.0703,40.6183],[116.0671,40.6106],[116.0563,40.6088],[116.0519,40.6055],[116.0445,40.6046],[116.0382,40.6005],[116.0221,40.5982],[116.017,40.6034],[115.9981,40.5825],[115.9902,40.5797],[115.976,40.5777],[115.9701,40.5871],[115.9661,40.599],[115.9597,40.6004],[115.9613,40.6046],[115.949,40.6083],[115.9423,40.6076],[115.9272,40.6124],[115.9211,40.6116],[115.9143,40.6154],[115.8999,40.6148],[115.8887,40.6057],[115.8821,40.5958],[115.8741,40.5939],[115.8617,40.5946],[115.8601,40.5922],[115.8488,40.5889],[115.84,40.5918],[115.8212,40.5857],[115.8144,40.5669],[115.8136,40.5581],[115.8088,40.5561],[115.7928,40.5564],[115.7859,40.56],[115.7784,40.557],[115.7639,40.5467],[115.7576,40.5392],[115.7487,40.5387],[115.7466,40.535],[115.7493,40.5297],[115.7424,40.5248],[115.7368,40.5125],[115.7297,40.5027],[115.7345,40.4966],[115.758,40.4979],[115.7682,40.4926],[115.7759,40.4908],[115.7699,40.4814],[115.7704,40.4762],[115.7652,40.4715],[115.7641,40.4636],[115.7666,40.461],[115.7692,40.4507],[115.7672,40.4468],[115.7698,40.4405],[115.7804,40.4358],[115.7837,40.4312],[115.7906,40.4313],[115.7902,40.4256],[115.8304,40.3845],[115.8353,40.3767],[115.8499,40.376],[115.8558,40.3723],[115.8565,40.3597],[115.8703,40.3594],[115.887,40.3545],[115.9036,40.3565],[115.9123,40.3528],[115.9181,40.34],[115.9169,40.3318],[115.9212,40.3285],[115.9167,40.3248],[115.9202,40.3198],[115.9266,40.3185],[115.9312,40.312],[115.9371,40.3103],[115.9338,40.3033],[115.9399,40.2951],[115.9387,40.2911],[115.9439,40.2882],[115.9464,40.28],[115.961,40.2645],[115.9703,40.2697],[115.9756,40.2756],[115.9727,40.2804],[115.9751,40.284],[115.972,40.2919],[115.9817,40.3025],[115.9694,40.3074],[115.9684,40.3164],[115.9765,40.3229],[115.9881,40.3276],[115.9957,40.328],[116.0045,40.333],[116.0105,40.3333],[116.0202,40.3229],[116.0198,40.3191],[116.0247,40.311],[116.0338,40.3113],[116.0362,40.3154],[116.0448,40.3144],[116.0506,40.3207],[116.047,40.3254],[116.0553,40.3353],[116.0606,40.3351],[116.067,40.3383],[116.0768,40.3343],[116.0799,40.3293],[116.0921,40.3285],[116.104,40.3293],[116.116,40.3113],[116.1263,40.3105],[116.1355,40.3153],[116.1324,40.3222],[116.1312,40.335],[116.132,40.3437],[116.1384,40.3471],[116.142,40.3343],[116.1462,40.3362],[116.1494,40.3433],[116.1391,40.3496],[116.1423,40.3554],[116.1419,40.3603],[116.1529,40.3648],[116.1624,40.3652],[116.1707,40.3695],[116.1749,40.367],[116.2018,40.3757],[116.2052,40.3804],[116.2207,40.3799],[116.2257,40.3736],[116.2302,40.3759],[116.246,40.375],[116.2472,40.38],[116.2551,40.3792],[116.2648,40.3813],[116.278,40.3746],[116.2835,40.3785],[116.2837,40.3903]]]},"properties":{"region_code":"CN-11-110119","parent_region_code":"CN-11","name":"延庆区","level":"county","has_children":false,"full_path":"中国 / 北京市 / 延庆区","source_admin_code":"110119","osm_relation_id":2988903}}
]}