{"type":"FeatureCollection", "features": [
{"type":"Feature","geometry":{"type":"Polygon","coordinates":[[[113.1814,36.1522],[113.1922,36.1735],[113.1788,36.1806],[113.1735,36.1941],[113.1958,36.2075],[113.2016,36.2168],[113.206,36.2341],[113.1883,36.2434],[113.1957,36.2531],[113.1874,36.26],[113.166,36.2605],[113.1366,36.2565],[113.1184,36.264],[113.1257,36.2869],[113.1256,36.3059],[113.1306,36.339],[113.1254,36.3533],[113.1383,36.3638],[113.1257,36.3816],[113.1095,36.3702],[113.0873,36.3675],[113.0578,36.3798],[113.0827,36.4055],[113.0722,36.4213],[113.0665,36.4401],[113.0516,36.4375],[113.033,36.4243],[113.0155,36.4269],[112.9997,36.3996],[113.0206,36.3922],[113.0295,36.3839],[113.0221,36.3643],[113.0336,36.3409],[113.0311,36.329],[113.0413,36.3128],[113.0229,36.2781],[113.0164,36.2506],[113.0215,36.2364],[113.0128,36.2236],[112.9856,36.2106],[113.0036,36.203],[112.9941,36.1887],[112.9889,36.1638],[113.0072,36.1615],[113.028,36.1703],[113.0573,36.1717],[113.0626,36.1583],[113.0831,36.1665],[113.0934,36.1565],[113.0906,36.1436],[113.0953,36.131],[113.1068,36.1317],[113.1314,36.1226],[113.1478,36.1256],[113.163,36.147],[113.1814,36.1522]]]},"properties":{"region_code":"CN-14-1404-140403","parent_region_code":"CN-14-1404","name":"潞州区","level":"county","has_children":false,"full_path":"中国 / 山西省 / 长治市 / 潞州区","source_admin_code":"140403","osm_relation_id":2963906}},
{"type":"Feature","geometry":{"type":"Polygon","coordinates":[[[112.9889,36.1638],[112.9827,36.1497],[113.0026,36.1448],[113.0055,36.1357],[112.9983,36.1219],[113.0035,36.1052],[112.9882,36.1084],[112.9747,36.0961],[112.9822,36.0863],[112.9773,36.071],[112.984,36.0652],[112.9517,36.0352],[112.9604,36.0236],[112.9759,36.0196],[112.97,36.0075],[112.98,36.0018],[112.9794,35.9641],[112.9573,35.9434],[112.9623,35.9273],[112.9712,35.9224],[112.9964,35.9354],[113.0006,35.921],[113.0178,35.9142],[113.0311,35.9147],[113.0404,35.9051],[113.0418,35.894],[113.0709,35.8892],[113.0869,35.8923],[113.0964,35.8861],[113.116,35.8863],[113.1341,35.8714],[113.1462,35.8693],[113.1519,35.8803],[113.1934,35.8978],[113.1938,35.9108],[113.184,35.9207],[113.1924,35.9306],[113.1898,35.9395],[113.175,35.9373],[113.1657,35.9655],[113.1663,35.9841],[113.1326,36.004],[113.1287,36.0277],[113.1536,36.0409],[113.1609,36.0702],[113.1748,36.0829],[113.1716,36.1271],[113.1814,36.1522],[113.163,36.147],[113.1478,36.1256],[113.1314,36.1226],[113.1068,36.1317],[113.0953,36.131],[113.0906,36.1436],[113.0934,36.1565],[113.0831,36.1665],[113.0626,36.1583],[113.0573,36.1717],[113.028,36.1703],[113.0072,36.1615],[112.9889,36.1638]]]},"properties":{"region_code":"CN-14-1404-140404","parent_region_code":"CN-14-1404","name":"上党区","level":"county","has_children":false,"full_path":"中国 / 山西省 / 长治市 / 上党区","source_admin_code":"140404","osm_relation_id":2963903}},
{"type":"Feature","geometry":{"type":"Polygon","coordinates":[[[112.9997,36.3996],[112.9695,36.3994],[112.9438,36.3876],[112.9224,36.394],[112.9177,36.4065],[112.9046,36.4093],[112.8946,36.4327],[112.8826,36.4463],[112.8327,36.4581],[112.8223,36.4657],[112.7985,36.4667],[112.7908,36.4719],[112.7766,36.4626],[112.7573,36.4696],[112.7396,36.4804],[112.7206,36.4846],[112.6996,36.5088],[112.6772,36.5046],[112.6838,36.4883],[112.659,36.4398],[112.6187,36.4277],[112.5934,36.4377],[112.5807,36.4347],[112.5662,36.4607],[112.5497,36.4568],[112.5386,36.4473],[112.4937,36.4398],[112.4916,36.4155],[112.4795,36.4015],[112.482,36.3832],[112.4714,36.3686],[112.4477,36.3439],[112.4384,36.3392],[112.4453,36.3341],[112.4485,36.3073],[112.465,36.2873],[112.4706,36.2655],[112.4782,36.2693],[112.5025,36.2581],[112.538,36.2549],[112.5582,36.2733],[112.5676,36.261],[112.5553,36.2223],[112.5537,36.2011],[112.5672,36.191],[112.5827,36.2001],[112.6012,36.201],[112.6165,36.1949],[112.653,36.1936],[112.6711,36.2043],[112.6961,36.2107],[112.7108,36.221],[112.7208,36.2209],[112.745,36.2333],[112.7592,36.2448],[112.7998,36.2471],[112.8268,36.241],[112.8343,36.2569],[112.852,36.2553],[112.8745,36.2606],[112.8739,36.245],[112.881,36.233],[112.8929,36.2309],[112.8971,36.243],[112.9311,36.2452],[112.9413,36.2354],[112.939,36.221],[112.9478,36.2103],[112.9856,36.2106],[113.0128,36.2236],[113.0215,36.2364],[113.0164,36.2506],[113.0229,36.2781],[113.0413,36.3128],[113.0311,36.329],[113.0336,36.3409],[113.0221,36.3643],[113.0295,36.3839],[113.0206,36.3922],[112.9997,36.3996]]]},"properties":{"region_code":"CN-14-1404-140405","parent_region_code":"CN-14-1404","name":"屯留区","level":"county","has_children":false,"full_path":"中国 / 山西省 / 长治市 / 屯留区","source_admin_code":"140405","osm_relation_id":2963912}},
{"type":"Feature","geometry":{"type":"MultiPolygon","coordinates":[[[[113.4408,36.3112],[113.4626,36.3241],[113.443,36.3315],[113.4408,36.3112]]],[[[113.1874,36.26],[113.2023,36.2756],[113.2155,36.2834],[113.2165,36.264],[113.241,36.2545],[113.2579,36.2639],[113.2759,36.26],[113.3045,36.2623],[113.3238,36.2475],[113.3473,36.2465],[113.3611,36.2372],[113.3819,36.2717],[113.3893,36.2754],[113.3921,36.3049],[113.4096,36.3267],[113.4266,36.3215],[113.427,36.3568],[113.4017,36.3681],[113.3874,36.3844],[113.3892,36.3982],[113.3918,36.4038],[113.3804,36.4223],[113.3627,36.4342],[113.3571,36.4457],[113.3447,36.4509],[113.3337,36.4432],[113.3187,36.4447],[113.3021,36.4753],[113.3096,36.4836],[113.2997,36.4923],[113.2791,36.4762],[113.2407,36.477],[113.2273,36.4671],[113.2085,36.4657],[113.1619,36.4404],[113.1396,36.4744],[113.1078,36.4763],[113.0901,36.4681],[113.0651,36.4653],[113.0151,36.4522],[112.9989,36.4452],[112.9854,36.427],[113.0155,36.4269],[113.033,36.4243],[113.0516,36.4375],[113.0665,36.4401],[113.0722,36.4213],[113.0827,36.4055],[113.0578,36.3798],[113.0873,36.3675],[113.1095,36.3702],[113.1257,36.3816],[113.1383,36.3638],[113.1254,36.3533],[113.1306,36.339],[113.1256,36.3059],[113.1257,36.2869],[113.1184,36.264],[113.1366,36.2565],[113.166,36.2605],[113.1874,36.26]]]]},"properties":{"region_code":"CN-14-1404-140406","parent_region_code":"CN-14-1404","name":"潞城区","level":"county","has_children":false,"full_path":"中国 / 山西省 / 长治市 / 潞城区","source_admin_code":"140406","osm_relation_id":2963908}},
{"type":"Feature","geometry":{"type":"Polygon","coordinates":[[[113.0155,36.4269],[112.9854,36.427],[112.9989,36.4452],[113.0151,36.4522],[113.0651,36.4653],[113.0901,36.4681],[113.1078,36.4763],[113.1396,36.4744],[113.1619,36.4404],[113.2085,36.4657],[113.2273,36.4671],[113.2407,36.477],[113.2174,36.5011],[113.1918,36.5133],[113.1763,36.5344],[113.1678,36.5784],[113.183,36.5951],[113.181,36.6085],[113.2,36.6204],[113.2227,36.6236],[113.2172,36.64],[113.2192,36.6586],[113.1904,36.6644],[113.1557,36.699],[113.1466,36.713],[113.1111,36.7269],[113.0906,36.715],[113.0766,36.7393],[113.0539,36.729],[113.035,36.7357],[113.0203,36.732],[113.0079,36.709],[112.9765,36.7253],[112.9462,36.7253],[112.9252,36.7322],[112.9097,36.7421],[112.8953,36.7375],[112.8801,36.701],[112.8783,36.6882],[112.8573,36.6874],[112.8494,36.6957],[112.8377,36.6933],[112.8322,36.6758],[112.8044,36.6696],[112.7795,36.6558],[112.7874,36.6371],[112.7673,36.6234],[112.7541,36.6079],[112.7573,36.5971],[112.7514,36.5715],[112.7372,36.5491],[112.6996,36.5206],[112.6996,36.5088],[112.7206,36.4846],[112.7396,36.4804],[112.7573,36.4696],[112.7766,36.4626],[112.7908,36.4719],[112.7985,36.4667],[112.8223,36.4657],[112.8327,36.4581],[112.8826,36.4463],[112.8946,36.4327],[112.9046,36.4093],[112.9177,36.4065],[112.9224,36.394],[112.9438,36.3876],[112.9695,36.3994],[112.9997,36.3996],[113.0155,36.4269]]]},"properties":{"region_code":"CN-14-1404-140423","parent_region_code":"CN-14-1404","name":"襄垣县","level":"county","has_children":false,"full_path":"中国 / 山西省 / 长治市 / 襄垣县","source_admin_code":"140423","osm_relation_id":2963914}},
{"type":"Feature","geometry":{"type":"Polygon","coordinates":[[[113.2016,36.2168],[113.2291,36.2126],[113.238,36.2015],[113.256,36.216],[113.2706,36.2076],[113.2777,36.1962],[113.2902,36.1929],[113.2944,36.1814],[113.2761,36.1601],[113.2789,36.1508],[113.3082,36.1478],[113.3337,36.1348],[113.3445,36.1336],[113.3464,36.119],[113.3746,36.0928],[113.3778,36.0711],[113.3913,36.0536],[113.3852,36.0376],[113.3932,36.0285],[113.4066,36.0309],[113.4129,36.0189],[113.4409,36.0268],[113.4567,36.0213],[113.4763,36.0073],[113.4808,35.9888],[113.4991,35.9937],[113.5083,35.9887],[113.4987,35.9694],[113.5114,35.9663],[113.5257,35.973],[113.5415,35.9708],[113.5593,35.9805],[113.5715,35.9644],[113.5908,35.9668],[113.5969,35.9582],[113.6169,35.9539],[113.623,35.9656],[113.6364,35.9715],[113.6313,35.9832],[113.652,35.9938],[113.6607,35.9833],[113.6967,35.991],[113.6958,35.9989],[113.6749,36.0161],[113.6575,36.0379],[113.6629,36.0486],[113.6795,36.0561],[113.6732,36.0959],[113.6652,36.1006],[113.6672,36.1255],[113.6869,36.1243],[113.6993,36.1342],[113.6996,36.149],[113.673,36.16],[113.6538,36.1643],[113.6552,36.1735],[113.6916,36.1819],[113.6801,36.1956],[113.6925,36.2018],[113.6922,36.2143],[113.6758,36.2164],[113.6976,36.2379],[113.6943,36.2523],[113.7099,36.2626],[113.706,36.2797],[113.7058,36.3033],[113.7156,36.3015],[113.7351,36.3234],[113.7171,36.3374],[113.733,36.3582],[113.7326,36.3719],[113.7062,36.4042],[113.7051,36.4223],[113.6727,36.4228],[113.6455,36.4346],[113.6428,36.4411],[113.6217,36.4583],[113.6079,36.4598],[113.5876,36.4543],[113.5768,36.4447],[113.5359,36.4461],[113.5113,36.4311],[113.5033,36.4388],[113.4864,36.4401],[113.4664,36.4494],[113.4582,36.4394],[113.4565,36.4264],[113.4379,36.4011],[113.4143,36.396],[113.3892,36.3982],[113.3874,36.3844],[113.4017,36.3681],[113.427,36.3568],[113.4266,36.3215],[113.4096,36.3267],[113.3921,36.3049],[113.3893,36.2754],[113.3819,36.2717],[113.3611,36.2372],[113.3473,36.2465],[113.3238,36.2475],[113.3045,36.2623],[113.2759,36.26],[113.2579,36.2639],[113.241,36.2545],[113.2165,36.264],[113.2155,36.2834],[113.2023,36.2756],[113.1874,36.26],[113.1957,36.2531],[113.1883,36.2434],[113.206,36.2341],[113.2016,36.2168]],[[113.4408,36.3112],[113.443,36.3315],[113.4626,36.3241],[113.4408,36.3112]]]},"properties":{"region_code":"CN-14-1404-140425","parent_region_code":"CN-14-1404","name":"平顺县","level":"county","has_children":false,"full_path":"中国 / 山西省 / 长治市 / 平顺县","source_admin_code":"140425","osm_relation_id":2963909}},
{"type":"Feature","geometry":{"type":"Polygon","coordinates":[[[113.3892,36.3982],[113.4143,36.396],[113.4379,36.4011],[113.4565,36.4264],[113.4582,36.4394],[113.4664,36.4494],[113.4864,36.4401],[113.5033,36.4388],[113.5113,36.4311],[113.5359,36.4461],[113.5768,36.4447],[113.5876,36.4543],[113.578,36.4581],[113.576,36.483],[113.5487,36.4931],[113.5494,36.5115],[113.5597,36.5255],[113.5513,36.5404],[113.5658,36.5441],[113.5799,36.5408],[113.5819,36.5628],[113.5634,36.5859],[113.5445,36.5848],[113.5363,36.5894],[113.5442,36.6186],[113.5103,36.6304],[113.4803,36.635],[113.4689,36.6468],[113.4724,36.6638],[113.4893,36.675],[113.5058,36.6949],[113.4966,36.7092],[113.4647,36.7026],[113.4565,36.7105],[113.4711,36.7261],[113.4758,36.741],[113.492,36.7413],[113.5101,36.7271],[113.5388,36.7382],[113.5154,36.7542],[113.504,36.7695],[113.4887,36.8069],[113.4718,36.8201],[113.4551,36.8257],[113.4245,36.8529],[113.3863,36.8654],[113.3723,36.8792],[113.3543,36.8782],[113.3293,36.8717],[113.3265,36.8629],[113.3373,36.846],[113.3497,36.8364],[113.3425,36.8102],[113.3152,36.7889],[113.317,36.7699],[113.2989,36.7611],[113.3027,36.7466],[113.2997,36.7325],[113.3084,36.729],[113.305,36.7117],[113.2734,36.709],[113.2567,36.6946],[113.234,36.6883],[113.232,36.674],[113.2192,36.6586],[113.2172,36.64],[113.2227,36.6236],[113.2,36.6204],[113.181,36.6085],[113.183,36.5951],[113.1678,36.5784],[113.1763,36.5344],[113.1918,36.5133],[113.2174,36.5011],[113.2407,36.477],[113.2791,36.4762],[113.2997,36.4923],[113.3096,36.4836],[113.3021,36.4753],[113.3187,36.4447],[113.3337,36.4432],[113.3447,36.4509],[113.3571,36.4457],[113.3627,36.4342],[113.3804,36.4223],[113.3918,36.4038],[113.3892,36.3982]]]},"properties":{"region_code":"CN-14-1404-140426","parent_region_code":"CN-14-1404","name":"黎城县","level":"county","has_children":false,"full_path":"中国 / 山西省 / 长治市 / 黎城县","source_admin_code":"140426","osm_relation_id":2963907}},
{"type":"Feature","geometry":{"type":"Polygon","coordinates":[[[113.1814,36.1522],[113.1716,36.1271],[113.1748,36.0829],[113.1609,36.0702],[113.1536,36.0409],[113.1287,36.0277],[113.1326,36.004],[113.1663,35.9841],[113.1657,35.9655],[113.175,35.9373],[113.1898,35.9395],[113.1924,35.9306],[113.184,35.9207],[113.1938,35.9108],[113.1934,35.8978],[113.1976,35.8889],[113.2331,35.8923],[113.257,35.867],[113.279,35.8658],[113.3092,35.8834],[113.3242,35.8874],[113.3439,35.883],[113.3543,35.8761],[113.3607,35.8628],[113.3593,35.8464],[113.3702,35.8363],[113.3955,35.8314],[113.4111,35.8336],[113.4249,35.8576],[113.4487,35.8645],[113.4685,35.8622],[113.4898,35.8525],[113.52,35.8535],[113.5422,35.8392],[113.5703,35.8264],[113.594,35.8237],[113.6043,35.8261],[113.6242,35.8411],[113.635,35.8228],[113.6498,35.8272],[113.6445,35.8493],[113.6288,35.8657],[113.6399,35.8861],[113.6414,35.905],[113.6482,35.9174],[113.6498,35.9458],[113.6364,35.9715],[113.623,35.9656],[113.6169,35.9539],[113.5969,35.9582],[113.5908,35.9668],[113.5715,35.9644],[113.5593,35.9805],[113.5415,35.9708],[113.5257,35.973],[113.5114,35.9663],[113.4987,35.9694],[113.5083,35.9887],[113.4991,35.9937],[113.4808,35.9888],[113.4763,36.0073],[113.4567,36.0213],[113.4409,36.0268],[113.4129,36.0189],[113.4066,36.0309],[113.3932,36.0285],[113.3852,36.0376],[113.3913,36.0536],[113.3778,36.0711],[113.3746,36.0928],[113.3464,36.119],[113.3445,36.1336],[113.3337,36.1348],[113.3082,36.1478],[113.2789,36.1508],[113.2761,36.1601],[113.2944,36.1814],[113.2902,36.1929],[113.2777,36.1962],[113.2706,36.2076],[113.256,36.216],[113.238,36.2015],[113.2291,36.2126],[113.2016,36.2168],[113.1958,36.2075],[113.1735,36.1941],[113.1788,36.1806],[113.1922,36.1735],[113.1814,36.1522]]]},"properties":{"region_code":"CN-14-1404-140427","parent_region_code":"CN-14-1404","name":"壶关县","level":"county","has_children":false,"full_path":"中国 / 山西省 / 长治市 / 壶关县","source_admin_code":"140427","osm_relation_id":2963905}},
{"type":"Feature","geometry":{"type":"Polygon","coordinates":[[[112.9856,36.2106],[112.9478,36.2103],[112.939,36.221],[112.9413,36.2354],[112.9311,36.2452],[112.8971,36.243],[112.8929,36.2309],[112.881,36.233],[112.8739,36.245],[112.8745,36.2606],[112.852,36.2553],[112.8343,36.2569],[112.8268,36.241],[112.7998,36.2471],[112.7592,36.2448],[112.745,36.2333],[112.7208,36.2209],[112.7108,36.221],[112.6961,36.2107],[112.6711,36.2043],[112.653,36.1936],[112.6165,36.1949],[112.6012,36.201],[112.5827,36.2001],[112.5672,36.191],[112.5545,36.1823],[112.5462,36.1627],[112.5603,36.1451],[112.5626,36.1218],[112.5409,36.1033],[112.5229,36.1004],[112.5177,36.0918],[112.5005,36.089],[112.4939,36.0752],[112.4834,36.0661],[112.4902,36.0546],[112.4907,36.0308],[112.5202,36.0299],[112.5241,36.0384],[112.5422,36.0453],[112.5698,36.0456],[112.586,36.0545],[112.5962,36.0515],[112.6102,36.0664],[112.652,36.0438],[112.6569,36.0311],[112.6815,36.0051],[112.7082,36.0147],[112.7331,35.9945],[112.7727,35.9856],[112.7907,35.9776],[112.8229,35.9873],[112.8472,35.9814],[112.8692,35.9725],[112.8756,35.9613],[112.8687,35.9521],[112.8702,35.9342],[112.8816,35.925],[112.9397,35.9215],[112.9623,35.9273],[112.9573,35.9434],[112.9794,35.9641],[112.98,36.0018],[112.97,36.0075],[112.9759,36.0196],[112.9604,36.0236],[112.9517,36.0352],[112.984,36.0652],[112.9773,36.071],[112.9822,36.0863],[112.9747,36.0961],[112.9882,36.1084],[113.0035,36.1052],[112.9983,36.1219],[113.0055,36.1357],[113.0026,36.1448],[112.9827,36.1497],[112.9889,36.1638],[112.9941,36.1887],[113.0036,36.203],[112.9856,36.2106]]]},"properties":{"region_code":"CN-14-1404-140428","parent_region_code":"CN-14-1404","name":"长子县","level":"county","has_children":false,"full_path":"中国 / 山西省 / 长治市 / 长子县","source_admin_code":"140428","osm_relation_id":2963915}},
{"type":"Feature","geometry":{"type":"Polygon","coordinates":[[[113.2192,36.6586],[113.232,36.674],[113.234,36.6883],[113.2567,36.6946],[113.2734,36.709],[113.305,36.7117],[113.3084,36.729],[113.2997,36.7325],[113.3027,36.7466],[113.2989,36.7611],[113.317,36.7699],[113.3152,36.7889],[113.3425,36.8102],[113.3497,36.8364],[113.3373,36.846],[113.3265,36.8629],[113.3293,36.8717],[113.3543,36.8782],[113.3652,36.8946],[113.3619,36.9172],[113.3521,36.922],[113.3189,36.9536],[113.3053,36.9761],[113.2881,36.9771],[113.2743,36.9557],[113.2638,36.9552],[113.2512,36.9415],[113.2423,36.9427],[113.2045,36.9275],[113.1737,36.9302],[113.1641,36.9473],[113.147,36.9506],[113.145,36.933],[113.1491,36.9215],[113.1155,36.9216],[113.1026,36.9263],[113.0884,36.9153],[113.0694,36.9258],[113.0503,36.93],[113.0298,36.9244],[113.0023,36.9301],[112.9616,36.9061],[112.9167,36.8686],[112.9051,36.8622],[112.8921,36.8649],[112.885,36.8861],[112.8717,36.8938],[112.8694,36.9056],[112.8755,36.9159],[112.8756,36.9364],[112.8658,36.9475],[112.8734,36.9699],[112.8648,36.9844],[112.847,36.987],[112.8267,37.006],[112.8146,37.0094],[112.7879,37.0069],[112.7762,37.0149],[112.7723,37.0298],[112.7588,37.0442],[112.7467,37.0484],[112.7324,37.0444],[112.7322,37.0684],[112.7007,37.0936],[112.6876,37.0921],[112.6667,37.1002],[112.645,37.1203],[112.6283,37.1169],[112.6289,37.1059],[112.6059,37.0994],[112.5876,37.079],[112.568,37.0847],[112.5362,37.0884],[112.5291,37.1064],[112.5165,37.1067],[112.5157,37.1186],[112.4882,37.1248],[112.4773,37.1186],[112.4399,37.1164],[112.4457,37.104],[112.4623,37.1014],[112.4817,37.0855],[112.4858,37.058],[112.4797,37.049],[112.4986,37.0336],[112.5049,37.0093],[112.5039,36.9935],[112.5324,36.9917],[112.5411,36.9861],[112.5446,36.9725],[112.5684,36.968],[112.5854,36.9573],[112.6069,36.9563],[112.6188,36.9412],[112.6193,36.9304],[112.6525,36.9346],[112.6651,36.9272],[112.6935,36.9275],[112.7123,36.933],[112.7347,36.9176],[112.7388,36.9064],[112.7644,36.8935],[112.768,36.8627],[112.7862,36.8523],[112.7858,36.8358],[112.7977,36.8287],[112.7849,36.8167],[112.7783,36.7887],[112.7682,36.7722],[112.7854,36.7566],[112.8022,36.7463],[112.8239,36.7583],[112.8542,36.7579],[112.8683,36.7395],[112.8884,36.7425],[112.8953,36.7375],[112.9097,36.7421],[112.9252,36.7322],[112.9462,36.7253],[112.9765,36.7253],[113.0079,36.709],[113.0203,36.732],[113.035,36.7357],[113.0539,36.729],[113.0766,36.7393],[113.0906,36.715],[113.1111,36.7269],[113.1466,36.713],[113.1557,36.699],[113.1904,36.6644],[113.2192,36.6586]]]},"properties":{"region_code":"CN-14-1404-140429","parent_region_code":"CN-14-1404","name":"武乡县","level":"county","has_children":false,"full_path":"中国 / 山西省 / 长治市 / 武乡县","source_admin_code":"140429","osm_relation_id":2963913}},
{"type":"Feature","geometry":{"type":"Polygon","coordinates":[[[112.6996,36.5088],[112.6996,36.5206],[112.7372,36.5491],[112.7514,36.5715],[112.7573,36.5971],[112.7541,36.6079],[112.7673,36.6234],[112.7874,36.6371],[112.7795,36.6558],[112.8044,36.6696],[112.8322,36.6758],[112.8377,36.6933],[112.8494,36.6957],[112.8573,36.6874],[112.8783,36.6882],[112.8801,36.701],[112.8953,36.7375],[112.8884,36.7425],[112.8683,36.7395],[112.8542,36.7579],[112.8239,36.7583],[112.8022,36.7463],[112.7854,36.7566],[112.7682,36.7722],[112.7783,36.7887],[112.7849,36.8167],[112.7977,36.8287],[112.7858,36.8358],[112.7862,36.8523],[112.768,36.8627],[112.7644,36.8935],[112.7388,36.9064],[112.7347,36.9176],[112.7123,36.933],[112.6935,36.9275],[112.6651,36.9272],[112.6525,36.9346],[112.6193,36.9304],[112.6188,36.9412],[112.6069,36.9563],[112.5854,36.9573],[112.5684,36.968],[112.5446,36.9725],[112.527,36.9603],[112.5187,36.9606],[112.5098,36.9459],[112.4815,36.9555],[112.4653,36.9551],[112.4902,36.9295],[112.4868,36.9202],[112.4986,36.9112],[112.5276,36.9011],[112.5392,36.8927],[112.5397,36.8792],[112.5295,36.871],[112.5229,36.8548],[112.5336,36.8326],[112.5262,36.8205],[112.5278,36.7983],[112.5167,36.7888],[112.5276,36.7796],[112.5275,36.7616],[112.5078,36.7437],[112.494,36.7443],[112.4871,36.733],[112.4909,36.7138],[112.4818,36.7026],[112.4751,36.6798],[112.4903,36.6639],[112.5167,36.6615],[112.531,36.6492],[112.5124,36.6269],[112.4997,36.6217],[112.4745,36.5767],[112.4889,36.5562],[112.4841,36.5443],[112.5007,36.5363],[112.4827,36.5099],[112.4758,36.4766],[112.4826,36.47],[112.4937,36.4398],[112.5386,36.4473],[112.5497,36.4568],[112.5662,36.4607],[112.5807,36.4347],[112.5934,36.4377],[112.6187,36.4277],[112.659,36.4398],[112.6838,36.4883],[112.6772,36.5046],[112.6996,36.5088]]]},"properties":{"region_code":"CN-14-1404-140430","parent_region_code":"CN-14-1404","name":"沁县","level":"county","has_children":false,"full_path":"中国 / 山西省 / 长治市 / 沁县","source_admin_code":"140430","osm_relation_id":2963910}},
{"type":"Feature","geometry":{"type":"Polygon","coordinates":[[[112.4937,36.4398],[112.4826,36.47],[112.4758,36.4766],[112.4827,36.5099],[112.5007,36.5363],[112.4841,36.5443],[112.4889,36.5562],[112.4745,36.5767],[112.4997,36.6217],[112.5124,36.6269],[112.531,36.6492],[112.5167,36.6615],[112.4903,36.6639],[112.4751,36.6798],[112.4818,36.7026],[112.4909,36.7138],[112.4871,36.733],[112.494,36.7443],[112.5078,36.7437],[112.5275,36.7616],[112.5276,36.7796],[112.5167,36.7888],[112.5278,36.7983],[112.5262,36.8205],[112.5336,36.8326],[112.5229,36.8548],[112.5295,36.871],[112.5397,36.8792],[112.5392,36.8927],[112.5276,36.9011],[112.4986,36.9112],[112.4868,36.9202],[112.4902,36.9295],[112.4653,36.9551],[112.4478,36.9417],[112.4226,36.9327],[112.3889,36.9514],[112.3484,36.9551],[112.323,36.9398],[112.3177,36.9504],[112.289,36.9634],[112.2727,36.9783],[112.2423,36.9835],[112.227,36.9934],[112.2225,37.0072],[112.1989,37.0038],[112.1813,37.0114],[112.1654,36.9986],[112.1481,36.9937],[112.1206,36.9927],[112.1158,36.9813],[112.0942,36.9768],[112.0548,36.9749],[112.0562,36.9619],[112.0916,36.9283],[112.0678,36.9182],[112.0618,36.9078],[112.0781,36.895],[112.0796,36.8809],[112.0643,36.8774],[112.0343,36.8852],[112.0168,36.8752],[112.0199,36.8654],[112.0099,36.8435],[112,36.8394],[112.0036,36.8207],[111.9827,36.8114],[111.9751,36.7987],[111.9842,36.7822],[111.9877,36.7653],[112.0023,36.7398],[111.9916,36.7282],[111.9962,36.7071],[111.9909,36.6916],[112.0082,36.6857],[112.014,36.6763],[112.0161,36.6563],[112.0353,36.6453],[112.0335,36.6212],[112.0286,36.6063],[112.0474,36.5841],[112.0767,36.5818],[112.0804,36.5685],[112.1014,36.545],[112.1266,36.5251],[112.1618,36.5115],[112.1629,36.4998],[112.1757,36.4904],[112.173,36.4701],[112.1866,36.4371],[112.2006,36.4313],[112.2068,36.4044],[112.2352,36.4077],[112.2436,36.4129],[112.2593,36.4068],[112.2698,36.3971],[112.2813,36.3774],[112.305,36.3728],[112.3165,36.3626],[112.3271,36.3621],[112.333,36.3451],[112.3573,36.3398],[112.3703,36.3442],[112.4181,36.344],[112.4258,36.337],[112.4384,36.3392],[112.4477,36.3439],[112.4714,36.3686],[112.482,36.3832],[112.4795,36.4015],[112.4916,36.4155],[112.4937,36.4398]]]},"properties":{"region_code":"CN-14-1404-140431","parent_region_code":"CN-14-1404","name":"沁源县","level":"county","has_children":false,"full_path":"中国 / 山西省 / 长治市 / 沁源县","source_admin_code":"140431","osm_relation_id":2963911}}
]}