{"type":"FeatureCollection", "features": [
{"type":"Feature","geometry":{"type":"Polygon","coordinates":[[[111.4168,41.3196],[111.391,41.3104],[111.3551,41.3185],[111.3324,41.294],[111.2751,41.2875],[111.261,41.2477],[111.2207,41.2377],[111.1703,41.2753],[111.1216,41.2918],[111.0923,41.3071],[111.0318,41.307],[111.0121,41.3317],[110.9615,41.3417],[110.9272,41.3094],[110.9026,41.3129],[110.8657,41.3437],[110.8281,41.3591],[110.8102,41.3791],[110.7635,41.3675],[110.7107,41.3793],[110.6838,41.3503],[110.658,41.342],[110.6256,41.3165],[110.5869,41.3221],[110.5453,41.2873],[110.5111,41.2882],[110.5507,41.2584],[110.5512,41.2277],[110.5943,41.2108],[110.6146,41.1911],[110.6186,41.1729],[110.6426,41.1501],[110.6369,41.1114],[110.6613,41.0595],[110.6496,41.0349],[110.6521,41.0084],[110.6221,40.987],[110.621,40.9529],[110.6294,40.922],[110.6467,40.9158],[110.7138,40.9327],[110.7328,40.9146],[110.734,40.8945],[110.7193,40.8735],[110.7223,40.8344],[110.6968,40.8212],[110.7227,40.7819],[110.7765,40.7927],[110.7867,40.7562],[110.7834,40.7358],[110.7974,40.7046],[110.782,40.6825],[110.7967,40.6646],[110.8017,40.6105],[110.8115,40.5909],[110.8438,40.5585],[110.8487,40.5281],[110.9027,40.4877],[110.9429,40.4903],[110.9575,40.4705],[111.0265,40.4431],[111.0255,40.4243],[111.0773,40.4258],[111.0941,40.3827],[111.1221,40.3679],[111.1148,40.3391],[111.0502,40.3192],[111.0672,40.2883],[111.0874,40.273],[111.1042,40.281],[111.1201,40.2495],[111.1992,40.2009],[111.2101,40.1796],[111.2644,40.1583],[111.2992,40.1564],[111.3606,40.0943],[111.3812,40.0604],[111.4057,40.0428],[111.4129,40.0196],[111.4144,39.9783],[111.4227,39.9441],[111.4349,39.9383],[111.4371,39.8935],[111.4222,39.8888],[111.4094,39.8657],[111.4096,39.8257],[111.3941,39.8053],[111.3652,39.7906],[111.3669,39.7672],[111.3516,39.7517],[111.3553,39.7215],[111.3906,39.7019],[111.4004,39.686],[111.4347,39.6712],[111.4172,39.6593],[111.4315,39.6406],[111.5005,39.6608],[111.5198,39.6599],[111.5587,39.6413],[111.5825,39.6419],[111.6088,39.6308],[111.6353,39.6438],[111.7035,39.6163],[111.7094,39.6052],[111.781,39.5877],[111.8293,39.6208],[111.869,39.603],[111.8958,39.6165],[111.9227,39.6082],[111.9298,39.6478],[111.9184,39.6602],[111.9481,39.6851],[111.9596,39.7062],[111.9663,39.7622],[111.9643,39.7943],[111.9833,39.8033],[112.0296,39.8552],[112.0469,39.9008],[112.0718,39.9212],[112.0865,39.9514],[112.1255,39.9958],[112.1354,40.026],[112.1674,40.0498],[112.1776,40.0843],[112.1938,40.0946],[112.2165,40.1276],[112.226,40.1685],[112.2787,40.197],[112.2932,40.2107],[112.3036,40.2552],[112.2825,40.2781],[112.286,40.3071],[112.2595,40.3284],[112.2632,40.3566],[112.2289,40.3583],[112.2584,40.3869],[112.2115,40.4264],[112.2181,40.4476],[112.1773,40.4627],[112.1322,40.5093],[112.1049,40.5086],[112.0792,40.5374],[112.0468,40.5566],[112.0462,40.5727],[112.0915,40.582],[112.0796,40.6188],[112.0402,40.6426],[112.0387,40.6546],[112.0797,40.6654],[112.1234,40.6962],[112.0985,40.7177],[112.0961,40.7456],[112.1454,40.7639],[112.1517,40.7954],[112.1779,40.8179],[112.1808,40.8491],[112.148,40.879],[112.1588,40.8952],[112.1369,40.913],[112.1364,40.9368],[112.1157,40.9583],[112.0881,40.9464],[112.041,40.9654],[112.0126,41.0004],[112.027,41.0459],[112.0009,41.0623],[111.9237,41.0933],[111.8755,41.1283],[111.8558,41.189],[111.8621,41.2041],[111.8433,41.2222],[111.8194,41.2256],[111.824,41.2594],[111.7888,41.2583],[111.7593,41.2858],[111.7244,41.2912],[111.704,41.31],[111.6436,41.3042],[111.5755,41.305],[111.5594,41.3198],[111.535,41.3159],[111.5286,41.3323],[111.4615,41.3223],[111.4453,41.3284],[111.4168,41.3196]]]},"properties":{"region_code":"CN-15-1501","parent_region_code":"CN-15","name":"呼和浩特市","level":"prefecture","has_children":true,"full_path":"中国 / 内蒙古自治区 / 呼和浩特市","source_admin_code":"1501","osm_relation_id":2752851}},
{"type":"Feature","geometry":{"type":"Polygon","coordinates":[[[111.4168,41.3196],[111.4133,41.3484],[111.3902,41.3584],[111.3779,41.3778],[111.4234,41.4147],[111.4339,41.4644],[111.4302,41.5284],[111.398,41.5658],[111.3716,41.6057],[111.3691,41.623],[111.3421,41.6447],[111.2969,41.6438],[111.2293,41.6869],[111.1985,41.6858],[111.1549,41.7041],[111.1556,41.7366],[111.1032,41.7474],[111.0782,41.7619],[111.0721,41.7875],[111.0151,41.8523],[110.9876,41.9139],[110.9571,41.9508],[110.9181,42.0208],[110.9003,42.0377],[110.8706,42.0817],[110.7892,42.1718],[110.784,42.2164],[110.7717,42.2602],[110.7561,42.2923],[110.7327,42.3136],[110.7458,42.361],[110.728,42.3949],[110.6988,42.4879],[110.6711,42.516],[110.616,42.5474],[110.5319,42.6046],[110.4924,42.6419],[110.4822,42.6756],[110.4423,42.6978],[110.3765,42.7109],[110.334,42.736],[110.252,42.707],[110.1363,42.6721],[110.1008,42.6391],[109.9003,42.6317],[109.7227,42.5717],[109.6688,42.5513],[109.5285,42.4675],[109.4954,42.4663],[109.4692,42.4535],[109.3822,42.4463],[109.3898,42.4242],[109.4213,42.4175],[109.4375,42.3964],[109.4354,42.3767],[109.4537,42.3599],[109.4641,42.3258],[109.4774,42.3169],[109.4714,42.2946],[109.5006,42.1829],[109.5018,42.1546],[109.4716,42.122],[109.464,42.083],[109.4449,42.0656],[109.4148,42.0634],[109.3855,42.0427],[109.3681,42.0126],[109.357,41.9632],[109.3547,41.9263],[109.332,41.9009],[109.278,41.8842],[109.2715,41.868],[109.2773,41.8373],[109.2671,41.816],[109.3012,41.8124],[109.3151,41.7933],[109.3587,41.7643],[109.3657,41.7324],[109.3796,41.7215],[109.3763,41.7009],[109.393,41.6895],[109.3975,41.6661],[109.413,41.6495],[109.4354,41.5624],[109.4194,41.5389],[109.4308,41.5257],[109.5188,41.4968],[109.5777,41.4927],[109.6373,41.5101],[109.6628,41.5024],[109.6524,41.4654],[109.6371,41.439],[109.6608,41.4104],[109.6589,41.3957],[109.6816,41.3777],[109.6722,41.3583],[109.6876,41.313],[109.6317,41.2651],[109.6362,41.2387],[109.6571,41.219],[109.6805,41.1721],[109.7161,41.1368],[109.7116,41.1143],[109.6812,41.1092],[109.6701,41.0966],[109.681,41.0477],[109.6957,41.0333],[109.7312,41.0299],[109.7403,41.0079],[109.7623,41.011],[109.8164,40.9946],[109.8197,40.9615],[109.8352,40.938],[109.8576,40.926],[109.8676,40.9056],[109.8951,40.8811],[109.8678,40.8654],[109.8104,40.8063],[109.7919,40.7937],[109.79,40.7603],[109.7297,40.7468],[109.6958,40.7516],[109.6304,40.738],[109.541,40.7425],[109.5224,40.732],[109.4731,40.7416],[109.4353,40.7256],[109.4055,40.7019],[109.4096,40.6609],[109.3959,40.6432],[109.403,40.627],[109.4268,40.6221],[109.412,40.5973],[109.4269,40.5561],[109.4399,40.539],[109.4194,40.517],[109.4298,40.509],[109.4404,40.5201],[109.5146,40.5126],[109.5392,40.5429],[109.5907,40.5534],[109.6375,40.5226],[109.6437,40.5074],[109.6707,40.5065],[109.7069,40.472],[109.724,40.4937],[109.8168,40.5137],[109.8603,40.5069],[109.8886,40.5219],[109.9266,40.5302],[109.9888,40.5214],[110.0182,40.5278],[110.0515,40.5168],[110.0828,40.5281],[110.1357,40.5067],[110.1599,40.5137],[110.172,40.5502],[110.2108,40.5522],[110.241,40.534],[110.2558,40.5087],[110.2867,40.5193],[110.3089,40.5103],[110.3153,40.4934],[110.3066,40.4438],[110.3519,40.4575],[110.3635,40.4373],[110.3896,40.4326],[110.4212,40.3998],[110.4691,40.3861],[110.4924,40.367],[110.5086,40.3914],[110.5543,40.3305],[110.6293,40.304],[110.6906,40.3077],[110.7149,40.3135],[110.7271,40.2926],[110.7507,40.3045],[110.7605,40.281],[110.8103,40.259],[110.8402,40.266],[110.8796,40.2633],[110.9133,40.246],[110.9459,40.2706],[110.9681,40.2556],[110.9915,40.2625],[111.0372,40.2932],[111.049,40.2638],[111.0886,40.2608],[111.1201,40.2495],[111.1042,40.281],[111.0874,40.273],[111.0672,40.2883],[111.0502,40.3192],[111.1148,40.3391],[111.1221,40.3679],[111.0941,40.3827],[111.0773,40.4258],[111.0255,40.4243],[111.0265,40.4431],[110.9575,40.4705],[110.9429,40.4903],[110.9027,40.4877],[110.8487,40.5281],[110.8438,40.5585],[110.8115,40.5909],[110.8017,40.6105],[110.7967,40.6646],[110.782,40.6825],[110.7974,40.7046],[110.7834,40.7358],[110.7867,40.7562],[110.7765,40.7927],[110.7227,40.7819],[110.6968,40.8212],[110.7223,40.8344],[110.7193,40.8735],[110.734,40.8945],[110.7328,40.9146],[110.7138,40.9327],[110.6467,40.9158],[110.6294,40.922],[110.621,40.9529],[110.6221,40.987],[110.6521,41.0084],[110.6496,41.0349],[110.6613,41.0595],[110.6369,41.1114],[110.6426,41.1501],[110.6186,41.1729],[110.6146,41.1911],[110.5943,41.2108],[110.5512,41.2277],[110.5507,41.2584],[110.5111,41.2882],[110.5453,41.2873],[110.5869,41.3221],[110.6256,41.3165],[110.658,41.342],[110.6838,41.3503],[110.7107,41.3793],[110.7635,41.3675],[110.8102,41.3791],[110.8281,41.3591],[110.8657,41.3437],[110.9026,41.3129],[110.9272,41.3094],[110.9615,41.3417],[111.0121,41.3317],[111.0318,41.307],[111.0923,41.3071],[111.1216,41.2918],[111.1703,41.2753],[111.2207,41.2377],[111.261,41.2477],[111.2751,41.2875],[111.3324,41.294],[111.3551,41.3185],[111.391,41.3104],[111.4168,41.3196]]]},"properties":{"region_code":"CN-15-1502","parent_region_code":"CN-15","name":"包头市","level":"prefecture","has_children":true,"full_path":"中国 / 内蒙古自治区 / 包头市","source_admin_code":"1502","osm_relation_id":2752954}},
{"type":"Feature","geometry":{"type":"Polygon","coordinates":[[[106.9576,39.0548],[106.9874,39.0355],[107.0265,39.0363],[107.0856,39.0808],[107.0824,39.1124],[107.0981,39.1356],[107.111,39.2042],[107.1332,39.2254],[107.1195,39.2518],[107.1308,39.2787],[107.0546,39.2217],[107.0281,39.2505],[106.9795,39.2715],[106.9381,39.2984],[106.9352,39.3107],[106.9509,39.3436],[106.9165,39.3755],[106.9255,39.3938],[106.9595,39.4191],[106.93,39.5164],[106.9262,39.5758],[106.9061,39.6263],[106.8948,39.6296],[106.8764,39.6609],[106.8934,39.695],[106.9106,39.7053],[106.8946,39.754],[106.8786,39.7565],[106.8751,39.8064],[106.8982,39.832],[106.9187,39.8395],[106.9311,39.8584],[106.9549,39.8594],[106.9553,39.9124],[106.929,39.9137],[106.8844,39.8742],[106.8651,39.8638],[106.8569,39.8423],[106.7724,39.8099],[106.7633,39.8656],[106.7436,39.858],[106.747,39.8097],[106.7656,39.772],[106.7547,39.7451],[106.7562,39.7087],[106.7895,39.6892],[106.7597,39.6578],[106.7599,39.6325],[106.6313,39.573],[106.6055,39.5426],[106.6064,39.5148],[106.6295,39.475],[106.6595,39.46],[106.7169,39.4403],[106.7454,39.4361],[106.7346,39.4119],[106.747,39.3818],[106.7734,39.3717],[106.7946,39.3458],[106.8023,39.3167],[106.8007,39.27],[106.7885,39.2521],[106.8111,39.2017],[106.819,39.197],[106.8369,39.1455],[106.8602,39.0988],[106.9252,39.0762],[106.9576,39.0548]]]},"properties":{"region_code":"CN-15-1503","parent_region_code":"CN-15","name":"乌海市","level":"prefecture","has_children":true,"full_path":"中国 / 内蒙古自治区 / 乌海市","source_admin_code":"1503","osm_relation_id":2752805}},
{"type":"Feature","geometry":{"type":"Polygon","coordinates":[[[119.3309,45.2499],[119.3125,45.2308],[119.3007,45.1894],[119.355,45.1633],[119.3629,45.0988],[119.3395,45.0825],[119.287,45.0851],[119.2753,45.1248],[119.1985,45.1482],[119.1521,45.0981],[119.1499,45.0725],[119.1906,45.0332],[119.2223,45.0164],[119.2023,44.9955],[119.1661,45.0136],[119.1537,45.0054],[119.1783,44.952],[119.2233,44.9337],[119.2176,44.908],[119.1377,44.9231],[119.1043,44.9178],[119.079,44.9328],[119.0604,44.8696],[119.0709,44.8551],[119.1421,44.8241],[119.1406,44.8072],[119.1611,44.7798],[119.1659,44.7585],[119.1189,44.7602],[119.1407,44.7295],[119.0869,44.7237],[119.0679,44.7113],[118.9944,44.7123],[118.9472,44.7292],[118.9227,44.7175],[118.9683,44.6812],[118.9947,44.6472],[118.9708,44.5727],[118.9709,44.5548],[118.9266,44.533],[118.9022,44.5142],[118.8647,44.5],[118.8343,44.5005],[118.7745,44.4538],[118.737,44.4667],[118.7051,44.4549],[118.6492,44.444],[118.6433,44.4588],[118.6009,44.462],[118.5827,44.441],[118.5466,44.4325],[118.553,44.4017],[118.4963,44.3958],[118.4676,44.3855],[118.4754,44.3582],[118.3936,44.3071],[118.3746,44.3164],[118.3379,44.3076],[118.3091,44.3197],[118.275,44.3184],[118.2494,44.3265],[118.2175,44.3054],[118.2438,44.2793],[118.2427,44.2461],[118.2049,44.2551],[118.1803,44.2289],[118.1703,44.2049],[118.1427,44.2132],[118.1219,44.189],[118.1239,44.1618],[118.1088,44.1292],[118.0694,44.1155],[118.062,44.1025],[118.0247,44.1091],[117.9934,44.1036],[117.9554,44.1194],[117.898,44.12],[117.862,44.0943],[117.8468,44.0726],[117.821,44.061],[117.7924,44.0376],[117.7828,44.0177],[117.6946,44.0145],[117.643,44.0296],[117.6371,44.041],[117.6797,44.0932],[117.6434,44.1187],[117.618,44.1271],[117.6279,44.1467],[117.6016,44.1668],[117.5463,44.1844],[117.5374,44.2079],[117.5158,44.225],[117.4451,44.2331],[117.1994,44.2183],[117.1589,44.1907],[117.1135,44.1773],[117.0043,44.0556],[116.955,44.0229],[116.9645,43.9864],[117.015,43.9679],[117.0249,43.9407],[116.993,43.9103],[117.0037,43.8979],[116.9908,43.8742],[117.0066,43.8485],[116.9796,43.8383],[116.9943,43.7804],[117.0473,43.751],[116.9656,43.6715],[116.9263,43.6709],[116.8521,43.6553],[116.8322,43.6134],[116.8071,43.6106],[116.7977,43.591],[116.7981,43.563],[116.8244,43.5047],[116.7837,43.4818],[116.7282,43.5067],[116.6747,43.5147],[116.6157,43.5031],[116.5963,43.4422],[116.5995,43.4177],[116.5305,43.3734],[116.4298,43.3262],[116.4127,43.2902],[116.4074,43.2544],[116.3634,43.2411],[116.3498,43.1546],[116.3869,43.1226],[116.3918,43.1046],[116.4125,43.1019],[116.4295,43.0757],[116.4975,43.047],[116.4944,43.0131],[116.5747,42.9836],[116.6586,42.9311],[116.6679,42.8875],[116.6598,42.8148],[116.6678,42.7594],[116.6555,42.7488],[116.6383,42.7083],[116.6133,42.6699],[116.6022,42.6342],[116.5748,42.6118],[116.582,42.598],[116.6294,42.6128],[116.6321,42.5755],[116.6676,42.5736],[116.6929,42.5902],[116.7759,42.5793],[116.7951,42.581],[116.8355,42.5445],[116.8795,42.5328],[116.8673,42.5033],[116.8689,42.4787],[116.8998,42.4442],[116.8998,42.4222],[116.8856,42.3869],[116.9603,42.425],[116.99,42.4235],[117.0091,42.4535],[117.0559,42.4554],[117.0895,42.4822],[117.1102,42.4709],[117.1696,42.4637],[117.2078,42.4734],[117.2554,42.4732],[117.2689,42.4801],[117.3253,42.4593],[117.3841,42.4601],[117.4066,42.4698],[117.41,42.5101],[117.3855,42.5189],[117.3902,42.5344],[117.4269,42.5537],[117.4554,42.597],[117.4681,42.6004],[117.5216,42.5888],[117.5338,42.6039],[117.5938,42.6011],[117.6042,42.5905],[117.6813,42.5803],[117.7739,42.6165],[117.7945,42.6098],[117.791,42.5829],[117.8261,42.5604],[117.8697,42.5062],[117.9341,42.4604],[117.9579,42.4352],[117.9921,42.414],[118.0175,42.3752],[118.0013,42.3519],[118.0226,42.3157],[118.0532,42.296],[118.0175,42.2646],[117.9643,42.2465],[117.9708,42.227],[118.0102,42.2133],[118.0269,42.197],[118.0869,42.18],[118.1015,42.1613],[118.0817,42.1173],[118.0958,42.1016],[118.1586,42.0833],[118.1333,42.0526],[118.1255,42.0293],[118.1933,42.0309],[118.2137,42.0564],[118.206,42.079],[118.2328,42.0907],[118.2623,42.083],[118.2915,42.0496],[118.2771,42.0249],[118.2799,42.0058],[118.3002,41.9776],[118.2924,41.9473],[118.2597,41.9279],[118.333,41.8696],[118.3289,41.8428],[118.3107,41.8263],[118.2858,41.7707],[118.2693,41.759],[118.2364,41.777],[118.2292,41.8053],[118.2126,41.8132],[118.1735,41.8114],[118.138,41.794],[118.1239,41.74],[118.1457,41.7167],[118.1484,41.6875],[118.2075,41.64],[118.2035,41.6085],[118.2196,41.5829],[118.2752,41.5624],[118.2966,41.5444],[118.3093,41.5104],[118.2999,41.4846],[118.2641,41.4656],[118.3364,41.4433],[118.3498,41.4219],[118.3391,41.3977],[118.3601,41.3823],[118.3497,41.3634],[118.3495,41.3295],[118.3705,41.3109],[118.3942,41.307],[118.4097,41.3332],[118.478,41.3469],[118.5097,41.344],[118.5201,41.3563],[118.6409,41.3459],[118.6611,41.3531],[118.7103,41.3283],[118.7487,41.3234],[118.7637,41.351],[118.8376,41.3726],[118.8341,41.3534],[118.8662,41.3027],[118.8925,41.2982],[118.9286,41.3028],[118.9466,41.3133],[119.0076,41.3039],[119.0469,41.2927],[119.1536,41.296],[119.1943,41.2803],[119.2083,41.3031],[119.2402,41.3224],[119.2931,41.3262],[119.324,41.3391],[119.3136,41.3641],[119.3242,41.383],[119.2983,41.4013],[119.3424,41.4088],[119.3637,41.4324],[119.3715,41.4575],[119.3949,41.4702],[119.3984,41.4854],[119.3885,41.519],[119.356,41.5434],[119.3624,41.5532],[119.4141,41.566],[119.4101,41.587],[119.3358,41.6166],[119.3031,41.6458],[119.3119,41.6618],[119.2933,41.7086],[119.3133,41.7259],[119.3114,41.7616],[119.2901,41.7718],[119.288,41.7907],[119.3096,41.8066],[119.3231,41.8612],[119.327,41.8987],[119.3192,41.9693],[119.3486,41.992],[119.368,42.0196],[119.3778,42.0519],[119.378,42.0897],[119.3417,42.1169],[119.3005,42.1241],[119.3023,42.1442],[119.2801,42.1533],[119.2627,42.1867],[119.2316,42.1984],[119.2693,42.2385],[119.2708,42.2555],[119.3188,42.2779],[119.3363,42.296],[119.3674,42.2961],[119.4271,42.3135],[119.4823,42.3498],[119.4951,42.3854],[119.5107,42.3739],[119.5661,42.3575],[119.5644,42.334],[119.5377,42.3051],[119.5674,42.279],[119.6025,42.2755],[119.6083,42.2539],[119.6362,42.2384],[119.6664,42.2396],[119.6974,42.2208],[119.7276,42.2199],[119.7634,42.2081],[119.8401,42.2134],[119.8501,42.1743],[119.8318,42.1332],[119.8392,42.095],[119.8697,42.0758],[119.8919,42.026],[119.9207,42.0066],[119.9291,41.9824],[119.9495,41.974],[119.9558,41.9508],[119.9487,41.9184],[119.9862,41.8979],[119.9857,41.8729],[120.0057,41.8512],[120.0175,41.8143],[120.0394,41.802],[120.0301,41.7455],[120.0188,41.7366],[120.029,41.7118],[120.0807,41.6937],[120.1332,41.726],[120.1228,41.7672],[120.1556,41.8047],[120.1795,41.8218],[120.183,41.8444],[120.2152,41.8541],[120.2449,41.8819],[120.2819,41.8777],[120.2636,41.9189],[120.3677,41.9924],[120.4053,41.9817],[120.4225,42.0054],[120.4507,42.014],[120.4459,42.0554],[120.4877,42.0714],[120.4611,42.1031],[120.5308,42.1382],[120.5624,42.1499],[120.5789,42.1652],[120.6194,42.1525],[120.7166,42.2016],[120.7398,42.2213],[120.785,42.2164],[120.8154,42.226],[120.8294,42.2457],[120.8847,42.2552],[120.8779,42.2678],[120.8367,42.3075],[120.7901,42.3342],[120.7974,42.3551],[120.7616,42.3643],[120.7632,42.3919],[120.6597,42.4405],[120.6477,42.4635],[120.6154,42.4847],[120.5902,42.5117],[120.5939,42.5304],[120.5661,42.5422],[120.5596,42.5965],[120.5394,42.6033],[120.5059,42.6496],[120.4744,42.7251],[120.4538,42.7535],[120.4406,42.8181],[120.4221,42.8327],[120.4184,42.8648],[120.3908,42.8831],[120.4146,42.9124],[120.3973,42.9349],[120.4226,42.984],[120.3805,42.9829],[120.3529,43.0275],[120.342,43.0571],[120.3804,43.0993],[120.4558,43.1338],[120.4727,43.1847],[120.4926,43.1884],[120.5225,43.2165],[120.5497,43.226],[120.5712,43.2567],[120.6049,43.2842],[120.6264,43.2934],[120.6227,43.3166],[120.6629,43.3254],[120.6713,43.3428],[120.706,43.3663],[120.7097,43.3803],[120.7376,43.4004],[120.7655,43.4106],[120.772,43.4261],[120.7276,43.4211],[120.6901,43.406],[120.6536,43.4006],[120.6207,43.4049],[120.5866,43.3906],[120.4974,43.378],[120.4199,43.3777],[120.4612,43.3995],[120.5164,43.403],[120.5587,43.4267],[120.6001,43.4272],[120.6499,43.4493],[120.6889,43.4862],[120.7321,43.5107],[120.7604,43.5444],[120.8036,43.5576],[120.8592,43.5911],[120.9327,43.6115],[120.9547,43.6317],[120.9626,43.656],[120.9346,43.6959],[120.9164,43.7024],[120.8714,43.7368],[120.8647,43.7532],[120.8286,43.7877],[120.7813,43.8125],[120.7929,43.8391],[120.7906,43.8833],[120.7698,43.9008],[120.7689,43.9332],[120.6878,44.0349],[120.6898,44.0598],[120.7034,44.0788],[120.7296,44.0862],[120.7404,44.1116],[120.7007,44.1273],[120.6897,44.1418],[120.6834,44.1805],[120.6484,44.1841],[120.6519,44.2176],[120.6385,44.2337],[120.5689,44.2331],[120.5549,44.2596],[120.4911,44.2473],[120.476,44.26],[120.4491,44.2605],[120.382,44.3355],[120.3731,44.3541],[120.3735,44.3845],[120.3412,44.3885],[120.3085,44.4113],[120.3177,44.4547],[120.2836,44.4744],[120.2958,44.4959],[120.255,44.5309],[120.2051,44.5542],[120.2005,44.5701],[120.15,44.597],[120.1566,44.6329],[120.1109,44.6501],[120.0901,44.6644],[120.0723,44.6934],[120.0674,44.7245],[120.0358,44.752],[119.9787,44.7897],[119.9318,44.8298],[119.9225,44.8466],[119.861,44.871],[119.8476,44.889],[119.784,44.9185],[119.7486,44.9244],[119.728,44.9459],[119.7031,45.0038],[119.6734,45.0466],[119.6471,45.1087],[119.6093,45.1197],[119.5804,45.1402],[119.4982,45.1771],[119.475,45.1984],[119.3309,45.2499]]]},"properties":{"region_code":"CN-15-1504","parent_region_code":"CN-15","name":"赤峰市","level":"prefecture","has_children":true,"full_path":"中国 / 内蒙古自治区 / 赤峰市","source_admin_code":"1504","osm_relation_id":2753364}},
{"type":"Feature","geometry":{"type":"Polygon","coordinates":[[[120.8779,42.2678],[120.9487,42.2738],[120.9658,42.2596],[120.9863,42.2623],[121.0227,42.2403],[121.0429,42.2576],[121.0661,42.2532],[121.0813,42.2757],[121.1155,42.2786],[121.1441,42.3123],[121.1786,42.3308],[121.1853,42.3512],[121.2131,42.3697],[121.2583,42.3771],[121.2925,42.396],[121.2988,42.4334],[121.344,42.4578],[121.3805,42.4511],[121.3799,42.4716],[121.4595,42.4789],[121.4731,42.4941],[121.5243,42.4819],[121.5966,42.5],[121.6602,42.4353],[121.6965,42.4374],[121.7153,42.4496],[121.746,42.4872],[121.7805,42.4953],[121.8326,42.5367],[121.8578,42.5335],[121.8646,42.559],[121.8921,42.5609],[121.9124,42.5867],[121.9039,42.612],[121.9151,42.637],[121.9128,42.6565],[121.9366,42.6643],[121.9318,42.6864],[121.9859,42.7033],[122.0174,42.6973],[122.0564,42.7212],[122.0699,42.7077],[122.1046,42.7017],[122.1368,42.6857],[122.1998,42.6857],[122.2043,42.7096],[122.2223,42.7258],[122.2536,42.6945],[122.2912,42.6914],[122.3438,42.6757],[122.39,42.6812],[122.3903,42.7052],[122.4303,42.728],[122.4337,42.7678],[122.3661,42.7729],[122.3432,42.823],[122.3515,42.834],[122.4186,42.8414],[122.5596,42.8236],[122.5746,42.7879],[122.6194,42.7714],[122.6486,42.7799],[122.7254,42.7848],[122.7321,42.7689],[122.7809,42.7551],[122.8264,42.7203],[122.8453,42.7124],[122.87,42.7373],[122.8809,42.768],[122.9245,42.7702],[122.94,42.7521],[122.9583,42.7552],[122.9743,42.7754],[123.0258,42.7656],[123.0583,42.7711],[123.0772,42.7865],[123.1103,42.7985],[123.1614,42.8086],[123.1834,42.8233],[123.222,42.8297],[123.1643,42.8572],[123.1813,42.8842],[123.178,42.9235],[123.1997,42.9492],[123.2239,42.9589],[123.2535,42.9914],[123.3171,42.9983],[123.4279,43.0251],[123.466,43.0403],[123.4869,43.0234],[123.5203,43.0147],[123.5375,42.9934],[123.5555,42.995],[123.583,43.0136],[123.591,43.0559],[123.6261,43.0868],[123.6249,43.1166],[123.664,43.1794],[123.6409,43.2116],[123.6716,43.2222],[123.6584,43.2602],[123.6917,43.2784],[123.6971,43.3228],[123.709,43.332],[123.6981,43.3681],[123.6044,43.3639],[123.5785,43.375],[123.5405,43.4124],[123.5203,43.3962],[123.4804,43.4428],[123.4339,43.4359],[123.4355,43.42],[123.4121,43.4081],[123.371,43.4726],[123.3282,43.4791],[123.3104,43.4901],[123.3234,43.5152],[123.3016,43.5314],[123.2981,43.5489],[123.3469,43.5659],[123.4473,43.5437],[123.456,43.5623],[123.4276,43.5735],[123.415,43.5958],[123.4574,43.5888],[123.5066,43.5903],[123.5033,43.6222],[123.5309,43.63],[123.5192,43.6872],[123.4928,43.7291],[123.4773,43.732],[123.4793,43.7609],[123.4923,43.7692],[123.4674,43.8137],[123.4557,43.82],[123.4618,43.8507],[123.4374,43.8748],[123.4227,43.9153],[123.3908,43.9522],[123.3682,43.9637],[123.3945,43.9769],[123.3593,44.0115],[123.326,44.026],[123.3199,44.0434],[123.3556,44.1309],[123.3775,44.1393],[123.3805,44.1594],[123.3174,44.1779],[123.281,44.2101],[123.2704,44.2514],[123.1903,44.3426],[123.1212,44.3654],[123.1084,44.3997],[123.1299,44.4039],[123.1358,44.4272],[123.118,44.4551],[123.1314,44.4867],[123.1192,44.507],[123.0598,44.5034],[123.0211,44.4947],[122.9036,44.4231],[122.8417,44.394],[122.7593,44.3727],[122.7077,44.3292],[122.6761,44.2857],[122.6343,44.2793],[122.5165,44.2475],[122.4875,44.2336],[122.4254,44.235],[122.3114,44.2318],[122.2625,44.2613],[122.2096,44.2571],[122.1826,44.2618],[122.1475,44.2566],[122.0923,44.2712],[122.0552,44.2886],[122.0181,44.2985],[121.9734,44.3281],[121.9387,44.3195],[121.9237,44.347],[121.9376,44.3787],[121.9231,44.3939],[121.8998,44.3942],[121.8775,44.4138],[121.8103,44.4343],[121.7954,44.4314],[121.7573,44.4517],[121.7425,44.4872],[121.7186,44.503],[121.6842,44.5374],[121.6635,44.5489],[121.635,44.6042],[121.5996,44.641],[121.5901,44.6597],[121.5123,44.6855],[121.4821,44.7098],[121.4773,44.7497],[121.45,44.7544],[121.4179,44.772],[121.395,44.8068],[121.3548,44.8409],[121.3431,44.8769],[121.3031,44.894],[121.2688,44.9012],[121.2185,44.9226],[121.1796,44.9582],[121.1644,44.9797],[121.1139,44.9781],[121.064,44.9956],[121.0574,45.0292],[121.013,45.0566],[120.9969,45.0804],[120.9785,45.0848],[120.981,45.1073],[120.9486,45.1175],[120.9512,45.1422],[120.9298,45.1539],[120.8763,45.1595],[120.867,45.1678],[120.8573,45.211],[120.8208,45.2333],[120.7351,45.2288],[120.6947,45.2414],[120.6821,45.283],[120.6514,45.2996],[120.6392,45.3161],[120.5776,45.3501],[120.5478,45.3577],[120.5518,45.416],[120.5301,45.4365],[120.4871,45.4628],[120.4296,45.4648],[120.4109,45.5028],[120.3361,45.525],[120.316,45.5537],[120.2671,45.5535],[120.2192,45.5729],[120.1935,45.576],[120.157,45.5918],[120.1393,45.5849],[120.0851,45.5921],[120.0091,45.5863],[120,45.5711],[119.9678,45.5532],[119.9273,45.5415],[119.8794,45.5377],[119.8177,45.5695],[119.7619,45.5724],[119.7695,45.5873],[119.8106,45.5999],[119.8136,45.617],[119.8502,45.6285],[119.7933,45.6564],[119.7127,45.6429],[119.7035,45.6478],[119.6701,45.6568],[119.6248,45.6815],[119.5796,45.6782],[119.5628,45.6525],[119.57,45.6373],[119.5471,45.6108],[119.5082,45.6108],[119.4905,45.5986],[119.4839,45.5626],[119.4486,45.534],[119.3493,45.4915],[119.3219,45.4712],[119.3166,45.4179],[119.2717,45.3408],[119.2352,45.2856],[119.3012,45.2535],[119.3309,45.2499],[119.475,45.1984],[119.4982,45.1771],[119.5804,45.1402],[119.6093,45.1197],[119.6471,45.1087],[119.6734,45.0466],[119.7031,45.0038],[119.728,44.9459],[119.7486,44.9244],[119.784,44.9185],[119.8476,44.889],[119.861,44.871],[119.9225,44.8466],[119.9318,44.8298],[119.9787,44.7897],[120.0358,44.752],[120.0674,44.7245],[120.0723,44.6934],[120.0901,44.6644],[120.1109,44.6501],[120.1566,44.6329],[120.15,44.597],[120.2005,44.5701],[120.2051,44.5542],[120.255,44.5309],[120.2958,44.4959],[120.2836,44.4744],[120.3177,44.4547],[120.3085,44.4113],[120.3412,44.3885],[120.3735,44.3845],[120.3731,44.3541],[120.382,44.3355],[120.4491,44.2605],[120.476,44.26],[120.4911,44.2473],[120.5549,44.2596],[120.5689,44.2331],[120.6385,44.2337],[120.6519,44.2176],[120.6484,44.1841],[120.6834,44.1805],[120.6897,44.1418],[120.7007,44.1273],[120.7404,44.1116],[120.7296,44.0862],[120.7034,44.0788],[120.6898,44.0598],[120.6878,44.0349],[120.7689,43.9332],[120.7698,43.9008],[120.7906,43.8833],[120.7929,43.8391],[120.7813,43.8125],[120.8286,43.7877],[120.8647,43.7532],[120.8714,43.7368],[120.9164,43.7024],[120.9346,43.6959],[120.9626,43.656],[120.9547,43.6317],[120.9327,43.6115],[120.8592,43.5911],[120.8036,43.5576],[120.7604,43.5444],[120.7321,43.5107],[120.6889,43.4862],[120.6499,43.4493],[120.6001,43.4272],[120.5587,43.4267],[120.5164,43.403],[120.4612,43.3995],[120.4199,43.3777],[120.4974,43.378],[120.5866,43.3906],[120.6207,43.4049],[120.6536,43.4006],[120.6901,43.406],[120.7276,43.4211],[120.772,43.4261],[120.7655,43.4106],[120.7376,43.4004],[120.7097,43.3803],[120.706,43.3663],[120.6713,43.3428],[120.6629,43.3254],[120.6227,43.3166],[120.6264,43.2934],[120.6049,43.2842],[120.5712,43.2567],[120.5497,43.226],[120.5225,43.2165],[120.4926,43.1884],[120.4727,43.1847],[120.4558,43.1338],[120.3804,43.0993],[120.342,43.0571],[120.3529,43.0275],[120.3805,42.9829],[120.4226,42.984],[120.3973,42.9349],[120.4146,42.9124],[120.3908,42.8831],[120.4184,42.8648],[120.4221,42.8327],[120.4406,42.8181],[120.4538,42.7535],[120.4744,42.7251],[120.5059,42.6496],[120.5394,42.6033],[120.5596,42.5965],[120.5661,42.5422],[120.5939,42.5304],[120.5902,42.5117],[120.6154,42.4847],[120.6477,42.4635],[120.6597,42.4405],[120.7632,42.3919],[120.7616,42.3643],[120.7974,42.3551],[120.7901,42.3342],[120.8367,42.3075],[120.8779,42.2678]]]},"properties":{"region_code":"CN-15-1505","parent_region_code":"CN-15","name":"通辽市","level":"prefecture","has_children":true,"full_path":"中国 / 内蒙古自治区 / 通辽市","source_admin_code":"1505","osm_relation_id":2753408}},
{"type":"Feature","geometry":{"type":"Polygon","coordinates":[[[111.1201,40.2495],[111.0886,40.2608],[111.049,40.2638],[111.0372,40.2932],[110.9915,40.2625],[110.9681,40.2556],[110.9459,40.2706],[110.9133,40.246],[110.8796,40.2633],[110.8402,40.266],[110.8103,40.259],[110.7605,40.281],[110.7507,40.3045],[110.7271,40.2926],[110.7149,40.3135],[110.6906,40.3077],[110.6293,40.304],[110.5543,40.3305],[110.5086,40.3914],[110.4924,40.367],[110.4691,40.3861],[110.4212,40.3998],[110.3896,40.4326],[110.3635,40.4373],[110.3519,40.4575],[110.3066,40.4438],[110.3153,40.4934],[110.3089,40.5103],[110.2867,40.5193],[110.2558,40.5087],[110.241,40.534],[110.2108,40.5522],[110.172,40.5502],[110.1599,40.5137],[110.1357,40.5067],[110.0828,40.5281],[110.0515,40.5168],[110.0182,40.5278],[109.9888,40.5214],[109.9266,40.5302],[109.8886,40.5219],[109.8603,40.5069],[109.8168,40.5137],[109.724,40.4937],[109.7069,40.472],[109.6707,40.5065],[109.6437,40.5074],[109.6375,40.5226],[109.5907,40.5534],[109.5392,40.5429],[109.5146,40.5126],[109.4404,40.5201],[109.4298,40.509],[109.4615,40.4923],[109.4464,40.4787],[109.3719,40.4705],[109.3458,40.4871],[109.3206,40.4922],[109.2926,40.5172],[109.2668,40.5192],[109.2165,40.4862],[109.2022,40.516],[109.1402,40.5207],[109.1069,40.5482],[109.076,40.5392],[109.0262,40.5442],[108.9654,40.5267],[108.9494,40.5352],[108.9162,40.5293],[108.8903,40.569],[108.8484,40.5584],[108.774,40.5591],[108.7622,40.567],[108.7711,40.6186],[108.7011,40.6073],[108.6909,40.6327],[108.6302,40.6474],[108.5932,40.6679],[108.5754,40.7118],[108.5241,40.7265],[108.5058,40.7213],[108.4791,40.7597],[108.4215,40.8012],[108.336,40.8016],[108.3068,40.8206],[108.2863,40.8211],[108.258,40.806],[108.2299,40.8138],[108.1858,40.8708],[108.1644,40.8696],[108.1172,40.8356],[108.072,40.8293],[108.0435,40.845],[108.0084,40.8333],[107.9826,40.8616],[107.936,40.8521],[107.8897,40.8668],[107.8731,40.8599],[107.8344,40.8677],[107.7962,40.8471],[107.759,40.8524],[107.7154,40.8361],[107.7128,40.8181],[107.6753,40.7838],[107.6416,40.7854],[107.5734,40.7575],[107.5596,40.7357],[107.4903,40.7096],[107.4771,40.6803],[107.4549,40.6664],[107.4084,40.6692],[107.3733,40.6387],[107.3479,40.6643],[107.3016,40.6545],[107.2623,40.6163],[107.2569,40.5798],[107.2101,40.5682],[107.1724,40.5053],[107.1849,40.4813],[107.1522,40.4615],[107.1523,40.4405],[107.1685,40.3982],[107.1529,40.3773],[107.1082,40.3752],[107.072,40.3407],[107.0525,40.339],[107.0281,40.3076],[107.0189,40.2588],[106.9669,40.2175],[106.9278,40.1971],[106.9042,40.1714],[106.8606,40.1751],[106.8227,40.1258],[106.8095,40.0999],[106.7826,40.0958],[106.7642,40.067],[106.7281,40.0524],[106.7126,40.032],[106.7348,39.9802],[106.7269,39.9475],[106.7322,39.9319],[106.7162,39.9021],[106.7436,39.858],[106.7633,39.8656],[106.7724,39.8099],[106.8569,39.8423],[106.8651,39.8638],[106.8844,39.8742],[106.929,39.9137],[106.9553,39.9124],[106.9549,39.8594],[106.9311,39.8584],[106.9187,39.8395],[106.8982,39.832],[106.8751,39.8064],[106.8786,39.7565],[106.8946,39.754],[106.9106,39.7053],[106.8934,39.695],[106.8764,39.6609],[106.8948,39.6296],[106.9061,39.6263],[106.9262,39.5758],[106.93,39.5164],[106.9595,39.4191],[106.9255,39.3938],[106.9165,39.3755],[106.9509,39.3436],[106.9352,39.3107],[106.9381,39.2984],[106.9795,39.2715],[107.0281,39.2505],[107.0546,39.2217],[107.1308,39.2787],[107.1195,39.2518],[107.1332,39.2254],[107.111,39.2042],[107.0981,39.1356],[107.0824,39.1124],[107.0856,39.0808],[107.0265,39.0363],[106.9874,39.0355],[106.9576,39.0548],[106.9651,39.0327],[106.9494,38.944],[106.7995,38.8176],[106.7381,38.7342],[106.705,38.7167],[106.6571,38.6005],[106.6597,38.5698],[106.6436,38.492],[106.5895,38.3858],[106.4777,38.3187],[106.4852,38.3052],[106.5112,38.2973],[106.5413,38.268],[106.6147,38.2344],[106.6498,38.2282],[106.7241,38.2025],[106.7449,38.1828],[106.7879,38.1658],[106.8911,38.1455],[106.9532,38.128],[107.0118,38.1195],[107.0742,38.1418],[107.1071,38.136],[107.1363,38.158],[107.1673,38.1578],[107.2586,38.0981],[107.3286,38.0906],[107.357,38.0452],[107.4282,37.9968],[107.4009,37.9628],[107.414,37.9404],[107.4446,37.9323],[107.4545,37.9418],[107.4882,37.945],[107.5001,37.9305],[107.5558,37.8933],[107.6466,37.8643],[107.6696,37.8751],[107.7036,37.8687],[107.736,37.8439],[107.8358,37.8287],[107.8795,37.8077],[107.9099,37.8066],[107.9308,37.7939],[107.9757,37.7857],[107.9731,37.765],[107.9868,37.7352],[108.0085,37.7239],[108.0194,37.6955],[108.0064,37.6655],[108.0165,37.6496],[108.0791,37.6501],[108.1253,37.621],[108.1479,37.617],[108.2525,37.6666],[108.3073,37.6348],[108.3351,37.633],[108.3551,37.6428],[108.4215,37.6482],[108.4804,37.6762],[108.5236,37.6904],[108.5648,37.6798],[108.6096,37.6537],[108.6444,37.655],[108.699,37.6691],[108.7267,37.6845],[108.768,37.6818],[108.7838,37.6869],[108.788,37.711],[108.7832,37.7594],[108.8013,37.7883],[108.7923,37.8167],[108.7914,37.8577],[108.7998,37.9399],[108.8266,37.9913],[108.7981,38.0478],[108.8303,38.05],[108.8532,38.0401],[108.8815,38.0152],[108.8956,37.9734],[108.9175,37.9592],[108.938,37.9197],[108.9679,37.9307],[108.9743,37.9625],[109.0006,37.9654],[109.0229,37.997],[109.0318,38.0206],[109.0649,38.0277],[109.044,38.0541],[109.0621,38.0903],[109.0572,38.0994],[109.0128,38.1192],[108.959,38.1547],[108.9362,38.1764],[108.9334,38.2047],[108.9699,38.248],[108.9555,38.2654],[108.9693,38.298],[108.9832,38.3116],[109,38.357],[109.0457,38.3843],[109.0534,38.4172],[109.0448,38.4296],[109.1141,38.4726],[109.1461,38.509],[109.1704,38.518],[109.1972,38.5582],[109.229,38.5838],[109.271,38.6279],[109.313,38.5995],[109.3296,38.5973],[109.3626,38.628],[109.3213,38.6605],[109.3303,38.7],[109.3983,38.7197],[109.4061,38.7458],[109.4439,38.7851],[109.5126,38.8328],[109.5413,38.805],[109.6173,38.8537],[109.6396,38.8772],[109.6747,38.9498],[109.7136,39.0656],[109.764,39.0669],[109.8086,39.0803],[109.8079,39.0892],[109.8457,39.1177],[109.8705,39.115],[109.892,39.101],[109.9104,39.1196],[109.8852,39.1421],[109.9528,39.1872],[109.987,39.1964],[110.0016,39.2096],[110.0384,39.2161],[110.1352,39.2591],[110.1539,39.2619],[110.2015,39.2923],[110.1711,39.3685],[110.1518,39.3889],[110.1339,39.3871],[110.1167,39.4352],[110.1431,39.4612],[110.1624,39.4657],[110.1859,39.4528],[110.2388,39.4429],[110.2806,39.3771],[110.335,39.3367],[110.3528,39.3368],[110.3787,39.3108],[110.422,39.3394],[110.4114,39.3483],[110.4229,39.3755],[110.4599,39.3754],[110.489,39.3587],[110.5175,39.3809],[110.5512,39.3536],[110.5522,39.3368],[110.5747,39.2993],[110.5941,39.2789],[110.6209,39.2666],[110.6632,39.2741],[110.6798,39.2669],[110.7267,39.3079],[110.7373,39.3547],[110.7901,39.4088],[110.8016,39.4117],[110.8633,39.492],[110.8778,39.5053],[110.9147,39.5106],[110.9748,39.5278],[110.999,39.5525],[111.0828,39.555],[111.1094,39.5647],[111.1255,39.5838],[111.1483,39.568],[111.136,39.5243],[111.1003,39.4983],[111.1013,39.4776],[111.0837,39.4561],[111.0534,39.4451],[111.0483,39.4299],[111.0578,39.4003],[111.0902,39.3985],[111.0764,39.3803],[111.0957,39.3577],[111.1298,39.3889],[111.1366,39.4058],[111.1664,39.4228],[111.2109,39.4264],[111.3325,39.4192],[111.3548,39.4367],[111.3569,39.4658],[111.3867,39.4932],[111.4223,39.5045],[111.4271,39.5198],[111.416,39.5417],[111.4346,39.5948],[111.4315,39.6406],[111.4172,39.6593],[111.4347,39.6712],[111.4004,39.686],[111.3906,39.7019],[111.3553,39.7215],[111.3516,39.7517],[111.3669,39.7672],[111.3652,39.7906],[111.3941,39.8053],[111.4096,39.8257],[111.4094,39.8657],[111.4222,39.8888],[111.4371,39.8935],[111.4349,39.9383],[111.4227,39.9441],[111.4144,39.9783],[111.4129,40.0196],[111.4057,40.0428],[111.3812,40.0604],[111.3606,40.0943],[111.2992,40.1564],[111.2644,40.1583],[111.2101,40.1796],[111.1992,40.2009],[111.1201,40.2495]]]},"properties":{"region_code":"CN-15-1506","parent_region_code":"CN-15","name":"鄂尔多斯市","level":"prefecture","has_children":true,"full_path":"中国 / 内蒙古自治区 / 鄂尔多斯市","source_admin_code":"1506","osm_relation_id":2752781}},
{"type":"Feature","geometry":{"type":"Polygon","coordinates":[[[122.3924,47.3398],[122.5042,47.4015],[122.5141,47.4424],[122.5309,47.4659],[122.5376,47.4932],[122.5685,47.5332],[122.587,47.5446],[122.759,47.6145],[122.8364,47.6694],[122.9007,47.6903],[123.0732,47.757],[123.1607,47.7816],[123.2078,47.824],[123.2369,47.8582],[123.2754,47.9202],[123.2812,47.9396],[123.3108,47.9576],[123.373,47.974],[123.5343,48.022],[123.5695,48.0411],[123.6463,48.1095],[123.6972,48.1497],[123.7372,48.1931],[123.8669,48.2787],[123.9585,48.3509],[124.068,48.4308],[124.1408,48.4681],[124.2604,48.535],[124.2939,48.5194],[124.2992,48.4595],[124.3278,48.4282],[124.3074,48.4182],[124.3168,48.3867],[124.3078,48.3615],[124.3218,48.3319],[124.37,48.2717],[124.3954,48.2633],[124.3947,48.2454],[124.4548,48.1969],[124.4671,48.1616],[124.4645,48.1291],[124.4287,48.1253],[124.4272,48.105],[124.4596,48.1062],[124.4755,48.1247],[124.4956,48.1185],[124.5074,48.1422],[124.5002,48.166],[124.5146,48.1854],[124.539,48.1969],[124.5719,48.2514],[124.5736,48.2722],[124.547,48.2934],[124.5475,48.3164],[124.5312,48.3392],[124.5081,48.351],[124.5236,48.3888],[124.5128,48.4046],[124.5286,48.419],[124.5192,48.4418],[124.5347,48.4604],[124.5261,48.4949],[124.5355,48.5734],[124.5801,48.5914],[124.6183,48.6913],[124.6067,48.7469],[124.6456,48.7714],[124.6397,48.8116],[124.6607,48.8333],[124.6909,48.839],[124.6938,48.8556],[124.7259,48.9216],[124.748,48.9452],[124.7423,48.9747],[124.7659,48.9991],[124.8626,49.1575],[124.8749,49.1713],[124.9052,49.178],[124.9448,49.1604],[124.9777,49.1604],[125.0099,49.1757],[125.0451,49.142],[125.1064,49.1244],[125.1232,49.1435],[125.1194,49.1795],[125.1546,49.1749],[125.173,49.1971],[125.2105,49.1979],[125.2205,49.2324],[125.207,49.2437],[125.2079,49.2727],[125.2568,49.3143],[125.2461,49.3562],[125.2689,49.373],[125.2487,49.3906],[125.248,49.4338],[125.2569,49.4591],[125.2211,49.4854],[125.227,49.5584],[125.1834,49.5739],[125.1976,49.5915],[125.1667,49.6219],[125.1355,49.6197],[125.1209,49.6428],[125.1209,49.6665],[125.1569,49.6704],[125.1738,49.6589],[125.212,49.6673],[125.209,49.7079],[125.2166,49.724],[125.1944,49.737],[125.2143,49.7577],[125.2189,49.799],[125.1748,49.8164],[125.1711,49.8281],[125.2212,49.8355],[125.2162,49.8576],[125.239,49.8718],[125.1762,49.9563],[125.2213,49.9568],[125.2436,49.9923],[125.2825,50.002],[125.2886,50.0272],[125.2526,50.0357],[125.2745,50.059],[125.3082,50.0452],[125.3227,50.0644],[125.2829,50.0667],[125.2637,50.0812],[125.2775,50.0958],[125.2714,50.1256],[125.2845,50.15],[125.2386,50.1581],[125.2101,50.1702],[125.1952,50.1504],[125.1752,50.1488],[125.1563,50.1694],[125.1081,50.2027],[125.0663,50.1975],[124.9598,50.3038],[124.9298,50.3166],[124.8815,50.3161],[124.8464,50.3372],[124.7827,50.3205],[124.6977,50.3349],[124.65,50.3355],[124.5889,50.3531],[124.5373,50.3552],[124.5078,50.3666],[124.4918,50.3999],[124.4387,50.4383],[124.4261,50.4156],[124.4323,50.3838],[124.3961,50.3608],[124.3566,50.3592],[124.3377,50.3302],[124.3417,50.2791],[124.3612,50.2564],[124.3451,50.2486],[124.3368,50.2173],[124.3523,50.2001],[124.3174,50.1767],[124.2793,50.1879],[124.2684,50.2133],[124.2427,50.2137],[124.2482,50.1882],[124.2351,50.1638],[124.2131,50.1675],[124.2035,50.1952],[124.1759,50.2238],[124.0952,50.237],[124.096,50.2204],[124.0543,50.1972],[124.0175,50.2093],[123.9698,50.2073],[123.9469,50.1855],[123.9236,50.1854],[123.9021,50.2086],[123.8591,50.2216],[123.8635,50.2691],[123.7703,50.3429],[123.7797,50.3678],[123.7583,50.3766],[123.7764,50.4002],[123.7931,50.4545],[123.8184,50.4481],[123.8333,50.4101],[123.8723,50.4012],[123.8821,50.3826],[123.9132,50.3717],[123.9327,50.3961],[123.9665,50.399],[123.9981,50.4328],[123.9866,50.4395],[123.9961,50.4771],[123.9763,50.5085],[124.0161,50.5167],[124.0191,50.5367],[124.0797,50.5382],[124.0689,50.5646],[124.0133,50.5964],[124.0222,50.6356],[124.0104,50.655],[123.96,50.6836],[123.926,50.71],[123.9352,50.7264],[123.9177,50.7387],[123.8672,50.7495],[123.8649,50.7635],[123.8297,50.7987],[123.8702,50.8351],[123.8564,50.8474],[123.788,50.8286],[123.7797,50.8685],[123.7852,50.8901],[123.7646,50.9049],[123.7721,50.9277],[123.7556,50.9774],[123.7049,50.9983],[123.6875,51.0226],[123.7058,51.073],[123.6224,51.0929],[123.5774,51.0908],[123.5538,51.1311],[123.5786,51.1468],[123.5697,51.1747],[123.5692,51.2134],[123.5598,51.2424],[123.4997,51.267],[123.4892,51.2906],[123.4572,51.2889],[123.4468,51.2723],[123.3956,51.2763],[123.3692,51.2628],[123.338,51.2718],[123.3025,51.2649],[123.2736,51.2463],[123.2167,51.2786],[123.1628,51.2856],[123.1392,51.3018],[123.056,51.3185],[122.996,51.3092],[122.9609,51.3396],[122.9512,51.3624],[122.9606,51.3854],[122.928,51.4072],[122.8935,51.4166],[122.8978,51.4451],[122.8707,51.4478],[122.8534,51.4693],[122.879,51.5016],[122.8491,51.5269],[122.8797,51.5488],[122.8307,51.5747],[122.8474,51.6128],[122.8151,51.6338],[122.8108,51.6552],[122.7713,51.6875],[122.7621,51.7296],[122.7416,51.7446],[122.7636,51.7668],[122.7575,51.7877],[122.7303,51.8233],[122.7332,51.8453],[122.6964,51.8906],[122.7249,51.9196],[122.7125,51.9425],[122.7115,51.9746],[122.6681,51.9752],[122.6488,52.0516],[122.6196,52.0728],[122.6407,52.0987],[122.63,52.1341],[122.6823,52.1366],[122.7326,52.1509],[122.7672,52.1768],[122.7555,52.2242],[122.7843,52.2486],[122.7576,52.2637],[122.6987,52.2535],[122.6563,52.2806],[122.6406,52.2713],[122.5915,52.2656],[122.5624,52.2796],[122.499,52.2859],[122.4666,52.2965],[122.4725,52.3494],[122.4433,52.3831],[122.4009,52.3741],[122.3616,52.4093],[122.3391,52.4112],[122.3176,52.4584],[122.3036,52.4738],[122.2565,52.467],[122.1992,52.4674],[122.1684,52.4854],[122.1596,52.5129],[122.1331,52.5074],[122.126,52.475],[122.1031,52.4492],[122.0767,52.442],[122.0805,52.4197],[122.0344,52.4091],[122.0377,52.389],[121.9469,52.3164],[121.9355,52.2916],[121.897,52.2798],[121.8339,52.2801],[121.7942,52.2976],[121.7128,52.3141],[121.708,52.3471],[121.6876,52.3703],[121.6573,52.3886],[121.6646,52.4268],[121.6397,52.4438],[121.5959,52.4394],[121.5534,52.4601],[121.5262,52.4529],[121.4849,52.4826],[121.4089,52.4984],[121.4014,52.5209],[121.3546,52.5293],[121.3213,52.5526],[121.3172,52.5703],[121.2701,52.5853],[121.224,52.5731],[121.1859,52.5893],[121.2023,52.6095],[121.2822,52.6481],[121.312,52.6764],[121.3719,52.6842],[121.4403,52.728],[121.4745,52.7719],[121.5011,52.7747],[121.5288,52.7979],[121.5798,52.8196],[121.6133,52.8515],[121.5963,52.8719],[121.6051,52.8849],[121.656,52.9124],[121.6735,52.9487],[121.7101,52.998],[121.7435,53.0014],[121.7802,53.0188],[121.8118,53.0615],[121.7681,53.0919],[121.7764,53.117],[121.738,53.147],[121.7139,53.1449],[121.6514,53.175],[121.6476,53.1915],[121.6652,53.2082],[121.6731,53.2373],[121.6418,53.2586],[121.596,53.267],[121.5657,53.2953],[121.5491,53.2923],[121.4932,53.3341],[121.4102,53.3172],[121.3271,53.3232],[121.276,53.2888],[121.2454,53.2903],[121.2122,53.2786],[121.1476,53.283],[121.1273,53.2752],[121.0875,53.3053],[121.0473,53.2901],[120.9877,53.2891],[120.9409,53.2956],[120.9255,53.2854],[120.8751,53.2821],[120.8155,53.2683],[120.8158,53.2409],[120.758,53.2114],[120.7249,53.2003],[120.6835,53.1711],[120.6876,53.1453],[120.6539,53.1355],[120.636,53.1039],[120.6037,53.0986],[120.5553,53.0805],[120.5227,53.045],[120.4455,53.0077],[120.4182,52.9831],[120.4059,52.9581],[120.3614,52.9429],[120.332,52.8973],[120.289,52.8922],[120.2808,52.861],[120.2115,52.8394],[120.1826,52.81],[120.1374,52.8127],[120.0924,52.7861],[120.0266,52.7763],[120.0281,52.7587],[120.0618,52.7072],[120.0268,52.6355],[120.0412,52.5977],[120.0784,52.5832],[120.1196,52.5851],[120.1846,52.577],[120.282,52.6221],[120.3909,52.6152],[120.4291,52.6383],[120.459,52.6435],[120.4776,52.629],[120.5607,52.5934],[120.5953,52.5905],[120.6184,52.5706],[120.6557,52.5662],[120.6769,52.5482],[120.7162,52.5486],[120.7226,52.5299],[120.6864,52.5177],[120.6984,52.4881],[120.6794,52.4726],[120.6836,52.4289],[120.6414,52.3857],[120.6476,52.3696],[120.6178,52.3609],[120.6214,52.3247],[120.6496,52.2999],[120.6928,52.287],[120.7054,52.2621],[120.7516,52.2554],[120.7374,52.2255],[120.7391,52.2045],[120.7796,52.1637],[120.7537,52.1357],[120.7552,52.1028],[120.6934,52.056],[120.6791,52.0362],[120.7118,52.0072],[120.697,51.9811],[120.6542,51.9548],[120.6553,51.9308],[120.6338,51.9204],[120.5423,51.9073],[120.5439,51.8829],[120.4977,51.8853],[120.4648,51.8743],[120.4698,51.8515],[120.3916,51.8304],[120.3558,51.7874],[120.3047,51.781],[120.287,51.7501],[120.2251,51.7257],[120.1842,51.689],[120.1373,51.6729],[120.0872,51.6807],[120.0917,51.6467],[120.0619,51.6405],[120.0275,51.5831],[120.0449,51.5523],[120.007,51.5172],[119.9778,51.5019],[119.9753,51.481],[119.9953,51.4578],[119.9683,51.4352],[119.9609,51.3975],[119.9023,51.389],[119.9331,51.3542],[119.8753,51.3332],[119.8798,51.3083],[119.8683,51.2934],[119.8319,51.2931],[119.8029,51.278],[119.8203,51.2625],[119.7903,51.244],[119.7781,51.2245],[119.7525,51.2127],[119.7813,51.172],[119.7567,51.0988],[119.7165,51.0755],[119.7189,51.0502],[119.6629,51.012],[119.6244,51.009],[119.6195,50.9929],[119.5834,50.9752],[119.563,50.9337],[119.5165,50.9059],[119.5085,50.8888],[119.4828,50.8762],[119.4964,50.8528],[119.4904,50.8274],[119.5074,50.8149],[119.4877,50.775],[119.499,50.7658],[119.4419,50.6939],[119.4257,50.6831],[119.3736,50.68],[119.3833,50.6596],[119.3474,50.628],[119.3298,50.6277],[119.2742,50.6034],[119.2864,50.5713],[119.2569,50.5381],[119.2551,50.488],[119.2426,50.4466],[119.1967,50.41],[119.159,50.422],[119.1449,50.3881],[119.1514,50.3581],[119.1874,50.348],[119.2049,50.3625],[119.2468,50.3417],[119.269,50.3647],[119.2926,50.3452],[119.3214,50.3605],[119.3508,50.3576],[119.364,50.3401],[119.3668,50.311],[119.3433,50.3028],[119.3098,50.2164],[119.3316,50.1906],[119.3294,50.1721],[119.2982,50.1556],[119.3033,50.1436],[119.2741,50.1048],[119.2497,50.099],[119.2296,50.0747],[119.1971,50.0783],[119.1717,50.0597],[119.1726,50.0414],[119.116,50.0167],[119.1103,49.9997],[119.0841,49.9843],[119.025,49.9875],[118.9865,49.9763],[118.9376,49.9913],[118.9118,49.9789],[118.862,49.9729],[118.7814,49.9551],[118.7572,49.9587],[118.7343,49.9449],[118.6478,49.9475],[118.6044,49.9311],[118.5548,49.9219],[118.5249,49.9005],[118.5232,49.8857],[118.4838,49.8671],[118.4722,49.8277],[118.4324,49.834],[118.391,49.8087],[118.3721,49.7862],[118.2958,49.7599],[118.2788,49.7426],[118.2395,49.7373],[118.2038,49.7111],[118.2045,49.69],[118.1707,49.6808],[118.1583,49.6609],[118.1124,49.6581],[118.074,49.6138],[118.04,49.6099],[117.9739,49.6199],[117.9436,49.5939],[117.8909,49.5936],[117.8808,49.5153],[117.8208,49.5385],[117.7929,49.5202],[117.6339,49.5648],[117.4713,49.6272],[117.2733,49.6308],[117.0614,49.6856],[116.7137,49.8457],[116.6088,49.7071],[116.4713,49.5056],[116.3257,49.2891],[116.2792,49.2272],[116.2069,49.1141],[116.1128,48.9805],[116.0363,48.8674],[116.0727,48.8165],[116.0203,48.7571],[115.9443,48.6804],[115.8864,48.6269],[115.7865,48.5225],[115.8125,48.2556],[115.5477,48.1614],[115.5204,48.1529],[115.5359,48.1247],[115.5333,48.101],[115.5455,48.0669],[115.5649,47.9702],[115.5705,47.9191],[115.7421,47.8034],[115.8439,47.7439],[115.9353,47.6812],[115.9556,47.6877],[116.1115,47.8192],[116.2534,47.8783],[116.4394,47.8379],[116.4555,47.8391],[116.6764,47.8892],[116.8198,47.8949],[116.8708,47.8909],[117.0869,47.8203],[117.3752,47.64],[117.4822,47.7588],[117.5185,47.7716],[117.5222,47.7888],[117.784,47.9988],[117.805,48.0142],[117.8495,48.0211],[117.9134,48.0213],[117.9289,48.0135],[118.0347,48.0124],[118.1002,48.0314],[118.1783,48.0404],[118.2311,48.041],[118.2493,48.0192],[118.2887,48.0036],[118.3034,48.011],[118.3425,48.0036],[118.3553,48.0119],[118.4147,48.0139],[118.4549,47.9962],[118.5588,47.9926],[118.7583,47.7743],[119.1217,47.664],[119.1428,47.5424],[119.1902,47.5221],[119.3576,47.4796],[119.3296,47.4521],[119.3216,47.4248],[119.3587,47.422],[119.3723,47.3984],[119.4154,47.3742],[119.4361,47.3714],[119.4431,47.3505],[119.4793,47.3337],[119.5123,47.3349],[119.5493,47.3482],[119.583,47.3438],[119.6105,47.3669],[119.6455,47.408],[119.7427,47.4299],[119.7918,47.4526],[119.8112,47.4851],[119.8661,47.5072],[119.9557,47.5224],[119.9854,47.5354],[120.0403,47.5695],[120.068,47.5708],[120.1119,47.6002],[120.1731,47.6098],[120.1905,47.6295],[120.2272,47.6283],[120.2582,47.656],[120.3171,47.6058],[120.3711,47.5915],[120.428,47.5652],[120.4483,47.5652],[120.479,47.5491],[120.5282,47.5419],[120.5841,47.5464],[120.597,47.5313],[120.5726,47.5053],[120.6156,47.4715],[120.6444,47.4384],[120.7108,47.402],[120.7302,47.3809],[120.7193,47.3541],[120.6974,47.3492],[120.677,47.3286],[120.6271,47.3057],[120.5733,47.2675],[120.5767,47.2438],[120.6069,47.2359],[120.6384,47.2471],[120.6519,47.2327],[120.7263,47.215],[120.7646,47.1848],[120.7707,47.1684],[120.8199,47.142],[120.8648,47.1464],[120.9321,47.1008],[120.9689,47.0944],[121.0461,47.143],[121.0925,47.15],[121.1096,47.1399],[121.1689,47.1388],[121.2395,47.1099],[121.3305,47.134],[121.3402,47.1306],[121.3967,47.1484],[121.4175,47.1679],[121.4605,47.1874],[121.4812,47.1805],[121.5214,47.197],[121.5551,47.1918],[121.5805,47.1703],[121.6501,47.1755],[121.6773,47.2073],[121.7002,47.2511],[121.7547,47.2572],[121.7915,47.2469],[121.838,47.2533],[121.8465,47.2375],[121.8854,47.2269],[121.8997,47.2092],[121.9637,47.1908],[121.9894,47.1601],[122.0662,47.175],[122.1073,47.2047],[122.1379,47.2196],[122.1935,47.2306],[122.2436,47.2543],[122.3105,47.3058],[122.3924,47.3398]]]},"properties":{"region_code":"CN-15-1507","parent_region_code":"CN-15","name":"呼伦贝尔市","level":"prefecture","has_children":true,"full_path":"中国 / 内蒙古自治区 / 呼伦贝尔市","source_admin_code":"1507","osm_relation_id":161769}},
{"type":"Feature","geometry":{"type":"Polygon","coordinates":[[[109.3822,42.4463],[109.2839,42.4345],[109.0244,42.4542],[108.9999,42.4453],[108.96,42.4416],[108.8385,42.3956],[108.7956,42.4139],[108.716,42.4096],[108.5649,42.4374],[108.5276,42.4412],[108.3062,42.4359],[108.2859,42.4387],[108.2408,42.4606],[108.1636,42.4454],[108.0572,42.4333],[108.0167,42.4313],[107.9796,42.4123],[107.9188,42.4023],[107.8288,42.4093],[107.7274,42.4121],[107.5659,42.4116],[107.4962,42.455],[107.4532,42.4567],[107.2928,42.4081],[107.257,42.3628],[107.0411,42.3143],[106.786,42.2914],[106.5593,42.219],[106.5071,42.194],[106.1531,42.0804],[105.6969,41.9309],[105.6134,41.8955],[105.5529,41.8652],[105.3859,41.795],[105.3649,41.7787],[105.289,41.7471],[105.2293,41.7477],[105.2216,41.6734],[105.213,41.6501],[105.2169,41.5557],[105.2151,41.4902],[105.2334,41.3697],[105.2519,41.3305],[105.2769,41.3092],[105.3128,41.2891],[105.3638,41.2468],[105.3866,41.1749],[105.3901,41.1337],[105.3871,41.0382],[105.3941,40.9824],[105.4146,40.9415],[105.437,40.9153],[105.5055,40.8668],[105.5441,40.8491],[105.6286,40.8251],[105.683,40.8226],[105.7037,40.7982],[105.7406,40.7816],[105.7717,40.7822],[105.8597,40.7475],[105.9053,40.7339],[105.9754,40.7237],[105.994,40.7292],[106.0263,40.7213],[106.0802,40.7167],[106.1132,40.709],[106.1349,40.6892],[106.1749,40.6913],[106.1972,40.666],[106.2334,40.6599],[106.2309,40.6252],[106.2687,40.5897],[106.2928,40.5815],[106.3172,40.588],[106.3961,40.5645],[106.4715,40.5351],[106.4778,40.5016],[106.4317,40.5037],[106.3749,40.4997],[106.3452,40.5266],[106.2781,40.5471],[106.2637,40.518],[106.2035,40.5238],[106.1928,40.5143],[106.2146,40.4599],[106.3154,40.3389],[106.3229,40.3359],[106.4226,40.3383],[106.4448,40.3179],[106.4718,40.3178],[106.5234,40.3641],[106.5998,40.3764],[106.6678,40.3745],[106.8135,40.358],[106.8141,40.3502],[106.7603,40.2929],[106.7263,40.275],[106.753,40.2582],[106.7989,40.2115],[106.8606,40.1751],[106.9042,40.1714],[106.9278,40.1971],[106.9669,40.2175],[107.0189,40.2588],[107.0281,40.3076],[107.0525,40.339],[107.072,40.3407],[107.1082,40.3752],[107.1529,40.3773],[107.1685,40.3982],[107.1523,40.4405],[107.1522,40.4615],[107.1849,40.4813],[107.1724,40.5053],[107.2101,40.5682],[107.2569,40.5798],[107.2623,40.6163],[107.3016,40.6545],[107.3479,40.6643],[107.3733,40.6387],[107.4084,40.6692],[107.4549,40.6664],[107.4771,40.6803],[107.4903,40.7096],[107.5596,40.7357],[107.5734,40.7575],[107.6416,40.7854],[107.6753,40.7838],[107.7128,40.8181],[107.7154,40.8361],[107.759,40.8524],[107.7962,40.8471],[107.8344,40.8677],[107.8731,40.8599],[107.8897,40.8668],[107.936,40.8521],[107.9826,40.8616],[108.0084,40.8333],[108.0435,40.845],[108.072,40.8293],[108.1172,40.8356],[108.1644,40.8696],[108.1858,40.8708],[108.2299,40.8138],[108.258,40.806],[108.2863,40.8211],[108.3068,40.8206],[108.336,40.8016],[108.4215,40.8012],[108.4791,40.7597],[108.5058,40.7213],[108.5241,40.7265],[108.5754,40.7118],[108.5932,40.6679],[108.6302,40.6474],[108.6909,40.6327],[108.7011,40.6073],[108.7711,40.6186],[108.7622,40.567],[108.774,40.5591],[108.8484,40.5584],[108.8903,40.569],[108.9162,40.5293],[108.9494,40.5352],[108.9654,40.5267],[109.0262,40.5442],[109.076,40.5392],[109.1069,40.5482],[109.1402,40.5207],[109.2022,40.516],[109.2165,40.4862],[109.2668,40.5192],[109.2926,40.5172],[109.3206,40.4922],[109.3458,40.4871],[109.3719,40.4705],[109.4464,40.4787],[109.4615,40.4923],[109.4298,40.509],[109.4194,40.517],[109.4399,40.539],[109.4269,40.5561],[109.412,40.5973],[109.4268,40.6221],[109.403,40.627],[109.3959,40.6432],[109.4096,40.6609],[109.4055,40.7019],[109.4353,40.7256],[109.4731,40.7416],[109.5224,40.732],[109.541,40.7425],[109.6304,40.738],[109.6958,40.7516],[109.7297,40.7468],[109.79,40.7603],[109.7919,40.7937],[109.8104,40.8063],[109.8678,40.8654],[109.8951,40.8811],[109.8676,40.9056],[109.8576,40.926],[109.8352,40.938],[109.8197,40.9615],[109.8164,40.9946],[109.7623,41.011],[109.7403,41.0079],[109.7312,41.0299],[109.6957,41.0333],[109.681,41.0477],[109.6701,41.0966],[109.6812,41.1092],[109.7116,41.1143],[109.7161,41.1368],[109.6805,41.1721],[109.6571,41.219],[109.6362,41.2387],[109.6317,41.2651],[109.6876,41.313],[109.6722,41.3583],[109.6816,41.3777],[109.6589,41.3957],[109.6608,41.4104],[109.6371,41.439],[109.6524,41.4654],[109.6628,41.5024],[109.6373,41.5101],[109.5777,41.4927],[109.5188,41.4968],[109.4308,41.5257],[109.4194,41.5389],[109.4354,41.5624],[109.413,41.6495],[109.3975,41.6661],[109.393,41.6895],[109.3763,41.7009],[109.3796,41.7215],[109.3657,41.7324],[109.3587,41.7643],[109.3151,41.7933],[109.3012,41.8124],[109.2671,41.816],[109.2773,41.8373],[109.2715,41.868],[109.278,41.8842],[109.332,41.9009],[109.3547,41.9263],[109.357,41.9632],[109.3681,42.0126],[109.3855,42.0427],[109.4148,42.0634],[109.4449,42.0656],[109.464,42.083],[109.4716,42.122],[109.5018,42.1546],[109.5006,42.1829],[109.4714,42.2946],[109.4774,42.3169],[109.4641,42.3258],[109.4537,42.3599],[109.4354,42.3767],[109.4375,42.3964],[109.4213,42.4175],[109.3898,42.4242],[109.3822,42.4463]]]},"properties":{"region_code":"CN-15-1508","parent_region_code":"CN-15","name":"巴彦淖尔市","level":"prefecture","has_children":true,"full_path":"中国 / 内蒙古自治区 / 巴彦淖尔市","source_admin_code":"1508","osm_relation_id":2752813}},
{"type":"Feature","geometry":{"type":"Polygon","coordinates":[[[112.3036,40.2552],[112.3418,40.2529],[112.3852,40.2719],[112.4056,40.2943],[112.4581,40.2982],[112.4711,40.2853],[112.5179,40.2626],[112.6193,40.2375],[112.6374,40.2206],[112.7257,40.1645],[112.7694,40.1759],[112.8481,40.2037],[112.8875,40.2977],[112.8899,40.3263],[112.9645,40.3501],[113.0225,40.3641],[113.1197,40.3756],[113.1736,40.3932],[113.2246,40.4012],[113.2519,40.3995],[113.2702,40.386],[113.2916,40.3405],[113.3093,40.3186],[113.3577,40.3124],[113.4342,40.3218],[113.5079,40.3357],[113.5305,40.3334],[113.5675,40.3489],[113.5842,40.3708],[113.6307,40.4065],[113.656,40.4153],[113.6751,40.444],[113.7297,40.4677],[113.7508,40.4686],[113.7774,40.4916],[113.7875,40.518],[113.8175,40.4989],[113.8634,40.4483],[113.8939,40.4759],[113.9671,40.5249],[114.0096,40.5182],[114.0687,40.5396],[114.0717,40.5781],[114.0348,40.6078],[114.0612,40.6417],[114.065,40.6866],[114.056,40.7213],[114.0884,40.7404],[114.0981,40.7571],[114.0943,40.7958],[114.0741,40.7888],[114.038,40.8295],[114.0693,40.8531],[114.0465,40.8629],[114.0454,40.8917],[114.0332,40.9299],[113.9893,40.9364],[113.9726,40.9462],[113.9689,40.9936],[113.921,41.0131],[113.9016,41.0359],[113.8661,41.0625],[113.8562,41.0772],[113.8322,41.0783],[113.8182,41.0989],[113.8331,41.1078],[113.8674,41.109],[113.8776,41.1323],[113.896,41.1399],[113.9069,41.1691],[113.9497,41.1707],[113.9949,41.1828],[114.0057,41.2314],[113.9862,41.2662],[113.971,41.2526],[113.9463,41.2526],[113.9446,41.2812],[113.908,41.2927],[113.893,41.314],[113.9203,41.3247],[113.9376,41.3893],[113.9122,41.4017],[113.8645,41.4107],[113.8785,41.4367],[113.9149,41.4565],[113.9238,41.4833],[113.9478,41.4825],[113.9712,41.5053],[114.0331,41.5308],[114.0525,41.5246],[114.0953,41.5357],[114.2215,41.5128],[114.2232,41.5395],[114.2136,41.5749],[114.2299,41.5901],[114.2203,41.6193],[114.2489,41.6227],[114.2081,41.684],[114.2289,41.7073],[114.2001,41.7363],[114.2086,41.7543],[114.1943,41.7893],[114.2366,41.8308],[114.2787,41.8642],[114.3167,41.9091],[114.3205,41.927],[114.3439,41.9273],[114.3462,41.9512],[114.3839,41.952],[114.4153,41.9399],[114.4706,41.9521],[114.5048,41.9707],[114.4824,41.9956],[114.4597,42.0359],[114.4742,42.0614],[114.4955,42.064],[114.5052,42.1077],[114.565,42.1319],[114.6238,42.1091],[114.6691,42.1185],[114.7048,42.1126],[114.7494,42.113],[114.7832,42.1295],[114.8009,42.1466],[114.8016,42.1977],[114.7522,42.2157],[114.6701,42.1959],[114.6802,42.2192],[114.6634,42.2459],[114.6828,42.2623],[114.6663,42.2781],[114.645,42.2667],[114.5689,42.2941],[114.5541,42.2685],[114.5192,42.2333],[114.4918,42.2189],[114.4372,42.2094],[114.3994,42.1976],[114.4317,42.1691],[114.4587,42.1684],[114.4728,42.1125],[114.4385,42.096],[114.4029,42.0974],[114.3707,42.1075],[114.3702,42.1496],[114.3629,42.1594],[114.3144,42.1869],[114.2678,42.1855],[114.2349,42.167],[114.22,42.1329],[114.1341,42.1236],[114.1119,42.1339],[114.089,42.1179],[114.062,42.0814],[114.0485,42.0318],[114.0816,42.0023],[114.0583,41.9839],[114.0553,41.964],[114.0122,41.9743],[113.9783,41.9658],[113.9531,41.9487],[113.9384,41.9671],[113.9064,41.9841],[113.8976,42.0302],[113.9093,42.0483],[113.892,42.0571],[113.86,42.0549],[113.7883,42.0628],[113.7631,42.0825],[113.7324,42.0946],[113.721,42.1239],[113.6851,42.1283],[113.6662,42.1127],[113.6377,42.1076],[113.5655,42.1298],[113.365,42.1415],[113.3233,42.1164],[113.282,42.0821],[113.2775,42.0701],[113.2086,42.0091],[113.1586,41.989],[113.1413,41.9764],[113.1629,41.9621],[113.1563,41.942],[113.1198,41.9519],[113.079,41.9307],[113.0351,41.9838],[112.995,41.9866],[112.9535,41.9972],[112.9162,42.0525],[112.8945,42.0952],[112.8315,42.1342],[112.7624,42.1421],[112.7057,42.1759],[112.7222,42.2437],[112.6686,42.2944],[112.6571,42.3262],[112.6173,42.351],[112.6043,42.392],[112.5668,42.4071],[112.5176,42.4038],[112.4472,42.3816],[112.411,42.3838],[112.3541,42.3782],[112.2943,42.3965],[112.2847,42.4237],[112.2019,42.4757],[112.1452,42.472],[112.124,42.4917],[112.1209,42.5317],[112.1087,42.559],[112.063,42.5947],[112.0098,42.6104],[111.9997,42.6435],[111.9727,42.6562],[111.9517,42.679],[111.9379,42.7101],[111.9079,42.7518],[111.9039,42.7717],[111.8506,42.8437],[111.8494,42.8695],[111.8585,42.8953],[111.8181,42.9408],[111.7698,42.9675],[111.7433,42.9924],[111.6974,42.9958],[111.64,43.0307],[111.6147,43.0533],[111.5877,43.1113],[111.5814,43.1403],[111.5407,43.153],[111.4977,43.1915],[111.4082,43.1901],[111.3778,43.1962],[111.342,43.2255],[111.2877,43.2418],[111.2704,43.2533],[111.2491,43.285],[111.1913,43.3482],[111.156,43.377],[111.0854,43.3591],[111.0061,43.322],[110.9633,43.2857],[110.7666,43.099],[110.7294,43.0834],[110.682,43.0353],[110.684,43.017],[110.6293,42.9393],[110.6155,42.928],[110.4641,42.8326],[110.4362,42.7819],[110.4222,42.7718],[110.334,42.736],[110.3765,42.7109],[110.4423,42.6978],[110.4822,42.6756],[110.4924,42.6419],[110.5319,42.6046],[110.616,42.5474],[110.6711,42.516],[110.6988,42.4879],[110.728,42.3949],[110.7458,42.361],[110.7327,42.3136],[110.7561,42.2923],[110.7717,42.2602],[110.784,42.2164],[110.7892,42.1718],[110.8706,42.0817],[110.9003,42.0377],[110.9181,42.0208],[110.9571,41.9508],[110.9876,41.9139],[111.0151,41.8523],[111.0721,41.7875],[111.0782,41.7619],[111.1032,41.7474],[111.1556,41.7366],[111.1549,41.7041],[111.1985,41.6858],[111.2293,41.6869],[111.2969,41.6438],[111.3421,41.6447],[111.3691,41.623],[111.3716,41.6057],[111.398,41.5658],[111.4302,41.5284],[111.4339,41.4644],[111.4234,41.4147],[111.3779,41.3778],[111.3902,41.3584],[111.4133,41.3484],[111.4168,41.3196],[111.4453,41.3284],[111.4615,41.3223],[111.5286,41.3323],[111.535,41.3159],[111.5594,41.3198],[111.5755,41.305],[111.6436,41.3042],[111.704,41.31],[111.7244,41.2912],[111.7593,41.2858],[111.7888,41.2583],[111.824,41.2594],[111.8194,41.2256],[111.8433,41.2222],[111.8621,41.2041],[111.8558,41.189],[111.8755,41.1283],[111.9237,41.0933],[112.0009,41.0623],[112.027,41.0459],[112.0126,41.0004],[112.041,40.9654],[112.0881,40.9464],[112.1157,40.9583],[112.1364,40.9368],[112.1369,40.913],[112.1588,40.8952],[112.148,40.879],[112.1808,40.8491],[112.1779,40.8179],[112.1517,40.7954],[112.1454,40.7639],[112.0961,40.7456],[112.0985,40.7177],[112.1234,40.6962],[112.0797,40.6654],[112.0387,40.6546],[112.0402,40.6426],[112.0796,40.6188],[112.0915,40.582],[112.0462,40.5727],[112.0468,40.5566],[112.0792,40.5374],[112.1049,40.5086],[112.1322,40.5093],[112.1773,40.4627],[112.2181,40.4476],[112.2115,40.4264],[112.2584,40.3869],[112.2289,40.3583],[112.2632,40.3566],[112.2595,40.3284],[112.286,40.3071],[112.2825,40.2781],[112.3036,40.2552]]]},"properties":{"region_code":"CN-15-1509","parent_region_code":"CN-15","name":"乌兰察布市","level":"prefecture","has_children":true,"full_path":"中国 / 内蒙古自治区 / 乌兰察布市","source_admin_code":"1509","osm_relation_id":2752977}},
{"type":"Feature","geometry":{"type":"Polygon","coordinates":[[[122.2625,44.2613],[122.2844,44.305],[122.2903,44.4119],[122.2802,44.4737],[122.2651,44.4701],[122.2156,44.4834],[122.22,44.5243],[122.193,44.5541],[122.1236,44.5759],[122.1338,44.588],[122.1081,44.6123],[122.0966,44.6691],[122.1151,44.6997],[122.1538,44.7253],[122.1467,44.7418],[122.094,44.7348],[122.1067,44.7662],[122.1366,44.7537],[122.1622,44.7745],[122.1113,44.7751],[122.0838,44.8],[122.0851,44.8291],[122.0643,44.8792],[122.0403,44.9112],[122.0741,44.9121],[122.0772,44.9553],[122.0669,45.0021],[122.0944,45.0232],[122.1114,45.0625],[122.1055,45.1389],[122.1357,45.1807],[122.1854,45.1799],[122.2094,45.1918],[122.232,45.2221],[122.2315,45.274],[122.1457,45.296],[122.1395,45.3027],[122.1413,45.3719],[122.1744,45.4083],[122.1602,45.44],[122.1126,45.4518],[122.0148,45.489],[121.9964,45.5065],[121.987,45.5511],[121.9659,45.5675],[121.962,45.5902],[121.989,45.5965],[121.9972,45.6213],[121.9634,45.6904],[121.9431,45.7091],[121.86,45.7176],[121.8053,45.7025],[121.8043,45.6848],[121.75,45.6887],[121.7069,45.6998],[121.6639,45.721],[121.6621,45.7369],[121.6357,45.7524],[121.6496,45.7682],[121.683,45.7606],[121.7153,45.7828],[121.7469,45.7927],[121.7603,45.8166],[121.7624,45.8414],[121.7963,45.871],[121.7989,45.898],[121.8148,45.9163],[121.7976,45.9664],[121.7577,45.9972],[121.8167,46.0207],[121.8372,46.0219],[121.8571,46.0006],[121.9169,46.0023],[121.9212,45.9861],[121.955,45.9841],[122.0078,45.9597],[122.0769,45.915],[122.0848,45.8801],[122.1936,45.8545],[122.23,45.8292],[122.2533,45.7923],[122.3137,45.828],[122.315,45.8421],[122.3447,45.8608],[122.363,45.8585],[122.3553,45.9144],[122.44,45.9151],[122.4885,45.8591],[122.4988,45.8094],[122.5132,45.7826],[122.5351,45.8097],[122.5606,45.8049],[122.6027,45.7732],[122.636,45.7697],[122.6444,45.7296],[122.6595,45.728],[122.6653,45.6988],[122.7358,45.7035],[122.7532,45.7402],[122.7866,45.7677],[122.7474,45.8304],[122.7662,45.8553],[122.7954,45.8543],[122.8207,45.897],[122.8207,45.9117],[122.7882,46.0708],[123.0383,46.0972],[123.0642,46.1221],[123.1054,46.1281],[123.0975,46.1714],[123.1209,46.1725],[123.1224,46.2086],[123.1379,46.2265],[123.171,46.2467],[123.1052,46.3335],[123.012,46.4189],[122.9993,46.449],[123.0051,46.5264],[122.9946,46.5727],[123.046,46.578],[123.039,46.6168],[123.0712,46.6206],[123.0922,46.6012],[123.1749,46.6103],[123.1956,46.5897],[123.2172,46.5877],[123.2726,46.6153],[123.271,46.6588],[123.3095,46.6603],[123.3924,46.6798],[123.4685,46.6841],[123.5974,46.6874],[123.6257,46.7261],[123.6187,46.7627],[123.6243,46.8119],[123.5854,46.8129],[123.5751,46.8265],[123.6204,46.8445],[123.5934,46.8589],[123.6016,46.8872],[123.571,46.8944],[123.5661,46.8299],[123.4961,46.8254],[123.479,46.8388],[123.4773,46.868],[123.519,46.9251],[123.5221,46.953],[123.4768,46.9529],[123.4207,46.9322],[123.3858,46.9388],[123.3816,46.952],[123.3308,46.9865],[123.2962,46.995],[123.297,46.9625],[123.3534,46.9689],[123.3802,46.9504],[123.3836,46.9364],[123.3975,46.9331],[123.4,46.9061],[123.3697,46.8372],[123.333,46.8239],[123.3152,46.8517],[123.2897,46.8634],[123.247,46.8531],[123.225,46.8562],[123.2101,46.8338],[123.2179,46.8207],[123.1792,46.7863],[123.171,46.7539],[123.1346,46.7357],[123.083,46.7366],[123.0173,46.7218],[122.986,46.7458],[122.9923,46.7588],[122.9485,46.7728],[122.889,46.8157],[122.8925,46.8538],[122.8752,46.8858],[122.8887,46.9027],[122.8867,46.9578],[122.8621,46.956],[122.8305,46.9391],[122.7965,46.9388],[122.7659,46.9756],[122.7906,47.0181],[122.8234,47.0259],[122.8405,47.0531],[122.8032,47.0713],[122.7156,47.0824],[122.6893,47.0823],[122.6225,47.1193],[122.5857,47.1517],[122.5525,47.1644],[122.5249,47.1986],[122.5,47.2443],[122.4545,47.2787],[122.4268,47.3106],[122.4272,47.3246],[122.3924,47.3398],[122.3105,47.3058],[122.2436,47.2543],[122.1935,47.2306],[122.1379,47.2196],[122.1073,47.2047],[122.0662,47.175],[121.9894,47.1601],[121.9637,47.1908],[121.8997,47.2092],[121.8854,47.2269],[121.8465,47.2375],[121.838,47.2533],[121.7915,47.2469],[121.7547,47.2572],[121.7002,47.2511],[121.6773,47.2073],[121.6501,47.1755],[121.5805,47.1703],[121.5551,47.1918],[121.5214,47.197],[121.4812,47.1805],[121.4605,47.1874],[121.4175,47.1679],[121.3967,47.1484],[121.3402,47.1306],[121.3305,47.134],[121.2395,47.1099],[121.1689,47.1388],[121.1096,47.1399],[121.0925,47.15],[121.0461,47.143],[120.9689,47.0944],[120.9321,47.1008],[120.8648,47.1464],[120.8199,47.142],[120.7707,47.1684],[120.7646,47.1848],[120.7263,47.215],[120.6519,47.2327],[120.6384,47.2471],[120.6069,47.2359],[120.5767,47.2438],[120.5733,47.2675],[120.6271,47.3057],[120.677,47.3286],[120.6974,47.3492],[120.7193,47.3541],[120.7302,47.3809],[120.7108,47.402],[120.6444,47.4384],[120.6156,47.4715],[120.5726,47.5053],[120.597,47.5313],[120.5841,47.5464],[120.5282,47.5419],[120.479,47.5491],[120.4483,47.5652],[120.428,47.5652],[120.3711,47.5915],[120.3171,47.6058],[120.2582,47.656],[120.2272,47.6283],[120.1905,47.6295],[120.1731,47.6098],[120.1119,47.6002],[120.068,47.5708],[120.0403,47.5695],[119.9854,47.5354],[119.9557,47.5224],[119.8661,47.5072],[119.8112,47.4851],[119.7918,47.4526],[119.7427,47.4299],[119.6455,47.408],[119.6105,47.3669],[119.583,47.3438],[119.5493,47.3482],[119.5123,47.3349],[119.4793,47.3337],[119.5509,47.2971],[119.5618,47.272],[119.5542,47.2539],[119.5712,47.2437],[119.6233,47.2441],[119.6664,47.2146],[119.7081,47.1934],[119.7163,47.1682],[119.7547,47.1294],[119.799,47.0592],[119.7834,47.0245],[119.8071,46.9917],[119.8344,46.9684],[119.8686,46.955],[119.8483,46.9391],[119.8551,46.9204],[119.9213,46.9026],[119.8987,46.8653],[119.9197,46.8384],[119.9322,46.7957],[119.9017,46.7555],[119.9292,46.7203],[119.9061,46.6884],[119.8986,46.6651],[119.8963,46.5784],[119.8833,46.5043],[119.8853,46.4714],[119.8705,46.3623],[119.8683,46.2877],[119.8565,46.2147],[119.8488,46.072],[119.8375,46.0317],[119.8363,45.9139],[119.814,45.838],[119.748,45.7189],[119.7041,45.6713],[119.7035,45.6478],[119.7127,45.6429],[119.7933,45.6564],[119.8502,45.6285],[119.8136,45.617],[119.8106,45.5999],[119.7695,45.5873],[119.7619,45.5724],[119.8177,45.5695],[119.8794,45.5377],[119.9273,45.5415],[119.9678,45.5532],[120,45.5711],[120.0091,45.5863],[120.0851,45.5921],[120.1393,45.5849],[120.157,45.5918],[120.1935,45.576],[120.2192,45.5729],[120.2671,45.5535],[120.316,45.5537],[120.3361,45.525],[120.4109,45.5028],[120.4296,45.4648],[120.4871,45.4628],[120.5301,45.4365],[120.5518,45.416],[120.5478,45.3577],[120.5776,45.3501],[120.6392,45.3161],[120.6514,45.2996],[120.6821,45.283],[120.6947,45.2414],[120.7351,45.2288],[120.8208,45.2333],[120.8573,45.211],[120.867,45.1678],[120.8763,45.1595],[120.9298,45.1539],[120.9512,45.1422],[120.9486,45.1175],[120.981,45.1073],[120.9785,45.0848],[120.9969,45.0804],[121.013,45.0566],[121.0574,45.0292],[121.064,44.9956],[121.1139,44.9781],[121.1644,44.9797],[121.1796,44.9582],[121.2185,44.9226],[121.2688,44.9012],[121.3031,44.894],[121.3431,44.8769],[121.3548,44.8409],[121.395,44.8068],[121.4179,44.772],[121.45,44.7544],[121.4773,44.7497],[121.4821,44.7098],[121.5123,44.6855],[121.5901,44.6597],[121.5996,44.641],[121.635,44.6042],[121.6635,44.5489],[121.6842,44.5374],[121.7186,44.503],[121.7425,44.4872],[121.7573,44.4517],[121.7954,44.4314],[121.8103,44.4343],[121.8775,44.4138],[121.8998,44.3942],[121.9231,44.3939],[121.9376,44.3787],[121.9237,44.347],[121.9387,44.3195],[121.9734,44.3281],[122.0181,44.2985],[122.0552,44.2886],[122.0923,44.2712],[122.1475,44.2566],[122.1826,44.2618],[122.2096,44.2571],[122.2625,44.2613]]]},"properties":{"region_code":"CN-15-1522","parent_region_code":"CN-15","name":"兴安盟","level":"prefecture","has_children":true,"full_path":"中国 / 内蒙古自治区 / 兴安盟","source_admin_code":"1522","osm_relation_id":2753442}},
{"type":"Feature","geometry":{"type":"Polygon","coordinates":[[[119.3309,45.2499],[119.3012,45.2535],[119.2352,45.2856],[119.2717,45.3408],[119.3166,45.4179],[119.3219,45.4712],[119.3493,45.4915],[119.4486,45.534],[119.4839,45.5626],[119.4905,45.5986],[119.5082,45.6108],[119.5471,45.6108],[119.57,45.6373],[119.5628,45.6525],[119.5796,45.6782],[119.6248,45.6815],[119.6701,45.6568],[119.7035,45.6478],[119.7041,45.6713],[119.748,45.7189],[119.814,45.838],[119.8363,45.9139],[119.8375,46.0317],[119.8488,46.072],[119.8565,46.2147],[119.8683,46.2877],[119.8705,46.3623],[119.8853,46.4714],[119.8833,46.5043],[119.8963,46.5784],[119.8986,46.6651],[119.8069,46.6674],[119.7746,46.6253],[119.6807,46.5907],[119.6661,46.6171],[119.6376,46.625],[119.5814,46.6137],[119.5555,46.6339],[119.521,46.636],[119.472,46.6297],[119.4305,46.6386],[119.3836,46.6083],[119.3481,46.6175],[119.3006,46.6087],[119.2449,46.6429],[119.1864,46.6438],[119.1643,46.6536],[119.1008,46.6475],[119.0744,46.6667],[119.0129,46.7315],[118.9999,46.7511],[118.9579,46.7372],[118.9424,46.7212],[118.9159,46.724],[118.9115,46.7635],[118.8969,46.7758],[118.8425,46.7707],[118.8084,46.7334],[118.7834,46.7172],[118.7921,46.687],[118.7306,46.6888],[118.6737,46.6961],[118.6352,46.7201],[118.5755,46.6934],[118.437,46.7067],[118.4024,46.727],[118.3009,46.7383],[118.2589,46.7162],[118.2278,46.713],[118.2114,46.6924],[118.1842,46.6813],[118.1532,46.6849],[118.1156,46.6787],[118.1008,46.6618],[118.0567,46.6345],[117.9681,46.6113],[117.9348,46.6166],[117.889,46.5914],[117.8589,46.5644],[117.8641,46.5465],[117.8342,46.5314],[117.7606,46.5241],[117.702,46.5133],[117.6353,46.5547],[117.6327,46.5791],[117.5882,46.6033],[117.5715,46.5955],[117.4938,46.5984],[117.4441,46.583],[117.4151,46.5805],[117.4407,46.5255],[117.3922,46.4782],[117.3694,46.4085],[117.3803,46.3969],[117.3685,46.3605],[117.2432,46.3649],[117.0885,46.3544],[116.8965,46.377],[116.8813,46.3735],[116.8315,46.3837],[116.8109,46.3554],[116.7661,46.341],[116.7611,46.3292],[116.6578,46.3211],[116.5983,46.303],[116.5776,46.2887],[116.5661,46.2537],[116.5148,46.2157],[116.4343,46.1377],[116.3979,46.126],[116.2639,45.9614],[116.2376,45.8726],[116.268,45.8521],[116.28,45.7707],[116.2605,45.7697],[116.2146,45.7417],[116.216,45.7254],[116.17,45.6885],[116.1224,45.6775],[116.0305,45.6824],[116.0149,45.6561],[115.9317,45.63],[115.8694,45.5794],[115.7935,45.5268],[115.6897,45.4587],[115.5576,45.4362],[115.356,45.3894],[115.1648,45.3962],[115.1122,45.3882],[114.9741,45.376],[114.9155,45.3817],[114.8618,45.4014],[114.7372,45.4373],[114.6797,45.4198],[114.5976,45.4052],[114.5411,45.3845],[114.5416,45.3471],[114.528,45.2927],[114.4562,45.2061],[114.4037,45.1655],[114.3847,45.1434],[114.3432,45.119],[114.2983,45.0999],[114.2164,45.0498],[114.177,45.0338],[114.1605,44.9956],[114.1334,44.9667],[114.0562,44.9256],[113.9068,44.9147],[113.8769,44.8801],[113.8447,44.862],[113.7763,44.839],[113.6806,44.7688],[113.6256,44.7424],[113.5378,44.757],[113.5059,44.772],[113.3931,44.7811],[113.3114,44.7824],[113.1276,44.7954],[113.0222,44.8231],[112.931,44.8395],[112.8635,44.8372],[112.7568,44.8626],[112.702,44.8809],[112.585,44.9361],[112.5188,45.0126],[112.4974,45.0239],[112.4255,45.0742],[112.3743,45.0616],[112.2978,45.0658],[112.1114,45.0716],[112.0523,45.0931],[112.0089,45.0918],[111.9627,45.0762],[111.874,45.038],[111.833,45.0127],[111.7695,44.9806],[111.7194,44.919],[111.7039,44.8916],[111.6448,44.8075],[111.6049,44.7558],[111.5739,44.6982],[111.5534,44.6454],[111.5611,44.5713],[111.5238,44.5464],[111.5116,44.5126],[111.4637,44.4714],[111.4249,44.4009],[111.4093,44.3446],[111.4251,44.3175],[111.4894,44.2997],[111.5192,44.2709],[111.5192,44.249],[111.5392,44.1918],[111.5686,44.1529],[111.595,44.1308],[111.6092,44.1062],[111.6543,44.062],[111.6931,44.0354],[111.7882,43.996],[111.849,43.9544],[111.8739,43.9322],[111.9067,43.8863],[111.9546,43.8276],[111.9602,43.8123],[111.9678,43.7439],[111.9462,43.69],[111.8831,43.6722],[111.799,43.6696],[111.776,43.6589],[111.7416,43.628],[111.5729,43.4908],[111.5528,43.4871],[111.4534,43.4893],[111.4016,43.4764],[111.3605,43.4406],[111.327,43.4252],[111.2768,43.4174],[111.164,43.3857],[111.156,43.377],[111.1913,43.3482],[111.2491,43.285],[111.2704,43.2533],[111.2877,43.2418],[111.342,43.2255],[111.3778,43.1962],[111.4082,43.1901],[111.4977,43.1915],[111.5407,43.153],[111.5814,43.1403],[111.5877,43.1113],[111.6147,43.0533],[111.64,43.0307],[111.6974,42.9958],[111.7433,42.9924],[111.7698,42.9675],[111.8181,42.9408],[111.8585,42.8953],[111.8494,42.8695],[111.8506,42.8437],[111.9039,42.7717],[111.9079,42.7518],[111.9379,42.7101],[111.9517,42.679],[111.9727,42.6562],[111.9997,42.6435],[112.0098,42.6104],[112.063,42.5947],[112.1087,42.559],[112.1209,42.5317],[112.124,42.4917],[112.1452,42.472],[112.2019,42.4757],[112.2847,42.4237],[112.2943,42.3965],[112.3541,42.3782],[112.411,42.3838],[112.4472,42.3816],[112.5176,42.4038],[112.5668,42.4071],[112.6043,42.392],[112.6173,42.351],[112.6571,42.3262],[112.6686,42.2944],[112.7222,42.2437],[112.7057,42.1759],[112.7624,42.1421],[112.8315,42.1342],[112.8945,42.0952],[112.9162,42.0525],[112.9535,41.9972],[112.995,41.9866],[113.0351,41.9838],[113.079,41.9307],[113.1198,41.9519],[113.1563,41.942],[113.1629,41.9621],[113.1413,41.9764],[113.1586,41.989],[113.2086,42.0091],[113.2775,42.0701],[113.282,42.0821],[113.3233,42.1164],[113.365,42.1415],[113.5655,42.1298],[113.6377,42.1076],[113.6662,42.1127],[113.6851,42.1283],[113.721,42.1239],[113.7324,42.0946],[113.7631,42.0825],[113.7883,42.0628],[113.86,42.0549],[113.892,42.0571],[113.9093,42.0483],[113.8976,42.0302],[113.9064,41.9841],[113.9384,41.9671],[113.9531,41.9487],[113.9783,41.9658],[114.0122,41.9743],[114.0553,41.964],[114.0583,41.9839],[114.0816,42.0023],[114.0485,42.0318],[114.062,42.0814],[114.089,42.1179],[114.1119,42.1339],[114.1341,42.1236],[114.22,42.1329],[114.2349,42.167],[114.2678,42.1855],[114.3144,42.1869],[114.3629,42.1594],[114.3702,42.1496],[114.3707,42.1075],[114.4029,42.0974],[114.4385,42.096],[114.4728,42.1125],[114.4587,42.1684],[114.4317,42.1691],[114.3994,42.1976],[114.4372,42.2094],[114.4918,42.2189],[114.5192,42.2333],[114.5541,42.2685],[114.5689,42.2941],[114.645,42.2667],[114.6663,42.2781],[114.6828,42.2623],[114.6634,42.2459],[114.6802,42.2192],[114.6701,42.1959],[114.7522,42.2157],[114.8016,42.1977],[114.8009,42.1466],[114.8192,42.1378],[114.8506,42.108],[114.8556,42.0523],[114.8833,42.0292],[114.9106,41.9804],[114.9099,41.9353],[114.9158,41.8748],[114.9337,41.8451],[114.914,41.8219],[114.8812,41.8088],[114.8695,41.7907],[114.8936,41.7544],[114.8967,41.6875],[114.8894,41.6345],[114.8559,41.6021],[114.963,41.6125],[114.9798,41.6065],[115.0159,41.6116],[115.0477,41.5957],[115.0808,41.6206],[115.1075,41.6132],[115.1417,41.6142],[115.145,41.6008],[115.1918,41.6022],[115.1976,41.5693],[115.2507,41.5789],[115.2567,41.6135],[115.2909,41.6122],[115.303,41.5916],[115.3593,41.5939],[115.3708,41.6002],[115.3388,41.6334],[115.3542,41.6591],[115.3302,41.6729],[115.3083,41.702],[115.413,41.7299],[115.4339,41.7406],[115.5279,41.7703],[115.6107,41.8123],[115.7123,41.8677],[115.7259,41.8923],[115.7525,41.8848],[115.805,41.911],[115.8271,41.9365],[115.8569,41.9258],[115.8902,41.9404],[115.9188,41.9401],[115.9309,41.9075],[115.9559,41.8703],[115.9964,41.8257],[115.995,41.802],[116.0101,41.7754],[116.0279,41.7805],[116.0884,41.7769],[116.1006,41.7897],[116.0995,41.834],[116.1355,41.8462],[116.1653,41.8714],[116.1887,41.8604],[116.2048,41.8795],[116.205,41.9047],[116.2355,41.9411],[116.2886,41.963],[116.3039,41.995],[116.3208,42.0035],[116.3672,42.0077],[116.4026,41.9917],[116.4047,41.9696],[116.3802,41.9501],[116.4183,41.9363],[116.4474,41.9437],[116.4771,41.9705],[116.5001,41.9748],[116.5276,41.937],[116.5861,41.9243],[116.6348,41.9286],[116.6558,41.9452],[116.7183,41.9504],[116.7358,41.9783],[116.7595,41.9882],[116.7907,41.9759],[116.8078,41.9799],[116.8329,42.0037],[116.8626,42.0015],[116.8728,42.0164],[116.8739,42.0475],[116.8843,42.0761],[116.8778,42.1085],[116.8586,42.1222],[116.8439,42.154],[116.8195,42.1531],[116.7828,42.198],[116.9042,42.1902],[116.9121,42.2275],[116.9049,42.2457],[116.9049,42.2822],[116.8834,42.333],[116.8856,42.3869],[116.8998,42.4222],[116.8998,42.4442],[116.8689,42.4787],[116.8673,42.5033],[116.8795,42.5328],[116.8355,42.5445],[116.7951,42.581],[116.7759,42.5793],[116.6929,42.5902],[116.6676,42.5736],[116.6321,42.5755],[116.6294,42.6128],[116.582,42.598],[116.5748,42.6118],[116.6022,42.6342],[116.6133,42.6699],[116.6383,42.7083],[116.6555,42.7488],[116.6678,42.7594],[116.6598,42.8148],[116.6679,42.8875],[116.6586,42.9311],[116.5747,42.9836],[116.4944,43.0131],[116.4975,43.047],[116.4295,43.0757],[116.4125,43.1019],[116.3918,43.1046],[116.3869,43.1226],[116.3498,43.1546],[116.3634,43.2411],[116.4074,43.2544],[116.4127,43.2902],[116.4298,43.3262],[116.5305,43.3734],[116.5995,43.4177],[116.5963,43.4422],[116.6157,43.5031],[116.6747,43.5147],[116.7282,43.5067],[116.7837,43.4818],[116.8244,43.5047],[116.7981,43.563],[116.7977,43.591],[116.8071,43.6106],[116.8322,43.6134],[116.8521,43.6553],[116.9263,43.6709],[116.9656,43.6715],[117.0473,43.751],[116.9943,43.7804],[116.9796,43.8383],[117.0066,43.8485],[116.9908,43.8742],[117.0037,43.8979],[116.993,43.9103],[117.0249,43.9407],[117.015,43.9679],[116.9645,43.9864],[116.955,44.0229],[117.0043,44.0556],[117.1135,44.1773],[117.1589,44.1907],[117.1994,44.2183],[117.4451,44.2331],[117.5158,44.225],[117.5374,44.2079],[117.5463,44.1844],[117.6016,44.1668],[117.6279,44.1467],[117.618,44.1271],[117.6434,44.1187],[117.6797,44.0932],[117.6371,44.041],[117.643,44.0296],[117.6946,44.0145],[117.7828,44.0177],[117.7924,44.0376],[117.821,44.061],[117.8468,44.0726],[117.862,44.0943],[117.898,44.12],[117.9554,44.1194],[117.9934,44.1036],[118.0247,44.1091],[118.062,44.1025],[118.0694,44.1155],[118.1088,44.1292],[118.1239,44.1618],[118.1219,44.189],[118.1427,44.2132],[118.1703,44.2049],[118.1803,44.2289],[118.2049,44.2551],[118.2427,44.2461],[118.2438,44.2793],[118.2175,44.3054],[118.2494,44.3265],[118.275,44.3184],[118.3091,44.3197],[118.3379,44.3076],[118.3746,44.3164],[118.3936,44.3071],[118.4754,44.3582],[118.4676,44.3855],[118.4963,44.3958],[118.553,44.4017],[118.5466,44.4325],[118.5827,44.441],[118.6009,44.462],[118.6433,44.4588],[118.6492,44.444],[118.7051,44.4549],[118.737,44.4667],[118.7745,44.4538],[118.8343,44.5005],[118.8647,44.5],[118.9022,44.5142],[118.9266,44.533],[118.9709,44.5548],[118.9708,44.5727],[118.9947,44.6472],[118.9683,44.6812],[118.9227,44.7175],[118.9472,44.7292],[118.9944,44.7123],[119.0679,44.7113],[119.0869,44.7237],[119.1407,44.7295],[119.1189,44.7602],[119.1659,44.7585],[119.1611,44.7798],[119.1406,44.8072],[119.1421,44.8241],[119.0709,44.8551],[119.0604,44.8696],[119.079,44.9328],[119.1043,44.9178],[119.1377,44.9231],[119.2176,44.908],[119.2233,44.9337],[119.1783,44.952],[119.1537,45.0054],[119.1661,45.0136],[119.2023,44.9955],[119.2223,45.0164],[119.1906,45.0332],[119.1499,45.0725],[119.1521,45.0981],[119.1985,45.1482],[119.2753,45.1248],[119.287,45.0851],[119.3395,45.0825],[119.3629,45.0988],[119.355,45.1633],[119.3007,45.1894],[119.3125,45.2308],[119.3309,45.2499]]]},"properties":{"region_code":"CN-15-1525","parent_region_code":"CN-15","name":"锡林郭勒盟","level":"prefecture","has_children":true,"full_path":"中国 / 内蒙古自治区 / 锡林郭勒盟","source_admin_code":"1525","osm_relation_id":2753029}},
{"type":"Feature","geometry":{"type":"Polygon","coordinates":[[[106.7436,39.858],[106.7162,39.9021],[106.7322,39.9319],[106.7269,39.9475],[106.7348,39.9802],[106.7126,40.032],[106.7281,40.0524],[106.7642,40.067],[106.7826,40.0958],[106.8095,40.0999],[106.8227,40.1258],[106.8606,40.1751],[106.7989,40.2115],[106.753,40.2582],[106.7263,40.275],[106.7603,40.2929],[106.8141,40.3502],[106.8135,40.358],[106.6678,40.3745],[106.5998,40.3764],[106.5234,40.3641],[106.4718,40.3178],[106.4448,40.3179],[106.4226,40.3383],[106.3229,40.3359],[106.3154,40.3389],[106.2146,40.4599],[106.1928,40.5143],[106.2035,40.5238],[106.2637,40.518],[106.2781,40.5471],[106.3452,40.5266],[106.3749,40.4997],[106.4317,40.5037],[106.4778,40.5016],[106.4715,40.5351],[106.3961,40.5645],[106.3172,40.588],[106.2928,40.5815],[106.2687,40.5897],[106.2309,40.6252],[106.2334,40.6599],[106.1972,40.666],[106.1749,40.6913],[106.1349,40.6892],[106.1132,40.709],[106.0802,40.7167],[106.0263,40.7213],[105.994,40.7292],[105.9754,40.7237],[105.9053,40.7339],[105.8597,40.7475],[105.7717,40.7822],[105.7406,40.7816],[105.7037,40.7982],[105.683,40.8226],[105.6286,40.8251],[105.5441,40.8491],[105.5055,40.8668],[105.437,40.9153],[105.4146,40.9415],[105.3941,40.9824],[105.3871,41.0382],[105.3901,41.1337],[105.3866,41.1749],[105.3638,41.2468],[105.3128,41.2891],[105.2769,41.3092],[105.2519,41.3305],[105.2334,41.3697],[105.2151,41.4902],[105.2169,41.5557],[105.213,41.6501],[105.2216,41.6734],[105.2293,41.7477],[105.217,41.7253],[105.1993,41.7188],[105.1659,41.6902],[105.1079,41.6547],[105.0131,41.5811],[105.0023,41.5828],[104.9164,41.6525],[104.682,41.6442],[104.6186,41.648],[104.517,41.6596],[104.4991,41.6793],[104.5038,41.742],[104.4974,41.7723],[104.5188,41.8231],[104.5237,41.8734],[104.4867,41.8651],[104.4108,41.8558],[104.2759,41.8338],[104.2334,41.8243],[104.1738,41.8185],[104.0782,41.8005],[104.059,41.7891],[104.0211,41.8029],[103.9218,41.8009],[103.8911,41.7956],[103.7953,41.8073],[103.7436,41.8244],[103.5769,41.8504],[103.4111,41.8813],[103.0976,41.9957],[102.9762,42.0376],[102.9277,42.0614],[102.7669,42.1255],[102.7249,42.1354],[102.6287,42.1444],[102.6162,42.1397],[102.5507,42.1589],[102.5169,42.1461],[102.4424,42.1419],[102.432,42.147],[102.1713,42.2039],[102.1525,42.1959],[102.0967,42.1999],[102.0246,42.2242],[102.0484,42.2525],[101.8007,42.5034],[101.567,42.5254],[101.2103,42.5988],[101.1087,42.6184],[100.848,42.6718],[100.3181,42.6874],[100.2669,42.6361],[99.9682,42.6483],[99.5033,42.5663],[99.1712,42.5907],[99.1537,42.5894],[99.0508,42.5994],[98.9005,42.61],[98.5446,42.6375],[98.3525,42.6452],[98.1959,42.6528],[97.7793,42.7117],[97.2695,42.7814],[97.6657,41.9633],[97.8453,41.6555],[97.6137,41.4757],[97.6324,41.4522],[97.6287,41.44],[97.9716,41.0965],[98.1409,41.001],[98.1844,40.9868],[98.2497,40.9383],[98.2936,40.9312],[98.3322,40.9185],[98.3331,40.8585],[98.3434,40.5678],[98.4797,40.6194],[98.6263,40.6775],[98.5686,40.7462],[98.6686,40.7722],[98.6888,40.6908],[98.7149,40.6616],[98.7582,40.6411],[98.791,40.6151],[98.8076,40.6577],[98.7884,40.6773],[98.7901,40.7056],[98.9844,40.7829],[99.04,40.6921],[99.1008,40.6757],[99.1238,40.7145],[99.1715,40.7462],[99.1729,40.858],[99.5657,40.846],[99.6714,40.9332],[99.9845,40.9088],[100.0518,40.9068],[100.1089,40.8724],[100.2221,40.727],[100.2358,40.716],[100.2406,40.6181],[100.1665,40.5404],[100.1678,40.2795],[99.9948,40.1941],[99.9536,40.1558],[99.9261,40.0644],[99.876,40.0274],[99.8451,40.0139],[99.7545,40.0082],[99.6934,39.964],[99.5032,39.8831],[99.4652,39.896],[99.452,39.8747],[99.65,39.8875],[99.6862,39.8868],[99.7241,39.8758],[99.8202,39.8622],[99.9037,39.7874],[99.9646,39.7669],[100.0349,39.7554],[100.1144,39.7047],[100.2449,39.684],[100.3108,39.6081],[100.2981,39.5718],[100.3236,39.5083],[100.4345,39.4864],[100.4978,39.48],[100.4968,39.3998],[100.5293,39.3998],[100.609,39.387],[100.6613,39.3926],[100.7037,39.4039],[100.8298,39.4041],[100.8382,39.2067],[100.8444,39.1763],[100.8665,39.1097],[100.8268,39.0728],[100.8288,39.0276],[100.8805,38.9957],[100.9001,39.0301],[100.9642,39.0003],[100.9688,38.9666],[100.9615,38.9437],[101.1338,38.9794],[101.226,39.0208],[101.1953,38.947],[101.2329,38.9067],[101.2362,38.8584],[101.2774,38.8488],[101.331,38.8475],[101.3402,38.825],[101.3061,38.7873],[101.3794,38.7682],[101.3948,38.7723],[101.4748,38.7363],[101.5578,38.7129],[101.6043,38.6474],[101.6511,38.6867],[101.6694,38.6899],[101.7185,38.6775],[101.7419,38.6773],[101.7733,38.6588],[101.8547,38.7177],[101.9373,38.8121],[102.0715,38.8905],[101.9762,38.9683],[101.8297,39.0914],[101.8309,39.0932],[102.2818,39.1918],[102.351,39.2312],[102.4541,39.255],[102.6051,39.1722],[102.8007,39.1408],[103.0101,39.0985],[103.1357,39.197],[103.169,39.2059],[103.2594,39.2657],[103.3423,39.329],[103.496,39.3698],[103.8471,39.4605],[103.943,39.4587],[104.0874,39.4193],[104.0443,39.2966],[104.1745,39.1539],[104.1998,39.0835],[104.1876,39.0455],[104.194,38.9876],[104.1692,38.9391],[104.0321,38.8919],[104.0048,38.8513],[103.8594,38.6463],[103.4118,38.4045],[103.4639,38.3511],[103.55,38.1594],[103.3669,38.0887],[103.3565,38.0722],[103.3603,38.0394],[103.354,38.0259],[103.3679,37.9752],[103.3826,37.9472],[103.3993,37.8611],[103.6717,37.785],[103.8377,37.6473],[103.8672,37.6066],[103.9351,37.5712],[104.0761,37.4718],[104.1802,37.4066],[104.2351,37.4114],[104.3194,37.4483],[104.338,37.444],[104.3697,37.4618],[104.4044,37.4644],[104.4172,37.5112],[104.4307,37.5154],[104.618,37.5223],[104.8021,37.5388],[104.8635,37.5666],[105.0207,37.5797],[105.0908,37.6172],[105.1666,37.6626],[105.2367,37.6727],[105.2631,37.6868],[105.3623,37.7156],[105.4439,37.7001],[105.4638,37.703],[105.5957,37.6989],[105.6116,37.7186],[105.6181,37.7784],[105.6587,37.7692],[105.7404,37.7985],[105.7679,37.7968],[105.7691,37.8199],[105.8014,37.8589],[105.8007,37.8927],[105.7928,37.9087],[105.7987,37.9453],[105.8407,38.0044],[105.7842,38.0693],[105.7609,38.1214],[105.7772,38.2105],[105.8334,38.2317],[105.8628,38.2955],[105.8149,38.3599],[105.8319,38.3849],[105.8275,38.4266],[105.8453,38.4448],[105.8313,38.4736],[105.8574,38.5228],[105.8545,38.578],[105.875,38.5826],[105.8532,38.6116],[105.8475,38.6334],[105.8676,38.6708],[105.8922,38.6937],[105.8832,38.7168],[105.9025,38.7282],[105.904,38.7454],[105.8917,38.7869],[105.9169,38.7961],[105.9646,38.8429],[105.9881,38.8539],[105.9651,38.8912],[105.9968,38.9368],[106.0306,38.9603],[106.055,38.9668],[106.0655,38.9908],[106.0833,39.0039],[106.0794,39.051],[106.0919,39.0838],[106.1462,39.1563],[106.2136,39.1323],[106.2508,39.1272],[106.2764,39.1385],[106.2924,39.1581],[106.2757,39.1963],[106.2844,39.2194],[106.2755,39.2613],[106.2827,39.2714],[106.4354,39.286],[106.5078,39.2707],[106.528,39.3027],[106.5959,39.3711],[106.6378,39.3568],[106.6715,39.3539],[106.6854,39.3646],[106.747,39.3818],[106.7346,39.4119],[106.7454,39.4361],[106.7169,39.4403],[106.6595,39.46],[106.6295,39.475],[106.6064,39.5148],[106.6055,39.5426],[106.6313,39.573],[106.7599,39.6325],[106.7597,39.6578],[106.7895,39.6892],[106.7562,39.7087],[106.7547,39.7451],[106.7656,39.772],[106.747,39.8097],[106.7436,39.858]]]},"properties":{"region_code":"CN-15-1529","parent_region_code":"CN-15","name":"阿拉善盟","level":"prefecture","has_children":true,"full_path":"中国 / 内蒙古自治区 / 阿拉善盟","source_admin_code":"1529","osm_relation_id":2752743}}
]}