{"type":"FeatureCollection", "features": [
{"type":"Feature","geometry":{"type":"Polygon","coordinates":[[[106.934,39.5072],[106.9262,39.5758],[106.8764,39.6609],[106.9106,39.7053],[106.8751,39.8064],[106.9311,39.8584],[106.929,39.9137],[106.8569,39.8423],[106.7724,39.8099],[106.7562,39.7087],[106.7895,39.6892],[106.7599,39.6325],[106.7754,39.5776],[106.7459,39.5004],[106.8684,39.505],[106.8721,39.5432],[106.934,39.5072]]]},"properties":{"region_code":"CN-15-1503-150302","parent_region_code":"CN-15-1503","name":"海勃湾区","level":"county","has_children":false,"full_path":"中国 / 内蒙古自治区 / 乌海市 / 海勃湾区","source_admin_code":"150302","osm_relation_id":5661673}},
{"type":"Feature","geometry":{"type":"Polygon","coordinates":[[[106.7459,39.5004],[106.7454,39.4361],[106.7528,39.372],[106.7946,39.3458],[106.8007,39.27],[106.7885,39.2521],[106.8602,39.0988],[106.9252,39.0762],[106.9874,39.0355],[107.0265,39.0363],[107.0856,39.0808],[107.1195,39.2518],[107.0546,39.2217],[107.0281,39.2505],[106.9381,39.2984],[106.9509,39.3436],[106.9165,39.3755],[106.9595,39.4191],[106.934,39.5072],[106.8721,39.5432],[106.8684,39.505],[106.7459,39.5004]]]},"properties":{"region_code":"CN-15-1503-150303","parent_region_code":"CN-15-1503","name":"海南区","level":"county","has_children":false,"full_path":"中国 / 内蒙古自治区 / 乌海市 / 海南区","source_admin_code":"150303","osm_relation_id":5661715}},
{"type":"Feature","geometry":{"type":"Polygon","coordinates":[[[106.7599,39.6325],[106.6313,39.573],[106.6055,39.5426],[106.6295,39.475],[106.7454,39.4361],[106.7459,39.5004],[106.7754,39.5776],[106.7599,39.6325]]]},"properties":{"region_code":"CN-15-1503-150304","parent_region_code":"CN-15-1503","name":"乌达区","level":"county","has_children":false,"full_path":"中国 / 内蒙古自治区 / 乌海市 / 乌达区","source_admin_code":"150304","osm_relation_id":5661723}}
]}