{"type":"FeatureCollection", "features": [
{"type":"Feature","geometry":{"type":"Polygon","coordinates":[[[123.9147,42.2737],[123.8915,42.2821],[123.8979,42.2991],[123.9226,42.3156],[123.9161,42.3233],[123.8666,42.3306],[123.8397,42.332],[123.8308,42.3212],[123.8057,42.3136],[123.7961,42.2854],[123.8167,42.2743],[123.7935,42.2664],[123.7683,42.2412],[123.788,42.2197],[123.7865,42.2122],[123.7585,42.2062],[123.7528,42.1679],[123.7771,42.1574],[123.7918,42.1721],[123.82,42.1661],[123.8208,42.1821],[123.8569,42.1928],[123.8574,42.1996],[123.9248,42.2046],[123.9611,42.1975],[123.9629,42.2156],[123.9287,42.2324],[123.9077,42.2286],[123.8936,42.2361],[123.8935,42.2576],[123.9147,42.2737]]]},"properties":{"region_code":"CN-21-2112-211202","parent_region_code":"CN-21-2112","name":"银州区","level":"county","has_children":false,"full_path":"中国 / 辽宁省 / 铁岭市 / 银州区","source_admin_code":"211202","osm_relation_id":2767514}},
{"type":"Feature","geometry":{"type":"Polygon","coordinates":[[[124.4442,42.559],[124.4198,42.5756],[124.3891,42.5683],[124.3602,42.5694],[124.3323,42.5861],[124.3029,42.5871],[124.286,42.602],[124.2555,42.6142],[124.2258,42.6128],[124.2132,42.6224],[124.1874,42.6264],[124.1532,42.6169],[124.1445,42.6057],[124.1059,42.5886],[124.0851,42.5883],[124.0633,42.5484],[124.0766,42.5315],[124.0765,42.5085],[124.1044,42.5037],[124.1275,42.4875],[124.1435,42.4848],[124.1593,42.4665],[124.1948,42.4575],[124.2044,42.4624],[124.2291,42.4547],[124.2555,42.4388],[124.3207,42.4269],[124.36,42.4073],[124.3634,42.4004],[124.4201,42.3788],[124.4303,42.3946],[124.4304,42.4205],[124.4142,42.431],[124.4088,42.4722],[124.3876,42.5038],[124.4356,42.5061],[124.4401,42.531],[124.4322,42.5451],[124.4442,42.559]]]},"properties":{"region_code":"CN-21-2112-211204","parent_region_code":"CN-21-2112","name":"清河区","level":"county","has_children":false,"full_path":"中国 / 辽宁省 / 铁岭市 / 清河区","source_admin_code":"211204","osm_relation_id":2767511}},
{"type":"Feature","geometry":{"type":"Polygon","coordinates":[[[123.5109,42.3472],[123.5224,42.3374],[123.522,42.3196],[123.4928,42.2741],[123.4761,42.2715],[123.4624,42.2468],[123.4592,42.2277],[123.4454,42.2087],[123.4672,42.1802],[123.4811,42.1782],[123.4984,42.1906],[123.5362,42.1801],[123.5345,42.1488],[123.576,42.1288],[123.6144,42.114],[123.6262,42.0988],[123.6483,42.0925],[123.6874,42.0938],[123.7216,42.0739],[123.7452,42.0511],[123.7744,42.0384],[123.7973,42.0574],[123.808,42.0408],[123.8009,42.0157],[123.7891,42.0101],[123.7735,42.0212],[123.7577,42.0156],[123.7564,42.0011],[123.7726,41.9894],[123.7918,41.9899],[123.808,42.0055],[123.837,42.0208],[123.8826,42.0311],[123.8996,42.0283],[123.9378,42.0066],[123.9594,42.0026],[124.0286,42.0164],[124.0349,42.0433],[124.062,42.062],[124.089,42.071],[124.1316,42.0657],[124.1555,42.0544],[124.1825,42.0566],[124.1986,42.053],[124.228,42.0551],[124.2484,42.0649],[124.2587,42.0621],[124.2629,42.0437],[124.2793,42.0252],[124.2781,42.0105],[124.2891,42.0035],[124.3076,42.0131],[124.3358,42.0076],[124.3632,42.0185],[124.3658,42.0293],[124.4025,42.0416],[124.4416,42.0654],[124.4915,42.0774],[124.5143,42.0856],[124.5444,42.1168],[124.5357,42.1289],[124.4904,42.1209],[124.4813,42.1161],[124.4556,42.1219],[124.4318,42.1223],[124.4214,42.131],[124.4255,42.156],[124.382,42.1626],[124.3356,42.1663],[124.323,42.1758],[124.316,42.199],[124.2772,42.1922],[124.2448,42.1978],[124.2525,42.2107],[124.2329,42.2162],[124.2199,42.2114],[124.211,42.2286],[124.1843,42.2301],[124.1577,42.2211],[124.1438,42.2336],[124.1417,42.2499],[124.121,42.2457],[124.1063,42.2356],[124.0897,42.2421],[124.0923,42.2557],[124.1158,42.2715],[124.1101,42.288],[124.0919,42.2855],[124.068,42.3001],[124.0692,42.3318],[124.0432,42.3172],[123.9994,42.3195],[123.9909,42.3267],[124.0011,42.375],[123.9959,42.3911],[123.953,42.41],[123.9454,42.4013],[123.9226,42.3988],[123.9223,42.3866],[123.8759,42.4093],[123.8618,42.424],[123.8436,42.401],[123.8334,42.4163],[123.8132,42.4142],[123.7917,42.4318],[123.8054,42.4409],[123.8114,42.4575],[123.7965,42.4646],[123.7914,42.4805],[123.7647,42.4908],[123.7741,42.506],[123.7603,42.5109],[123.7468,42.5411],[123.7303,42.5403],[123.6735,42.5147],[123.6518,42.5187],[123.6462,42.5062],[123.6598,42.4943],[123.6639,42.4534],[123.6534,42.4315],[123.6959,42.4133],[123.6949,42.3959],[123.6637,42.3958],[123.6519,42.3717],[123.6389,42.3575],[123.59,42.3445],[123.5788,42.352],[123.5468,42.3547],[123.5356,42.3656],[123.5077,42.3557],[123.5109,42.3472]],[[123.9147,42.2737],[123.8935,42.2576],[123.8936,42.2361],[123.9077,42.2286],[123.9287,42.2324],[123.9629,42.2156],[123.9611,42.1975],[123.9248,42.2046],[123.8574,42.1996],[123.8569,42.1928],[123.8208,42.1821],[123.82,42.1661],[123.7918,42.1721],[123.7771,42.1574],[123.7528,42.1679],[123.7585,42.2062],[123.7865,42.2122],[123.788,42.2197],[123.7683,42.2412],[123.7935,42.2664],[123.8167,42.2743],[123.7961,42.2854],[123.8057,42.3136],[123.8308,42.3212],[123.8397,42.332],[123.8666,42.3306],[123.9161,42.3233],[123.9226,42.3156],[123.8979,42.2991],[123.8915,42.2821],[123.9147,42.2737]]]},"properties":{"region_code":"CN-21-2112-211221","parent_region_code":"CN-21-2112","name":"铁岭县","level":"county","has_children":false,"full_path":"中国 / 辽宁省 / 铁岭市 / 铁岭县","source_admin_code":"211221","osm_relation_id":2767512}},
{"type":"Feature","geometry":{"type":"Polygon","coordinates":[[[124.4442,42.559],[124.4724,42.5438],[124.4835,42.5504],[124.5195,42.5446],[124.5388,42.5339],[124.5665,42.4994],[124.587,42.5028],[124.5991,42.5182],[124.6177,42.5271],[124.6483,42.5124],[124.6822,42.5025],[124.6911,42.4918],[124.7076,42.4931],[124.7088,42.5057],[124.728,42.5151],[124.7629,42.4971],[124.7858,42.4605],[124.8,42.4557],[124.8051,42.4376],[124.7937,42.4311],[124.8166,42.4157],[124.9059,42.3944],[124.9394,42.3985],[124.9556,42.3821],[124.9513,42.3694],[124.9684,42.3661],[124.9998,42.3761],[124.992,42.3905],[124.9989,42.3995],[125.0302,42.4034],[125.028,42.4331],[125.0735,42.4549],[125.0719,42.4624],[125.1031,42.482],[125.07,42.5027],[125.0756,42.5226],[125.0612,42.5318],[125.0754,42.5613],[125.0853,42.5699],[125.0749,42.5864],[125.089,42.597],[125.0904,42.6202],[125.0481,42.6216],[125.0321,42.6131],[125.0043,42.6301],[125.0136,42.6513],[125.0085,42.6636],[124.9793,42.6748],[124.9832,42.6925],[124.9669,42.7218],[124.9891,42.7369],[124.9784,42.7509],[124.9871,42.7672],[124.9737,42.7792],[124.9697,42.7997],[124.9108,42.8157],[124.909,42.8018],[124.892,42.7859],[124.8689,42.7876],[124.8551,42.8139],[124.8428,42.8801],[124.8476,42.9007],[124.8633,42.9322],[124.8596,42.9459],[124.8667,42.9597],[124.8555,42.9885],[124.8522,43.0105],[124.8345,43.0307],[124.8579,43.0322],[124.8623,43.0518],[124.878,43.0779],[124.8755,43.1086],[124.8882,43.116],[124.8772,43.1315],[124.8511,43.1163],[124.8391,43.1243],[124.801,43.1145],[124.7793,43.115],[124.7726,43.0965],[124.7531,43.0845],[124.7352,43.0652],[124.7139,43.068],[124.6864,43.0563],[124.6679,43.0264],[124.6711,43.0005],[124.6534,42.9716],[124.6295,42.9711],[124.6253,42.948],[124.6014,42.9356],[124.5892,42.9129],[124.5337,42.8762],[124.5315,42.8653],[124.5076,42.8707],[124.4673,42.8542],[124.4592,42.8201],[124.466,42.808],[124.4355,42.7833],[124.423,42.7615],[124.4236,42.7491],[124.3784,42.7339],[124.3587,42.7324],[124.3308,42.7404],[124.3226,42.7145],[124.3016,42.7043],[124.2815,42.6811],[124.2745,42.6627],[124.2884,42.6478],[124.303,42.6418],[124.3159,42.6164],[124.3306,42.6116],[124.3404,42.5948],[124.3323,42.5861],[124.3602,42.5694],[124.3891,42.5683],[124.4198,42.5756],[124.4442,42.559]]]},"properties":{"region_code":"CN-21-2112-211223","parent_region_code":"CN-21-2112","name":"西丰县","level":"county","has_children":false,"full_path":"中国 / 辽宁省 / 铁岭市 / 西丰县","source_admin_code":"211223","osm_relation_id":2767513}},
{"type":"Feature","geometry":{"type":"Polygon","coordinates":[[[124.3604,42.8894],[124.3598,42.8996],[124.3741,42.9098],[124.4083,42.92],[124.4361,42.9392],[124.4359,42.956],[124.4087,42.974],[124.3942,42.9684],[124.3662,42.968],[124.3273,42.9946],[124.4116,43.0661],[124.4151,43.0802],[124.3919,43.0891],[124.3596,43.1189],[124.3346,43.1259],[124.3232,43.141],[124.2783,43.1634],[124.2712,43.194],[124.2814,43.2044],[124.2743,43.2276],[124.2451,43.236],[124.2312,43.2316],[124.2056,43.2527],[124.1872,43.2417],[124.1647,43.2428],[124.1443,43.2503],[124.1067,43.2478],[124.111,43.2746],[124.0917,43.2902],[124.0595,43.2901],[124.0271,43.2786],[123.9862,43.3065],[123.9577,43.3388],[123.9162,43.3581],[123.891,43.359],[123.8952,43.378],[123.8605,43.3939],[123.8438,43.4129],[123.8477,43.4302],[123.8652,43.4486],[123.8549,43.4595],[123.7988,43.4799],[123.7545,43.4767],[123.7404,43.4664],[123.7436,43.4413],[123.7273,43.4239],[123.7035,43.4121],[123.7044,43.4008],[123.691,43.3757],[123.7082,43.3422],[123.6971,43.3228],[123.715,43.3112],[123.6941,43.3057],[123.6917,43.2784],[123.6584,43.2602],[123.6707,43.2398],[123.6716,43.2222],[123.6409,43.2116],[123.6511,43.1914],[123.664,43.1794],[123.6421,43.1669],[123.6491,43.1584],[123.6357,43.1284],[123.6249,43.1166],[123.6261,43.0868],[123.591,43.0559],[123.6059,43.0485],[123.5868,43.0304],[123.583,43.0136],[123.5555,42.995],[123.5612,42.9844],[123.5408,42.9754],[123.5549,42.953],[123.5986,42.9264],[123.5787,42.9095],[123.5968,42.9011],[123.5941,42.89],[123.578,42.8738],[123.597,42.8673],[123.5808,42.8506],[123.5984,42.826],[123.5867,42.8214],[123.5957,42.7944],[123.5878,42.7873],[123.6,42.7725],[123.572,42.7688],[123.5715,42.7491],[123.5534,42.7233],[123.5768,42.7005],[123.5647,42.6896],[123.5834,42.6807],[123.6195,42.6736],[123.6132,42.651],[123.6313,42.6375],[123.6572,42.6266],[123.6576,42.6113],[123.6697,42.5996],[123.6887,42.6005],[123.6881,42.578],[123.7055,42.5656],[123.7345,42.5565],[123.7411,42.5665],[123.7979,42.5734],[123.8294,42.5942],[123.8517,42.6331],[123.8792,42.6556],[123.9068,42.6707],[123.9758,42.6858],[124.0463,42.6868],[124.0732,42.6807],[124.0901,42.6601],[124.1087,42.6759],[124.1235,42.7004],[124.1541,42.7051],[124.1585,42.7181],[124.1799,42.7185],[124.1944,42.7314],[124.1937,42.7418],[124.2215,42.7594],[124.2269,42.7844],[124.2433,42.7951],[124.2454,42.8147],[124.2602,42.8202],[124.3031,42.8173],[124.2972,42.8271],[124.3085,42.8738],[124.3242,42.8849],[124.3604,42.8894]]]},"properties":{"region_code":"CN-21-2112-211224","parent_region_code":"CN-21-2112","name":"昌图县","level":"county","has_children":false,"full_path":"中国 / 辽宁省 / 铁岭市 / 昌图县","source_admin_code":"211224","osm_relation_id":2767508}},
{"type":"Feature","geometry":{"type":"Polygon","coordinates":[[[123.6518,42.5187],[123.6579,42.5496],[123.638,42.5507],[123.6177,42.5418],[123.6035,42.5073],[123.5799,42.5087],[123.5523,42.4977],[123.5286,42.4799],[123.5164,42.4855],[123.5036,42.4669],[123.4672,42.4535],[123.4503,42.4421],[123.4489,42.4305],[123.4727,42.4124],[123.4595,42.3789],[123.5109,42.3472],[123.5077,42.3557],[123.5356,42.3656],[123.5468,42.3547],[123.5788,42.352],[123.59,42.3445],[123.6389,42.3575],[123.6519,42.3717],[123.6637,42.3958],[123.6949,42.3959],[123.6959,42.4133],[123.6534,42.4315],[123.6639,42.4534],[123.6598,42.4943],[123.6462,42.5062],[123.6518,42.5187]]]},"properties":{"region_code":"CN-21-2112-211281","parent_region_code":"CN-21-2112","name":"调兵山市","level":"county","has_children":false,"full_path":"中国 / 辽宁省 / 铁岭市 / 调兵山市","source_admin_code":"211281","osm_relation_id":2767509}},
{"type":"Feature","geometry":{"type":"Polygon","coordinates":[[[124.3323,42.5861],[124.3404,42.5948],[124.3306,42.6116],[124.3159,42.6164],[124.303,42.6418],[124.2884,42.6478],[124.2745,42.6627],[124.2815,42.6811],[124.3016,42.7043],[124.3226,42.7145],[124.3308,42.7404],[124.3587,42.7324],[124.3784,42.7339],[124.4236,42.7491],[124.423,42.7615],[124.4355,42.7833],[124.466,42.808],[124.4592,42.8201],[124.4455,42.8239],[124.4488,42.8472],[124.4351,42.8747],[124.3629,42.8803],[124.3604,42.8894],[124.3242,42.8849],[124.3085,42.8738],[124.2972,42.8271],[124.3031,42.8173],[124.2602,42.8202],[124.2454,42.8147],[124.2433,42.7951],[124.2269,42.7844],[124.2215,42.7594],[124.1937,42.7418],[124.1944,42.7314],[124.1799,42.7185],[124.1585,42.7181],[124.1541,42.7051],[124.1235,42.7004],[124.1087,42.6759],[124.0901,42.6601],[124.0732,42.6807],[124.0463,42.6868],[123.9758,42.6858],[123.9068,42.6707],[123.8792,42.6556],[123.8517,42.6331],[123.8294,42.5942],[123.7979,42.5734],[123.7411,42.5665],[123.7345,42.5565],[123.7468,42.5411],[123.7603,42.5109],[123.7741,42.506],[123.7647,42.4908],[123.7914,42.4805],[123.7965,42.4646],[123.8114,42.4575],[123.8054,42.4409],[123.7917,42.4318],[123.8132,42.4142],[123.8334,42.4163],[123.8436,42.401],[123.8618,42.424],[123.8759,42.4093],[123.9223,42.3866],[123.9226,42.3988],[123.9454,42.4013],[123.953,42.41],[123.9959,42.3911],[124.0011,42.375],[123.9909,42.3267],[123.9994,42.3195],[124.0432,42.3172],[124.0692,42.3318],[124.068,42.3001],[124.0919,42.2855],[124.1101,42.288],[124.1158,42.2715],[124.0923,42.2557],[124.0897,42.2421],[124.1063,42.2356],[124.121,42.2457],[124.1417,42.2499],[124.1438,42.2336],[124.1577,42.2211],[124.1843,42.2301],[124.211,42.2286],[124.2199,42.2114],[124.2329,42.2162],[124.2525,42.2107],[124.2448,42.1978],[124.2772,42.1922],[124.316,42.199],[124.323,42.1758],[124.3356,42.1663],[124.382,42.1626],[124.4255,42.156],[124.4214,42.131],[124.4318,42.1223],[124.4556,42.1219],[124.4813,42.1161],[124.4904,42.1209],[124.5357,42.1289],[124.5497,42.1446],[124.5552,42.162],[124.5371,42.1747],[124.522,42.2],[124.5103,42.2347],[124.5308,42.2566],[124.5485,42.2691],[124.5568,42.2953],[124.5716,42.3183],[124.5642,42.3385],[124.568,42.3491],[124.6,42.343],[124.6253,42.3461],[124.62,42.325],[124.6534,42.3133],[124.6839,42.3138],[124.7205,42.3222],[124.7325,42.3367],[124.7593,42.3407],[124.7816,42.3376],[124.7906,42.3585],[124.7813,42.3761],[124.7658,42.3888],[124.7696,42.3984],[124.7936,42.4137],[124.8166,42.4157],[124.7937,42.4311],[124.8051,42.4376],[124.8,42.4557],[124.7858,42.4605],[124.7629,42.4971],[124.728,42.5151],[124.7088,42.5057],[124.7076,42.4931],[124.6911,42.4918],[124.6822,42.5025],[124.6483,42.5124],[124.6177,42.5271],[124.5991,42.5182],[124.587,42.5028],[124.5665,42.4994],[124.5388,42.5339],[124.5195,42.5446],[124.4835,42.5504],[124.4724,42.5438],[124.4442,42.559],[124.4322,42.5451],[124.4401,42.531],[124.4356,42.5061],[124.3876,42.5038],[124.4088,42.4722],[124.4142,42.431],[124.4304,42.4205],[124.4303,42.3946],[124.4201,42.3788],[124.3634,42.4004],[124.36,42.4073],[124.3207,42.4269],[124.2555,42.4388],[124.2291,42.4547],[124.2044,42.4624],[124.1948,42.4575],[124.1593,42.4665],[124.1435,42.4848],[124.1275,42.4875],[124.1044,42.5037],[124.0765,42.5085],[124.0766,42.5315],[124.0633,42.5484],[124.0851,42.5883],[124.1059,42.5886],[124.1445,42.6057],[124.1532,42.6169],[124.1874,42.6264],[124.2132,42.6224],[124.2258,42.6128],[124.2555,42.6142],[124.286,42.602],[124.3029,42.5871],[124.3323,42.5861]]]},"properties":{"region_code":"CN-21-2112-211282","parent_region_code":"CN-21-2112","name":"开原市","level":"county","has_children":false,"full_path":"中国 / 辽宁省 / 铁岭市 / 开原市","source_admin_code":"211282","osm_relation_id":2767510}}
]}