{"type":"FeatureCollection", "features": [
{"type":"Feature","geometry":{"type":"Polygon","coordinates":[[[130.4256,46.8546],[130.3729,46.8584],[130.335,46.832],[130.3101,46.8437],[130.2909,46.8279],[130.3381,46.7981],[130.3224,46.7931],[130.3355,46.7647],[130.3734,46.7636],[130.3792,46.7726],[130.3566,46.8142],[130.3852,46.823],[130.4256,46.8546]]]},"properties":{"region_code":"CN-23-2308-230803","parent_region_code":"CN-23-2308","name":"向阳区","level":"county","has_children":false,"full_path":"中国 / 黑龙江省 / 佳木斯市 / 向阳区","source_admin_code":"230803","osm_relation_id":5651150}},
{"type":"Feature","geometry":{"type":"Polygon","coordinates":[[[130.3734,46.7636],[130.3855,46.7464],[130.4414,46.7282],[130.4364,46.7472],[130.4165,46.7847],[130.393,46.8005],[130.3852,46.823],[130.3566,46.8142],[130.3792,46.7726],[130.3734,46.7636]]]},"properties":{"region_code":"CN-23-2308-230804","parent_region_code":"CN-23-2308","name":"前进区","level":"county","has_children":false,"full_path":"中国 / 黑龙江省 / 佳木斯市 / 前进区","source_admin_code":"230804","osm_relation_id":5651149}},
{"type":"Feature","geometry":{"type":"Polygon","coordinates":[[[130.3852,46.823],[130.393,46.8005],[130.4165,46.7847],[130.4364,46.7472],[130.488,46.7438],[130.4784,46.7827],[130.4718,46.8107],[130.489,46.8187],[130.5439,46.8205],[130.5974,46.8423],[130.5856,46.8648],[130.5459,46.8905],[130.5883,46.904],[130.5969,46.9193],[130.5717,46.9355],[130.578,46.9479],[130.6053,46.9563],[130.5842,46.9908],[130.5441,46.9889],[130.5374,46.9417],[130.5273,46.9193],[130.4909,46.8757],[130.4629,46.8727],[130.4468,46.8573],[130.4256,46.8546],[130.3852,46.823]]]},"properties":{"region_code":"CN-23-2308-230805","parent_region_code":"CN-23-2308","name":"东风区","level":"county","has_children":false,"full_path":"中国 / 黑龙江省 / 佳木斯市 / 东风区","source_admin_code":"230805","osm_relation_id":5651147}},
{"type":"Feature","geometry":{"type":"MultiPolygon","coordinates":[[[[130.0244,47.0567],[130.0246,47.1105],[130.0027,47.1085],[130.0066,47.0684],[130.0244,47.0567]]],[[[130.1592,47.0108],[130.1876,47.0159],[130.1612,47.0577],[130.1492,47.0618],[130.1233,47.1002],[130.0949,47.1019],[130.0808,47.0686],[130.0942,47.0482],[130.1326,47.0331],[130.1592,47.0108]]],[[[130.4256,46.8546],[130.4468,46.8573],[130.4629,46.8727],[130.4909,46.8757],[130.5273,46.9193],[130.5374,46.9417],[130.5441,46.9889],[130.5842,46.9908],[130.5918,47.0265],[130.5682,47.0364],[130.5423,47.0193],[130.5044,47.0137],[130.4394,46.9784],[130.3722,46.9738],[130.3542,46.9538],[130.3105,46.9487],[130.2753,46.9567],[130.2714,46.9745],[130.3032,46.9783],[130.295,47.0099],[130.2459,47.0023],[130.2491,46.9887],[130.2172,46.968],[130.2456,46.9504],[130.2111,46.9414],[130.1591,46.946],[130.1284,46.9775],[130.0707,47.0111],[130.0574,46.989],[129.9977,47.0161],[129.9967,47.0047],[130.0335,46.9526],[130.036,46.9209],[130.0611,46.9256],[130.063,46.8974],[130.0389,46.891],[130.0429,46.857],[130.0681,46.8572],[130.0835,46.8117],[130.116,46.7638],[130.1103,46.7517],[130.0764,46.7525],[130.0456,46.7714],[130.0281,46.7737],[129.9632,46.7609],[129.9652,46.724],[129.9501,46.6947],[129.9161,46.6718],[129.9132,46.627],[129.9449,46.6024],[129.9785,46.5639],[129.9948,46.5651],[130.0246,46.5863],[130.0667,46.5856],[130.0588,46.5557],[130.0273,46.5387],[130.0345,46.5245],[130.0861,46.5223],[130.1321,46.5098],[130.107,46.5744],[130.1196,46.5956],[130.1462,46.5989],[130.1551,46.6124],[130.1901,46.6125],[130.1668,46.5799],[130.1462,46.5366],[130.1472,46.4998],[130.1397,46.4906],[130.1963,46.4878],[130.1912,46.5195],[130.2074,46.543],[130.2172,46.5863],[130.2038,46.6195],[130.227,46.616],[130.2437,46.5782],[130.2612,46.5941],[130.3149,46.5833],[130.3465,46.5545],[130.3874,46.5597],[130.4153,46.5733],[130.447,46.5559],[130.4861,46.5699],[130.5105,46.5883],[130.4777,46.6126],[130.5059,46.6724],[130.5483,46.6875],[130.5432,46.7121],[130.5229,46.7225],[130.5389,46.7508],[130.4984,46.7848],[130.4784,46.7827],[130.488,46.7438],[130.4364,46.7472],[130.4414,46.7282],[130.3855,46.7464],[130.3734,46.7636],[130.3355,46.7647],[130.3224,46.7931],[130.3381,46.7981],[130.2909,46.8279],[130.3101,46.8437],[130.335,46.832],[130.3729,46.8584],[130.4256,46.8546]]]]},"properties":{"region_code":"CN-23-2308-230811","parent_region_code":"CN-23-2308","name":"郊区","level":"county","has_children":false,"full_path":"中国 / 黑龙江省 / 佳木斯市 / 郊区","source_admin_code":"230811","osm_relation_id":5651148}},
{"type":"Feature","geometry":{"type":"Polygon","coordinates":[[[130.1397,46.4906],[130.1621,46.4661],[130.1551,46.4347],[130.1354,46.4266],[130.1384,46.41],[130.1,46.3841],[130.081,46.3902],[130.0542,46.3627],[130.0263,46.3845],[129.9862,46.3804],[129.9766,46.3895],[129.9245,46.3816],[129.9467,46.3454],[129.9846,46.3406],[130.0136,46.3269],[130.0273,46.3013],[130.0627,46.2823],[130.056,46.2688],[130.0944,46.2407],[130.1128,46.2406],[130.1447,46.2125],[130.1524,46.1855],[130.171,46.1783],[130.184,46.1574],[130.237,46.1144],[130.3004,46.0981],[130.3219,46.099],[130.3475,46.0877],[130.3858,46.0857],[130.425,46.068],[130.4269,46.0577],[130.4715,46.0414],[130.4792,46.0471],[130.5228,46.0185],[130.5441,46.0128],[130.5564,45.9931],[130.6782,45.9444],[130.6937,45.9647],[130.6827,45.984],[130.6951,45.9995],[130.7225,46.0016],[130.7392,45.9927],[130.7678,46.0097],[130.812,46.0106],[130.8291,46.0232],[130.8826,46.0256],[130.9235,46.0105],[130.9437,46.0233],[130.9953,46.0177],[131.0255,46.0197],[131.055,46.0656],[131.1354,46.0053],[131.1466,46.0281],[131.1748,46.031],[131.2018,46.0232],[131.2159,46.0472],[131.2394,46.0564],[131.2664,46.0468],[131.277,46.0209],[131.272,45.9795],[131.3129,45.997],[131.3223,46.0121],[131.3471,46.0175],[131.3452,46.0395],[131.3305,46.0669],[131.3613,46.0723],[131.3574,46.1163],[131.3834,46.1312],[131.3983,46.1945],[131.4167,46.2164],[131.3906,46.2298],[131.4031,46.247],[131.365,46.2739],[131.3419,46.2822],[131.3199,46.302],[131.2772,46.3077],[131.2769,46.331],[131.2595,46.351],[131.2225,46.3717],[131.1972,46.3618],[131.1512,46.3794],[131.0962,46.3949],[131.0824,46.3878],[131.0561,46.3985],[131.0585,46.4235],[131.011,46.4449],[131.0234,46.4747],[131.0184,46.4879],[130.973,46.5027],[130.9649,46.529],[130.9302,46.5828],[130.9052,46.5935],[130.8735,46.5952],[130.8132,46.5858],[130.7895,46.6061],[130.7308,46.5971],[130.7233,46.603],[130.7169,46.5705],[130.6858,46.5466],[130.6271,46.5565],[130.593,46.5294],[130.557,46.5336],[130.5364,46.5449],[130.5342,46.5685],[130.5105,46.5883],[130.4861,46.5699],[130.447,46.5559],[130.4153,46.5733],[130.3874,46.5597],[130.3465,46.5545],[130.3149,46.5833],[130.2612,46.5941],[130.2437,46.5782],[130.227,46.616],[130.2038,46.6195],[130.2172,46.5863],[130.2074,46.543],[130.1912,46.5195],[130.1963,46.4878],[130.1397,46.4906]]]},"properties":{"region_code":"CN-23-2308-230822","parent_region_code":"CN-23-2308","name":"桦南县","level":"county","has_children":false,"full_path":"中国 / 黑龙江省 / 佳木斯市 / 桦南县","source_admin_code":"230822","osm_relation_id":2758646}},
{"type":"Feature","geometry":{"type":"Polygon","coordinates":[[[130.4784,46.7827],[130.4984,46.7848],[130.5389,46.7508],[130.5229,46.7225],[130.5432,46.7121],[130.5483,46.6875],[130.5059,46.6724],[130.4777,46.6126],[130.5105,46.5883],[130.5342,46.5685],[130.5364,46.5449],[130.557,46.5336],[130.593,46.5294],[130.6271,46.5565],[130.6858,46.5466],[130.7169,46.5705],[130.7233,46.603],[130.7127,46.6216],[130.7149,46.6468],[130.7361,46.668],[130.7196,46.6832],[130.7226,46.7134],[130.7013,46.7408],[130.6602,46.7414],[130.6492,46.7775],[130.6607,46.7872],[130.6583,46.8289],[130.6752,46.833],[130.7053,46.8199],[130.7441,46.8305],[130.7569,46.8473],[130.8209,46.8528],[130.8158,46.8744],[130.8379,46.9079],[130.8287,46.9375],[130.9022,46.9391],[130.9493,46.9548],[131.0052,46.9868],[131.0224,46.9684],[131.0514,46.9881],[131.0774,46.9535],[131.2045,46.9632],[131.3971,47.0239],[131.4001,47.0662],[131.4521,47.0661],[131.5307,47.0741],[131.5461,47.0723],[131.5589,47.1092],[131.5399,47.1343],[131.5021,47.1554],[131.4954,47.1754],[131.5035,47.2048],[131.4862,47.2189],[131.4505,47.2179],[131.4277,47.2278],[131.3834,47.2143],[131.3465,47.1908],[131.2967,47.189],[131.28,47.203],[131.1624,47.221],[131.1405,47.22],[131.0985,47.1943],[131.0838,47.1945],[131.0421,47.214],[130.963,47.2202],[130.9238,47.1957],[130.8002,47.1772],[130.7894,47.1665],[130.7996,47.1392],[130.7889,47.1218],[130.7593,47.1161],[130.7542,47.101],[130.7273,47.0829],[130.705,47.0427],[130.6857,47.0294],[130.6428,47.0452],[130.5918,47.0265],[130.5842,46.9908],[130.6053,46.9563],[130.578,46.9479],[130.5717,46.9355],[130.5969,46.9193],[130.5883,46.904],[130.5459,46.8905],[130.5856,46.8648],[130.5974,46.8423],[130.5439,46.8205],[130.489,46.8187],[130.4718,46.8107],[130.4784,46.7827]]]},"properties":{"region_code":"CN-23-2308-230826","parent_region_code":"CN-23-2308","name":"桦川县","level":"county","has_children":false,"full_path":"中国 / 黑龙江省 / 佳木斯市 / 桦川县","source_admin_code":"230826","osm_relation_id":2758645}},
{"type":"Feature","geometry":{"type":"Polygon","coordinates":[[[130.5918,47.0265],[130.6428,47.0452],[130.6857,47.0294],[130.705,47.0427],[130.7273,47.0829],[130.7542,47.101],[130.7593,47.1161],[130.7889,47.1218],[130.7996,47.1392],[130.7894,47.1665],[130.8002,47.1772],[130.9238,47.1957],[130.963,47.2202],[130.9482,47.2381],[130.9807,47.2488],[130.9685,47.2724],[130.9748,47.3157],[130.8411,47.2934],[130.7843,47.2884],[130.6993,47.3139],[130.6743,47.3287],[130.6159,47.3363],[130.5549,47.3254],[130.586,47.2784],[130.6168,47.2664],[130.6371,47.2335],[130.6656,47.2221],[130.6845,47.202],[130.6514,47.1929],[130.6269,47.1549],[130.6008,47.1551],[130.5827,47.1439],[130.6206,47.0963],[130.6139,47.0533],[130.5226,47.0536],[130.4853,47.0436],[130.4819,47.061],[130.4433,47.0599],[130.4217,47.0756],[130.4201,47.1035],[130.3696,47.1102],[130.3628,47.0804],[130.3755,47.0634],[130.3488,47.0588],[130.303,47.064],[130.2232,47.0907],[130.2027,47.0892],[130.1629,47.1217],[130.1373,47.1336],[130.1425,47.1676],[130.1255,47.2009],[130.0415,47.2232],[129.9919,47.2305],[129.9688,47.2584],[129.9281,47.2581],[129.925,47.2917],[129.8776,47.2955],[129.8703,47.2739],[129.8304,47.2554],[129.789,47.2638],[129.7743,47.1778],[129.7408,47.1703],[129.7498,47.1433],[129.7201,47.1212],[129.6888,47.1148],[129.7102,47.0767],[129.7014,47.0611],[129.6701,47.0436],[129.5991,47.0378],[129.5691,47.0235],[129.5856,47.0013],[129.577,46.9684],[129.5255,46.9769],[129.5318,46.9506],[129.5648,46.9351],[129.5484,46.9242],[129.5542,46.9049],[129.5853,46.8801],[129.6239,46.8122],[129.6476,46.8015],[129.6941,46.7964],[129.6931,46.7563],[129.7016,46.7404],[129.6849,46.7217],[129.6012,46.7104],[129.5818,46.712],[129.5684,46.6913],[129.5182,46.6628],[129.5031,46.6358],[129.5041,46.6148],[129.5431,46.6174],[129.5858,46.6071],[129.6331,46.5789],[129.6339,46.5571],[129.6726,46.5351],[129.6908,46.5405],[129.7597,46.5322],[129.8163,46.5586],[129.8564,46.5926],[129.8989,46.6071],[129.9132,46.627],[129.9161,46.6718],[129.9501,46.6947],[129.9652,46.724],[129.9632,46.7609],[130.0281,46.7737],[130.0456,46.7714],[130.0764,46.7525],[130.1103,46.7517],[130.116,46.7638],[130.0835,46.8117],[130.0681,46.8572],[130.0429,46.857],[130.0389,46.891],[130.063,46.8974],[130.0611,46.9256],[130.036,46.9209],[130.0335,46.9526],[129.9967,47.0047],[129.9977,47.0161],[130.0574,46.989],[130.0707,47.0111],[130.1284,46.9775],[130.1591,46.946],[130.2111,46.9414],[130.2456,46.9504],[130.2172,46.968],[130.2491,46.9887],[130.2459,47.0023],[130.295,47.0099],[130.3032,46.9783],[130.2714,46.9745],[130.2753,46.9567],[130.3105,46.9487],[130.3542,46.9538],[130.3722,46.9738],[130.4394,46.9784],[130.5044,47.0137],[130.5423,47.0193],[130.5682,47.0364],[130.5918,47.0265]],[[130.0244,47.0567],[130.0066,47.0684],[130.0027,47.1085],[130.0246,47.1105],[130.0244,47.0567]],[[130.1592,47.0108],[130.1326,47.0331],[130.0942,47.0482],[130.0808,47.0686],[130.0949,47.1019],[130.1233,47.1002],[130.1492,47.0618],[130.1612,47.0577],[130.1876,47.0159],[130.1592,47.0108]]]},"properties":{"region_code":"CN-23-2308-230828","parent_region_code":"CN-23-2308","name":"汤原县","level":"county","has_children":false,"full_path":"中国 / 黑龙江省 / 佳木斯市 / 汤原县","source_admin_code":"230828","osm_relation_id":2758647}},
{"type":"Feature","geometry":{"type":"Polygon","coordinates":[[[133.7119,47.5401],[133.7043,47.6695],[133.7067,47.7502],[133.6946,47.8222],[133.7694,47.8567],[133.7848,47.8796],[133.8291,47.9045],[133.8971,47.9246],[133.9344,47.9641],[133.9657,47.9679],[133.9232,48.0415],[133.9605,48.0689],[133.9893,48.0761],[134.0098,48.0681],[134.0416,48.0745],[134.0399,48.0899],[134.0811,48.1127],[134.1125,48.1782],[134.0996,48.2008],[134.0654,48.2096],[134.0434,48.2312],[134.0417,48.2522],[134.0117,48.2661],[133.9941,48.3022],[133.9496,48.3043],[133.8776,48.2831],[133.8338,48.2757],[133.7978,48.26],[133.7464,48.2568],[133.7207,48.2416],[133.7213,48.2082],[133.7116,48.1874],[133.6776,48.1822],[133.6136,48.1999],[133.5802,48.1886],[133.5655,48.1374],[133.5566,48.1303],[133.4645,48.1091],[133.3915,48.1236],[133.3482,48.1152],[133.3004,48.0998],[133.2418,48.1212],[133.1884,48.1315],[133.1434,48.1321],[133.0605,48.1151],[133.0338,48.0897],[133.0259,48.067],[133.0013,48.0372],[132.9654,48.025],[132.9065,48.0131],[132.8688,47.9978],[132.8199,47.9399],[132.7952,47.9285],[132.7501,47.9375],[132.7196,47.9603],[132.6813,47.9572],[132.654,47.9334],[132.6815,47.885],[132.669,47.8625],[132.6373,47.8455],[132.6025,47.8151],[132.5898,47.7843],[132.5997,47.7626],[132.5955,47.7337],[132.5487,47.7143],[132.5107,47.7147],[132.5123,47.6956],[132.4525,47.6753],[132.4473,47.6576],[132.4641,47.6276],[132.4251,47.5957],[132.4204,47.5674],[132.4011,47.5455],[132.3582,47.5161],[132.3458,47.4998],[132.3082,47.4765],[132.3422,47.4521],[132.3677,47.4522],[132.3967,47.4224],[132.4223,47.4208],[132.4209,47.449],[132.4596,47.4687],[132.4781,47.4581],[132.5116,47.4634],[132.53,47.4844],[132.5769,47.4905],[132.5926,47.5097],[132.6265,47.5156],[132.6497,47.5305],[132.6843,47.5686],[132.7065,47.5756],[132.7252,47.6008],[132.7686,47.609],[132.812,47.6007],[132.8234,47.5922],[132.8669,47.6073],[132.8886,47.5911],[132.8976,47.5704],[133.0173,47.5198],[133.2642,47.4704],[133.3415,47.4644],[133.4007,47.4874],[133.4264,47.4825],[133.4454,47.4672],[133.4803,47.4461],[133.5634,47.4348],[133.589,47.4504],[133.6259,47.5171],[133.6546,47.5324],[133.7119,47.5401]]]},"properties":{"region_code":"CN-23-2308-230881","parent_region_code":"CN-23-2308","name":"同江市","level":"county","has_children":false,"full_path":"中国 / 黑龙江省 / 佳木斯市 / 同江市","source_admin_code":"230881","osm_relation_id":2758648}},
{"type":"Feature","geometry":{"type":"Polygon","coordinates":[[[131.5461,47.0723],[131.5304,47.0306],[131.521,46.9178],[131.521,46.8874],[131.6263,46.8891],[131.7207,46.8841],[131.728,46.8663],[131.7818,46.9014],[131.794,46.8836],[131.8574,46.8846],[131.8557,46.8994],[131.8297,46.9018],[131.8319,46.956],[131.9039,46.9718],[131.9214,46.9842],[132.0507,46.9865],[132.0511,46.9743],[132.1097,46.9678],[132.1994,46.9505],[132.2347,46.9528],[132.2603,46.9418],[132.239,46.9279],[132.2467,46.9074],[132.2134,46.8843],[132.1878,46.8758],[132.1918,46.855],[132.2085,46.8445],[132.215,46.8196],[132.2357,46.8016],[132.2598,46.8073],[132.2926,46.802],[132.3447,46.7633],[132.3909,46.7603],[132.3831,46.8122],[132.4272,46.8254],[132.4926,46.8148],[132.5069,46.7894],[132.5542,46.7839],[132.5935,46.802],[132.6223,46.8076],[132.6427,46.7989],[132.6681,46.8093],[132.712,46.8152],[132.7268,46.7971],[132.7694,46.7789],[132.8061,46.7699],[132.8374,46.7727],[132.8577,46.7632],[132.8835,46.779],[132.8851,46.7941],[132.9076,46.8017],[132.9383,46.8001],[132.9599,46.8184],[132.9637,46.8348],[133.0182,46.8496],[133.0238,46.8671],[133.1309,46.8924],[133.1439,46.9099],[133.1588,46.9547],[133.2075,46.9797],[133.1729,47.0101],[133.2104,47.0435],[133.2236,47.0823],[133.2167,47.1026],[133.2377,47.112],[133.2457,47.1718],[133.2607,47.1766],[133.2885,47.2147],[133.2874,47.2949],[133.3348,47.3222],[133.3648,47.3614],[133.3855,47.4146],[133.4454,47.4672],[133.4264,47.4825],[133.4007,47.4874],[133.3415,47.4644],[133.2642,47.4704],[133.0173,47.5198],[132.8976,47.5704],[132.8886,47.5911],[132.8669,47.6073],[132.8234,47.5922],[132.812,47.6007],[132.7686,47.609],[132.7252,47.6008],[132.7065,47.5756],[132.6843,47.5686],[132.6497,47.5305],[132.6265,47.5156],[132.5926,47.5097],[132.5769,47.4905],[132.53,47.4844],[132.5116,47.4634],[132.4781,47.4581],[132.4596,47.4687],[132.4209,47.449],[132.4223,47.4208],[132.3967,47.4224],[132.3677,47.4522],[132.3422,47.4521],[132.3082,47.4765],[132.2903,47.4549],[132.2665,47.4489],[132.2096,47.4093],[132.1075,47.401],[132.0861,47.3836],[132.0364,47.3622],[132.0384,47.3259],[132.0304,47.2764],[132.0135,47.2569],[131.9088,47.2477],[131.8695,47.2776],[131.8165,47.2677],[131.769,47.2688],[131.7287,47.2416],[131.674,47.2453],[131.63,47.2357],[131.5886,47.2349],[131.4924,47.2584],[131.4535,47.2346],[131.4277,47.2278],[131.4505,47.2179],[131.4862,47.2189],[131.5035,47.2048],[131.4954,47.1754],[131.5021,47.1554],[131.5399,47.1343],[131.5589,47.1092],[131.5461,47.0723]]]},"properties":{"region_code":"CN-23-2308-230882","parent_region_code":"CN-23-2308","name":"富锦市","level":"county","has_children":false,"full_path":"中国 / 黑龙江省 / 佳木斯市 / 富锦市","source_admin_code":"230882","osm_relation_id":2758643}},
{"type":"Feature","geometry":{"type":"Polygon","coordinates":[[[133.7119,47.5401],[133.7229,47.5336],[133.7714,47.5312],[133.844,47.5421],[133.8849,47.5326],[133.9383,47.5327],[133.9748,47.5162],[134.0203,47.5292],[134.0662,47.514],[134.1065,47.5064],[134.1626,47.5389],[134.1842,47.5567],[134.2366,47.4606],[134.2637,47.4263],[134.3076,47.4305],[134.3499,47.4412],[134.4066,47.4358],[134.4501,47.4465],[134.4862,47.443],[134.5242,47.4681],[134.5545,47.473],[134.5707,47.4894],[134.5725,47.5185],[134.6288,47.5484],[134.6522,47.5782],[134.6804,47.5981],[134.6753,47.6252],[134.7436,47.6837],[134.7704,47.7151],[134.7752,47.74],[134.7536,47.7689],[134.7271,47.7792],[134.712,47.7962],[134.6633,47.8249],[134.6609,47.8581],[134.6706,47.8775],[134.6543,47.8964],[134.607,47.9015],[134.5928,47.9477],[134.5439,47.985],[134.552,48.0075],[134.5445,48.0244],[134.5693,48.0436],[134.5763,48.0621],[134.6277,48.0968],[134.6396,48.1288],[134.6675,48.1522],[134.6761,48.1892],[134.667,48.2041],[134.6679,48.2401],[134.6761,48.2573],[134.717,48.28],[134.7692,48.3591],[134.6881,48.4081],[134.6205,48.4139],[134.5807,48.4072],[134.5108,48.4248],[134.4707,48.4219],[134.4344,48.398],[134.4087,48.3882],[134.3368,48.3789],[134.2703,48.379],[134.2223,48.3859],[134.1883,48.3837],[134.14,48.3382],[134.0968,48.3332],[134.0556,48.3458],[134.0144,48.3312],[133.9941,48.3022],[134.0117,48.2661],[134.0417,48.2522],[134.0434,48.2312],[134.0654,48.2096],[134.0996,48.2008],[134.1125,48.1782],[134.0811,48.1127],[134.0399,48.0899],[134.0416,48.0745],[134.0098,48.0681],[133.9893,48.0761],[133.9605,48.0689],[133.9232,48.0415],[133.9657,47.9679],[133.9344,47.9641],[133.8971,47.9246],[133.8291,47.9045],[133.7848,47.8796],[133.7694,47.8567],[133.6946,47.8222],[133.7067,47.7502],[133.7043,47.6695],[133.7119,47.5401]]]},"properties":{"region_code":"CN-23-2308-230883","parent_region_code":"CN-23-2308","name":"抚远市","level":"county","has_children":false,"full_path":"中国 / 黑龙江省 / 佳木斯市 / 抚远市","source_admin_code":"230883","osm_relation_id":2758644}}
]}