{"type":"FeatureCollection", "features": [
{"type":"Feature","geometry":{"type":"Polygon","coordinates":[[[125.2317,43.0272],[125.2228,43.0217],[125.2272,43.0113],[125.2015,43.0069],[125.1886,42.9962],[125.18,42.981],[125.1877,42.9695],[125.1815,42.9511],[125.162,42.9285],[125.1601,42.9128],[125.1422,42.9142],[125.1334,42.9071],[125.1158,42.9168],[125.095,42.9123],[125.0601,42.9181],[125.0545,42.9228],[125.0461,42.908],[125.0605,42.8861],[125.0811,42.8743],[125.0738,42.8622],[125.0783,42.8487],[125.0878,42.8452],[125.0929,42.8333],[125.1073,42.8349],[125.1176,42.8295],[125.1208,42.816],[125.1357,42.8134],[125.1443,42.8292],[125.1595,42.838],[125.1614,42.8477],[125.175,42.8465],[125.1906,42.852],[125.2103,42.8358],[125.2243,42.8343],[125.2324,42.846],[125.2509,42.8614],[125.2442,42.8675],[125.2736,42.8813],[125.2874,42.8821],[125.3143,42.8746],[125.3322,42.8826],[125.3274,42.9026],[125.3298,42.9173],[125.3127,42.9302],[125.3066,42.9508],[125.294,42.9559],[125.283,43.0083],[125.2569,43.0335],[125.2317,43.0272]]]},"properties":{"region_code":"CN-22-2204-220402","parent_region_code":"CN-22-2204","name":"龙山区","level":"county","has_children":false,"full_path":"中国 / 吉林省 / 辽源市 / 龙山区","source_admin_code":"220402","osm_relation_id":2764067}},
{"type":"Feature","geometry":{"type":"Polygon","coordinates":[[[125.2317,43.0272],[125.2101,43.0413],[125.1841,43.0515],[125.1695,43.052],[125.1631,43.0645],[125.1503,43.0631],[125.1507,43.0489],[125.1364,43.0366],[125.1301,43.0428],[125.0939,43.0298],[125.0607,43.0034],[125.0431,43.0135],[125.0261,43.0124],[125.0105,43.0241],[124.9949,43.0157],[124.9873,42.9974],[125.0099,42.9914],[125.0118,42.9817],[125.0224,42.9717],[125.0543,42.9646],[125.0643,42.9522],[125.0632,42.933],[125.0545,42.9228],[125.0601,42.9181],[125.095,42.9123],[125.1158,42.9168],[125.1334,42.9071],[125.1422,42.9142],[125.1601,42.9128],[125.162,42.9285],[125.1815,42.9511],[125.1877,42.9695],[125.18,42.981],[125.1886,42.9962],[125.2015,43.0069],[125.2272,43.0113],[125.2228,43.0217],[125.2317,43.0272]]]},"properties":{"region_code":"CN-22-2204-220403","parent_region_code":"CN-22-2204","name":"西安区","level":"county","has_children":false,"full_path":"中国 / 吉林省 / 辽源市 / 西安区","source_admin_code":"220403","osm_relation_id":2764068}},
{"type":"Feature","geometry":{"type":"Polygon","coordinates":[[[125.0481,42.6216],[125.0798,42.6232],[125.0904,42.6202],[125.089,42.597],[125.0749,42.5864],[125.0853,42.5699],[125.0754,42.5613],[125.0612,42.5318],[125.0756,42.5226],[125.07,42.5027],[125.0985,42.4886],[125.1036,42.4743],[125.13,42.4692],[125.1428,42.4495],[125.1335,42.4447],[125.1528,42.4356],[125.1744,42.4305],[125.1806,42.4124],[125.1913,42.4054],[125.1799,42.3895],[125.1795,42.3793],[125.1934,42.3749],[125.1969,42.3643],[125.1607,42.3498],[125.1702,42.3451],[125.1759,42.3259],[125.1666,42.3161],[125.1683,42.3067],[125.2074,42.2982],[125.2357,42.3105],[125.246,42.3054],[125.2561,42.3105],[125.2793,42.3127],[125.2938,42.3232],[125.3118,42.3262],[125.329,42.3378],[125.3361,42.3564],[125.3607,42.3632],[125.3991,42.3816],[125.4329,42.3792],[125.4527,42.3907],[125.4732,42.3972],[125.5102,42.4181],[125.5381,42.43],[125.5562,42.4328],[125.5678,42.4495],[125.5712,42.469],[125.5785,42.4815],[125.5798,42.5063],[125.5945,42.5152],[125.6113,42.5163],[125.6253,42.535],[125.6282,42.5452],[125.6454,42.5482],[125.654,42.5395],[125.683,42.5689],[125.695,42.5714],[125.6993,42.5877],[125.7085,42.5964],[125.7026,42.6074],[125.6784,42.6043],[125.6823,42.6168],[125.6594,42.6381],[125.6532,42.6589],[125.6576,42.6829],[125.6532,42.6897],[125.6679,42.7136],[125.6384,42.7304],[125.6429,42.7372],[125.6623,42.7311],[125.7093,42.7366],[125.732,42.7421],[125.7567,42.7408],[125.7631,42.7462],[125.8054,42.7505],[125.8139,42.7603],[125.8243,42.7549],[125.8373,42.7627],[125.8187,42.7748],[125.8051,42.7884],[125.7513,42.8181],[125.7473,42.8398],[125.7379,42.843],[125.7294,42.88],[125.7374,42.9062],[125.739,42.9311],[125.7489,42.9337],[125.7479,42.9512],[125.7211,43.0206],[125.7015,43.0312],[125.6687,43.0414],[125.6506,43.0587],[125.627,43.0688],[125.6057,43.0655],[125.5769,43.0695],[125.572,43.0767],[125.5467,43.0928],[125.5166,43.0936],[125.4885,43.0984],[125.4848,43.1215],[125.4783,43.1261],[125.4731,43.1608],[125.4852,43.1788],[125.4766,43.1967],[125.4598,43.2008],[125.4404,43.2217],[125.4168,43.2309],[125.4027,43.217],[125.3843,43.2158],[125.3689,43.2217],[125.3606,43.2163],[125.3676,43.202],[125.3659,43.1814],[125.3539,43.1731],[125.35,43.1574],[125.3696,43.1486],[125.3944,43.1456],[125.3973,43.1328],[125.4124,43.1316],[125.4177,43.1132],[125.4275,43.0988],[125.4565,43.0901],[125.4715,43.0598],[125.4996,43.0314],[125.5316,43.0366],[125.5343,43.0311],[125.5536,43.0254],[125.5588,43.0128],[125.5746,42.9956],[125.5733,42.976],[125.5886,42.9656],[125.5643,42.9464],[125.5416,42.9502],[125.5104,42.93],[125.5135,42.9132],[125.5107,42.8906],[125.5197,42.8906],[125.5288,42.8711],[125.5225,42.8661],[125.5221,42.8442],[125.5406,42.8386],[125.5318,42.8311],[125.5141,42.8324],[125.4909,42.828],[125.4921,42.8172],[125.4865,42.8003],[125.4601,42.7852],[125.4591,42.7726],[125.4424,42.7668],[125.4303,42.7696],[125.3972,42.759],[125.3867,42.7529],[125.3727,42.756],[125.3642,42.7444],[125.3331,42.7539],[125.3154,42.7464],[125.3142,42.7356],[125.3237,42.7282],[125.2948,42.7108],[125.2882,42.7124],[125.2634,42.6898],[125.2318,42.694],[125.2267,42.6867],[125.2078,42.6829],[125.2068,42.6734],[125.1926,42.6651],[125.1739,42.6681],[125.1645,42.6652],[125.1394,42.6719],[125.1222,42.6837],[125.1042,42.6827],[125.0861,42.6949],[125.0809,42.6801],[125.066,42.6646],[125.0725,42.6583],[125.0619,42.6367],[125.0524,42.6333],[125.0481,42.6216]]]},"properties":{"region_code":"CN-22-2204-220421","parent_region_code":"CN-22-2204","name":"东丰县","level":"county","has_children":false,"full_path":"中国 / 吉林省 / 辽源市 / 东丰县","source_admin_code":"220421","osm_relation_id":2764065}},
{"type":"Feature","geometry":{"type":"Polygon","coordinates":[[[125.3973,43.1328],[125.3852,43.1215],[125.3822,43.1047],[125.3657,43.1042],[125.348,43.1152],[125.2909,43.1398],[125.2567,43.1606],[125.2147,43.2016],[125.2043,43.2093],[125.1966,43.2264],[125.1481,43.2253],[125.1436,43.2207],[125.1033,43.2188],[125.0589,43.2096],[125.0376,43.2193],[125.0172,43.2119],[125.0103,43.1987],[124.991,43.1962],[124.9595,43.1868],[124.9634,43.1749],[124.9373,43.1625],[124.9039,43.1423],[124.8893,43.1288],[124.8882,43.116],[124.8755,43.1086],[124.878,43.0779],[124.8623,43.0518],[124.8517,43.0492],[124.8579,43.0322],[124.8345,43.0307],[124.8447,43.0136],[124.8522,43.0105],[124.8555,42.9885],[124.8667,42.9597],[124.8596,42.9459],[124.8633,42.9322],[124.8476,42.9007],[124.8428,42.8801],[124.8491,42.8668],[124.8487,42.8531],[124.8551,42.8139],[124.8689,42.7876],[124.892,42.7859],[124.909,42.8018],[124.9108,42.8157],[124.9227,42.8177],[124.9325,42.8099],[124.9697,42.7997],[124.9737,42.7792],[124.9871,42.7672],[124.9784,42.7509],[124.9891,42.7369],[124.9669,42.7218],[124.9752,42.7017],[124.9832,42.6925],[124.9793,42.6748],[124.9904,42.6676],[125.0085,42.6636],[125.0136,42.6513],[125.0043,42.6301],[125.0321,42.6131],[125.0481,42.6216],[125.0524,42.6333],[125.0619,42.6367],[125.0725,42.6583],[125.066,42.6646],[125.0809,42.6801],[125.0861,42.6949],[125.1042,42.6827],[125.1222,42.6837],[125.1394,42.6719],[125.1645,42.6652],[125.1739,42.6681],[125.1926,42.6651],[125.2068,42.6734],[125.2078,42.6829],[125.2267,42.6867],[125.2318,42.694],[125.2634,42.6898],[125.2882,42.7124],[125.2948,42.7108],[125.3237,42.7282],[125.3142,42.7356],[125.3154,42.7464],[125.3331,42.7539],[125.3642,42.7444],[125.3727,42.756],[125.3867,42.7529],[125.3972,42.759],[125.4303,42.7696],[125.4424,42.7668],[125.4591,42.7726],[125.4601,42.7852],[125.4865,42.8003],[125.4921,42.8172],[125.4909,42.828],[125.5141,42.8324],[125.5318,42.8311],[125.5406,42.8386],[125.5221,42.8442],[125.5225,42.8661],[125.5288,42.8711],[125.5197,42.8906],[125.5107,42.8906],[125.5135,42.9132],[125.5104,42.93],[125.5416,42.9502],[125.5643,42.9464],[125.5886,42.9656],[125.5733,42.976],[125.5746,42.9956],[125.5588,43.0128],[125.5536,43.0254],[125.5343,43.0311],[125.5316,43.0366],[125.4996,43.0314],[125.4715,43.0598],[125.4565,43.0901],[125.4275,43.0988],[125.4177,43.1132],[125.4124,43.1316],[125.3973,43.1328]],[[125.0545,42.9228],[125.0632,42.933],[125.0643,42.9522],[125.0543,42.9646],[125.0224,42.9717],[125.0118,42.9817],[125.0099,42.9914],[124.9873,42.9974],[124.9949,43.0157],[125.0105,43.0241],[125.0261,43.0124],[125.0431,43.0135],[125.0607,43.0034],[125.0939,43.0298],[125.1301,43.0428],[125.1364,43.0366],[125.1507,43.0489],[125.1503,43.0631],[125.1631,43.0645],[125.1695,43.052],[125.1841,43.0515],[125.2101,43.0413],[125.2317,43.0272],[125.2569,43.0335],[125.283,43.0083],[125.294,42.9559],[125.3066,42.9508],[125.3127,42.9302],[125.3298,42.9173],[125.3274,42.9026],[125.3322,42.8826],[125.3143,42.8746],[125.2874,42.8821],[125.2736,42.8813],[125.2442,42.8675],[125.2509,42.8614],[125.2324,42.846],[125.2243,42.8343],[125.2103,42.8358],[125.1906,42.852],[125.175,42.8465],[125.1614,42.8477],[125.1595,42.838],[125.1443,42.8292],[125.1357,42.8134],[125.1208,42.816],[125.1176,42.8295],[125.1073,42.8349],[125.0929,42.8333],[125.0878,42.8452],[125.0783,42.8487],[125.0738,42.8622],[125.0811,42.8743],[125.0605,42.8861],[125.0461,42.908],[125.0545,42.9228]]]},"properties":{"region_code":"CN-22-2204-220422","parent_region_code":"CN-22-2204","name":"东辽县","level":"county","has_children":false,"full_path":"中国 / 吉林省 / 辽源市 / 东辽县","source_admin_code":"220422","osm_relation_id":2764066}}
]}