{"type":"FeatureCollection", "features": [
{"type":"Feature","geometry":{"type":"Polygon","coordinates":[[[126.6868,41.6715],[126.6674,41.6808],[126.6292,41.6914],[126.6088,41.7097],[126.6122,41.7194],[126.5756,41.7365],[126.5785,41.7587],[126.5637,41.7895],[126.5524,41.7988],[126.574,41.8264],[126.5799,41.8556],[126.5569,41.8994],[126.5154,41.8984],[126.4881,41.9017],[126.4889,41.9229],[126.4821,41.9318],[126.4987,41.9436],[126.5037,41.9635],[126.5234,41.9665],[126.5157,41.9974],[126.5281,42.0182],[126.5278,42.0286],[126.5062,42.0521],[126.4683,42.073],[126.4401,42.0649],[126.4001,42.0577],[126.39,42.0614],[126.3441,42.0526],[126.3182,42.036],[126.2785,42.0285],[126.2508,42.011],[126.2503,41.9987],[126.2293,41.9964],[126.2145,41.9798],[126.1868,41.9687],[126.1686,41.9751],[126.1386,41.9616],[126.1277,41.9638],[126.1137,41.9507],[126.1343,41.9342],[126.1442,41.933],[126.1689,41.9148],[126.1827,41.8981],[126.2004,41.9031],[126.2065,41.8902],[126.2313,41.8856],[126.2347,41.8776],[126.2104,41.8518],[126.2222,41.8407],[126.2517,41.8474],[126.2676,41.8408],[126.27,41.8305],[126.2909,41.8273],[126.3041,41.805],[126.3151,41.7986],[126.3078,41.7681],[126.2955,41.7543],[126.2976,41.7437],[126.2783,41.7365],[126.2864,41.7276],[126.2735,41.6936],[126.3116,41.6634],[126.354,41.6591],[126.3957,41.6671],[126.41,41.6641],[126.4069,41.6282],[126.3964,41.6049],[126.3991,41.5821],[126.3747,41.565],[126.3941,41.5382],[126.4066,41.5313],[126.3946,41.5186],[126.4229,41.5073],[126.4356,41.5178],[126.4592,41.5177],[126.4612,41.5005],[126.499,41.4993],[126.52,41.5339],[126.5455,41.532],[126.5555,41.5256],[126.588,41.5624],[126.5656,41.5978],[126.5667,41.6166],[126.5917,41.6166],[126.5924,41.6289],[126.6098,41.6454],[126.6072,41.6665],[126.6255,41.6678],[126.6466,41.6541],[126.6868,41.6715]]]},"properties":{"region_code":"CN-22-2206-220602","parent_region_code":"CN-22-2206","name":"浑江区","level":"county","has_children":false,"full_path":"中国 / 吉林省 / 白山市 / 浑江区","source_admin_code":"220602","osm_relation_id":2762621}},
{"type":"Feature","geometry":{"type":"Polygon","coordinates":[[[126.574,41.8264],[126.5946,41.8206],[126.6109,41.823],[126.6205,41.8368],[126.6371,41.8456],[126.6528,41.8458],[126.6811,41.8622],[126.7041,41.8897],[126.7006,41.9011],[126.7163,41.9064],[126.7342,41.9283],[126.7353,41.9541],[126.7548,41.9841],[126.7942,42.0008],[126.8218,41.9992],[126.8492,41.9723],[126.8862,41.9657],[126.8887,41.9609],[126.9556,41.9422],[126.9739,41.9625],[126.963,41.9803],[126.9872,41.9972],[126.9891,42.0077],[127.0105,42.009],[127.0713,41.9891],[127.0948,41.9835],[127.106,41.9937],[127.1345,41.9913],[127.1581,42.0057],[127.1645,42.0205],[127.1962,42.0231],[127.1926,42.0388],[127.2179,42.0532],[127.225,42.0622],[127.2077,42.0709],[127.1717,42.0681],[127.1671,42.093],[127.1696,42.1272],[127.1187,42.1251],[127.1072,42.1384],[127.0793,42.1437],[127.0412,42.1493],[127.0354,42.1593],[127.0104,42.1687],[127.0095,42.1556],[126.9971,42.145],[127.0024,42.1366],[126.9838,42.1056],[126.9652,42.1028],[126.9211,42.1196],[126.897,42.1461],[126.8691,42.1456],[126.8622,42.1311],[126.8426,42.1306],[126.8358,42.1198],[126.807,42.1318],[126.7912,42.1266],[126.7743,42.1317],[126.7356,42.1241],[126.7043,42.1273],[126.7039,42.1499],[126.6923,42.1729],[126.6708,42.1672],[126.6557,42.1814],[126.6384,42.1851],[126.6315,42.195],[126.5985,42.2047],[126.6022,42.2174],[126.5877,42.2274],[126.5748,42.2256],[126.5701,42.203],[126.5472,42.1963],[126.5422,42.1834],[126.5289,42.1817],[126.5003,42.1944],[126.4789,42.1767],[126.4641,42.1744],[126.4616,42.1562],[126.4412,42.1365],[126.4455,42.1234],[126.4222,42.1177],[126.4151,42.1086],[126.3859,42.0949],[126.3954,42.0764],[126.39,42.0614],[126.4001,42.0577],[126.4401,42.0649],[126.4683,42.073],[126.5062,42.0521],[126.5278,42.0286],[126.5281,42.0182],[126.5157,41.9974],[126.5234,41.9665],[126.5037,41.9635],[126.4987,41.9436],[126.4821,41.9318],[126.4889,41.9229],[126.4881,41.9017],[126.5154,41.8984],[126.5569,41.8994],[126.5799,41.8556],[126.574,41.8264]]]},"properties":{"region_code":"CN-22-2206-220605","parent_region_code":"CN-22-2206","name":"江源区","level":"county","has_children":false,"full_path":"中国 / 吉林省 / 白山市 / 江源区","source_admin_code":"220605","osm_relation_id":2762622}},
{"type":"Feature","geometry":{"type":"Polygon","coordinates":[[[127.225,42.0622],[127.27,42.0579],[127.3258,42.0419],[127.3489,42.042],[127.3905,42.0344],[127.4323,42.0316],[127.4534,42.0115],[127.4646,41.9829],[127.4529,41.9475],[127.4661,41.9178],[127.4509,41.9017],[127.4563,41.8842],[127.4801,41.8752],[127.4886,41.8651],[127.51,41.8661],[127.5399,41.8597],[127.5683,41.8609],[127.5926,41.8416],[127.5951,41.8141],[127.5892,41.8073],[127.627,41.787],[127.6399,41.7945],[127.6713,41.7844],[127.6828,41.7699],[127.7085,41.7652],[127.731,41.7545],[127.7638,41.7469],[127.7859,41.7372],[127.8136,41.7375],[127.813,41.7259],[127.829,41.7112],[127.8529,41.7276],[127.8594,41.7398],[127.8769,41.7395],[127.8956,41.7319],[127.9173,41.7461],[127.9337,41.7447],[127.9565,41.7727],[127.9724,41.8003],[128.0256,41.8217],[128.0457,41.8196],[128.0657,41.8397],[128.0664,41.853],[128.0808,41.8617],[128.0671,41.8816],[128.0699,41.8882],[128.0562,41.9096],[128.0848,41.9201],[128.0727,41.9386],[128.0698,41.9689],[128.0312,41.9955],[128.0564,42.0073],[128.0327,42.0247],[128.0261,42.0517],[128.0061,42.0898],[127.979,42.1231],[127.9559,42.1408],[127.9618,42.1629],[127.9208,42.1876],[127.9109,42.2018],[127.9025,42.2403],[127.8897,42.2365],[127.8741,42.2489],[127.8712,42.2663],[127.8489,42.2805],[127.8253,42.278],[127.8045,42.2928],[127.8117,42.3212],[127.8275,42.3254],[127.8811,42.3284],[127.897,42.3473],[127.8977,42.3654],[127.938,42.3657],[127.9556,42.392],[127.9799,42.4029],[128.007,42.4241],[128.0122,42.4481],[128.038,42.4774],[128.0296,42.4857],[128.028,42.524],[128.0139,42.5398],[128.015,42.5633],[128.0041,42.5769],[127.9922,42.5784],[127.9748,42.6099],[127.9534,42.6174],[127.9477,42.6368],[127.9603,42.651],[127.9293,42.6621],[127.9186,42.6706],[127.8992,42.6679],[127.8791,42.6736],[127.8741,42.6915],[127.8563,42.7168],[127.8637,42.7485],[127.8287,42.7595],[127.8313,42.7862],[127.8032,42.7978],[127.7963,42.81],[127.7463,42.8131],[127.7181,42.819],[127.7048,42.7999],[127.7084,42.777],[127.6743,42.7643],[127.6616,42.7519],[127.6419,42.7466],[127.6469,42.7195],[127.6347,42.7105],[127.6183,42.7109],[127.595,42.6945],[127.5902,42.675],[127.5689,42.665],[127.5528,42.6476],[127.5053,42.6309],[127.479,42.6281],[127.48,42.6094],[127.4911,42.5997],[127.4576,42.5888],[127.4628,42.5654],[127.4494,42.5589],[127.4292,42.5703],[127.3995,42.5718],[127.3462,42.5839],[127.3465,42.5985],[127.3338,42.6017],[127.318,42.6272],[127.2732,42.6295],[127.2735,42.613],[127.2378,42.5977],[127.1972,42.6092],[127.2083,42.627],[127.1664,42.6239],[127.149,42.6313],[127.1327,42.6288],[127.1206,42.6082],[127.0995,42.5975],[127.1053,42.5865],[127.0883,42.5778],[127.0797,42.5343],[127.0593,42.5092],[127.0519,42.4869],[127.032,42.468],[127.0607,42.4405],[127.0492,42.4226],[127.056,42.4121],[127.0377,42.3995],[127.0306,42.381],[127.0388,42.3683],[127.0334,42.3501],[127.0382,42.3354],[127.0836,42.3167],[127.0948,42.306],[127.1095,42.3192],[127.1217,42.313],[127.1681,42.3329],[127.1867,42.3264],[127.221,42.3444],[127.2298,42.3578],[127.2498,42.3429],[127.2684,42.3151],[127.2518,42.2953],[127.27,42.2796],[127.2546,42.2527],[127.2359,42.2331],[127.2161,42.229],[127.2268,42.2157],[127.2189,42.1931],[127.2089,42.1837],[127.1889,42.1799],[127.1796,42.1854],[127.1516,42.1831],[127.0992,42.1701],[127.0793,42.1437],[127.1072,42.1384],[127.1187,42.1251],[127.1696,42.1272],[127.1671,42.093],[127.1717,42.0681],[127.2077,42.0709],[127.225,42.0622]]]},"properties":{"region_code":"CN-22-2206-220621","parent_region_code":"CN-22-2206","name":"抚松县","level":"county","has_children":false,"full_path":"中国 / 吉林省 / 白山市 / 抚松县","source_admin_code":"220621","osm_relation_id":2762620}},
{"type":"Feature","geometry":{"type":"Polygon","coordinates":[[[127.0793,42.1437],[127.0992,42.1701],[127.1516,42.1831],[127.1796,42.1854],[127.1889,42.1799],[127.2089,42.1837],[127.2189,42.1931],[127.2268,42.2157],[127.2161,42.229],[127.2359,42.2331],[127.2546,42.2527],[127.27,42.2796],[127.2518,42.2953],[127.2684,42.3151],[127.2498,42.3429],[127.2298,42.3578],[127.221,42.3444],[127.1867,42.3264],[127.1681,42.3329],[127.1217,42.313],[127.1095,42.3192],[127.0948,42.306],[127.0836,42.3167],[127.0382,42.3354],[127.0334,42.3501],[127.0388,42.3683],[127.0306,42.381],[127.0377,42.3995],[127.056,42.4121],[127.0492,42.4226],[127.0607,42.4405],[127.032,42.468],[127.0519,42.4869],[127.0593,42.5092],[127.0797,42.5343],[127.0883,42.5778],[127.1053,42.5865],[127.0995,42.5975],[127.1206,42.6082],[127.1327,42.6288],[127.149,42.6313],[127.1664,42.6239],[127.2083,42.627],[127.2204,42.6533],[127.2418,42.6765],[127.2473,42.7089],[127.2267,42.719],[127.2209,42.7363],[127.2055,42.7454],[127.1959,42.7598],[127.1964,42.784],[127.1877,42.7989],[127.1859,42.8196],[127.1754,42.8224],[127.1546,42.8079],[127.1295,42.7989],[127.1185,42.8027],[127.0917,42.7995],[127.0645,42.8114],[127.0453,42.8011],[127.0356,42.8043],[127.0097,42.7867],[126.9846,42.8025],[126.9449,42.8093],[126.9419,42.8036],[126.8913,42.8003],[126.8937,42.7847],[126.8702,42.7783],[126.8447,42.7821],[126.8165,42.7752],[126.8071,42.7507],[126.7945,42.7339],[126.8066,42.7068],[126.7819,42.694],[126.7686,42.6689],[126.7479,42.6704],[126.7326,42.6605],[126.7283,42.6429],[126.7108,42.6259],[126.7101,42.6136],[126.6753,42.5961],[126.6456,42.5918],[126.6183,42.5735],[126.6264,42.5632],[126.6295,42.5189],[126.627,42.4768],[126.6151,42.46],[126.5715,42.4637],[126.5598,42.444],[126.5414,42.4343],[126.5055,42.4076],[126.5143,42.3938],[126.5088,42.3774],[126.5339,42.3439],[126.5217,42.3211],[126.5252,42.3006],[126.5169,42.2935],[126.5213,42.2662],[126.5184,42.2536],[126.5401,42.2407],[126.5694,42.232],[126.5748,42.2256],[126.5877,42.2274],[126.6022,42.2174],[126.5985,42.2047],[126.6315,42.195],[126.6384,42.1851],[126.6557,42.1814],[126.6708,42.1672],[126.6923,42.1729],[126.7039,42.1499],[126.7043,42.1273],[126.7356,42.1241],[126.7743,42.1317],[126.7912,42.1266],[126.807,42.1318],[126.8358,42.1198],[126.8426,42.1306],[126.8622,42.1311],[126.8691,42.1456],[126.897,42.1461],[126.9211,42.1196],[126.9652,42.1028],[126.9838,42.1056],[127.0024,42.1366],[126.9971,42.145],[127.0095,42.1556],[127.0104,42.1687],[127.0354,42.1593],[127.0412,42.1493],[127.0793,42.1437]]]},"properties":{"region_code":"CN-22-2206-220622","parent_region_code":"CN-22-2206","name":"靖宇县","level":"county","has_children":false,"full_path":"中国 / 吉林省 / 白山市 / 靖宇县","source_admin_code":"220622","osm_relation_id":2762623}},
{"type":"Feature","geometry":{"type":"Polygon","coordinates":[[[127.829,41.7112],[127.8183,41.6985],[127.7915,41.6948],[127.74,41.6702],[127.7261,41.6725],[127.6785,41.6712],[127.6429,41.6761],[127.617,41.6718],[127.6079,41.6618],[127.5783,41.6509],[127.5495,41.66],[127.5296,41.6518],[127.4785,41.6462],[127.4407,41.6244],[127.363,41.6138],[127.3468,41.5976],[127.3238,41.5879],[127.3022,41.5907],[127.2858,41.5737],[127.2701,41.5662],[127.2547,41.5397],[127.2318,41.5404],[127.2071,41.5254],[127.2349,41.5187],[127.2276,41.5074],[127.2437,41.498],[127.2582,41.5096],[127.2733,41.5121],[127.2824,41.5016],[127.273,41.4914],[127.2495,41.4872],[127.2569,41.4766],[127.2734,41.476],[127.2884,41.4835],[127.3373,41.4636],[127.3546,41.4612],[127.3557,41.4774],[127.3819,41.4799],[127.397,41.4766],[127.4107,41.4554],[127.4273,41.4622],[127.4443,41.4575],[127.4931,41.4753],[127.5079,41.4677],[127.5398,41.4655],[127.5403,41.4492],[127.5592,41.43],[127.5857,41.4238],[127.6098,41.4307],[127.6331,41.4093],[127.6496,41.4036],[127.6865,41.422],[127.7171,41.4168],[127.7364,41.4244],[127.7651,41.4191],[127.7794,41.4227],[127.8476,41.4195],[127.8623,41.4013],[127.8724,41.408],[127.8674,41.4377],[127.8855,41.4317],[127.9401,41.4394],[127.9672,41.4354],[127.9837,41.4166],[127.9974,41.4436],[128.0108,41.444],[128.0122,41.4116],[128.0344,41.4038],[128.0402,41.3896],[128.0558,41.3951],[128.0827,41.3928],[128.0868,41.3779],[128.1083,41.3606],[128.1201,41.3783],[128.1539,41.3842],[128.1651,41.4023],[128.1828,41.4113],[128.201,41.4084],[128.2069,41.4271],[128.2228,41.4444],[128.2373,41.4734],[128.2351,41.4983],[128.255,41.5036],[128.2964,41.5388],[128.2858,41.5457],[128.2899,41.5604],[128.3108,41.5792],[128.3122,41.5867],[128.2869,41.612],[128.2929,41.6267],[128.243,41.6783],[128.216,41.6793],[128.2013,41.6881],[128.1839,41.709],[128.1653,41.7104],[128.1456,41.7361],[128.144,41.7547],[128.1358,41.7744],[128.1085,41.7891],[128.0964,41.8379],[128.1028,41.854],[128.1028,41.8781],[128.1086,41.8949],[128.0972,41.9221],[128.0995,41.9448],[128.0698,41.9689],[128.0727,41.9386],[128.0848,41.9201],[128.0562,41.9096],[128.0699,41.8882],[128.0671,41.8816],[128.0808,41.8617],[128.0664,41.853],[128.0657,41.8397],[128.0457,41.8196],[128.0256,41.8217],[127.9724,41.8003],[127.9565,41.7727],[127.9337,41.7447],[127.9173,41.7461],[127.8956,41.7319],[127.8769,41.7395],[127.8594,41.7398],[127.8529,41.7276],[127.829,41.7112]]]},"properties":{"region_code":"CN-22-2206-220623","parent_region_code":"CN-22-2206","name":"长白朝鲜族自治县","level":"county","has_children":false,"full_path":"中国 / 吉林省 / 白山市 / 长白朝鲜族自治县","source_admin_code":"220623","osm_relation_id":2762619}},
{"type":"Feature","geometry":{"type":"Polygon","coordinates":[[[126.6868,41.6715],[126.6834,41.6778],[126.725,41.7048],[126.7303,41.7177],[126.6878,41.7268],[126.6825,41.7375],[126.6939,41.749],[126.7221,41.7442],[126.747,41.7259],[126.7693,41.7161],[126.77,41.7009],[126.7947,41.6929],[126.7963,41.7355],[126.8172,41.7416],[126.8279,41.7215],[126.8395,41.7228],[126.8535,41.7608],[126.8783,41.7867],[126.8986,41.7933],[126.9268,41.8101],[126.9471,41.7993],[126.9284,41.7735],[126.9726,41.7744],[126.9803,41.7627],[127.0033,41.7601],[127.0006,41.7446],[127.0119,41.7398],[127.0481,41.7403],[127.046,41.7207],[127.0617,41.686],[127.0428,41.6909],[127.0302,41.6718],[127.0671,41.6547],[127.07,41.6449],[127.1038,41.6402],[127.0889,41.6214],[127.119,41.6215],[127.1163,41.6055],[127.1293,41.5962],[127.1728,41.5971],[127.1765,41.5859],[127.148,41.5867],[127.1404,41.57],[127.1223,41.567],[127.1,41.553],[127.1081,41.5361],[127.1614,41.54],[127.1721,41.5251],[127.1966,41.5314],[127.2071,41.5254],[127.2318,41.5404],[127.2547,41.5397],[127.2701,41.5662],[127.2858,41.5737],[127.3022,41.5907],[127.3238,41.5879],[127.3468,41.5976],[127.363,41.6138],[127.4407,41.6244],[127.4785,41.6462],[127.5296,41.6518],[127.5495,41.66],[127.5783,41.6509],[127.6079,41.6618],[127.617,41.6718],[127.6429,41.6761],[127.6785,41.6712],[127.7261,41.6725],[127.74,41.6702],[127.7915,41.6948],[127.8183,41.6985],[127.829,41.7112],[127.813,41.7259],[127.8136,41.7375],[127.7859,41.7372],[127.7638,41.7469],[127.731,41.7545],[127.7085,41.7652],[127.6828,41.7699],[127.6713,41.7844],[127.6399,41.7945],[127.627,41.787],[127.5892,41.8073],[127.5951,41.8141],[127.5926,41.8416],[127.5683,41.8609],[127.5399,41.8597],[127.51,41.8661],[127.4886,41.8651],[127.4801,41.8752],[127.4563,41.8842],[127.4509,41.9017],[127.4661,41.9178],[127.4529,41.9475],[127.4646,41.9829],[127.4534,42.0115],[127.4323,42.0316],[127.3905,42.0344],[127.3489,42.042],[127.3258,42.0419],[127.27,42.0579],[127.225,42.0622],[127.2179,42.0532],[127.1926,42.0388],[127.1962,42.0231],[127.1645,42.0205],[127.1581,42.0057],[127.1345,41.9913],[127.106,41.9937],[127.0948,41.9835],[127.0713,41.9891],[127.0105,42.009],[126.9891,42.0077],[126.9872,41.9972],[126.963,41.9803],[126.9739,41.9625],[126.9556,41.9422],[126.8887,41.9609],[126.8862,41.9657],[126.8492,41.9723],[126.8218,41.9992],[126.7942,42.0008],[126.7548,41.9841],[126.7353,41.9541],[126.7342,41.9283],[126.7163,41.9064],[126.7006,41.9011],[126.7041,41.8897],[126.6811,41.8622],[126.6528,41.8458],[126.6371,41.8456],[126.6205,41.8368],[126.6109,41.823],[126.5946,41.8206],[126.574,41.8264],[126.5524,41.7988],[126.5637,41.7895],[126.5785,41.7587],[126.5756,41.7365],[126.6122,41.7194],[126.6088,41.7097],[126.6292,41.6914],[126.6674,41.6808],[126.6868,41.6715]]]},"properties":{"region_code":"CN-22-2206-220681","parent_region_code":"CN-22-2206","name":"临江市","level":"county","has_children":false,"full_path":"中国 / 吉林省 / 白山市 / 临江市","source_admin_code":"220681","osm_relation_id":2762624}}
]}