{"type":"FeatureCollection", "features": [
{"type":"Feature","geometry":{"type":"Polygon","coordinates":[[[130.837,45.3274],[130.8436,45.3157],[130.875,45.302],[130.8675,45.28],[130.87,45.2674],[130.86,45.2442],[130.8823,45.2354],[130.8938,45.2359],[130.9045,45.2248],[130.9307,45.2307],[130.9447,45.2476],[130.9923,45.2404],[131.011,45.2432],[131.0229,45.2394],[131.0503,45.2402],[131.062,45.2462],[131.055,45.2529],[131.0507,45.2728],[131.0605,45.3016],[131.0263,45.2913],[131.0125,45.3002],[130.9871,45.3036],[130.9688,45.3233],[130.9406,45.336],[130.9177,45.3553],[130.9203,45.3684],[130.8711,45.3456],[130.869,45.3363],[130.837,45.3274]]]},"properties":{"region_code":"CN-23-2303-230302","parent_region_code":"CN-23-2303","name":"鸡冠区","level":"county","has_children":false,"full_path":"中国 / 黑龙江省 / 鸡西市 / 鸡冠区","source_admin_code":"230302","osm_relation_id":2978851}},
{"type":"Feature","geometry":{"type":"Polygon","coordinates":[[[130.837,45.3274],[130.8055,45.3191],[130.7945,45.3031],[130.7684,45.3074],[130.7638,45.2903],[130.7423,45.2729],[130.735,45.2613],[130.7389,45.2417],[130.7282,45.236],[130.7284,45.2221],[130.7076,45.2023],[130.7293,45.1862],[130.7573,45.1781],[130.7663,45.1802],[130.7684,45.2004],[130.8,45.1976],[130.7974,45.1878],[130.8071,45.1782],[130.8235,45.181],[130.831,45.1696],[130.8166,45.1628],[130.807,45.1505],[130.8256,45.1403],[130.826,45.1263],[130.8376,45.0856],[130.8484,45.0754],[130.8415,45.0652],[130.8668,45.0508],[130.8805,45.0245],[130.894,45.0229],[130.894,45.0013],[130.8852,44.9896],[130.8962,44.9745],[130.9146,44.9705],[130.953,44.9836],[130.9706,44.9807],[130.9842,45.0014],[131.0305,45.0334],[131.0237,45.0548],[131.0097,45.0639],[131.0069,45.0803],[131.0152,45.0861],[131.0114,45.1016],[131.0264,45.1143],[131.0395,45.137],[131.0643,45.1568],[131.0643,45.1724],[131.0508,45.1701],[131.03,45.1819],[131.0316,45.1893],[131.0644,45.2103],[131.0961,45.2127],[131.088,45.2274],[131.062,45.2462],[131.0503,45.2402],[131.0229,45.2394],[131.011,45.2432],[130.9923,45.2404],[130.9447,45.2476],[130.9307,45.2307],[130.9045,45.2248],[130.8938,45.2359],[130.8823,45.2354],[130.86,45.2442],[130.87,45.2674],[130.8675,45.28],[130.875,45.302],[130.8436,45.3157],[130.837,45.3274]]]},"properties":{"region_code":"CN-23-2303-230303","parent_region_code":"CN-23-2303","name":"恒山区","level":"county","has_children":false,"full_path":"中国 / 黑龙江省 / 鸡西市 / 恒山区","source_admin_code":"230303","osm_relation_id":2978850}},
{"type":"Feature","geometry":{"type":"Polygon","coordinates":[[[130.9203,45.3684],[130.9379,45.3734],[130.9539,45.3842],[130.9397,45.3936],[130.9383,45.4053],[130.9157,45.4202],[130.9183,45.4297],[130.9203,45.4401],[130.9051,45.4619],[130.8881,45.4634],[130.8591,45.4556],[130.8082,45.4503],[130.8038,45.456],[130.7788,45.4545],[130.7766,45.4487],[130.7515,45.4469],[130.7301,45.4511],[130.7111,45.464],[130.678,45.4811],[130.6533,45.4772],[130.6607,45.458],[130.6446,45.4373],[130.6213,45.429],[130.6045,45.4091],[130.5854,45.4058],[130.5497,45.3891],[130.545,45.3815],[130.569,45.3487],[130.5715,45.3379],[130.5868,45.3176],[130.5909,45.3018],[130.6038,45.2856],[130.6383,45.2701],[130.6578,45.2558],[130.6641,45.2341],[130.6477,45.2232],[130.6462,45.2098],[130.6808,45.1981],[130.6899,45.2084],[130.7076,45.2023],[130.7284,45.2221],[130.7282,45.236],[130.7389,45.2417],[130.735,45.2613],[130.7423,45.2729],[130.7638,45.2903],[130.7684,45.3074],[130.7945,45.3031],[130.8055,45.3191],[130.837,45.3274],[130.869,45.3363],[130.8711,45.3456],[130.9203,45.3684]]]},"properties":{"region_code":"CN-23-2303-230304","parent_region_code":"CN-23-2303","name":"滴道区","level":"county","has_children":false,"full_path":"中国 / 黑龙江省 / 鸡西市 / 滴道区","source_admin_code":"230304","osm_relation_id":2978849}},
{"type":"Feature","geometry":{"type":"Polygon","coordinates":[[[130.7076,45.2023],[130.6899,45.2084],[130.6808,45.1981],[130.6789,45.191],[130.652,45.1827],[130.6504,45.1732],[130.6372,45.1637],[130.6458,45.1543],[130.643,45.1452],[130.622,45.1404],[130.6187,45.1287],[130.6078,45.1215],[130.5921,45.1232],[130.5751,45.1003],[130.5604,45.0961],[130.5627,45.0875],[130.5847,45.0801],[130.5867,45.07],[130.6057,45.0639],[130.6224,45.0532],[130.6235,45.0404],[130.6368,45.0309],[130.6528,44.9968],[130.6699,44.9858],[130.6875,44.9933],[130.6959,44.9885],[130.7021,44.969],[130.713,44.9628],[130.7352,44.9655],[130.7611,44.9727],[130.7597,44.988],[130.7903,45.0014],[130.8062,45.0008],[130.8291,44.9859],[130.8584,44.9895],[130.8733,44.9859],[130.8852,44.9896],[130.894,45.0013],[130.894,45.0229],[130.8805,45.0245],[130.8668,45.0508],[130.8415,45.0652],[130.8484,45.0754],[130.8376,45.0856],[130.826,45.1263],[130.8256,45.1403],[130.807,45.1505],[130.8166,45.1628],[130.831,45.1696],[130.8235,45.181],[130.8071,45.1782],[130.7974,45.1878],[130.8,45.1976],[130.7684,45.2004],[130.7663,45.1802],[130.7573,45.1781],[130.7293,45.1862],[130.7076,45.2023]]]},"properties":{"region_code":"CN-23-2303-230305","parent_region_code":"CN-23-2303","name":"梨树区","level":"county","has_children":false,"full_path":"中国 / 黑龙江省 / 鸡西市 / 梨树区","source_admin_code":"230305","osm_relation_id":2978852}},
{"type":"Feature","geometry":{"type":"Polygon","coordinates":[[[131.0605,45.3016],[131.0712,45.308],[131.0726,45.3203],[131.1113,45.3218],[131.1145,45.3372],[131.0909,45.3262],[131.0882,45.3397],[131.0957,45.3545],[131.0863,45.4052],[131.07,45.4122],[131.0825,45.4277],[131.0588,45.4494],[131.0423,45.441],[131.022,45.442],[131.0153,45.4485],[130.9884,45.4571],[130.975,45.4529],[130.9718,45.4398],[130.9588,45.4245],[130.9385,45.4306],[130.9183,45.4297],[130.9157,45.4202],[130.9383,45.4053],[130.9397,45.3936],[130.9539,45.3842],[130.9379,45.3734],[130.9203,45.3684],[130.9177,45.3553],[130.9406,45.336],[130.9688,45.3233],[130.9871,45.3036],[131.0125,45.3002],[131.0263,45.2913],[131.0605,45.3016]]]},"properties":{"region_code":"CN-23-2303-230306","parent_region_code":"CN-23-2303","name":"城子河区","level":"county","has_children":false,"full_path":"中国 / 黑龙江省 / 鸡西市 / 城子河区","source_admin_code":"230306","osm_relation_id":2978848}},
{"type":"Feature","geometry":{"type":"Polygon","coordinates":[[[130.545,45.3815],[130.5334,45.3572],[130.5181,45.3564],[130.5023,45.3365],[130.4839,45.3282],[130.4667,45.2982],[130.4793,45.2769],[130.4839,45.2603],[130.4721,45.2477],[130.4488,45.2349],[130.427,45.2051],[130.4304,45.191],[130.4577,45.1799],[130.4601,45.1673],[130.4485,45.1655],[130.4217,45.1484],[130.4146,45.1318],[130.3953,45.132],[130.3911,45.1218],[130.4051,45.1162],[130.4019,45.106],[130.407,45.0897],[130.4254,45.082],[130.4315,45.0703],[130.4614,45.0634],[130.4777,45.0527],[130.492,45.0731],[130.5494,45.099],[130.5604,45.0961],[130.5751,45.1003],[130.5921,45.1232],[130.6078,45.1215],[130.6187,45.1287],[130.622,45.1404],[130.643,45.1452],[130.6458,45.1543],[130.6372,45.1637],[130.6504,45.1732],[130.652,45.1827],[130.6789,45.191],[130.6808,45.1981],[130.6462,45.2098],[130.6477,45.2232],[130.6641,45.2341],[130.6578,45.2558],[130.6383,45.2701],[130.6038,45.2856],[130.5909,45.3018],[130.5868,45.3176],[130.5715,45.3379],[130.569,45.3487],[130.545,45.3815]]]},"properties":{"region_code":"CN-23-2303-230307","parent_region_code":"CN-23-2303","name":"麻山区","level":"county","has_children":false,"full_path":"中国 / 黑龙江省 / 鸡西市 / 麻山区","source_admin_code":"230307","osm_relation_id":2978853}},
{"type":"Feature","geometry":{"type":"Polygon","coordinates":[[[131.062,45.2462],[131.088,45.2274],[131.0961,45.2127],[131.0644,45.2103],[131.0316,45.1893],[131.03,45.1819],[131.0508,45.1701],[131.0643,45.1724],[131.0643,45.1568],[131.0395,45.137],[131.0264,45.1143],[131.0114,45.1016],[131.0152,45.0861],[131.0069,45.0803],[131.0097,45.0639],[131.0237,45.0548],[131.0305,45.0334],[130.9842,45.0014],[130.9706,44.9807],[130.953,44.9836],[130.9146,44.9705],[130.8962,44.9745],[130.8852,44.9896],[130.8733,44.9859],[130.8577,44.9812],[130.8621,44.9682],[130.8906,44.9512],[130.9159,44.9328],[130.9117,44.9207],[130.9197,44.8865],[130.9409,44.8793],[130.9437,44.8696],[130.9592,44.8525],[130.9771,44.8628],[131.0097,44.8667],[131.0298,44.8774],[131.0373,44.8691],[131.0713,44.8793],[131.0764,44.8891],[131.0944,44.8943],[131.0818,44.9222],[131.0998,44.9356],[131.1234,44.9319],[131.1287,44.9397],[131.1522,44.9446],[131.1655,44.9331],[131.189,44.9341],[131.1986,44.9162],[131.2116,44.9149],[131.241,44.9195],[131.2461,44.927],[131.2709,44.9213],[131.286,44.9266],[131.3005,44.9405],[131.3144,44.9627],[131.3308,44.9715],[131.3501,44.9877],[131.3723,44.9755],[131.3824,44.9815],[131.4016,44.9835],[131.4221,44.9767],[131.4272,44.9651],[131.4501,44.9613],[131.485,44.9656],[131.4935,44.9762],[131.4754,44.9915],[131.4879,45.0007],[131.522,45.0101],[131.5353,45.0172],[131.5574,45.042],[131.5973,45.0573],[131.6244,45.0724],[131.6283,45.0852],[131.6484,45.0919],[131.6781,45.1138],[131.6875,45.1299],[131.6672,45.1473],[131.6429,45.1572],[131.6761,45.214],[131.6734,45.2201],[131.6413,45.2282],[131.6272,45.2402],[131.6298,45.2494],[131.6138,45.2622],[131.5975,45.267],[131.5784,45.2881],[131.5668,45.2911],[131.5711,45.3096],[131.5623,45.3318],[131.5445,45.3299],[131.5101,45.3538],[131.5044,45.3738],[131.4919,45.3861],[131.4571,45.3903],[131.4125,45.3901],[131.3796,45.3996],[131.3458,45.3986],[131.3231,45.408],[131.3054,45.4219],[131.2605,45.4444],[131.2574,45.4576],[131.2665,45.4712],[131.2678,45.4853],[131.2513,45.503],[131.239,45.524],[131.2455,45.5405],[131.2753,45.5489],[131.277,45.5564],[131.2586,45.5822],[131.2634,45.5895],[131.2858,45.5991],[131.2753,45.6257],[131.2102,45.6174],[131.2068,45.6271],[131.1867,45.636],[131.1564,45.6255],[131.1547,45.6367],[131.1347,45.6437],[131.0955,45.6321],[131.092,45.6429],[131.0719,45.6427],[131.0329,45.6486],[131.0201,45.6695],[131.0189,45.6805],[130.968,45.6729],[130.9376,45.6646],[130.9422,45.6449],[130.9314,45.6223],[130.9092,45.6193],[130.8945,45.6086],[130.8677,45.6203],[130.8619,45.6275],[130.8429,45.6163],[130.8343,45.6231],[130.8017,45.6247],[130.7891,45.6155],[130.7694,45.6166],[130.7618,45.6078],[130.754,45.5793],[130.7472,45.5769],[130.7376,45.558],[130.7502,45.5305],[130.7491,45.5198],[130.7368,45.5069],[130.7185,45.5132],[130.702,45.5065],[130.6796,45.4868],[130.678,45.4811],[130.7111,45.464],[130.7301,45.4511],[130.7515,45.4469],[130.7766,45.4487],[130.7788,45.4545],[130.8038,45.456],[130.8082,45.4503],[130.8591,45.4556],[130.8881,45.4634],[130.9051,45.4619],[130.9203,45.4401],[130.9183,45.4297],[130.9385,45.4306],[130.9588,45.4245],[130.9718,45.4398],[130.975,45.4529],[130.9884,45.4571],[131.0153,45.4485],[131.022,45.442],[131.0423,45.441],[131.0588,45.4494],[131.0825,45.4277],[131.07,45.4122],[131.0863,45.4052],[131.0957,45.3545],[131.0882,45.3397],[131.0909,45.3262],[131.1145,45.3372],[131.1113,45.3218],[131.0726,45.3203],[131.0712,45.308],[131.0605,45.3016],[131.0507,45.2728],[131.055,45.2529],[131.062,45.2462]]]},"properties":{"region_code":"CN-23-2303-230321","parent_region_code":"CN-23-2303","name":"鸡东县","level":"county","has_children":false,"full_path":"中国 / 黑龙江省 / 鸡西市 / 鸡东县","source_admin_code":"230321","osm_relation_id":2757020}},
{"type":"Feature","geometry":{"type":"Polygon","coordinates":[[[133.1333,45.4134],[133.143,45.4262],[133.141,45.434],[133.1648,45.4507],[133.1709,45.4634],[133.1647,45.469],[133.1859,45.4805],[133.181,45.4882],[133.2129,45.5135],[133.2456,45.5198],[133.2729,45.5374],[133.3042,45.5422],[133.3258,45.5573],[133.3376,45.5551],[133.3431,45.5667],[133.3629,45.5662],[133.3862,45.5779],[133.3947,45.5713],[133.4158,45.578],[133.4037,45.5962],[133.4214,45.6102],[133.4246,45.626],[133.4665,45.6269],[133.4403,45.6408],[133.4401,45.6487],[133.4578,45.6563],[133.4828,45.6614],[133.4823,45.6732],[133.4728,45.6919],[133.451,45.693],[133.4395,45.7157],[133.4437,45.7276],[133.4662,45.7371],[133.4751,45.7479],[133.459,45.7528],[133.4758,45.7805],[133.4868,45.7726],[133.4985,45.7832],[133.4889,45.7913],[133.4621,45.7964],[133.4617,45.8357],[133.4863,45.834],[133.4776,45.851],[133.4838,45.8638],[133.505,45.8657],[133.5049,45.8887],[133.5232,45.8958],[133.5405,45.8957],[133.5595,45.876],[133.5766,45.8667],[133.5911,45.8751],[133.5909,45.8915],[133.6109,45.9005],[133.6102,45.9119],[133.5964,45.9246],[133.61,45.9415],[133.6502,45.9446],[133.6701,45.9434],[133.6767,45.961],[133.6732,45.9829],[133.68,45.9958],[133.7201,46.0338],[133.7356,46.0541],[133.735,46.0772],[133.7052,46.0995],[133.6951,46.1111],[133.6818,46.1377],[133.688,46.1556],[133.6994,46.1621],[133.7427,46.166],[133.7544,46.1698],[133.7874,46.1903],[133.7959,46.2213],[133.8066,46.2292],[133.823,46.2236],[133.8314,46.2006],[133.8465,46.2031],[133.8564,46.2244],[133.8723,46.2305],[133.8558,46.2426],[133.8569,46.2507],[133.8836,46.2463],[133.903,46.2519],[133.9107,46.2635],[133.9095,46.282],[133.8996,46.3012],[133.9168,46.331],[133.8928,46.3251],[133.8627,46.3368],[133.8707,46.3613],[133.9062,46.3669],[133.9374,46.3795],[133.9402,46.3995],[133.9301,46.4063],[133.9274,46.4195],[133.8908,46.4468],[133.876,46.4483],[133.8475,46.4444],[133.8415,46.4654],[133.8457,46.4811],[133.8647,46.4996],[133.858,46.5258],[133.8403,46.5201],[133.8231,46.5211],[133.8182,46.5285],[133.7982,46.5268],[133.7876,46.5348],[133.7314,46.5272],[133.7275,46.5175],[133.71,46.523],[133.6999,46.5319],[133.6762,46.5346],[133.6528,46.5431],[133.6192,46.5325],[133.5685,46.54],[133.5451,46.5342],[133.5279,46.5347],[133.5131,46.5277],[133.5011,46.5155],[133.49,46.5158],[133.4827,46.5286],[133.4852,46.5403],[133.4775,46.5584],[133.4435,46.5543],[133.4185,46.5379],[133.3959,46.5542],[133.3789,46.5511],[133.3611,46.5548],[133.3418,46.5646],[133.3525,46.5783],[133.3397,46.5964],[133.3245,46.5988],[133.3133,46.6081],[133.2808,46.5957],[133.2708,46.5822],[133.2513,46.5757],[133.2417,46.5785],[133.2179,46.569],[133.2155,46.5579],[133.2266,46.5479],[133.218,46.5291],[133.2077,46.5182],[133.2056,46.5044],[133.2159,46.4902],[133.1999,46.469],[133.1663,46.4615],[133.1415,46.4608],[133.1265,46.4751],[133.1117,46.4808],[133.0856,46.4653],[133.0922,46.4504],[133.0826,46.4314],[133.0709,46.4307],[133.059,46.4145],[133.076,46.3986],[133.0634,46.3843],[133.0539,46.384],[133.0461,46.3697],[133.0316,46.371],[132.9884,46.3432],[133.0046,46.3386],[133.0197,46.3407],[133.0149,46.3164],[133.0207,46.3057],[133.0018,46.2855],[132.9764,46.2655],[132.9651,46.2413],[132.9617,46.1968],[132.9328,46.1672],[132.8916,46.1524],[132.886,46.1348],[132.8567,46.1249],[132.8461,46.1349],[132.8166,46.14],[132.8091,46.1285],[132.7777,46.1418],[132.7822,46.1479],[132.7571,46.1669],[132.7461,46.1679],[132.7389,46.1814],[132.7227,46.1838],[132.7052,46.1714],[132.6718,46.1626],[132.6578,46.1413],[132.6601,46.1273],[132.6192,46.1127],[132.6026,46.0798],[132.5787,46.0749],[132.5655,46.0612],[132.5175,46.0253],[132.5106,46.0124],[132.4884,45.9949],[132.4668,45.9878],[132.4436,45.9859],[132.4009,46.0154],[132.382,46.025],[132.3648,46.0228],[132.3391,46.0293],[132.315,46.0253],[132.2988,46.0031],[132.2841,46.0029],[132.2811,45.9931],[132.2672,45.9866],[132.2755,45.9585],[132.2582,45.9447],[132.2803,45.9201],[132.2721,45.9126],[132.2688,45.8868],[132.2608,45.8832],[132.2554,45.8673],[132.2399,45.8661],[132.2159,45.8718],[132.2054,45.8442],[132.1895,45.8411],[132.1705,45.8375],[132.1586,45.8145],[132.162,45.7963],[132.1451,45.7832],[132.1489,45.7631],[132.1617,45.7537],[132.1692,45.734],[132.1843,45.7194],[132.1836,45.7013],[132.1933,45.6931],[132.2124,45.6928],[132.2328,45.6856],[132.2371,45.6674],[132.2532,45.6649],[132.262,45.6744],[132.2599,45.6933],[132.2896,45.6936],[132.2965,45.688],[132.3246,45.6921],[132.3416,45.7049],[132.3642,45.6986],[132.4187,45.7039],[132.4238,45.6956],[132.4472,45.6861],[132.4813,45.6612],[132.5217,45.6444],[132.5385,45.6227],[132.5746,45.5875],[132.5772,45.5784],[132.593,45.5732],[132.6102,45.5744],[132.6219,45.567],[132.6463,45.5375],[132.6532,45.5123],[132.6996,45.5046],[132.722,45.492],[132.7386,45.4767],[132.7399,45.4629],[132.7487,45.4578],[132.7841,45.4646],[132.8066,45.4614],[132.8083,45.4726],[132.8603,45.4701],[132.8946,45.463],[132.9342,45.4408],[132.9604,45.4333],[132.9776,45.4093],[133.0093,45.3902],[133.0317,45.3896],[133.0501,45.3984],[133.0863,45.4099],[133.1292,45.4103],[133.1333,45.4134]]]},"properties":{"region_code":"CN-23-2303-230381","parent_region_code":"CN-23-2303","name":"虎林市","level":"county","has_children":false,"full_path":"中国 / 黑龙江省 / 鸡西市 / 虎林市","source_admin_code":"230381","osm_relation_id":2757018}},
{"type":"Feature","geometry":{"type":"Polygon","coordinates":[[[131.6761,45.214],[131.6947,45.2146],[131.7141,45.2323],[131.7518,45.2117],[131.7861,45.2096],[131.7773,45.2291],[131.7811,45.2438],[131.8174,45.2892],[131.827,45.2932],[131.8278,45.3101],[131.8465,45.3177],[131.8804,45.3403],[131.9102,45.337],[131.9171,45.3224],[131.9237,45.2877],[131.9347,45.2776],[131.9525,45.2784],[131.9816,45.2703],[131.9965,45.2525],[132.0034,45.252],[132.2859,45.1884],[132.4441,45.1526],[132.7049,45.0936],[132.8643,45.0575],[132.8838,45.0406],[132.9054,45.0376],[132.9386,45.0287],[132.948,45.0216],[132.9761,45.0359],[133.0065,45.0424],[133.0158,45.0499],[133.0375,45.0564],[133.036,45.071],[133.0496,45.0777],[133.0614,45.0945],[133.0797,45.1001],[133.1085,45.1211],[133.1304,45.128],[133.1244,45.1458],[133.1308,45.1517],[133.1202,45.172],[133.13,45.1905],[133.1192,45.2033],[133.1181,45.2202],[133.1078,45.232],[133.0883,45.2407],[133.0862,45.2533],[133.1044,45.2644],[133.1015,45.2784],[133.0899,45.2839],[133.1023,45.298],[133.1116,45.329],[133.1226,45.3338],[133.1116,45.3506],[133.1352,45.3652],[133.1405,45.3765],[133.1367,45.3923],[133.1396,45.405],[133.1333,45.4134],[133.1292,45.4103],[133.0863,45.4099],[133.0501,45.3984],[133.0317,45.3896],[133.0093,45.3902],[132.9776,45.4093],[132.9604,45.4333],[132.9342,45.4408],[132.8946,45.463],[132.8603,45.4701],[132.8083,45.4726],[132.8066,45.4614],[132.7841,45.4646],[132.7487,45.4578],[132.7399,45.4629],[132.7386,45.4767],[132.722,45.492],[132.6996,45.5046],[132.6532,45.5123],[132.6463,45.5375],[132.6219,45.567],[132.6102,45.5744],[132.593,45.5732],[132.5772,45.5784],[132.5746,45.5875],[132.5385,45.6227],[132.5217,45.6444],[132.4813,45.6612],[132.4472,45.6861],[132.4238,45.6956],[132.4187,45.7039],[132.3642,45.6986],[132.3416,45.7049],[132.3246,45.6921],[132.2965,45.688],[132.2896,45.6936],[132.2599,45.6933],[132.262,45.6744],[132.2532,45.6649],[132.2371,45.6674],[132.2328,45.6856],[132.2124,45.6928],[132.1933,45.6931],[132.1836,45.7013],[132.1843,45.7194],[132.1692,45.734],[132.1617,45.7537],[132.1489,45.7631],[132.1451,45.7832],[132.162,45.7963],[132.1586,45.8145],[132.1705,45.8375],[132.1895,45.8411],[132.1639,45.8552],[132.137,45.8474],[132.1279,45.8405],[132.1055,45.8382],[132.0904,45.8425],[132.0756,45.831],[132.0446,45.8258],[132.02,45.8144],[132.0078,45.8181],[131.9719,45.8192],[131.9559,45.8349],[131.9324,45.8474],[131.935,45.8635],[131.9203,45.8807],[131.8902,45.8973],[131.8722,45.8813],[131.8399,45.8946],[131.7792,45.8732],[131.7817,45.8965],[131.7747,45.9026],[131.7215,45.89],[131.7102,45.8944],[131.7095,45.9152],[131.6901,45.9075],[131.6916,45.9678],[131.7016,45.9756],[131.6944,45.985],[131.6804,45.9809],[131.6687,45.9641],[131.6436,45.9709],[131.634,45.9673],[131.6662,45.9178],[131.6365,45.9087],[131.6139,45.9109],[131.6005,45.9245],[131.5912,45.9137],[131.5717,45.9155],[131.56,45.901],[131.5407,45.9069],[131.5449,45.9141],[131.5262,45.9207],[131.5041,45.9081],[131.5069,45.8976],[131.5277,45.8792],[131.5124,45.8724],[131.4907,45.8434],[131.4871,45.8338],[131.4612,45.8239],[131.4614,45.8166],[131.4427,45.8101],[131.4283,45.8295],[131.4019,45.8288],[131.4195,45.7963],[131.4534,45.7616],[131.4501,45.7448],[131.4364,45.7333],[131.4076,45.7353],[131.3859,45.7322],[131.3743,45.7247],[131.3552,45.7289],[131.3168,45.7198],[131.3347,45.6753],[131.3645,45.6701],[131.3509,45.6626],[131.3437,45.6471],[131.3311,45.6441],[131.329,45.6306],[131.31,45.6167],[131.2976,45.5957],[131.2858,45.5991],[131.2634,45.5895],[131.2586,45.5822],[131.277,45.5564],[131.2753,45.5489],[131.2455,45.5405],[131.239,45.524],[131.2513,45.503],[131.2678,45.4853],[131.2665,45.4712],[131.2574,45.4576],[131.2605,45.4444],[131.3054,45.4219],[131.3231,45.408],[131.3458,45.3986],[131.3796,45.3996],[131.4125,45.3901],[131.4571,45.3903],[131.4919,45.3861],[131.5044,45.3738],[131.5101,45.3538],[131.5445,45.3299],[131.5623,45.3318],[131.5711,45.3096],[131.5668,45.2911],[131.5784,45.2881],[131.5975,45.267],[131.6138,45.2622],[131.6298,45.2494],[131.6272,45.2402],[131.6413,45.2282],[131.6734,45.2201],[131.6761,45.214]]]},"properties":{"region_code":"CN-23-2303-230382","parent_region_code":"CN-23-2303","name":"密山市","level":"county","has_children":false,"full_path":"中国 / 黑龙江省 / 鸡西市 / 密山市","source_admin_code":"230382","osm_relation_id":2757021}}
]}