{"type":"FeatureCollection", "features": [
{"type":"Feature","geometry":{"type":"Polygon","coordinates":[[[129.6941,42.9],[129.6905,42.9148],[129.6799,42.9128],[129.6735,42.9243],[129.661,42.9226],[129.6481,42.9264],[129.6367,42.9201],[129.6241,42.9203],[129.6117,42.9078],[129.5993,42.9188],[129.5906,42.9164],[129.5538,42.9238],[129.5343,42.9349],[129.5449,42.9631],[129.5374,42.9765],[129.5423,43.0002],[129.5628,43.0181],[129.5962,43.0261],[129.5931,43.048],[129.5876,43.049],[129.5772,43.0768],[129.587,43.088],[129.5883,43.0965],[129.602,43.0978],[129.6078,43.1098],[129.5964,43.1198],[129.5986,43.1284],[129.5875,43.1393],[129.5777,43.1599],[129.5662,43.1599],[129.5606,43.1779],[129.5448,43.1878],[129.5241,43.189],[129.5037,43.178],[129.4867,43.1788],[129.4656,43.19],[129.4469,43.1887],[129.4367,43.1971],[129.4131,43.1913],[129.3873,43.194],[129.3715,43.2124],[129.3575,43.2193],[129.3501,43.2339],[129.3336,43.2415],[129.3294,43.2553],[129.3169,43.2578],[129.3031,43.2667],[129.2965,43.2764],[129.2978,43.2903],[129.2878,43.2967],[129.2969,43.3055],[129.2965,43.3155],[129.3051,43.3268],[129.2836,43.3542],[129.2893,43.3648],[129.2724,43.3722],[129.2665,43.381],[129.2708,43.3946],[129.2691,43.4074],[129.2485,43.4056],[129.2104,43.4099],[129.2056,43.3959],[129.183,43.3913],[129.1712,43.3862],[129.1767,43.3796],[129.1723,43.366],[129.1611,43.3557],[129.1314,43.362],[129.1107,43.3823],[129.0981,43.3899],[129.0726,43.3811],[129.046,43.3783],[129.0226,43.3615],[129.0282,43.3435],[129.0391,43.3221],[129.0633,43.3128],[129.0729,43.2979],[129.0946,43.2882],[129.0861,43.2806],[129.0836,43.2645],[129.0716,43.26],[129.0793,43.2404],[129.0884,43.2262],[129.0695,43.2168],[129.0672,43.2089],[129.0358,43.1955],[129.0396,43.1824],[129.0323,43.1717],[129.0319,43.1603],[129.0396,43.142],[129.053,43.1384],[129.0533,43.1271],[129.0763,43.1161],[129.0891,43.119],[129.1164,43.1178],[129.1562,43.1082],[129.1664,43.0925],[129.1752,43.0881],[129.1751,43.0655],[129.1679,43.0576],[129.1714,43.0448],[129.1698,43.0294],[129.195,43.0154],[129.2052,42.9913],[129.222,42.9798],[129.2476,42.9509],[129.2515,42.9392],[129.2603,42.935],[129.258,42.9238],[129.2716,42.9193],[129.2807,42.9089],[129.2845,42.8933],[129.2774,42.8862],[129.2996,42.8458],[129.3131,42.8367],[129.3122,42.8129],[129.3031,42.7948],[129.3074,42.7912],[129.3372,42.7928],[129.3532,42.7983],[129.3815,42.8067],[129.3886,42.8217],[129.4066,42.8266],[129.4106,42.8375],[129.4068,42.8509],[129.4182,42.8687],[129.4409,42.8741],[129.4556,42.8469],[129.4572,42.8371],[129.4985,42.8441],[129.5722,42.8514],[129.5837,42.858],[129.5944,42.8714],[129.599,42.8836],[129.6092,42.8862],[129.6323,42.882],[129.6473,42.8868],[129.6509,42.8932],[129.6684,42.8913],[129.6941,42.9]]]},"properties":{"region_code":"CN-22-2224-222401","parent_region_code":"CN-22-2224","name":"延吉市","level":"county","has_children":false,"full_path":"中国 / 吉林省 / 延边朝鲜族自治州 / 延吉市","source_admin_code":"222401","osm_relation_id":2761940}},
{"type":"Feature","geometry":{"type":"Polygon","coordinates":[[[129.6941,42.9],[129.6963,42.8885],[129.7051,42.8822],[129.7141,42.8649],[129.7065,42.8618],[129.6993,42.8483],[129.71,42.848],[129.7139,42.8377],[129.7025,42.8318],[129.6958,42.8188],[129.6764,42.8113],[129.6762,42.7924],[129.6976,42.7945],[129.7242,42.7891],[129.735,42.7961],[129.7507,42.795],[129.7562,42.7896],[129.7914,42.7807],[129.7924,42.7765],[129.8087,42.7905],[129.8088,42.8047],[129.8014,42.8148],[129.8077,42.8229],[129.8147,42.8515],[129.8378,42.8678],[129.8431,42.8955],[129.8385,42.9041],[129.8445,42.9213],[129.8593,42.916],[129.8692,42.9192],[129.8517,42.9426],[129.8502,42.9586],[129.8685,42.9732],[129.8921,42.9713],[129.9079,42.967],[129.9162,42.9779],[129.8785,42.9813],[129.8805,42.9951],[129.9004,43.005],[129.9205,43.0084],[129.9501,43.009],[129.9572,43.0057],[129.9503,42.9885],[129.9541,42.9787],[129.9839,42.97],[130.0113,42.9709],[130.0322,42.9667],[130.0415,42.9717],[130.0579,42.9666],[130.0653,42.9691],[130.0616,42.9831],[130.0775,43.0139],[130.0778,43.0238],[130.064,43.0317],[130.0616,43.0588],[130.0786,43.0788],[130.108,43.0927],[130.1183,43.1048],[130.1199,43.128],[130.1249,43.1372],[130.1187,43.1445],[130.0894,43.1456],[130.0818,43.1373],[130.039,43.1304],[130.0114,43.1338],[129.9871,43.1343],[129.9679,43.1371],[129.967,43.1483],[129.9572,43.1552],[129.9527,43.149],[129.9317,43.1531],[129.9039,43.1363],[129.8955,43.1347],[129.87,43.1411],[129.8674,43.1465],[129.8445,43.1581],[129.82,43.1426],[129.8034,43.1456],[129.7876,43.1404],[129.777,43.1249],[129.7661,43.1212],[129.7435,43.1219],[129.7265,43.1315],[129.7294,43.1477],[129.7183,43.152],[129.7092,43.168],[129.6951,43.1662],[129.6879,43.1707],[129.6698,43.1619],[129.6561,43.1598],[129.6578,43.1432],[129.6632,43.139],[129.6511,43.1235],[129.6529,43.1182],[129.6366,43.1089],[129.6078,43.1098],[129.602,43.0978],[129.5883,43.0965],[129.587,43.088],[129.5772,43.0768],[129.5876,43.049],[129.5931,43.048],[129.5962,43.0261],[129.5628,43.0181],[129.5423,43.0002],[129.5374,42.9765],[129.5449,42.9631],[129.5343,42.9349],[129.5538,42.9238],[129.5906,42.9164],[129.5993,42.9188],[129.6117,42.9078],[129.6241,42.9203],[129.6367,42.9201],[129.6481,42.9264],[129.661,42.9226],[129.6735,42.9243],[129.6799,42.9128],[129.6905,42.9148],[129.6941,42.9]]]},"properties":{"region_code":"CN-22-2224-222402","parent_region_code":"CN-22-2224","name":"图们市","level":"county","has_children":false,"full_path":"中国 / 吉林省 / 延边朝鲜族自治州 / 图们市","source_admin_code":"222402","osm_relation_id":2761938}},
{"type":"Feature","geometry":{"type":"Polygon","coordinates":[[[129.2104,43.4099],[129.1824,43.4171],[129.1692,43.4171],[129.1558,43.4335],[129.157,43.4422],[129.1523,43.4699],[129.1538,43.4818],[129.1496,43.4922],[129.1317,43.4965],[129.121,43.5076],[129.1073,43.5158],[129.0953,43.531],[129.0903,43.5466],[129.0506,43.5423],[129.0339,43.5382],[129.007,43.5207],[128.9761,43.5345],[128.9581,43.535],[128.9396,43.5535],[128.9186,43.5507],[128.9069,43.5409],[128.872,43.5381],[128.8593,43.5564],[128.8477,43.5555],[128.8444,43.5736],[128.8283,43.5856],[128.8186,43.6248],[128.8022,43.6509],[128.7992,43.6647],[128.7804,43.6843],[128.7833,43.6926],[128.7777,43.6998],[128.7775,43.7133],[128.7651,43.7176],[128.7614,43.7302],[128.7472,43.725],[128.7214,43.738],[128.7289,43.7491],[128.7531,43.7579],[128.745,43.7796],[128.7359,43.7921],[128.734,43.8028],[128.7122,43.8161],[128.7143,43.8223],[128.7342,43.8427],[128.7543,43.8554],[128.7216,43.8887],[128.6892,43.9014],[128.6877,43.8937],[128.6731,43.8897],[128.6639,43.8948],[128.6559,43.888],[128.6417,43.8924],[128.6304,43.8886],[128.6227,43.9219],[128.6386,43.9336],[128.634,43.9463],[128.6178,43.948],[128.5879,43.9754],[128.5779,43.9885],[128.5789,44.0005],[128.5705,44.0149],[128.5693,44.0451],[128.5596,44.0481],[128.5536,44.066],[128.5283,44.0897],[128.5229,44.1094],[128.5136,44.1176],[128.5018,44.1211],[128.4854,44.1355],[128.4754,44.1506],[128.4628,44.1572],[128.4553,44.1991],[128.4332,44.2046],[128.4081,44.2015],[128.3916,44.1958],[128.3745,44.1826],[128.3685,44.1666],[128.3518,44.1502],[128.3373,44.1489],[128.3258,44.1423],[128.326,44.1333],[128.2942,44.1231],[128.2769,44.1279],[128.2715,44.1375],[128.2589,44.1345],[128.242,44.119],[128.2354,44.1037],[128.2393,44.0946],[128.2271,44.0802],[128.2246,44.072],[128.2075,44.0601],[128.2018,44.0634],[128.1756,44.0478],[128.1498,44.0395],[128.1288,44.051],[128.1021,44.0438],[128.082,44.057],[128.0826,44.0665],[128.0728,44.0778],[128.0717,44.0949],[128.0548,44.1086],[128.037,44.1014],[128.0194,44.1061],[128.0017,44.0924],[127.9757,44.0882],[127.9437,44.0861],[127.9286,44.0754],[127.9017,44.0623],[127.8835,44.0677],[127.8591,44.06],[127.8644,44.053],[127.8114,44.0171],[127.8017,44.0159],[127.7941,44.0057],[127.7774,43.9937],[127.78,43.9875],[127.7733,43.9685],[127.7752,43.9527],[127.77,43.935],[127.7884,43.9146],[127.8445,43.8939],[127.8445,43.8857],[127.8546,43.8806],[127.8482,43.8558],[127.8306,43.8652],[127.8128,43.8548],[127.8069,43.8358],[127.8013,43.8275],[127.834,43.7928],[127.837,43.7674],[127.8521,43.7493],[127.8511,43.7449],[127.8704,43.7333],[127.8884,43.7277],[127.9091,43.7285],[127.9173,43.7043],[127.9048,43.7008],[127.9077,43.6929],[127.8995,43.6741],[127.9105,43.6545],[127.8905,43.6365],[127.8903,43.6222],[127.8793,43.6181],[127.8587,43.6221],[127.8478,43.6144],[127.8474,43.6076],[127.8351,43.5926],[127.8238,43.596],[127.8095,43.5879],[127.8043,43.5783],[127.7856,43.5623],[127.7839,43.551],[127.7707,43.5527],[127.7626,43.5383],[127.7681,43.5241],[127.7553,43.521],[127.7375,43.5014],[127.721,43.5039],[127.7125,43.5013],[127.6918,43.4824],[127.7005,43.4751],[127.7009,43.4614],[127.6909,43.449],[127.6898,43.4362],[127.7056,43.4242],[127.6995,43.4067],[127.6928,43.3998],[127.698,43.3924],[127.6799,43.3645],[127.6766,43.3522],[127.6652,43.3464],[127.6418,43.3439],[127.6337,43.3378],[127.6182,43.3386],[127.6118,43.3322],[127.6279,43.321],[127.6237,43.3099],[127.6117,43.2984],[127.6351,43.2904],[127.6508,43.2819],[127.6559,43.2682],[127.639,43.2473],[127.6268,43.2215],[127.6199,43.2127],[127.5827,43.1957],[127.5624,43.1799],[127.5572,43.1645],[127.5363,43.1478],[127.5041,43.1394],[127.4737,43.1371],[127.4917,43.1211],[127.4983,43.1097],[127.4884,43.087],[127.4919,43.0632],[127.4908,43.0501],[127.4733,43.042],[127.4634,43.029],[127.4765,43.0212],[127.4921,43.0192],[127.5201,42.9877],[127.5754,42.9656],[127.6163,42.9464],[127.6476,42.9142],[127.6635,42.9043],[127.6907,42.8979],[127.7055,42.8889],[127.7223,42.8904],[127.7383,42.8878],[127.748,42.8994],[127.7685,42.8924],[127.7776,42.8788],[127.7887,42.8718],[127.8013,42.8762],[127.819,42.8658],[127.8125,42.8598],[127.8095,42.8385],[127.8233,42.8319],[127.8292,42.8166],[127.8466,42.8088],[127.8313,42.7862],[127.8269,42.7725],[127.8287,42.7595],[127.8414,42.7574],[127.8493,42.751],[127.8637,42.7485],[127.8599,42.7379],[127.8667,42.7297],[127.8762,42.7227],[127.8952,42.7155],[127.911,42.7054],[127.9257,42.7274],[127.9538,42.7478],[127.9433,42.7798],[127.954,42.7883],[127.9948,42.7705],[128.0058,42.761],[128.0129,42.7617],[128.032,42.7538],[128.062,42.7584],[128.0747,42.767],[128.0929,42.7657],[128.1168,42.7598],[128.1306,42.7657],[128.1464,42.7838],[128.14,42.7916],[128.1358,42.8084],[128.148,42.8226],[128.1552,42.8419],[128.1671,42.8493],[128.1683,42.8594],[128.1452,42.8675],[128.1328,42.8679],[128.1166,42.8741],[128.1232,42.8935],[128.1203,42.9],[128.101,42.9097],[128.0846,42.9268],[128.0876,42.9349],[128.0843,42.9464],[128.0916,42.9512],[128.0962,42.9641],[128.1083,42.9753],[128.1252,42.9826],[128.1167,42.9947],[128.1175,43.0032],[128.1292,43.0052],[128.1269,43.0161],[128.1095,43.0222],[128.0842,43.0167],[128.0633,43.0283],[128.0716,43.0456],[128.0673,43.0548],[128.0763,43.0635],[128.0905,43.0605],[128.1161,43.0728],[128.1282,43.0673],[128.139,43.0689],[128.1478,43.0776],[128.1701,43.0718],[128.1802,43.0779],[128.196,43.0765],[128.2204,43.0808],[128.2315,43.0917],[128.2276,43.1066],[128.2538,43.1325],[128.2636,43.1258],[128.2784,43.1223],[128.2935,43.1281],[128.2901,43.1367],[128.2998,43.1438],[128.3141,43.1385],[128.3293,43.1399],[128.3422,43.1244],[128.3573,43.1193],[128.381,43.13],[128.4088,43.1216],[128.4306,43.1258],[128.442,43.1227],[128.454,43.1102],[128.476,43.1162],[128.4862,43.1158],[128.503,43.1019],[128.5143,43.1113],[128.5751,43.1082],[128.5783,43.0997],[128.5946,43.0947],[128.6026,43.0829],[128.6166,43.0868],[128.6349,43.0998],[128.6342,43.1151],[128.6454,43.122],[128.6604,43.1206],[128.6773,43.1276],[128.6664,43.1387],[128.6683,43.1469],[128.654,43.1744],[128.6613,43.184],[128.6435,43.2015],[128.6318,43.2212],[128.641,43.2384],[128.6405,43.2482],[128.6707,43.2711],[128.6748,43.2828],[128.6878,43.2838],[128.7045,43.2985],[128.7133,43.2928],[128.7331,43.2878],[128.7328,43.2817],[128.7449,43.2744],[128.7548,43.2808],[128.7688,43.2961],[128.7682,43.3077],[128.7799,43.3102],[128.7969,43.3198],[128.8166,43.3274],[128.8302,43.3197],[128.844,43.3227],[128.8461,43.3343],[128.8529,43.3377],[128.873,43.3381],[128.8763,43.356],[128.8908,43.3581],[128.9127,43.3774],[128.9192,43.3759],[128.9483,43.3886],[128.9548,43.3962],[128.9663,43.3943],[128.989,43.3986],[129.001,43.3877],[129.0199,43.3894],[129.046,43.3783],[129.0726,43.3811],[129.0981,43.3899],[129.1107,43.3823],[129.1314,43.362],[129.1611,43.3557],[129.1723,43.366],[129.1767,43.3796],[129.1712,43.3862],[129.183,43.3913],[129.2056,43.3959],[129.2104,43.4099]]]},"properties":{"region_code":"CN-22-2224-222403","parent_region_code":"CN-22-2224","name":"敦化市","level":"county","has_children":false,"full_path":"中国 / 吉林省 / 延边朝鲜族自治州 / 敦化市","source_admin_code":"222403","osm_relation_id":2761934}},
{"type":"Feature","geometry":{"type":"Polygon","coordinates":[[[130.0653,42.9691],[130.0909,42.9833],[130.1128,42.9873],[130.122,42.9856],[130.1291,42.9771],[130.1424,42.9786],[130.1453,42.9714],[130.1149,42.9545],[130.1167,42.9438],[130.1314,42.9347],[130.1013,42.9272],[130.105,42.9125],[130.1221,42.9105],[130.1386,42.9013],[130.1621,42.9131],[130.1731,42.913],[130.2095,42.9037],[130.2304,42.9019],[130.2496,42.9065],[130.2608,42.903],[130.2562,42.8908],[130.2595,42.8761],[130.2541,42.8711],[130.2401,42.8458],[130.2427,42.8387],[130.2343,42.8138],[130.2347,42.8046],[130.225,42.7921],[130.228,42.7828],[130.2417,42.7668],[130.2412,42.7586],[130.2327,42.7426],[130.2325,42.7338],[130.2473,42.719],[130.2497,42.707],[130.2575,42.7028],[130.2837,42.6989],[130.2917,42.6927],[130.2978,42.6734],[130.3148,42.6518],[130.3435,42.6378],[130.3643,42.6226],[130.3778,42.5993],[130.3939,42.5975],[130.4165,42.6111],[130.4342,42.5987],[130.4185,42.5824],[130.4122,42.5677],[130.4313,42.5481],[130.4531,42.5448],[130.4648,42.5463],[130.4821,42.5609],[130.4761,42.5789],[130.4657,42.5872],[130.4666,42.6012],[130.4733,42.6101],[130.4882,42.6174],[130.5053,42.6164],[130.5179,42.6072],[130.5082,42.5859],[130.5227,42.5645],[130.5213,42.5434],[130.5291,42.5387],[130.5401,42.5225],[130.5504,42.4907],[130.5764,42.483],[130.58,42.474],[130.5628,42.4664],[130.5596,42.4505],[130.5676,42.4348],[130.5768,42.4293],[130.6136,42.4284],[130.6356,42.4173],[130.6358,42.4263],[130.6122,42.436],[130.5948,42.4465],[130.5911,42.4652],[130.5922,42.4845],[130.5703,42.4958],[130.5583,42.5048],[130.5628,42.5181],[130.56,42.5271],[130.5673,42.5383],[130.563,42.552],[130.5749,42.5594],[130.6034,42.5557],[130.6078,42.5674],[130.6162,42.5713],[130.6256,42.5882],[130.6272,42.5976],[130.6164,42.6129],[130.6133,42.6303],[130.6055,42.6309],[130.597,42.6431],[130.5878,42.6651],[130.5807,42.6732],[130.5666,42.6793],[130.5615,42.6862],[130.5416,42.6916],[130.5214,42.7014],[130.4975,42.6922],[130.4692,42.6897],[130.4573,42.6861],[130.4477,42.7011],[130.4307,42.7071],[130.4187,42.7041],[130.4073,42.7129],[130.4057,42.7289],[130.421,42.7276],[130.4203,42.7429],[130.434,42.7528],[130.4564,42.7594],[130.4593,42.77],[130.487,42.7734],[130.5103,42.7839],[130.5259,42.7849],[130.5403,42.796],[130.5563,42.8132],[130.5716,42.8163],[130.5965,42.8169],[130.6273,42.8328],[130.641,42.8359],[130.659,42.8451],[130.68,42.8478],[130.7009,42.8441],[130.7111,42.8299],[130.7267,42.8319],[130.7319,42.8408],[130.7475,42.8425],[130.7625,42.8354],[130.7762,42.8394],[130.7737,42.8488],[130.7823,42.8606],[130.7769,42.8638],[130.7937,42.8768],[130.8281,42.8807],[130.8496,42.8674],[130.8524,42.8596],[130.8683,42.8621],[130.8821,42.8506],[130.9006,42.8568],[130.9279,42.8735],[130.9417,42.8747],[130.952,42.8645],[130.9692,42.8609],[130.9729,42.855],[130.9965,42.8561],[131.0101,42.8617],[131.0188,42.8587],[131.0354,42.8603],[131.0365,42.8702],[131.0301,42.8843],[131.0171,42.893],[131.017,42.9032],[131.0103,42.9105],[131.0264,42.9259],[131.0557,42.9157],[131.0638,42.923],[131.0826,42.9138],[131.0938,42.916],[131.1085,42.9133],[131.121,42.9285],[131.1289,42.9311],[131.1398,42.9431],[131.1347,42.9509],[131.143,42.9655],[131.1207,42.9639],[131.1072,42.9724],[131.1051,42.9844],[131.1112,43.0015],[131.0961,43.0222],[131.1065,43.0418],[131.1177,43.0538],[131.1146,43.0669],[131.1501,43.0728],[131.165,43.0733],[131.1636,43.0884],[131.1579,43.0946],[131.1654,43.1081],[131.1788,43.1154],[131.187,43.115],[131.2005,43.1281],[131.2102,43.1484],[131.2009,43.165],[131.2131,43.1784],[131.2124,43.1883],[131.1945,43.1994],[131.1928,43.2093],[131.1983,43.2192],[131.1984,43.2342],[131.2084,43.2411],[131.2251,43.2456],[131.2487,43.2674],[131.2502,43.2868],[131.2621,43.2948],[131.2576,43.3105],[131.2577,43.3288],[131.2729,43.3754],[131.2904,43.3795],[131.3112,43.3949],[131.2981,43.4169],[131.2873,43.4399],[131.3056,43.4594],[131.3057,43.4734],[131.2864,43.4715],[131.2841,43.4666],[131.2598,43.4662],[131.2477,43.4736],[131.2283,43.4728],[131.2287,43.4621],[131.2211,43.4548],[131.1963,43.4515],[131.1939,43.4394],[131.1673,43.4415],[131.1498,43.4277],[131.135,43.4232],[131.1185,43.4307],[131.1133,43.445],[131.0844,43.4549],[131.0667,43.4702],[131.0608,43.4801],[131.0401,43.4891],[131.0196,43.5058],[130.9926,43.5047],[130.9926,43.5003],[130.9772,43.4907],[130.9516,43.4833],[130.9374,43.4745],[130.9057,43.4428],[130.9012,43.4316],[130.8851,43.4311],[130.8794,43.4206],[130.8561,43.419],[130.842,43.4078],[130.8235,43.3996],[130.8184,43.4116],[130.7996,43.42],[130.7725,43.4152],[130.7623,43.4215],[130.7515,43.4193],[130.737,43.4291],[130.7175,43.4239],[130.7032,43.4027],[130.687,43.3993],[130.6807,43.3823],[130.6723,43.371],[130.7055,43.3535],[130.7148,43.3305],[130.7084,43.321],[130.7158,43.3128],[130.722,43.2961],[130.6991,43.2786],[130.7012,43.2703],[130.6873,43.2509],[130.6803,43.2362],[130.6882,43.2057],[130.6803,43.1987],[130.6614,43.1942],[130.6599,43.1832],[130.6497,43.1792],[130.6382,43.1832],[130.6253,43.1817],[130.6181,43.1756],[130.5823,43.1853],[130.56,43.1979],[130.5339,43.1987],[130.4833,43.2096],[130.48,43.2222],[130.4474,43.2274],[130.4379,43.241],[130.4264,43.2425],[130.4223,43.252],[130.4218,43.2685],[130.3964,43.2656],[130.378,43.2589],[130.3634,43.2664],[130.3506,43.2668],[130.3459,43.2523],[130.3339,43.2496],[130.3211,43.256],[130.308,43.2513],[130.2919,43.2372],[130.2795,43.2305],[130.2549,43.2344],[130.2277,43.2229],[130.2205,43.2142],[130.159,43.2077],[130.1382,43.2131],[130.1156,43.1987],[130.1199,43.1893],[130.1166,43.1739],[130.0999,43.1722],[130.0824,43.1789],[130.0537,43.1623],[130.0328,43.1721],[130.0317,43.161],[130.0122,43.1593],[130.0038,43.1676],[129.9896,43.1563],[129.9686,43.1616],[129.9572,43.1552],[129.967,43.1483],[129.9679,43.1371],[129.9871,43.1343],[130.0114,43.1338],[130.039,43.1304],[130.0818,43.1373],[130.0894,43.1456],[130.1187,43.1445],[130.1249,43.1372],[130.1199,43.128],[130.1183,43.1048],[130.108,43.0927],[130.0786,43.0788],[130.0616,43.0588],[130.064,43.0317],[130.0778,43.0238],[130.0775,43.0139],[130.0616,42.9831],[130.0653,42.9691]]]},"properties":{"region_code":"CN-22-2224-222404","parent_region_code":"CN-22-2224","name":"珲春市","level":"county","has_children":false,"full_path":"中国 / 吉林省 / 延边朝鲜族自治州 / 珲春市","source_admin_code":"222404","osm_relation_id":2761936}},
{"type":"Feature","geometry":{"type":"MultiPolygon","coordinates":[[[[129.1679,43.0576],[129.1314,43.0566],[129.1174,43.0279],[129.1224,43.0193],[129.1358,43.014],[129.1346,42.9947],[129.1411,42.9848],[129.1147,42.9833],[129.0973,42.9735],[129.0703,42.9732],[129.0473,42.9788],[129.0241,42.9761],[129.0117,42.9714],[128.9951,42.9729],[128.9895,42.9797],[128.9962,42.9886],[128.9817,42.9918],[128.9699,42.9759],[128.9406,42.9714],[128.9309,42.9647],[128.9379,42.9505],[128.9388,42.9338],[128.9506,42.9247],[128.9502,42.9145],[128.976,42.8886],[128.9875,42.8884],[128.9846,42.8736],[129.0007,42.8468],[128.9937,42.8316],[128.9999,42.8233],[129.0154,42.813],[129.0315,42.7903],[129.0423,42.7832],[129.054,42.7817],[129.0729,42.7664],[129.0867,42.7705],[129.0995,42.7694],[129.1153,42.7619],[129.1337,42.7689],[129.146,42.7637],[129.1857,42.7762],[129.2044,42.7847],[129.2229,42.7838],[129.2405,42.799],[129.2536,42.8011],[129.2941,42.7977],[129.3031,42.7948],[129.3122,42.8129],[129.3131,42.8367],[129.2996,42.8458],[129.2774,42.8862],[129.2845,42.8933],[129.2807,42.9089],[129.2716,42.9193],[129.258,42.9238],[129.2603,42.935],[129.2515,42.9392],[129.2476,42.9509],[129.222,42.9798],[129.2052,42.9913],[129.195,43.0154],[129.1698,43.0294],[129.1714,43.0448],[129.1679,43.0576]]],[[[129.3532,42.7983],[129.3577,42.7723],[129.372,42.7633],[129.3794,42.7432],[129.3937,42.7288],[129.3956,42.7178],[129.4022,42.713],[129.4047,42.686],[129.3865,42.6664],[129.3924,42.6464],[129.3862,42.6402],[129.3466,42.6324],[129.3285,42.6354],[129.3144,42.6322],[129.2983,42.6241],[129.2708,42.619],[129.2963,42.6045],[129.2997,42.5937],[129.2808,42.5818],[129.2905,42.5776],[129.2924,42.5603],[129.2665,42.546],[129.2732,42.5273],[129.2993,42.5162],[129.3041,42.4963],[129.3054,42.478],[129.3015,42.4611],[129.3176,42.4469],[129.325,42.4273],[129.3403,42.4169],[129.3565,42.4203],[129.3407,42.4319],[129.3363,42.4434],[129.3471,42.4527],[129.3629,42.456],[129.3692,42.4476],[129.3538,42.4319],[129.3576,42.4268],[129.3811,42.4231],[129.3897,42.4303],[129.3891,42.4472],[129.402,42.4504],[129.4051,42.4424],[129.4286,42.4318],[129.4365,42.4416],[129.4498,42.4398],[129.4583,42.4228],[129.4799,42.4198],[129.4963,42.4111],[129.4985,42.3989],[129.5067,42.3932],[129.5218,42.3907],[129.5389,42.364],[129.5533,42.3683],[129.5491,42.375],[129.5665,42.3781],[129.5595,42.3932],[129.5793,42.4143],[129.5886,42.4088],[129.5971,42.4161],[129.5959,42.4252],[129.6072,42.4369],[129.5919,42.4413],[129.6092,42.4617],[129.6217,42.4584],[129.6262,42.4479],[129.6506,42.4248],[129.6606,42.4334],[129.676,42.4339],[129.6826,42.4294],[129.704,42.4259],[129.7111,42.4367],[129.7255,42.4415],[129.7263,42.4563],[129.7441,42.471],[129.7402,42.4913],[129.7318,42.4978],[129.7402,42.5091],[129.7367,42.5207],[129.7454,42.5297],[129.7466,42.5416],[129.7354,42.5579],[129.7371,42.577],[129.7517,42.5835],[129.7532,42.5957],[129.7596,42.6021],[129.7786,42.6043],[129.7795,42.6136],[129.7569,42.6143],[129.7521,42.6219],[129.7665,42.6327],[129.7485,42.6417],[129.7508,42.6509],[129.7739,42.6545],[129.7849,42.6797],[129.7926,42.6726],[129.8022,42.6817],[129.7793,42.6875],[129.7628,42.7028],[129.7596,42.7114],[129.7624,42.7284],[129.7716,42.7303],[129.7807,42.7509],[129.7821,42.7686],[129.7924,42.7765],[129.7914,42.7807],[129.7562,42.7896],[129.7507,42.795],[129.735,42.7961],[129.7242,42.7891],[129.6976,42.7945],[129.6762,42.7924],[129.6764,42.8113],[129.6958,42.8188],[129.7025,42.8318],[129.7139,42.8377],[129.71,42.848],[129.6993,42.8483],[129.7065,42.8618],[129.7141,42.8649],[129.7051,42.8822],[129.6963,42.8885],[129.6941,42.9],[129.6684,42.8913],[129.6509,42.8932],[129.6473,42.8868],[129.6323,42.882],[129.6092,42.8862],[129.599,42.8836],[129.5944,42.8714],[129.5837,42.858],[129.5722,42.8514],[129.4985,42.8441],[129.4572,42.8371],[129.4556,42.8469],[129.4409,42.8741],[129.4182,42.8687],[129.4068,42.8509],[129.4106,42.8375],[129.4066,42.8266],[129.3886,42.8217],[129.3815,42.8067],[129.3532,42.7983]]]]},"properties":{"region_code":"CN-22-2224-222405","parent_region_code":"CN-22-2224","name":"龙井市","level":"county","has_children":false,"full_path":"中国 / 吉林省 / 延边朝鲜族自治州 / 龙井市","source_admin_code":"222405","osm_relation_id":2761937}},
{"type":"Feature","geometry":{"type":"Polygon","coordinates":[[[129.3031,42.7948],[129.2941,42.7977],[129.2536,42.8011],[129.2405,42.799],[129.2229,42.7838],[129.2044,42.7847],[129.1857,42.7762],[129.146,42.7637],[129.1337,42.7689],[129.1153,42.7619],[129.0995,42.7694],[129.0867,42.7705],[129.0729,42.7664],[129.054,42.7817],[129.0423,42.7832],[129.0315,42.7903],[129.0154,42.813],[128.9999,42.8233],[128.9937,42.8316],[129.0007,42.8468],[128.9846,42.8736],[128.9875,42.8884],[128.976,42.8886],[128.9502,42.9145],[128.9506,42.9247],[128.9388,42.9338],[128.9379,42.9505],[128.922,42.9488],[128.905,42.9526],[128.8828,42.9334],[128.8882,42.9218],[128.8807,42.9091],[128.8603,42.9235],[128.8325,42.9322],[128.8259,42.9394],[128.8134,42.9292],[128.8104,42.9144],[128.8157,42.9065],[128.8103,42.8986],[128.7939,42.8993],[128.7831,42.8933],[128.7913,42.8862],[128.8027,42.8658],[128.8002,42.8603],[128.8138,42.8472],[128.8121,42.8376],[128.8177,42.8263],[128.8071,42.8221],[128.7951,42.8088],[128.7855,42.8117],[128.7761,42.803],[128.7611,42.8097],[128.7606,42.8174],[128.7499,42.8258],[128.713,42.8381],[128.703,42.8339],[128.6727,42.8485],[128.6609,42.8432],[128.6393,42.8543],[128.6196,42.8573],[128.6177,42.8636],[128.603,42.8681],[128.5984,42.8487],[128.5791,42.8395],[128.5709,42.8424],[128.5543,42.8173],[128.5346,42.8107],[128.5305,42.7996],[128.5207,42.7915],[128.5187,42.7802],[128.5262,42.7503],[128.5362,42.7382],[128.5301,42.7252],[128.5494,42.7108],[128.5638,42.7055],[128.5668,42.6967],[128.5802,42.6892],[128.58,42.6664],[128.5942,42.6582],[128.6026,42.6469],[128.5985,42.6375],[128.6035,42.6321],[128.5913,42.6197],[128.5968,42.6094],[128.6181,42.6043],[128.6223,42.5966],[128.6193,42.587],[128.6268,42.5728],[128.6218,42.5551],[128.6239,42.549],[128.6106,42.5218],[128.6156,42.5135],[128.6278,42.5091],[128.6535,42.4728],[128.6405,42.4522],[128.6375,42.4409],[128.6482,42.4294],[128.67,42.4191],[128.6775,42.4127],[128.6714,42.3948],[128.6849,42.3906],[128.6908,42.383],[128.6863,42.3675],[128.6743,42.3523],[128.6518,42.3416],[128.6571,42.3282],[128.6924,42.3062],[128.6932,42.298],[128.6679,42.2957],[128.6648,42.2896],[128.6394,42.2901],[128.6331,42.2983],[128.6217,42.2997],[128.5953,42.2862],[128.5928,42.2748],[128.5627,42.2612],[128.562,42.2449],[128.5414,42.2361],[128.5265,42.2231],[128.4941,42.2233],[128.4694,42.22],[128.4485,42.2235],[128.4312,42.2213],[128.4234,42.2136],[128.411,42.21],[128.396,42.2135],[128.3894,42.2048],[128.3923,42.1874],[128.3814,42.1712],[128.4105,42.1534],[128.4204,42.1323],[128.4431,42.1173],[128.4419,42.0967],[128.4478,42.0682],[128.4547,42.0542],[128.4574,42.0385],[128.4507,42.0161],[128.4573,42.0187],[128.4664,42.0067],[128.4828,42.0045],[128.4873,41.9988],[128.5053,41.997],[128.5441,42.0041],[128.5475,41.9993],[128.5768,42.0002],[128.5929,42.0122],[128.5894,42.0221],[128.6308,42.0371],[128.653,42.0266],[128.662,42.0184],[128.6776,42.0119],[128.7017,42.0228],[128.715,42.0377],[128.7296,42.0409],[128.745,42.0513],[128.7702,42.0316],[128.7863,42.0411],[128.8136,42.041],[128.8361,42.0242],[128.8471,42.0282],[128.8609,42.0235],[128.8787,42.0254],[128.9077,42.0093],[128.9284,42.0159],[128.9528,42.0411],[128.9582,42.0545],[128.9457,42.0633],[128.9482,42.0831],[128.9629,42.0947],[128.9753,42.0894],[128.984,42.0926],[129.0035,42.0884],[129.0088,42.0992],[129.0208,42.0976],[129.0347,42.1057],[129.0357,42.1288],[129.0429,42.135],[129.0719,42.1398],[129.0632,42.1506],[129.0795,42.1521],[129.0837,42.14],[129.0997,42.1427],[129.1143,42.1388],[129.1286,42.1499],[129.1266,42.1601],[129.1401,42.1644],[129.1647,42.163],[129.1574,42.1795],[129.161,42.1858],[129.1892,42.1892],[129.1872,42.1995],[129.2032,42.2066],[129.2216,42.2049],[129.2199,42.2166],[129.2051,42.2134],[129.1965,42.2245],[129.2068,42.2349],[129.2013,42.2429],[129.1759,42.237],[129.1763,42.2593],[129.1822,42.2644],[129.2048,42.2618],[129.2154,42.2643],[129.2253,42.2807],[129.2113,42.2818],[129.202,42.2901],[129.2235,42.2966],[129.2362,42.3087],[129.2265,42.3106],[129.2142,42.3028],[129.1946,42.3129],[129.2062,42.3213],[129.2246,42.3134],[129.2476,42.3181],[129.2555,42.3311],[129.2439,42.3416],[129.2327,42.3445],[129.2238,42.3551],[129.2366,42.3632],[129.2328,42.3719],[129.2488,42.3797],[129.2557,42.3724],[129.266,42.3755],[129.2708,42.3881],[129.29,42.379],[129.2949,42.39],[129.3175,42.383],[129.32,42.3879],[129.3027,42.4008],[129.3124,42.4068],[129.3042,42.4153],[129.3186,42.4184],[129.325,42.4273],[129.3176,42.4469],[129.3015,42.4611],[129.3054,42.478],[129.3041,42.4963],[129.2993,42.5162],[129.2732,42.5273],[129.2665,42.546],[129.2924,42.5603],[129.2905,42.5776],[129.2808,42.5818],[129.2997,42.5937],[129.2963,42.6045],[129.2708,42.619],[129.2983,42.6241],[129.3144,42.6322],[129.3285,42.6354],[129.3466,42.6324],[129.3862,42.6402],[129.3924,42.6464],[129.3865,42.6664],[129.4047,42.686],[129.4022,42.713],[129.3956,42.7178],[129.3937,42.7288],[129.3794,42.7432],[129.372,42.7633],[129.3577,42.7723],[129.3532,42.7983],[129.3372,42.7928],[129.3074,42.7912],[129.3031,42.7948]]]},"properties":{"region_code":"CN-22-2224-222406","parent_region_code":"CN-22-2224","name":"和龙市","level":"county","has_children":false,"full_path":"中国 / 吉林省 / 延边朝鲜族自治州 / 和龙市","source_admin_code":"222406","osm_relation_id":2761935}},
{"type":"Feature","geometry":{"type":"Polygon","coordinates":[[[129.6078,43.1098],[129.6366,43.1089],[129.6529,43.1182],[129.6511,43.1235],[129.6632,43.139],[129.6578,43.1432],[129.6561,43.1598],[129.6698,43.1619],[129.6879,43.1707],[129.6951,43.1662],[129.7092,43.168],[129.7183,43.152],[129.7294,43.1477],[129.7265,43.1315],[129.7435,43.1219],[129.7661,43.1212],[129.777,43.1249],[129.7876,43.1404],[129.8034,43.1456],[129.82,43.1426],[129.8445,43.1581],[129.8674,43.1465],[129.87,43.1411],[129.8955,43.1347],[129.9039,43.1363],[129.9317,43.1531],[129.9527,43.149],[129.9572,43.1552],[129.9686,43.1616],[129.9896,43.1563],[130.0038,43.1676],[130.0122,43.1593],[130.0317,43.161],[130.0328,43.1721],[130.0537,43.1623],[130.0824,43.1789],[130.0999,43.1722],[130.1166,43.1739],[130.1199,43.1893],[130.1156,43.1987],[130.1382,43.2131],[130.159,43.2077],[130.2205,43.2142],[130.2277,43.2229],[130.2549,43.2344],[130.2795,43.2305],[130.2919,43.2372],[130.308,43.2513],[130.3211,43.256],[130.3339,43.2496],[130.3459,43.2523],[130.3506,43.2668],[130.3634,43.2664],[130.378,43.2589],[130.3964,43.2656],[130.4218,43.2685],[130.4223,43.252],[130.4264,43.2425],[130.4379,43.241],[130.4474,43.2274],[130.48,43.2222],[130.4833,43.2096],[130.5339,43.1987],[130.56,43.1979],[130.5823,43.1853],[130.6181,43.1756],[130.6253,43.1817],[130.6382,43.1832],[130.6497,43.1792],[130.6599,43.1832],[130.6614,43.1942],[130.6803,43.1987],[130.6882,43.2057],[130.6803,43.2362],[130.6873,43.2509],[130.7012,43.2703],[130.6991,43.2786],[130.722,43.2961],[130.7158,43.3128],[130.7084,43.321],[130.7148,43.3305],[130.7055,43.3535],[130.6723,43.371],[130.6807,43.3823],[130.687,43.3993],[130.7032,43.4027],[130.7175,43.4239],[130.737,43.4291],[130.7515,43.4193],[130.7623,43.4215],[130.7725,43.4152],[130.7996,43.42],[130.8184,43.4116],[130.8235,43.3996],[130.842,43.4078],[130.8561,43.419],[130.8794,43.4206],[130.8851,43.4311],[130.8541,43.4363],[130.8348,43.4567],[130.824,43.4773],[130.817,43.4999],[130.7964,43.5048],[130.7853,43.5212],[130.7657,43.5258],[130.7549,43.5321],[130.7522,43.5404],[130.7288,43.5424],[130.7217,43.5578],[130.697,43.5576],[130.6925,43.5658],[130.6655,43.566],[130.6601,43.5812],[130.6505,43.5783],[130.6419,43.5847],[130.6246,43.5806],[130.6169,43.588],[130.6243,43.6089],[130.6172,43.6217],[130.6009,43.6176],[130.5894,43.6187],[130.5798,43.6117],[130.5642,43.6238],[130.5514,43.6275],[130.5343,43.6254],[130.5175,43.6293],[130.4959,43.6383],[130.4831,43.65],[130.4666,43.6552],[130.4427,43.6442],[130.4304,43.6438],[130.4057,43.6505],[130.4028,43.6682],[130.3935,43.671],[130.3871,43.7005],[130.4024,43.7157],[130.4094,43.7344],[130.4169,43.7425],[130.4082,43.7523],[130.3854,43.7646],[130.3731,43.7811],[130.377,43.7864],[130.373,43.8233],[130.3617,43.8304],[130.3571,43.8435],[130.3787,43.8566],[130.3639,43.8679],[130.3665,43.8715],[130.359,43.8882],[130.3677,43.8945],[130.3754,43.9075],[130.3627,43.9127],[130.3628,43.9193],[130.3474,43.9399],[130.3304,43.9444],[130.33,43.9568],[130.3381,43.9622],[130.344,43.9754],[130.3566,43.9896],[130.3529,43.9969],[130.3603,44.0122],[130.3514,44.022],[130.3587,44.0309],[130.3583,44.0414],[130.3383,44.0491],[130.3201,44.0372],[130.312,44.0373],[130.3007,44.0189],[130.3002,44.0005],[130.2651,43.9793],[130.2675,43.9662],[130.2539,43.9558],[130.2547,43.947],[130.2314,43.9379],[130.2197,43.9467],[130.2102,43.942],[130.1825,43.9387],[130.1772,43.9284],[130.1689,43.9292],[130.1575,43.9162],[130.1447,43.9083],[130.1471,43.8893],[130.1385,43.8778],[130.11,43.8718],[130.1027,43.8671],[130.1035,43.8495],[130.0878,43.8399],[130.0721,43.8353],[130.049,43.836],[130.0404,43.8488],[130.0181,43.8561],[130.0054,43.8732],[130.003,43.8912],[130.0105,43.9118],[130.0166,43.9145],[130.0146,43.93],[130.018,43.9414],[130.0062,43.9545],[129.9988,43.9681],[129.9848,43.9754],[129.9939,43.9845],[129.9927,43.9966],[129.978,44.0001],[129.9732,44.0126],[129.9424,44.0254],[129.9233,44.0214],[129.9005,44.0216],[129.8939,44.0097],[129.882,44.0075],[129.8734,43.9983],[129.8622,43.9998],[129.8632,44.0094],[129.8333,43.9944],[129.8251,43.9836],[129.7958,43.9624],[129.7737,43.9599],[129.7739,43.9524],[129.7879,43.9384],[129.7736,43.9305],[129.7705,43.9239],[129.7793,43.9157],[129.7731,43.8912],[129.7584,43.8902],[129.745,43.8941],[129.7317,43.8934],[129.7307,43.8835],[129.7196,43.8756],[129.692,43.8812],[129.6767,43.8755],[129.6608,43.8748],[129.6508,43.8695],[129.6422,43.878],[129.6328,43.8756],[129.6021,43.8801],[129.5868,43.872],[129.5528,43.8691],[129.5445,43.8724],[129.5196,43.868],[129.5024,43.8715],[129.4894,43.8777],[129.4784,43.8712],[129.4604,43.872],[129.4613,43.864],[129.4419,43.848],[129.4096,43.8375],[129.4015,43.8308],[129.3993,43.8164],[129.3811,43.8147],[129.3779,43.8061],[129.3505,43.7962],[129.3351,43.7977],[129.3129,43.809],[129.3037,43.806],[129.2991,43.7938],[129.283,43.7948],[129.2721,43.8107],[129.2494,43.8179],[129.2344,43.804],[129.2194,43.7961],[129.2051,43.7824],[129.2058,43.7674],[129.2144,43.7407],[129.2099,43.7217],[129.2242,43.713],[129.2194,43.6997],[129.2071,43.6941],[129.213,43.6808],[129.2067,43.6657],[129.2105,43.6465],[129.2177,43.6464],[129.2255,43.6327],[129.2262,43.6166],[129.2232,43.5914],[129.2159,43.5835],[129.2025,43.5821],[129.199,43.572],[129.1862,43.573],[129.1626,43.5591],[129.1602,43.5686],[129.1389,43.5678],[129.1347,43.5623],[129.1144,43.5532],[129.1015,43.5571],[129.0903,43.5466],[129.0953,43.531],[129.1073,43.5158],[129.121,43.5076],[129.1317,43.4965],[129.1496,43.4922],[129.1538,43.4818],[129.1523,43.4699],[129.157,43.4422],[129.1558,43.4335],[129.1692,43.4171],[129.1824,43.4171],[129.2104,43.4099],[129.2485,43.4056],[129.2691,43.4074],[129.2708,43.3946],[129.2665,43.381],[129.2724,43.3722],[129.2893,43.3648],[129.2836,43.3542],[129.3051,43.3268],[129.2965,43.3155],[129.2969,43.3055],[129.2878,43.2967],[129.2978,43.2903],[129.2965,43.2764],[129.3031,43.2667],[129.3169,43.2578],[129.3294,43.2553],[129.3336,43.2415],[129.3501,43.2339],[129.3575,43.2193],[129.3715,43.2124],[129.3873,43.194],[129.4131,43.1913],[129.4367,43.1971],[129.4469,43.1887],[129.4656,43.19],[129.4867,43.1788],[129.5037,43.178],[129.5241,43.189],[129.5448,43.1878],[129.5606,43.1779],[129.5662,43.1599],[129.5777,43.1599],[129.5875,43.1393],[129.5986,43.1284],[129.5964,43.1198],[129.6078,43.1098]]]},"properties":{"region_code":"CN-22-2224-222424","parent_region_code":"CN-22-2224","name":"汪清县","level":"county","has_children":false,"full_path":"中国 / 吉林省 / 延边朝鲜族自治州 / 汪清县","source_admin_code":"222424","osm_relation_id":2761939}},
{"type":"Feature","geometry":{"type":"Polygon","coordinates":[[[129.046,43.3783],[129.0199,43.3894],[129.001,43.3877],[128.989,43.3986],[128.9663,43.3943],[128.9548,43.3962],[128.9483,43.3886],[128.9192,43.3759],[128.9127,43.3774],[128.8908,43.3581],[128.8763,43.356],[128.873,43.3381],[128.8529,43.3377],[128.8461,43.3343],[128.844,43.3227],[128.8302,43.3197],[128.8166,43.3274],[128.7969,43.3198],[128.7799,43.3102],[128.7682,43.3077],[128.7688,43.2961],[128.7548,43.2808],[128.7449,43.2744],[128.7328,43.2817],[128.7331,43.2878],[128.7133,43.2928],[128.7045,43.2985],[128.6878,43.2838],[128.6748,43.2828],[128.6707,43.2711],[128.6405,43.2482],[128.641,43.2384],[128.6318,43.2212],[128.6435,43.2015],[128.6613,43.184],[128.654,43.1744],[128.6683,43.1469],[128.6664,43.1387],[128.6773,43.1276],[128.6604,43.1206],[128.6454,43.122],[128.6342,43.1151],[128.6349,43.0998],[128.6166,43.0868],[128.6026,43.0829],[128.5946,43.0947],[128.5783,43.0997],[128.5751,43.1082],[128.5143,43.1113],[128.503,43.1019],[128.4862,43.1158],[128.476,43.1162],[128.454,43.1102],[128.442,43.1227],[128.4306,43.1258],[128.4088,43.1216],[128.381,43.13],[128.3573,43.1193],[128.3422,43.1244],[128.3293,43.1399],[128.3141,43.1385],[128.2998,43.1438],[128.2901,43.1367],[128.2935,43.1281],[128.2784,43.1223],[128.2636,43.1258],[128.2538,43.1325],[128.2276,43.1066],[128.2315,43.0917],[128.2204,43.0808],[128.196,43.0765],[128.1802,43.0779],[128.1701,43.0718],[128.1478,43.0776],[128.139,43.0689],[128.1282,43.0673],[128.1161,43.0728],[128.0905,43.0605],[128.0763,43.0635],[128.0673,43.0548],[128.0716,43.0456],[128.0633,43.0283],[128.0842,43.0167],[128.1095,43.0222],[128.1269,43.0161],[128.1292,43.0052],[128.1175,43.0032],[128.1167,42.9947],[128.1252,42.9826],[128.1083,42.9753],[128.0962,42.9641],[128.0916,42.9512],[128.0843,42.9464],[128.0876,42.9349],[128.0846,42.9268],[128.101,42.9097],[128.1203,42.9],[128.1232,42.8935],[128.1166,42.8741],[128.1328,42.8679],[128.1452,42.8675],[128.1683,42.8594],[128.1671,42.8493],[128.1552,42.8419],[128.148,42.8226],[128.1358,42.8084],[128.14,42.7916],[128.1464,42.7838],[128.1306,42.7657],[128.1168,42.7598],[128.0929,42.7657],[128.0747,42.767],[128.062,42.7584],[128.032,42.7538],[128.0129,42.7617],[128.0058,42.761],[127.9948,42.7705],[127.954,42.7883],[127.9433,42.7798],[127.9538,42.7478],[127.9257,42.7274],[127.911,42.7054],[127.8952,42.7155],[127.8762,42.7227],[127.8667,42.7297],[127.85,42.7338],[127.8408,42.7294],[127.8462,42.7209],[127.8563,42.7168],[127.8657,42.6972],[127.8741,42.6915],[127.8791,42.6736],[127.8992,42.6679],[127.9186,42.6706],[127.9293,42.6621],[127.9441,42.6595],[127.9603,42.651],[127.9599,42.6425],[127.9477,42.6368],[127.9546,42.6285],[127.9534,42.6174],[127.9619,42.6107],[127.9748,42.6099],[127.9889,42.599],[127.9807,42.596],[127.9922,42.5784],[128.0041,42.5769],[128.015,42.5633],[128.0139,42.5398],[128.0177,42.5284],[128.028,42.524],[128.0265,42.5148],[128.0296,42.4857],[128.038,42.4774],[128.0309,42.4664],[128.0122,42.4481],[128.007,42.4241],[127.9799,42.4029],[127.9556,42.392],[127.9468,42.3726],[127.938,42.3657],[127.8977,42.3654],[127.897,42.3473],[127.8811,42.3284],[127.8275,42.3254],[127.8117,42.3212],[127.8038,42.307],[127.8045,42.2928],[127.8253,42.278],[127.8489,42.2805],[127.8568,42.272],[127.8712,42.2663],[127.8741,42.2489],[127.8897,42.2365],[127.9025,42.2403],[127.9109,42.2018],[127.9208,42.1876],[127.9377,42.1787],[127.9429,42.1709],[127.9533,42.1704],[127.9618,42.1629],[127.9559,42.1408],[127.979,42.1231],[127.9868,42.1102],[128.0061,42.0898],[128.0159,42.0745],[128.0261,42.0517],[128.0327,42.0247],[128.0564,42.0073],[128.0844,42.0204],[128.1236,42.0187],[128.1425,42.0223],[128.2849,42.0241],[128.3997,42.0165],[128.4311,42.0202],[128.4507,42.0161],[128.4574,42.0385],[128.4547,42.0542],[128.4478,42.0682],[128.4419,42.0967],[128.4431,42.1173],[128.4204,42.1323],[128.4105,42.1534],[128.3814,42.1712],[128.3923,42.1874],[128.3894,42.2048],[128.396,42.2135],[128.411,42.21],[128.4234,42.2136],[128.4312,42.2213],[128.4485,42.2235],[128.4694,42.22],[128.4941,42.2233],[128.5265,42.2231],[128.5414,42.2361],[128.562,42.2449],[128.5627,42.2612],[128.5928,42.2748],[128.5953,42.2862],[128.6217,42.2997],[128.6331,42.2983],[128.6394,42.2901],[128.6648,42.2896],[128.6679,42.2957],[128.6932,42.298],[128.6924,42.3062],[128.6571,42.3282],[128.6518,42.3416],[128.6743,42.3523],[128.6863,42.3675],[128.6908,42.383],[128.6849,42.3906],[128.6714,42.3948],[128.6775,42.4127],[128.67,42.4191],[128.6482,42.4294],[128.6375,42.4409],[128.6405,42.4522],[128.6535,42.4728],[128.6278,42.5091],[128.6156,42.5135],[128.6106,42.5218],[128.6239,42.549],[128.6218,42.5551],[128.6268,42.5728],[128.6193,42.587],[128.6223,42.5966],[128.6181,42.6043],[128.5968,42.6094],[128.5913,42.6197],[128.6035,42.6321],[128.5985,42.6375],[128.6026,42.6469],[128.5942,42.6582],[128.58,42.6664],[128.5802,42.6892],[128.5668,42.6967],[128.5638,42.7055],[128.5494,42.7108],[128.5301,42.7252],[128.5362,42.7382],[128.5262,42.7503],[128.5187,42.7802],[128.5207,42.7915],[128.5305,42.7996],[128.5346,42.8107],[128.5543,42.8173],[128.5709,42.8424],[128.5791,42.8395],[128.5984,42.8487],[128.603,42.8681],[128.6177,42.8636],[128.6196,42.8573],[128.6393,42.8543],[128.6609,42.8432],[128.6727,42.8485],[128.703,42.8339],[128.713,42.8381],[128.7499,42.8258],[128.7606,42.8174],[128.7611,42.8097],[128.7761,42.803],[128.7855,42.8117],[128.7951,42.8088],[128.8071,42.8221],[128.8177,42.8263],[128.8121,42.8376],[128.8138,42.8472],[128.8002,42.8603],[128.8027,42.8658],[128.7913,42.8862],[128.7831,42.8933],[128.7939,42.8993],[128.8103,42.8986],[128.8157,42.9065],[128.8104,42.9144],[128.8134,42.9292],[128.8259,42.9394],[128.8325,42.9322],[128.8603,42.9235],[128.8807,42.9091],[128.8882,42.9218],[128.8828,42.9334],[128.905,42.9526],[128.922,42.9488],[128.9379,42.9505],[128.9309,42.9647],[128.9406,42.9714],[128.9699,42.9759],[128.9817,42.9918],[128.9962,42.9886],[128.9895,42.9797],[128.9951,42.9729],[129.0117,42.9714],[129.0241,42.9761],[129.0473,42.9788],[129.0703,42.9732],[129.0973,42.9735],[129.1147,42.9833],[129.1411,42.9848],[129.1346,42.9947],[129.1358,43.014],[129.1224,43.0193],[129.1174,43.0279],[129.1314,43.0566],[129.1679,43.0576],[129.1751,43.0655],[129.1752,43.0881],[129.1664,43.0925],[129.1562,43.1082],[129.1164,43.1178],[129.0891,43.119],[129.0763,43.1161],[129.0533,43.1271],[129.053,43.1384],[129.0396,43.142],[129.0319,43.1603],[129.0323,43.1717],[129.0396,43.1824],[129.0358,43.1955],[129.0672,43.2089],[129.0695,43.2168],[129.0884,43.2262],[129.0793,43.2404],[129.0716,43.26],[129.0836,43.2645],[129.0861,43.2806],[129.0946,43.2882],[129.0729,43.2979],[129.0633,43.3128],[129.0391,43.3221],[129.0282,43.3435],[129.0226,43.3615],[129.046,43.3783]]]},"properties":{"region_code":"CN-22-2224-222426","parent_region_code":"CN-22-2224","name":"安图县","level":"county","has_children":false,"full_path":"中国 / 吉林省 / 延边朝鲜族自治州 / 安图县","source_admin_code":"222426","osm_relation_id":2761933}}
]}