{"type":"FeatureCollection", "features": [
{"type":"Feature","geometry":{"type":"Polygon","coordinates":[[[125.5617,43.7584],[125.5477,43.7732],[125.5716,43.8006],[125.5517,43.8079],[125.5294,43.8067],[125.4961,43.814],[125.4974,43.8245],[125.5202,43.8341],[125.5025,43.8571],[125.4761,43.8565],[125.4639,43.848],[125.4267,43.8512],[125.401,43.8274],[125.3876,43.8623],[125.352,43.8621],[125.3461,43.8821],[125.3559,43.8882],[125.3563,43.914],[125.318,43.8934],[125.3193,43.8305],[125.3031,43.8213],[125.2641,43.8091],[125.2665,43.7635],[125.277,43.7494],[125.3014,43.7637],[125.3235,43.7627],[125.3474,43.7486],[125.3454,43.7294],[125.3527,43.7217],[125.3332,43.6911],[125.3204,43.6838],[125.3287,43.6612],[125.323,43.645],[125.33,43.6204],[125.3213,43.5882],[125.3106,43.5703],[125.311,43.5519],[125.3003,43.5153],[125.3337,43.5317],[125.3551,43.5117],[125.3862,43.5352],[125.3863,43.5806],[125.4202,43.5842],[125.4442,43.6002],[125.4752,43.6117],[125.4955,43.6084],[125.5029,43.6245],[125.499,43.6369],[125.5101,43.6588],[125.4926,43.6592],[125.4709,43.6702],[125.4791,43.6791],[125.4689,43.6959],[125.5064,43.7011],[125.548,43.7241],[125.5508,43.7545],[125.5617,43.7584]]]},"properties":{"region_code":"CN-22-2201-220102","parent_region_code":"CN-22-2201","name":"南关区","level":"county","has_children":false,"full_path":"中国 / 吉林省 / 长春市 / 南关区","source_admin_code":"220102","osm_relation_id":5657437}},
{"type":"Feature","geometry":{"type":"MultiPolygon","coordinates":[[[[125.587,44.218],[125.5504,44.2205],[125.5471,44.233],[125.5223,44.2349],[125.4754,44.1907],[125.4776,44.1735],[125.4667,44.1622],[125.4807,44.1474],[125.5024,44.1387],[125.4753,44.1301],[125.4521,44.1103],[125.4166,44.1018],[125.4107,44.0842],[125.4235,44.0725],[125.4584,44.0715],[125.4714,44.0789],[125.4782,44.0987],[125.5126,44.0959],[125.5558,44.1035],[125.5983,44.1024],[125.5903,44.1334],[125.5781,44.1445],[125.5779,44.1766],[125.5856,44.1907],[125.587,44.218]]],[[[125.3563,43.914],[125.3561,43.9529],[125.3649,43.9577],[125.3944,43.9288],[125.3982,43.9168],[125.4546,43.9402],[125.4925,43.938],[125.508,43.9266],[125.5193,43.9374],[125.5291,43.9537],[125.5221,43.9646],[125.4919,43.9696],[125.4798,43.9865],[125.4843,44.0039],[125.4543,44.0063],[125.4332,43.9975],[125.4207,44.0166],[125.4186,44.0516],[125.4053,44.0567],[125.3915,44.0501],[125.3712,44.0702],[125.3756,44.0863],[125.3328,44.0725],[125.3231,44.0608],[125.3361,44.0415],[125.3148,44.0343],[125.2847,44.0622],[125.2737,44.0595],[125.2507,44.0544],[125.1927,44.0155],[125.1383,44.0011],[125.1301,43.9958],[125.1429,43.9827],[125.1457,43.9632],[125.1703,43.9708],[125.1818,43.9511],[125.2272,43.9765],[125.2435,43.9933],[125.258,43.9852],[125.2832,43.9567],[125.2624,43.927],[125.3026,43.9255],[125.2955,43.8952],[125.318,43.8934],[125.3563,43.914]]]]},"properties":{"region_code":"CN-22-2201-220103","parent_region_code":"CN-22-2201","name":"宽城区","level":"county","has_children":false,"full_path":"中国 / 吉林省 / 长春市 / 宽城区","source_admin_code":"220103","osm_relation_id":5657245}},
{"type":"Feature","geometry":{"type":"Polygon","coordinates":[[[125.318,43.8934],[125.2955,43.8952],[125.275,43.8666],[125.2377,43.8418],[125.2053,43.8125],[125.1652,43.7846],[125.1432,43.7584],[125.1183,43.7505],[125.109,43.7419],[125.1327,43.7404],[125.1822,43.7487],[125.2099,43.7243],[125.236,43.7141],[125.2453,43.7176],[125.2688,43.7082],[125.3026,43.6886],[125.2875,43.681],[125.3121,43.6557],[125.284,43.6471],[125.2857,43.635],[125.3018,43.6125],[125.2759,43.5757],[125.2725,43.5494],[125.2799,43.5354],[125.2526,43.5313],[125.2688,43.4915],[125.2349,43.4775],[125.2414,43.4494],[125.2594,43.4445],[125.3187,43.4556],[125.3307,43.4683],[125.3533,43.4785],[125.3751,43.4728],[125.375,43.4935],[125.3551,43.5117],[125.3337,43.5317],[125.3003,43.5153],[125.311,43.5519],[125.3106,43.5703],[125.3213,43.5882],[125.33,43.6204],[125.323,43.645],[125.3287,43.6612],[125.3204,43.6838],[125.3332,43.6911],[125.3527,43.7217],[125.3454,43.7294],[125.3474,43.7486],[125.3235,43.7627],[125.3014,43.7637],[125.277,43.7494],[125.2665,43.7635],[125.2641,43.8091],[125.3031,43.8213],[125.3193,43.8305],[125.318,43.8934]]]},"properties":{"region_code":"CN-22-2201-220104","parent_region_code":"CN-22-2201","name":"朝阳区","level":"county","has_children":false,"full_path":"中国 / 吉林省 / 长春市 / 朝阳区","source_admin_code":"220104","osm_relation_id":5657436}},
{"type":"Feature","geometry":{"type":"Polygon","coordinates":[[[125.5617,43.7584],[125.597,43.755],[125.6034,43.7659],[125.6331,43.7798],[125.6565,43.7811],[125.6705,43.7909],[125.696,43.7975],[125.742,43.7865],[125.7454,43.7728],[125.7607,43.7662],[125.7946,43.774],[125.7973,43.7886],[125.8,43.808],[125.8164,43.8616],[125.8117,43.8749],[125.8146,43.8959],[125.7895,43.9229],[125.7766,43.927],[125.6946,43.9146],[125.6963,43.9324],[125.6853,43.9364],[125.6542,43.9233],[125.6209,43.9325],[125.6034,43.9333],[125.5625,43.9216],[125.5353,43.901],[125.5201,43.9059],[125.5355,43.9268],[125.5193,43.9374],[125.508,43.9266],[125.4925,43.938],[125.4546,43.9402],[125.3982,43.9168],[125.3944,43.9288],[125.3649,43.9577],[125.3561,43.9529],[125.3563,43.914],[125.3559,43.8882],[125.3461,43.8821],[125.352,43.8621],[125.3876,43.8623],[125.401,43.8274],[125.4267,43.8512],[125.4639,43.848],[125.4761,43.8565],[125.5025,43.8571],[125.5202,43.8341],[125.4974,43.8245],[125.4961,43.814],[125.5294,43.8067],[125.5517,43.8079],[125.5716,43.8006],[125.5477,43.7732],[125.5617,43.7584]]]},"properties":{"region_code":"CN-22-2201-220105","parent_region_code":"CN-22-2201","name":"二道区","level":"county","has_children":false,"full_path":"中国 / 吉林省 / 长春市 / 二道区","source_admin_code":"220105","osm_relation_id":5657383}},
{"type":"Feature","geometry":{"type":"Polygon","coordinates":[[[125.1301,43.9958],[125.1079,44.0021],[125.0841,43.9739],[125.059,43.9713],[125.0604,43.9292],[125.0702,43.9101],[125.0893,43.9023],[125.103,43.8779],[125.0894,43.8758],[125.1017,43.8579],[125.1015,43.8458],[125.0893,43.8232],[125.0969,43.8104],[125.0823,43.7753],[125.0936,43.7455],[125.109,43.7419],[125.1183,43.7505],[125.1432,43.7584],[125.1652,43.7846],[125.2053,43.8125],[125.2377,43.8418],[125.275,43.8666],[125.2955,43.8952],[125.3026,43.9255],[125.2624,43.927],[125.2832,43.9567],[125.258,43.9852],[125.2435,43.9933],[125.2272,43.9765],[125.1818,43.9511],[125.1703,43.9708],[125.1457,43.9632],[125.1429,43.9827],[125.1301,43.9958]]]},"properties":{"region_code":"CN-22-2201-220106","parent_region_code":"CN-22-2201","name":"绿园区","level":"county","has_children":false,"full_path":"中国 / 吉林省 / 长春市 / 绿园区","source_admin_code":"220106","osm_relation_id":5657459}},
{"type":"Feature","geometry":{"type":"Polygon","coordinates":[[[125.4442,43.6002],[125.4501,43.5546],[125.449,43.5342],[125.4579,43.5017],[125.4744,43.4801],[125.4902,43.471],[125.4838,43.4522],[125.4977,43.4503],[125.5095,43.4339],[125.4895,43.4198],[125.5218,43.4097],[125.5772,43.4027],[125.5715,43.3756],[125.5415,43.3647],[125.5362,43.357],[125.5919,43.3113],[125.6086,43.3083],[125.6229,43.2946],[125.6766,43.2726],[125.6917,43.26],[125.737,43.2773],[125.7679,43.2861],[125.7944,43.3074],[125.8098,43.3133],[125.8393,43.2925],[125.8881,43.2996],[125.9228,43.3155],[125.9442,43.3207],[125.952,43.335],[125.9716,43.3348],[126.0002,43.3426],[126.0133,43.3516],[126.0079,43.3687],[125.9943,43.3773],[125.9702,43.4117],[125.9604,43.4049],[125.9399,43.4136],[125.9307,43.4324],[125.8769,43.459],[125.8636,43.4865],[125.8489,43.4931],[125.8607,43.5078],[125.8641,43.5585],[125.8761,43.5647],[125.8807,43.5916],[125.8901,43.6],[125.8808,43.6168],[125.8844,43.6419],[125.8708,43.6584],[125.8543,43.6934],[125.8268,43.7311],[125.8276,43.7495],[125.8134,43.763],[125.8126,43.7767],[125.7973,43.7886],[125.7946,43.774],[125.7607,43.7662],[125.7454,43.7728],[125.742,43.7865],[125.696,43.7975],[125.6705,43.7909],[125.6565,43.7811],[125.6331,43.7798],[125.6034,43.7659],[125.597,43.755],[125.5617,43.7584],[125.5508,43.7545],[125.548,43.7241],[125.5064,43.7011],[125.4689,43.6959],[125.4791,43.6791],[125.4709,43.6702],[125.4926,43.6592],[125.5101,43.6588],[125.499,43.6369],[125.5029,43.6245],[125.4955,43.6084],[125.4752,43.6117],[125.4442,43.6002]]]},"properties":{"region_code":"CN-22-2201-220112","parent_region_code":"CN-22-2201","name":"双阳区","level":"county","has_children":false,"full_path":"中国 / 吉林省 / 长春市 / 双阳区","source_admin_code":"220112","osm_relation_id":2763990}},
{"type":"Feature","geometry":{"type":"Polygon","coordinates":[[[125.4235,44.0725],[125.4053,44.0567],[125.4186,44.0516],[125.4207,44.0166],[125.4332,43.9975],[125.4543,44.0063],[125.4843,44.0039],[125.4798,43.9865],[125.4919,43.9696],[125.5221,43.9646],[125.5291,43.9537],[125.5193,43.9374],[125.5355,43.9268],[125.5201,43.9059],[125.5353,43.901],[125.5625,43.9216],[125.6034,43.9333],[125.6209,43.9325],[125.6542,43.9233],[125.6853,43.9364],[125.6963,43.9324],[125.6946,43.9146],[125.7766,43.927],[125.7895,43.9229],[125.8146,43.8959],[125.8117,43.8749],[125.8164,43.8616],[125.8544,43.8582],[125.8837,43.8618],[125.8963,43.8538],[125.9116,43.8595],[125.9303,43.857],[125.9443,43.8474],[125.9787,43.854],[125.9834,43.8729],[126.0359,43.8796],[126.0311,43.8942],[126.0372,43.9194],[126.0151,43.9767],[125.994,43.9953],[125.9996,44.0246],[126.0363,44.059],[126.0577,44.0647],[126.0575,44.0763],[126.0834,44.1008],[126.0866,44.1128],[126.1049,44.1239],[126.1439,44.1349],[126.1593,44.1565],[126.1761,44.1617],[126.2029,44.1546],[126.2192,44.1743],[126.2674,44.1797],[126.291,44.174],[126.2901,44.1889],[126.3255,44.1851],[126.3433,44.1725],[126.3701,44.172],[126.3847,44.1798],[126.427,44.1724],[126.4542,44.1733],[126.4646,44.1834],[126.4617,44.2021],[126.4743,44.2138],[126.4931,44.2174],[126.4929,44.2362],[126.4613,44.2433],[126.4584,44.2574],[126.4693,44.2848],[126.4861,44.2923],[126.485,44.3026],[126.4641,44.314],[126.4666,44.3345],[126.4473,44.3566],[126.4666,44.3634],[126.4796,44.4075],[126.4615,44.4223],[126.4281,44.4162],[126.418,44.4261],[126.4359,44.4373],[126.4175,44.4613],[126.4178,44.4864],[126.4398,44.5001],[126.417,44.5099],[126.4082,44.5261],[126.3882,44.5154],[126.3354,44.5196],[126.2839,44.5099],[126.2385,44.5246],[126.2158,44.5246],[126.1263,44.5011],[126.0946,44.4962],[126.0341,44.4592],[125.9861,44.4538],[125.9966,44.4428],[125.9867,44.4068],[125.9921,44.3892],[125.9612,44.3934],[125.9212,44.4048],[125.9162,44.3888],[125.9376,44.3841],[125.9436,44.3599],[125.9387,44.3437],[125.9138,44.346],[125.8976,44.3303],[125.858,44.3262],[125.8534,44.3401],[125.8273,44.3451],[125.8316,44.36],[125.8165,44.3768],[125.8153,44.398],[125.7843,44.3917],[125.7797,44.3565],[125.767,44.3509],[125.7431,44.3554],[125.6894,44.3279],[125.6565,44.3257],[125.6012,44.3313],[125.6035,44.309],[125.5786,44.2789],[125.5799,44.2643],[125.5919,44.2551],[125.587,44.218],[125.5856,44.1907],[125.5779,44.1766],[125.5781,44.1445],[125.5903,44.1334],[125.5983,44.1024],[125.5558,44.1035],[125.5126,44.0959],[125.4782,44.0987],[125.4714,44.0789],[125.4584,44.0715],[125.4235,44.0725]]]},"properties":{"region_code":"CN-22-2201-220113","parent_region_code":"CN-22-2201","name":"九台区","level":"county","has_children":false,"full_path":"中国 / 吉林省 / 长春市 / 九台区","source_admin_code":"220113","osm_relation_id":2763988}},
{"type":"Feature","geometry":{"type":"Polygon","coordinates":[[[125.2737,44.0595],[125.2718,44.0895],[125.2513,44.1287],[125.2553,44.1471],[125.2494,44.1762],[125.2634,44.1848],[125.2469,44.1991],[125.2553,44.2095],[125.2905,44.2115],[125.2965,44.2068],[125.3538,44.2309],[125.3556,44.2204],[125.3762,44.2131],[125.4012,44.2373],[125.4308,44.2542],[125.4214,44.2644],[125.4136,44.2903],[125.3975,44.307],[125.4029,44.3214],[125.3715,44.3539],[125.3574,44.3544],[125.3362,44.3739],[125.3284,44.3906],[125.3425,44.4007],[125.3579,44.3985],[125.3711,44.4176],[125.376,44.4427],[125.3522,44.4556],[125.3562,44.4678],[125.3845,44.4844],[125.3755,44.4982],[125.351,44.5148],[125.3492,44.5267],[125.3764,44.5445],[125.3979,44.5534],[125.4103,44.5807],[125.435,44.5998],[125.4634,44.6148],[125.4708,44.6362],[125.5205,44.6513],[125.5305,44.6473],[125.5586,44.6514],[125.6102,44.6837],[125.6353,44.7133],[125.6225,44.7196],[125.6427,44.7425],[125.6454,44.7588],[125.6804,44.7656],[125.6764,44.7789],[125.7117,44.7995],[125.7168,44.8245],[125.7291,44.8393],[125.7563,44.8406],[125.7447,44.8556],[125.7565,44.8677],[125.7567,44.8843],[125.7474,44.8895],[125.7333,44.9204],[125.7176,44.9352],[125.6421,44.9356],[125.6368,44.9172],[125.5839,44.8836],[125.5707,44.892],[125.5141,44.8808],[125.4917,44.8803],[125.4801,44.8711],[125.4627,44.8819],[125.4444,44.8819],[125.4349,44.892],[125.4169,44.8905],[125.4023,44.8701],[125.3788,44.8697],[125.3782,44.8816],[125.3285,44.8759],[125.3217,44.8638],[125.2764,44.8489],[125.2397,44.8581],[125.2261,44.8434],[125.2468,44.8312],[125.2607,44.8339],[125.2955,44.822],[125.3064,44.8122],[125.2507,44.7934],[125.231,44.8069],[125.167,44.7854],[125.1461,44.7944],[125.1304,44.7762],[125.1072,44.7642],[125.0869,44.7647],[125.0637,44.7747],[125.036,44.7686],[125.0054,44.7765],[124.988,44.7577],[124.9574,44.7481],[124.9522,44.753],[124.8916,44.7243],[124.8622,44.7311],[124.8013,44.7021],[124.8233,44.6819],[124.7968,44.6615],[124.776,44.678],[124.765,44.661],[124.7406,44.6476],[124.7116,44.658],[124.6282,44.6392],[124.6124,44.6279],[124.622,44.6186],[124.5966,44.6002],[124.5809,44.5969],[124.5695,44.5829],[124.5464,44.5679],[124.5636,44.5516],[124.5681,44.5278],[124.5407,44.518],[124.5866,44.4896],[124.5745,44.4792],[124.5889,44.4653],[124.5997,44.4685],[124.6377,44.4464],[124.6282,44.4317],[124.606,44.4359],[124.5805,44.4268],[124.5623,44.4343],[124.5439,44.417],[124.558,44.4113],[124.5675,44.3928],[124.594,44.3881],[124.6053,44.3682],[124.6188,44.3572],[124.601,44.3356],[124.6148,44.3221],[124.6221,44.2958],[124.6129,44.2787],[124.5924,44.2625],[124.6112,44.2097],[124.6345,44.2045],[124.7039,44.2025],[124.7298,44.157],[124.7373,44.1404],[124.7582,44.1304],[124.7638,44.1118],[124.7446,44.0971],[124.7613,44.0643],[124.799,44.0391],[124.8184,44.0467],[124.8428,44.0485],[124.8552,44.0354],[124.8595,44.0198],[124.9095,44.0103],[124.93,43.9999],[124.9119,43.9876],[124.9191,43.9754],[124.916,43.9594],[124.9342,43.9432],[124.9529,43.9397],[124.96,43.9034],[124.9913,43.9139],[125.0141,43.915],[125.0334,43.9309],[125.0467,43.9167],[125.0702,43.9101],[125.0604,43.9292],[125.059,43.9713],[125.0841,43.9739],[125.1079,44.0021],[125.1301,43.9958],[125.1383,44.0011],[125.1927,44.0155],[125.2507,44.0544],[125.2737,44.0595]]]},"properties":{"region_code":"CN-22-2201-220122","parent_region_code":"CN-22-2201","name":"农安县","level":"county","has_children":false,"full_path":"中国 / 吉林省 / 长春市 / 农安县","source_admin_code":"220122","osm_relation_id":2763989}},
{"type":"Feature","geometry":{"type":"Polygon","coordinates":[[[126.0446,44.7846],[126.0601,44.7832],[126.0844,44.766],[126.1219,44.7621],[126.1466,44.7647],[126.1636,44.7524],[126.1544,44.7357],[126.164,44.7118],[126.1829,44.6988],[126.1783,44.6862],[126.1877,44.6736],[126.2113,44.6636],[126.2432,44.679],[126.2666,44.686],[126.2931,44.6618],[126.3125,44.6545],[126.3226,44.6388],[126.3245,44.6199],[126.3371,44.6028],[126.3507,44.5994],[126.3411,44.5756],[126.3603,44.5772],[126.4025,44.551],[126.4082,44.5261],[126.4479,44.549],[126.5189,44.5391],[126.5545,44.5547],[126.5589,44.5639],[126.6023,44.5733],[126.6294,44.5676],[126.6406,44.5426],[126.6537,44.5433],[126.6864,44.5344],[126.7239,44.5322],[126.7324,44.5198],[126.7538,44.5166],[126.7679,44.5236],[126.791,44.5208],[126.8065,44.5286],[126.8498,44.5347],[126.8576,44.5208],[126.8739,44.5101],[126.8931,44.5125],[126.9097,44.5294],[126.9428,44.5229],[126.9564,44.5285],[126.9933,44.5293],[127.0045,44.5501],[127.044,44.5618],[127.035,44.5873],[127.0233,44.5945],[127.0357,44.6105],[127.0369,44.6526],[127.0245,44.6741],[127.0347,44.7097],[127.0298,44.7207],[126.9912,44.7632],[126.9815,44.8045],[126.9813,44.8301],[126.9969,44.8523],[126.9927,44.8705],[127.0051,44.8884],[127.0385,44.9048],[127.0658,44.9048],[127.0832,44.9228],[127.0878,44.9417],[127.0501,44.9896],[127.041,45.0056],[127.0108,45.0232],[127.0037,45.0419],[126.9615,45.0791],[126.9663,45.0924],[126.9516,45.1174],[126.9575,45.1353],[126.9465,45.1383],[126.9224,45.1289],[126.9184,45.1403],[126.8603,45.1383],[126.8365,45.1329],[126.7956,45.1372],[126.7807,45.158],[126.756,45.1749],[126.7262,45.1752],[126.7245,45.187],[126.6893,45.1841],[126.6622,45.1946],[126.6337,45.213],[126.6135,45.2348],[126.5783,45.2488],[126.5566,45.2513],[126.5332,45.2364],[126.5161,45.2461],[126.5066,45.2385],[126.4547,45.2324],[126.4307,45.2231],[126.4256,45.2324],[126.3935,45.2192],[126.3579,45.1942],[126.3375,45.1897],[126.3136,45.1762],[126.2958,45.1873],[126.2778,45.1603],[126.262,45.1664],[126.2441,45.15],[126.1805,45.1496],[126.1652,45.1397],[126.1684,45.1223],[126.1909,45.1019],[126.1677,45.0858],[126.1759,45.0683],[126.167,45.0462],[126.1838,45.0304],[126.1816,44.9984],[126.1376,44.9786],[126.1406,44.9598],[126.1629,44.9389],[126.1838,44.9255],[126.1861,44.9142],[126.1581,44.8999],[126.1462,44.9033],[126.1412,44.9238],[126.101,44.922],[126.0919,44.8898],[126.0565,44.9004],[126.0444,44.8598],[126.0496,44.8456],[126.031,44.8024],[126.0446,44.7846]]]},"properties":{"region_code":"CN-22-2201-220182","parent_region_code":"CN-22-2201","name":"榆树市","level":"county","has_children":false,"full_path":"中国 / 吉林省 / 长春市 / 榆树市","source_admin_code":"220182","osm_relation_id":2763991}},
{"type":"Feature","geometry":{"type":"Polygon","coordinates":[[[125.587,44.218],[125.5919,44.2551],[125.5799,44.2643],[125.5786,44.2789],[125.6035,44.309],[125.6012,44.3313],[125.6565,44.3257],[125.6894,44.3279],[125.7431,44.3554],[125.767,44.3509],[125.7797,44.3565],[125.7843,44.3917],[125.8153,44.398],[125.8165,44.3768],[125.8316,44.36],[125.8273,44.3451],[125.8534,44.3401],[125.858,44.3262],[125.8976,44.3303],[125.9138,44.346],[125.9387,44.3437],[125.9436,44.3599],[125.9376,44.3841],[125.9162,44.3888],[125.9212,44.4048],[125.9612,44.3934],[125.9921,44.3892],[125.9867,44.4068],[125.9966,44.4428],[125.9861,44.4538],[126.0341,44.4592],[126.0946,44.4962],[126.1263,44.5011],[126.2158,44.5246],[126.2385,44.5246],[126.2839,44.5099],[126.3354,44.5196],[126.3882,44.5154],[126.4082,44.5261],[126.4025,44.551],[126.3603,44.5772],[126.3411,44.5756],[126.3507,44.5994],[126.3371,44.6028],[126.3245,44.6199],[126.3226,44.6388],[126.3125,44.6545],[126.2931,44.6618],[126.2666,44.686],[126.2432,44.679],[126.2113,44.6636],[126.1877,44.6736],[126.1783,44.6862],[126.1829,44.6988],[126.164,44.7118],[126.1544,44.7357],[126.1636,44.7524],[126.1466,44.7647],[126.1219,44.7621],[126.0844,44.766],[126.0601,44.7832],[126.0446,44.7846],[126.0156,44.7853],[125.9835,44.7709],[125.9715,44.7716],[125.9475,44.7597],[125.915,44.7684],[125.8957,44.8084],[125.8784,44.8111],[125.8685,44.8339],[125.8235,44.8397],[125.8111,44.8278],[125.7961,44.8364],[125.8049,44.8475],[125.7797,44.8586],[125.7803,44.8791],[125.7567,44.8843],[125.7565,44.8677],[125.7447,44.8556],[125.7563,44.8406],[125.7291,44.8393],[125.7168,44.8245],[125.7117,44.7995],[125.6764,44.7789],[125.6804,44.7656],[125.6454,44.7588],[125.6427,44.7425],[125.6225,44.7196],[125.6353,44.7133],[125.6102,44.6837],[125.5586,44.6514],[125.5305,44.6473],[125.5205,44.6513],[125.4708,44.6362],[125.4634,44.6148],[125.435,44.5998],[125.4103,44.5807],[125.3979,44.5534],[125.3764,44.5445],[125.3492,44.5267],[125.351,44.5148],[125.3755,44.4982],[125.3845,44.4844],[125.3562,44.4678],[125.3522,44.4556],[125.376,44.4427],[125.3711,44.4176],[125.3579,44.3985],[125.3425,44.4007],[125.3284,44.3906],[125.3362,44.3739],[125.3574,44.3544],[125.3715,44.3539],[125.4029,44.3214],[125.3975,44.307],[125.4136,44.2903],[125.4214,44.2644],[125.4308,44.2542],[125.4012,44.2373],[125.3762,44.2131],[125.3556,44.2204],[125.3538,44.2309],[125.2965,44.2068],[125.2905,44.2115],[125.2553,44.2095],[125.2469,44.1991],[125.2634,44.1848],[125.2494,44.1762],[125.2553,44.1471],[125.2513,44.1287],[125.2718,44.0895],[125.2737,44.0595],[125.2847,44.0622],[125.3148,44.0343],[125.3361,44.0415],[125.3231,44.0608],[125.3328,44.0725],[125.3756,44.0863],[125.3712,44.0702],[125.3915,44.0501],[125.4053,44.0567],[125.4235,44.0725],[125.4107,44.0842],[125.4166,44.1018],[125.4521,44.1103],[125.4753,44.1301],[125.5024,44.1387],[125.4807,44.1474],[125.4667,44.1622],[125.4776,44.1735],[125.4754,44.1907],[125.5223,44.2349],[125.5471,44.233],[125.5504,44.2205],[125.587,44.218]]]},"properties":{"region_code":"CN-22-2201-220183","parent_region_code":"CN-22-2201","name":"德惠市","level":"county","has_children":false,"full_path":"中国 / 吉林省 / 长春市 / 德惠市","source_admin_code":"220183","osm_relation_id":2763987}},
{"type":"Feature","geometry":{"type":"Polygon","coordinates":[[[125.109,43.7419],[125.0936,43.7455],[125.0823,43.7753],[125.0969,43.8104],[125.0893,43.8232],[125.1015,43.8458],[125.1017,43.8579],[125.0894,43.8758],[125.103,43.8779],[125.0893,43.9023],[125.0702,43.9101],[125.0467,43.9167],[125.0334,43.9309],[125.0141,43.915],[124.9913,43.9139],[124.96,43.9034],[124.9529,43.9397],[124.9342,43.9432],[124.916,43.9594],[124.9191,43.9754],[124.9119,43.9876],[124.93,43.9999],[124.9095,44.0103],[124.8595,44.0198],[124.8552,44.0354],[124.8428,44.0485],[124.8184,44.0467],[124.799,44.0391],[124.7613,44.0643],[124.7446,44.0971],[124.7638,44.1118],[124.7582,44.1304],[124.7373,44.1404],[124.7298,44.157],[124.726,44.1465],[124.6818,44.1415],[124.6491,44.121],[124.6298,44.1235],[124.5906,44.1213],[124.5566,44.1158],[124.5363,44.1192],[124.4937,44.1081],[124.4943,44.0981],[124.4396,44.0589],[124.4183,44.0347],[124.3764,44.0211],[124.3604,44.0195],[124.3163,44.0037],[124.3022,43.9888],[124.2798,43.9903],[124.2612,43.9982],[124.2445,43.9904],[124.2036,43.9932],[124.1811,43.9896],[124.1524,44.0114],[124.1278,44.0034],[124.0699,44.0187],[124.0544,44.0068],[124.0087,44.0025],[124.0112,43.9788],[124.0339,43.9246],[124.0783,43.87],[124.0766,43.8443],[124.0585,43.798],[124.0308,43.7875],[124.0405,43.7718],[124.0693,43.7485],[124.0697,43.7042],[124.0883,43.6951],[124.1033,43.7044],[124.1408,43.7012],[124.1855,43.7099],[124.2049,43.7491],[124.2176,43.7566],[124.3063,43.7612],[124.3456,43.7684],[124.4246,43.7533],[124.4597,43.759],[124.4931,43.7457],[124.5214,43.752],[124.5433,43.7407],[124.5531,43.7255],[124.5724,43.7167],[124.5931,43.688],[124.6182,43.6798],[124.6619,43.6548],[124.6749,43.6287],[124.6746,43.5907],[124.6887,43.5732],[124.6885,43.5496],[124.672,43.5124],[124.6772,43.4945],[124.7117,43.4293],[124.7256,43.42],[124.7292,43.4003],[124.751,43.3819],[124.7513,43.3661],[124.7657,43.3317],[124.7666,43.3162],[124.7512,43.2964],[124.7546,43.2769],[124.7726,43.2672],[124.7789,43.2528],[124.7956,43.2406],[124.7697,43.2262],[124.7781,43.2174],[124.7795,43.1973],[124.7928,43.1931],[124.8352,43.16],[124.8518,43.1755],[124.8346,43.1885],[124.8227,43.212],[124.862,43.2717],[124.8571,43.2827],[124.8838,43.2887],[124.9244,43.3173],[124.9113,43.3303],[124.9098,43.3486],[124.8778,43.3571],[124.8759,43.3825],[124.8643,43.3917],[124.8653,43.4182],[124.8892,43.419],[124.9104,43.4375],[124.9089,43.4589],[124.8917,43.4684],[124.8921,43.4814],[124.9087,43.4946],[124.9774,43.5138],[125.009,43.5484],[125.0296,43.5792],[125.0735,43.6005],[125.1063,43.6097],[125.1296,43.6117],[125.1762,43.6278],[125.2166,43.6345],[125.249,43.6436],[125.284,43.6471],[125.3121,43.6557],[125.2875,43.681],[125.3026,43.6886],[125.2688,43.7082],[125.2453,43.7176],[125.236,43.7141],[125.2099,43.7243],[125.1822,43.7487],[125.1327,43.7404],[125.109,43.7419]]]},"properties":{"region_code":"CN-22-2201-220184","parent_region_code":"CN-22-2201","name":"公主岭市","level":"county","has_children":false,"full_path":"中国 / 吉林省 / 长春市 / 公主岭市","source_admin_code":"220184","osm_relation_id":2763789}}
]}