{"type":"FeatureCollection", "features": [
{"type":"Feature","geometry":{"type":"Polygon","coordinates":[[[129.1483,47.9531],[129.1188,47.9258],[129.0899,47.9223],[129.05,47.8876],[128.9969,47.8672],[128.982,47.8423],[128.9216,47.8351],[128.8456,47.7805],[128.8318,47.7611],[128.8188,47.7385],[128.8256,47.7002],[128.8659,47.6648],[128.9247,47.7037],[128.9457,47.731],[128.9784,47.7129],[128.9641,47.6603],[128.9294,47.6303],[128.8867,47.5769],[128.8506,47.566],[128.8221,47.5108],[128.8287,47.4656],[128.8492,47.4444],[128.8121,47.4277],[128.8487,47.3994],[128.8603,47.3671],[128.9515,47.3753],[129.0799,47.3639],[129.0787,47.3795],[129.0289,47.4263],[129.0388,47.4691],[129.0769,47.4879],[129.0828,47.524],[129.1562,47.5382],[129.2005,47.5791],[129.2306,47.5927],[129.2918,47.5824],[129.3317,47.6065],[129.3557,47.6761],[129.4127,47.6953],[129.5274,47.687],[129.5668,47.6985],[129.6534,47.6775],[129.688,47.6808],[129.6908,47.7313],[129.7134,47.7487],[129.8683,47.7425],[129.8049,47.7584],[129.7649,47.7808],[129.7695,47.8054],[129.7395,47.8317],[129.7469,47.8654],[129.7017,47.8843],[129.7073,47.9099],[129.6807,47.9256],[129.6634,47.9664],[129.7151,47.9733],[129.6414,48.0067],[129.6154,48.0523],[129.5624,48.0349],[129.5074,48.0473],[129.4525,48.0292],[129.387,48.0309],[129.3009,48.0199],[129.2785,47.9814],[129.2415,47.9482],[129.2057,47.9337],[129.1483,47.9531]]]},"properties":{"region_code":"CN-23-2307-230717","parent_region_code":"CN-23-2307","name":"伊美区","level":"county","has_children":false,"full_path":"中国 / 黑龙江省 / 伊春市 / 伊美区","source_admin_code":"230717","osm_relation_id":5647184}},
{"type":"Feature","geometry":{"type":"Polygon","coordinates":[[[128.8318,47.7611],[128.7636,47.7909],[128.7284,47.798],[128.6231,47.7974],[128.5921,47.8368],[128.5658,47.9339],[128.4741,47.9892],[128.4368,47.9825],[128.4174,47.9606],[128.3775,47.9612],[128.3185,47.9022],[128.3428,47.8629],[128.3149,47.8371],[128.2685,47.8157],[128.2762,47.7959],[128.2566,47.7545],[128.302,47.7426],[128.3142,47.7138],[128.2875,47.6964],[128.2665,47.6498],[128.2827,47.6063],[128.2455,47.5836],[128.2498,47.5609],[128.2234,47.542],[128.2921,47.4985],[128.3135,47.4665],[128.3415,47.4608],[128.3343,47.4276],[128.3718,47.4009],[128.4428,47.3974],[128.447,47.3446],[128.4756,47.3511],[128.5315,47.4261],[128.5443,47.4431],[128.6185,47.4249],[128.6054,47.3959],[128.6301,47.3431],[128.6584,47.3169],[128.7075,47.305],[128.8044,47.3406],[128.8603,47.3671],[128.8487,47.3994],[128.8121,47.4277],[128.8492,47.4444],[128.8287,47.4656],[128.8221,47.5108],[128.8506,47.566],[128.8867,47.5769],[128.9294,47.6303],[128.9641,47.6603],[128.9784,47.7129],[128.9457,47.731],[128.9247,47.7037],[128.8659,47.6648],[128.8256,47.7002],[128.8188,47.7385],[128.8318,47.7611]]]},"properties":{"region_code":"CN-23-2307-230718","parent_region_code":"CN-23-2307","name":"乌翠区","level":"county","has_children":false,"full_path":"中国 / 黑龙江省 / 伊春市 / 乌翠区","source_admin_code":"230718","osm_relation_id":5647180}},
{"type":"Feature","geometry":{"type":"Polygon","coordinates":[[[129.1483,47.9531],[129.1825,47.9978],[129.2037,48.0439],[129.2011,48.0708],[129.1613,48.0884],[129.1474,48.0509],[129.1203,48.039],[129.0521,48.0766],[129.0161,48.1107],[128.9323,48.1601],[128.87,48.2118],[128.8425,48.2496],[128.7997,48.2539],[128.784,48.2734],[128.7649,48.3455],[128.7382,48.399],[128.6722,48.4088],[128.5568,48.3729],[128.5341,48.3779],[128.4467,48.3541],[128.3567,48.2535],[128.3347,48.2033],[128.3436,48.1665],[128.3109,48.1458],[128.2438,48.1505],[128.189,48.1271],[128.126,48.0757],[128.1696,48.0496],[128.1449,48.0307],[128.1541,47.9486],[128.2189,47.9438],[128.2497,47.9207],[128.3185,47.9022],[128.3775,47.9612],[128.4174,47.9606],[128.4368,47.9825],[128.4741,47.9892],[128.5658,47.9339],[128.5921,47.8368],[128.6231,47.7974],[128.7284,47.798],[128.7636,47.7909],[128.8318,47.7611],[128.8456,47.7805],[128.9216,47.8351],[128.982,47.8423],[128.9969,47.8672],[129.05,47.8876],[129.0899,47.9223],[129.1188,47.9258],[129.1483,47.9531]]]},"properties":{"region_code":"CN-23-2307-230719","parent_region_code":"CN-23-2307","name":"友好区","level":"county","has_children":false,"full_path":"中国 / 黑龙江省 / 伊春市 / 友好区","source_admin_code":"230719","osm_relation_id":5647194}},
{"type":"Feature","geometry":{"type":"Polygon","coordinates":[[[129.8661,48.3138],[129.9345,48.2775],[129.9909,48.2119],[130.0362,48.1946],[130.0932,48.1407],[130.1219,48.1412],[130.1723,48.1723],[130.2162,48.1704],[130.2394,48.1876],[130.2668,48.2787],[130.3446,48.2941],[130.4066,48.3241],[130.4707,48.3189],[130.479,48.3],[130.5285,48.2876],[130.5741,48.3054],[130.6652,48.3037],[130.721,48.3343],[130.7567,48.3339],[130.7663,48.3585],[130.7306,48.4438],[130.7599,48.476],[130.7582,48.4973],[130.7171,48.5124],[130.6601,48.4903],[130.6084,48.5019],[130.6064,48.5737],[130.58,48.5967],[130.533,48.6047],[130.5221,48.6258],[130.5745,48.7078],[130.6068,48.775],[130.6821,48.8653],[130.6402,48.8832],[130.5594,48.8583],[130.5118,48.8543],[130.4731,48.8917],[130.4211,48.9039],[130.3402,48.8869],[130.2939,48.869],[130.2243,48.8652],[130.1904,48.9001],[130.1174,48.9434],[130.0506,48.9721],[129.9979,49.02],[129.9278,49.0327],[129.9092,49.0581],[129.9277,49.0735],[129.8991,49.106],[129.8584,49.1083],[129.86,49.151],[129.8424,49.1771],[129.7838,49.1764],[129.7513,49.2041],[129.7444,49.2644],[129.6906,49.2963],[129.6,49.2758],[129.5593,49.2895],[129.5482,49.309],[129.5366,49.398],[129.5007,49.4247],[129.4303,49.4416],[129.3688,49.4182],[129.3779,49.3757],[129.3521,49.3517],[129.2868,49.349],[129.2428,49.3747],[129.1806,49.3372],[129.1611,49.2825],[129.2054,49.2064],[129.2309,49.1768],[129.2227,49.1162],[129.2504,49.0637],[129.3122,49.0471],[129.3964,49.0494],[129.4272,49.0386],[129.4251,48.9894],[129.4721,48.9479],[129.5189,48.9327],[129.5399,48.9406],[129.6165,48.9396],[129.6493,48.9224],[129.6808,48.8851],[129.6609,48.8595],[129.6042,48.8288],[129.6087,48.7946],[129.6499,48.7551],[129.6541,48.7008],[129.6746,48.6857],[129.691,48.6453],[129.7119,48.6312],[129.7865,48.6117],[129.7834,48.5925],[129.8185,48.5616],[129.8216,48.5339],[129.8711,48.5054],[129.8535,48.4277],[129.86,48.4035],[129.8968,48.3878],[129.8718,48.3638],[129.8661,48.3138]]]},"properties":{"region_code":"CN-23-2307-230722","parent_region_code":"CN-23-2307","name":"嘉荫县","level":"county","has_children":false,"full_path":"中国 / 黑龙江省 / 伊春市 / 嘉荫县","source_admin_code":"230722","osm_relation_id":2759275}},
{"type":"Feature","geometry":{"type":"Polygon","coordinates":[[[129.5189,48.9327],[129.5026,48.8652],[129.4181,48.8045],[129.385,48.8147],[129.3524,48.8],[129.2736,48.7917],[129.2175,48.7476],[129.1957,48.7592],[129.1567,48.7348],[129.2128,48.6924],[129.2238,48.674],[129.1842,48.6484],[129.1901,48.622],[129.1229,48.6045],[129.0785,48.6034],[129.0655,48.5808],[129.0286,48.5611],[128.9804,48.4959],[128.9869,48.4811],[129.034,48.4629],[129.1536,48.4808],[129.2228,48.4432],[129.2346,48.3909],[129.2505,48.3725],[129.348,48.378],[129.442,48.3927],[129.4794,48.3858],[129.5359,48.4046],[129.6121,48.4056],[129.6928,48.426],[129.7561,48.431],[129.8535,48.4277],[129.8711,48.5054],[129.8216,48.5339],[129.8185,48.5616],[129.7834,48.5925],[129.7865,48.6117],[129.7119,48.6312],[129.691,48.6453],[129.6746,48.6857],[129.6541,48.7008],[129.6499,48.7551],[129.6087,48.7946],[129.6042,48.8288],[129.6609,48.8595],[129.6808,48.8851],[129.6493,48.9224],[129.6165,48.9396],[129.5399,48.9406],[129.5189,48.9327]]]},"properties":{"region_code":"CN-23-2307-230723","parent_region_code":"CN-23-2307","name":"汤旺县","level":"county","has_children":false,"full_path":"中国 / 黑龙江省 / 伊春市 / 汤旺县","source_admin_code":"230723","osm_relation_id":5647187}},
{"type":"Feature","geometry":{"type":"Polygon","coordinates":[[[129.7151,47.9733],[129.7675,47.9929],[129.7351,48.0242],[129.7296,48.1188],[129.7633,48.1258],[129.7887,48.1493],[129.7983,48.2097],[129.7722,48.2374],[129.7906,48.2531],[129.835,48.2584],[129.8661,48.3138],[129.8718,48.3638],[129.8968,48.3878],[129.86,48.4035],[129.8535,48.4277],[129.7561,48.431],[129.6928,48.426],[129.6121,48.4056],[129.5359,48.4046],[129.4794,48.3858],[129.442,48.3927],[129.348,48.378],[129.2505,48.3725],[129.2346,48.3909],[129.2228,48.4432],[129.1536,48.4808],[129.034,48.4629],[128.9869,48.4811],[128.9695,48.4136],[128.9189,48.3738],[128.8916,48.2713],[128.8515,48.269],[128.8425,48.2496],[128.87,48.2118],[128.9323,48.1601],[129.0161,48.1107],[129.0521,48.0766],[129.1203,48.039],[129.1474,48.0509],[129.1613,48.0884],[129.2011,48.0708],[129.2037,48.0439],[129.1825,47.9978],[129.1483,47.9531],[129.2057,47.9337],[129.2415,47.9482],[129.2785,47.9814],[129.3009,48.0199],[129.387,48.0309],[129.4525,48.0292],[129.5074,48.0473],[129.5624,48.0349],[129.6154,48.0523],[129.6414,48.0067],[129.7151,47.9733]]]},"properties":{"region_code":"CN-23-2307-230724","parent_region_code":"CN-23-2307","name":"丰林县","level":"county","has_children":false,"full_path":"中国 / 黑龙江省 / 伊春市 / 丰林县","source_admin_code":"230724","osm_relation_id":5647192}},
{"type":"Feature","geometry":{"type":"Polygon","coordinates":[[[128.7075,47.305],[128.6752,47.2924],[128.6678,47.2508],[128.65,47.2314],[128.6497,47.1889],[128.631,47.1709],[128.5671,47.1649],[128.6482,47.0141],[128.6621,46.931],[128.6442,46.7312],[128.6106,46.63],[128.5498,46.5906],[128.6167,46.5706],[128.6738,46.5737],[128.6948,46.5566],[128.6914,46.5111],[128.7098,46.485],[128.7579,46.4848],[128.7798,46.4986],[128.8332,46.4859],[128.8412,46.5077],[128.9061,46.5241],[129.0139,46.4865],[129.0747,46.5563],[129.1188,46.5282],[129.1608,46.5441],[129.2347,46.6187],[129.2738,46.6395],[129.3362,46.6563],[129.3576,46.6917],[129.3982,46.7204],[129.3557,46.7561],[129.3241,46.7636],[129.3145,46.7938],[129.2785,46.8303],[129.2149,46.8722],[129.2279,46.8954],[129.1925,46.944],[129.1699,47.0063],[129.1394,47.0638],[129.0579,47.0742],[129.0249,47.0941],[128.9859,47.1414],[128.9968,47.1688],[128.965,47.204],[128.9591,47.238],[128.8625,47.3348],[128.8603,47.3671],[128.8044,47.3406],[128.7075,47.305]]]},"properties":{"region_code":"CN-23-2307-230725","parent_region_code":"CN-23-2307","name":"大箐山县","level":"county","has_children":false,"full_path":"中国 / 黑龙江省 / 伊春市 / 大箐山县","source_admin_code":"230725","osm_relation_id":5647181}},
{"type":"Feature","geometry":{"type":"Polygon","coordinates":[[[128.8603,47.3671],[128.8625,47.3348],[128.9591,47.238],[128.965,47.204],[128.9968,47.1688],[128.9859,47.1414],[129.0249,47.0941],[129.0579,47.0742],[129.1394,47.0638],[129.1699,47.0063],[129.1925,46.944],[129.2279,46.8954],[129.2149,46.8722],[129.2785,46.8303],[129.3145,46.7938],[129.3241,46.7636],[129.3557,46.7561],[129.3982,46.7204],[129.3576,46.6917],[129.3362,46.6563],[129.3987,46.6409],[129.4329,46.6027],[129.4706,46.6217],[129.5014,46.6208],[129.5182,46.6628],[129.6012,46.7104],[129.6849,46.7217],[129.7016,46.7404],[129.6941,46.7964],[129.6239,46.8122],[129.5853,46.8801],[129.5542,46.9049],[129.5648,46.9351],[129.5318,46.9506],[129.5255,46.9769],[129.577,46.9684],[129.5856,47.0013],[129.5691,47.0235],[129.5991,47.0378],[129.6701,47.0436],[129.7102,47.0767],[129.6888,47.1148],[129.7498,47.1433],[129.7408,47.1703],[129.7743,47.1778],[129.789,47.2638],[129.8304,47.2554],[129.8703,47.2739],[129.8808,47.3052],[129.8438,47.3178],[129.7141,47.2831],[129.6916,47.3069],[129.5988,47.2807],[129.5566,47.2783],[129.5425,47.241],[129.5068,47.2334],[129.4872,47.2705],[129.4341,47.2934],[129.432,47.357],[129.3893,47.3594],[129.3007,47.316],[129.2663,47.3176],[129.1737,47.3634],[129.0799,47.3639],[128.9515,47.3753],[128.8603,47.3671]]]},"properties":{"region_code":"CN-23-2307-230726","parent_region_code":"CN-23-2307","name":"南岔县","level":"county","has_children":false,"full_path":"中国 / 黑龙江省 / 伊春市 / 南岔县","source_admin_code":"230726","osm_relation_id":5647185}},
{"type":"Feature","geometry":{"type":"Polygon","coordinates":[[[129.0799,47.3639],[129.1737,47.3634],[129.2663,47.3176],[129.3007,47.316],[129.3893,47.3594],[129.432,47.357],[129.4341,47.2934],[129.4872,47.2705],[129.5068,47.2334],[129.5425,47.241],[129.5566,47.2783],[129.5988,47.2807],[129.6916,47.3069],[129.7141,47.2831],[129.8438,47.3178],[129.8941,47.331],[129.8884,47.3621],[129.8307,47.4024],[129.8324,47.426],[129.8917,47.4435],[129.8648,47.4925],[129.8683,47.5415],[129.8928,47.5711],[129.8872,47.5996],[129.9225,47.6515],[129.8909,47.6779],[129.9056,47.7158],[129.8683,47.7425],[129.7134,47.7487],[129.6908,47.7313],[129.688,47.6808],[129.6534,47.6775],[129.5668,47.6985],[129.5274,47.687],[129.4127,47.6953],[129.3557,47.6761],[129.3317,47.6065],[129.2918,47.5824],[129.2306,47.5927],[129.2005,47.5791],[129.1562,47.5382],[129.0828,47.524],[129.0769,47.4879],[129.0388,47.4691],[129.0289,47.4263],[129.0787,47.3795],[129.0799,47.3639]]]},"properties":{"region_code":"CN-23-2307-230751","parent_region_code":"CN-23-2307","name":"金林区","level":"county","has_children":false,"full_path":"中国 / 黑龙江省 / 伊春市 / 金林区","source_admin_code":"230751","osm_relation_id":5647183}},
{"type":"Feature","geometry":{"type":"Polygon","coordinates":[[[128.5315,47.4261],[128.5469,47.4045],[128.5312,47.3555],[128.4907,47.3236],[128.4935,47.2691],[128.4495,47.2222],[128.4007,47.2085],[128.3111,47.1584],[128.2593,47.1404],[128.236,47.1036],[128.1717,47.0964],[128.0838,47.0718],[128.0521,47.0843],[128.0059,47.0726],[127.9576,47.0919],[127.9313,47.0698],[127.8645,47.0786],[127.8215,47.0636],[127.7419,47.0126],[127.6333,46.9936],[127.6805,46.9624],[127.6948,46.9328],[127.7419,46.923],[127.7668,46.8946],[127.8271,46.8601],[127.891,46.7948],[127.9455,46.7496],[127.9568,46.7302],[128.0276,46.6822],[128.0526,46.6359],[128.0946,46.6017],[128.1389,46.5831],[128.1989,46.5711],[128.2425,46.58],[128.2847,46.5691],[128.3633,46.569],[128.4221,46.6181],[128.4766,46.6174],[128.5498,46.5906],[128.6106,46.63],[128.6442,46.7312],[128.6621,46.931],[128.6482,47.0141],[128.5671,47.1649],[128.631,47.1709],[128.6497,47.1889],[128.65,47.2314],[128.6678,47.2508],[128.6752,47.2924],[128.7075,47.305],[128.6584,47.3169],[128.6301,47.3431],[128.6054,47.3959],[128.6185,47.4249],[128.5443,47.4431],[128.5315,47.4261]]]},"properties":{"region_code":"CN-23-2307-230781","parent_region_code":"CN-23-2307","name":"铁力市","level":"county","has_children":false,"full_path":"中国 / 黑龙江省 / 伊春市 / 铁力市","source_admin_code":"230781","osm_relation_id":2759276}}
]}