{"type":"FeatureCollection", "features": [
{"type":"Feature","geometry":{"type":"Polygon","coordinates":[[[124.6563,45.4384],[124.6683,45.3782],[124.7231,45.3498],[124.7098,45.3091],[124.6388,45.2795],[124.5857,45.2398],[124.6182,45.1811],[124.6463,45.1659],[124.6958,45.0957],[124.7514,45.0958],[124.7998,45.0734],[124.8638,45.0701],[124.8399,45.1154],[124.8808,45.1326],[125.005,45.0482],[125.0045,44.967],[125.076,44.9658],[125.1425,44.9341],[125.1609,44.9087],[125.1895,44.9381],[125.1927,45.0095],[125.2639,45.0542],[125.2305,45.0777],[125.2002,45.13],[125.1173,45.0939],[125.0808,45.1238],[125.0422,45.121],[125.0233,45.1586],[125.0093,45.2332],[125.0429,45.3071],[125.0902,45.3389],[125.0853,45.3802],[125.059,45.3949],[125.0231,45.4886],[124.9432,45.5035],[124.8825,45.4977],[124.8861,45.4443],[124.8351,45.453],[124.7969,45.436],[124.7408,45.4586],[124.7233,45.4399],[124.6563,45.4384]]]},"properties":{"region_code":"CN-22-2207-220702","parent_region_code":"CN-22-2207","name":"宁江区","level":"county","has_children":false,"full_path":"中国 / 吉林省 / 松原市 / 宁江区","source_admin_code":"220702","osm_relation_id":2763772}},
{"type":"Feature","geometry":{"type":"Polygon","coordinates":[[[124.6563,45.4384],[124.5789,45.4272],[124.544,45.409],[124.4982,45.424],[124.475,45.4526],[124.3952,45.4364],[124.3664,45.4567],[124.2828,45.4185],[124.2264,45.3804],[124.0701,45.3174],[124.0609,45.2908],[124.1281,45.3099],[124.14,45.2695],[124.1868,45.2732],[124.1928,45.2404],[124.242,45.2171],[124.261,45.1431],[124.3069,45.1479],[124.3211,45.0814],[124.3707,45.0857],[124.3822,45.0179],[124.3366,45.0137],[124.3531,44.9132],[124.3065,44.9089],[124.337,44.7097],[124.0894,44.6784],[124.0356,44.667],[123.8599,44.6604],[123.6101,44.6376],[123.7101,44.5542],[123.728,44.5121],[123.8653,44.4447],[123.9042,44.4099],[124.0232,44.3555],[124.0094,44.3376],[124.0917,44.2994],[124.1881,44.3619],[124.3815,44.4639],[124.5408,44.5099],[124.5681,44.5278],[124.5464,44.5679],[124.622,44.6186],[124.6282,44.6392],[124.7116,44.658],[124.7406,44.6476],[124.7968,44.6615],[124.8013,44.7021],[124.8622,44.7311],[124.8916,44.7243],[125.0054,44.7765],[125.1072,44.7642],[125.231,44.8069],[125.2955,44.822],[125.2437,44.8579],[125.1699,44.8764],[125.1609,44.9087],[125.1425,44.9341],[125.076,44.9658],[125.0045,44.967],[125.005,45.0482],[124.8808,45.1326],[124.8399,45.1154],[124.8638,45.0701],[124.7998,45.0734],[124.7514,45.0958],[124.6958,45.0957],[124.6463,45.1659],[124.6182,45.1811],[124.5857,45.2398],[124.6388,45.2795],[124.7098,45.3091],[124.7231,45.3498],[124.6683,45.3782],[124.6563,45.4384]]]},"properties":{"region_code":"CN-22-2207-220721","parent_region_code":"CN-22-2207","name":"前郭尔罗斯蒙古族自治县","level":"county","has_children":false,"full_path":"中国 / 吉林省 / 松原市 / 前郭尔罗斯蒙古族自治县","source_admin_code":"220721","osm_relation_id":2763773}},
{"type":"Feature","geometry":{"type":"Polygon","coordinates":[[[123.6101,44.6376],[123.5399,44.7051],[123.5175,44.7058],[123.4495,44.694],[123.4131,44.6697],[123.2832,44.6336],[123.2383,44.5953],[123.1421,44.5515],[123.1192,44.507],[123.118,44.4551],[123.1358,44.4272],[123.1084,44.3997],[123.1212,44.3654],[123.1903,44.3426],[123.2704,44.2514],[123.281,44.2101],[123.3174,44.1779],[123.3805,44.1594],[123.3255,44.071],[123.3839,44.0677],[123.473,44.0815],[123.5725,44.0866],[123.6345,44.0772],[123.6772,44.1082],[123.7608,44.0013],[123.8119,43.9834],[123.8514,43.9975],[123.9509,43.9961],[124.0699,44.0187],[124.1811,43.9896],[124.3022,43.9888],[124.3163,44.0037],[124.4183,44.0347],[124.4396,44.0589],[124.5363,44.1192],[124.6491,44.121],[124.7298,44.157],[124.7039,44.2025],[124.6112,44.2097],[124.5924,44.2625],[124.6221,44.2958],[124.601,44.3356],[124.6188,44.3572],[124.558,44.4113],[124.6377,44.4464],[124.5408,44.5099],[124.3815,44.4639],[124.1881,44.3619],[124.0917,44.2994],[124.0094,44.3376],[124.0232,44.3555],[123.9042,44.4099],[123.8653,44.4447],[123.728,44.5121],[123.7101,44.5542],[123.6101,44.6376]]]},"properties":{"region_code":"CN-22-2207-220722","parent_region_code":"CN-22-2207","name":"长岭县","level":"county","has_children":false,"full_path":"中国 / 吉林省 / 松原市 / 长岭县","source_admin_code":"220722","osm_relation_id":2763770}},
{"type":"Feature","geometry":{"type":"Polygon","coordinates":[[[124.0609,45.2908],[124.0815,45.2625],[124.0626,45.234],[123.9707,45.2241],[123.9116,45.2063],[123.7696,45.0832],[123.6784,45.0247],[123.6456,45.0164],[123.573,44.9618],[123.524,44.95],[123.4152,44.855],[123.4711,44.7759],[123.5199,44.727],[123.5175,44.7058],[123.5399,44.7051],[123.6101,44.6376],[123.8599,44.6604],[124.0356,44.667],[124.0894,44.6784],[124.337,44.7097],[124.3065,44.9089],[124.3531,44.9132],[124.3366,45.0137],[124.3822,45.0179],[124.3707,45.0857],[124.3211,45.0814],[124.3069,45.1479],[124.261,45.1431],[124.242,45.2171],[124.1928,45.2404],[124.1868,45.2732],[124.14,45.2695],[124.1281,45.3099],[124.0609,45.2908]]]},"properties":{"region_code":"CN-22-2207-220723","parent_region_code":"CN-22-2207","name":"干安县","level":"county","has_children":false,"full_path":"中国 / 吉林省 / 松原市 / 干安县","source_admin_code":"220723","osm_relation_id":2763774}},
{"type":"Feature","geometry":{"type":"Polygon","coordinates":[[[125.1609,44.9087],[125.1699,44.8764],[125.2437,44.8579],[125.2764,44.8489],[125.3285,44.8759],[125.4349,44.892],[125.4801,44.8711],[125.5707,44.892],[125.6368,44.9172],[125.6421,44.9356],[125.7176,44.9352],[125.7797,44.8586],[125.8685,44.8339],[125.915,44.7684],[125.9475,44.7597],[126.0156,44.7853],[126.0496,44.8456],[126.0565,44.9004],[126.101,44.922],[126.1838,44.9255],[126.1376,44.9786],[126.1816,44.9984],[126.1677,45.0858],[126.1909,45.1019],[126.1385,45.1447],[126.0777,45.1623],[125.9964,45.1607],[125.9506,45.1998],[125.9031,45.1978],[125.8095,45.2643],[125.7477,45.2958],[125.6898,45.3529],[125.7098,45.4189],[125.6816,45.4932],[125.62,45.5197],[125.5713,45.4846],[125.4928,45.4643],[125.4284,45.4601],[125.3753,45.3984],[125.3023,45.395],[125.269,45.4131],[125.1693,45.3975],[125.1289,45.406],[125.0853,45.3802],[125.0902,45.3389],[125.0429,45.3071],[125.0093,45.2332],[125.0233,45.1586],[125.0422,45.121],[125.0808,45.1238],[125.1173,45.0939],[125.2002,45.13],[125.2305,45.0777],[125.2639,45.0542],[125.1927,45.0095],[125.1895,44.9381],[125.1609,44.9087]]]},"properties":{"region_code":"CN-22-2207-220781","parent_region_code":"CN-22-2207","name":"扶余市","level":"county","has_children":false,"full_path":"中国 / 吉林省 / 松原市 / 扶余市","source_admin_code":"220781","osm_relation_id":2763771}}
]}