{"type":"FeatureCollection", "features": [
{"type":"Feature","geometry":{"type":"Polygon","coordinates":[[[122.8109,45.9627],[122.8207,45.897],[122.7954,45.8543],[122.7662,45.8553],[122.7474,45.8304],[122.7866,45.7677],[122.7532,45.7402],[122.7358,45.7035],[122.6653,45.6988],[122.6444,45.7296],[122.636,45.7697],[122.6027,45.7732],[122.5606,45.8049],[122.4988,45.8094],[122.4885,45.8591],[122.44,45.9151],[122.3553,45.9144],[122.3667,45.8528],[122.3722,45.8309],[122.3569,45.801],[122.4012,45.7807],[122.4217,45.7269],[122.4458,45.7097],[122.4505,45.6619],[122.4747,45.6398],[122.5157,45.5654],[122.5567,45.5349],[122.6082,45.5148],[122.6325,45.4718],[122.6779,45.459],[122.6981,45.4272],[122.7673,45.3848],[122.8409,45.3637],[122.909,45.37],[122.9871,45.3566],[123.0162,45.369],[123.036,45.3912],[123.0817,45.3968],[123.0935,45.4286],[123.1214,45.4511],[123.1487,45.455],[123.1816,45.5062],[123.1859,45.5332],[123.2343,45.5648],[123.2558,45.6075],[123.2409,45.6252],[123.1885,45.6321],[123.1746,45.6453],[123.1621,45.6866],[123.1787,45.7157],[123.1354,45.7234],[123.1321,45.776],[123.1001,45.8011],[123.0684,45.8138],[123.0541,45.8339],[123.0134,45.8315],[122.9767,45.8577],[122.9655,45.8913],[122.8898,45.9362],[122.8879,45.9626],[122.8109,45.9627]]]},"properties":{"region_code":"CN-22-2208-220802","parent_region_code":"CN-22-2208","name":"洮北区","level":"county","has_children":false,"full_path":"中国 / 吉林省 / 白城市 / 洮北区","source_admin_code":"220802","osm_relation_id":2763759}},
{"type":"Feature","geometry":{"type":"Polygon","coordinates":[[[123.2558,45.6075],[123.2949,45.6255],[123.3297,45.6907],[123.3864,45.7009],[123.4558,45.7298],[123.468,45.7485],[123.5451,45.7597],[123.6022,45.7452],[123.6332,45.723],[123.6877,45.7212],[123.7428,45.7378],[123.7894,45.7293],[123.8537,45.7028],[123.9183,45.7243],[123.9981,45.7229],[124.0331,45.7119],[124.0751,45.7346],[124.0477,45.7504],[124.0118,45.7458],[123.994,45.7671],[124.0576,45.7997],[124.0252,45.8299],[124.0642,45.8433],[124.0515,45.8869],[123.9956,45.9011],[123.9687,45.9233],[123.9574,45.9494],[123.9747,45.977],[124.0143,45.9879],[124.0326,46.0297],[124.0001,46.0548],[124.0074,46.0869],[123.9875,46.0937],[124.0072,46.1224],[124.0028,46.154],[123.9711,46.1747],[123.9477,46.2031],[123.9515,46.2403],[123.9119,46.2571],[123.9118,46.2912],[123.8966,46.3029],[123.8428,46.3],[123.7806,46.2657],[123.7189,46.2538],[123.6617,46.2567],[123.6137,46.2503],[123.5903,46.2324],[123.5569,46.2282],[123.4933,46.2577],[123.4504,46.2316],[123.4246,46.2418],[123.382,46.2394],[123.2805,46.2483],[123.2413,46.2715],[123.2124,46.2679],[123.1379,46.2265],[123.1224,46.2086],[123.1209,46.1725],[123.0975,46.1714],[123.1054,46.1281],[123.0642,46.1221],[123.0383,46.0972],[122.7882,46.0708],[122.8109,45.9627],[122.8879,45.9626],[122.8898,45.9362],[122.9655,45.8913],[122.9767,45.8577],[123.0134,45.8315],[123.0541,45.8339],[123.0684,45.8138],[123.1001,45.8011],[123.1321,45.776],[123.1354,45.7234],[123.1787,45.7157],[123.1621,45.6866],[123.1746,45.6453],[123.1885,45.6321],[123.2409,45.6252],[123.2558,45.6075]]]},"properties":{"region_code":"CN-22-2208-220821","parent_region_code":"CN-22-2208","name":"镇赉县","level":"county","has_children":false,"full_path":"中国 / 吉林省 / 白城市 / 镇赉县","source_admin_code":"220821","osm_relation_id":2763762}},
{"type":"Feature","geometry":{"type":"Polygon","coordinates":[[[123.3364,45.201],[123.2921,45.2042],[123.2045,45.1669],[123.1273,45.1444],[123.0066,45.1377],[122.9741,45.1441],[122.9174,45.1293],[122.864,45.133],[122.7878,45.1187],[122.759,45.0791],[122.6772,45.0544],[122.6007,45.0405],[122.5444,45.0495],[122.4665,45.0851],[122.4622,45.1096],[122.3231,45.1837],[122.3236,45.2177],[122.2964,45.2385],[122.2946,45.2566],[122.2315,45.274],[122.232,45.2221],[122.2094,45.1918],[122.1854,45.1799],[122.1357,45.1807],[122.1055,45.1389],[122.1114,45.0625],[122.0944,45.0232],[122.0669,45.0021],[122.0772,44.9553],[122.0741,44.9121],[122.0403,44.9112],[122.0643,44.8792],[122.0851,44.8291],[122.0838,44.8],[122.1067,44.7662],[122.094,44.7348],[122.1467,44.7418],[122.1538,44.7253],[122.1151,44.6997],[122.0966,44.6691],[122.1081,44.6123],[122.1338,44.588],[122.1236,44.5759],[122.193,44.5541],[122.22,44.5243],[122.2156,44.4834],[122.2802,44.4737],[122.2903,44.4119],[122.2844,44.305],[122.2625,44.2613],[122.3114,44.2318],[122.4875,44.2336],[122.5165,44.2475],[122.6343,44.2793],[122.6761,44.2857],[122.7077,44.3292],[122.7593,44.3727],[122.8417,44.394],[122.9036,44.4231],[123.0211,44.4947],[123.0598,44.5034],[123.1192,44.507],[123.1421,44.5515],[123.2383,44.5953],[123.2832,44.6336],[123.3595,44.6598],[123.4131,44.6697],[123.4495,44.694],[123.5175,44.7058],[123.5199,44.727],[123.4711,44.7759],[123.4152,44.855],[123.4437,44.8904],[123.486,44.9235],[123.4857,44.9578],[123.504,44.9631],[123.5073,44.9908],[123.4894,45.0114],[123.4767,45.0567],[123.4414,45.1024],[123.4233,45.1726],[123.4003,45.2038],[123.3571,45.1907],[123.3364,45.201]]]},"properties":{"region_code":"CN-22-2208-220822","parent_region_code":"CN-22-2208","name":"通榆县","level":"county","has_children":false,"full_path":"中国 / 吉林省 / 白城市 / 通榆县","source_admin_code":"220822","osm_relation_id":2763761}},
{"type":"Feature","geometry":{"type":"Polygon","coordinates":[[[122.3667,45.8528],[122.315,45.8421],[122.3137,45.828],[122.2533,45.7923],[122.23,45.8292],[122.1936,45.8545],[122.0848,45.8801],[122.0769,45.915],[122.0078,45.9597],[121.955,45.9841],[121.9212,45.9861],[121.9169,46.0023],[121.8571,46.0006],[121.8167,46.0207],[121.7577,45.9972],[121.7976,45.9664],[121.8148,45.9163],[121.7963,45.871],[121.7624,45.8414],[121.7469,45.7927],[121.7153,45.7828],[121.683,45.7606],[121.6496,45.7682],[121.6357,45.7524],[121.6639,45.721],[121.7069,45.6998],[121.75,45.6887],[121.8043,45.6848],[121.8053,45.7025],[121.86,45.7176],[121.9431,45.7091],[121.9634,45.6904],[121.9972,45.6213],[121.989,45.5965],[121.962,45.5902],[121.9659,45.5675],[121.987,45.5511],[121.9964,45.5065],[122.0148,45.489],[122.1126,45.4518],[122.1602,45.44],[122.1744,45.4083],[122.1413,45.3719],[122.1395,45.3027],[122.1457,45.296],[122.2315,45.274],[122.2946,45.2566],[122.2964,45.2385],[122.3236,45.2177],[122.3231,45.1837],[122.4622,45.1096],[122.4665,45.0851],[122.5444,45.0495],[122.6007,45.0405],[122.6772,45.0544],[122.759,45.0791],[122.7878,45.1187],[122.864,45.133],[122.9174,45.1293],[122.9741,45.1441],[123.0066,45.1377],[123.1273,45.1444],[123.2045,45.1669],[123.2921,45.2042],[123.3364,45.201],[123.3295,45.2477],[123.308,45.2555],[123.2732,45.3179],[123.1862,45.4131],[123.1645,45.4253],[123.1487,45.455],[123.1214,45.4511],[123.0935,45.4286],[123.0817,45.3968],[123.036,45.3912],[123.0162,45.369],[122.9871,45.3566],[122.909,45.37],[122.8409,45.3637],[122.7673,45.3848],[122.6981,45.4272],[122.6779,45.459],[122.6325,45.4718],[122.6082,45.5148],[122.5567,45.5349],[122.5157,45.5654],[122.4747,45.6398],[122.4505,45.6619],[122.4458,45.7097],[122.4217,45.7269],[122.4012,45.7807],[122.3569,45.801],[122.3722,45.8309],[122.3667,45.8528]]]},"properties":{"region_code":"CN-22-2208-220881","parent_region_code":"CN-22-2208","name":"洮南市","level":"county","has_children":false,"full_path":"中国 / 吉林省 / 白城市 / 洮南市","source_admin_code":"220881","osm_relation_id":2763760}},
{"type":"Feature","geometry":{"type":"Polygon","coordinates":[[[123.1487,45.455],[123.1645,45.4253],[123.1862,45.4131],[123.2732,45.3179],[123.308,45.2555],[123.3295,45.2477],[123.3364,45.201],[123.3571,45.1907],[123.4003,45.2038],[123.4233,45.1726],[123.4414,45.1024],[123.4767,45.0567],[123.4894,45.0114],[123.5073,44.9908],[123.504,44.9631],[123.524,44.95],[123.573,44.9618],[123.5913,44.9839],[123.6456,45.0164],[123.6784,45.0247],[123.7696,45.0832],[123.9116,45.2063],[123.9707,45.2241],[124.0626,45.234],[124.0815,45.2625],[124.0583,45.2842],[124.0701,45.3174],[124.12,45.3337],[124.1924,45.3725],[124.2264,45.3804],[124.2828,45.4185],[124.3179,45.4292],[124.3664,45.4567],[124.3443,45.4882],[124.3619,45.5223],[124.3423,45.5437],[124.2878,45.5356],[124.2541,45.557],[124.2664,45.5851],[124.2226,45.5941],[124.2305,45.62],[124.2058,45.626],[124.1561,45.6133],[124.1322,45.6343],[124.1418,45.6595],[124.1328,45.682],[124.0917,45.7032],[124.0751,45.7346],[124.0331,45.7119],[123.9981,45.7229],[123.9183,45.7243],[123.8537,45.7028],[123.7894,45.7293],[123.7428,45.7378],[123.6877,45.7212],[123.6332,45.723],[123.6022,45.7452],[123.5451,45.7597],[123.468,45.7485],[123.4558,45.7298],[123.3864,45.7009],[123.3297,45.6907],[123.2949,45.6255],[123.2558,45.6075],[123.2343,45.5648],[123.1859,45.5332],[123.1816,45.5062],[123.1487,45.455]]]},"properties":{"region_code":"CN-22-2208-220882","parent_region_code":"CN-22-2208","name":"大安市","level":"county","has_children":false,"full_path":"中国 / 吉林省 / 白城市 / 大安市","source_admin_code":"220882","osm_relation_id":2763758}}
]}