{"type":"FeatureCollection", "features": [
{"type":"Feature","geometry":{"type":"Polygon","coordinates":[[[124.3476,43.122],[124.3872,43.197],[124.4579,43.2212],[124.4669,43.2156],[124.4953,43.2369],[124.4412,43.2722],[124.3674,43.2942],[124.3305,43.2718],[124.2963,43.2786],[124.2549,43.2367],[124.2743,43.2276],[124.2783,43.1634],[124.3476,43.122]]]},"properties":{"region_code":"CN-22-2203-220302","parent_region_code":"CN-22-2203","name":"铁西区","level":"county","has_children":false,"full_path":"中国 / 吉林省 / 四平市 / 铁西区","source_admin_code":"220302","osm_relation_id":2763793}},
{"type":"Feature","geometry":{"type":"Polygon","coordinates":[[[124.3476,43.122],[124.4116,43.0661],[124.3273,42.9946],[124.3662,42.968],[124.4087,42.974],[124.4361,42.9392],[124.3598,42.8996],[124.3629,42.8803],[124.4351,42.8747],[124.4488,42.8472],[124.5337,42.8762],[124.5892,42.9129],[124.6014,42.9356],[124.6534,42.9716],[124.6711,43.0005],[124.6679,43.0264],[124.6864,43.0563],[124.7352,43.0652],[124.7726,43.0965],[124.7793,43.115],[124.8853,43.1313],[124.8352,43.16],[124.7752,43.2137],[124.7326,43.2064],[124.6925,43.1728],[124.6504,43.1716],[124.6093,43.1395],[124.5945,43.1621],[124.5258,43.1765],[124.4765,43.1999],[124.4669,43.2156],[124.4579,43.2212],[124.3872,43.197],[124.3476,43.122]]]},"properties":{"region_code":"CN-22-2203-220303","parent_region_code":"CN-22-2203","name":"铁东区","level":"county","has_children":false,"full_path":"中国 / 吉林省 / 四平市 / 铁东区","source_admin_code":"220303","osm_relation_id":2763792}},
{"type":"Feature","geometry":{"type":"Polygon","coordinates":[[[124.4669,43.2156],[124.4765,43.1999],[124.5258,43.1765],[124.5945,43.1621],[124.6093,43.1395],[124.6504,43.1716],[124.6925,43.1728],[124.7326,43.2064],[124.7752,43.2137],[124.7956,43.2406],[124.7546,43.2769],[124.7666,43.3162],[124.751,43.3819],[124.7292,43.4003],[124.6772,43.4945],[124.672,43.5124],[124.6885,43.5496],[124.6746,43.5907],[124.6749,43.6287],[124.6619,43.6548],[124.5931,43.688],[124.5724,43.7167],[124.5214,43.752],[124.4931,43.7457],[124.4597,43.759],[124.4246,43.7533],[124.3456,43.7684],[124.3063,43.7612],[124.2176,43.7566],[124.1855,43.7099],[124.0749,43.6953],[124.0464,43.6601],[124.0104,43.6548],[123.9752,43.6227],[123.9076,43.5948],[123.8578,43.5463],[123.7955,43.543],[123.7656,43.5038],[123.7665,43.4813],[123.7988,43.4799],[123.8652,43.4486],[123.8438,43.4129],[123.8605,43.3939],[123.9577,43.3388],[123.9862,43.3065],[124.0271,43.2786],[124.0917,43.2902],[124.111,43.2746],[124.1067,43.2478],[124.1443,43.2503],[124.2312,43.2316],[124.2549,43.2367],[124.2963,43.2786],[124.3305,43.2718],[124.3674,43.2942],[124.4412,43.2722],[124.4953,43.2369],[124.4669,43.2156]]]},"properties":{"region_code":"CN-22-2203-220322","parent_region_code":"CN-22-2203","name":"梨树县","level":"county","has_children":false,"full_path":"中国 / 吉林省 / 四平市 / 梨树县","source_admin_code":"220322","osm_relation_id":2763790}},
{"type":"Feature","geometry":{"type":"Polygon","coordinates":[[[124.8853,43.1313],[125.0103,43.1987],[125.0376,43.2193],[125.0589,43.2096],[125.1481,43.2253],[125.1966,43.2264],[125.2043,43.2093],[125.2567,43.1606],[125.2909,43.1398],[125.3822,43.1047],[125.3944,43.1456],[125.35,43.1574],[125.3659,43.1814],[125.3606,43.2163],[125.4404,43.2217],[125.4852,43.1788],[125.4731,43.1608],[125.4885,43.0984],[125.5467,43.0928],[125.5769,43.0695],[125.627,43.0688],[125.6536,43.056],[125.6976,43.0535],[125.7845,43.0966],[125.754,43.1273],[125.7062,43.1219],[125.6615,43.1969],[125.6399,43.2156],[125.6917,43.26],[125.6766,43.2726],[125.5919,43.3113],[125.5362,43.357],[125.5715,43.3756],[125.5772,43.4027],[125.5218,43.4097],[125.4902,43.471],[125.4579,43.5017],[125.449,43.5342],[125.4469,43.5975],[125.3863,43.5806],[125.3862,43.5352],[125.3551,43.5117],[125.375,43.4935],[125.3187,43.4556],[125.2594,43.4445],[125.2349,43.4775],[125.2688,43.4915],[125.2526,43.5313],[125.2725,43.5494],[125.2759,43.5757],[125.3018,43.6125],[125.284,43.6471],[125.1762,43.6278],[125.0735,43.6005],[125.0296,43.5792],[124.9774,43.5138],[124.9087,43.4946],[124.8917,43.4684],[124.9104,43.4375],[124.8653,43.4182],[124.8778,43.3571],[124.9098,43.3486],[124.9244,43.3173],[124.862,43.2717],[124.8227,43.212],[124.8518,43.1755],[124.8352,43.16],[124.8853,43.1313]]]},"properties":{"region_code":"CN-22-2203-220323","parent_region_code":"CN-22-2203","name":"伊通满族自治县","level":"county","has_children":false,"full_path":"中国 / 吉林省 / 四平市 / 伊通满族自治县","source_admin_code":"220323","osm_relation_id":2763794}},
{"type":"Feature","geometry":{"type":"Polygon","coordinates":[[[124.0749,43.6953],[124.0693,43.7485],[124.0308,43.7875],[124.0585,43.798],[124.0783,43.87],[124.0339,43.9246],[124.0087,44.0025],[123.9509,43.9961],[123.8514,43.9975],[123.8119,43.9834],[123.7608,44.0013],[123.7679,44.0215],[123.7266,44.0373],[123.6906,44.0787],[123.6772,44.1082],[123.6345,44.0772],[123.5725,44.0866],[123.5406,44.0763],[123.473,44.0815],[123.3839,44.0677],[123.3217,44.0686],[123.326,44.026],[123.3593,44.0115],[123.3945,43.9769],[123.3908,43.9522],[123.4227,43.9153],[123.4374,43.8748],[123.4618,43.8507],[123.4674,43.8137],[123.4923,43.7692],[123.4793,43.7609],[123.5192,43.6872],[123.5309,43.63],[123.5033,43.6222],[123.5066,43.5903],[123.4574,43.5888],[123.4473,43.5437],[123.3469,43.5659],[123.2981,43.5489],[123.3234,43.5152],[123.3104,43.4901],[123.371,43.4726],[123.4121,43.4081],[123.4339,43.4359],[123.4804,43.4428],[123.5203,43.3962],[123.5405,43.4124],[123.5785,43.375],[123.6044,43.3639],[123.691,43.3757],[123.7035,43.4121],[123.7436,43.4413],[123.7404,43.4664],[123.7665,43.4813],[123.7656,43.5038],[123.7955,43.543],[123.8578,43.5463],[123.9076,43.5948],[123.9752,43.6227],[124.0104,43.6548],[124.0464,43.6601],[124.0749,43.6953]]]},"properties":{"region_code":"CN-22-2203-220382","parent_region_code":"CN-22-2203","name":"双辽市","level":"county","has_children":false,"full_path":"中国 / 吉林省 / 四平市 / 双辽市","source_admin_code":"220382","osm_relation_id":2763791}}
]}