{"type":"FeatureCollection", "features": [
{"type":"Feature","geometry":{"type":"Polygon","coordinates":[[[123.9617,47.3433],[123.9041,47.3575],[123.8719,47.2966],[123.8774,47.2728],[123.8559,47.2389],[123.831,47.2356],[123.843,47.2203],[123.8771,47.2027],[123.8787,47.1842],[123.9146,47.1801],[123.9299,47.1965],[123.9571,47.2586],[123.9952,47.2749],[123.9923,47.2853],[123.965,47.3013],[123.9617,47.3433]]]},"properties":{"region_code":"CN-23-2302-230202","parent_region_code":"CN-23-2302","name":"龙沙区","level":"county","has_children":false,"full_path":"中国 / 黑龙江省 / 齐齐哈尔市 / 龙沙区","source_admin_code":"230202","osm_relation_id":2755130}},
{"type":"Feature","geometry":{"type":"Polygon","coordinates":[[[123.9617,47.3433],[124.0184,47.3723],[124.0661,47.3738],[124.069,47.3972],[124.1248,47.4116],[124.0962,47.4483],[124.0231,47.4487],[123.9912,47.4407],[123.9536,47.4028],[123.8835,47.4212],[123.8852,47.3905],[123.9186,47.3917],[123.9041,47.3575],[123.9617,47.3433]]]},"properties":{"region_code":"CN-23-2302-230203","parent_region_code":"CN-23-2302","name":"建华区","level":"county","has_children":false,"full_path":"中国 / 黑龙江省 / 齐齐哈尔市 / 建华区","source_admin_code":"230203","osm_relation_id":2755126}},
{"type":"Feature","geometry":{"type":"Polygon","coordinates":[[[123.9923,47.2853],[124.0161,47.2799],[124.0519,47.2894],[124.0642,47.2739],[124.055,47.2387],[124.124,47.2371],[124.1363,47.2191],[124.1425,47.1682],[124.171,47.1756],[124.1873,47.1662],[124.1886,47.1289],[124.2994,47.1388],[124.3405,47.1363],[124.4122,47.1815],[124.4162,47.222],[124.3909,47.2566],[124.3995,47.2907],[124.4263,47.3145],[124.4349,47.3454],[124.4681,47.3601],[124.47,47.3913],[124.4011,47.3955],[124.2689,47.3928],[124.1507,47.3924],[124.1248,47.4116],[124.069,47.3972],[124.0661,47.3738],[124.0184,47.3723],[123.9617,47.3433],[123.965,47.3013],[123.9923,47.2853]]]},"properties":{"region_code":"CN-23-2302-230204","parent_region_code":"CN-23-2302","name":"铁锋区","level":"county","has_children":false,"full_path":"中国 / 黑龙江省 / 齐齐哈尔市 / 铁锋区","source_admin_code":"230204","osm_relation_id":2755135}},
{"type":"Feature","geometry":{"type":"Polygon","coordinates":[[[123.831,47.2356],[123.8217,47.2498],[123.791,47.2477],[123.7917,47.2276],[123.7714,47.2168],[123.7158,47.2165],[123.7383,47.2014],[123.697,47.1657],[123.7148,47.1477],[123.6714,47.1393],[123.6758,47.1179],[123.735,47.1225],[123.7791,47.0961],[123.7945,47.0774],[123.8448,47.0594],[123.8499,47.016],[123.8924,46.9967],[123.9464,46.9962],[123.9989,46.9898],[124.0143,47.0034],[124.0653,47.0034],[124.0821,47.0371],[124.0668,47.0465],[124.1054,47.0623],[124.1447,47.104],[124.1886,47.1289],[124.1873,47.1662],[124.171,47.1756],[124.1425,47.1682],[124.1363,47.2191],[124.124,47.2371],[124.055,47.2387],[124.0642,47.2739],[124.0519,47.2894],[124.0161,47.2799],[123.9923,47.2853],[123.9952,47.2749],[123.9571,47.2586],[123.9299,47.1965],[123.9146,47.1801],[123.8787,47.1842],[123.8771,47.2027],[123.843,47.2203],[123.831,47.2356]]]},"properties":{"region_code":"CN-23-2302-230205","parent_region_code":"CN-23-2302","name":"昂昂溪区","level":"county","has_children":false,"full_path":"中国 / 黑龙江省 / 齐齐哈尔市 / 昂昂溪区","source_admin_code":"230205","osm_relation_id":2755121}},
{"type":"Feature","geometry":{"type":"Polygon","coordinates":[[[123.7158,47.2165],[123.7076,47.2581],[123.673,47.2808],[123.6394,47.2423],[123.6258,47.2641],[123.6075,47.2696],[123.5939,47.3024],[123.6126,47.3355],[123.5872,47.3527],[123.554,47.361],[123.5386,47.3631],[123.4939,47.3444],[123.4843,47.3495],[123.4076,47.3346],[123.4453,47.309],[123.4502,47.285],[123.4776,47.2559],[123.5269,47.2459],[123.5486,47.201],[123.5326,47.1839],[123.5405,47.1541],[123.504,47.1315],[123.5112,47.1164],[123.5503,47.0859],[123.6148,47.071],[123.6758,47.1179],[123.6714,47.1393],[123.7148,47.1477],[123.697,47.1657],[123.7383,47.2014],[123.7158,47.2165]]]},"properties":{"region_code":"CN-23-2302-230206","parent_region_code":"CN-23-2302","name":"富拉尔基区","level":"county","has_children":false,"full_path":"中国 / 黑龙江省 / 齐齐哈尔市 / 富拉尔基区","source_admin_code":"230206","osm_relation_id":2755123}},
{"type":"Feature","geometry":{"type":"Polygon","coordinates":[[[122.9007,47.6903],[122.8364,47.6694],[122.7997,47.643],[122.8283,47.6007],[122.8285,47.5242],[122.8453,47.5021],[122.888,47.4794],[122.9004,47.4474],[122.9263,47.4279],[122.9684,47.4529],[122.9546,47.4653],[122.9975,47.4748],[122.9544,47.5374],[122.9655,47.5488],[122.9582,47.5722],[123.0196,47.5689],[123.0236,47.5814],[123.0809,47.5899],[123.0777,47.62],[123.0312,47.6237],[123.005,47.6517],[122.9786,47.6639],[122.9441,47.6609],[122.9198,47.669],[122.9007,47.6903]]]},"properties":{"region_code":"CN-23-2302-230207","parent_region_code":"CN-23-2302","name":"碾子山区","level":"county","has_children":false,"full_path":"中国 / 黑龙江省 / 齐齐哈尔市 / 碾子山区","source_admin_code":"230207","osm_relation_id":2755133}},
{"type":"Feature","geometry":{"type":"Polygon","coordinates":[[[123.9041,47.3575],[123.9186,47.3917],[123.8852,47.3905],[123.8835,47.4212],[123.9536,47.4028],[123.9912,47.4407],[123.9957,47.4812],[123.9794,47.5193],[124.0332,47.5465],[124.091,47.5844],[124.0775,47.6053],[124.1282,47.6521],[124.1272,47.6604],[124.2202,47.6623],[124.2223,47.6813],[124.204,47.7092],[124.2321,47.7183],[124.2488,47.7494],[124.2371,47.7657],[124.281,47.8125],[124.2711,47.8351],[124.3041,47.8626],[124.276,47.8738],[124.2399,47.8735],[124.2062,47.8442],[124.1722,47.8057],[124.0875,47.8145],[124.081,47.8357],[124.0281,47.8352],[124.0343,47.8094],[123.9808,47.7913],[123.9502,47.812],[123.8844,47.7876],[123.841,47.7505],[123.8707,47.7211],[123.8325,47.6998],[123.7941,47.6923],[123.7778,47.7153],[123.7458,47.734],[123.6914,47.7265],[123.6623,47.7047],[123.6362,47.6715],[123.5692,47.6816],[123.5363,47.6734],[123.4913,47.6721],[123.493,47.6204],[123.4556,47.6057],[123.433,47.6179],[123.4148,47.6481],[123.3977,47.6595],[123.357,47.6596],[123.3485,47.6405],[123.3827,47.6211],[123.3444,47.5294],[123.3473,47.4781],[123.3345,47.4499],[123.3552,47.4438],[123.3925,47.4564],[123.427,47.4777],[123.4301,47.4916],[123.4664,47.5114],[123.4769,47.5345],[123.4649,47.5531],[123.4892,47.5649],[123.5059,47.5523],[123.5291,47.5847],[123.5728,47.5991],[123.6086,47.5849],[123.6186,47.555],[123.5765,47.5451],[123.5511,47.509],[123.5864,47.4863],[123.5719,47.4463],[123.5746,47.4075],[123.5576,47.3836],[123.554,47.361],[123.5872,47.3527],[123.6126,47.3355],[123.5939,47.3024],[123.6075,47.2696],[123.6258,47.2641],[123.6394,47.2423],[123.673,47.2808],[123.7076,47.2581],[123.7158,47.2165],[123.7714,47.2168],[123.7917,47.2276],[123.791,47.2477],[123.8217,47.2498],[123.831,47.2356],[123.8559,47.2389],[123.8774,47.2728],[123.8719,47.2966],[123.9041,47.3575]]]},"properties":{"region_code":"CN-23-2302-230208","parent_region_code":"CN-23-2302","name":"梅里斯达斡尔族区","level":"county","has_children":false,"full_path":"中国 / 黑龙江省 / 齐齐哈尔市 / 梅里斯达斡尔族区","source_admin_code":"230208","osm_relation_id":2755131}},
{"type":"Feature","geometry":{"type":"Polygon","coordinates":[[[123.554,47.361],[123.5576,47.3836],[123.5746,47.4075],[123.5719,47.4463],[123.5864,47.4863],[123.5511,47.509],[123.5765,47.5451],[123.6186,47.555],[123.6086,47.5849],[123.5728,47.5991],[123.5291,47.5847],[123.5059,47.5523],[123.4892,47.5649],[123.4649,47.5531],[123.4769,47.5345],[123.4664,47.5114],[123.4301,47.4916],[123.427,47.4777],[123.3925,47.4564],[123.3552,47.4438],[123.3345,47.4499],[123.3473,47.4781],[123.3444,47.5294],[123.3827,47.6211],[123.3485,47.6405],[123.357,47.6596],[123.3313,47.6618],[123.1986,47.65],[123.1357,47.6416],[123.1421,47.5948],[123.0809,47.5899],[123.0236,47.5814],[123.0196,47.5689],[122.9582,47.5722],[122.9655,47.5488],[122.9544,47.5374],[122.9975,47.4748],[122.9546,47.4653],[122.9684,47.4529],[122.9263,47.4279],[122.9004,47.4474],[122.888,47.4794],[122.8453,47.5021],[122.8285,47.5242],[122.8283,47.6007],[122.7997,47.643],[122.759,47.6145],[122.587,47.5446],[122.5685,47.5332],[122.5376,47.4932],[122.5309,47.4659],[122.5141,47.4424],[122.5042,47.4015],[122.4018,47.3433],[122.4098,47.328],[122.4545,47.2787],[122.5,47.2443],[122.5249,47.1986],[122.5525,47.1644],[122.5857,47.1517],[122.6225,47.1193],[122.6893,47.0823],[122.7156,47.0824],[122.8032,47.0713],[122.8405,47.0531],[122.8234,47.0259],[122.7906,47.0181],[122.7659,46.9756],[122.7965,46.9388],[122.8305,46.9391],[122.8621,46.956],[122.8867,46.9578],[122.8887,46.9027],[122.8752,46.8858],[122.8925,46.8538],[122.889,46.8157],[122.9485,46.7728],[122.9923,46.7588],[122.986,46.7458],[123.0173,46.7218],[123.083,46.7366],[123.1346,46.7357],[123.171,46.7539],[123.1792,46.7863],[123.2179,46.8207],[123.2101,46.8338],[123.225,46.8562],[123.247,46.8531],[123.2897,46.8634],[123.3152,46.8517],[123.333,46.8239],[123.3697,46.8372],[123.4,46.9061],[123.3975,46.9331],[123.3836,46.9364],[123.3802,46.9504],[123.3534,46.9689],[123.297,46.9625],[123.2962,46.995],[123.3308,46.9865],[123.3816,46.952],[123.3858,46.9388],[123.4207,46.9322],[123.4768,46.9529],[123.5215,46.9571],[123.5407,46.9889],[123.5771,47.028],[123.5985,47.0166],[123.6142,47.0366],[123.6148,47.071],[123.5503,47.0859],[123.5112,47.1164],[123.504,47.1315],[123.5405,47.1541],[123.5326,47.1839],[123.5486,47.201],[123.5269,47.2459],[123.4776,47.2559],[123.4502,47.285],[123.4453,47.309],[123.4076,47.3346],[123.4843,47.3495],[123.4939,47.3444],[123.5386,47.3631],[123.554,47.361]]]},"properties":{"region_code":"CN-23-2302-230221","parent_region_code":"CN-23-2302","name":"龙江县","level":"county","has_children":false,"full_path":"中国 / 黑龙江省 / 齐齐哈尔市 / 龙江县","source_admin_code":"230221","osm_relation_id":2755129}},
{"type":"Feature","geometry":{"type":"Polygon","coordinates":[[[124.8857,48.0207],[124.9173,48.021],[124.9299,48.0074],[124.9271,47.9808],[124.9425,47.9074],[124.9046,47.9075],[124.9151,47.87],[124.9974,47.8779],[125.0422,47.8697],[125.049,47.8153],[125.0259,47.8184],[124.9952,47.8062],[124.9733,47.8149],[124.9265,47.8085],[124.9162,47.788],[124.8223,47.7394],[124.8473,47.7178],[124.8523,47.7],[124.8726,47.6934],[124.929,47.6565],[124.9531,47.6265],[124.9919,47.6015],[124.9892,47.5654],[125.0019,47.5085],[125.0188,47.4712],[125.0388,47.4753],[125.069,47.3833],[125.1441,47.3837],[125.1524,47.3727],[125.1875,47.3725],[125.3072,47.3812],[125.3102,47.3554],[125.3302,47.2968],[125.3272,47.2831],[125.413,47.2818],[125.5576,47.2976],[125.5514,47.3194],[125.5679,47.3412],[125.5538,47.3628],[125.5779,47.3692],[125.5835,47.4199],[125.5957,47.4394],[125.5972,47.467],[125.628,47.4707],[125.6498,47.5132],[125.6501,47.531],[125.6333,47.5496],[125.6381,47.6199],[125.6322,47.6314],[125.5915,47.6473],[125.5803,47.677],[125.5734,47.7271],[125.5614,47.7564],[125.5732,47.7732],[125.5631,47.7959],[125.5186,47.7928],[125.5042,47.8256],[125.5876,47.832],[125.7017,47.8449],[125.6919,47.8763],[125.6636,47.8808],[125.636,47.9121],[125.6034,47.8939],[125.5674,47.9134],[125.5718,47.9433],[125.5349,47.9438],[125.515,47.9524],[125.5143,47.9728],[125.4717,47.974],[125.4553,48.042],[125.4445,48.053],[125.3495,48.0475],[125.2047,48.0498],[125.1821,48.0533],[125.1278,48.0467],[125.0925,48.0564],[124.9729,48.0444],[124.8807,48.0422],[124.8857,48.0207]]]},"properties":{"region_code":"CN-23-2302-230223","parent_region_code":"CN-23-2302","name":"依安县","level":"county","has_children":false,"full_path":"中国 / 黑龙江省 / 齐齐哈尔市 / 依安县","source_admin_code":"230223","osm_relation_id":2755136}},
{"type":"Feature","geometry":{"type":"Polygon","coordinates":[[[123.6758,47.1179],[123.6148,47.071],[123.6142,47.0366],[123.5985,47.0166],[123.5771,47.028],[123.5407,46.9889],[123.5215,46.9571],[123.519,46.9251],[123.4773,46.868],[123.479,46.8388],[123.4961,46.8254],[123.5661,46.8299],[123.571,46.8944],[123.6016,46.8872],[123.5934,46.8589],[123.6204,46.8445],[123.5751,46.8265],[123.5854,46.8129],[123.6243,46.8119],[123.6187,46.7627],[123.6257,46.7261],[123.5974,46.6874],[123.4685,46.6841],[123.3924,46.6798],[123.3095,46.6603],[123.271,46.6588],[123.2726,46.6153],[123.2172,46.5877],[123.1956,46.5897],[123.1749,46.6103],[123.0922,46.6012],[123.0712,46.6206],[123.039,46.6168],[123.046,46.578],[122.9946,46.5727],[123.0051,46.5264],[122.9993,46.449],[123.012,46.4189],[123.1052,46.3335],[123.171,46.2467],[123.2124,46.2679],[123.2413,46.2715],[123.2805,46.2483],[123.3407,46.2439],[123.3526,46.2283],[123.382,46.2394],[123.4246,46.2418],[123.4504,46.2316],[123.4933,46.2577],[123.5569,46.2282],[123.5903,46.2324],[123.6137,46.2503],[123.6617,46.2567],[123.7189,46.2538],[123.7806,46.2657],[123.8428,46.3],[123.8531,46.3388],[123.8361,46.3701],[123.8643,46.3895],[123.8602,46.4179],[123.8478,46.4343],[123.8177,46.4456],[123.8323,46.4667],[123.8102,46.4742],[123.8155,46.5112],[123.7914,46.5237],[123.82,46.5601],[123.8001,46.5986],[123.7786,46.6216],[123.748,46.6397],[123.761,46.6597],[123.7494,46.6903],[123.7778,46.7091],[123.7596,46.7398],[123.8489,46.7425],[123.8528,46.6943],[123.8809,46.6832],[123.9117,46.7057],[123.9519,46.7059],[123.9908,46.7353],[123.9966,46.765],[123.9858,46.7802],[123.9943,46.7978],[123.948,46.8195],[123.9408,46.8395],[123.9154,46.8501],[123.932,46.8643],[123.9287,46.8841],[123.9563,46.9184],[123.9825,46.9295],[124.007,46.9696],[123.9989,46.9898],[123.9464,46.9962],[123.8924,46.9967],[123.8499,47.016],[123.8448,47.0594],[123.7945,47.0774],[123.7791,47.0961],[123.735,47.1225],[123.6758,47.1179]]]},"properties":{"region_code":"CN-23-2302-230224","parent_region_code":"CN-23-2302","name":"泰来县","level":"county","has_children":false,"full_path":"中国 / 黑龙江省 / 齐齐哈尔市 / 泰来县","source_admin_code":"230224","osm_relation_id":2755134}},
{"type":"Feature","geometry":{"type":"Polygon","coordinates":[[[123.0809,47.5899],[123.1421,47.5948],[123.1357,47.6416],[123.1986,47.65],[123.3313,47.6618],[123.357,47.6596],[123.3977,47.6595],[123.4148,47.6481],[123.433,47.6179],[123.4556,47.6057],[123.493,47.6204],[123.4913,47.6721],[123.5363,47.6734],[123.5692,47.6816],[123.6362,47.6715],[123.6623,47.7047],[123.6914,47.7265],[123.7458,47.734],[123.7778,47.7153],[123.7941,47.6923],[123.8325,47.6998],[123.8707,47.7211],[123.841,47.7505],[123.8844,47.7876],[123.9502,47.812],[123.9808,47.7913],[124.0343,47.8094],[124.0281,47.8352],[124.081,47.8357],[124.0875,47.8145],[124.1722,47.8057],[124.2062,47.8442],[124.2399,47.8735],[124.276,47.8738],[124.3041,47.8626],[124.2882,47.886],[124.2759,47.9295],[124.324,47.957],[124.3197,47.9633],[124.3174,47.9737],[124.3716,48.0461],[124.3779,48.0692],[124.4134,48.0869],[124.4287,48.1253],[124.4645,48.1291],[124.4561,48.1526],[124.4671,48.1616],[124.4548,48.1969],[124.3947,48.2454],[124.3954,48.2633],[124.37,48.2717],[124.3218,48.3319],[124.3078,48.3615],[124.3168,48.3867],[124.3074,48.4182],[124.3278,48.4282],[124.2992,48.4595],[124.2939,48.5194],[124.2604,48.535],[124.1408,48.4681],[124.068,48.4308],[123.9585,48.3509],[123.8669,48.2787],[123.7372,48.1931],[123.6972,48.1497],[123.6463,48.1095],[123.5695,48.0411],[123.5343,48.022],[123.373,47.974],[123.3108,47.9576],[123.2812,47.9396],[123.2754,47.9202],[123.2369,47.8582],[123.2078,47.824],[123.1607,47.7816],[123.0732,47.757],[122.9007,47.6903],[122.9198,47.669],[122.9441,47.6609],[122.9786,47.6639],[123.005,47.6517],[123.0312,47.6237],[123.0777,47.62],[123.0809,47.5899]]]},"properties":{"region_code":"CN-23-2302-230225","parent_region_code":"CN-23-2302","name":"甘南县","level":"county","has_children":false,"full_path":"中国 / 黑龙江省 / 齐齐哈尔市 / 甘南县","source_admin_code":"230225","osm_relation_id":2755125}},
{"type":"Feature","geometry":{"type":"Polygon","coordinates":[[[124.1248,47.4116],[124.1507,47.3924],[124.2689,47.3928],[124.4011,47.3955],[124.47,47.3913],[124.4681,47.3601],[124.4733,47.3377],[124.5817,47.3376],[124.5802,47.3265],[124.6268,47.3057],[124.6524,47.3128],[124.7033,47.3409],[124.796,47.3789],[124.8177,47.4026],[124.8643,47.4239],[124.9123,47.4325],[125.0188,47.4712],[125.0019,47.5085],[124.9892,47.5654],[124.9919,47.6015],[124.9531,47.6265],[124.929,47.6565],[124.8726,47.6934],[124.8523,47.7],[124.8473,47.7178],[124.8223,47.7394],[124.9162,47.788],[124.9265,47.8085],[124.9733,47.8149],[124.9952,47.8062],[125.0259,47.8184],[125.049,47.8153],[125.0422,47.8697],[124.9974,47.8779],[124.9151,47.87],[124.9046,47.9075],[124.9425,47.9074],[124.9271,47.9808],[124.9299,48.0074],[124.9173,48.021],[124.8857,48.0207],[124.7903,48.0156],[124.7402,47.9999],[124.741,47.9768],[124.7257,47.9711],[124.6659,47.9685],[124.6581,47.9969],[124.6612,48.0232],[124.5869,48.0162],[124.4743,47.987],[124.4477,47.9837],[124.4014,47.9668],[124.3197,47.9633],[124.324,47.957],[124.2759,47.9295],[124.2882,47.886],[124.3041,47.8626],[124.2711,47.8351],[124.281,47.8125],[124.2371,47.7657],[124.2488,47.7494],[124.2321,47.7183],[124.204,47.7092],[124.2223,47.6813],[124.2202,47.6623],[124.1272,47.6604],[124.1282,47.6521],[124.0775,47.6053],[124.091,47.5844],[124.0332,47.5465],[123.9794,47.5193],[123.9957,47.4812],[123.9912,47.4407],[124.0231,47.4487],[124.0962,47.4483],[124.1248,47.4116]]]},"properties":{"region_code":"CN-23-2302-230227","parent_region_code":"CN-23-2302","name":"富裕县","level":"county","has_children":false,"full_path":"中国 / 黑龙江省 / 齐齐哈尔市 / 富裕县","source_admin_code":"230227","osm_relation_id":2755124}},
{"type":"Feature","geometry":{"type":"Polygon","coordinates":[[[125.7017,47.8449],[125.7406,47.8544],[125.8377,47.8596],[126.139,47.8718],[126.1394,47.8792],[126.1278,47.9254],[126.1001,47.9349],[126.0906,47.9826],[126.0746,48.0145],[126.0558,48.1296],[126.0981,48.1335],[126.0957,48.1587],[126.0543,48.1606],[126.0423,48.1692],[126.0388,48.2206],[126.0221,48.2592],[126.0241,48.2912],[125.9948,48.3049],[125.9406,48.3172],[125.9421,48.3399],[125.9059,48.3382],[125.8753,48.3509],[125.836,48.3573],[125.8105,48.397],[125.7945,48.4756],[125.7929,48.5541],[125.6999,48.5564],[125.684,48.5332],[125.6642,48.5305],[125.6298,48.5418],[125.5902,48.5417],[125.5551,48.5305],[125.5299,48.5098],[125.5509,48.412],[125.5612,48.3802],[125.5246,48.3814],[125.4862,48.3921],[125.449,48.372],[125.358,48.3705],[125.3399,48.3752],[125.2566,48.3464],[125.2649,48.3193],[125.2301,48.2919],[125.1527,48.2835],[125.1386,48.2686],[125.1448,48.2336],[125.1836,48.2325],[125.182,48.2015],[125.1962,48.13],[125.1919,48.0905],[125.2056,48.0729],[125.2047,48.0498],[125.3495,48.0475],[125.4445,48.053],[125.4553,48.042],[125.4717,47.974],[125.5143,47.9728],[125.515,47.9524],[125.5349,47.9438],[125.5718,47.9433],[125.5674,47.9134],[125.6034,47.8939],[125.636,47.9121],[125.6636,47.8808],[125.6919,47.8763],[125.7017,47.8449]]]},"properties":{"region_code":"CN-23-2302-230229","parent_region_code":"CN-23-2302","name":"克山县","level":"county","has_children":false,"full_path":"中国 / 黑龙江省 / 齐齐哈尔市 / 克山县","source_admin_code":"230229","osm_relation_id":2755128}},
{"type":"Feature","geometry":{"type":"Polygon","coordinates":[[[126.1394,47.8792],[126.1841,47.882],[126.1907,47.8108],[126.1745,47.7826],[126.1911,47.7577],[126.1997,47.7119],[126.2094,47.7078],[126.3542,47.722],[126.4133,47.7115],[126.4607,47.7215],[126.5142,47.7234],[126.5598,47.7252],[126.5536,47.7818],[126.5785,47.8099],[126.5902,47.8385],[126.5621,47.8754],[126.5746,47.9106],[126.617,47.9564],[126.6219,48.0039],[126.5559,48.0078],[126.5508,48.0448],[126.5934,48.0508],[126.5933,48.0845],[126.6153,48.0948],[126.6094,48.1111],[126.6562,48.1198],[126.6516,48.1319],[126.5963,48.1318],[126.5893,48.1944],[126.5657,48.2136],[126.5181,48.218],[126.4857,48.2063],[126.4116,48.1885],[126.3843,48.1953],[126.3244,48.173],[126.3104,48.1912],[126.3189,48.2091],[126.3138,48.2395],[126.288,48.266],[126.2514,48.2788],[126.2021,48.2793],[126.1907,48.2719],[126.1472,48.2821],[126.0417,48.2794],[126.0241,48.2912],[126.0221,48.2592],[126.0388,48.2206],[126.0423,48.1692],[126.0543,48.1606],[126.0957,48.1587],[126.0981,48.1335],[126.0558,48.1296],[126.0746,48.0145],[126.0906,47.9826],[126.1001,47.9349],[126.1278,47.9254],[126.1394,47.8792]]]},"properties":{"region_code":"CN-23-2302-230230","parent_region_code":"CN-23-2302","name":"克东县","level":"county","has_children":false,"full_path":"中国 / 黑龙江省 / 齐齐哈尔市 / 克东县","source_admin_code":"230230","osm_relation_id":2755127}},
{"type":"Feature","geometry":{"type":"Polygon","coordinates":[[[125.5576,47.2976],[125.5828,47.2981],[125.7002,47.3117],[125.7347,47.3061],[125.9308,47.3291],[125.9572,47.3364],[126,47.337],[126.1186,47.3468],[126.1335,47.3506],[126.3476,47.3685],[126.3713,47.374],[126.4404,47.377],[126.5171,47.4732],[126.5169,47.4967],[126.5316,47.5223],[126.5359,47.5695],[126.5166,47.614],[126.5142,47.7234],[126.4607,47.7215],[126.4133,47.7115],[126.3542,47.722],[126.2094,47.7078],[126.1997,47.7119],[126.1911,47.7577],[126.1745,47.7826],[126.1907,47.8108],[126.1841,47.882],[126.1394,47.8792],[126.139,47.8718],[125.8377,47.8596],[125.7406,47.8544],[125.7017,47.8449],[125.5876,47.832],[125.5042,47.8256],[125.5186,47.7928],[125.5631,47.7959],[125.5732,47.7732],[125.5614,47.7564],[125.5734,47.7271],[125.5803,47.677],[125.5915,47.6473],[125.6322,47.6314],[125.6381,47.6199],[125.6333,47.5496],[125.6501,47.531],[125.6498,47.5132],[125.628,47.4707],[125.5972,47.467],[125.5957,47.4394],[125.5835,47.4199],[125.5779,47.3692],[125.5538,47.3628],[125.5679,47.3412],[125.5514,47.3194],[125.5576,47.2976]]]},"properties":{"region_code":"CN-23-2302-230231","parent_region_code":"CN-23-2302","name":"拜泉县","level":"county","has_children":false,"full_path":"中国 / 黑龙江省 / 齐齐哈尔市 / 拜泉县","source_admin_code":"230231","osm_relation_id":2755122}},
{"type":"Feature","geometry":{"type":"Polygon","coordinates":[[[125.2047,48.0498],[125.2056,48.0729],[125.1919,48.0905],[125.1962,48.13],[125.182,48.2015],[125.1836,48.2325],[125.1448,48.2336],[125.1386,48.2686],[125.1527,48.2835],[125.2301,48.2919],[125.2649,48.3193],[125.2566,48.3464],[125.3399,48.3752],[125.358,48.3705],[125.449,48.372],[125.4862,48.3921],[125.5246,48.3814],[125.5612,48.3802],[125.5509,48.412],[125.5299,48.5098],[125.5551,48.5305],[125.5902,48.5417],[125.6298,48.5418],[125.6642,48.5305],[125.684,48.5332],[125.6999,48.5564],[125.7071,48.5882],[125.7351,48.5942],[125.7579,48.5782],[125.8141,48.5897],[125.8118,48.6029],[125.8533,48.6208],[125.9109,48.6867],[125.9479,48.7047],[125.9729,48.7035],[125.9807,48.725],[125.953,48.7546],[125.9479,48.7749],[125.9184,48.781],[125.8759,48.835],[125.8353,48.842],[125.8214,48.8574],[125.7979,48.8498],[125.7742,48.8181],[125.722,48.7988],[125.6845,48.7993],[125.6655,48.8123],[125.6269,48.8571],[125.6211,48.8794],[125.5896,48.8669],[125.5308,48.8557],[125.5009,48.8328],[125.4508,48.8067],[125.475,48.7951],[125.5512,48.7924],[125.566,48.8162],[125.6054,48.8164],[125.6116,48.7978],[125.6789,48.782],[125.6988,48.7596],[125.6714,48.7372],[125.6865,48.7116],[125.6624,48.7093],[125.6363,48.6806],[125.5986,48.6756],[125.556,48.6815],[125.4887,48.6658],[125.4722,48.6785],[125.4235,48.6742],[125.3814,48.6911],[125.3717,48.6638],[125.3215,48.653],[125.3001,48.6419],[125.2477,48.637],[125.2113,48.6402],[125.2286,48.665],[125.256,48.6689],[125.2981,48.6875],[125.3291,48.6919],[125.3934,48.737],[125.4199,48.7385],[125.4279,48.7737],[125.4036,48.7801],[125.2931,48.7173],[125.2549,48.7202],[125.2327,48.7037],[125.2112,48.7166],[125.166,48.7263],[125.1263,48.7209],[125.0842,48.7408],[125.0379,48.7421],[125.0398,48.7695],[125.0021,48.7995],[125.0157,48.8256],[125.0082,48.8442],[125.0113,48.8767],[124.9001,48.8922],[124.8636,48.8893],[124.7962,48.9198],[124.77,48.9146],[124.7259,48.9216],[124.6938,48.8556],[124.6909,48.839],[124.6607,48.8333],[124.6397,48.8116],[124.6456,48.7714],[124.6067,48.7469],[124.6183,48.6913],[124.5801,48.5914],[124.5355,48.5734],[124.5261,48.4949],[124.5347,48.4604],[124.5192,48.4418],[124.5286,48.419],[124.5128,48.4046],[124.5236,48.3888],[124.5081,48.351],[124.5312,48.3392],[124.5475,48.3164],[124.547,48.2934],[124.5736,48.2722],[124.5719,48.2514],[124.539,48.1969],[124.5146,48.1854],[124.5002,48.166],[124.5074,48.1422],[124.4956,48.1185],[124.4755,48.1247],[124.4596,48.1062],[124.4134,48.0869],[124.3779,48.0692],[124.3716,48.0461],[124.3174,47.9737],[124.3197,47.9633],[124.4014,47.9668],[124.4477,47.9837],[124.4743,47.987],[124.5869,48.0162],[124.6612,48.0232],[124.6581,47.9969],[124.6659,47.9685],[124.7257,47.9711],[124.741,47.9768],[124.7402,47.9999],[124.7903,48.0156],[124.8857,48.0207],[124.8807,48.0422],[124.9729,48.0444],[125.0925,48.0564],[125.1278,48.0467],[125.1821,48.0533],[125.2047,48.0498]]]},"properties":{"region_code":"CN-23-2302-230281","parent_region_code":"CN-23-2302","name":"讷河市","level":"county","has_children":false,"full_path":"中国 / 黑龙江省 / 齐齐哈尔市 / 讷河市","source_admin_code":"230281","osm_relation_id":2755132}}
]}