{"type":"FeatureCollection", "features": [
{"type":"Feature","geometry":{"type":"Polygon","coordinates":[[[124.3242,40.1419],[124.344,40.1567],[124.3595,40.1461],[124.3616,40.1349],[124.3883,40.1323],[124.3989,40.127],[124.4118,40.139],[124.4019,40.1445],[124.4145,40.161],[124.406,40.1699],[124.3936,40.169],[124.3634,40.1927],[124.3515,40.2121],[124.3314,40.2102],[124.32,40.2218],[124.2936,40.2216],[124.2879,40.2093],[124.2695,40.2117],[124.2632,40.2069],[124.2474,40.2099],[124.2357,40.2],[124.2386,40.1855],[124.227,40.1742],[124.2219,40.1528],[124.2362,40.1489],[124.2444,40.1607],[124.257,40.164],[124.2855,40.1554],[124.2991,40.1563],[124.3201,40.15],[124.3242,40.1419]]]},"properties":{"region_code":"CN-21-2106-210602","parent_region_code":"CN-21-2106","name":"元宝区","level":"county","has_children":false,"full_path":"中国 / 辽宁省 / 丹东市 / 元宝区","source_admin_code":"210602","osm_relation_id":5677166}},
{"type":"Feature","geometry":{"type":"Polygon","coordinates":[[[124.3242,40.1419],[124.3211,40.1352],[124.3311,40.118],[124.3261,40.0922],[124.3011,40.0836],[124.2805,40.083],[124.2739,40.0701],[124.2611,40.077],[124.2589,40.0871],[124.2298,40.0859],[124.2257,40.0891],[124.2137,40.0906],[124.2047,40.0786],[124.1939,40.0828],[124.1727,40.0766],[124.1696,40.0596],[124.1767,40.0408],[124.1947,40.0443],[124.2149,40.0157],[124.2277,40.0047],[124.2388,40.0046],[124.2497,39.9793],[124.2642,39.9758],[124.2807,39.9827],[124.2902,39.972],[124.2616,39.9706],[124.26,39.9607],[124.2458,39.9547],[124.2355,39.9447],[124.2125,39.9339],[124.2109,39.9194],[124.201,39.901],[124.1744,39.8815],[124.1763,39.8716],[124.1526,39.8466],[124.1483,39.836],[124.1356,39.8478],[124.1279,39.8452],[124.1309,39.8265],[124.1407,39.8205],[124.1573,39.8244],[124.1672,39.855],[124.1765,39.8528],[124.1683,39.8281],[124.1918,39.8403],[124.2121,39.8555],[124.2167,39.8698],[124.215,39.8898],[124.2279,39.9193],[124.2407,39.9278],[124.2634,39.9325],[124.2842,39.9277],[124.2832,39.9614],[124.2923,39.9678],[124.3105,39.9678],[124.3237,39.979],[124.345,39.9878],[124.3436,39.9782],[124.3541,39.9707],[124.3606,39.9919],[124.3718,40.0168],[124.369,40.0355],[124.3377,40.0467],[124.3345,40.0566],[124.3507,40.0807],[124.3636,40.0886],[124.3706,40.1008],[124.3924,40.1151],[124.3989,40.127],[124.3883,40.1323],[124.3616,40.1349],[124.3595,40.1461],[124.344,40.1567],[124.3242,40.1419]]]},"properties":{"region_code":"CN-21-2106-210603","parent_region_code":"CN-21-2106","name":"振兴区","level":"county","has_children":false,"full_path":"中国 / 辽宁省 / 丹东市 / 振兴区","source_admin_code":"210603","osm_relation_id":5677168}},
{"type":"Feature","geometry":{"type":"MultiPolygon","coordinates":[[[[124.7354,40.3577],[124.7232,40.3655],[124.6959,40.3729],[124.6815,40.3716],[124.687,40.3484],[124.7128,40.3264],[124.7134,40.3175],[124.7284,40.3317],[124.7354,40.3577]]],[[[124.4118,40.139],[124.4263,40.1423],[124.4431,40.1657],[124.4571,40.1743],[124.4853,40.1756],[124.4895,40.1893],[124.5018,40.1996],[124.5079,40.2154],[124.5005,40.2253],[124.5012,40.2369],[124.4955,40.2568],[124.4954,40.2703],[124.4835,40.2864],[124.4565,40.2931],[124.4278,40.2893],[124.4059,40.2948],[124.3992,40.311],[124.3896,40.3217],[124.3637,40.3288],[124.3629,40.3407],[124.3492,40.3427],[124.3398,40.3519],[124.3262,40.35],[124.3153,40.341],[124.2952,40.341],[124.2676,40.3551],[124.2715,40.3664],[124.2594,40.382],[124.2295,40.3962],[124.1964,40.3839],[124.1837,40.3753],[124.18,40.3628],[124.1834,40.3498],[124.1729,40.318],[124.1491,40.3076],[124.1461,40.3019],[124.1185,40.3005],[124.113,40.2892],[124.1012,40.2828],[124.1012,40.2759],[124.0862,40.2532],[124.0856,40.241],[124.0928,40.2203],[124.117,40.2173],[124.1233,40.2182],[124.136,40.2033],[124.1424,40.2016],[124.1549,40.1809],[124.1689,40.1864],[124.1847,40.1763],[124.1627,40.1398],[124.1492,40.1328],[124.142,40.1179],[124.1415,40.106],[124.1482,40.0973],[124.167,40.0974],[124.1898,40.1111],[124.1933,40.122],[124.2051,40.1251],[124.218,40.1197],[124.2339,40.1046],[124.2257,40.0891],[124.2298,40.0859],[124.2589,40.0871],[124.2611,40.077],[124.2739,40.0701],[124.2805,40.083],[124.3011,40.0836],[124.3261,40.0922],[124.3311,40.118],[124.3211,40.1352],[124.3242,40.1419],[124.3201,40.15],[124.2991,40.1563],[124.2855,40.1554],[124.257,40.164],[124.2444,40.1607],[124.2362,40.1489],[124.2219,40.1528],[124.227,40.1742],[124.2386,40.1855],[124.2357,40.2],[124.2474,40.2099],[124.2632,40.2069],[124.2695,40.2117],[124.2879,40.2093],[124.2936,40.2216],[124.32,40.2218],[124.3314,40.2102],[124.3515,40.2121],[124.3634,40.1927],[124.3936,40.169],[124.406,40.1699],[124.4145,40.161],[124.4019,40.1445],[124.4118,40.139]]]]},"properties":{"region_code":"CN-21-2106-210604","parent_region_code":"CN-21-2106","name":"振安区","level":"county","has_children":false,"full_path":"中国 / 辽宁省 / 丹东市 / 振安区","source_admin_code":"210604","osm_relation_id":5677167}},
{"type":"Feature","geometry":{"type":"Polygon","coordinates":[[[124.7354,40.3577],[124.7461,40.3757],[124.7658,40.3871],[124.7987,40.3957],[124.8171,40.4045],[124.8565,40.4332],[124.8739,40.4513],[124.8893,40.4756],[124.9006,40.4819],[124.9098,40.4781],[124.9057,40.464],[124.9222,40.4544],[124.9507,40.4563],[124.9809,40.4708],[124.9965,40.4675],[125.0197,40.4561],[125.0403,40.4644],[125.0422,40.4781],[125.0283,40.492],[124.9997,40.5008],[125.0026,40.5179],[125.0083,40.5248],[125.0385,40.5392],[125.0957,40.5563],[125.1133,40.5646],[125.1326,40.5785],[125.1721,40.6019],[125.1858,40.6075],[125.2276,40.6107],[125.2431,40.6079],[125.2573,40.6129],[125.2657,40.6311],[125.2668,40.6477],[125.2772,40.6542],[125.2967,40.6525],[125.3189,40.6398],[125.3292,40.637],[125.3535,40.6479],[125.3713,40.6507],[125.3886,40.6312],[125.4082,40.6254],[125.4171,40.6314],[125.4091,40.6657],[125.4172,40.6716],[125.4379,40.6651],[125.4516,40.6745],[125.4519,40.6963],[125.4639,40.7092],[125.4858,40.7213],[125.5243,40.7164],[125.5398,40.7264],[125.5455,40.7422],[125.5461,40.7574],[125.5608,40.7764],[125.5747,40.7823],[125.5991,40.7545],[125.6474,40.7656],[125.6639,40.7614],[125.6847,40.7671],[125.6821,40.785],[125.6477,40.7919],[125.6293,40.7989],[125.634,40.8118],[125.6719,40.8312],[125.6895,40.847],[125.702,40.8637],[125.701,40.871],[125.6843,40.8953],[125.6677,40.9028],[125.6516,40.915],[125.6403,40.9055],[125.6128,40.9036],[125.5815,40.8902],[125.5714,40.8956],[125.5838,40.916],[125.5596,40.9286],[125.544,40.9216],[125.543,40.9111],[125.5279,40.9063],[125.5128,40.9116],[125.494,40.9372],[125.496,40.944],[125.5147,40.9519],[125.5209,40.9602],[125.5257,40.9781],[125.5228,40.9849],[125.4888,40.9844],[125.4824,40.9734],[125.4967,40.962],[125.4967,40.9545],[125.4568,40.9612],[125.448,40.9691],[125.4598,40.9939],[125.4531,41.0036],[125.4557,41.0171],[125.4434,41.0282],[125.4275,41.0259],[125.4268,41.0105],[125.4023,41.0103],[125.3813,41.0129],[125.3853,40.9981],[125.3501,40.9965],[125.3357,41.009],[125.3464,41.0351],[125.3335,41.0333],[125.303,41.0617],[125.2984,41.0838],[125.2673,41.0985],[125.2568,41.0949],[125.2249,41.1115],[125.1992,41.0966],[125.187,41.1046],[125.1467,41.1038],[125.1365,41.092],[125.1058,41.0894],[125.0656,41.101],[125.0626,41.1092],[125.0378,41.1162],[125.0348,41.112],[125.0124,41.1089],[125.0005,41.0969],[124.9914,41.0962],[124.9754,41.1105],[124.9549,41.1152],[124.9417,41.1145],[124.8853,41.1214],[124.8501,41.1368],[124.8312,41.136],[124.8082,41.1416],[124.7889,41.1312],[124.7588,41.136],[124.7438,41.1497],[124.7303,41.1528],[124.7129,41.1375],[124.7141,41.1328],[124.6967,41.123],[124.6755,41.1249],[124.6679,41.113],[124.6657,41.0939],[124.6427,41.0894],[124.6269,41.0941],[124.6051,41.0897],[124.5796,41.1002],[124.5624,41.0986],[124.5359,41.0872],[124.534,41.0728],[124.5124,41.0604],[124.5049,41.0476],[124.5051,41.0364],[124.5199,41.0195],[124.5165,40.9968],[124.5253,40.988],[124.5244,40.9623],[124.5348,40.9469],[124.5332,40.9328],[124.5395,40.9071],[124.5265,40.9055],[124.5228,40.8822],[124.5091,40.8759],[124.4994,40.8519],[124.5057,40.8377],[124.4868,40.8293],[124.5004,40.8228],[124.5165,40.8101],[124.5176,40.7982],[124.5271,40.7799],[124.523,40.7671],[124.5103,40.763],[124.501,40.7489],[124.4805,40.7473],[124.4817,40.7295],[124.4682,40.7081],[124.4502,40.7069],[124.4457,40.7015],[124.4505,40.6875],[124.4305,40.6784],[124.4232,40.6604],[124.4309,40.6529],[124.4219,40.6411],[124.4077,40.6381],[124.3938,40.6451],[124.3835,40.6344],[124.3655,40.6349],[124.3519,40.644],[124.342,40.6421],[124.3445,40.6221],[124.3586,40.6118],[124.3663,40.5936],[124.3822,40.5904],[124.3896,40.5694],[124.3859,40.5584],[124.4045,40.5335],[124.4174,40.5306],[124.4263,40.5129],[124.4185,40.5035],[124.4176,40.485],[124.4352,40.4667],[124.439,40.4532],[124.431,40.4437],[124.4558,40.4367],[124.4561,40.4247],[124.463,40.4153],[124.4748,40.4116],[124.4667,40.3955],[124.4572,40.3955],[124.4354,40.3714],[124.4218,40.3496],[124.4031,40.3423],[124.3701,40.3466],[124.3629,40.3407],[124.3637,40.3288],[124.3896,40.3217],[124.3992,40.311],[124.4059,40.2948],[124.4278,40.2893],[124.4565,40.2931],[124.4835,40.2864],[124.4954,40.2703],[124.4955,40.2568],[124.5012,40.2369],[124.5005,40.2253],[124.5079,40.2154],[124.5227,40.2298],[124.5462,40.2374],[124.5562,40.2472],[124.6139,40.286],[124.6432,40.3012],[124.6719,40.3024],[124.7134,40.3175],[124.7128,40.3264],[124.687,40.3484],[124.6815,40.3716],[124.6959,40.3729],[124.7232,40.3655],[124.7354,40.3577]]]},"properties":{"region_code":"CN-21-2106-210624","parent_region_code":"CN-21-2106","name":"宽甸满族自治县","level":"county","has_children":false,"full_path":"中国 / 辽宁省 / 丹东市 / 宽甸满族自治县","source_admin_code":"210624","osm_relation_id":2764860}},
{"type":"Feature","geometry":{"type":"MultiPolygon","coordinates":[[[[123.7069,39.7477],[123.7508,39.7518],[123.7422,39.7609],[123.725,39.7637],[123.7069,39.7477]]],[[[124.2257,40.0891],[124.2339,40.1046],[124.218,40.1197],[124.2051,40.1251],[124.1933,40.122],[124.1898,40.1111],[124.167,40.0974],[124.1482,40.0973],[124.1415,40.106],[124.142,40.1179],[124.1492,40.1328],[124.1627,40.1398],[124.1847,40.1763],[124.1689,40.1864],[124.1549,40.1809],[124.1424,40.2016],[124.136,40.2033],[124.1233,40.2182],[124.117,40.2173],[124.1034,40.2071],[124.0868,40.1893],[124.0745,40.1802],[124.0629,40.1857],[124.0462,40.1724],[124.0499,40.1596],[124.033,40.1366],[124.0233,40.1331],[124.0098,40.1206],[123.9918,40.1142],[123.9856,40.106],[123.9857,40.0867],[123.981,40.0836],[123.9792,40.0527],[123.9085,40.0582],[123.8909,40.0489],[123.88,40.0475],[123.864,40.0628],[123.853,40.0575],[123.8491,40.0431],[123.827,40.0457],[123.794,40.0543],[123.7813,40.0597],[123.7606,40.0505],[123.7281,40.0412],[123.7236,40.0342],[123.7096,40.0366],[123.696,40.0515],[123.6898,40.0668],[123.6762,40.0773],[123.6657,40.0931],[123.668,40.1095],[123.6885,40.123],[123.6946,40.1377],[123.6832,40.154],[123.6617,40.1514],[123.6428,40.1788],[123.6278,40.1822],[123.5943,40.1691],[123.6012,40.1582],[123.5849,40.1291],[123.5577,40.1013],[123.548,40.0982],[123.5308,40.1023],[123.5168,40.0984],[123.5049,40.0875],[123.4705,40.0704],[123.4771,40.0495],[123.469,40.0469],[123.4519,40.0315],[123.4426,40.0356],[123.4171,40.029],[123.4004,40.012],[123.402,39.9975],[123.3952,39.9916],[123.3958,39.9803],[123.371,39.9696],[123.3791,39.9533],[123.3874,39.9528],[123.3853,39.937],[123.3932,39.9329],[123.4146,39.9324],[123.4259,39.9244],[123.4648,39.9234],[123.4848,39.8966],[123.4684,39.8797],[123.4684,39.8677],[123.4773,39.8585],[123.4945,39.8505],[123.4985,39.8423],[123.4956,39.827],[123.509,39.813],[123.5152,39.7937],[123.5159,39.7748],[123.5275,39.7749],[123.5274,39.7848],[123.5389,39.7877],[123.5449,39.7736],[123.5433,39.7555],[123.5602,39.7664],[123.559,39.7758],[123.5663,39.7846],[123.5761,39.7837],[123.5787,39.7734],[123.6069,39.7766],[123.6159,39.789],[123.6354,39.8009],[123.6287,39.833],[123.658,39.8256],[123.6709,39.8283],[123.6941,39.8139],[123.7326,39.8246],[123.7368,39.8206],[123.761,39.8236],[123.7775,39.8226],[123.7937,39.8298],[123.8231,39.8358],[123.8312,39.8307],[123.8658,39.8237],[123.881,39.825],[123.9116,39.8193],[123.941,39.8194],[123.9608,39.8093],[124.0039,39.8012],[124.0409,39.8111],[124.0906,39.8291],[124.1154,39.8291],[124.1261,39.8353],[124.102,39.7762],[124.1405,39.7462],[124.147,39.7571],[124.1233,39.7749],[124.1334,39.7828],[124.1507,39.7697],[124.1542,39.7823],[124.1331,39.7983],[124.1521,39.8073],[124.1407,39.8205],[124.1309,39.8265],[124.1279,39.8452],[124.1356,39.8478],[124.1483,39.836],[124.1526,39.8466],[124.1763,39.8716],[124.1744,39.8815],[124.201,39.901],[124.2109,39.9194],[124.2125,39.9339],[124.2355,39.9447],[124.2458,39.9547],[124.26,39.9607],[124.2616,39.9706],[124.2902,39.972],[124.2807,39.9827],[124.2642,39.9758],[124.2497,39.9793],[124.2388,40.0046],[124.2277,40.0047],[124.2149,40.0157],[124.1947,40.0443],[124.1767,40.0408],[124.1696,40.0596],[124.1727,40.0766],[124.1939,40.0828],[124.2047,40.0786],[124.2137,40.0906],[124.2257,40.0891]]]]},"properties":{"region_code":"CN-21-2106-210681","parent_region_code":"CN-21-2106","name":"东港市","level":"county","has_children":false,"full_path":"中国 / 辽宁省 / 丹东市 / 东港市","source_admin_code":"210681","osm_relation_id":2764858}},
{"type":"Feature","geometry":{"type":"Polygon","coordinates":[[[124.3629,40.3407],[124.3701,40.3466],[124.4031,40.3423],[124.4218,40.3496],[124.4354,40.3714],[124.4572,40.3955],[124.4667,40.3955],[124.4748,40.4116],[124.463,40.4153],[124.4561,40.4247],[124.4558,40.4367],[124.431,40.4437],[124.439,40.4532],[124.4352,40.4667],[124.4176,40.485],[124.4185,40.5035],[124.4263,40.5129],[124.4174,40.5306],[124.4045,40.5335],[124.3859,40.5584],[124.3896,40.5694],[124.3822,40.5904],[124.3663,40.5936],[124.3586,40.6118],[124.3445,40.6221],[124.342,40.6421],[124.3519,40.644],[124.3655,40.6349],[124.3835,40.6344],[124.3938,40.6451],[124.4077,40.6381],[124.4219,40.6411],[124.4309,40.6529],[124.4232,40.6604],[124.4305,40.6784],[124.4505,40.6875],[124.4457,40.7015],[124.4502,40.7069],[124.4682,40.7081],[124.4817,40.7295],[124.4805,40.7473],[124.501,40.7489],[124.5103,40.763],[124.523,40.7671],[124.5271,40.7799],[124.5176,40.7982],[124.5165,40.8101],[124.5004,40.8228],[124.4868,40.8293],[124.5057,40.8377],[124.4994,40.8519],[124.5091,40.8759],[124.5228,40.8822],[124.5265,40.9055],[124.5395,40.9071],[124.5332,40.9328],[124.5348,40.9469],[124.5244,40.9623],[124.5253,40.988],[124.5165,40.9968],[124.5199,41.0195],[124.5051,41.0364],[124.5049,41.0476],[124.4785,41.0539],[124.4756,41.0579],[124.4386,41.0652],[124.4289,41.0714],[124.4082,41.0728],[124.3944,41.0592],[124.3694,41.0509],[124.3596,41.0541],[124.3455,41.0733],[124.2952,41.0521],[124.2886,41.0739],[124.3006,41.0882],[124.2964,41.094],[124.2786,41.0981],[124.2554,41.098],[124.231,41.0781],[124.236,41.0714],[124.2301,41.0625],[124.2274,41.0409],[124.1999,41.0389],[124.1901,41.0284],[124.1788,41.0251],[124.1605,41.0351],[124.1466,41.0511],[124.1141,41.0448],[124.1173,41.0379],[124.0876,41.0339],[124.101,41.0141],[124.112,40.9921],[124.1214,40.9825],[124.1235,40.965],[124.142,40.9554],[124.1416,40.9496],[124.1262,40.9231],[124.1255,40.9075],[124.1432,40.8913],[124.1353,40.878],[124.1375,40.8612],[124.1284,40.8516],[124.11,40.8519],[124.0971,40.8446],[124.0878,40.8557],[124.0784,40.8593],[124.0375,40.8638],[124.0106,40.8581],[123.9909,40.8601],[123.9749,40.866],[123.9658,40.85],[123.9499,40.8445],[123.9331,40.8275],[123.9259,40.8251],[123.9104,40.8335],[123.9014,40.8303],[123.8736,40.8408],[123.8672,40.8383],[123.8466,40.8506],[123.8258,40.8576],[123.8083,40.8534],[123.7959,40.8556],[123.7859,40.8492],[123.7728,40.8542],[123.7619,40.8475],[123.7391,40.8505],[123.7318,40.8452],[123.7269,40.8292],[123.7167,40.8284],[123.7084,40.8188],[123.6873,40.8148],[123.6809,40.8322],[123.6662,40.8242],[123.6581,40.8252],[123.6337,40.8433],[123.6159,40.8502],[123.5922,40.8554],[123.5723,40.8528],[123.5388,40.8594],[123.5386,40.8471],[123.5442,40.8378],[123.5365,40.8247],[123.5515,40.802],[123.5714,40.7941],[123.5687,40.7882],[123.5788,40.7782],[123.572,40.766],[123.5589,40.7584],[123.5517,40.7461],[123.5504,40.727],[123.5458,40.7215],[123.5562,40.711],[123.5755,40.7032],[123.5717,40.6909],[123.5774,40.6847],[123.6001,40.6861],[123.6116,40.6916],[123.6308,40.6891],[123.6479,40.6769],[123.6831,40.6624],[123.7049,40.6602],[123.7254,40.6471],[123.7284,40.6305],[123.743,40.6137],[123.7336,40.5978],[123.7118,40.5906],[123.7225,40.5775],[123.7324,40.5739],[123.73,40.559],[123.7353,40.5477],[123.7294,40.5371],[123.7342,40.506],[123.7615,40.4984],[123.7619,40.4917],[123.7515,40.4669],[123.7602,40.4406],[123.7576,40.4306],[123.7395,40.4132],[123.758,40.401],[123.7384,40.3735],[123.7249,40.3472],[123.714,40.3423],[123.7071,40.3315],[123.6992,40.2954],[123.6905,40.296],[123.6743,40.2883],[123.6574,40.2689],[123.6431,40.2592],[123.6316,40.2636],[123.619,40.2487],[123.6061,40.2405],[123.5879,40.2411],[123.5878,40.232],[123.5678,40.2018],[123.5534,40.1877],[123.5704,40.1663],[123.5771,40.1634],[123.5943,40.1691],[123.6278,40.1822],[123.6428,40.1788],[123.6617,40.1514],[123.6832,40.154],[123.6946,40.1377],[123.6885,40.123],[123.668,40.1095],[123.6657,40.0931],[123.6762,40.0773],[123.6898,40.0668],[123.696,40.0515],[123.7096,40.0366],[123.7236,40.0342],[123.7281,40.0412],[123.7606,40.0505],[123.7813,40.0597],[123.794,40.0543],[123.827,40.0457],[123.8491,40.0431],[123.853,40.0575],[123.864,40.0628],[123.88,40.0475],[123.8909,40.0489],[123.9085,40.0582],[123.9792,40.0527],[123.981,40.0836],[123.9857,40.0867],[123.9856,40.106],[123.9918,40.1142],[124.0098,40.1206],[124.0233,40.1331],[124.033,40.1366],[124.0499,40.1596],[124.0462,40.1724],[124.0629,40.1857],[124.0745,40.1802],[124.0868,40.1893],[124.1034,40.2071],[124.117,40.2173],[124.0928,40.2203],[124.0856,40.241],[124.0862,40.2532],[124.1012,40.2759],[124.1012,40.2828],[124.113,40.2892],[124.1185,40.3005],[124.1461,40.3019],[124.1491,40.3076],[124.1729,40.318],[124.1834,40.3498],[124.18,40.3628],[124.1837,40.3753],[124.1964,40.3839],[124.2295,40.3962],[124.2594,40.382],[124.2715,40.3664],[124.2676,40.3551],[124.2952,40.341],[124.3153,40.341],[124.3262,40.35],[124.3398,40.3519],[124.3492,40.3427],[124.3629,40.3407]]]},"properties":{"region_code":"CN-21-2106-210682","parent_region_code":"CN-21-2106","name":"凤城市","level":"county","has_children":false,"full_path":"中国 / 辽宁省 / 丹东市 / 凤城市","source_admin_code":"210682","osm_relation_id":2764859}}
]}