{"type":"FeatureCollection", "features": [
{"type":"Feature","geometry":{"type":"Polygon","coordinates":[[[126.6891,49.4067],[126.7209,49.4093],[126.7611,49.448],[126.8131,49.4657],[126.8482,49.5157],[126.8529,49.5499],[126.8852,49.5603],[126.9651,49.6095],[127.0661,49.5927],[127.095,49.6124],[127.1702,49.6015],[127.2209,49.6087],[127.2454,49.6249],[127.2556,49.6627],[127.3512,49.648],[127.3967,49.6092],[127.4711,49.6064],[127.5371,49.6144],[127.5733,49.6467],[127.6156,49.6643],[127.6243,49.6877],[127.673,49.695],[127.6729,49.7479],[127.6483,49.7764],[127.5566,49.7904],[127.5254,49.8191],[127.5234,49.858],[127.5417,49.917],[127.5313,49.9476],[127.499,49.9719],[127.4889,50.0127],[127.5016,50.0594],[127.5721,50.1287],[127.6033,50.1809],[127.6015,50.2375],[127.4989,50.2544],[127.3807,50.2851],[127.3253,50.3351],[127.3265,50.358],[127.3614,50.3959],[127.353,50.4435],[127.2922,50.4568],[127.3108,50.5239],[127.354,50.5419],[127.367,50.574],[127.3407,50.6154],[127.2874,50.6638],[127.281,50.7073],[127.3011,50.7355],[127.2913,50.7547],[127.2331,50.7739],[127.1351,50.9125],[127.1062,50.9369],[127.0168,50.9748],[126.9829,50.938],[126.9426,50.9199],[126.8119,50.9112],[126.5955,50.9085],[126.4849,50.9034],[126.3329,50.9798],[126.3406,50.9352],[126.3295,50.8823],[126.3066,50.859],[126.2252,50.8117],[126.2099,50.7358],[126.1534,50.6394],[126.1947,50.5827],[126.1365,50.5482],[126.1448,50.5009],[126.0462,50.4305],[125.9357,50.384],[125.8798,50.338],[125.8744,50.2805],[125.8287,50.2292],[125.8216,50.1556],[125.8379,50.1341],[125.8768,50.1389],[125.8856,50.1067],[125.9254,50.0805],[125.8853,50.0697],[125.8706,50.0327],[125.969,50.0055],[125.9798,49.9602],[126,49.9453],[126.0206,49.8678],[126.0666,49.8283],[126.0746,49.7794],[126.0582,49.758],[126.0468,49.7036],[126.0672,49.6844],[126.1034,49.688],[126.1589,49.6708],[126.2043,49.6878],[126.2216,49.7342],[126.2743,49.7306],[126.3642,49.7543],[126.4556,49.7866],[126.4926,49.7537],[126.4591,49.6843],[126.5052,49.6693],[126.5397,49.5939],[126.5319,49.5516],[126.511,49.5374],[126.5318,49.4968],[126.5694,49.4564],[126.6615,49.4296],[126.6891,49.4067]]]},"properties":{"region_code":"CN-23-2311-231102","parent_region_code":"CN-23-2311","name":"爱辉区","level":"county","has_children":false,"full_path":"中国 / 黑龙江省 / 黑河市 / 爱辉区","source_admin_code":"231102","osm_relation_id":2754974}},
{"type":"Feature","geometry":{"type":"Polygon","coordinates":[[[128.4238,48.3242],[128.4467,48.3541],[128.5341,48.3779],[128.5568,48.3729],[128.6722,48.4088],[128.7382,48.399],[128.7649,48.3455],[128.784,48.2734],[128.7997,48.2539],[128.8425,48.2496],[128.8515,48.269],[128.8916,48.2713],[128.9189,48.3738],[128.9695,48.4136],[128.9813,48.4498],[128.9804,48.4959],[129.0286,48.5611],[129.0785,48.6034],[129.1229,48.6045],[129.1901,48.622],[129.1842,48.6484],[129.2238,48.674],[129.1567,48.7348],[129.1957,48.7592],[129.2175,48.7476],[129.2736,48.7917],[129.3524,48.8],[129.385,48.8147],[129.4181,48.8045],[129.5026,48.8652],[129.5126,48.9299],[129.4721,48.9479],[129.4251,48.9894],[129.4272,49.0386],[129.3964,49.0494],[129.3122,49.0471],[129.2504,49.0637],[129.2227,49.1162],[129.2309,49.1768],[129.2054,49.2064],[129.1611,49.2825],[129.1806,49.3372],[129.2428,49.3747],[129.2868,49.349],[129.3088,49.357],[129.2611,49.3918],[129.226,49.3995],[129.1746,49.3885],[129.1262,49.3505],[129.0734,49.3536],[129.0399,49.4079],[128.9837,49.4569],[128.9416,49.4576],[128.8603,49.4896],[128.7933,49.4718],[128.757,49.4758],[128.7472,49.5131],[128.8022,49.5503],[128.8013,49.5718],[128.7482,49.5942],[128.7249,49.5681],[128.6584,49.57],[128.6201,49.5904],[128.5529,49.602],[128.4605,49.5892],[128.3772,49.5889],[128.3574,49.5517],[128.3296,49.5402],[128.2774,49.564],[128.2361,49.5617],[128.1982,49.5376],[128.0989,49.5451],[128.0347,49.5558],[128.0199,49.5684],[127.9725,49.5389],[127.9565,49.5078],[127.8777,49.4916],[127.8168,49.4556],[127.8122,49.3972],[127.7757,49.3586],[127.728,49.2919],[127.6736,49.235],[127.6319,49.2066],[127.5854,49.1403],[127.5453,49.1009],[127.6761,49.0683],[127.8052,49.0557],[127.9055,49.0593],[127.9638,49.102],[128.0475,49.0597],[128.3427,49.0242],[128.3544,48.945],[128.3949,48.8737],[128.3839,48.8256],[128.3592,48.8129],[128.3441,48.7749],[128.2424,48.7577],[128.2836,48.7251],[128.2836,48.6988],[128.2452,48.6508],[128.1806,48.6471],[128.1971,48.6263],[128.2493,48.6272],[128.2466,48.6018],[128.2781,48.5754],[128.2919,48.53],[128.4141,48.4626],[128.4361,48.3751],[128.4238,48.3242]]]},"properties":{"region_code":"CN-23-2311-231123","parent_region_code":"CN-23-2311","name":"逊克县","level":"county","has_children":false,"full_path":"中国 / 黑龙江省 / 黑河市 / 逊克县","source_admin_code":"231123","osm_relation_id":2754979}},
{"type":"Feature","geometry":{"type":"Polygon","coordinates":[[[126.6891,49.4067],[126.7205,49.3582],[126.7223,49.2777],[126.7514,49.2242],[126.7951,49.2153],[126.8252,49.184],[126.8653,49.1881],[126.8916,49.1465],[126.939,49.1273],[126.9532,49.1003],[127.0065,49.1048],[127.0358,49.0733],[127.1043,49.0397],[127.1514,49.0389],[127.1685,48.9842],[127.231,48.9746],[127.2525,49.0093],[127.3576,49.0492],[127.427,49.0189],[127.4746,49.0144],[127.5127,49.0466],[127.5453,49.1009],[127.5854,49.1403],[127.6319,49.2066],[127.6736,49.235],[127.728,49.2919],[127.7757,49.3586],[127.8122,49.3972],[127.8168,49.4556],[127.8777,49.4916],[127.9565,49.5078],[127.9725,49.5389],[128.0199,49.5684],[127.9536,49.5962],[127.9104,49.5743],[127.8154,49.5849],[127.7814,49.6222],[127.7074,49.6527],[127.673,49.695],[127.6243,49.6877],[127.6156,49.6643],[127.5733,49.6467],[127.5371,49.6144],[127.4711,49.6064],[127.3967,49.6092],[127.3512,49.648],[127.2556,49.6627],[127.2454,49.6249],[127.2209,49.6087],[127.1702,49.6015],[127.095,49.6124],[127.0661,49.5927],[126.9651,49.6095],[126.8852,49.5603],[126.8529,49.5499],[126.8482,49.5157],[126.8131,49.4657],[126.7611,49.448],[126.7209,49.4093],[126.6891,49.4067]]]},"properties":{"region_code":"CN-23-2311-231124","parent_region_code":"CN-23-2311","name":"孙吴县","level":"county","has_children":false,"full_path":"中国 / 黑龙江省 / 黑河市 / 孙吴县","source_admin_code":"231124","osm_relation_id":2754977}},
{"type":"Feature","geometry":{"type":"Polygon","coordinates":[[[127.8539,48.0323],[127.8216,48.0423],[127.7942,48.091],[127.8115,48.1319],[127.7863,48.1676],[127.7531,48.1879],[127.7058,48.1902],[127.6713,48.2409],[127.6258,48.283],[127.6147,48.3396],[127.5876,48.3682],[127.6043,48.3901],[127.5426,48.4153],[127.5372,48.439],[127.4505,48.4446],[127.4182,48.4384],[127.3866,48.4587],[127.3185,48.467],[127.2438,48.4614],[127.1565,48.4827],[127.1392,48.5092],[127.0869,48.5093],[127.0376,48.5364],[127.0121,48.5083],[126.9614,48.5163],[126.9204,48.4862],[126.8419,48.4748],[126.8223,48.4816],[126.7863,48.4502],[126.7678,48.414],[126.6623,48.4081],[126.6172,48.3612],[126.5667,48.3512],[126.5289,48.368],[126.4575,48.3457],[126.4218,48.3492],[126.3373,48.3361],[126.3473,48.3137],[126.3053,48.2985],[126.2781,48.2717],[126.3138,48.2395],[126.3104,48.1912],[126.3244,48.173],[126.3843,48.1953],[126.4116,48.1885],[126.5181,48.218],[126.5657,48.2136],[126.5893,48.1944],[126.5963,48.1318],[126.6094,48.1111],[126.5934,48.0508],[126.5508,48.0448],[126.5559,48.0078],[126.6219,48.0039],[126.617,47.9564],[126.5746,47.9106],[126.5621,47.8754],[126.5902,47.8385],[126.5536,47.7818],[126.5598,47.7252],[126.5142,47.7234],[126.5166,47.614],[126.5276,47.593],[126.5679,47.5925],[126.5791,47.6328],[126.6169,47.6576],[126.7106,47.6991],[126.7319,47.7257],[126.7958,47.7413],[126.8821,47.7257],[126.9038,47.7112],[126.9786,47.7283],[127.0012,47.7468],[127.0938,47.7665],[127.1398,47.7845],[127.247,47.7706],[127.3019,47.791],[127.3956,47.7819],[127.5297,47.8308],[127.5637,47.859],[127.6128,47.8677],[127.66,47.8539],[127.6487,47.8219],[127.6767,47.7776],[127.7087,47.7909],[127.7531,47.8342],[127.7952,47.8562],[127.7964,47.887],[127.8362,47.9282],[127.8835,47.9502],[127.879,48.0162],[127.8539,48.0323]]]},"properties":{"region_code":"CN-23-2311-231181","parent_region_code":"CN-23-2311","name":"北安市","level":"county","has_children":false,"full_path":"中国 / 黑龙江省 / 黑河市 / 北安市","source_admin_code":"231181","osm_relation_id":2754975}},
{"type":"Feature","geometry":{"type":"Polygon","coordinates":[[[127.5453,49.1009],[127.5127,49.0466],[127.4746,49.0144],[127.427,49.0189],[127.3576,49.0492],[127.2525,49.0093],[127.231,48.9746],[127.1685,48.9842],[127.1514,49.0389],[127.1043,49.0397],[127.0358,49.0733],[127.0065,49.1048],[126.9532,49.1003],[126.939,49.1273],[126.8916,49.1465],[126.8653,49.1881],[126.8252,49.184],[126.8033,49.155],[126.7505,49.1283],[126.7274,49.1295],[126.6946,49.168],[126.647,49.1694],[126.5715,49.1589],[126.4924,49.1976],[126.4036,49.1503],[126.3545,49.159],[126.3222,49.1278],[126.2675,49.1506],[126.2251,49.1513],[126.2132,49.1178],[126.2174,49.0675],[126.1619,49.0521],[126.1686,49.0123],[126.1596,48.9625],[126.083,48.9413],[126.0451,48.9149],[125.9919,48.8996],[125.9612,48.8621],[125.9696,48.8335],[125.9513,48.7685],[125.9807,48.725],[125.9109,48.6867],[125.8533,48.6208],[125.8141,48.5897],[125.7579,48.5782],[125.7351,48.5942],[125.7026,48.5698],[125.7408,48.5557],[125.7929,48.5541],[125.7945,48.4756],[125.8105,48.397],[125.836,48.3573],[125.9059,48.3382],[125.9406,48.3172],[125.9948,48.3049],[126.0417,48.2794],[126.1472,48.2821],[126.1907,48.2719],[126.2514,48.2788],[126.2781,48.2717],[126.3053,48.2985],[126.3473,48.3137],[126.3373,48.3361],[126.4218,48.3492],[126.4575,48.3457],[126.5289,48.368],[126.5667,48.3512],[126.6172,48.3612],[126.6623,48.4081],[126.7678,48.414],[126.7863,48.4502],[126.8223,48.4816],[126.8419,48.4748],[126.9204,48.4862],[126.9614,48.5163],[127.0121,48.5083],[127.0376,48.5364],[127.0869,48.5093],[127.1392,48.5092],[127.1565,48.4827],[127.2438,48.4614],[127.3185,48.467],[127.3866,48.4587],[127.4182,48.4384],[127.4505,48.4446],[127.5372,48.439],[127.5426,48.4153],[127.6043,48.3901],[127.5876,48.3682],[127.6147,48.3396],[127.6258,48.283],[127.6713,48.2409],[127.7058,48.1902],[127.7531,48.1879],[127.7863,48.1676],[127.8115,48.1319],[127.7942,48.091],[127.8216,48.0423],[127.8539,48.0323],[127.8784,48.059],[127.9725,48.0916],[127.99,48.0784],[128.126,48.0757],[128.189,48.1271],[128.2438,48.1505],[128.3109,48.1458],[128.3436,48.1665],[128.3347,48.2033],[128.3567,48.2535],[128.4238,48.3242],[128.4361,48.3751],[128.4141,48.4626],[128.2919,48.53],[128.2781,48.5754],[128.2466,48.6018],[128.2493,48.6272],[128.1971,48.6263],[128.1806,48.6471],[128.2452,48.6508],[128.2836,48.6988],[128.2836,48.7251],[128.2424,48.7577],[128.3441,48.7749],[128.3592,48.8129],[128.3839,48.8256],[128.3949,48.8737],[128.3544,48.945],[128.3427,49.0242],[128.0475,49.0597],[127.9638,49.102],[127.9055,49.0593],[127.8052,49.0557],[127.6761,49.0683],[127.5453,49.1009]]]},"properties":{"region_code":"CN-23-2311-231182","parent_region_code":"CN-23-2311","name":"五大连池市","level":"county","has_children":false,"full_path":"中国 / 黑龙江省 / 黑河市 / 五大连池市","source_admin_code":"231182","osm_relation_id":2754978}},
{"type":"Feature","geometry":{"type":"Polygon","coordinates":[[[126.3329,50.9798],[126.2203,51.0001],[126.1773,50.9661],[126.1236,50.9696],[126.1236,50.9374],[126.073,50.9149],[126.0121,50.9153],[125.9907,50.9047],[125.9078,50.8246],[125.8551,50.79],[125.7525,50.7515],[125.7731,50.7236],[125.8175,50.7031],[125.7884,50.636],[125.8234,50.5627],[125.7658,50.5183],[125.7286,50.5213],[125.6886,50.4863],[125.6467,50.4692],[125.6284,50.4439],[125.5844,50.451],[125.5545,50.4356],[125.5604,50.4009],[125.5148,50.4098],[125.536,50.3617],[125.5231,50.3298],[125.4554,50.2932],[125.4357,50.2605],[125.4506,50.226],[125.3773,50.1703],[125.2714,50.1256],[125.2829,50.0667],[125.2526,50.0357],[125.2886,50.0272],[125.2825,50.002],[125.2436,49.9923],[125.2213,49.9568],[125.1762,49.9563],[125.239,49.8718],[125.2212,49.8355],[125.1748,49.8164],[125.2189,49.799],[125.2143,49.7577],[125.1944,49.737],[125.212,49.6673],[125.1738,49.6589],[125.1209,49.6665],[125.1355,49.6197],[125.1667,49.6219],[125.1976,49.5915],[125.1834,49.5739],[125.227,49.5584],[125.2211,49.4854],[125.2569,49.4591],[125.2461,49.3562],[125.2568,49.3143],[125.2079,49.2727],[125.2205,49.2324],[125.2105,49.1979],[125.173,49.1971],[125.1546,49.1749],[125.1194,49.1795],[125.1232,49.1435],[125.1064,49.1244],[125.0451,49.142],[125.0099,49.1757],[124.9448,49.1604],[124.9052,49.178],[124.8626,49.1575],[124.7659,48.9991],[124.7423,48.9747],[124.748,48.9452],[124.7259,48.9216],[124.7962,48.9198],[124.8636,48.8893],[124.9001,48.8922],[125.0113,48.8767],[125.0157,48.8256],[125.0021,48.7995],[125.0398,48.7695],[125.0379,48.7421],[125.0842,48.7408],[125.1263,48.7209],[125.166,48.7263],[125.2327,48.7037],[125.2549,48.7202],[125.2931,48.7173],[125.4036,48.7801],[125.4279,48.7737],[125.4199,48.7385],[125.3934,48.737],[125.3291,48.6919],[125.2286,48.665],[125.2113,48.6402],[125.3001,48.6419],[125.3717,48.6638],[125.3814,48.6911],[125.4235,48.6742],[125.4887,48.6658],[125.556,48.6815],[125.6363,48.6806],[125.6714,48.7372],[125.6988,48.7596],[125.6789,48.782],[125.566,48.8162],[125.5512,48.7924],[125.475,48.7951],[125.4508,48.8067],[125.5308,48.8557],[125.5896,48.8669],[125.6269,48.8571],[125.6845,48.7993],[125.722,48.7988],[125.7742,48.8181],[125.7979,48.8498],[125.8759,48.835],[125.9184,48.781],[125.9513,48.7685],[125.9696,48.8335],[125.9612,48.8621],[125.9919,48.8996],[126.0451,48.9149],[126.083,48.9413],[126.1596,48.9625],[126.1686,49.0123],[126.1619,49.0521],[126.2174,49.0675],[126.2132,49.1178],[126.2251,49.1513],[126.2675,49.1506],[126.3222,49.1278],[126.3545,49.159],[126.4036,49.1503],[126.4924,49.1976],[126.5715,49.1589],[126.647,49.1694],[126.6946,49.168],[126.7274,49.1295],[126.7505,49.1283],[126.8033,49.155],[126.8252,49.184],[126.7951,49.2153],[126.7514,49.2242],[126.7223,49.2777],[126.7205,49.3582],[126.6891,49.4067],[126.6615,49.4296],[126.5694,49.4564],[126.5318,49.4968],[126.511,49.5374],[126.5319,49.5516],[126.5397,49.5939],[126.5052,49.6693],[126.4591,49.6843],[126.4926,49.7537],[126.4556,49.7866],[126.3642,49.7543],[126.2743,49.7306],[126.2216,49.7342],[126.2043,49.6878],[126.1589,49.6708],[126.1034,49.688],[126.0672,49.6844],[126.0468,49.7036],[126.0582,49.758],[126.0746,49.7794],[126.0666,49.8283],[126.0206,49.8678],[126,49.9453],[125.9798,49.9602],[125.969,50.0055],[125.8706,50.0327],[125.8853,50.0697],[125.9254,50.0805],[125.8856,50.1067],[125.8768,50.1389],[125.8379,50.1341],[125.8216,50.1556],[125.8287,50.2292],[125.8744,50.2805],[125.8798,50.338],[125.9357,50.384],[126.0462,50.4305],[126.1448,50.5009],[126.1365,50.5482],[126.1947,50.5827],[126.1534,50.6394],[126.2099,50.7358],[126.2252,50.8117],[126.3066,50.859],[126.3295,50.8823],[126.3406,50.9352],[126.3329,50.9798]]]},"properties":{"region_code":"CN-23-2311-231183","parent_region_code":"CN-23-2311","name":"嫩江市","level":"county","has_children":false,"full_path":"中国 / 黑龙江省 / 黑河市 / 嫩江市","source_admin_code":"231183","osm_relation_id":2754976}}
]}