{"type":"FeatureCollection", "features": [
{"type":"Feature","geometry":{"type":"Polygon","coordinates":[[[124.2797,53.3461],[124.251,53.3636],[124.2438,53.3747],[124.2323,53.3778],[124.1867,53.3726],[124.165,53.3672],[124.1321,53.3473],[124.1099,53.3465],[124.0996,53.3616],[124.0769,53.3741],[124.0746,53.3885],[124.0542,53.4013],[124.019,53.3939],[124.0081,53.3976],[123.9921,53.4195],[123.9783,53.4298],[123.8794,53.4807],[123.8551,53.4874],[123.7965,53.486],[123.7456,53.4967],[123.7089,53.4909],[123.6855,53.4983],[123.6616,53.5324],[123.6396,53.5381],[123.6256,53.546],[123.5961,53.5504],[123.5792,53.5445],[123.5712,53.5155],[123.563,53.504],[123.5392,53.495],[123.5229,53.5026],[123.527,53.5116],[123.5502,53.5283],[123.5464,53.5448],[123.5335,53.5534],[123.5166,53.5567],[123.4915,53.5489],[123.4786,53.5281],[123.5019,53.5094],[123.4992,53.4992],[123.4811,53.4961],[123.4628,53.5095],[123.455,53.5296],[123.4484,53.5341],[123.3755,53.5365],[123.3419,53.5439],[123.3044,53.5597],[123.2712,53.5608],[123.2462,53.557],[123.223,53.5496],[123.179,53.519],[123.1714,53.5085],[123.1373,53.4981],[123.1263,53.4981],[123.0844,53.5068],[123.06,53.5067],[123.0057,53.4965],[122.9332,53.4805],[122.893,53.4615],[122.8261,53.4558],[122.7478,53.463],[122.6983,53.4579],[122.6543,53.4588],[122.5961,53.4639],[122.5679,53.4602],[122.5309,53.4506],[122.4905,53.4579],[122.4803,53.4573],[122.4537,53.4429],[122.4297,53.4432],[122.3665,53.4753],[122.3596,53.4909],[122.3497,53.5003],[122.3272,53.5014],[122.3094,53.4985],[122.2987,53.4851],[122.2763,53.4746],[122.2436,53.4637],[122.2139,53.462],[122.1682,53.4711],[122.149,53.4645],[122.1118,53.4315],[122.0789,53.4205],[122.0419,53.4225],[121.9922,53.4286],[121.9485,53.4289],[121.9079,53.4215],[121.871,53.4263],[121.8409,53.4167],[121.8175,53.4157],[121.7544,53.3913],[121.7338,53.3859],[121.6947,53.3907],[121.6743,53.3869],[121.6561,53.3739],[121.6192,53.3653],[121.5887,53.352],[121.5721,53.3475],[121.4932,53.3341],[121.5019,53.3186],[121.5185,53.319],[121.5491,53.2923],[121.5657,53.2953],[121.596,53.267],[121.6149,53.2576],[121.6418,53.2586],[121.6731,53.2373],[121.6652,53.2082],[121.6688,53.1991],[121.6476,53.1915],[121.6514,53.175],[121.6685,53.1641],[121.6969,53.1555],[121.7139,53.1449],[121.738,53.147],[121.754,53.1388],[121.7636,53.1216],[121.7764,53.117],[121.776,53.1002],[121.7681,53.0919],[121.786,53.0751],[121.8055,53.0685],[121.8118,53.0615],[121.7952,53.0483],[121.7829,53.031],[121.7802,53.0188],[121.7435,53.0014],[121.7101,52.998],[121.6904,52.9667],[121.6735,52.9487],[121.6707,52.9315],[121.656,52.9124],[121.6323,52.9022],[121.6051,52.8849],[121.5963,52.8719],[121.6095,52.8613],[121.6133,52.8515],[121.5935,52.8371],[121.5798,52.8196],[121.5288,52.7979],[121.5011,52.7747],[121.4745,52.7719],[121.4403,52.728],[121.423,52.7203],[121.3719,52.6842],[121.3523,52.6798],[121.312,52.6764],[121.2861,52.6597],[121.2822,52.6481],[121.2685,52.6393],[121.2453,52.6323],[121.2283,52.6177],[121.2023,52.6095],[121.185,52.5968],[121.1859,52.5893],[121.224,52.5731],[121.2404,52.5805],[121.2701,52.5853],[121.2948,52.5751],[121.3172,52.5703],[121.3213,52.5526],[121.3349,52.5478],[121.3546,52.5293],[121.3698,52.5299],[121.4014,52.5209],[121.4089,52.4984],[121.4529,52.4879],[121.4688,52.481],[121.4849,52.4826],[121.5029,52.4724],[121.5107,52.4592],[121.5262,52.4529],[121.5534,52.4601],[121.5725,52.453],[121.5835,52.4409],[121.5959,52.4394],[121.6397,52.4438],[121.6464,52.4331],[121.6646,52.4268],[121.6661,52.4126],[121.6573,52.3886],[121.6876,52.3703],[121.6959,52.3568],[121.708,52.3471],[121.7131,52.333],[121.7128,52.3141],[121.7614,52.3063],[121.7942,52.2976],[121.8339,52.2801],[121.8654,52.2841],[121.897,52.2798],[121.9217,52.2829],[121.9355,52.2916],[121.9459,52.3064],[121.9469,52.3164],[121.9706,52.3264],[121.9709,52.3358],[121.9982,52.3602],[122.0173,52.3673],[122.0377,52.389],[122.0344,52.4091],[122.0805,52.4197],[122.0749,52.4303],[122.0767,52.442],[122.1031,52.4492],[122.1121,52.4677],[122.126,52.475],[122.1239,52.4836],[122.1316,52.494],[122.1331,52.5074],[122.15,52.5147],[122.1596,52.5129],[122.1684,52.4854],[122.1992,52.4674],[122.2154,52.4701],[122.2565,52.467],[122.2824,52.4756],[122.3036,52.4738],[122.3176,52.4584],[122.324,52.4318],[122.337,52.4216],[122.3391,52.4112],[122.3616,52.4093],[122.3737,52.3928],[122.3927,52.3901],[122.4009,52.3741],[122.4211,52.3792],[122.4338,52.3902],[122.4433,52.3831],[122.4522,52.3637],[122.4725,52.3494],[122.4729,52.331],[122.4638,52.326],[122.4717,52.3108],[122.4666,52.2965],[122.4871,52.2926],[122.499,52.2859],[122.5249,52.2848],[122.5624,52.2796],[122.5751,52.2689],[122.5915,52.2656],[122.6406,52.2713],[122.6563,52.2806],[122.6868,52.2677],[122.6874,52.2579],[122.6987,52.2535],[122.7229,52.2582],[122.7465,52.259],[122.7576,52.2637],[122.7794,52.2523],[122.8298,52.2582],[122.8503,52.2736],[122.8789,52.2755],[122.9012,52.2978],[122.9257,52.3013],[122.9521,52.2999],[122.9971,52.308],[123.0606,52.3171],[123.1126,52.3273],[123.1437,52.3408],[123.1579,52.3381],[123.1738,52.3263],[123.2125,52.3275],[123.2255,52.3319],[123.2436,52.3448],[123.2956,52.3604],[123.3176,52.3564],[123.3373,52.3624],[123.3861,52.372],[123.4064,52.3922],[123.4081,52.4162],[123.4206,52.4292],[123.4654,52.4438],[123.4915,52.4482],[123.5101,52.4583],[123.535,52.4826],[123.5319,52.4956],[123.5332,52.5176],[123.5147,52.5495],[123.5079,52.5534],[123.5122,52.5781],[123.4967,52.5894],[123.4872,52.6113],[123.4567,52.6608],[123.4495,52.6756],[123.4518,52.7079],[123.4641,52.726],[123.4432,52.7423],[123.4551,52.7582],[123.4746,52.7703],[123.4945,52.7752],[123.5138,52.7682],[123.5347,52.7927],[123.5478,52.8023],[123.5875,52.8529],[123.6092,52.8726],[123.6635,52.8967],[123.7213,52.898],[123.7383,52.9051],[123.7768,52.9332],[123.8092,52.9664],[123.8456,52.9776],[123.849,52.9883],[123.8395,53.0045],[123.8198,53.0139],[123.8179,53.0256],[123.8255,53.0379],[123.8585,53.063],[123.8972,53.0861],[123.9242,53.1074],[123.9405,53.1167],[123.9546,53.1368],[123.96,53.1535],[123.9966,53.1807],[124.0232,53.19],[124.0713,53.2109],[124.0975,53.2157],[124.1264,53.2108],[124.1474,53.2117],[124.1768,53.2244],[124.1828,53.2619],[124.1897,53.2692],[124.2414,53.2962],[124.2797,53.3461]]]},"properties":{"region_code":"CN-23-2327-232701","parent_region_code":"CN-23-2327","name":"漠河市","level":"county","has_children":false,"full_path":"中国 / 黑龙江省 / 大兴安岭地区 / 漠河市","source_admin_code":"232701","osm_relation_id":2754957}},
{"type":"Feature","geometry":{"type":"Polygon","coordinates":[[[125.33,51.6199],[125.3459,51.6211],[125.3626,51.6122],[125.3715,51.5862],[125.4165,51.5617],[125.4274,51.5497],[125.4694,51.5257],[125.4844,51.5097],[125.5349,51.4734],[125.5381,51.4632],[125.5709,51.4492],[125.5607,51.4368],[125.5766,51.4279],[125.6013,51.4015],[125.6163,51.398],[125.6112,51.3893],[125.6407,51.3581],[125.6522,51.3493],[125.6873,51.3309],[125.7007,51.3168],[125.7009,51.3051],[125.725,51.2835],[125.7419,51.2648],[125.7534,51.2619],[125.7503,51.2259],[125.7897,51.2218],[125.8132,51.2256],[125.8351,51.2171],[125.8491,51.2052],[125.8445,51.2005],[125.8554,51.185],[125.8547,51.172],[125.87,51.157],[125.8609,51.1451],[125.8697,51.1368],[125.9021,51.138],[125.921,51.1289],[125.9177,51.1217],[125.9383,51.1069],[125.9633,51.1228],[125.9861,51.112],[125.9679,51.0836],[125.9822,51.0783],[126.0062,51.0603],[126.0254,51.0535],[126.0325,51.0447],[126.0519,51.0415],[126.0384,51.0163],[126.0264,51.01],[126.0297,51.0001],[126.0467,50.9749],[126.0665,50.9774],[126.0528,50.952],[126.0142,50.9259],[126.0121,50.9153],[126.0536,50.9129],[126.073,50.9149],[126.1236,50.9374],[126.1285,50.9473],[126.1214,50.9579],[126.1236,50.9696],[126.1512,50.9658],[126.1773,50.9661],[126.2052,50.9815],[126.2203,51.0001],[126.2356,50.9989],[126.2688,50.9887],[126.2999,50.992],[126.359,50.97],[126.3736,50.9586],[126.4023,50.9432],[126.4181,50.9382],[126.4849,50.9034],[126.5027,50.9026],[126.5732,50.9048],[126.5955,50.9085],[126.6491,50.9081],[126.6855,50.9103],[126.8119,50.9112],[126.8699,50.9165],[126.9426,50.9199],[126.9559,50.9231],[126.9829,50.938],[127.0005,50.9613],[127.0243,50.9789],[127.0082,50.9997],[126.9858,51.0211],[126.9478,51.0463],[126.9177,51.057],[126.9145,51.091],[126.9164,51.105],[126.9111,51.1399],[126.8972,51.1834],[126.8942,51.2033],[126.9148,51.2303],[126.9317,51.2562],[126.9473,51.2668],[126.9729,51.2978],[126.9773,51.3202],[126.9727,51.3281],[126.9454,51.3335],[126.8809,51.321],[126.8676,51.3093],[126.8767,51.2955],[126.9032,51.2816],[126.9157,51.2613],[126.8999,51.2449],[126.8608,51.2456],[126.8436,51.2528],[126.8115,51.2891],[126.8077,51.3132],[126.8137,51.3295],[126.8275,51.3414],[126.8417,51.3443],[126.893,51.3391],[126.9179,51.3499],[126.9238,51.3628],[126.9147,51.3902],[126.8961,51.4082],[126.8323,51.4127],[126.801,51.4207],[126.7813,51.4351],[126.7758,51.4438],[126.7921,51.4609],[126.8064,51.4933],[126.8252,51.507],[126.8386,51.5232],[126.8331,51.5344],[126.7578,51.5601],[126.7087,51.5686],[126.6853,51.5791],[126.6695,51.5987],[126.6888,51.6159],[126.7217,51.6245],[126.7336,51.6376],[126.7317,51.6572],[126.7128,51.6819],[126.7279,51.7066],[126.7156,51.7269],[126.6709,51.7272],[126.6546,51.7417],[126.6574,51.7583],[126.6177,51.7744],[126.5983,51.8042],[126.5751,51.823],[126.5572,51.8597],[126.5378,51.885],[126.5095,51.904],[126.5018,51.9221],[126.4918,51.9296],[126.4651,51.9364],[126.4566,51.9441],[126.4541,51.9615],[126.4619,51.9779],[126.4592,51.986],[126.4381,52.0044],[126.4336,52.0142],[126.4383,52.0255],[126.4752,52.0406],[126.5097,52.0344],[126.5165,52.0415],[126.5125,52.0532],[126.5312,52.0681],[126.5357,52.0764],[126.5368,52.0988],[126.5487,52.1047],[126.5566,52.1201],[126.5451,52.1367],[126.4899,52.1597],[126.4498,52.1629],[126.4121,52.1734],[126.4018,52.183],[126.3513,52.1874],[126.3132,52.1994],[126.3004,52.2062],[126.2968,52.2245],[126.3114,52.24],[126.3462,52.2624],[126.3735,52.2688],[126.3969,52.2802],[126.4118,52.2804],[126.4252,52.2727],[126.4342,52.2864],[126.4266,52.2973],[126.3894,52.3029],[126.3401,52.3014],[126.3111,52.3288],[126.3155,52.3428],[126.3405,52.3549],[126.3469,52.3831],[126.3186,52.4243],[126.287,52.4435],[126.2626,52.4736],[126.2241,52.4727],[126.2059,52.4655],[126.1901,52.4653],[126.1812,52.4776],[126.1851,52.4942],[126.2022,52.5224],[126.2017,52.531],[126.1552,52.562],[126.11,52.5822],[126.0961,52.5927],[126.0678,52.6032],[126.054,52.6013],[126.0459,52.5804],[126.027,52.5739],[126.012,52.5785],[125.9728,52.6086],[125.9633,52.6225],[125.9617,52.6504],[125.9834,52.6732],[126.0159,52.6731],[126.0528,52.6759],[126.063,52.6814],[126.0656,52.6949],[126.0447,52.7209],[126.0373,52.7346],[126.0434,52.7451],[126.0611,52.7509],[126.1011,52.7548],[126.1103,52.761],[126.096,52.7753],[126.0589,52.7898],[126.0479,52.797],[126.0292,52.7975],[126.0083,52.7927],[125.9967,52.773],[125.9847,52.7604],[125.9672,52.7569],[125.9551,52.7636],[125.9476,52.776],[125.935,52.7765],[125.9092,52.8186],[125.863,52.8486],[125.8445,52.8676],[125.8464,52.8896],[125.8295,52.8954],[125.7986,52.8936],[125.7766,52.8967],[125.7592,52.8944],[125.7444,52.8795],[125.7182,52.8796],[125.7377,52.8595],[125.696,52.8258],[125.6594,52.7907],[125.6565,52.7656],[125.6275,52.7562],[125.6171,52.7345],[125.5645,52.7083],[125.5643,52.6927],[125.5856,52.6894],[125.5932,52.6834],[125.5913,52.6727],[125.6154,52.6463],[125.6152,52.6412],[125.5861,52.6291],[125.5924,52.6034],[125.5803,52.587],[125.5841,52.5794],[125.5726,52.5532],[125.5879,52.5329],[125.6329,52.5255],[125.6517,52.5109],[125.6568,52.4987],[125.6677,52.4896],[125.6873,52.484],[125.725,52.4676],[125.7231,52.4601],[125.735,52.4515],[125.745,52.4218],[125.7869,52.4151],[125.8194,52.3956],[125.8117,52.3782],[125.7862,52.3614],[125.7621,52.365],[125.7306,52.3565],[125.7249,52.3477],[125.6941,52.3428],[125.6759,52.3518],[125.6627,52.3505],[125.6391,52.3554],[125.6232,52.345],[125.5586,52.3452],[125.5527,52.3526],[125.5319,52.355],[125.5088,52.3458],[125.4854,52.3482],[125.4679,52.3417],[125.4506,52.3459],[125.4277,52.3442],[125.4104,52.3328],[125.3898,52.3306],[125.3896,52.319],[125.3603,52.3051],[125.3694,52.3002],[125.3521,52.2895],[125.3325,52.2921],[125.3327,52.2721],[125.3193,52.2636],[125.3384,52.2469],[125.3436,52.2306],[125.3298,52.2032],[125.3161,52.1959],[125.3168,52.1861],[125.2903,52.1858],[125.2525,52.1803],[125.1707,52.1719],[125.1515,52.1679],[125.1054,52.1782],[125.0654,52.1796],[125.0799,52.0954],[125.1085,52.0484],[125.1824,52.0201],[125.1758,51.9822],[125.2022,51.9758],[125.3369,51.9298],[125.3756,51.899],[125.4288,51.8398],[125.4533,51.7545],[125.404,51.6842],[125.33,51.6199]]]},"properties":{"region_code":"CN-23-2327-232721","parent_region_code":"CN-23-2327","name":"呼玛县","level":"county","has_children":false,"full_path":"中国 / 黑龙江省 / 大兴安岭地区 / 呼玛县","source_admin_code":"232721","osm_relation_id":2754955}},
{"type":"Feature","geometry":{"type":"Polygon","coordinates":[[[123.3176,52.3564],[123.333,52.35],[123.338,52.3347],[123.3687,52.3296],[123.3773,52.323],[123.3779,52.3064],[123.3869,52.2943],[123.4045,52.2845],[123.4149,52.291],[123.438,52.2906],[123.4907,52.3123],[123.5112,52.3155],[123.5427,52.33],[123.5621,52.3358],[123.6168,52.3448],[123.625,52.3487],[123.6358,52.3684],[123.6425,52.3721],[123.6913,52.3788],[123.7167,52.3786],[123.745,52.3901],[123.7606,52.3896],[123.7859,52.3981],[123.7928,52.4109],[123.8337,52.408],[123.8522,52.4089],[123.8877,52.4201],[123.9091,52.4105],[123.9364,52.4147],[123.9581,52.3938],[123.9794,52.3886],[123.987,52.3782],[124.0151,52.3651],[124.0406,52.3803],[124.0689,52.3764],[124.0926,52.3811],[124.113,52.3704],[124.1289,52.3682],[124.1327,52.3533],[124.1222,52.3365],[124.1079,52.3336],[124.11,52.3182],[124.0831,52.3043],[124.0823,52.2986],[124.0547,52.2838],[124.0457,52.2691],[124.05,52.2511],[124.0745,52.2264],[124.104,52.2175],[124.1354,52.2132],[124.1563,52.2138],[124.2178,52.2172],[124.2377,52.1787],[124.2484,52.1648],[124.2668,52.1579],[124.3394,52.1688],[124.3926,52.1916],[124.4197,52.2111],[124.4413,52.211],[124.4569,52.2344],[124.4894,52.2441],[124.5522,52.244],[124.6155,52.2461],[124.6519,52.2619],[124.687,52.2872],[124.7205,52.3039],[124.7277,52.3291],[124.7378,52.3371],[124.7499,52.3364],[124.7535,52.3203],[124.7863,52.297],[124.8126,52.2892],[124.8431,52.2874],[124.8594,52.2827],[124.8721,52.2709],[124.8759,52.2567],[124.8943,52.2504],[124.921,52.246],[124.9435,52.2367],[124.9236,52.2263],[124.9156,52.2134],[124.9313,52.2054],[124.9523,52.2021],[124.9686,52.195],[124.9657,52.1674],[124.9792,52.1646],[125.0033,52.1739],[125.0654,52.1796],[125.1054,52.1782],[125.1515,52.1679],[125.1707,52.1719],[125.2525,52.1803],[125.2903,52.1858],[125.3168,52.1861],[125.3161,52.1959],[125.3298,52.2032],[125.3436,52.2306],[125.3384,52.2469],[125.3193,52.2636],[125.3327,52.2721],[125.3325,52.2921],[125.3521,52.2895],[125.3694,52.3002],[125.3603,52.3051],[125.3896,52.319],[125.3898,52.3306],[125.4104,52.3328],[125.4277,52.3442],[125.4506,52.3459],[125.4679,52.3417],[125.4854,52.3482],[125.5088,52.3458],[125.5319,52.355],[125.5527,52.3526],[125.5586,52.3452],[125.6232,52.345],[125.6391,52.3554],[125.6627,52.3505],[125.6759,52.3518],[125.6941,52.3428],[125.7249,52.3477],[125.7306,52.3565],[125.7621,52.365],[125.7862,52.3614],[125.8117,52.3782],[125.8194,52.3956],[125.7869,52.4151],[125.745,52.4218],[125.735,52.4515],[125.7231,52.4601],[125.725,52.4676],[125.6873,52.484],[125.6677,52.4896],[125.6568,52.4987],[125.6517,52.5109],[125.6329,52.5255],[125.5879,52.5329],[125.5726,52.5532],[125.5841,52.5794],[125.5803,52.587],[125.5924,52.6034],[125.5861,52.6291],[125.6152,52.6412],[125.6154,52.6463],[125.5913,52.6727],[125.5932,52.6834],[125.5856,52.6894],[125.5643,52.6927],[125.5645,52.7083],[125.6171,52.7345],[125.6275,52.7562],[125.6565,52.7656],[125.6594,52.7907],[125.696,52.8258],[125.7377,52.8595],[125.7182,52.8796],[125.6958,52.8663],[125.6733,52.8599],[125.6555,52.869],[125.6576,52.8784],[125.6536,52.9051],[125.6565,52.916],[125.6663,52.9224],[125.7127,52.9326],[125.7277,52.944],[125.7218,52.9598],[125.7248,52.9697],[125.7412,52.9776],[125.7341,52.9914],[125.7153,52.9969],[125.6927,52.9982],[125.6727,53.0073],[125.6537,53.0256],[125.6367,53.035],[125.6291,53.0649],[125.6052,53.0816],[125.5836,53.0798],[125.5631,53.0721],[125.5188,53.0485],[125.5076,53.0485],[125.4968,53.0607],[125.493,53.0777],[125.4981,53.0885],[125.4811,53.1002],[125.4444,53.1065],[125.4087,53.1171],[125.3836,53.1285],[125.3487,53.1375],[125.3352,53.138],[125.3023,53.1459],[125.2854,53.1528],[125.2704,53.1652],[125.2502,53.1763],[125.2171,53.1842],[125.2044,53.1932],[125.1578,53.2038],[125.1474,53.2017],[125.0823,53.2035],[124.9755,53.1958],[124.9589,53.1885],[124.8947,53.171],[124.8805,53.1655],[124.8779,53.1553],[124.8996,53.1216],[124.8935,53.1013],[124.8824,53.0963],[124.8621,53.099],[124.8486,53.1057],[124.8349,53.1376],[124.8239,53.1431],[124.7508,53.1399],[124.7117,53.1514],[124.7066,53.1636],[124.719,53.1784],[124.7172,53.1869],[124.6736,53.2018],[124.6369,53.2072],[124.5947,53.2066],[124.5512,53.2017],[124.4965,53.2037],[124.4831,53.2166],[124.4316,53.2167],[124.4034,53.2478],[124.3698,53.2527],[124.3619,53.2592],[124.3601,53.2737],[124.3393,53.2941],[124.3203,53.3292],[124.2797,53.3461],[124.2414,53.2962],[124.1897,53.2692],[124.1828,53.2619],[124.1768,53.2244],[124.1474,53.2117],[124.1264,53.2108],[124.0975,53.2157],[124.0713,53.2109],[124.0232,53.19],[123.9966,53.1807],[123.96,53.1535],[123.9546,53.1368],[123.9405,53.1167],[123.9242,53.1074],[123.8972,53.0861],[123.8585,53.063],[123.8255,53.0379],[123.8179,53.0256],[123.8198,53.0139],[123.8395,53.0045],[123.849,52.9883],[123.8456,52.9776],[123.8092,52.9664],[123.7768,52.9332],[123.7383,52.9051],[123.7213,52.898],[123.6635,52.8967],[123.6092,52.8726],[123.5875,52.8529],[123.5478,52.8023],[123.5347,52.7927],[123.5138,52.7682],[123.4945,52.7752],[123.4746,52.7703],[123.4551,52.7582],[123.4432,52.7423],[123.4641,52.726],[123.4518,52.7079],[123.4495,52.6756],[123.4567,52.6608],[123.4872,52.6113],[123.4967,52.5894],[123.5122,52.5781],[123.5079,52.5534],[123.5147,52.5495],[123.5332,52.5176],[123.5319,52.4956],[123.535,52.4826],[123.5101,52.4583],[123.4915,52.4482],[123.4654,52.4438],[123.4206,52.4292],[123.4081,52.4162],[123.4064,52.3922],[123.3861,52.372],[123.3373,52.3624],[123.3176,52.3564]]]},"properties":{"region_code":"CN-23-2327-232722","parent_region_code":"CN-23-2327","name":"塔河县","level":"county","has_children":false,"full_path":"中国 / 黑龙江省 / 大兴安岭地区 / 塔河县","source_admin_code":"232722","osm_relation_id":2754958}},
{"type":"Feature","geometry":{"type":"Polygon","coordinates":[[[124.0689,50.5646],[124.0693,50.5581],[124.0832,50.5426],[124.0797,50.5382],[124.0191,50.5367],[124.0161,50.5167],[124.0071,50.512],[123.9763,50.5085],[123.9811,50.496],[123.994,50.4908],[123.9961,50.4771],[123.9866,50.4395],[123.9981,50.4328],[123.9816,50.4098],[123.9665,50.399],[123.9327,50.3961],[123.9238,50.3901],[123.9132,50.3717],[123.8821,50.3826],[123.8723,50.4012],[123.8569,50.4073],[123.8333,50.4101],[123.8308,50.4294],[123.8184,50.4481],[123.7931,50.4545],[123.7731,50.4356],[123.7819,50.4271],[123.7764,50.4002],[123.7583,50.3766],[123.7647,50.3682],[123.7797,50.3678],[123.7703,50.3429],[123.7819,50.34],[123.7906,50.3222],[123.8023,50.3196],[123.8101,50.3053],[123.826,50.3056],[123.831,50.2932],[123.8575,50.2839],[123.8635,50.2691],[123.8607,50.2491],[123.8537,50.2331],[123.8591,50.2216],[123.8848,50.2113],[123.9021,50.2086],[123.9236,50.1854],[123.9469,50.1855],[123.9698,50.2073],[123.9927,50.2097],[124.0003,50.2177],[124.0175,50.2093],[124.0464,50.2045],[124.0543,50.1972],[124.096,50.2204],[124.0952,50.237],[124.1279,50.2355],[124.1349,50.2271],[124.1522,50.2247],[124.1588,50.2346],[124.1786,50.2296],[124.1759,50.2238],[124.2035,50.1952],[124.1979,50.184],[124.209,50.1812],[124.2131,50.1675],[124.2351,50.1638],[124.2434,50.172],[124.2482,50.1882],[124.2382,50.2028],[124.2427,50.2137],[124.2264,50.2276],[124.2747,50.2251],[124.2684,50.2133],[124.2793,50.1879],[124.3174,50.1767],[124.3453,50.1912],[124.3523,50.2001],[124.3368,50.2173],[124.3455,50.2336],[124.3451,50.2486],[124.3612,50.2564],[124.3417,50.2791],[124.3457,50.2943],[124.3659,50.3036],[124.3665,50.3092],[124.3402,50.3149],[124.3377,50.3302],[124.35,50.3439],[124.3566,50.3592],[124.3961,50.3608],[124.4017,50.3698],[124.4192,50.3736],[124.4323,50.3838],[124.4221,50.4034],[124.4261,50.4156],[124.4076,50.452],[124.4334,50.4575],[124.4357,50.4746],[124.4303,50.4965],[124.4358,50.5384],[124.422,50.5506],[124.3808,50.5472],[124.3643,50.5384],[124.3369,50.5402],[124.3122,50.5349],[124.2929,50.5559],[124.2517,50.5594],[124.1968,50.5541],[124.1336,50.5681],[124.0979,50.5716],[124.0689,50.5646]]]},"properties":{"region_code":"CN-23-2327-232761","parent_region_code":"CN-23-2327","name":"加格达奇区","level":"county","has_children":false,"full_path":"中国 / 黑龙江省 / 大兴安岭地区 / 加格达奇区","source_admin_code":"232761","osm_relation_id":9355837}},
{"type":"Feature","geometry":{"type":"Polygon","coordinates":[[[125.33,51.6199],[125.3101,51.6078],[125.2912,51.6178],[125.2811,51.6316],[125.2694,51.6357],[125.2485,51.6288],[125.2261,51.6371],[125.2091,51.6253],[125.1688,51.6365],[125.1375,51.6308],[125.1245,51.6321],[125.121,51.6579],[125.0955,51.6557],[125.0843,51.641],[125.0617,51.6233],[125.0621,51.6108],[125.0517,51.602],[125.0589,51.5742],[125.0681,51.5538],[125.0553,51.5433],[125.0474,51.5261],[125.0037,51.5257],[124.983,51.5203],[124.9775,51.5067],[124.961,51.5024],[124.936,51.503],[124.9184,51.4991],[124.917,51.4863],[124.9086,51.4743],[124.9195,51.4695],[124.9316,51.4527],[124.9348,51.4415],[124.9214,51.4343],[124.9051,51.4318],[124.892,51.4172],[124.872,51.4027],[124.8778,51.3902],[124.8662,51.3806],[124.8466,51.3787],[124.7737,51.3916],[124.7464,51.3717],[124.7415,51.3544],[124.7057,51.34],[124.6717,51.3333],[124.6441,51.336],[124.6235,51.3243],[124.59,51.3441],[124.5852,51.3548],[124.5476,51.3751],[124.523,51.3693],[124.4933,51.3811],[124.4753,51.3756],[124.469,51.3613],[124.4368,51.359],[124.4193,51.3428],[124.4213,51.3077],[124.4183,51.2985],[124.396,51.2729],[124.3722,51.2782],[124.3449,51.2767],[124.3293,51.2788],[124.3233,51.2924],[124.3039,51.2876],[124.2623,51.3141],[124.2369,51.3362],[124.2063,51.3488],[124.1704,51.3384],[124.1457,51.3462],[124.1316,51.3389],[124.1126,51.3461],[124.0873,51.3406],[124.0722,51.3231],[124.0568,51.3178],[124.0223,51.3186],[124.0033,51.3234],[123.9728,51.3217],[123.9297,51.3121],[123.9116,51.3026],[123.8839,51.3159],[123.8533,51.3429],[123.849,51.3536],[123.834,51.3629],[123.8152,51.3676],[123.7944,51.3597],[123.7504,51.3718],[123.7089,51.3974],[123.6964,51.3919],[123.6735,51.3694],[123.6715,51.352],[123.6545,51.3452],[123.6494,51.3175],[123.6371,51.3211],[123.5894,51.3103],[123.5752,51.31],[123.5732,51.2923],[123.5367,51.2886],[123.522,51.2834],[123.5038,51.2843],[123.4892,51.2906],[123.4997,51.267],[123.5354,51.255],[123.5387,51.2461],[123.5598,51.2424],[123.5664,51.2328],[123.5692,51.2134],[123.564,51.1938],[123.5697,51.1747],[123.5594,51.1664],[123.562,51.1579],[123.5786,51.1468],[123.5538,51.1311],[123.5625,51.1174],[123.5592,51.1122],[123.5774,51.0908],[123.6024,51.0901],[123.6224,51.0929],[123.7058,51.073],[123.694,51.0571],[123.6875,51.0226],[123.7049,50.9983],[123.7173,50.9905],[123.7403,50.9899],[123.7556,50.9774],[123.7721,50.9277],[123.7646,50.9049],[123.7852,50.8901],[123.7797,50.8685],[123.788,50.8286],[123.8209,50.8364],[123.8564,50.8474],[123.8702,50.8351],[123.8297,50.7987],[123.8649,50.7635],[123.8672,50.7495],[123.9177,50.7387],[123.9352,50.7264],[123.926,50.71],[123.96,50.6836],[123.9907,50.6679],[124.0104,50.655],[124.0222,50.6356],[124.0202,50.6173],[124.0133,50.5964],[124.0689,50.5646],[124.0979,50.5716],[124.1336,50.5681],[124.1968,50.5541],[124.2517,50.5594],[124.2929,50.5559],[124.3122,50.5349],[124.3369,50.5402],[124.3643,50.5384],[124.3808,50.5472],[124.422,50.5506],[124.4358,50.5384],[124.4303,50.4965],[124.4357,50.4746],[124.4334,50.4575],[124.4387,50.4383],[124.4689,50.414],[124.4918,50.3999],[124.5078,50.3666],[124.5373,50.3552],[124.5889,50.3531],[124.65,50.3355],[124.6977,50.3349],[124.7827,50.3205],[124.803,50.321],[124.831,50.3374],[124.8464,50.3372],[124.8815,50.3161],[124.9298,50.3166],[124.9598,50.3038],[124.9941,50.2717],[125.0368,50.2257],[125.0663,50.1975],[125.0929,50.1976],[125.1081,50.2027],[125.1198,50.1886],[125.1563,50.1694],[125.1752,50.1488],[125.1952,50.1504],[125.2101,50.1702],[125.2306,50.1698],[125.2386,50.1581],[125.2845,50.15],[125.3034,50.1392],[125.3105,50.1194],[125.3215,50.1343],[125.3675,50.1354],[125.3339,50.1559],[125.3629,50.1682],[125.3773,50.1703],[125.3754,50.1842],[125.3854,50.1977],[125.4108,50.1938],[125.4413,50.2083],[125.4292,50.2214],[125.4295,50.2293],[125.4506,50.226],[125.4412,50.24],[125.4453,50.2474],[125.4357,50.2605],[125.4449,50.2666],[125.4616,50.2659],[125.4554,50.2932],[125.4743,50.2969],[125.4816,50.3077],[125.5231,50.3298],[125.5088,50.3395],[125.517,50.3501],[125.5282,50.3499],[125.536,50.3617],[125.5132,50.3706],[125.5302,50.3785],[125.5148,50.4098],[125.5287,50.4192],[125.5604,50.4009],[125.576,50.4077],[125.5545,50.4356],[125.5695,50.4398],[125.5844,50.451],[125.6284,50.4439],[125.6396,50.4505],[125.6467,50.4692],[125.6595,50.4775],[125.6688,50.4757],[125.6886,50.4863],[125.7153,50.5144],[125.7286,50.5213],[125.746,50.5166],[125.7658,50.5183],[125.7644,50.5299],[125.7885,50.5321],[125.8234,50.5627],[125.8034,50.5984],[125.8068,50.6239],[125.7884,50.636],[125.7865,50.6498],[125.7966,50.6617],[125.7803,50.6779],[125.8061,50.685],[125.8175,50.7031],[125.7731,50.7236],[125.7871,50.7382],[125.7525,50.7515],[125.7713,50.7665],[125.7947,50.7724],[125.8312,50.7542],[125.8389,50.767],[125.824,50.7831],[125.8334,50.7931],[125.8551,50.79],[125.8833,50.8066],[125.8727,50.8125],[125.8818,50.8217],[125.9078,50.8246],[125.9174,50.8346],[125.9163,50.852],[125.9377,50.853],[125.9498,50.8643],[125.9415,50.8736],[125.9538,50.8993],[125.9672,50.8962],[125.966,50.8796],[125.9767,50.8692],[125.9892,50.8694],[125.9944,50.8801],[125.9886,50.886],[125.9907,50.9047],[126.0117,50.9012],[126.0229,50.906],[126.0121,50.9153],[126.0142,50.9259],[126.0528,50.952],[126.0665,50.9774],[126.0467,50.9749],[126.0297,51.0001],[126.0264,51.01],[126.0384,51.0163],[126.0519,51.0415],[126.0325,51.0447],[126.0254,51.0535],[126.0062,51.0603],[125.9822,51.0783],[125.9679,51.0836],[125.9861,51.112],[125.9633,51.1228],[125.9383,51.1069],[125.9177,51.1217],[125.921,51.1289],[125.9021,51.138],[125.8697,51.1368],[125.8609,51.1451],[125.87,51.157],[125.8547,51.172],[125.8554,51.185],[125.8445,51.2005],[125.8491,51.2052],[125.8351,51.2171],[125.8132,51.2256],[125.7897,51.2218],[125.7503,51.2259],[125.7534,51.2619],[125.7419,51.2648],[125.725,51.2835],[125.7009,51.3051],[125.7007,51.3168],[125.6873,51.3309],[125.6522,51.3493],[125.6407,51.3581],[125.6112,51.3893],[125.6163,51.398],[125.6013,51.4015],[125.5766,51.4279],[125.5607,51.4368],[125.5709,51.4492],[125.5381,51.4632],[125.5349,51.4734],[125.4844,51.5097],[125.4694,51.5257],[125.4274,51.5497],[125.4165,51.5617],[125.3715,51.5862],[125.3626,51.6122],[125.3459,51.6211],[125.33,51.6199]]]},"properties":{"region_code":"CN-23-2327-232762","parent_region_code":"CN-23-2327","name":"松岭区","level":"county","has_children":false,"full_path":"中国 / 黑龙江省 / 大兴安岭地区 / 松岭区","source_admin_code":"232762","osm_relation_id":10672503}},
{"type":"Feature","geometry":{"type":"Polygon","coordinates":[[[125.0654,52.1796],[125.0033,52.1739],[124.9792,52.1646],[124.9657,52.1674],[124.9686,52.195],[124.9523,52.2021],[124.9313,52.2054],[124.9156,52.2134],[124.9236,52.2263],[124.9435,52.2367],[124.921,52.246],[124.8943,52.2504],[124.8759,52.2567],[124.8721,52.2709],[124.8594,52.2827],[124.8431,52.2874],[124.8126,52.2892],[124.7863,52.297],[124.7535,52.3203],[124.7499,52.3364],[124.7378,52.3371],[124.7277,52.3291],[124.7205,52.3039],[124.687,52.2872],[124.6519,52.2619],[124.6155,52.2461],[124.5522,52.244],[124.4894,52.2441],[124.4569,52.2344],[124.4413,52.211],[124.4197,52.2111],[124.3926,52.1916],[124.3394,52.1688],[124.2668,52.1579],[124.2484,52.1648],[124.2377,52.1787],[124.2178,52.2172],[124.1563,52.2138],[124.1638,52.1848],[124.1733,52.127],[124.1486,52.1154],[124.1238,52.0504],[124.1243,51.9869],[124.0647,51.9328],[124.0146,51.9046],[123.9996,51.8675],[124.0436,51.7905],[124.0231,51.7692],[123.9965,51.7486],[123.9133,51.7637],[123.8525,51.7423],[123.8083,51.7385],[123.7835,51.7253],[123.784,51.7003],[123.841,51.6259],[123.841,51.5855],[123.7912,51.5572],[123.7484,51.5456],[123.7074,51.5146],[123.7234,51.4766],[123.6936,51.4273],[123.6964,51.3919],[123.7089,51.3974],[123.7504,51.3718],[123.7944,51.3597],[123.8152,51.3676],[123.834,51.3629],[123.849,51.3536],[123.8533,51.3429],[123.8839,51.3159],[123.9116,51.3026],[123.9297,51.3121],[123.9728,51.3217],[124.0033,51.3234],[124.0223,51.3186],[124.0568,51.3178],[124.0722,51.3231],[124.0873,51.3406],[124.1126,51.3461],[124.1316,51.3389],[124.1457,51.3462],[124.1704,51.3384],[124.2063,51.3488],[124.2369,51.3362],[124.2623,51.3141],[124.3039,51.2876],[124.3233,51.2924],[124.3293,51.2788],[124.3449,51.2767],[124.3722,51.2782],[124.396,51.2729],[124.4183,51.2985],[124.4213,51.3077],[124.4193,51.3428],[124.4368,51.359],[124.469,51.3613],[124.4753,51.3756],[124.4933,51.3811],[124.523,51.3693],[124.5476,51.3751],[124.5852,51.3548],[124.59,51.3441],[124.6235,51.3243],[124.6441,51.336],[124.6717,51.3333],[124.7057,51.34],[124.7415,51.3544],[124.7464,51.3717],[124.7737,51.3916],[124.8466,51.3787],[124.8662,51.3806],[124.8778,51.3902],[124.872,51.4027],[124.892,51.4172],[124.9051,51.4318],[124.9214,51.4343],[124.9348,51.4415],[124.9316,51.4527],[124.9195,51.4695],[124.9086,51.4743],[124.917,51.4863],[124.9184,51.4991],[124.936,51.503],[124.961,51.5024],[124.9775,51.5067],[124.983,51.5203],[125.0037,51.5257],[125.0474,51.5261],[125.0553,51.5433],[125.0681,51.5538],[125.0589,51.5742],[125.0517,51.602],[125.0621,51.6108],[125.0617,51.6233],[125.0843,51.641],[125.0955,51.6557],[125.121,51.6579],[125.1245,51.6321],[125.1375,51.6308],[125.1688,51.6365],[125.2091,51.6253],[125.2261,51.6371],[125.2485,51.6288],[125.2694,51.6357],[125.2811,51.6316],[125.2912,51.6178],[125.3101,51.6078],[125.33,51.6199],[125.404,51.6842],[125.4533,51.7545],[125.4288,51.8398],[125.3756,51.899],[125.3369,51.9298],[125.2022,51.9758],[125.1758,51.9822],[125.1824,52.0201],[125.1085,52.0484],[125.0799,52.0954],[125.0654,52.1796]]]},"properties":{"region_code":"CN-23-2327-232763","parent_region_code":"CN-23-2327","name":"新林区","level":"county","has_children":false,"full_path":"中国 / 黑龙江省 / 大兴安岭地区 / 新林区","source_admin_code":"232763","osm_relation_id":2754959}},
{"type":"Feature","geometry":{"type":"Polygon","coordinates":[[[122.7794,52.2523],[122.7816,52.2405],[122.7555,52.2242],[122.7658,52.2091],[122.7672,52.1768],[122.7382,52.1648],[122.7326,52.1509],[122.7143,52.1446],[122.6958,52.1444],[122.6823,52.1366],[122.63,52.1341],[122.6242,52.1255],[122.6391,52.1088],[122.6407,52.0987],[122.6196,52.0728],[122.6224,52.0618],[122.6391,52.061],[122.6488,52.0516],[122.6455,52.0366],[122.6496,52.0248],[122.66,52.0173],[122.6585,51.9954],[122.6681,51.9752],[122.7115,51.9746],[122.7187,51.9562],[122.7125,51.9425],[122.7249,51.9196],[122.7075,51.9065],[122.6964,51.8906],[122.6994,51.8815],[122.715,51.8762],[122.72,51.859],[122.7332,51.8453],[122.7262,51.8361],[122.7303,51.8233],[122.7421,51.8147],[122.744,51.8041],[122.7575,51.7877],[122.7636,51.7668],[122.7416,51.7446],[122.7621,51.7296],[122.7665,51.7066],[122.774,51.6966],[122.7713,51.6875],[122.7874,51.6816],[122.8108,51.6552],[122.8151,51.6338],[122.8474,51.6128],[122.8479,51.5985],[122.8312,51.5901],[122.8307,51.5747],[122.8493,51.5678],[122.8581,51.5595],[122.8797,51.5488],[122.8792,51.5357],[122.8491,51.5269],[122.861,51.5101],[122.879,51.5016],[122.872,51.4889],[122.8541,51.4768],[122.8534,51.4693],[122.8665,51.4578],[122.8707,51.4478],[122.8978,51.4451],[122.8907,51.4286],[122.8935,51.4166],[122.9148,51.4062],[122.928,51.4072],[122.9606,51.3854],[122.9512,51.3624],[122.9614,51.3468],[122.9609,51.3396],[122.996,51.3092],[123.0132,51.3077],[123.0223,51.3176],[123.0335,51.3153],[123.056,51.3185],[123.0833,51.3088],[123.1037,51.3058],[123.1222,51.2961],[123.1392,51.3018],[123.1538,51.2969],[123.1628,51.2856],[123.1799,51.2815],[123.2167,51.2786],[123.2192,51.2675],[123.2321,51.2652],[123.2736,51.2463],[123.3025,51.2649],[123.338,51.2718],[123.3692,51.2628],[123.3956,51.2763],[123.4234,51.2707],[123.4468,51.2723],[123.4572,51.2889],[123.4892,51.2906],[123.5038,51.2843],[123.522,51.2834],[123.5367,51.2886],[123.5732,51.2923],[123.5752,51.31],[123.5894,51.3103],[123.6371,51.3211],[123.6494,51.3175],[123.6545,51.3452],[123.6715,51.352],[123.6735,51.3694],[123.6964,51.3919],[123.6936,51.4273],[123.7234,51.4766],[123.7074,51.5146],[123.7484,51.5456],[123.7912,51.5572],[123.841,51.5855],[123.841,51.6259],[123.784,51.7003],[123.7835,51.7253],[123.8083,51.7385],[123.8525,51.7423],[123.9133,51.7637],[123.9965,51.7486],[124.0231,51.7692],[124.0436,51.7905],[123.9996,51.8675],[124.0146,51.9046],[124.0647,51.9328],[124.1243,51.9869],[124.1238,52.0504],[124.1486,52.1154],[124.1733,52.127],[124.1638,52.1848],[124.1563,52.2138],[124.1354,52.2132],[124.104,52.2175],[124.0745,52.2264],[124.05,52.2511],[124.0457,52.2691],[124.0547,52.2838],[124.0823,52.2986],[124.0831,52.3043],[124.11,52.3182],[124.1079,52.3336],[124.1222,52.3365],[124.1327,52.3533],[124.1289,52.3682],[124.113,52.3704],[124.0926,52.3811],[124.0689,52.3764],[124.0406,52.3803],[124.0151,52.3651],[123.987,52.3782],[123.9794,52.3886],[123.9581,52.3938],[123.9364,52.4147],[123.9091,52.4105],[123.8877,52.4201],[123.8522,52.4089],[123.8337,52.408],[123.7928,52.4109],[123.7859,52.3981],[123.7606,52.3896],[123.745,52.3901],[123.7167,52.3786],[123.6913,52.3788],[123.6425,52.3721],[123.6358,52.3684],[123.625,52.3487],[123.6168,52.3448],[123.5621,52.3358],[123.5427,52.33],[123.5112,52.3155],[123.4907,52.3123],[123.438,52.2906],[123.4149,52.291],[123.4045,52.2845],[123.3869,52.2943],[123.3779,52.3064],[123.3773,52.323],[123.3687,52.3296],[123.338,52.3347],[123.333,52.35],[123.3176,52.3564],[123.2956,52.3604],[123.2436,52.3448],[123.2255,52.3319],[123.2125,52.3275],[123.1738,52.3263],[123.1579,52.3381],[123.1437,52.3408],[123.1126,52.3273],[123.0606,52.3171],[122.9971,52.308],[122.9521,52.2999],[122.9257,52.3013],[122.9012,52.2978],[122.8789,52.2755],[122.8503,52.2736],[122.8298,52.2582],[122.7794,52.2523]]]},"properties":{"region_code":"CN-23-2327-232764","parent_region_code":"CN-23-2327","name":"呼中区","level":"county","has_children":false,"full_path":"中国 / 黑龙江省 / 大兴安岭地区 / 呼中区","source_admin_code":"232764","osm_relation_id":2754956}}
]}