{"type":"FeatureCollection", "features": [
{"type":"Feature","geometry":{"type":"Polygon","coordinates":[[[123.7416,41.2987],[123.733,41.2896],[123.7055,41.2738],[123.6812,41.2678],[123.6833,41.2973],[123.6566,41.3024],[123.6505,41.2967],[123.664,41.2583],[123.6307,41.245],[123.6137,41.2447],[123.5913,41.2341],[123.6004,41.219],[123.5951,41.2027],[123.6133,41.2007],[123.6285,41.1792],[123.6338,41.1594],[123.6497,41.1485],[123.6625,41.1548],[123.6799,41.1545],[123.6923,41.1477],[123.7148,41.1565],[123.7178,41.1457],[123.7453,41.1449],[123.7638,41.1575],[123.7815,41.1626],[123.7761,41.174],[123.7499,41.1958],[123.7441,41.214],[123.7525,41.2371],[123.7835,41.2406],[123.7626,41.2662],[123.7819,41.2721],[123.7801,41.2931],[123.7416,41.2987]]]},"properties":{"region_code":"CN-21-2105-210502","parent_region_code":"CN-21-2105","name":"平山区","level":"county","has_children":false,"full_path":"中国 / 辽宁省 / 本溪市 / 平山区","source_admin_code":"210502","osm_relation_id":2766191}},
{"type":"Feature","geometry":{"type":"Polygon","coordinates":[[[123.7416,41.2987],[123.7579,41.3117],[123.784,41.3228],[123.7695,41.3607],[123.7439,41.3767],[123.7537,41.4011],[123.7734,41.4152],[123.7676,41.4299],[123.7848,41.4624],[123.8212,41.471],[123.8324,41.4895],[123.8499,41.5032],[123.8434,41.5166],[123.8014,41.5052],[123.7757,41.5105],[123.7839,41.532],[123.7658,41.5372],[123.7216,41.515],[123.7135,41.5081],[123.698,41.5131],[123.6885,41.5243],[123.6586,41.5251],[123.6407,41.5165],[123.6274,41.5219],[123.6102,41.5113],[123.5859,41.4883],[123.6006,41.4744],[123.6019,41.4656],[123.6386,41.4562],[123.6476,41.437],[123.6255,41.4148],[123.6369,41.3906],[123.6469,41.3849],[123.6469,41.3513],[123.6525,41.344],[123.6483,41.3265],[123.6562,41.3227],[123.6566,41.3024],[123.6833,41.2973],[123.6812,41.2678],[123.7055,41.2738],[123.733,41.2896],[123.7416,41.2987]]]},"properties":{"region_code":"CN-21-2105-210503","parent_region_code":"CN-21-2105","name":"溪湖区","level":"county","has_children":false,"full_path":"中国 / 辽宁省 / 本溪市 / 溪湖区","source_admin_code":"210503","osm_relation_id":2766192}},
{"type":"Feature","geometry":{"type":"Polygon","coordinates":[[[123.7835,41.2406],[123.8419,41.2227],[123.8457,41.2119],[123.8728,41.208],[123.9148,41.2212],[123.931,41.21],[123.956,41.2027],[123.9766,41.2016],[124.0006,41.2137],[124.007,41.2365],[123.9869,41.2491],[123.989,41.2717],[124.0019,41.279],[124.0089,41.3068],[123.9853,41.3166],[123.9729,41.317],[123.9697,41.3466],[123.9553,41.3523],[123.9466,41.3722],[123.9254,41.3811],[123.8984,41.3811],[123.8608,41.3723],[123.8544,41.385],[123.8594,41.3947],[123.8483,41.4059],[123.8778,41.4143],[123.8797,41.4354],[123.863,41.4539],[123.858,41.4812],[123.8499,41.5032],[123.8324,41.4895],[123.8212,41.471],[123.7848,41.4624],[123.7676,41.4299],[123.7734,41.4152],[123.7537,41.4011],[123.7439,41.3767],[123.7695,41.3607],[123.784,41.3228],[123.7579,41.3117],[123.7416,41.2987],[123.7801,41.2931],[123.7819,41.2721],[123.7626,41.2662],[123.7835,41.2406]]]},"properties":{"region_code":"CN-21-2105-210504","parent_region_code":"CN-21-2105","name":"明山区","level":"county","has_children":false,"full_path":"中国 / 辽宁省 / 本溪市 / 明山区","source_admin_code":"210504","osm_relation_id":2766189}},
{"type":"Feature","geometry":{"type":"Polygon","coordinates":[[[123.6497,41.1485],[123.6589,41.1373],[123.6496,41.1273],[123.6456,41.111],[123.6629,41.0731],[123.684,41.0578],[123.6788,41.0483],[123.6566,41.0393],[123.6554,41.0176],[123.6417,41.0052],[123.6509,40.972],[123.6699,40.9863],[123.7079,40.9877],[123.7192,40.9989],[123.7581,40.9859],[123.7713,40.9879],[123.7921,40.9808],[123.7949,40.9539],[123.8283,40.9511],[123.8359,40.9629],[123.8766,40.9745],[123.9053,40.972],[123.9158,40.9868],[123.9102,40.9995],[123.9283,41.0056],[123.9312,41.0263],[123.9477,41.0285],[123.944,41.0486],[123.9325,41.0632],[123.9545,41.0753],[123.9498,41.1145],[123.974,41.1193],[123.9826,41.1274],[123.9911,41.1701],[123.9766,41.2016],[123.956,41.2027],[123.931,41.21],[123.9148,41.2212],[123.8728,41.208],[123.8457,41.2119],[123.8419,41.2227],[123.7835,41.2406],[123.7525,41.2371],[123.7441,41.214],[123.7499,41.1958],[123.7761,41.174],[123.7815,41.1626],[123.7638,41.1575],[123.7453,41.1449],[123.7178,41.1457],[123.7148,41.1565],[123.6923,41.1477],[123.6799,41.1545],[123.6625,41.1548],[123.6497,41.1485]]]},"properties":{"region_code":"CN-21-2105-210505","parent_region_code":"CN-21-2105","name":"南芬区","level":"county","has_children":false,"full_path":"中国 / 辽宁省 / 本溪市 / 南芬区","source_admin_code":"210505","osm_relation_id":2766190}},
{"type":"Feature","geometry":{"type":"Polygon","coordinates":[[[123.8499,41.5032],[123.858,41.4812],[123.863,41.4539],[123.8797,41.4354],[123.8778,41.4143],[123.8483,41.4059],[123.8594,41.3947],[123.8544,41.385],[123.8608,41.3723],[123.8984,41.3811],[123.9254,41.3811],[123.9466,41.3722],[123.9553,41.3523],[123.9697,41.3466],[123.9729,41.317],[123.9853,41.3166],[124.0089,41.3068],[124.0019,41.279],[123.989,41.2717],[123.9869,41.2491],[124.007,41.2365],[124.0006,41.2137],[123.9766,41.2016],[123.9911,41.1701],[123.9826,41.1274],[123.974,41.1193],[123.9498,41.1145],[123.9545,41.0753],[123.9325,41.0632],[123.944,41.0486],[123.9477,41.0285],[123.9312,41.0263],[123.9283,41.0056],[123.9102,40.9995],[123.9158,40.9868],[123.9053,40.972],[123.8766,40.9745],[123.8359,40.9629],[123.8283,40.9511],[123.7949,40.9539],[123.7921,40.9808],[123.7713,40.9879],[123.7581,40.9859],[123.7192,40.9989],[123.7079,40.9877],[123.6699,40.9863],[123.6509,40.972],[123.6424,40.963],[123.6523,40.9509],[123.6408,40.9291],[123.618,40.9106],[123.6024,40.8697],[123.5922,40.8554],[123.6337,40.8433],[123.6581,40.8252],[123.6809,40.8322],[123.6873,40.8148],[123.7084,40.8188],[123.7269,40.8292],[123.7391,40.8505],[123.7619,40.8475],[123.7728,40.8542],[123.7859,40.8492],[123.8258,40.8576],[123.8466,40.8506],[123.8672,40.8383],[123.8736,40.8408],[123.9014,40.8303],[123.9259,40.8251],[123.9499,40.8445],[123.9658,40.85],[123.9749,40.866],[124.0106,40.8581],[124.0375,40.8638],[124.0784,40.8593],[124.0971,40.8446],[124.11,40.8519],[124.1284,40.8516],[124.1375,40.8612],[124.1353,40.878],[124.1432,40.8913],[124.1255,40.9075],[124.1262,40.9231],[124.142,40.9554],[124.1235,40.965],[124.1214,40.9825],[124.112,40.9921],[124.0876,41.0339],[124.1173,41.0379],[124.1141,41.0448],[124.1466,41.0511],[124.1605,41.0351],[124.1788,41.0251],[124.1999,41.0389],[124.2274,41.0409],[124.231,41.0781],[124.2554,41.098],[124.2786,41.0981],[124.3006,41.0882],[124.2886,41.0739],[124.2952,41.0521],[124.3455,41.0733],[124.3596,41.0541],[124.3694,41.0509],[124.3944,41.0592],[124.4082,41.0728],[124.4289,41.0714],[124.4386,41.0652],[124.4756,41.0579],[124.5049,41.0476],[124.5124,41.0604],[124.534,41.0728],[124.5359,41.0872],[124.5624,41.0986],[124.5796,41.1002],[124.6051,41.0897],[124.6269,41.0941],[124.6427,41.0894],[124.6657,41.0939],[124.6679,41.113],[124.6755,41.1249],[124.6967,41.123],[124.7303,41.1528],[124.7212,41.1701],[124.7238,41.1835],[124.7406,41.2052],[124.7321,41.234],[124.7615,41.2678],[124.7574,41.2727],[124.7062,41.2602],[124.6717,41.2628],[124.6485,41.2378],[124.6351,41.2428],[124.6274,41.2624],[124.5902,41.2651],[124.5614,41.2849],[124.5371,41.3098],[124.5114,41.3168],[124.4946,41.3297],[124.4653,41.33],[124.4516,41.3163],[124.4608,41.3051],[124.4446,41.3001],[124.4181,41.3094],[124.4075,41.336],[124.3878,41.3419],[124.3826,41.3671],[124.3546,41.3815],[124.3395,41.4058],[124.3398,41.4271],[124.3784,41.4593],[124.3652,41.4714],[124.348,41.4697],[124.3269,41.4742],[124.3196,41.4907],[124.3037,41.4981],[124.3035,41.5134],[124.2945,41.5357],[124.2771,41.5407],[124.2516,41.5383],[124.2243,41.5469],[124.1961,41.5319],[124.1723,41.5331],[124.1631,41.5187],[124.1347,41.5154],[124.1095,41.5035],[124.0919,41.5331],[124.0469,41.5281],[124.0198,41.5438],[123.9808,41.5572],[123.9538,41.5552],[123.9282,41.5469],[123.9163,41.5664],[123.8822,41.5648],[123.862,41.5603],[123.8546,41.5488],[123.8565,41.5299],[123.8434,41.5166],[123.8499,41.5032]]]},"properties":{"region_code":"CN-21-2105-210521","parent_region_code":"CN-21-2105","name":"本溪满族自治县","level":"county","has_children":false,"full_path":"中国 / 辽宁省 / 本溪市 / 本溪满族自治县","source_admin_code":"210521","osm_relation_id":2766187}},
{"type":"Feature","geometry":{"type":"Polygon","coordinates":[[[124.7303,41.1528],[124.7438,41.1497],[124.7588,41.136],[124.7889,41.1312],[124.8082,41.1416],[124.8312,41.136],[124.8501,41.1368],[124.8853,41.1214],[124.9754,41.1105],[124.9914,41.0962],[125.0124,41.1089],[125.0378,41.1162],[125.0626,41.1092],[125.0656,41.101],[125.1058,41.0894],[125.1365,41.092],[125.1467,41.1038],[125.187,41.1046],[125.1992,41.0966],[125.2249,41.1115],[125.2568,41.0949],[125.2673,41.0985],[125.2984,41.0838],[125.303,41.0617],[125.3335,41.0333],[125.3464,41.0351],[125.3357,41.009],[125.3501,40.9965],[125.3853,40.9981],[125.3813,41.0129],[125.4268,41.0105],[125.4275,41.0259],[125.4434,41.0282],[125.4557,41.0171],[125.4531,41.0036],[125.4598,40.9939],[125.448,40.9691],[125.4568,40.9612],[125.4967,40.9545],[125.4824,40.9734],[125.4888,40.9844],[125.5228,40.9849],[125.5257,40.9781],[125.5147,40.9519],[125.494,40.9372],[125.5128,40.9116],[125.5279,40.9063],[125.543,40.9111],[125.544,40.9216],[125.5596,40.9286],[125.5838,40.916],[125.5844,40.9295],[125.6377,40.9486],[125.643,40.9688],[125.6766,40.9844],[125.6782,41.0194],[125.6986,41.0323],[125.7198,41.0536],[125.7198,41.0614],[125.7352,41.0871],[125.7045,41.0936],[125.7191,41.1192],[125.7522,41.1277],[125.761,41.1485],[125.7852,41.1653],[125.758,41.1697],[125.7306,41.1848],[125.7343,41.2038],[125.7519,41.2314],[125.7439,41.2434],[125.713,41.2425],[125.6884,41.2465],[125.6781,41.2724],[125.6687,41.2755],[125.6415,41.2623],[125.6333,41.2808],[125.6371,41.2932],[125.6228,41.3174],[125.6345,41.3341],[125.6051,41.3524],[125.5855,41.3551],[125.571,41.3667],[125.582,41.3798],[125.5759,41.3927],[125.543,41.3982],[125.5461,41.4086],[125.5288,41.4271],[125.5349,41.4654],[125.527,41.4767],[125.4873,41.506],[125.4863,41.5196],[125.5011,41.5319],[125.4835,41.5357],[125.4726,41.5444],[125.4697,41.5585],[125.4563,41.5657],[125.4489,41.5493],[125.42,41.5481],[125.4108,41.5417],[125.3937,41.545],[125.3754,41.5599],[125.3611,41.5365],[125.3223,41.509],[125.3165,41.4945],[125.2898,41.4908],[125.2725,41.4924],[125.2508,41.5027],[125.2437,41.4848],[125.2161,41.4777],[125.2031,41.4806],[125.1958,41.4985],[125.1484,41.486],[125.1175,41.5],[125.0858,41.4909],[125.062,41.4916],[125.0611,41.4721],[125.0512,41.4716],[124.9926,41.495],[124.9642,41.4997],[124.9458,41.515],[124.9344,41.5026],[124.9148,41.4983],[124.8932,41.472],[124.8747,41.4685],[124.8827,41.4557],[124.8762,41.4429],[124.8588,41.4414],[124.8488,41.4229],[124.8567,41.3978],[124.8508,41.3714],[124.866,41.3457],[124.864,41.3239],[124.8342,41.3199],[124.8291,41.3084],[124.779,41.2874],[124.7574,41.2727],[124.7615,41.2678],[124.7321,41.234],[124.7406,41.2052],[124.7238,41.1835],[124.7212,41.1701],[124.7303,41.1528]]]},"properties":{"region_code":"CN-21-2105-210522","parent_region_code":"CN-21-2105","name":"桓仁满族自治县","level":"county","has_children":false,"full_path":"中国 / 辽宁省 / 本溪市 / 桓仁满族自治县","source_admin_code":"210522","osm_relation_id":2766188}}
]}