{"type":"FeatureCollection", "features": [
{"type":"Feature","geometry":{"type":"Polygon","coordinates":[[[126.0191,43.9765],[126.0377,43.9812],[126.0863,43.9713],[126.0884,43.982],[126.1002,43.9832],[126.126,43.9634],[126.1435,43.9586],[126.1695,43.9586],[126.1703,43.9418],[126.1851,43.9235],[126.1588,43.9174],[126.1469,43.9266],[126.1358,43.9162],[126.1465,43.9035],[126.1724,43.8999],[126.1713,43.8856],[126.1924,43.8888],[126.2034,43.8993],[126.2299,43.9138],[126.2444,43.9266],[126.27,43.9319],[126.3119,43.9482],[126.3349,43.9477],[126.3541,43.9627],[126.3771,43.9653],[126.3893,43.9557],[126.388,43.9402],[126.4098,43.9309],[126.4218,43.9348],[126.4507,43.9297],[126.4526,43.9227],[126.4729,43.9096],[126.4732,43.9024],[126.4919,43.9023],[126.5064,43.8773],[126.5178,43.8723],[126.5328,43.8574],[126.5488,43.8634],[126.5614,43.8567],[126.5596,43.8341],[126.5863,43.8325],[126.5979,43.8474],[126.5922,43.865],[126.5948,43.8767],[126.5894,43.8854],[126.5439,43.893],[126.5338,43.902],[126.5309,43.9158],[126.523,43.9236],[126.4947,43.9302],[126.4765,43.9306],[126.4741,43.9436],[126.494,43.9522],[126.4975,43.9595],[126.4901,43.9785],[126.4737,44.0074],[126.4729,44.0325],[126.4782,44.041],[126.4712,44.0553],[126.4517,44.059],[126.4232,44.07],[126.4193,44.0789],[126.4309,44.1094],[126.4083,44.127],[126.4239,44.1434],[126.4416,44.1702],[126.4497,44.1723],[126.427,44.1724],[126.3847,44.1798],[126.3701,44.172],[126.3433,44.1725],[126.3255,44.1851],[126.2901,44.1889],[126.291,44.174],[126.2674,44.1797],[126.2192,44.1743],[126.2029,44.1546],[126.1761,44.1617],[126.1593,44.1565],[126.1439,44.1349],[126.1271,44.1273],[126.1344,44.1178],[126.1239,44.111],[126.1049,44.1239],[126.0866,44.1128],[126.0834,44.1008],[126.0575,44.0763],[126.0577,44.0647],[126.0363,44.059],[125.9996,44.0246],[125.994,43.9953],[126.0191,43.9765]]]},"properties":{"region_code":"CN-22-2202-220202","parent_region_code":"CN-22-2202","name":"昌邑区","level":"county","has_children":false,"full_path":"中国 / 吉林省 / 吉林市 / 昌邑区","source_admin_code":"220202","osm_relation_id":2764046}},
{"type":"Feature","geometry":{"type":"Polygon","coordinates":[[[126.5922,43.865],[126.5994,43.8591],[126.6293,43.8638],[126.6461,43.8515],[126.6646,43.852],[126.7001,43.8457],[126.7156,43.8263],[126.7457,43.8185],[126.747,43.8122],[126.7689,43.8092],[126.7859,43.8163],[126.813,43.8175],[126.8256,43.8347],[126.8407,43.8434],[126.8457,43.8538],[126.8342,43.8744],[126.8247,43.8775],[126.8117,43.9034],[126.8356,43.8972],[126.8526,43.9116],[126.8313,43.92],[126.8247,43.9361],[126.8352,43.956],[126.8528,43.9663],[126.8437,43.9723],[126.8315,43.9953],[126.8194,44.0071],[126.793,44.01],[126.7854,44.0208],[126.7465,44.0489],[126.768,44.0542],[126.7646,44.0749],[126.7537,44.0777],[126.7679,44.102],[126.7865,44.1056],[126.7965,44.0984],[126.8192,44.0944],[126.8074,44.1192],[126.7991,44.1252],[126.7961,44.1435],[126.771,44.1885],[126.7806,44.1983],[126.8001,44.2079],[126.7832,44.2127],[126.7956,44.2292],[126.7727,44.2345],[126.766,44.2407],[126.7578,44.2636],[126.7191,44.2555],[126.7198,44.273],[126.7331,44.2866],[126.7251,44.301],[126.7054,44.2995],[126.6971,44.2922],[126.6729,44.2847],[126.6806,44.2706],[126.6671,44.258],[126.6561,44.2418],[126.6117,44.226],[126.5788,44.231],[126.5675,44.2412],[126.5556,44.2397],[126.5449,44.2281],[126.521,44.2396],[126.5032,44.2405],[126.4978,44.232],[126.4931,44.2174],[126.4743,44.2138],[126.4617,44.2021],[126.4646,44.1834],[126.4497,44.1723],[126.4416,44.1702],[126.4239,44.1434],[126.4083,44.127],[126.4309,44.1094],[126.4193,44.0789],[126.4232,44.07],[126.4517,44.059],[126.4712,44.0553],[126.4782,44.041],[126.4729,44.0325],[126.4737,44.0074],[126.4901,43.9785],[126.4975,43.9595],[126.494,43.9522],[126.4741,43.9436],[126.4765,43.9306],[126.4947,43.9302],[126.523,43.9236],[126.5309,43.9158],[126.5338,43.902],[126.5439,43.893],[126.5894,43.8854],[126.5948,43.8767],[126.5922,43.865]]]},"properties":{"region_code":"CN-22-2202-220203","parent_region_code":"CN-22-2202","name":"龙潭区","level":"county","has_children":false,"full_path":"中国 / 吉林省 / 吉林市 / 龙潭区","source_admin_code":"220203","osm_relation_id":2764051}},
{"type":"Feature","geometry":{"type":"Polygon","coordinates":[[[126.0191,43.9765],[126.024,43.9508],[126.0314,43.9369],[126.017,43.9309],[126.0372,43.9194],[126.0388,43.9082],[126.0311,43.8942],[126.0359,43.8796],[126.0568,43.8733],[126.0819,43.8614],[126.0881,43.8746],[126.1027,43.8867],[126.1149,43.8804],[126.1147,43.8668],[126.1337,43.8645],[126.1348,43.8562],[126.1189,43.8418],[126.1275,43.8175],[126.1435,43.8233],[126.1554,43.8199],[126.1556,43.8067],[126.1867,43.7805],[126.1969,43.7825],[126.2067,43.774],[126.1734,43.7672],[126.1777,43.7565],[126.1925,43.7427],[126.2052,43.7393],[126.2199,43.7439],[126.2291,43.7332],[126.2244,43.7167],[126.2459,43.7028],[126.2672,43.7124],[126.2814,43.7148],[126.3065,43.7275],[126.3235,43.7414],[126.3462,43.7339],[126.3598,43.7403],[126.3664,43.7505],[126.3635,43.7599],[126.3784,43.7716],[126.4157,43.7806],[126.45,43.7804],[126.4932,43.7874],[126.5054,43.8023],[126.5321,43.8112],[126.532,43.8238],[126.5421,43.8321],[126.5596,43.8341],[126.5614,43.8567],[126.5488,43.8634],[126.5328,43.8574],[126.5178,43.8723],[126.5064,43.8773],[126.4919,43.9023],[126.4732,43.9024],[126.4729,43.9096],[126.4526,43.9227],[126.4507,43.9297],[126.4218,43.9348],[126.4098,43.9309],[126.388,43.9402],[126.3893,43.9557],[126.3771,43.9653],[126.3541,43.9627],[126.3349,43.9477],[126.3119,43.9482],[126.27,43.9319],[126.2444,43.9266],[126.2299,43.9138],[126.2034,43.8993],[126.1924,43.8888],[126.1713,43.8856],[126.1724,43.8999],[126.1465,43.9035],[126.1358,43.9162],[126.1469,43.9266],[126.1588,43.9174],[126.1851,43.9235],[126.1703,43.9418],[126.1695,43.9586],[126.1435,43.9586],[126.126,43.9634],[126.1002,43.9832],[126.0884,43.982],[126.0863,43.9713],[126.0377,43.9812],[126.0191,43.9765]]]},"properties":{"region_code":"CN-22-2202-220204","parent_region_code":"CN-22-2202","name":"船营区","level":"county","has_children":false,"full_path":"中国 / 吉林省 / 吉林市 / 船营区","source_admin_code":"220204","osm_relation_id":2764047}},
{"type":"Feature","geometry":{"type":"Polygon","coordinates":[[[126.5596,43.8341],[126.5421,43.8321],[126.532,43.8238],[126.5321,43.8112],[126.5054,43.8023],[126.4932,43.7874],[126.45,43.7804],[126.4157,43.7806],[126.3784,43.7716],[126.3635,43.7599],[126.3664,43.7505],[126.3598,43.7403],[126.3759,43.7273],[126.3701,43.7209],[126.3792,43.703],[126.3958,43.698],[126.4007,43.6895],[126.4288,43.673],[126.4612,43.6795],[126.4692,43.692],[126.4699,43.7076],[126.4975,43.7118],[126.5172,43.7189],[126.5527,43.721],[126.5596,43.7155],[126.581,43.7126],[126.5819,43.6983],[126.5939,43.6912],[126.6004,43.6749],[126.6195,43.6596],[126.6189,43.643],[126.5912,43.6277],[126.5933,43.6157],[126.6046,43.5983],[126.6143,43.5925],[126.6085,43.5744],[126.6283,43.5641],[126.6247,43.5437],[126.6292,43.5304],[126.6115,43.5279],[126.6019,43.5177],[126.5989,43.5031],[126.6304,43.4837],[126.6345,43.4634],[126.6493,43.459],[126.6661,43.4585],[126.6784,43.448],[126.6968,43.4461],[126.7246,43.4675],[126.7518,43.4716],[126.788,43.469],[126.8188,43.4825],[126.8403,43.473],[126.8572,43.4612],[126.8591,43.4449],[126.9101,43.4555],[126.9105,43.4666],[126.9321,43.4703],[126.9196,43.4977],[126.9221,43.5257],[126.9149,43.5815],[126.9008,43.5902],[126.9338,43.6156],[126.9423,43.6332],[126.9273,43.6458],[126.9084,43.6391],[126.8905,43.6422],[126.872,43.6513],[126.8483,43.6559],[126.8015,43.6512],[126.7791,43.6624],[126.7772,43.6856],[126.7999,43.7195],[126.8302,43.7446],[126.8204,43.7562],[126.8274,43.7645],[126.8287,43.7845],[126.8083,43.8038],[126.813,43.8175],[126.7859,43.8163],[126.7689,43.8092],[126.747,43.8122],[126.7457,43.8185],[126.7156,43.8263],[126.7001,43.8457],[126.6646,43.852],[126.6461,43.8515],[126.6293,43.8638],[126.5994,43.8591],[126.5922,43.865],[126.5979,43.8474],[126.5863,43.8325],[126.5596,43.8341]]]},"properties":{"region_code":"CN-22-2202-220211","parent_region_code":"CN-22-2202","name":"丰满区","level":"county","has_children":false,"full_path":"中国 / 吉林省 / 吉林市 / 丰满区","source_admin_code":"220211","osm_relation_id":2764048}},
{"type":"Feature","geometry":{"type":"Polygon","coordinates":[[[126.0359,43.8796],[125.9834,43.8729],[125.9787,43.854],[125.9443,43.8474],[125.9303,43.857],[125.9116,43.8595],[125.8963,43.8538],[125.8837,43.8618],[125.8589,43.8515],[125.8544,43.8582],[125.8164,43.8616],[125.8,43.808],[125.7973,43.7886],[125.8126,43.7767],[125.8134,43.763],[125.8276,43.7495],[125.8268,43.7311],[125.8436,43.7042],[125.8543,43.6934],[125.8692,43.6668],[125.8708,43.6584],[125.8844,43.6419],[125.8808,43.6168],[125.8901,43.6],[125.8807,43.5916],[125.8815,43.5783],[125.8761,43.5647],[125.8641,43.5585],[125.862,43.5406],[125.8512,43.5364],[125.8617,43.5209],[125.8607,43.5078],[125.8489,43.4931],[125.8636,43.4865],[125.8769,43.459],[125.8917,43.4488],[125.9069,43.4443],[125.9172,43.435],[125.9307,43.4324],[125.9399,43.4136],[125.9604,43.4049],[125.9698,43.418],[125.984,43.4264],[126.0051,43.4311],[126.0124,43.4442],[126.0287,43.4503],[126.0443,43.4382],[126.0594,43.4449],[126.0662,43.4376],[126.0801,43.4398],[126.0858,43.4517],[126.107,43.4537],[126.1308,43.4516],[126.1247,43.4232],[126.1296,43.4066],[126.1689,43.3908],[126.1712,43.4001],[126.1862,43.4073],[126.2211,43.4101],[126.2414,43.4046],[126.2451,43.392],[126.2556,43.3888],[126.2639,43.3761],[126.2901,43.3702],[126.3092,43.3587],[126.3325,43.3492],[126.3496,43.3588],[126.3511,43.3752],[126.3612,43.3871],[126.3867,43.3884],[126.3974,43.3936],[126.4046,43.4061],[126.4176,43.4041],[126.4331,43.3858],[126.4236,43.3752],[126.4362,43.3608],[126.4338,43.3488],[126.4438,43.3435],[126.4593,43.3447],[126.4689,43.3373],[126.4829,43.346],[126.4919,43.3335],[126.5181,43.3226],[126.5203,43.3113],[126.5574,43.3179],[126.561,43.3313],[126.5468,43.3402],[126.5526,43.3539],[126.5712,43.3538],[126.5945,43.3635],[126.6107,43.3794],[126.6093,43.3985],[126.6553,43.41],[126.6553,43.423],[126.6431,43.4338],[126.6493,43.459],[126.6345,43.4634],[126.6304,43.4837],[126.5989,43.5031],[126.6019,43.5177],[126.6115,43.5279],[126.6292,43.5304],[126.6247,43.5437],[126.6283,43.5641],[126.6085,43.5744],[126.6143,43.5925],[126.6046,43.5983],[126.5933,43.6157],[126.5912,43.6277],[126.6189,43.643],[126.6195,43.6596],[126.6004,43.6749],[126.5939,43.6912],[126.5819,43.6983],[126.581,43.7126],[126.5596,43.7155],[126.5527,43.721],[126.5172,43.7189],[126.4975,43.7118],[126.4699,43.7076],[126.4692,43.692],[126.4612,43.6795],[126.4288,43.673],[126.4007,43.6895],[126.3958,43.698],[126.3792,43.703],[126.3701,43.7209],[126.3759,43.7273],[126.3598,43.7403],[126.3462,43.7339],[126.3235,43.7414],[126.3065,43.7275],[126.2814,43.7148],[126.2672,43.7124],[126.2459,43.7028],[126.2244,43.7167],[126.2291,43.7332],[126.2199,43.7439],[126.2052,43.7393],[126.1925,43.7427],[126.1777,43.7565],[126.1734,43.7672],[126.2067,43.774],[126.1969,43.7825],[126.1867,43.7805],[126.1556,43.8067],[126.1554,43.8199],[126.1435,43.8233],[126.1275,43.8175],[126.1189,43.8418],[126.1348,43.8562],[126.1337,43.8645],[126.1147,43.8668],[126.1149,43.8804],[126.1027,43.8867],[126.0881,43.8746],[126.0819,43.8614],[126.0568,43.8733],[126.0359,43.8796]]]},"properties":{"region_code":"CN-22-2202-220221","parent_region_code":"CN-22-2202","name":"永吉县","level":"county","has_children":false,"full_path":"中国 / 吉林省 / 吉林市 / 永吉县","source_admin_code":"220221","osm_relation_id":2764054}},
{"type":"Feature","geometry":{"type":"Polygon","coordinates":[[[126.813,43.8175],[126.8083,43.8038],[126.8287,43.7845],[126.8274,43.7645],[126.8204,43.7562],[126.8302,43.7446],[126.7999,43.7195],[126.7772,43.6856],[126.7791,43.6624],[126.8015,43.6512],[126.8483,43.6559],[126.872,43.6513],[126.8905,43.6422],[126.9084,43.6391],[126.9273,43.6458],[126.9423,43.6332],[126.9338,43.6156],[126.9008,43.5902],[126.9149,43.5815],[126.9221,43.5257],[126.9196,43.4977],[126.9321,43.4703],[126.9554,43.4567],[126.9787,43.4552],[126.9876,43.4468],[127.0068,43.4106],[127.0287,43.4012],[127.0766,43.4003],[127.104,43.3882],[127.1369,43.3953],[127.1429,43.3914],[127.1283,43.373],[127.1065,43.3576],[127.0941,43.3337],[127.0954,43.3157],[127.1282,43.2836],[127.1488,43.2831],[127.1458,43.2683],[127.1301,43.2511],[127.1339,43.2414],[127.1651,43.2481],[127.1819,43.2474],[127.2066,43.2093],[127.2295,43.2061],[127.2817,43.2292],[127.2923,43.2233],[127.3218,43.2266],[127.3421,43.2215],[127.3683,43.2241],[127.371,43.2327],[127.4055,43.2338],[127.425,43.2501],[127.4226,43.2589],[127.454,43.2671],[127.4772,43.2794],[127.4966,43.2789],[127.518,43.2849],[127.5287,43.2943],[127.5456,43.2952],[127.5682,43.2814],[127.5921,43.3066],[127.6094,43.3031],[127.6237,43.3099],[127.6279,43.321],[127.6118,43.3322],[127.6182,43.3386],[127.6337,43.3378],[127.6418,43.3439],[127.6652,43.3464],[127.6766,43.3522],[127.6799,43.3645],[127.698,43.3924],[127.7056,43.4242],[127.6898,43.4362],[127.6909,43.449],[127.7009,43.4614],[127.7005,43.4751],[127.6918,43.4824],[127.7125,43.5013],[127.7375,43.5014],[127.7553,43.521],[127.7681,43.5241],[127.7626,43.5383],[127.7707,43.5527],[127.7839,43.551],[127.7856,43.5623],[127.8043,43.5783],[127.8095,43.5879],[127.8238,43.596],[127.8351,43.5926],[127.8587,43.6221],[127.8793,43.6181],[127.8903,43.6222],[127.8905,43.6365],[127.9105,43.6545],[127.8995,43.6741],[127.9077,43.6929],[127.9173,43.7043],[127.9091,43.7285],[127.8884,43.7277],[127.8704,43.7333],[127.8511,43.7449],[127.837,43.7674],[127.834,43.7928],[127.8013,43.8275],[127.8128,43.8548],[127.8306,43.8652],[127.8482,43.8558],[127.8546,43.8806],[127.8445,43.8939],[127.7884,43.9146],[127.77,43.935],[127.7752,43.9527],[127.7733,43.9685],[127.78,43.9875],[127.7774,43.9937],[127.8644,44.053],[127.8395,44.0801],[127.8016,44.0821],[127.7774,44.0697],[127.7499,44.0822],[127.735,44.0708],[127.7377,44.0516],[127.7247,44.0375],[127.7139,44.0383],[127.701,44.0214],[127.6809,44.0131],[127.6628,44.0003],[127.6628,43.9945],[127.6439,43.989],[127.6296,43.9967],[127.6062,43.9934],[127.5978,44.0094],[127.5788,44.0346],[127.5636,44.0366],[127.5237,44.0288],[127.5219,44.0444],[127.5134,44.0687],[127.4933,44.0827],[127.4579,44.0961],[127.4317,44.1134],[127.3932,44.1077],[127.3848,44.1106],[127.3673,44.1056],[127.3427,44.0655],[127.3387,44.0502],[127.3301,44.0484],[127.3359,44.0268],[127.3217,44.0179],[127.3128,44.0035],[127.3022,44.004],[127.2736,43.9901],[127.2685,43.9843],[127.2779,43.9731],[127.2749,43.9642],[127.2564,43.9656],[127.246,43.9574],[127.1837,43.9656],[127.1704,43.973],[127.1573,44.01],[127.1601,44.0226],[127.172,44.0233],[127.1854,44.0499],[127.1654,44.0506],[127.1606,44.077],[127.1709,44.0897],[127.1408,44.0853],[127.1327,44.0956],[127.0984,44.0966],[127.0886,44.1112],[127.0644,44.1093],[127.0558,44.1199],[127.0228,44.1203],[127.0044,44.1278],[126.986,44.1224],[126.9847,44.1345],[126.9632,44.1331],[126.8942,44.1446],[126.8821,44.1417],[126.8767,44.1274],[126.8642,44.1175],[126.8565,44.1047],[126.8418,44.0969],[126.8192,44.0944],[126.7965,44.0984],[126.7865,44.1056],[126.7679,44.102],[126.7537,44.0777],[126.7646,44.0749],[126.768,44.0542],[126.7465,44.0489],[126.7854,44.0208],[126.793,44.01],[126.8194,44.0071],[126.8315,43.9953],[126.8437,43.9723],[126.8528,43.9663],[126.8352,43.956],[126.8247,43.9361],[126.8313,43.92],[126.8526,43.9116],[126.8356,43.8972],[126.8117,43.9034],[126.8247,43.8775],[126.8342,43.8744],[126.8457,43.8538],[126.8407,43.8434],[126.8256,43.8347],[126.813,43.8175]]]},"properties":{"region_code":"CN-22-2202-220281","parent_region_code":"CN-22-2202","name":"蛟河市","level":"county","has_children":false,"full_path":"中国 / 吉林省 / 吉林市 / 蛟河市","source_admin_code":"220281","osm_relation_id":2764050}},
{"type":"Feature","geometry":{"type":"Polygon","coordinates":[[[126.6493,43.459],[126.6431,43.4338],[126.6553,43.423],[126.6553,43.41],[126.6093,43.3985],[126.6107,43.3794],[126.5945,43.3635],[126.5712,43.3538],[126.5526,43.3539],[126.5468,43.3402],[126.561,43.3313],[126.5574,43.3179],[126.5203,43.3113],[126.5181,43.3226],[126.4919,43.3335],[126.4829,43.346],[126.4689,43.3373],[126.4593,43.3447],[126.4438,43.3435],[126.4338,43.3488],[126.4362,43.3608],[126.4236,43.3752],[126.4331,43.3858],[126.4176,43.4041],[126.4046,43.4061],[126.3974,43.3936],[126.3867,43.3884],[126.3612,43.3871],[126.3511,43.3752],[126.3496,43.3588],[126.3325,43.3492],[126.3092,43.3587],[126.2989,43.3406],[126.2884,43.3385],[126.2849,43.3253],[126.3087,43.3156],[126.3122,43.2956],[126.3359,43.2941],[126.3481,43.2888],[126.3415,43.2745],[126.3397,43.2566],[126.3135,43.2434],[126.3041,43.2473],[126.2746,43.2425],[126.2694,43.229],[126.2774,43.2165],[126.296,43.1999],[126.3158,43.2041],[126.3229,43.1849],[126.3292,43.1821],[126.3329,43.1548],[126.3625,43.142],[126.3937,43.1532],[126.4128,43.127],[126.4298,43.1277],[126.449,43.1197],[126.4533,43.1108],[126.4717,43.1025],[126.4901,43.0835],[126.4909,43.0771],[126.5176,43.0561],[126.5314,43.06],[126.5489,43.0486],[126.542,43.0382],[126.5435,43.0284],[126.5539,43.022],[126.5545,43.0071],[126.5722,42.988],[126.5913,42.9905],[126.5943,42.967],[126.5835,42.9556],[126.5802,42.9425],[126.5992,42.9296],[126.6101,42.9116],[126.5896,42.8949],[126.588,42.8803],[126.6109,42.8803],[126.6183,42.8691],[126.6077,42.8542],[126.6078,42.8439],[126.6179,42.8276],[126.6272,42.8241],[126.6568,42.8352],[126.6692,42.828],[126.6725,42.8108],[126.6849,42.7965],[126.669,42.7877],[126.6598,42.7778],[126.6462,42.7764],[126.6458,42.7564],[126.6537,42.7429],[126.6438,42.7276],[126.6547,42.7251],[126.6789,42.7054],[126.6929,42.7044],[126.7126,42.6949],[126.7281,42.6932],[126.7369,42.6752],[126.7533,42.665],[126.7686,42.6689],[126.7819,42.694],[126.8066,42.7068],[126.8053,42.7195],[126.7945,42.7339],[126.8071,42.7507],[126.8165,42.7752],[126.8249,42.7743],[126.8447,42.7821],[126.8702,42.7783],[126.8937,42.7847],[126.8913,42.8003],[126.9419,42.8036],[126.9449,42.8093],[126.9846,42.8025],[126.9945,42.7912],[127.0097,42.7867],[127.0356,42.8043],[127.0453,42.8011],[127.0645,42.8114],[127.0787,42.8016],[127.0917,42.7995],[127.1185,42.8027],[127.1295,42.7989],[127.1546,42.8079],[127.1754,42.8224],[127.1862,42.841],[127.1959,42.8326],[127.1859,42.8196],[127.1877,42.7989],[127.1964,42.784],[127.1959,42.7598],[127.2055,42.7454],[127.2209,42.7363],[127.2267,42.719],[127.2473,42.7089],[127.2418,42.6765],[127.2204,42.6533],[127.1972,42.6092],[127.2019,42.5993],[127.2166,42.6029],[127.2378,42.5977],[127.2735,42.613],[127.2732,42.6295],[127.2976,42.6305],[127.3175,42.6369],[127.318,42.6272],[127.3338,42.6017],[127.3465,42.5985],[127.3462,42.5839],[127.3671,42.5806],[127.3785,42.5747],[127.3995,42.5718],[127.4031,42.5654],[127.4292,42.5703],[127.4494,42.5589],[127.4628,42.5654],[127.4576,42.5888],[127.4911,42.5997],[127.48,42.6094],[127.479,42.6281],[127.5053,42.6309],[127.5398,42.6407],[127.5528,42.6476],[127.5689,42.665],[127.5902,42.675],[127.595,42.6945],[127.6183,42.7109],[127.6347,42.7105],[127.6469,42.7195],[127.6419,42.7466],[127.6502,42.7576],[127.6616,42.7519],[127.6743,42.7643],[127.7084,42.777],[127.703,42.7865],[127.7048,42.7999],[127.7181,42.819],[127.7319,42.8191],[127.7463,42.8131],[127.7963,42.81],[127.8032,42.7978],[127.8313,42.7862],[127.8466,42.8088],[127.8292,42.8166],[127.8233,42.8319],[127.8095,42.8385],[127.8125,42.8598],[127.819,42.8658],[127.8013,42.8762],[127.7887,42.8718],[127.7776,42.8788],[127.7685,42.8924],[127.748,42.8994],[127.7383,42.8878],[127.7055,42.8889],[127.6907,42.8979],[127.6635,42.9043],[127.6476,42.9142],[127.6163,42.9464],[127.5754,42.9656],[127.5201,42.9877],[127.4921,43.0192],[127.4765,43.0212],[127.4634,43.029],[127.4733,43.042],[127.4908,43.0501],[127.4884,43.087],[127.4983,43.1097],[127.4917,43.1211],[127.4737,43.1371],[127.5041,43.1394],[127.5363,43.1478],[127.5572,43.1645],[127.5624,43.1799],[127.5827,43.1957],[127.6199,43.2127],[127.639,43.2473],[127.6559,43.2682],[127.6508,43.2819],[127.6117,43.2984],[127.6094,43.3031],[127.5921,43.3066],[127.5682,43.2814],[127.5456,43.2952],[127.5287,43.2943],[127.518,43.2849],[127.4966,43.2789],[127.4772,43.2794],[127.454,43.2671],[127.4226,43.2589],[127.425,43.2501],[127.4055,43.2338],[127.371,43.2327],[127.3683,43.2241],[127.3421,43.2215],[127.3218,43.2266],[127.2923,43.2233],[127.2817,43.2292],[127.2295,43.2061],[127.2066,43.2093],[127.1819,43.2474],[127.1651,43.2481],[127.1339,43.2414],[127.1301,43.2511],[127.1458,43.2683],[127.1488,43.2831],[127.1282,43.2836],[127.0954,43.3157],[127.0941,43.3337],[127.1065,43.3576],[127.1283,43.373],[127.1429,43.3914],[127.1369,43.3953],[127.104,43.3882],[127.0766,43.4003],[127.0287,43.4012],[127.0068,43.4106],[126.9876,43.4468],[126.9787,43.4552],[126.9554,43.4567],[126.9321,43.4703],[126.9105,43.4666],[126.9101,43.4555],[126.8591,43.4449],[126.8572,43.4612],[126.8403,43.473],[126.8188,43.4825],[126.788,43.469],[126.7518,43.4716],[126.7246,43.4675],[126.6968,43.4461],[126.6784,43.448],[126.6661,43.4585],[126.6493,43.459]]]},"properties":{"region_code":"CN-22-2202-220282","parent_region_code":"CN-22-2202","name":"桦甸市","level":"county","has_children":false,"full_path":"中国 / 吉林省 / 吉林市 / 桦甸市","source_admin_code":"220282","osm_relation_id":2764049}},
{"type":"Feature","geometry":{"type":"Polygon","coordinates":[[[126.8192,44.0944],[126.8418,44.0969],[126.8565,44.1047],[126.8642,44.1175],[126.8767,44.1274],[126.8821,44.1417],[126.8942,44.1446],[126.9632,44.1331],[126.9847,44.1345],[126.986,44.1224],[127.0044,44.1278],[127.0228,44.1203],[127.0558,44.1199],[127.0644,44.1093],[127.0886,44.1112],[127.0984,44.0966],[127.1327,44.0956],[127.1408,44.0853],[127.1709,44.0897],[127.1606,44.077],[127.1654,44.0506],[127.1854,44.0499],[127.172,44.0233],[127.1601,44.0226],[127.1573,44.01],[127.1704,43.973],[127.1837,43.9656],[127.246,43.9574],[127.2564,43.9656],[127.2749,43.9642],[127.2779,43.9731],[127.2685,43.9843],[127.2736,43.9901],[127.3022,44.004],[127.3128,44.0035],[127.3217,44.0179],[127.3359,44.0268],[127.3301,44.0484],[127.3387,44.0502],[127.3427,44.0655],[127.3673,44.1056],[127.3848,44.1106],[127.3932,44.1077],[127.4317,44.1134],[127.4579,44.0961],[127.4933,44.0827],[127.5134,44.0687],[127.5219,44.0444],[127.5237,44.0288],[127.5636,44.0366],[127.5788,44.0346],[127.5978,44.0094],[127.6062,43.9934],[127.6296,43.9967],[127.6439,43.989],[127.6628,43.9945],[127.6628,44.0003],[127.6809,44.0131],[127.701,44.0214],[127.7139,44.0383],[127.7247,44.0375],[127.7377,44.0516],[127.735,44.0708],[127.7499,44.0822],[127.7234,44.0971],[127.7291,44.1122],[127.728,44.1286],[127.7154,44.1529],[127.7153,44.1746],[127.7191,44.1907],[127.7074,44.1982],[127.6921,44.1734],[127.6741,44.1645],[127.6628,44.1697],[127.6339,44.1916],[127.6201,44.1857],[127.5856,44.2263],[127.6099,44.2539],[127.6095,44.2689],[127.6169,44.2787],[127.6023,44.2927],[127.5753,44.3058],[127.5645,44.3265],[127.5349,44.347],[127.5165,44.3746],[127.4993,44.3925],[127.4828,44.3953],[127.48,44.4093],[127.4961,44.4202],[127.5019,44.4356],[127.4946,44.4491],[127.4748,44.4547],[127.4573,44.4832],[127.4688,44.4951],[127.4596,44.5147],[127.4774,44.5257],[127.5019,44.5275],[127.5054,44.5219],[127.5303,44.52],[127.5436,44.5371],[127.5601,44.5481],[127.562,44.5577],[127.5515,44.5742],[127.5132,44.578],[127.4996,44.5933],[127.4777,44.5985],[127.4423,44.6136],[127.4288,44.6114],[127.386,44.6301],[127.3162,44.6338],[127.3047,44.6371],[127.2685,44.6386],[127.259,44.6113],[127.2238,44.6213],[127.207,44.6228],[127.2127,44.6333],[127.2063,44.6461],[127.176,44.6423],[127.1453,44.6138],[127.1332,44.6053],[127.1082,44.615],[127.0878,44.613],[127.0829,44.5918],[127.044,44.5618],[127.0045,44.5501],[126.9933,44.5293],[126.9852,44.5259],[126.9564,44.5285],[126.9428,44.5229],[126.9241,44.5295],[126.9097,44.5294],[126.8931,44.5125],[126.8739,44.5101],[126.8576,44.5208],[126.8498,44.5347],[126.8283,44.5336],[126.8065,44.5286],[126.791,44.5208],[126.7679,44.5236],[126.7538,44.5166],[126.7324,44.5198],[126.7239,44.5322],[126.7041,44.5357],[126.6864,44.5344],[126.6537,44.5433],[126.6406,44.5426],[126.6294,44.5676],[126.6218,44.5734],[126.6023,44.5733],[126.5884,44.5677],[126.5589,44.5639],[126.5545,44.5547],[126.5189,44.5391],[126.4479,44.549],[126.4082,44.5261],[126.417,44.5099],[126.4398,44.5001],[126.4386,44.4924],[126.4178,44.4864],[126.4175,44.4613],[126.4349,44.4446],[126.4359,44.4373],[126.418,44.4261],[126.4281,44.4162],[126.4615,44.4223],[126.4775,44.416],[126.4796,44.4075],[126.4708,44.3853],[126.4759,44.3758],[126.4666,44.3634],[126.4473,44.3566],[126.4666,44.3345],[126.4641,44.314],[126.485,44.3026],[126.4861,44.2923],[126.4693,44.2848],[126.4687,44.2725],[126.4584,44.2574],[126.4613,44.2433],[126.4978,44.232],[126.5032,44.2405],[126.521,44.2396],[126.5449,44.2281],[126.5556,44.2397],[126.5675,44.2412],[126.5788,44.231],[126.6117,44.226],[126.6561,44.2418],[126.6671,44.258],[126.6806,44.2706],[126.6729,44.2847],[126.6971,44.2922],[126.7054,44.2995],[126.7251,44.301],[126.7331,44.2866],[126.7198,44.273],[126.7191,44.2555],[126.7578,44.2636],[126.766,44.2407],[126.7727,44.2345],[126.7956,44.2292],[126.7832,44.2127],[126.8001,44.2079],[126.7806,44.1983],[126.771,44.1885],[126.7961,44.1435],[126.7991,44.1252],[126.8074,44.1192],[126.8192,44.0944]]]},"properties":{"region_code":"CN-22-2202-220283","parent_region_code":"CN-22-2202","name":"舒兰市","level":"county","has_children":false,"full_path":"中国 / 吉林省 / 吉林市 / 舒兰市","source_admin_code":"220283","osm_relation_id":2764053}},
{"type":"Feature","geometry":{"type":"Polygon","coordinates":[[[125.9698,43.418],[125.9943,43.3773],[126.0079,43.3687],[126.0133,43.3516],[126.0002,43.3426],[125.9716,43.3348],[125.952,43.335],[125.9442,43.3207],[125.9228,43.3155],[125.8881,43.2996],[125.8393,43.2925],[125.8273,43.2979],[125.8098,43.3133],[125.7944,43.3074],[125.7679,43.2861],[125.737,43.2773],[125.7113,43.2646],[125.6917,43.26],[125.6533,43.2296],[125.6399,43.2156],[125.6487,43.1975],[125.6615,43.1969],[125.6774,43.1769],[125.6735,43.1696],[125.6843,43.1532],[125.693,43.1481],[125.7062,43.1219],[125.7185,43.1207],[125.7453,43.1282],[125.754,43.1273],[125.7626,43.1111],[125.7845,43.0966],[125.745,43.0808],[125.7269,43.0887],[125.7272,43.0624],[125.6976,43.0535],[125.6735,43.0576],[125.6563,43.0701],[125.6536,43.056],[125.6687,43.0414],[125.7015,43.0312],[125.7211,43.0206],[125.7216,43.0085],[125.7658,43.0177],[125.7836,43.0121],[125.8157,42.9956],[125.8258,42.9797],[125.828,42.9647],[125.858,42.9459],[125.8358,42.9236],[125.8528,42.9216],[125.8861,42.9118],[125.8984,42.9007],[125.8979,42.8737],[125.9072,42.8724],[125.9143,42.8489],[125.9304,42.8301],[125.9456,42.8209],[125.9693,42.8118],[125.9885,42.812],[126,42.8],[126.0232,42.7861],[126.0564,42.7831],[126.0843,42.7873],[126.0934,42.7804],[126.1417,42.7897],[126.1668,42.782],[126.1923,42.7868],[126.2128,42.7834],[126.2207,42.7708],[126.257,42.7831],[126.2723,42.7954],[126.2927,42.7971],[126.3007,42.8097],[126.3213,42.8126],[126.3388,42.8034],[126.3518,42.8031],[126.3616,42.8121],[126.3835,42.81],[126.3908,42.7958],[126.3818,42.776],[126.3855,42.75],[126.3948,42.7331],[126.3842,42.7288],[126.3771,42.7052],[126.4032,42.6822],[126.4296,42.6726],[126.4765,42.6828],[126.4874,42.6776],[126.5014,42.6834],[126.5216,42.6762],[126.5393,42.6657],[126.5584,42.6696],[126.561,42.6838],[126.5774,42.6947],[126.5968,42.697],[126.5977,42.7031],[126.6216,42.7118],[126.6438,42.7276],[126.6537,42.7429],[126.6458,42.7564],[126.6462,42.7764],[126.6598,42.7778],[126.669,42.7877],[126.6849,42.7965],[126.6725,42.8108],[126.6692,42.828],[126.6568,42.8352],[126.6272,42.8241],[126.6179,42.8276],[126.6078,42.8439],[126.6077,42.8542],[126.6183,42.8691],[126.6109,42.8803],[126.588,42.8803],[126.5896,42.8949],[126.6101,42.9116],[126.5992,42.9296],[126.5802,42.9425],[126.5835,42.9556],[126.5943,42.967],[126.5913,42.9905],[126.5722,42.988],[126.5545,43.0071],[126.5539,43.022],[126.5435,43.0284],[126.542,43.0382],[126.5489,43.0486],[126.5314,43.06],[126.5176,43.0561],[126.4909,43.0771],[126.4901,43.0835],[126.4717,43.1025],[126.4533,43.1108],[126.449,43.1197],[126.4298,43.1277],[126.4128,43.127],[126.3937,43.1532],[126.3625,43.142],[126.3329,43.1548],[126.3292,43.1821],[126.3229,43.1849],[126.3158,43.2041],[126.296,43.1999],[126.2774,43.2165],[126.2694,43.229],[126.2746,43.2425],[126.3041,43.2473],[126.3135,43.2434],[126.3397,43.2566],[126.3415,43.2745],[126.3481,43.2888],[126.3359,43.2941],[126.3122,43.2956],[126.3087,43.3156],[126.2849,43.3253],[126.2884,43.3385],[126.2989,43.3406],[126.3092,43.3587],[126.2901,43.3702],[126.2639,43.3761],[126.2556,43.3888],[126.2451,43.392],[126.2414,43.4046],[126.2211,43.4101],[126.1862,43.4073],[126.1712,43.4001],[126.1689,43.3908],[126.1296,43.4066],[126.1247,43.4232],[126.1308,43.4516],[126.107,43.4537],[126.0858,43.4517],[126.0801,43.4398],[126.0662,43.4376],[126.0594,43.4449],[126.0443,43.4382],[126.0287,43.4503],[126.0124,43.4442],[126.0051,43.4311],[125.984,43.4264],[125.9698,43.418]]]},"properties":{"region_code":"CN-22-2202-220284","parent_region_code":"CN-22-2202","name":"磐石市","level":"county","has_children":false,"full_path":"中国 / 吉林省 / 吉林市 / 磐石市","source_admin_code":"220284","osm_relation_id":2764052}}
]}