{"type":"FeatureCollection", "features": [
{"type":"Feature","geometry":{"type":"Polygon","coordinates":[[[129.7429,44.3802],[129.7846,44.3537],[129.8584,44.3288],[129.8451,44.3021],[129.8568,44.247],[129.8917,44.2046],[129.9071,44.2108],[129.9895,44.202],[130.0114,44.2158],[130.0444,44.2844],[130.0738,44.31],[130.0369,44.3237],[129.9796,44.3739],[129.9377,44.3969],[129.9447,44.4253],[129.9204,44.4288],[129.9017,44.3931],[129.8822,44.396],[129.8806,44.4296],[129.8061,44.4652],[129.7998,44.4797],[129.737,44.503],[129.7122,44.5319],[129.6654,44.5583],[129.6423,44.5883],[129.6155,44.5927],[129.6052,44.5891],[129.6197,44.5649],[129.5695,44.5122],[129.5717,44.4857],[129.5933,44.4753],[129.5972,44.4515],[129.6563,44.4488],[129.7285,44.3857],[129.7429,44.3802]]]},"properties":{"region_code":"CN-23-2310-231002","parent_region_code":"CN-23-2310","name":"东安区","level":"county","has_children":false,"full_path":"中国 / 黑龙江省 / 牡丹江市 / 东安区","source_admin_code":"231002","osm_relation_id":5651905}},
{"type":"Feature","geometry":{"type":"Polygon","coordinates":[[[129.9204,44.4288],[129.9039,44.4605],[129.9359,44.4732],[129.964,44.4596],[130.0619,44.4741],[130.1055,44.5075],[130.1247,44.5536],[130.1094,44.6036],[130.1122,44.6285],[130.1553,44.6346],[130.1498,44.6483],[130.1023,44.6651],[130.0739,44.6606],[130.0392,44.703],[129.9968,44.7669],[129.9913,44.8084],[129.9026,44.8395],[129.8665,44.8331],[129.8418,44.847],[129.779,44.904],[129.728,44.9296],[129.746,44.9649],[129.7164,44.9845],[129.6863,44.9509],[129.674,44.9204],[129.6927,44.9055],[129.6901,44.8775],[129.6714,44.8539],[129.6785,44.8316],[129.7,44.8195],[129.6997,44.7967],[129.7192,44.772],[129.6735,44.7295],[129.6851,44.693],[129.6662,44.6877],[129.6444,44.6525],[129.6496,44.6293],[129.6155,44.5927],[129.6423,44.5883],[129.6654,44.5583],[129.7122,44.5319],[129.737,44.503],[129.7998,44.4797],[129.8061,44.4652],[129.8806,44.4296],[129.8822,44.396],[129.9017,44.3931],[129.9204,44.4288]]]},"properties":{"region_code":"CN-23-2310-231003","parent_region_code":"CN-23-2310","name":"阳明区","level":"county","has_children":false,"full_path":"中国 / 黑龙江省 / 牡丹江市 / 阳明区","source_admin_code":"231003","osm_relation_id":5651907}},
{"type":"Feature","geometry":{"type":"Polygon","coordinates":[[[129.6155,44.5927],[129.6496,44.6293],[129.6444,44.6525],[129.6662,44.6877],[129.6851,44.693],[129.6201,44.7005],[129.6124,44.7301],[129.5931,44.7296],[129.5875,44.7715],[129.5529,44.7842],[129.5314,44.8145],[129.4757,44.8203],[129.4294,44.836],[129.3924,44.8303],[129.3748,44.809],[129.3164,44.8041],[129.3169,44.7757],[129.3547,44.7675],[129.396,44.7429],[129.4109,44.7174],[129.4046,44.6853],[129.4243,44.6637],[129.4522,44.662],[129.4856,44.6412],[129.5043,44.6185],[129.4904,44.5859],[129.5308,44.5511],[129.5715,44.566],[129.6052,44.5891],[129.6155,44.5927]]]},"properties":{"region_code":"CN-23-2310-231004","parent_region_code":"CN-23-2310","name":"爱民区","level":"county","has_children":false,"full_path":"中国 / 黑龙江省 / 牡丹江市 / 爱民区","source_admin_code":"231004","osm_relation_id":5651904}},
{"type":"Feature","geometry":{"type":"Polygon","coordinates":[[[129.6052,44.5891],[129.5715,44.566],[129.5308,44.5511],[129.4904,44.5859],[129.5043,44.6185],[129.4856,44.6412],[129.4522,44.662],[129.4486,44.5922],[129.4382,44.5744],[129.3955,44.5457],[129.3918,44.5201],[129.4068,44.4981],[129.388,44.4809],[129.3956,44.458],[129.429,44.4575],[129.4643,44.4456],[129.4364,44.4238],[129.4922,44.4135],[129.5295,44.3783],[129.6002,44.3841],[129.6488,44.3817],[129.7053,44.3859],[129.7429,44.3802],[129.7285,44.3857],[129.6563,44.4488],[129.5972,44.4515],[129.5933,44.4753],[129.5717,44.4857],[129.5695,44.5122],[129.6197,44.5649],[129.6052,44.5891]]]},"properties":{"region_code":"CN-23-2310-231005","parent_region_code":"CN-23-2310","name":"西安区","level":"county","has_children":false,"full_path":"中国 / 黑龙江省 / 牡丹江市 / 西安区","source_admin_code":"231005","osm_relation_id":5651906}},
{"type":"Feature","geometry":{"type":"Polygon","coordinates":[[[130.0739,44.6606],[130.1427,44.6888],[130.1778,44.7249],[130.1292,44.7552],[130.118,44.8479],[130.1773,44.8621],[130.1713,44.8814],[130.1812,44.9251],[130.2036,44.9626],[130.1814,44.9895],[130.1898,45.0238],[130.1812,45.0504],[130.205,45.0535],[130.2376,45.0964],[130.304,45.0958],[130.3633,45.1201],[130.3911,45.1218],[130.4577,45.1799],[130.427,45.2051],[130.4488,45.2349],[130.4839,45.2603],[130.4667,45.2982],[130.4839,45.3282],[130.5181,45.3564],[130.5334,45.3572],[130.5497,45.3891],[130.6045,45.4091],[130.6446,45.4373],[130.6714,45.4816],[130.702,45.5065],[130.7368,45.5069],[130.7502,45.5305],[130.7376,45.558],[130.7711,45.6208],[130.7508,45.6235],[130.7262,45.649],[130.7045,45.6494],[130.6803,45.6124],[130.6592,45.6086],[130.6393,45.5866],[130.5649,45.5998],[130.5427,45.6275],[130.4751,45.6044],[130.3989,45.6716],[130.3806,45.6719],[130.3362,45.6255],[130.2774,45.6339],[130.2586,45.6665],[130.2362,45.6504],[130.205,45.6498],[130.2046,45.6892],[130.1707,45.6794],[130.1601,45.7071],[130.1769,45.7234],[130.1872,45.759],[130.1802,45.7742],[130.1911,45.8301],[130.1691,45.8551],[130.1845,45.8792],[130.1701,45.9011],[130.0957,45.9254],[130.0814,45.9134],[130.0201,45.9214],[129.9667,45.9185],[129.9417,45.9062],[129.9257,45.925],[129.8937,45.9231],[129.8816,45.9479],[129.8388,45.9858],[129.7769,45.9684],[129.7888,45.9341],[129.7756,45.924],[129.7861,45.895],[129.764,45.8842],[129.7151,45.8948],[129.6587,45.8708],[129.6186,45.8914],[129.5783,45.8856],[129.5487,45.8152],[129.4947,45.7893],[129.466,45.7923],[129.4564,45.7662],[129.4238,45.7773],[129.3943,45.7655],[129.4082,45.7436],[129.3368,45.7339],[129.3314,45.7011],[129.3468,45.6862],[129.3097,45.6703],[129.2926,45.6176],[129.3197,45.5928],[129.4033,45.5638],[129.4201,45.5352],[129.4615,45.5038],[129.5113,45.4911],[129.5584,45.4632],[129.5811,45.4698],[129.6036,45.5217],[129.648,45.4923],[129.6907,45.5027],[129.7198,45.4779],[129.7444,45.4701],[129.7619,45.4429],[129.8061,45.4299],[129.8124,45.4516],[129.8613,45.4546],[129.8582,45.471],[129.8879,45.5086],[129.9553,45.508],[129.9707,45.4587],[129.9666,45.4279],[129.9462,45.3992],[129.9539,45.3755],[129.9304,45.3302],[129.9198,45.2693],[129.9047,45.2516],[129.8989,45.2126],[129.9072,45.1645],[129.8694,45.1271],[129.906,45.1122],[129.8776,45.0965],[129.8691,45.0739],[129.8319,45.0563],[129.7948,45.0545],[129.7292,45.0081],[129.7164,44.9845],[129.746,44.9649],[129.728,44.9296],[129.779,44.904],[129.8418,44.847],[129.8665,44.8331],[129.9026,44.8395],[129.9913,44.8084],[129.9968,44.7669],[130.0392,44.703],[130.0739,44.6606]]]},"properties":{"region_code":"CN-23-2310-231025","parent_region_code":"CN-23-2310","name":"林口县","level":"county","has_children":false,"full_path":"中国 / 黑龙江省 / 牡丹江市 / 林口县","source_admin_code":"231025","osm_relation_id":2756893}},
{"type":"Feature","geometry":{"type":"Polygon","coordinates":[[[131.2275,44.2976],[131.1573,44.532],[131.1122,44.5345],[131.034,44.5101],[131.0207,44.4847],[130.9999,44.483],[130.9946,44.4408],[130.9549,44.4087],[130.9412,44.3703],[130.983,44.3565],[130.9562,44.3118],[131.0286,44.2967],[131.0985,44.3005],[131.2275,44.2976]]]},"properties":{"region_code":"CN-23-2310-231081","parent_region_code":"CN-23-2310","name":"绥芬河市","level":"county","has_children":false,"full_path":"中国 / 黑龙江省 / 牡丹江市 / 绥芬河市","source_admin_code":"231081","osm_relation_id":2756932}},
{"type":"Feature","geometry":{"type":"Polygon","coordinates":[[[129.7164,44.9845],[129.7292,45.0081],[129.7948,45.0545],[129.8319,45.0563],[129.8691,45.0739],[129.8776,45.0965],[129.906,45.1122],[129.8694,45.1271],[129.9072,45.1645],[129.8989,45.2126],[129.9047,45.2516],[129.9198,45.2693],[129.9304,45.3302],[129.9539,45.3755],[129.9462,45.3992],[129.9666,45.4279],[129.9707,45.4587],[129.9553,45.508],[129.8879,45.5086],[129.8582,45.471],[129.8613,45.4546],[129.8124,45.4516],[129.8061,45.4299],[129.7619,45.4429],[129.7444,45.4701],[129.7198,45.4779],[129.6907,45.5027],[129.648,45.4923],[129.6036,45.5217],[129.5811,45.4698],[129.5584,45.4632],[129.5113,45.4911],[129.4615,45.5038],[129.4201,45.5352],[129.4033,45.5638],[129.3197,45.5928],[129.2926,45.6176],[129.2478,45.6153],[129.2144,45.5921],[129.1617,45.6068],[129.1483,45.6193],[129.1014,45.6227],[129.0844,45.6014],[129.0945,45.5649],[129.1177,45.5636],[129.1329,45.534],[129.1271,45.4954],[129.1116,45.4773],[129.1357,45.442],[129.1866,45.421],[129.1833,45.3874],[129.1631,45.3717],[129.1231,45.3689],[129.0573,45.3412],[129.0846,45.2897],[129.1243,45.2738],[129.1759,45.2804],[129.177,45.2574],[129.2014,45.2208],[129.1697,45.1947],[129.1334,45.191],[129.0916,45.1409],[129.119,45.1184],[129.0729,45.0827],[129.0679,45.0672],[129.0236,45.0785],[128.9969,45.0714],[129.0034,45.0457],[129.0282,45.0397],[129.0448,44.997],[129.0147,44.9645],[129.0546,44.9056],[129.015,44.9104],[128.9612,44.8832],[128.9269,44.8748],[128.8943,44.8777],[128.8296,44.7878],[128.7796,44.7812],[128.7755,44.7637],[128.7449,44.748],[128.7421,44.6985],[128.7212,44.6925],[128.6871,44.6615],[128.623,44.6533],[128.5993,44.6672],[128.5562,44.6676],[128.5301,44.6807],[128.4787,44.6633],[128.4315,44.6775],[128.3958,44.6719],[128.3959,44.6548],[128.3534,44.5875],[128.3167,44.5693],[128.2911,44.5362],[128.2657,44.5287],[128.2257,44.4654],[128.247,44.4446],[128.2059,44.4303],[128.1811,44.3601],[128.1193,44.3465],[128.0696,44.3664],[128.0435,44.3481],[128.0607,44.3086],[128.0913,44.2823],[128.0572,44.2591],[128.0978,44.2274],[128.0846,44.213],[128.0863,44.1797],[128.0539,44.1667],[128.0846,44.1304],[128.0557,44.1109],[128.0717,44.0949],[128.082,44.057],[128.1021,44.0438],[128.1288,44.051],[128.1498,44.0395],[128.2246,44.072],[128.242,44.119],[128.2589,44.1345],[128.2942,44.1231],[128.3518,44.1502],[128.3916,44.1958],[128.4332,44.2046],[128.459,44.1943],[128.4995,44.2173],[128.5277,44.2101],[128.5682,44.2341],[128.5606,44.2562],[128.5881,44.2761],[128.6081,44.3085],[128.6578,44.3302],[128.7112,44.3146],[128.785,44.3191],[128.8171,44.295],[128.8418,44.2953],[128.8642,44.3278],[128.9201,44.3397],[129.0054,44.3352],[129.0212,44.3591],[129.0477,44.3481],[129.1212,44.3458],[129.1763,44.3669],[129.2032,44.4016],[129.2768,44.4101],[129.3205,44.4234],[129.3449,44.4526],[129.3751,44.4367],[129.3956,44.458],[129.388,44.4809],[129.4068,44.4981],[129.3918,44.5201],[129.3955,44.5457],[129.4382,44.5744],[129.4486,44.5922],[129.4522,44.662],[129.4243,44.6637],[129.4046,44.6853],[129.4109,44.7174],[129.396,44.7429],[129.3547,44.7675],[129.3169,44.7757],[129.3164,44.8041],[129.3748,44.809],[129.3924,44.8303],[129.4294,44.836],[129.4757,44.8203],[129.5314,44.8145],[129.5529,44.7842],[129.5875,44.7715],[129.5931,44.7296],[129.6124,44.7301],[129.6201,44.7005],[129.6851,44.693],[129.6735,44.7295],[129.7192,44.772],[129.6997,44.7967],[129.7,44.8195],[129.6785,44.8316],[129.6714,44.8539],[129.6901,44.8775],[129.6927,44.9055],[129.674,44.9204],[129.6863,44.9509],[129.7164,44.9845]]]},"properties":{"region_code":"CN-23-2310-231083","parent_region_code":"CN-23-2310","name":"海林市","level":"county","has_children":false,"full_path":"中国 / 黑龙江省 / 牡丹江市 / 海林市","source_admin_code":"231083","osm_relation_id":2756929}},
{"type":"Feature","geometry":{"type":"Polygon","coordinates":[[[129.7429,44.3802],[129.7053,44.3859],[129.6488,44.3817],[129.6002,44.3841],[129.5295,44.3783],[129.4922,44.4135],[129.4364,44.4238],[129.4643,44.4456],[129.429,44.4575],[129.3956,44.458],[129.3751,44.4367],[129.3449,44.4526],[129.3205,44.4234],[129.2768,44.4101],[129.2032,44.4016],[129.1763,44.3669],[129.1212,44.3458],[129.0477,44.3481],[129.0212,44.3591],[129.0054,44.3352],[128.9201,44.3397],[128.8642,44.3278],[128.8418,44.2953],[128.8171,44.295],[128.785,44.3191],[128.7112,44.3146],[128.6578,44.3302],[128.6081,44.3085],[128.5881,44.2761],[128.5606,44.2562],[128.5682,44.2341],[128.5277,44.2101],[128.4995,44.2173],[128.459,44.1943],[128.4628,44.1572],[128.5229,44.1094],[128.5283,44.0897],[128.5693,44.0451],[128.5779,43.9885],[128.6386,43.9336],[128.6227,43.9219],[128.6304,43.8886],[128.6877,43.8937],[128.7216,43.8887],[128.7543,43.8554],[128.7122,43.8161],[128.734,43.8028],[128.7531,43.7579],[128.7214,43.738],[128.7775,43.7133],[128.7804,43.6843],[128.7992,43.6647],[128.8186,43.6248],[128.8283,43.5856],[128.872,43.5381],[128.9069,43.5409],[128.9396,43.5535],[128.9581,43.535],[129.007,43.5207],[129.0339,43.5382],[129.1144,43.5532],[129.1389,43.5678],[129.1626,43.5591],[129.2232,43.5914],[129.2255,43.6327],[129.2105,43.6465],[129.2071,43.6941],[129.2242,43.713],[129.2051,43.7824],[129.2494,43.8179],[129.2991,43.7938],[129.3129,43.809],[129.3505,43.7962],[129.3993,43.8164],[129.4096,43.8375],[129.4419,43.848],[129.4894,43.8777],[129.5196,43.868],[129.5868,43.872],[129.6021,43.8801],[129.6508,43.8695],[129.692,43.8812],[129.7196,43.8756],[129.7317,43.8934],[129.7731,43.8912],[129.7958,43.9624],[129.8333,43.9944],[129.9005,44.0216],[129.9502,44.0223],[129.962,44.0481],[129.9803,44.0523],[130.0231,44.0967],[130.0477,44.1472],[130.0211,44.1682],[129.9761,44.1559],[129.9553,44.1753],[129.8917,44.2046],[129.8568,44.247],[129.8451,44.3021],[129.8584,44.3288],[129.7846,44.3537],[129.7429,44.3802]]]},"properties":{"region_code":"CN-23-2310-231084","parent_region_code":"CN-23-2310","name":"宁安市","level":"county","has_children":false,"full_path":"中国 / 黑龙江省 / 牡丹江市 / 宁安市","source_admin_code":"231084","osm_relation_id":2756931}},
{"type":"Feature","geometry":{"type":"Polygon","coordinates":[[[129.8917,44.2046],[129.9553,44.1753],[129.9761,44.1559],[130.0211,44.1682],[130.0477,44.1472],[130.0231,44.0967],[129.9803,44.0523],[129.962,44.0481],[129.9502,44.0223],[129.9927,43.9966],[129.9848,43.9754],[130.018,43.9414],[130.003,43.8912],[130.0181,43.8561],[130.049,43.836],[130.1035,43.8495],[130.1027,43.8671],[130.1385,43.8778],[130.1447,43.9083],[130.1825,43.9387],[130.2314,43.9379],[130.2547,43.947],[130.2651,43.9793],[130.3002,44.0005],[130.312,44.0373],[130.3383,44.0491],[130.3583,44.0414],[130.3863,44.0504],[130.415,44.0843],[130.4172,44.1032],[130.4522,44.1312],[130.4688,44.1319],[130.4846,44.1826],[130.5252,44.1984],[130.5332,44.2387],[130.5237,44.3042],[130.5052,44.3068],[130.5079,44.3479],[130.5326,44.3745],[130.5091,44.4075],[130.5249,44.4653],[130.5458,44.469],[130.5563,44.4977],[130.5859,44.5288],[130.5893,44.5669],[130.6225,44.6077],[130.6312,44.6497],[130.672,44.6398],[130.6965,44.6535],[130.6947,44.675],[130.736,44.6898],[130.7736,44.6785],[130.8042,44.684],[130.8088,44.7014],[130.8432,44.7121],[130.8676,44.6897],[130.8504,44.6686],[130.8612,44.6546],[130.8523,44.6303],[130.8686,44.6009],[130.927,44.569],[130.9726,44.5833],[131.0222,44.5871],[131.1437,44.5771],[131.1045,44.7075],[131.0826,44.7168],[131.0855,44.7418],[131.0402,44.7773],[131.0094,44.7846],[131.0087,44.8107],[130.9649,44.8187],[130.9554,44.8621],[130.9197,44.8865],[130.9159,44.9328],[130.8621,44.9682],[130.8584,44.9895],[130.8291,44.9859],[130.7903,45.0014],[130.7597,44.988],[130.7611,44.9727],[130.713,44.9628],[130.6959,44.9885],[130.6528,44.9968],[130.6224,45.0532],[130.5867,45.07],[130.5494,45.099],[130.492,45.0731],[130.4777,45.0527],[130.4315,45.0703],[130.407,45.0897],[130.3911,45.1218],[130.3633,45.1201],[130.304,45.0958],[130.2376,45.0964],[130.205,45.0535],[130.1812,45.0504],[130.1898,45.0238],[130.1814,44.9895],[130.2036,44.9626],[130.1812,44.9251],[130.1713,44.8814],[130.1773,44.8621],[130.118,44.8479],[130.1292,44.7552],[130.1778,44.7249],[130.1427,44.6888],[130.0739,44.6606],[130.1023,44.6651],[130.1498,44.6483],[130.1553,44.6346],[130.1122,44.6285],[130.1094,44.6036],[130.1247,44.5536],[130.1055,44.5075],[130.0619,44.4741],[129.964,44.4596],[129.9359,44.4732],[129.9039,44.4605],[129.9204,44.4288],[129.9447,44.4253],[129.9377,44.3969],[129.9796,44.3739],[130.0369,44.3237],[130.0738,44.31],[130.0444,44.2844],[130.0114,44.2158],[129.9895,44.202],[129.9071,44.2108],[129.8917,44.2046]]]},"properties":{"region_code":"CN-23-2310-231085","parent_region_code":"CN-23-2310","name":"穆棱市","level":"county","has_children":false,"full_path":"中国 / 黑龙江省 / 牡丹江市 / 穆棱市","source_admin_code":"231085","osm_relation_id":2756930}},
{"type":"Feature","geometry":{"type":"Polygon","coordinates":[[[131.1573,44.532],[131.1437,44.5771],[131.0222,44.5871],[130.9726,44.5833],[130.927,44.569],[130.8686,44.6009],[130.8523,44.6303],[130.8612,44.6546],[130.8504,44.6686],[130.8676,44.6897],[130.8432,44.7121],[130.8088,44.7014],[130.8042,44.684],[130.7736,44.6785],[130.736,44.6898],[130.6947,44.675],[130.6965,44.6535],[130.672,44.6398],[130.6312,44.6497],[130.6225,44.6077],[130.5893,44.5669],[130.5859,44.5288],[130.5563,44.4977],[130.5458,44.469],[130.5249,44.4653],[130.5091,44.4075],[130.5326,44.3745],[130.5079,44.3479],[130.5052,44.3068],[130.5237,44.3042],[130.5332,44.2387],[130.5252,44.1984],[130.4846,44.1826],[130.4688,44.1319],[130.4522,44.1312],[130.4172,44.1032],[130.415,44.0843],[130.3863,44.0504],[130.3583,44.0414],[130.3566,43.9896],[130.33,43.9568],[130.3754,43.9075],[130.359,43.8882],[130.3787,43.8566],[130.3571,43.8435],[130.373,43.8233],[130.3854,43.7646],[130.4169,43.7425],[130.3871,43.7005],[130.4057,43.6505],[130.4427,43.6442],[130.4666,43.6552],[130.5343,43.6254],[130.5894,43.6187],[130.6172,43.6217],[130.6169,43.588],[130.6601,43.5812],[130.6655,43.566],[130.7217,43.5578],[130.817,43.4999],[130.8348,43.4567],[130.8541,43.4363],[130.9012,43.4316],[130.9374,43.4745],[130.9926,43.5047],[131.0196,43.5058],[131.0608,43.4801],[131.0844,43.4549],[131.1133,43.445],[131.135,43.4232],[131.1673,43.4415],[131.2211,43.4548],[131.2283,43.4728],[131.2598,43.4662],[131.3057,43.4734],[131.2952,43.501],[131.2619,43.4942],[131.1938,43.5291],[131.2107,43.5787],[131.2374,43.6019],[131.2097,43.609],[131.2328,43.6657],[131.2094,43.6985],[131.2249,43.7402],[131.206,43.8212],[131.2315,43.8604],[131.2273,43.8721],[131.2516,43.9005],[131.2568,43.9454],[131.2387,43.953],[131.2506,43.9921],[131.2433,44.0104],[131.2604,44.0323],[131.3032,44.0439],[131.2275,44.2976],[131.0985,44.3005],[131.0286,44.2967],[130.9562,44.3118],[130.983,44.3565],[130.9412,44.3703],[130.9549,44.4087],[130.9946,44.4408],[130.9999,44.483],[131.0207,44.4847],[131.034,44.5101],[131.1122,44.5345],[131.1573,44.532]]]},"properties":{"region_code":"CN-23-2310-231086","parent_region_code":"CN-23-2310","name":"东宁市","level":"county","has_children":false,"full_path":"中国 / 黑龙江省 / 牡丹江市 / 东宁市","source_admin_code":"231086","osm_relation_id":2756928}}
]}