{"type":"FeatureCollection", "features": [
{"type":"Feature","geometry":{"type":"Polygon","coordinates":[[[126.9685,47.1397],[126.9668,47.1265],[126.9848,47.1113],[126.9695,47.085],[126.9606,47.0592],[126.964,47.0064],[126.958,46.9786],[126.948,46.9638],[126.9479,46.9454],[126.9099,46.9288],[126.9164,46.9206],[126.8978,46.9054],[126.9085,46.8769],[126.9047,46.8292],[126.9067,46.7694],[126.8894,46.7528],[126.8673,46.7477],[126.8532,46.7525],[126.8272,46.727],[126.8074,46.7311],[126.785,46.7194],[126.7685,46.7228],[126.7254,46.7106],[126.6488,46.6699],[126.632,46.6786],[126.6023,46.6621],[126.5719,46.6592],[126.5299,46.6492],[126.5037,46.6291],[126.4901,46.6385],[126.4494,46.6248],[126.4359,46.6125],[126.4526,46.6054],[126.4565,46.5927],[126.4287,46.5785],[126.4212,46.5567],[126.4673,46.5416],[126.5021,46.4915],[126.5158,46.4621],[126.552,46.4305],[126.5558,46.4149],[126.584,46.3633],[126.6059,46.3617],[126.6069,46.3247],[126.6291,46.3235],[126.6701,46.3589],[126.6757,46.3694],[126.7034,46.3849],[126.7366,46.4154],[126.7585,46.4076],[126.7942,46.4186],[126.8043,46.4332],[126.8228,46.4332],[126.8454,46.4763],[126.8692,46.4812],[126.871,46.4916],[126.9006,46.5073],[126.9785,46.5238],[126.9986,46.5392],[127.0319,46.5506],[127.0436,46.5759],[127.0868,46.5896],[127.0972,46.5836],[127.1215,46.607],[127.1447,46.6054],[127.1508,46.6183],[127.1912,46.643],[127.227,46.6489],[127.2653,46.6427],[127.2976,46.6538],[127.3221,46.6692],[127.3226,46.6973],[127.2987,46.7368],[127.2957,46.7626],[127.2653,46.7921],[127.2583,46.8282],[127.2277,46.852],[127.2181,46.8687],[127.269,46.8778],[127.303,46.9054],[127.2941,46.9413],[127.3065,46.964],[127.3205,46.9695],[127.3232,46.9868],[127.3359,47.0012],[127.3394,47.0261],[127.363,47.0437],[127.3658,47.0676],[127.3465,47.0644],[127.3324,47.0516],[127.2618,47.0499],[127.2113,47.0627],[127.2096,47.0744],[127.2238,47.089],[127.2151,47.1316],[127.1483,47.1345],[127.1429,47.1583],[127.0977,47.156],[127.0811,47.1661],[127.0464,47.1672],[126.9969,47.1584],[126.9685,47.1397]]]},"properties":{"region_code":"CN-23-2312-231202","parent_region_code":"CN-23-2312","name":"北林区","level":"county","has_children":false,"full_path":"中国 / 黑龙江省 / 绥化市 / 北林区","source_admin_code":"231202","osm_relation_id":2755367}},
{"type":"Feature","geometry":{"type":"Polygon","coordinates":[[[126.9685,47.1397],[126.9353,47.135],[126.895,47.1351],[126.8818,47.1193],[126.8522,47.1122],[126.7844,47.1068],[126.7794,47.0957],[126.688,47.0928],[126.6166,47.101],[126.5608,47.097],[126.5669,47.0438],[126.5657,46.9981],[126.5346,46.9975],[126.5121,46.9907],[126.4787,46.9889],[126.4503,46.9808],[126.3906,46.9758],[126.3655,46.9764],[126.2813,46.9679],[126.2351,46.965],[126.2065,46.947],[126.2074,46.9305],[126.1836,46.9048],[126.1931,46.8992],[126.1743,46.8756],[126.1766,46.8546],[126.1958,46.8228],[126.2008,46.7922],[126.2252,46.7845],[126.2424,46.7684],[126.2317,46.7449],[126.2544,46.7094],[126.2745,46.7002],[126.2644,46.6654],[126.2732,46.6415],[126.2962,46.6188],[126.2919,46.5925],[126.304,46.5819],[126.3295,46.5843],[126.3425,46.5732],[126.3513,46.5505],[126.372,46.538],[126.4093,46.5578],[126.4212,46.5567],[126.4287,46.5785],[126.4565,46.5927],[126.4526,46.6054],[126.4359,46.6125],[126.4494,46.6248],[126.4901,46.6385],[126.5037,46.6291],[126.5299,46.6492],[126.5719,46.6592],[126.6023,46.6621],[126.632,46.6786],[126.6488,46.6699],[126.7254,46.7106],[126.7685,46.7228],[126.785,46.7194],[126.8074,46.7311],[126.8272,46.727],[126.8532,46.7525],[126.8673,46.7477],[126.8894,46.7528],[126.9067,46.7694],[126.9047,46.8292],[126.9085,46.8769],[126.8978,46.9054],[126.9164,46.9206],[126.9099,46.9288],[126.9479,46.9454],[126.948,46.9638],[126.958,46.9786],[126.964,47.0064],[126.9606,47.0592],[126.9695,47.085],[126.9848,47.1113],[126.9668,47.1265],[126.9685,47.1397]]]},"properties":{"region_code":"CN-23-2312-231221","parent_region_code":"CN-23-2312","name":"望奎县","level":"county","has_children":false,"full_path":"中国 / 黑龙江省 / 绥化市 / 望奎县","source_admin_code":"231221","osm_relation_id":2755374}},
{"type":"Feature","geometry":{"type":"Polygon","coordinates":[[[126.4212,46.5567],[126.4093,46.5578],[126.372,46.538],[126.3549,46.5125],[126.3121,46.4945],[126.2549,46.4872],[126.1929,46.4883],[126.1386,46.4784],[126.0696,46.5381],[126.0485,46.5533],[126.0159,46.5601],[125.9777,46.5821],[125.9726,46.5964],[125.9451,46.6187],[125.9122,46.6394],[125.8876,46.6232],[125.8532,46.6145],[125.8284,46.6152],[125.7565,46.5953],[125.7167,46.5797],[125.7098,46.5729],[125.723,46.5484],[125.7259,46.4925],[125.7439,46.478],[125.7451,46.46],[125.7338,46.4459],[125.754,46.4229],[125.767,46.4259],[125.8288,46.4017],[125.9572,46.3386],[125.9629,46.3343],[125.9919,46.2804],[126.0624,46.1824],[126.067,46.1691],[126.1138,46.1213],[126.1634,46.0593],[126.183,46.0677],[126.206,46.0512],[126.2261,46.0752],[126.2511,46.0756],[126.2607,46.0668],[126.3068,46.0605],[126.3216,46.0638],[126.3306,46.0861],[126.3483,46.0934],[126.3932,46.0819],[126.4178,46.0874],[126.4351,46.0996],[126.451,46.1378],[126.5208,46.1872],[126.5812,46.2064],[126.61,46.2337],[126.6091,46.253],[126.6354,46.2919],[126.6291,46.3235],[126.6069,46.3247],[126.6059,46.3617],[126.584,46.3633],[126.5558,46.4149],[126.552,46.4305],[126.5158,46.4621],[126.5021,46.4915],[126.4673,46.5416],[126.4212,46.5567]]]},"properties":{"region_code":"CN-23-2312-231222","parent_region_code":"CN-23-2312","name":"兰西县","level":"county","has_children":false,"full_path":"中国 / 黑龙江省 / 绥化市 / 兰西县","source_admin_code":"231222","osm_relation_id":2755369}},
{"type":"Feature","geometry":{"type":"Polygon","coordinates":[[[126.2351,46.965],[126.2269,46.9753],[126.2434,46.9938],[126.2671,47.0074],[126.253,47.0195],[126.253,47.0638],[126.2749,47.1012],[126.2771,47.1187],[126.2264,47.1171],[126.129,47.1061],[126.0258,47.0908],[126,47.1],[125.966,47.0841],[125.9719,47.0653],[125.9528,47.0507],[125.9349,47.0472],[125.9005,47.0495],[125.8428,47.0448],[125.813,47.0467],[125.8008,47.0391],[125.7785,47.0466],[125.7436,47.0431],[125.7266,47.0339],[125.6838,47.0352],[125.5849,47.0256],[125.5112,47.0237],[125.4473,47.0285],[125.361,47.0307],[125.329,47.0387],[125.3132,47.0284],[125.3386,47.0095],[125.3393,46.9953],[125.3765,46.9908],[125.384,46.9655],[125.4153,46.9431],[125.4132,46.9352],[125.4729,46.8956],[125.4816,46.8984],[125.5625,46.8628],[125.6016,46.8345],[125.6546,46.8142],[125.7292,46.7642],[125.7355,46.7424],[125.7787,46.7116],[125.8054,46.6969],[125.8286,46.6932],[125.8791,46.6648],[125.9122,46.6394],[125.9451,46.6187],[125.9726,46.5964],[125.9777,46.5821],[126.0159,46.5601],[126.0485,46.5533],[126.0696,46.5381],[126.1386,46.4784],[126.1929,46.4883],[126.2549,46.4872],[126.3121,46.4945],[126.3549,46.5125],[126.372,46.538],[126.3513,46.5505],[126.3425,46.5732],[126.3295,46.5843],[126.304,46.5819],[126.2919,46.5925],[126.2962,46.6188],[126.2732,46.6415],[126.2644,46.6654],[126.2745,46.7002],[126.2544,46.7094],[126.2317,46.7449],[126.2424,46.7684],[126.2252,46.7845],[126.2008,46.7922],[126.1958,46.8228],[126.1766,46.8546],[126.1743,46.8756],[126.1931,46.8992],[126.1836,46.9048],[126.2074,46.9305],[126.2065,46.947],[126.2351,46.965]]]},"properties":{"region_code":"CN-23-2312-231223","parent_region_code":"CN-23-2312","name":"青冈县","level":"county","has_children":false,"full_path":"中国 / 黑龙江省 / 绥化市 / 青冈县","source_admin_code":"231223","osm_relation_id":2755372}},
{"type":"Feature","geometry":{"type":"Polygon","coordinates":[[[127.3221,46.6692],[127.3929,46.6681],[127.4121,46.6488],[127.439,46.645],[127.4568,46.63],[127.4818,46.619],[127.4996,46.5974],[127.5011,46.5405],[127.5117,46.528],[127.5424,46.5245],[127.5635,46.5107],[127.5831,46.5128],[127.6081,46.5315],[127.6472,46.5473],[127.6732,46.5621],[127.6896,46.5524],[127.7186,46.5616],[127.7551,46.5788],[127.7702,46.5807],[127.7822,46.5959],[127.8086,46.6039],[127.831,46.5759],[127.8537,46.5823],[127.8628,46.5734],[127.8979,46.5762],[127.9223,46.5737],[127.9719,46.5393],[128.0435,46.5266],[128.0779,46.5062],[128.1142,46.5064],[128.1092,46.5204],[128.1306,46.5246],[128.1554,46.5371],[128.1634,46.5196],[128.1944,46.5325],[128.1803,46.545],[128.1886,46.5738],[128.1593,46.5872],[128.1389,46.5831],[128.1262,46.5998],[128.0946,46.6017],[128.0768,46.6233],[128.0526,46.6359],[128.0276,46.6822],[127.9568,46.7302],[127.9455,46.7496],[127.9154,46.7786],[127.891,46.7948],[127.8271,46.8601],[127.7668,46.8946],[127.7419,46.923],[127.7213,46.9244],[127.7123,46.9357],[127.6948,46.9328],[127.6757,46.9451],[127.6805,46.9624],[127.6333,46.9936],[127.6441,47.0035],[127.6621,46.9998],[127.686,47.0059],[127.7419,47.0126],[127.7629,47.0228],[127.793,47.0482],[127.8215,47.0636],[127.84,47.0645],[127.8645,47.0786],[127.9313,47.0698],[127.9375,47.0842],[127.9576,47.0919],[127.9953,47.0838],[128.0059,47.0726],[128.0521,47.0843],[128.0632,47.0734],[128.0838,47.0718],[128.145,47.0861],[128.1717,47.0964],[128.224,47.0998],[128.236,47.1036],[128.2593,47.1404],[128.3111,47.1584],[128.3378,47.1547],[128.3515,47.1595],[128.3454,47.1795],[128.3964,47.203],[128.4007,47.2085],[128.4495,47.2222],[128.4721,47.2374],[128.4744,47.255],[128.4935,47.2691],[128.497,47.2868],[128.4884,47.3043],[128.4907,47.3236],[128.5312,47.3555],[128.5401,47.3766],[128.5341,47.393],[128.5469,47.4045],[128.5282,47.419],[128.507,47.3956],[128.4756,47.3511],[128.4632,47.3405],[128.447,47.3446],[128.4517,47.3771],[128.4428,47.3974],[128.3718,47.4009],[128.3343,47.4276],[128.3442,47.4352],[128.3415,47.4608],[128.3135,47.4665],[128.296,47.4817],[128.2921,47.4985],[128.266,47.5111],[128.2509,47.5247],[128.2256,47.527],[128.2234,47.542],[128.2411,47.5512],[128.2496,47.5701],[128.2394,47.5771],[128.2207,47.5821],[128.1925,47.602],[128.1739,47.6026],[128.1461,47.571],[128.133,47.5636],[128.102,47.5591],[128.0796,47.5613],[128.0497,47.5488],[127.9922,47.5546],[127.9719,47.5513],[127.9219,47.4854],[127.9014,47.4755],[127.8921,47.4487],[127.8659,47.4405],[127.8428,47.4495],[127.8151,47.4497],[127.7853,47.4561],[127.7566,47.4235],[127.7092,47.4192],[127.6782,47.4212],[127.6532,47.4051],[127.6279,47.365],[127.5965,47.3451],[127.5874,47.3172],[127.5738,47.2945],[127.5596,47.2875],[127.5461,47.2633],[127.5235,47.2442],[127.5294,47.2308],[127.5188,47.2172],[127.4823,47.1911],[127.4698,47.1692],[127.4502,47.1621],[127.4344,47.1401],[127.3725,47.0874],[127.3658,47.0676],[127.363,47.0437],[127.3394,47.0261],[127.3359,47.0012],[127.3232,46.9868],[127.3205,46.9695],[127.3065,46.964],[127.2941,46.9413],[127.303,46.9054],[127.269,46.8778],[127.2181,46.8687],[127.2277,46.852],[127.2583,46.8282],[127.2653,46.7921],[127.2957,46.7626],[127.2987,46.7368],[127.3226,46.6973],[127.3221,46.6692]]]},"properties":{"region_code":"CN-23-2312-231224","parent_region_code":"CN-23-2312","name":"庆安县","level":"county","has_children":false,"full_path":"中国 / 黑龙江省 / 绥化市 / 庆安县","source_admin_code":"231224","osm_relation_id":2755371}},
{"type":"Feature","geometry":{"type":"Polygon","coordinates":[[[126.2771,47.1187],[126.3154,47.128],[126.3036,47.1615],[126.3133,47.1764],[126.3405,47.1869],[126.3398,47.2007],[126.3535,47.2103],[126.3543,47.2402],[126.3682,47.2675],[126.3605,47.2792],[126.3874,47.3112],[126.3884,47.3208],[126.4151,47.3247],[126.4304,47.3383],[126.4275,47.3544],[126.4375,47.3765],[126.3713,47.374],[126.3476,47.3685],[126.2882,47.3634],[126.2561,47.3578],[126.2265,47.3576],[126.1335,47.3506],[126.1186,47.3468],[126,47.337],[125.9572,47.3364],[125.9308,47.3291],[125.7958,47.3141],[125.7347,47.3061],[125.7002,47.3117],[125.5828,47.2981],[125.5576,47.2976],[125.413,47.2818],[125.3272,47.2831],[125.3235,47.2477],[125.3238,47.1441],[125.3074,47.1347],[125.2919,47.1134],[125.2795,47.0817],[125.3132,47.0284],[125.329,47.0387],[125.361,47.0307],[125.4473,47.0285],[125.5112,47.0237],[125.5849,47.0256],[125.6838,47.0352],[125.7266,47.0339],[125.7436,47.0431],[125.7785,47.0466],[125.8008,47.0391],[125.813,47.0467],[125.8428,47.0448],[125.9005,47.0495],[125.9349,47.0472],[125.9528,47.0507],[125.9719,47.0653],[125.966,47.0841],[126,47.1],[126.0258,47.0908],[126.129,47.1061],[126.2264,47.1171],[126.2771,47.1187]]]},"properties":{"region_code":"CN-23-2312-231225","parent_region_code":"CN-23-2312","name":"明水县","level":"county","has_children":false,"full_path":"中国 / 黑龙江省 / 绥化市 / 明水县","source_admin_code":"231225","osm_relation_id":2755370}},
{"type":"Feature","geometry":{"type":"Polygon","coordinates":[[[127.3658,47.0676],[127.3725,47.0874],[127.4344,47.1401],[127.4502,47.1621],[127.4698,47.1692],[127.4823,47.1911],[127.5188,47.2172],[127.5294,47.2308],[127.5235,47.2442],[127.5461,47.2633],[127.5596,47.2875],[127.5738,47.2945],[127.5874,47.3172],[127.5965,47.3451],[127.6279,47.365],[127.6532,47.4051],[127.6782,47.4212],[127.7092,47.4192],[127.7566,47.4235],[127.7853,47.4561],[127.8151,47.4497],[127.8428,47.4495],[127.8659,47.4405],[127.8921,47.4487],[127.9014,47.4755],[127.9219,47.4854],[127.9719,47.5513],[127.9922,47.5546],[128.0497,47.5488],[128.0796,47.5613],[128.102,47.5591],[128.133,47.5636],[128.1461,47.571],[128.1739,47.6026],[128.1925,47.602],[128.2207,47.5821],[128.2394,47.5771],[128.2639,47.5973],[128.2827,47.6063],[128.2665,47.6498],[128.2825,47.669],[128.2875,47.6964],[128.3142,47.7138],[128.302,47.7426],[128.2566,47.7545],[128.2552,47.7721],[128.2762,47.7959],[128.2685,47.8157],[128.2911,47.8365],[128.3149,47.8371],[128.334,47.822],[128.3428,47.8629],[128.3207,47.8897],[128.3185,47.9022],[128.2943,47.9165],[128.2497,47.9207],[128.2189,47.9438],[128.2008,47.9488],[128.1541,47.9486],[128.1516,47.9954],[128.1449,48.0307],[128.1482,48.0413],[128.1696,48.0496],[128.1455,48.0673],[128.1078,48.0797],[128.0932,48.0778],[128.0797,48.0637],[128.0478,48.0733],[128.0233,48.0704],[127.99,48.0784],[127.9725,48.0916],[127.9299,48.0809],[127.8784,48.059],[127.8539,48.0323],[127.879,48.0162],[127.8778,47.9881],[127.8881,47.9633],[127.8835,47.9502],[127.8652,47.9455],[127.8362,47.9282],[127.8391,47.9152],[127.8141,47.9082],[127.7964,47.887],[127.7952,47.8562],[127.7747,47.8412],[127.7531,47.8342],[127.7452,47.8179],[127.7087,47.7909],[127.7028,47.7805],[127.7315,47.7707],[127.747,47.7578],[127.727,47.7209],[127.6962,47.7186],[127.6722,47.7307],[127.6541,47.7219],[127.6657,47.7005],[127.607,47.6649],[127.5782,47.6622],[127.5547,47.6679],[127.5078,47.6655],[127.4843,47.6455],[127.4398,47.6487],[127.4111,47.6324],[127.38,47.6028],[127.3494,47.564],[127.3185,47.5376],[127.2869,47.5236],[127.2719,47.5098],[127.2218,47.4765],[127.2087,47.4548],[127.1882,47.4402],[127.1671,47.4135],[127.1611,47.3984],[127.1671,47.3835],[127.1459,47.3621],[127.1357,47.3402],[127.1044,47.3209],[127.0892,47.2883],[127.072,47.2775],[127.0683,47.2587],[127.0329,47.2347],[127.0344,47.2235],[126.997,47.1981],[126.979,47.1519],[126.9685,47.1397],[126.9969,47.1584],[127.0464,47.1672],[127.0811,47.1661],[127.0977,47.156],[127.1429,47.1583],[127.1483,47.1345],[127.2151,47.1316],[127.2238,47.089],[127.2096,47.0744],[127.2113,47.0627],[127.2618,47.0499],[127.3324,47.0516],[127.3465,47.0644],[127.3658,47.0676]]]},"properties":{"region_code":"CN-23-2312-231226","parent_region_code":"CN-23-2312","name":"绥棱县","level":"county","has_children":false,"full_path":"中国 / 黑龙江省 / 绥化市 / 绥棱县","source_admin_code":"231226","osm_relation_id":2755373}},
{"type":"Feature","geometry":{"type":"Polygon","coordinates":[[[125.9122,46.6394],[125.8791,46.6648],[125.8286,46.6932],[125.8054,46.6969],[125.7787,46.7116],[125.7355,46.7424],[125.7292,46.7642],[125.6546,46.8142],[125.6016,46.8345],[125.5625,46.8628],[125.4816,46.8984],[125.4729,46.8956],[125.4132,46.9352],[125.4153,46.9431],[125.384,46.9655],[125.3765,46.9908],[125.3393,46.9953],[125.2958,47.011],[125.231,46.9647],[125.1966,46.9167],[125.1917,46.9021],[125.1644,46.8639],[125.1493,46.8335],[125.1839,46.8241],[125.1843,46.8088],[125.1358,46.758],[125.1748,46.7345],[125.1856,46.7234],[125.2057,46.7242],[125.2079,46.7049],[125.2246,46.7023],[125.2659,46.6767],[125.2666,46.6548],[125.2452,46.6499],[125.2105,46.65],[125.2015,46.6593],[125.1727,46.6515],[125.2243,46.602],[125.2388,46.5963],[125.2363,46.5716],[125.2508,46.5416],[125.2331,46.5254],[125.2593,46.5071],[125.2261,46.4947],[125.2159,46.5164],[125.1957,46.5346],[125.1551,46.5178],[125.1999,46.4872],[125.215,46.4932],[125.2452,46.4923],[125.2648,46.4667],[125.2334,46.4547],[125.2642,46.4342],[125.2326,46.4087],[125.2177,46.4244],[125.1853,46.4189],[125.1545,46.4266],[125.1505,46.4456],[125.1186,46.4462],[125.1725,46.4757],[125.1647,46.4809],[125.0856,46.4787],[125.0546,46.4855],[125.0447,46.4617],[125.0298,46.443],[124.981,46.4283],[125.0057,46.4213],[125.0297,46.404],[125.0322,46.3842],[125.0202,46.3696],[125.0305,46.346],[125.0518,46.3356],[125.0492,46.2982],[125.0535,46.2661],[125.0455,46.257],[124.9784,46.2495],[124.9567,46.2368],[124.9614,46.2157],[124.9109,46.2062],[124.9011,46.1679],[124.9251,46.1094],[124.9143,46.102],[124.9156,46.0867],[124.9001,46.0745],[124.8703,46.0671],[124.8982,46.0484],[124.9528,46.069],[124.9954,46.0717],[125.0093,46.0786],[125.0549,46.0823],[125.0675,46.0656],[125.0541,46.0473],[125.0894,46.0546],[125.0961,46.0466],[125.0905,46.0232],[125.1208,46.0309],[125.1409,46.0425],[125.1542,46.0798],[125.1893,46.0925],[125.216,46.1359],[125.1818,46.1294],[125.1467,46.1276],[125.1285,46.1625],[125.1008,46.158],[125.0718,46.169],[125.0748,46.2145],[125.105,46.2132],[125.1105,46.1844],[125.1576,46.1949],[125.1804,46.174],[125.2055,46.1694],[125.2119,46.1416],[125.2493,46.1468],[125.2854,46.1349],[125.3179,46.1426],[125.3504,46.1449],[125.3294,46.2352],[125.4438,46.2472],[125.4994,46.2782],[125.506,46.2738],[125.578,46.3587],[125.5573,46.376],[125.5799,46.4006],[125.6185,46.4076],[125.6548,46.4252],[125.6969,46.4107],[125.7233,46.413],[125.754,46.4229],[125.7338,46.4459],[125.7451,46.46],[125.7439,46.478],[125.7259,46.4925],[125.723,46.5484],[125.7098,46.5729],[125.7167,46.5797],[125.7565,46.5953],[125.8284,46.6152],[125.8532,46.6145],[125.8876,46.6232],[125.9122,46.6394]]]},"properties":{"region_code":"CN-23-2312-231281","parent_region_code":"CN-23-2312","name":"安达市","level":"county","has_children":false,"full_path":"中国 / 黑龙江省 / 绥化市 / 安达市","source_admin_code":"231281","osm_relation_id":2755366}},
{"type":"Feature","geometry":{"type":"Polygon","coordinates":[[[125.754,46.4229],[125.7233,46.413],[125.6969,46.4107],[125.6548,46.4252],[125.6185,46.4076],[125.5799,46.4006],[125.5573,46.376],[125.578,46.3587],[125.506,46.2738],[125.4994,46.2782],[125.4438,46.2472],[125.3294,46.2352],[125.3504,46.1449],[125.3571,46.1147],[125.3626,46.0642],[125.3712,46.0451],[125.3788,46.0051],[125.3928,45.9705],[125.3961,45.9495],[125.4139,45.8842],[125.6886,45.905],[125.7005,45.8336],[125.7117,45.8236],[125.7034,45.8127],[125.7173,45.7958],[125.774,45.7961],[125.7784,45.7736],[125.7335,45.763],[125.7135,45.767],[125.7152,45.7436],[125.7417,45.746],[125.7669,45.7348],[125.7772,45.7153],[125.8005,45.698],[125.7769,45.6776],[125.7529,45.6847],[125.7244,45.6848],[125.7142,45.6648],[125.7136,45.6342],[125.7226,45.6156],[125.7436,45.6049],[125.7364,45.5883],[125.7401,45.5588],[125.76,45.5298],[125.7666,45.5085],[125.8208,45.5167],[125.8246,45.4997],[125.8426,45.5057],[125.8594,45.5298],[125.8928,45.5667],[125.9179,45.5789],[125.9263,45.6008],[125.9209,45.6237],[125.9367,45.6295],[125.9695,45.6238],[125.9828,45.6321],[125.9803,45.6493],[125.9652,45.6693],[125.988,45.6789],[126.0161,45.7105],[126.0452,45.7098],[126.0885,45.6852],[126.1177,45.6753],[126.1437,45.6753],[126.1496,45.6968],[126.166,45.7006],[126.1782,45.6842],[126.1973,45.6853],[126.2185,45.7027],[126.2576,45.7006],[126.2736,45.6935],[126.2988,45.6996],[126.2879,45.7382],[126.3103,45.7436],[126.3228,45.7237],[126.3411,45.7303],[126.3516,45.7534],[126.3552,45.8192],[126.3366,45.8273],[126.347,45.8643],[126.3575,45.8872],[126.3147,45.9056],[126.3061,45.9286],[126.3123,45.9392],[126.3034,45.9626],[126.2932,45.9684],[126.2551,45.9713],[126.2404,45.9595],[126.2239,45.9608],[126.2268,45.992],[126.2126,46.011],[126.1924,46.0256],[126.1634,46.0593],[126.1138,46.1213],[126.067,46.1691],[126.0624,46.1824],[125.9919,46.2804],[125.9629,46.3343],[125.9572,46.3386],[125.8288,46.4017],[125.767,46.4259],[125.754,46.4229]]]},"properties":{"region_code":"CN-23-2312-231282","parent_region_code":"CN-23-2312","name":"肇东市","level":"county","has_children":false,"full_path":"中国 / 黑龙江省 / 绥化市 / 肇东市","source_admin_code":"231282","osm_relation_id":2755375}},
{"type":"Feature","geometry":{"type":"Polygon","coordinates":[[[126.9685,47.1397],[126.979,47.1519],[126.997,47.1981],[127.0344,47.2235],[127.0329,47.2347],[127.0683,47.2587],[127.072,47.2775],[127.0892,47.2883],[127.1044,47.3209],[127.1357,47.3402],[127.1459,47.3621],[127.1671,47.3835],[127.1611,47.3984],[127.1671,47.4135],[127.1882,47.4402],[127.2087,47.4548],[127.2218,47.4765],[127.2719,47.5098],[127.2869,47.5236],[127.3185,47.5376],[127.3494,47.564],[127.38,47.6028],[127.4111,47.6324],[127.4398,47.6487],[127.4843,47.6455],[127.5078,47.6655],[127.5547,47.6679],[127.5782,47.6622],[127.607,47.6649],[127.6657,47.7005],[127.6541,47.7219],[127.6722,47.7307],[127.6962,47.7186],[127.727,47.7209],[127.747,47.7578],[127.7315,47.7707],[127.7028,47.7805],[127.6767,47.7776],[127.6545,47.8061],[127.6487,47.8219],[127.66,47.8539],[127.6128,47.8677],[127.5637,47.859],[127.5419,47.8464],[127.5297,47.8308],[127.4638,47.8047],[127.4098,47.7904],[127.3956,47.7819],[127.3255,47.7831],[127.3019,47.791],[127.2765,47.7853],[127.247,47.7706],[127.2289,47.7793],[127.1745,47.7769],[127.1665,47.7842],[127.1398,47.7845],[127.129,47.7753],[127.1078,47.7765],[127.0938,47.7665],[127.0289,47.7488],[127.0012,47.7468],[126.9786,47.7283],[126.9304,47.7132],[126.9038,47.7112],[126.8821,47.7257],[126.8374,47.7301],[126.8281,47.7412],[126.7958,47.7413],[126.7909,47.7284],[126.766,47.7327],[126.7319,47.7257],[126.709,47.7119],[126.7106,47.6991],[126.694,47.686],[126.6611,47.6712],[126.6169,47.6576],[126.6131,47.6489],[126.5791,47.6328],[126.5789,47.6124],[126.5359,47.5695],[126.5316,47.5223],[126.5169,47.4967],[126.5171,47.4732],[126.4966,47.4664],[126.5004,47.4513],[126.4841,47.428],[126.4577,47.3997],[126.4411,47.3957],[126.4375,47.3765],[126.4275,47.3544],[126.4304,47.3383],[126.4151,47.3247],[126.3884,47.3208],[126.3874,47.3112],[126.3605,47.2792],[126.3682,47.2675],[126.3543,47.2402],[126.3535,47.2103],[126.3398,47.2007],[126.3405,47.1869],[126.3133,47.1764],[126.3036,47.1615],[126.3154,47.128],[126.2771,47.1187],[126.2749,47.1012],[126.253,47.0638],[126.253,47.0195],[126.2671,47.0074],[126.2434,46.9938],[126.2269,46.9753],[126.2351,46.965],[126.2813,46.9679],[126.3655,46.9764],[126.3906,46.9758],[126.4503,46.9808],[126.4787,46.9889],[126.5121,46.9907],[126.5346,46.9975],[126.5657,46.9981],[126.5669,47.0438],[126.5608,47.097],[126.6166,47.101],[126.688,47.0928],[126.7794,47.0957],[126.7844,47.1068],[126.8522,47.1122],[126.8818,47.1193],[126.895,47.1351],[126.9353,47.135],[126.9685,47.1397]]]},"properties":{"region_code":"CN-23-2312-231283","parent_region_code":"CN-23-2312","name":"海伦市","level":"county","has_children":false,"full_path":"中国 / 黑龙江省 / 绥化市 / 海伦市","source_admin_code":"231283","osm_relation_id":2755368}}
]}