{"type":"FeatureCollection", "features": [
{"type":"Feature","geometry":{"type":"Polygon","coordinates":[[[118.5348,24.9429],[118.5277,24.9438],[118.5206,24.947],[118.5152,24.942],[118.5166,24.9349],[118.5077,24.9318],[118.5015,24.9317],[118.5029,24.9244],[118.5003,24.9165],[118.4924,24.9106],[118.4917,24.9043],[118.4945,24.899],[118.5009,24.8999],[118.5097,24.8952],[118.5194,24.8828],[118.5231,24.8831],[118.5311,24.8886],[118.538,24.8828],[118.532,24.8667],[118.5341,24.8619],[118.5417,24.8609],[118.5475,24.8575],[118.5619,24.8583],[118.5623,24.8707],[118.5612,24.8753],[118.5534,24.8825],[118.5553,24.8875],[118.5648,24.892],[118.5804,24.8919],[118.589,24.8966],[118.5905,24.9015],[118.5952,24.9021],[118.5985,24.9092],[118.5965,24.9154],[118.5985,24.9252],[118.5849,24.9287],[118.5769,24.9271],[118.5731,24.9206],[118.5641,24.9241],[118.5637,24.9333],[118.5569,24.9427],[118.5502,24.9452],[118.5348,24.9429]]]},"properties":{"region_code":"CN-35-3505-350502","parent_region_code":"CN-35-3505","name":"鲤城区","level":"county","has_children":false,"full_path":"中国 / 福建省 / 泉州市 / 鲤城区","source_admin_code":"350502","osm_relation_id":4078786}},
{"type":"Feature","geometry":{"type":"Polygon","coordinates":[[[118.5804,24.8919],[118.5857,24.8813],[118.5899,24.8781],[118.6044,24.8734],[118.6194,24.8733],[118.6352,24.87],[118.6398,24.866],[118.6478,24.8523],[118.6554,24.8353],[118.6741,24.835],[118.6989,24.8289],[118.6986,24.8388],[118.6925,24.86],[118.6917,24.8814],[118.6779,24.9019],[118.6806,24.9123],[118.6855,24.9199],[118.6806,24.9356],[118.6752,24.9374],[118.6704,24.9305],[118.6604,24.9331],[118.6596,24.9456],[118.6553,24.9441],[118.6531,24.9495],[118.6456,24.9537],[118.6407,24.9606],[118.6354,24.9604],[118.6291,24.9643],[118.616,24.9633],[118.6179,24.9679],[118.6137,24.972],[118.6091,24.9682],[118.6062,24.9757],[118.5995,24.9724],[118.5962,24.9798],[118.5892,24.9844],[118.59,24.9954],[118.5869,25.0005],[118.5848,24.9954],[118.5757,24.9927],[118.566,24.9934],[118.5615,24.9887],[118.5656,24.9801],[118.5628,24.9744],[118.549,24.9655],[118.5434,24.9577],[118.5421,24.9527],[118.5348,24.9429],[118.5502,24.9452],[118.5569,24.9427],[118.5637,24.9333],[118.5641,24.9241],[118.5731,24.9206],[118.5769,24.9271],[118.5849,24.9287],[118.5985,24.9252],[118.5965,24.9154],[118.5985,24.9092],[118.5952,24.9021],[118.5905,24.9015],[118.589,24.8966],[118.5804,24.8919]]]},"properties":{"region_code":"CN-35-3505-350503","parent_region_code":"CN-35-3505","name":"丰泽区","level":"county","has_children":false,"full_path":"中国 / 福建省 / 泉州市 / 丰泽区","source_admin_code":"350503","osm_relation_id":4430443}},
{"type":"Feature","geometry":{"type":"Polygon","coordinates":[[[118.6855,24.9199],[118.6904,24.9349],[118.6903,24.9436],[118.686,24.9507],[118.676,24.9551],[118.666,24.9674],[118.6626,24.9753],[118.657,24.9829],[118.6435,24.9944],[118.6428,24.9975],[118.632,25.0074],[118.6358,25.0154],[118.644,25.0167],[118.6381,25.0266],[118.6429,25.0311],[118.6544,25.038],[118.6592,25.044],[118.6544,25.0514],[118.6581,25.0569],[118.6661,25.0578],[118.6665,25.0627],[118.6742,25.0675],[118.6774,25.0761],[118.6758,25.0818],[118.6719,25.0867],[118.6776,25.0972],[118.6766,25.1053],[118.6797,25.113],[118.6799,25.1241],[118.6911,25.1225],[118.6952,25.1164],[118.7046,25.1203],[118.7091,25.1248],[118.7133,25.1255],[118.7184,25.1334],[118.7113,25.1357],[118.707,25.1412],[118.7086,25.1481],[118.7043,25.1491],[118.7016,25.1535],[118.7008,25.1605],[118.6872,25.1589],[118.6885,25.172],[118.6861,25.1746],[118.6782,25.1764],[118.672,25.1835],[118.6713,25.1884],[118.6745,25.1959],[118.6693,25.1986],[118.6681,25.2028],[118.6731,25.205],[118.6778,25.2039],[118.6858,25.214],[118.6842,25.2177],[118.6785,25.2194],[118.6773,25.228],[118.6792,25.2334],[118.6843,25.2376],[118.6798,25.247],[118.6826,25.2549],[118.6904,25.2624],[118.6837,25.2662],[118.6757,25.2741],[118.6674,25.2665],[118.6569,25.2677],[118.6555,25.2613],[118.6466,25.2659],[118.6424,25.2743],[118.6567,25.2809],[118.6628,25.2905],[118.6562,25.2992],[118.6585,25.3028],[118.6502,25.3052],[118.6371,25.3024],[118.6289,25.3057],[118.6193,25.2947],[118.6092,25.2964],[118.6089,25.2986],[118.5988,25.2988],[118.5922,25.3059],[118.5844,25.302],[118.5741,25.3041],[118.569,25.3007],[118.5658,25.2897],[118.5605,25.2808],[118.5637,25.2703],[118.5609,25.2642],[118.5623,25.2499],[118.5669,25.2474],[118.5708,25.2516],[118.576,25.2495],[118.5768,25.2457],[118.584,25.2375],[118.5839,25.2297],[118.5791,25.2182],[118.5791,25.2134],[118.5711,25.2129],[118.5746,25.2035],[118.5742,25.1991],[118.5781,25.1941],[118.5759,25.1892],[118.5823,25.178],[118.5811,25.1679],[118.5768,25.162],[118.5746,25.1486],[118.5721,25.1454],[118.5753,25.1381],[118.5721,25.1324],[118.5674,25.1309],[118.5619,25.1252],[118.5591,25.1174],[118.5516,25.1147],[118.5567,25.1047],[118.5563,25.0967],[118.56,25.0939],[118.5563,25.0896],[118.559,25.0857],[118.5642,25.0855],[118.5716,25.0792],[118.5689,25.0737],[118.5622,25.0704],[118.5628,25.0604],[118.5688,25.0571],[118.5736,25.0592],[118.5828,25.0484],[118.5779,25.0399],[118.5857,25.0321],[118.5869,25.0249],[118.5897,25.0197],[118.5884,25.0053],[118.5869,25.0005],[118.59,24.9954],[118.5892,24.9844],[118.5962,24.9798],[118.5995,24.9724],[118.6062,24.9757],[118.6091,24.9682],[118.6137,24.972],[118.6179,24.9679],[118.616,24.9633],[118.6291,24.9643],[118.6354,24.9604],[118.6407,24.9606],[118.6456,24.9537],[118.6531,24.9495],[118.6553,24.9441],[118.6596,24.9456],[118.6604,24.9331],[118.6704,24.9305],[118.6752,24.9374],[118.6806,24.9356],[118.6855,24.9199]]]},"properties":{"region_code":"CN-35-3505-350504","parent_region_code":"CN-35-3505","name":"洛江区","level":"county","has_children":false,"full_path":"中国 / 福建省 / 泉州市 / 洛江区","source_admin_code":"350504","osm_relation_id":4430446}},
{"type":"Feature","geometry":{"type":"Polygon","coordinates":[[[118.7184,25.1334],[118.7229,25.1349],[118.7427,25.1336],[118.7473,25.1287],[118.7541,25.1288],[118.7575,25.1261],[118.7641,25.1258],[118.7725,25.1197],[118.7683,25.1137],[118.7717,25.1113],[118.7796,25.1136],[118.777,25.1022],[118.7848,25.0981],[118.7877,25.1044],[118.7952,25.1083],[118.8008,25.1083],[118.8115,25.1025],[118.8207,25.105],[118.8259,25.116],[118.8256,25.1206],[118.8294,25.1223],[118.8306,25.1147],[118.8332,25.1103],[118.8413,25.1116],[118.8492,25.1052],[118.8523,25.0978],[118.8433,25.0902],[118.8458,25.0859],[118.8523,25.0854],[118.8704,25.0894],[118.882,25.0897],[118.897,25.0851],[118.9221,25.071],[118.961,25.0746],[119.0203,25.103],[119.0049,25.1116],[119.0026,25.1248],[119.006,25.1887],[118.9467,25.2293],[118.9373,25.2423],[118.9118,25.2505],[118.9054,25.2443],[118.9007,25.2421],[118.8939,25.2439],[118.8804,25.2425],[118.8768,25.2456],[118.8711,25.2445],[118.8668,25.2407],[118.8659,25.2346],[118.8624,25.2264],[118.8451,25.2261],[118.8403,25.2289],[118.8353,25.2271],[118.8303,25.2222],[118.8257,25.2233],[118.8209,25.2206],[118.8146,25.2217],[118.7986,25.2192],[118.7902,25.2233],[118.7732,25.2116],[118.7722,25.1972],[118.7551,25.1964],[118.7486,25.1915],[118.745,25.1918],[118.7398,25.1873],[118.7339,25.1853],[118.7234,25.1764],[118.7217,25.1719],[118.7105,25.1713],[118.7008,25.1605],[118.7016,25.1535],[118.7043,25.1491],[118.7086,25.1481],[118.707,25.1412],[118.7113,25.1357],[118.7184,25.1334]]]},"properties":{"region_code":"CN-35-3505-350505","parent_region_code":"CN-35-3505","name":"泉港区","level":"county","has_children":false,"full_path":"中国 / 福建省 / 泉州市 / 泉港区","source_admin_code":"350505","osm_relation_id":4430447}},
{"type":"Feature","geometry":{"type":"Polygon","coordinates":[[[118.6989,24.8289],[118.7056,24.8282],[118.7117,24.8234],[118.7698,24.8209],[118.8034,24.8168],[119.0884,24.4745],[119.362,24.6537],[119.0623,24.9932],[119.0552,25.0517],[119.0571,25.0826],[119.0203,25.103],[118.961,25.0746],[118.9221,25.071],[118.897,25.0851],[118.882,25.0897],[118.8704,25.0894],[118.8523,25.0854],[118.8458,25.0859],[118.8433,25.0902],[118.8523,25.0978],[118.8492,25.1052],[118.8413,25.1116],[118.8332,25.1103],[118.8306,25.1147],[118.8294,25.1223],[118.8256,25.1206],[118.8259,25.116],[118.8207,25.105],[118.8115,25.1025],[118.8008,25.1083],[118.7952,25.1083],[118.7877,25.1044],[118.7848,25.0981],[118.777,25.1022],[118.7796,25.1136],[118.7717,25.1113],[118.7683,25.1137],[118.7725,25.1197],[118.7641,25.1258],[118.7575,25.1261],[118.7541,25.1288],[118.7473,25.1287],[118.7427,25.1336],[118.7229,25.1349],[118.7184,25.1334],[118.7133,25.1255],[118.7091,25.1248],[118.7046,25.1203],[118.6952,25.1164],[118.6911,25.1225],[118.6799,25.1241],[118.6797,25.113],[118.6766,25.1053],[118.6776,25.0972],[118.6719,25.0867],[118.6758,25.0818],[118.6774,25.0761],[118.6742,25.0675],[118.6665,25.0627],[118.6661,25.0578],[118.6581,25.0569],[118.6544,25.0514],[118.6592,25.044],[118.6544,25.038],[118.6429,25.0311],[118.6381,25.0266],[118.644,25.0167],[118.6358,25.0154],[118.632,25.0074],[118.6428,24.9975],[118.6435,24.9944],[118.657,24.9829],[118.6626,24.9753],[118.666,24.9674],[118.676,24.9551],[118.686,24.9507],[118.6903,24.9436],[118.6904,24.9349],[118.6855,24.9199],[118.6806,24.9123],[118.6779,24.9019],[118.6917,24.8814],[118.6925,24.86],[118.6986,24.8388],[118.6989,24.8289]]]},"properties":{"region_code":"CN-35-3505-350521","parent_region_code":"CN-35-3505","name":"惠安县","level":"county","has_children":false,"full_path":"中国 / 福建省 / 泉州市 / 惠安县","source_admin_code":"350521","osm_relation_id":4430444}},
{"type":"Feature","geometry":{"type":"Polygon","coordinates":[[[118.1505,24.8956],[118.1509,24.9003],[118.1451,24.9049],[118.1451,24.9093],[118.1376,24.9171],[118.1307,24.9178],[118.1343,24.9295],[118.1303,24.9339],[118.1304,24.9388],[118.1336,24.9462],[118.138,24.9517],[118.1389,24.9674],[118.1383,24.9748],[118.1445,24.9859],[118.1416,24.9894],[118.1451,24.9955],[118.144,25.0045],[118.1417,25.0093],[118.1482,25.0099],[118.1611,25.0057],[118.1665,25.0107],[118.1722,25.0099],[118.1762,25.0157],[118.1825,25.011],[118.1903,25.0089],[118.196,25.0032],[118.2039,25.0098],[118.2124,25.0052],[118.2193,25.008],[118.2262,25.003],[118.2411,25],[118.2482,25.0018],[118.2537,24.9987],[118.2595,24.9981],[118.2666,25.0031],[118.2679,25.0112],[118.2738,25.0147],[118.2606,25.0278],[118.2655,25.0367],[118.2718,25.0409],[118.275,25.05],[118.2753,25.0552],[118.2814,25.0638],[118.2893,25.068],[118.2932,25.0737],[118.2907,25.0762],[118.2814,25.0724],[118.2754,25.0725],[118.2628,25.076],[118.2603,25.0816],[118.2517,25.0749],[118.242,25.0809],[118.2373,25.089],[118.2287,25.0908],[118.2222,25.1038],[118.2251,25.117],[118.2246,25.1237],[118.2338,25.1291],[118.2369,25.1368],[118.233,25.1442],[118.2241,25.1475],[118.2258,25.1526],[118.2181,25.1523],[118.2098,25.1625],[118.1944,25.1637],[118.1879,25.163],[118.1853,25.1656],[118.1754,25.1639],[118.173,25.1699],[118.1651,25.1742],[118.1526,25.1833],[118.1563,25.1887],[118.1545,25.1945],[118.1623,25.1981],[118.169,25.2086],[118.1576,25.2147],[118.1542,25.2147],[118.1468,25.2224],[118.1418,25.235],[118.148,25.2454],[118.1522,25.2612],[118.1536,25.2652],[118.1508,25.2691],[118.1542,25.2811],[118.1444,25.2835],[118.1436,25.2889],[118.1391,25.2893],[118.1352,25.2853],[118.1252,25.2873],[118.1197,25.2904],[118.1149,25.2846],[118.1113,25.2874],[118.1055,25.2838],[118.1035,25.2766],[118.0933,25.2695],[118.0894,25.2767],[118.0883,25.2846],[118.0852,25.2913],[118.0798,25.2914],[118.0713,25.2967],[118.0658,25.2867],[118.0568,25.2878],[118.0525,25.2929],[118.0548,25.2952],[118.0541,25.3013],[118.0486,25.3025],[118.0361,25.3163],[118.031,25.324],[118.0319,25.3312],[118.0291,25.3396],[118.0343,25.3462],[118.0301,25.3481],[118.0218,25.345],[118.0199,25.3539],[118.0015,25.3532],[117.9992,25.3651],[117.9961,25.3725],[117.9997,25.376],[117.9945,25.3816],[117.9961,25.3904],[117.9929,25.3925],[117.986,25.3896],[117.9826,25.392],[117.9748,25.3901],[117.9711,25.3925],[117.958,25.3933],[117.9521,25.3965],[117.9552,25.4059],[117.9478,25.4077],[117.9423,25.3988],[117.939,25.3995],[117.9318,25.3944],[117.9313,25.3907],[117.9243,25.389],[117.9142,25.394],[117.9094,25.3995],[117.898,25.3905],[117.8909,25.3904],[117.8772,25.3836],[117.8766,25.3872],[117.8628,25.394],[117.8582,25.3893],[117.8517,25.3974],[117.8467,25.399],[117.8399,25.3927],[117.8388,25.3836],[117.8316,25.3848],[117.8281,25.3894],[117.8233,25.39],[117.8116,25.4022],[117.8062,25.4156],[117.802,25.4182],[117.7889,25.4154],[117.7802,25.4095],[117.7666,25.4061],[117.7592,25.4093],[117.7521,25.4029],[117.7327,25.4014],[117.7278,25.4045],[117.7233,25.3944],[117.7143,25.4005],[117.7067,25.4031],[117.7097,25.407],[117.7084,25.4124],[117.7034,25.4155],[117.6972,25.4154],[117.6931,25.4255],[117.6902,25.4227],[117.6869,25.4134],[117.6783,25.406],[117.6809,25.3977],[117.6869,25.393],[117.6867,25.3829],[117.6884,25.3737],[117.6837,25.3618],[117.6754,25.3618],[117.6784,25.3506],[117.6702,25.3478],[117.6552,25.3398],[117.6535,25.3307],[117.649,25.3215],[117.644,25.3201],[117.636,25.3137],[117.618,25.3058],[117.6154,25.3022],[117.6059,25.303],[117.597,25.2986],[117.5953,25.2954],[117.6007,25.2889],[117.6031,25.2824],[117.6004,25.2685],[117.5977,25.263],[117.6101,25.2578],[117.6164,25.2517],[117.6156,25.2475],[117.6192,25.2415],[117.6112,25.2297],[117.6095,25.2247],[117.5984,25.2219],[117.5912,25.2294],[117.583,25.2297],[117.5756,25.2348],[117.5706,25.2344],[117.5688,25.2306],[117.5591,25.2231],[117.5529,25.2103],[117.5542,25.2028],[117.5507,25.1952],[117.5574,25.1894],[117.5616,25.1929],[117.5702,25.1917],[117.5685,25.1858],[117.5729,25.1795],[117.5782,25.1769],[117.5932,25.1757],[117.5956,25.1706],[117.6,25.167],[117.6163,25.1648],[117.6185,25.1586],[117.6134,25.1529],[117.6203,25.1417],[117.6274,25.1446],[117.6296,25.1372],[117.6558,25.1349],[117.6618,25.1291],[117.6675,25.1262],[117.6658,25.1191],[117.6667,25.1097],[117.6654,25.1041],[117.6701,25.092],[117.6764,25.0899],[117.6771,25.0847],[117.689,25.0848],[117.7011,25.0758],[117.7047,25.0697],[117.7093,25.0804],[117.7172,25.082],[117.7231,25.0697],[117.7216,25.0611],[117.7262,25.0537],[117.7219,25.0481],[117.7237,25.0442],[117.7297,25.0429],[117.7353,25.0371],[117.7325,25.0287],[117.7264,25.0279],[117.7227,25.0216],[117.7165,25.0224],[117.7123,25.0204],[117.713,25.014],[117.7072,25.0082],[117.6999,25.0083],[117.6942,25.006],[117.694,24.9997],[117.687,24.9932],[117.6809,24.9918],[117.6758,24.9984],[117.6653,25.0032],[117.6587,25],[117.6526,25.0007],[117.649,24.9919],[117.6509,24.986],[117.6413,24.9816],[117.6324,24.9739],[117.6238,24.9697],[117.6148,24.9708],[117.6104,24.9672],[117.6075,24.9599],[117.5992,24.9534],[117.5985,24.9487],[117.6034,24.9388],[117.6006,24.9363],[117.6014,24.9309],[117.6095,24.9326],[117.6165,24.9252],[117.6257,24.9298],[117.628,24.927],[117.6276,24.9205],[117.6248,24.9135],[117.62,24.9075],[117.6115,24.9015],[117.6095,24.8956],[117.6133,24.8851],[117.6173,24.8835],[117.6186,24.8708],[117.6269,24.871],[117.6306,24.8667],[117.6379,24.8624],[117.6464,24.8645],[117.6509,24.8594],[117.6673,24.8594],[117.6695,24.8522],[117.6759,24.8513],[117.6852,24.8574],[117.6894,24.8564],[117.6938,24.862],[117.6996,24.8616],[117.7063,24.8645],[117.7066,24.8686],[117.7146,24.8693],[117.7114,24.8761],[117.7188,24.8821],[117.7244,24.8826],[117.7276,24.8767],[117.7352,24.8848],[117.738,24.881],[117.7424,24.8847],[117.7482,24.8756],[117.7574,24.8709],[117.7634,24.8755],[117.766,24.8655],[117.7689,24.8608],[117.7659,24.8578],[117.7758,24.85],[117.7874,24.8612],[117.7889,24.8679],[117.7953,24.8639],[117.7978,24.8548],[117.8075,24.8526],[117.8125,24.8585],[117.8173,24.86],[117.8159,24.8664],[117.8233,24.8685],[117.8176,24.8757],[117.8202,24.8816],[117.8272,24.8851],[117.8326,24.8836],[117.8391,24.8781],[117.8499,24.8768],[117.8517,24.8819],[117.8604,24.8833],[117.8655,24.8778],[117.8686,24.8841],[117.8728,24.8863],[117.8778,24.8934],[117.8894,24.8906],[117.8877,24.8848],[117.895,24.8775],[117.8975,24.873],[117.9055,24.8706],[117.9082,24.8729],[117.9132,24.8829],[117.9178,24.8838],[117.9276,24.8766],[117.9306,24.8698],[117.9417,24.8736],[117.9494,24.8747],[117.9577,24.8688],[117.961,24.8578],[117.9688,24.8542],[117.9737,24.854],[117.9852,24.8604],[117.9931,24.8623],[117.9924,24.8657],[117.9869,24.8716],[117.9867,24.8753],[117.9923,24.8813],[118.0063,24.8776],[118.0118,24.8803],[118.0017,24.8931],[117.997,24.8921],[117.9857,24.8975],[117.989,24.9038],[117.996,24.9028],[118.004,24.8958],[118.012,24.8959],[118.0102,24.9016],[118.0124,24.9073],[118.0216,24.9047],[118.0271,24.9013],[118.0339,24.9022],[118.0379,24.896],[118.0343,24.8938],[118.0369,24.8848],[118.046,24.8808],[118.0456,24.8741],[118.0556,24.8697],[118.0605,24.8786],[118.0688,24.8776],[118.0654,24.8645],[118.0681,24.8579],[118.0714,24.8564],[118.0784,24.8656],[118.0913,24.8747],[118.1072,24.877],[118.1099,24.8811],[118.1196,24.8907],[118.1332,24.8972],[118.1437,24.8947],[118.1505,24.8956]]]},"properties":{"region_code":"CN-35-3505-350524","parent_region_code":"CN-35-3505","name":"安溪县","level":"county","has_children":false,"full_path":"中国 / 福建省 / 泉州市 / 安溪县","source_admin_code":"350524","osm_relation_id":2666979}},
{"type":"Feature","geometry":{"type":"Polygon","coordinates":[[[118.1522,25.2612],[118.1648,25.2615],[118.1671,25.2522],[118.1644,25.2492],[118.1716,25.2449],[118.1676,25.2395],[118.1726,25.2278],[118.182,25.222],[118.1941,25.2169],[118.2015,25.2183],[118.2046,25.2228],[118.213,25.2249],[118.2195,25.2327],[118.2305,25.2307],[118.2404,25.2235],[118.2536,25.2185],[118.2624,25.2308],[118.2598,25.2332],[118.2582,25.2422],[118.263,25.2465],[118.2676,25.2456],[118.2694,25.2401],[118.2774,25.2372],[118.2814,25.2404],[118.2833,25.2468],[118.2792,25.2498],[118.2834,25.2561],[118.2884,25.2579],[118.285,25.2627],[118.2975,25.2623],[118.3004,25.2703],[118.3048,25.2703],[118.3075,25.2632],[118.3133,25.2587],[118.3264,25.263],[118.334,25.2629],[118.3355,25.2578],[118.34,25.256],[118.355,25.2545],[118.3571,25.2531],[118.3657,25.2592],[118.3763,25.2596],[118.3784,25.2695],[118.3869,25.2757],[118.3924,25.2755],[118.3975,25.2782],[118.3997,25.2886],[118.4071,25.294],[118.4124,25.2953],[118.4237,25.2928],[118.4326,25.296],[118.4374,25.3078],[118.4436,25.3036],[118.4516,25.3093],[118.4551,25.3037],[118.4657,25.3028],[118.4709,25.2948],[118.4761,25.2956],[118.4823,25.2898],[118.4854,25.2937],[118.4869,25.3005],[118.4971,25.3031],[118.5009,25.302],[118.5074,25.3076],[118.5098,25.3071],[118.5172,25.3132],[118.5257,25.3098],[118.5317,25.3198],[118.5291,25.3305],[118.5218,25.3273],[118.5224,25.3221],[118.5176,25.3188],[118.5172,25.3143],[118.5122,25.3143],[118.5085,25.3216],[118.5129,25.3254],[118.5142,25.3316],[118.5193,25.334],[118.5203,25.34],[118.5169,25.3505],[118.5245,25.3558],[118.5265,25.3596],[118.5233,25.3637],[118.517,25.365],[118.5166,25.3724],[118.5045,25.3808],[118.502,25.3866],[118.4956,25.3913],[118.4909,25.3877],[118.4874,25.3941],[118.4927,25.3986],[118.4918,25.4049],[118.4833,25.4044],[118.4788,25.429],[118.4731,25.4269],[118.4637,25.4274],[118.4638,25.4313],[118.4546,25.4474],[118.4556,25.4484],[118.4362,25.4501],[118.4304,25.4476],[118.427,25.4407],[118.4171,25.4408],[118.4152,25.4445],[118.4186,25.4527],[118.4113,25.4544],[118.4072,25.458],[118.4012,25.4552],[118.4016,25.4443],[118.3964,25.444],[118.3774,25.4492],[118.3732,25.4478],[118.3665,25.4496],[118.3615,25.4465],[118.3579,25.4394],[118.354,25.4486],[118.3601,25.4552],[118.3645,25.4553],[118.3665,25.4611],[118.364,25.4653],[118.3597,25.4628],[118.3489,25.4617],[118.3386,25.4559],[118.3316,25.4506],[118.3191,25.4484],[118.3078,25.4485],[118.3041,25.4429],[118.2941,25.4412],[118.2963,25.4344],[118.2865,25.4316],[118.2833,25.4246],[118.2932,25.4155],[118.2928,25.4102],[118.2803,25.4076],[118.279,25.4047],[118.2695,25.3998],[118.2659,25.4007],[118.2648,25.4109],[118.2565,25.4163],[118.2502,25.4172],[118.2431,25.4231],[118.2397,25.4315],[118.2416,25.4383],[118.229,25.4456],[118.2281,25.4484],[118.2176,25.4527],[118.2138,25.4562],[118.2055,25.4577],[118.1918,25.4512],[118.1828,25.4536],[118.1689,25.4629],[118.1652,25.46],[118.1559,25.4619],[118.1503,25.4601],[118.139,25.4657],[118.131,25.4668],[118.1237,25.4763],[118.1174,25.4766],[118.1087,25.4803],[118.1083,25.4877],[118.1103,25.4911],[118.1117,25.5024],[118.1097,25.5035],[118.1103,25.5149],[118.1078,25.5176],[118.1045,25.5265],[118.1003,25.5328],[118.0932,25.5358],[118.0848,25.5363],[118.0778,25.5312],[118.0666,25.5376],[118.0584,25.5351],[118.0421,25.5249],[118.0359,25.5229],[118.0257,25.5301],[118.0309,25.54],[118.0261,25.541],[118.0116,25.5501],[118.0085,25.5594],[118.0053,25.5538],[117.9972,25.5525],[117.9937,25.5478],[117.9933,25.5408],[117.9825,25.5392],[117.9752,25.5312],[117.9794,25.5225],[117.9779,25.5183],[117.972,25.5234],[117.9609,25.5278],[117.959,25.5309],[117.9374,25.5272],[117.9321,25.5208],[117.9292,25.5213],[117.9226,25.5119],[117.9144,25.5091],[117.9103,25.5112],[117.9046,25.5052],[117.897,25.5038],[117.8925,25.505],[117.887,25.4996],[117.8789,25.5003],[117.8648,25.4972],[117.8591,25.4995],[117.849,25.4908],[117.8434,25.4899],[117.8378,25.4928],[117.8312,25.5001],[117.8248,25.51],[117.824,25.5134],[117.8141,25.5193],[117.8077,25.5189],[117.7977,25.5108],[117.7951,25.5142],[117.7823,25.511],[117.785,25.5022],[117.7828,25.4964],[117.7927,25.4882],[117.7927,25.4822],[117.7829,25.4827],[117.7718,25.4921],[117.7683,25.4983],[117.7571,25.4988],[117.753,25.5114],[117.7456,25.5116],[117.7394,25.5069],[117.7146,25.5177],[117.7116,25.515],[117.7121,25.5062],[117.7087,25.5],[117.7115,25.4931],[117.7099,25.4822],[117.7004,25.4736],[117.6995,25.4665],[117.7012,25.4625],[117.6972,25.4593],[117.6902,25.4582],[117.689,25.4486],[117.6861,25.4446],[117.689,25.4399],[117.6886,25.4346],[117.6939,25.4318],[117.6931,25.4255],[117.6972,25.4154],[117.7034,25.4155],[117.7084,25.4124],[117.7097,25.407],[117.7067,25.4031],[117.7143,25.4005],[117.7233,25.3944],[117.7278,25.4045],[117.7327,25.4014],[117.7521,25.4029],[117.7592,25.4093],[117.7666,25.4061],[117.7802,25.4095],[117.7889,25.4154],[117.802,25.4182],[117.8062,25.4156],[117.8116,25.4022],[117.8233,25.39],[117.8281,25.3894],[117.8316,25.3848],[117.8388,25.3836],[117.8399,25.3927],[117.8467,25.399],[117.8517,25.3974],[117.8582,25.3893],[117.8628,25.394],[117.8766,25.3872],[117.8772,25.3836],[117.8909,25.3904],[117.898,25.3905],[117.9094,25.3995],[117.9142,25.394],[117.9243,25.389],[117.9313,25.3907],[117.9318,25.3944],[117.939,25.3995],[117.9423,25.3988],[117.9478,25.4077],[117.9552,25.4059],[117.9521,25.3965],[117.958,25.3933],[117.9711,25.3925],[117.9748,25.3901],[117.9826,25.392],[117.986,25.3896],[117.9929,25.3925],[117.9961,25.3904],[117.9945,25.3816],[117.9997,25.376],[117.9961,25.3725],[117.9992,25.3651],[118.0015,25.3532],[118.0199,25.3539],[118.0218,25.345],[118.0301,25.3481],[118.0343,25.3462],[118.0291,25.3396],[118.0319,25.3312],[118.031,25.324],[118.0361,25.3163],[118.0486,25.3025],[118.0541,25.3013],[118.0548,25.2952],[118.0525,25.2929],[118.0568,25.2878],[118.0658,25.2867],[118.0713,25.2967],[118.0798,25.2914],[118.0852,25.2913],[118.0883,25.2846],[118.0894,25.2767],[118.0933,25.2695],[118.1035,25.2766],[118.1055,25.2838],[118.1113,25.2874],[118.1149,25.2846],[118.1197,25.2904],[118.1252,25.2873],[118.1352,25.2853],[118.1391,25.2893],[118.1436,25.2889],[118.1444,25.2835],[118.1542,25.2811],[118.1508,25.2691],[118.1536,25.2652],[118.1522,25.2612]]]},"properties":{"region_code":"CN-35-3505-350525","parent_region_code":"CN-35-3505","name":"永春县","level":"county","has_children":false,"full_path":"中国 / 福建省 / 泉州市 / 永春县","source_admin_code":"350525","osm_relation_id":2666967}},
{"type":"Feature","geometry":{"type":"Polygon","coordinates":[[[118.4556,25.4484],[118.4571,25.4553],[118.4663,25.4648],[118.4667,25.4702],[118.4717,25.4704],[118.4742,25.4858],[118.4683,25.4954],[118.4597,25.4983],[118.4621,25.5035],[118.4581,25.5059],[118.4582,25.512],[118.4658,25.5154],[118.4622,25.52],[118.4633,25.5237],[118.4709,25.5288],[118.4701,25.5312],[118.4777,25.5411],[118.4873,25.5482],[118.484,25.5521],[118.4923,25.5596],[118.5051,25.5642],[118.5062,25.5713],[118.5049,25.5802],[118.5149,25.5902],[118.5167,25.5939],[118.523,25.5978],[118.5322,25.6122],[118.5418,25.6207],[118.5388,25.6249],[118.546,25.6356],[118.5425,25.6401],[118.5372,25.6406],[118.5262,25.6451],[118.53,25.6515],[118.5404,25.6595],[118.5362,25.6647],[118.5318,25.6617],[118.5218,25.6638],[118.5177,25.662],[118.5078,25.6726],[118.5043,25.678],[118.4982,25.6814],[118.4954,25.6876],[118.4886,25.6916],[118.4844,25.7],[118.4761,25.7053],[118.477,25.7096],[118.4622,25.7138],[118.4511,25.7249],[118.4442,25.7204],[118.4412,25.7241],[118.4349,25.7252],[118.4357,25.7305],[118.426,25.7332],[118.4227,25.7403],[118.4213,25.7488],[118.425,25.7512],[118.425,25.7603],[118.4159,25.7677],[118.4136,25.7765],[118.4188,25.7816],[118.4116,25.7862],[118.4062,25.795],[118.4055,25.7991],[118.3952,25.8011],[118.3867,25.8132],[118.3761,25.8156],[118.3899,25.8267],[118.3892,25.8393],[118.3924,25.8499],[118.4025,25.8452],[118.4034,25.8501],[118.4158,25.8577],[118.4157,25.8636],[118.409,25.8735],[118.4102,25.8787],[118.401,25.8819],[118.4061,25.886],[118.4061,25.8933],[118.3886,25.9035],[118.3791,25.9016],[118.3703,25.8961],[118.3652,25.8974],[118.3641,25.9038],[118.367,25.9075],[118.3623,25.9106],[118.363,25.9159],[118.3565,25.9198],[118.3552,25.9339],[118.3495,25.9386],[118.337,25.9385],[118.3377,25.9342],[118.3329,25.9221],[118.3278,25.9166],[118.3133,25.9162],[118.3082,25.921],[118.3078,25.9262],[118.3039,25.9335],[118.2996,25.9351],[118.29,25.9249],[118.2852,25.9265],[118.2837,25.9322],[118.2798,25.9354],[118.2664,25.9321],[118.2606,25.9212],[118.2665,25.9155],[118.2682,25.9068],[118.2628,25.901],[118.2569,25.9031],[118.2494,25.9024],[118.2424,25.8992],[118.2333,25.889],[118.2279,25.8876],[118.2233,25.8896],[118.2157,25.897],[118.2025,25.903],[118.1976,25.8984],[118.1982,25.8936],[118.1912,25.8875],[118.1849,25.8859],[118.1785,25.8881],[118.1726,25.8866],[118.171,25.8971],[118.1746,25.8984],[118.1735,25.9041],[118.1683,25.9024],[118.1611,25.9045],[118.1565,25.9082],[118.1498,25.9104],[118.14,25.9022],[118.1328,25.9031],[118.1276,25.8973],[118.1243,25.9026],[118.1165,25.9005],[118.1063,25.8957],[118.1055,25.8908],[118.0988,25.8953],[118.0955,25.8937],[118.0949,25.8877],[118.0843,25.8912],[118.0788,25.886],[118.0739,25.8889],[118.0707,25.8815],[118.0722,25.8783],[118.0802,25.874],[118.0799,25.8676],[118.0736,25.8664],[118.0664,25.8596],[118.0664,25.8561],[118.0602,25.8509],[118.0538,25.8515],[118.0498,25.8591],[118.0439,25.8623],[118.0375,25.8586],[118.0315,25.8596],[118.0286,25.865],[118.0221,25.8647],[118.0199,25.8609],[118.0095,25.8609],[118.0074,25.858],[118.0122,25.8542],[118.0143,25.8479],[118.021,25.8445],[118.0278,25.8388],[118.0295,25.8343],[118.0255,25.8277],[118.0213,25.8341],[118.018,25.8297],[118.012,25.8273],[118.0113,25.8205],[118.0064,25.8168],[118.0042,25.7989],[118.0067,25.7837],[118.0041,25.7744],[118.0008,25.7713],[117.9923,25.7686],[117.982,25.774],[117.9788,25.7682],[117.9791,25.761],[117.9709,25.7635],[117.9722,25.7558],[117.9768,25.7523],[117.9754,25.7479],[117.9842,25.7379],[117.9852,25.7344],[117.9913,25.7339],[117.9904,25.7267],[118.0001,25.7249],[118.005,25.7285],[118.0096,25.7272],[118.0086,25.7184],[118.0061,25.712],[118.0022,25.7078],[118.0036,25.7023],[117.997,25.6882],[117.9866,25.689],[117.9781,25.6841],[117.9754,25.6869],[117.9673,25.6867],[117.9627,25.683],[117.9589,25.6833],[117.9507,25.6759],[117.9429,25.6735],[117.9455,25.67],[117.9363,25.6685],[117.932,25.6557],[117.9386,25.6546],[117.944,25.6593],[117.948,25.6537],[117.9515,25.6442],[117.9628,25.6474],[117.973,25.6358],[117.9715,25.6328],[117.9788,25.6292],[117.9868,25.6306],[117.9853,25.6222],[117.9965,25.6186],[118.0083,25.624],[118.0143,25.6229],[118.0236,25.6315],[118.0353,25.6272],[118.0382,25.6236],[118.0371,25.6124],[118.039,25.6095],[118.0371,25.5996],[118.0338,25.5929],[118.027,25.5905],[118.0307,25.5808],[118.0259,25.581],[118.0251,25.5723],[118.0191,25.5687],[118.0161,25.5645],[118.0085,25.5594],[118.0116,25.5501],[118.0261,25.541],[118.0309,25.54],[118.0257,25.5301],[118.0359,25.5229],[118.0421,25.5249],[118.0584,25.5351],[118.0666,25.5376],[118.0778,25.5312],[118.0848,25.5363],[118.0932,25.5358],[118.1003,25.5328],[118.1045,25.5265],[118.1078,25.5176],[118.1103,25.5149],[118.1097,25.5035],[118.1117,25.5024],[118.1103,25.4911],[118.1083,25.4877],[118.1087,25.4803],[118.1174,25.4766],[118.1237,25.4763],[118.131,25.4668],[118.139,25.4657],[118.1503,25.4601],[118.1559,25.4619],[118.1652,25.46],[118.1689,25.4629],[118.1828,25.4536],[118.1918,25.4512],[118.2055,25.4577],[118.2138,25.4562],[118.2176,25.4527],[118.2281,25.4484],[118.229,25.4456],[118.2416,25.4383],[118.2397,25.4315],[118.2431,25.4231],[118.2502,25.4172],[118.2565,25.4163],[118.2648,25.4109],[118.2659,25.4007],[118.2695,25.3998],[118.279,25.4047],[118.2803,25.4076],[118.2928,25.4102],[118.2932,25.4155],[118.2833,25.4246],[118.2865,25.4316],[118.2963,25.4344],[118.2941,25.4412],[118.3041,25.4429],[118.3078,25.4485],[118.3191,25.4484],[118.3316,25.4506],[118.3386,25.4559],[118.3489,25.4617],[118.3597,25.4628],[118.364,25.4653],[118.3665,25.4611],[118.3645,25.4553],[118.3601,25.4552],[118.354,25.4486],[118.3579,25.4394],[118.3615,25.4465],[118.3665,25.4496],[118.3732,25.4478],[118.3774,25.4492],[118.3964,25.444],[118.4016,25.4443],[118.4012,25.4552],[118.4072,25.458],[118.4113,25.4544],[118.4186,25.4527],[118.4152,25.4445],[118.4171,25.4408],[118.427,25.4407],[118.4304,25.4476],[118.4362,25.4501],[118.4556,25.4484]]]},"properties":{"region_code":"CN-35-3505-350526","parent_region_code":"CN-35-3505","name":"德化县","level":"county","has_children":false,"full_path":"中国 / 福建省 / 泉州市 / 德化县","source_admin_code":"350526","osm_relation_id":2666980}},
{"type":"Feature","geometry":{"type":"Polygon","coordinates":[[[118.6989,24.8289],[118.66,24.7967],[118.6538,24.7948],[118.6487,24.7888],[118.6371,24.7832],[118.6352,24.7789],[118.6292,24.778],[118.6256,24.7844],[118.622,24.7802],[118.625,24.7762],[118.6264,24.7653],[118.6248,24.7608],[118.6195,24.76],[118.6186,24.756],[118.6123,24.7573],[118.6008,24.7522],[118.5985,24.7499],[118.5893,24.7486],[118.5799,24.7335],[118.5813,24.7276],[118.5895,24.7256],[118.5937,24.7199],[118.5935,24.7144],[118.6038,24.7084],[118.609,24.7085],[118.6141,24.7152],[118.6193,24.7136],[118.626,24.7148],[118.6306,24.7213],[118.6347,24.723],[118.6412,24.7213],[118.6464,24.7234],[118.6505,24.7182],[118.6511,24.71],[118.6595,24.7056],[118.6552,24.6984],[118.6556,24.6917],[118.6649,24.6765],[118.6683,24.6508],[118.6934,24.6503],[118.9119,24.3587],[119.0884,24.4745],[118.8034,24.8168],[118.7698,24.8209],[118.7117,24.8234],[118.7056,24.8282],[118.6989,24.8289]]]},"properties":{"region_code":"CN-35-3505-350581","parent_region_code":"CN-35-3505","name":"石狮市","level":"county","has_children":false,"full_path":"中国 / 福建省 / 泉州市 / 石狮市","source_admin_code":"350581","osm_relation_id":4430448}},
{"type":"Feature","geometry":{"type":"Polygon","coordinates":[[[118.4917,24.9043],[118.4878,24.907],[118.4803,24.9039],[118.4798,24.8903],[118.4735,24.8818],[118.4767,24.8727],[118.4845,24.8647],[118.4832,24.8605],[118.4773,24.8591],[118.4726,24.8537],[118.4583,24.8508],[118.4503,24.8506],[118.4402,24.8475],[118.432,24.8521],[118.4357,24.8436],[118.4328,24.8381],[118.4408,24.821],[118.435,24.8098],[118.4357,24.8028],[118.4321,24.7989],[118.4247,24.7987],[118.4196,24.792],[118.4124,24.7886],[118.4079,24.7809],[118.4183,24.778],[118.4225,24.7807],[118.4296,24.7752],[118.4196,24.763],[118.4209,24.7603],[118.4311,24.7565],[118.4299,24.7519],[118.4353,24.7494],[118.4318,24.7427],[118.4306,24.7352],[118.441,24.7205],[118.4396,24.7148],[118.4448,24.7063],[118.4411,24.6909],[118.4435,24.6773],[118.4431,24.6707],[118.4357,24.6549],[118.4343,24.6456],[118.4357,24.6249],[118.4488,24.59],[118.4958,24.5577],[118.7429,24.2478],[118.9119,24.3587],[118.6934,24.6503],[118.6683,24.6508],[118.6649,24.6765],[118.6556,24.6917],[118.6552,24.6984],[118.6595,24.7056],[118.6511,24.71],[118.6505,24.7182],[118.6464,24.7234],[118.6412,24.7213],[118.6347,24.723],[118.6306,24.7213],[118.626,24.7148],[118.6193,24.7136],[118.6141,24.7152],[118.609,24.7085],[118.6038,24.7084],[118.5935,24.7144],[118.5937,24.7199],[118.5895,24.7256],[118.5813,24.7276],[118.5799,24.7335],[118.5893,24.7486],[118.5985,24.7499],[118.6008,24.7522],[118.6123,24.7573],[118.6186,24.756],[118.6195,24.76],[118.6248,24.7608],[118.6264,24.7653],[118.625,24.7762],[118.622,24.7802],[118.6256,24.7844],[118.6292,24.778],[118.6352,24.7789],[118.6371,24.7832],[118.6487,24.7888],[118.6538,24.7948],[118.66,24.7967],[118.6989,24.8289],[118.6741,24.835],[118.6554,24.8353],[118.6478,24.8523],[118.6398,24.866],[118.6352,24.87],[118.6194,24.8733],[118.6044,24.8734],[118.5899,24.8781],[118.5857,24.8813],[118.5804,24.8919],[118.5648,24.892],[118.5553,24.8875],[118.5534,24.8825],[118.5612,24.8753],[118.5623,24.8707],[118.5619,24.8583],[118.5475,24.8575],[118.5417,24.8609],[118.5341,24.8619],[118.532,24.8667],[118.538,24.8828],[118.5311,24.8886],[118.5231,24.8831],[118.5194,24.8828],[118.5097,24.8952],[118.5009,24.8999],[118.4945,24.899],[118.4917,24.9043]]]},"properties":{"region_code":"CN-35-3505-350582","parent_region_code":"CN-35-3505","name":"晋江市","level":"county","has_children":false,"full_path":"中国 / 福建省 / 泉州市 / 晋江市","source_admin_code":"350582","osm_relation_id":4430445}},
{"type":"Feature","geometry":{"type":"Polygon","coordinates":[[[118.5348,24.9429],[118.5421,24.9527],[118.5434,24.9577],[118.549,24.9655],[118.5628,24.9744],[118.5656,24.9801],[118.5615,24.9887],[118.566,24.9934],[118.5757,24.9927],[118.5848,24.9954],[118.5869,25.0005],[118.5884,25.0053],[118.5897,25.0197],[118.5869,25.0249],[118.5857,25.0321],[118.5779,25.0399],[118.5828,25.0484],[118.5736,25.0592],[118.5688,25.0571],[118.5628,25.0604],[118.5622,25.0704],[118.5689,25.0737],[118.5716,25.0792],[118.5642,25.0855],[118.559,25.0857],[118.5563,25.0896],[118.56,25.0939],[118.5563,25.0967],[118.5567,25.1047],[118.5516,25.1147],[118.5591,25.1174],[118.5619,25.1252],[118.5674,25.1309],[118.5721,25.1324],[118.5753,25.1381],[118.5721,25.1454],[118.5746,25.1486],[118.5768,25.162],[118.5811,25.1679],[118.5823,25.178],[118.5759,25.1892],[118.5781,25.1941],[118.5742,25.1991],[118.5746,25.2035],[118.5711,25.2129],[118.5791,25.2134],[118.5791,25.2182],[118.5839,25.2297],[118.584,25.2375],[118.5768,25.2457],[118.576,25.2495],[118.5708,25.2516],[118.5669,25.2474],[118.5623,25.2499],[118.5609,25.2642],[118.5637,25.2703],[118.5605,25.2808],[118.5658,25.2897],[118.5578,25.2932],[118.5472,25.2927],[118.5418,25.2901],[118.5385,25.2932],[118.5301,25.2968],[118.5257,25.3098],[118.5172,25.3132],[118.5098,25.3071],[118.5074,25.3076],[118.5009,25.302],[118.4971,25.3031],[118.4869,25.3005],[118.4854,25.2937],[118.4823,25.2898],[118.4761,25.2956],[118.4709,25.2948],[118.4657,25.3028],[118.4551,25.3037],[118.4516,25.3093],[118.4436,25.3036],[118.4374,25.3078],[118.4326,25.296],[118.4237,25.2928],[118.4124,25.2953],[118.4071,25.294],[118.3997,25.2886],[118.3975,25.2782],[118.3924,25.2755],[118.3869,25.2757],[118.3784,25.2695],[118.3763,25.2596],[118.3657,25.2592],[118.3571,25.2531],[118.355,25.2545],[118.34,25.256],[118.3355,25.2578],[118.334,25.2629],[118.3264,25.263],[118.3133,25.2587],[118.3075,25.2632],[118.3048,25.2703],[118.3004,25.2703],[118.2975,25.2623],[118.285,25.2627],[118.2884,25.2579],[118.2834,25.2561],[118.2792,25.2498],[118.2833,25.2468],[118.2814,25.2404],[118.2774,25.2372],[118.2694,25.2401],[118.2676,25.2456],[118.263,25.2465],[118.2582,25.2422],[118.2598,25.2332],[118.2624,25.2308],[118.2536,25.2185],[118.2404,25.2235],[118.2305,25.2307],[118.2195,25.2327],[118.213,25.2249],[118.2046,25.2228],[118.2015,25.2183],[118.1941,25.2169],[118.182,25.222],[118.1726,25.2278],[118.1676,25.2395],[118.1716,25.2449],[118.1644,25.2492],[118.1671,25.2522],[118.1648,25.2615],[118.1522,25.2612],[118.148,25.2454],[118.1418,25.235],[118.1468,25.2224],[118.1542,25.2147],[118.1576,25.2147],[118.169,25.2086],[118.1623,25.1981],[118.1545,25.1945],[118.1563,25.1887],[118.1526,25.1833],[118.1651,25.1742],[118.173,25.1699],[118.1754,25.1639],[118.1853,25.1656],[118.1879,25.163],[118.1944,25.1637],[118.2098,25.1625],[118.2181,25.1523],[118.2258,25.1526],[118.2241,25.1475],[118.233,25.1442],[118.2369,25.1368],[118.2338,25.1291],[118.2246,25.1237],[118.2251,25.117],[118.2222,25.1038],[118.2287,25.0908],[118.2373,25.089],[118.242,25.0809],[118.2517,25.0749],[118.2603,25.0816],[118.2628,25.076],[118.2754,25.0725],[118.2814,25.0724],[118.2907,25.0762],[118.2932,25.0737],[118.2893,25.068],[118.2814,25.0638],[118.2753,25.0552],[118.275,25.05],[118.2718,25.0409],[118.2655,25.0367],[118.2606,25.0278],[118.2738,25.0147],[118.2679,25.0112],[118.2666,25.0031],[118.2595,24.9981],[118.2537,24.9987],[118.2482,25.0018],[118.2411,25],[118.2262,25.003],[118.2193,25.008],[118.2124,25.0052],[118.2039,25.0098],[118.196,25.0032],[118.1903,25.0089],[118.1825,25.011],[118.1762,25.0157],[118.1722,25.0099],[118.1665,25.0107],[118.1611,25.0057],[118.1482,25.0099],[118.1417,25.0093],[118.144,25.0045],[118.1451,24.9955],[118.1416,24.9894],[118.1445,24.9859],[118.1383,24.9748],[118.1389,24.9674],[118.138,24.9517],[118.1336,24.9462],[118.1304,24.9388],[118.1303,24.9339],[118.1343,24.9295],[118.1307,24.9178],[118.1376,24.9171],[118.1451,24.9093],[118.1451,24.9049],[118.1509,24.9003],[118.1505,24.8956],[118.1564,24.9006],[118.1655,24.9007],[118.1726,24.8945],[118.1895,24.8957],[118.1986,24.8843],[118.1949,24.8843],[118.1898,24.8795],[118.1876,24.8736],[118.1917,24.8698],[118.2092,24.8606],[118.2201,24.852],[118.2184,24.8426],[118.2274,24.8304],[118.2348,24.8255],[118.2394,24.8282],[118.2403,24.8329],[118.2448,24.8357],[118.25,24.8293],[118.258,24.8275],[118.2684,24.835],[118.2703,24.8333],[118.2783,24.8363],[118.2821,24.8337],[118.2912,24.832],[118.2987,24.8283],[118.2956,24.8211],[118.3108,24.8094],[118.3139,24.8028],[118.3213,24.8011],[118.3226,24.7948],[118.3197,24.7837],[118.3295,24.7777],[118.3323,24.7835],[118.3377,24.7835],[118.3395,24.7752],[118.3325,24.7745],[118.3317,24.7626],[118.3296,24.7559],[118.3238,24.7567],[118.3193,24.753],[118.3149,24.7545],[118.3104,24.7499],[118.3149,24.7438],[118.313,24.7415],[118.3226,24.7329],[118.327,24.7347],[118.331,24.7299],[118.3331,24.7222],[118.3248,24.714],[118.3153,24.698],[118.319,24.6926],[118.3359,24.6842],[118.3327,24.6779],[118.3454,24.6694],[118.3467,24.6518],[118.343,24.6506],[118.3387,24.6435],[118.3429,24.6342],[118.3389,24.6259],[118.3382,24.6208],[118.3322,24.6172],[118.3298,24.6099],[118.326,24.6106],[118.3242,24.6024],[118.3273,24.6004],[118.3383,24.6063],[118.3362,24.5989],[118.3393,24.5925],[118.3489,24.5867],[118.3497,24.5823],[118.3476,24.5746],[118.3586,24.5708],[118.3758,24.5709],[118.4351,24.5614],[118.4645,24.5487],[118.481,24.5381],[118.4865,24.5465],[118.4958,24.5577],[118.4488,24.59],[118.4357,24.6249],[118.4343,24.6456],[118.4357,24.6549],[118.4431,24.6707],[118.4435,24.6773],[118.4411,24.6909],[118.4448,24.7063],[118.4396,24.7148],[118.441,24.7205],[118.4306,24.7352],[118.4318,24.7427],[118.4353,24.7494],[118.4299,24.7519],[118.4311,24.7565],[118.4209,24.7603],[118.4196,24.763],[118.4296,24.7752],[118.4225,24.7807],[118.4183,24.778],[118.4079,24.7809],[118.4124,24.7886],[118.4196,24.792],[118.4247,24.7987],[118.4321,24.7989],[118.4357,24.8028],[118.435,24.8098],[118.4408,24.821],[118.4328,24.8381],[118.4357,24.8436],[118.432,24.8521],[118.4402,24.8475],[118.4503,24.8506],[118.4583,24.8508],[118.4726,24.8537],[118.4773,24.8591],[118.4832,24.8605],[118.4845,24.8647],[118.4767,24.8727],[118.4735,24.8818],[118.4798,24.8903],[118.4803,24.9039],[118.4878,24.907],[118.4917,24.9043],[118.4924,24.9106],[118.5003,24.9165],[118.5029,24.9244],[118.5015,24.9317],[118.5077,24.9318],[118.5166,24.9349],[118.5152,24.942],[118.5206,24.947],[118.5277,24.9438],[118.5348,24.9429]]]},"properties":{"region_code":"CN-35-3505-350583","parent_region_code":"CN-35-3505","name":"南安市","level":"county","has_children":false,"full_path":"中国 / 福建省 / 泉州市 / 南安市","source_admin_code":"350583","osm_relation_id":3225833}}
]}