{"type":"FeatureCollection", "features": [
{"type":"Feature","geometry":{"type":"Polygon","coordinates":[[[116.5275,31.2903],[116.5325,31.2869],[116.5339,31.283],[116.5405,31.2824],[116.5465,31.2786],[116.5535,31.2834],[116.5629,31.2832],[116.5707,31.291],[116.5739,31.3039],[116.5723,31.31],[116.5818,31.3163],[116.5869,31.3219],[116.5855,31.3259],[116.587,31.331],[116.5805,31.3386],[116.5678,31.3413],[116.5676,31.3449],[116.5757,31.3522],[116.5799,31.352],[116.5823,31.3581],[116.5824,31.3647],[116.585,31.3681],[116.592,31.364],[116.5951,31.359],[116.6,31.3604],[116.6092,31.358],[116.6153,31.3625],[116.6211,31.3615],[116.6278,31.3638],[116.6322,31.3604],[116.637,31.3633],[116.6399,31.3751],[116.638,31.378],[116.6411,31.3826],[116.6446,31.3837],[116.648,31.3898],[116.6469,31.3942],[116.6512,31.3991],[116.6601,31.4031],[116.6649,31.4067],[116.6664,31.412],[116.6627,31.418],[116.6742,31.4227],[116.6872,31.4231],[116.691,31.4303],[116.6953,31.4305],[116.7013,31.4278],[116.7063,31.4347],[116.7148,31.436],[116.7174,31.4324],[116.723,31.4352],[116.7314,31.4347],[116.7342,31.4378],[116.7458,31.4401],[116.7464,31.4425],[116.7564,31.449],[116.7613,31.4477],[116.7768,31.454],[116.7833,31.4533],[116.785,31.4562],[116.7926,31.4567],[116.794,31.461],[116.8009,31.4616],[116.7982,31.4656],[116.8035,31.4682],[116.8033,31.4719],[116.8098,31.476],[116.8136,31.4842],[116.8189,31.4863],[116.8179,31.4948],[116.8336,31.5144],[116.8285,31.5183],[116.8276,31.5221],[116.8201,31.5229],[116.8106,31.5342],[116.8024,31.5373],[116.7989,31.5416],[116.7904,31.5451],[116.787,31.5424],[116.7841,31.5468],[116.7867,31.5546],[116.7849,31.5589],[116.7802,31.5568],[116.7735,31.558],[116.7674,31.5636],[116.7639,31.5701],[116.7597,31.5728],[116.7577,31.5796],[116.7582,31.5846],[116.7626,31.5879],[116.7627,31.5946],[116.7607,31.5995],[116.7611,31.6072],[116.7631,31.6177],[116.7606,31.6199],[116.7624,31.6242],[116.7581,31.6326],[116.7595,31.6398],[116.756,31.6394],[116.7513,31.645],[116.751,31.6495],[116.7533,31.6572],[116.7577,31.6624],[116.7637,31.665],[116.763,31.6709],[116.7549,31.6799],[116.7553,31.6843],[116.7613,31.6942],[116.7589,31.6975],[116.7589,31.7034],[116.762,31.7052],[116.7599,31.7101],[116.7625,31.7142],[116.7602,31.7184],[116.7531,31.7165],[116.7502,31.7136],[116.745,31.7181],[116.7429,31.7249],[116.7492,31.7268],[116.753,31.732],[116.759,31.7327],[116.7568,31.7381],[116.7479,31.7425],[116.7536,31.7534],[116.758,31.7594],[116.7598,31.7683],[116.7511,31.7739],[116.7439,31.7648],[116.741,31.7668],[116.743,31.7714],[116.7361,31.7738],[116.7288,31.7784],[116.7334,31.7829],[116.7328,31.7871],[116.7249,31.7863],[116.7211,31.7818],[116.7128,31.7814],[116.7116,31.7896],[116.7055,31.8004],[116.6957,31.8066],[116.687,31.8154],[116.683,31.8216],[116.6868,31.8229],[116.6934,31.8205],[116.6971,31.8312],[116.7067,31.8345],[116.7061,31.8418],[116.7119,31.8442],[116.7203,31.841],[116.7283,31.8428],[116.7321,31.8522],[116.7365,31.8533],[116.7377,31.8599],[116.734,31.8648],[116.7285,31.8605],[116.7174,31.8621],[116.7192,31.8694],[116.7156,31.8734],[116.7159,31.8782],[116.7119,31.8811],[116.7098,31.8865],[116.7125,31.8876],[116.7251,31.8849],[116.7251,31.8927],[116.7274,31.8956],[116.7365,31.8956],[116.7434,31.8899],[116.7454,31.8945],[116.7438,31.8987],[116.7523,31.9024],[116.753,31.9062],[116.7577,31.9072],[116.7623,31.9121],[116.7595,31.9164],[116.7418,31.9169],[116.7354,31.9149],[116.7339,31.9178],[116.7232,31.9191],[116.7172,31.9214],[116.7106,31.9156],[116.7099,31.9113],[116.7056,31.9102],[116.7025,31.9038],[116.6813,31.9058],[116.6826,31.9167],[116.6788,31.9185],[116.6828,31.923],[116.6798,31.9365],[116.675,31.9427],[116.6801,31.9459],[116.6815,31.9517],[116.6774,31.9575],[116.6808,31.9613],[116.6775,31.9666],[116.6779,31.9758],[116.6713,31.9817],[116.6641,31.9827],[116.6584,31.9817],[116.6509,31.9838],[116.6453,31.9901],[116.6361,31.9953],[116.628,31.9933],[116.6177,31.9975],[116.6067,32.003],[116.5967,32.0092],[116.5924,32.0138],[116.5776,32.0212],[116.5576,32.0236],[116.5568,32.0276],[116.5484,32.0255],[116.5408,32.0257],[116.542,32.0306],[116.5332,32.0307],[116.5273,32.0294],[116.5211,32.0315],[116.5057,32.0237],[116.4993,32.0148],[116.4995,32.0113],[116.5069,31.9988],[116.5065,31.9942],[116.5026,31.9883],[116.5026,31.9805],[116.5084,31.9658],[116.5082,31.9621],[116.5107,31.9446],[116.5103,31.9369],[116.5057,31.9318],[116.4894,31.9299],[116.4832,31.9249],[116.4808,31.9168],[116.483,31.9047],[116.4884,31.8982],[116.4928,31.8968],[116.5088,31.8967],[116.5142,31.8946],[116.5183,31.8879],[116.5212,31.8697],[116.5197,31.8597],[116.51,31.8417],[116.5043,31.8353],[116.5031,31.8278],[116.5077,31.8177],[116.5041,31.8114],[116.5036,31.8049],[116.4932,31.7845],[116.4881,31.7765],[116.4873,31.772],[116.4954,31.7727],[116.4978,31.7708],[116.492,31.7624],[116.4906,31.7504],[116.4913,31.7469],[116.5004,31.7492],[116.5024,31.7471],[116.502,31.7377],[116.5055,31.7343],[116.5174,31.7352],[116.5217,31.7204],[116.525,31.7175],[116.5142,31.7098],[116.5157,31.7043],[116.5229,31.695],[116.5219,31.6901],[116.5269,31.6844],[116.5213,31.6824],[116.5182,31.6775],[116.519,31.6732],[116.5143,31.6697],[116.5169,31.6619],[116.5032,31.6562],[116.4995,31.6599],[116.4973,31.652],[116.4925,31.6444],[116.4932,31.6353],[116.4807,31.6212],[116.4754,31.6115],[116.4834,31.6047],[116.4793,31.5954],[116.4791,31.5888],[116.4841,31.5823],[116.4802,31.5748],[116.4774,31.5661],[116.4727,31.5649],[116.4778,31.5561],[116.4736,31.5563],[116.4699,31.5525],[116.4631,31.5517],[116.4601,31.546],[116.4538,31.5386],[116.4443,31.5319],[116.4498,31.5264],[116.4537,31.5256],[116.4582,31.5165],[116.4556,31.5152],[116.4615,31.5075],[116.462,31.5026],[116.4664,31.5027],[116.4716,31.4991],[116.475,31.4883],[116.4838,31.4869],[116.4791,31.4795],[116.4794,31.4734],[116.4872,31.4725],[116.4935,31.4768],[116.5001,31.476],[116.4914,31.4665],[116.4881,31.466],[116.4861,31.4568],[116.4908,31.4543],[116.4895,31.4508],[116.484,31.4504],[116.4741,31.4536],[116.4659,31.4518],[116.4641,31.4481],[116.4662,31.4395],[116.473,31.4376],[116.4818,31.4281],[116.4936,31.4278],[116.4971,31.4247],[116.5058,31.4241],[116.5067,31.4185],[116.5102,31.4107],[116.5132,31.4074],[116.5115,31.4039],[116.5149,31.3981],[116.5129,31.395],[116.5153,31.3872],[116.5136,31.3833],[116.5171,31.3722],[116.5211,31.3702],[116.5238,31.3624],[116.5211,31.3593],[116.5149,31.3615],[116.5103,31.3584],[116.4988,31.3654],[116.4957,31.3606],[116.4976,31.3546],[116.4932,31.345],[116.4896,31.3418],[116.4907,31.334],[116.4962,31.3282],[116.503,31.328],[116.5151,31.3352],[116.5226,31.3352],[116.5294,31.3367],[116.5362,31.3341],[116.5384,31.3293],[116.5394,31.3207],[116.5356,31.3174],[116.5316,31.3092],[116.5337,31.3039],[116.5294,31.3011],[116.5275,31.2903]]]},"properties":{"region_code":"CN-34-3415-341502","parent_region_code":"CN-34-3415","name":"金安区","level":"county","has_children":false,"full_path":"中国 / 安徽省 / 六安市 / 金安区","source_admin_code":"341502","osm_relation_id":3243388}},
{"type":"Feature","geometry":{"type":"Polygon","coordinates":[[[116.542,32.0306],[116.5446,32.0348],[116.5469,32.0442],[116.5459,32.0517],[116.5397,32.058],[116.5429,32.0771],[116.5288,32.0739],[116.5266,32.07],[116.5215,32.0671],[116.5172,32.073],[116.513,32.072],[116.5056,32.0745],[116.5042,32.0709],[116.507,32.065],[116.5059,32.0593],[116.5145,32.0586],[116.5159,32.0566],[116.5091,32.051],[116.5079,32.0466],[116.5039,32.0432],[116.4985,32.0428],[116.49,32.045],[116.4956,32.0488],[116.4827,32.0525],[116.4779,32.0563],[116.4738,32.0542],[116.4682,32.0555],[116.466,32.0505],[116.4716,32.0377],[116.4654,32.0346],[116.4676,32.0298],[116.4591,32.0249],[116.4521,32.0267],[116.4408,32.0242],[116.4336,32.0243],[116.4297,32.0158],[116.4306,32.0125],[116.427,32.0079],[116.4214,32.0084],[116.4183,32.0151],[116.4117,32.0185],[116.4063,32.0259],[116.4052,32.0317],[116.3949,32.0311],[116.3947,32.0289],[116.3876,32.0263],[116.385,32.0234],[116.3835,32.0164],[116.3731,32.0178],[116.3708,32.0233],[116.3706,32.0304],[116.3656,32.0304],[116.3581,32.0425],[116.3529,32.0453],[116.3426,32.0431],[116.3412,32.0411],[116.3233,32.0406],[116.3232,32.0471],[116.3173,32.0458],[116.314,32.05],[116.3023,32.0521],[116.2961,32.0481],[116.2901,32.0485],[116.2867,32.0443],[116.2892,32.0406],[116.2839,32.0358],[116.2755,32.0384],[116.2711,32.0332],[116.2681,32.0338],[116.2667,32.0279],[116.2635,32.0248],[116.2708,32.0186],[116.267,32.0162],[116.2694,32.0126],[116.2655,32.003],[116.255,31.9999],[116.255,31.9917],[116.2515,31.9908],[116.2502,31.9838],[116.2431,31.9781],[116.2419,31.9732],[116.2238,31.962],[116.2216,31.9569],[116.2169,31.9553],[116.2185,31.9488],[116.2157,31.9461],[116.2143,31.9375],[116.207,31.9421],[116.1976,31.9352],[116.2001,31.9288],[116.1928,31.9268],[116.1927,31.9169],[116.1898,31.9147],[116.2009,31.9078],[116.1978,31.9058],[116.2046,31.8989],[116.1992,31.8963],[116.202,31.8914],[116.2018,31.8869],[116.1974,31.8827],[116.2019,31.8757],[116.1943,31.871],[116.1936,31.8688],[116.197,31.862],[116.1951,31.8513],[116.1997,31.8484],[116.1982,31.8415],[116.2031,31.8421],[116.2037,31.8382],[116.1987,31.8355],[116.1934,31.8375],[116.1878,31.8357],[116.186,31.8272],[116.189,31.821],[116.1835,31.8152],[116.1802,31.8098],[116.1885,31.8062],[116.1939,31.7942],[116.1858,31.7926],[116.1809,31.7866],[116.1852,31.7809],[116.183,31.778],[116.1864,31.7731],[116.1815,31.769],[116.1787,31.77],[116.1763,31.7797],[116.1735,31.7824],[116.1683,31.7801],[116.1668,31.7757],[116.1684,31.7685],[116.1654,31.7643],[116.1519,31.755],[116.1457,31.753],[116.1378,31.7552],[116.1349,31.7508],[116.1266,31.7487],[116.1267,31.7447],[116.1225,31.7389],[116.1251,31.7345],[116.122,31.7328],[116.1208,31.7156],[116.1182,31.7129],[116.1176,31.7075],[116.1125,31.7006],[116.1058,31.6964],[116.101,31.7018],[116.0884,31.698],[116.0838,31.6929],[116.0785,31.6946],[116.0651,31.691],[116.0585,31.6836],[116.0448,31.6848],[116.0416,31.6737],[116.0413,31.6663],[116.0331,31.6609],[116.0307,31.665],[116.0149,31.6665],[116.0124,31.6596],[116.0082,31.6538],[116.0061,31.6463],[116.0091,31.641],[116.0171,31.6343],[116.0255,31.6326],[116.0289,31.634],[116.0359,31.6316],[116.035,31.6234],[116.0425,31.6179],[116.0509,31.6152],[116.0556,31.6174],[116.0616,31.6138],[116.0614,31.6056],[116.0665,31.6026],[116.0736,31.6042],[116.0913,31.6107],[116.096,31.6034],[116.0993,31.6036],[116.1046,31.5978],[116.1016,31.5924],[116.1044,31.5868],[116.1114,31.5819],[116.1154,31.5825],[116.1201,31.5795],[116.1359,31.5825],[116.1375,31.5778],[116.1439,31.5705],[116.1568,31.5657],[116.1696,31.5668],[116.1814,31.5604],[116.1863,31.5594],[116.1916,31.5625],[116.194,31.5582],[116.1938,31.5529],[116.1894,31.5525],[116.1846,31.5474],[116.1818,31.548],[116.1702,31.5382],[116.1687,31.5303],[116.1717,31.5245],[116.1752,31.5254],[116.1775,31.5182],[116.1758,31.5133],[116.1662,31.5098],[116.1648,31.5072],[116.1675,31.5027],[116.1619,31.495],[116.1736,31.4832],[116.1724,31.4773],[116.1746,31.4746],[116.1813,31.4765],[116.1832,31.4728],[116.1804,31.4679],[116.1773,31.4688],[116.1774,31.4605],[116.1846,31.4636],[116.1973,31.4657],[116.2043,31.4694],[116.2066,31.4727],[116.2174,31.4773],[116.2238,31.477],[116.2305,31.4714],[116.2363,31.47],[116.2406,31.4755],[116.2444,31.484],[116.2503,31.4881],[116.2536,31.4933],[116.2508,31.5004],[116.2545,31.5053],[116.267,31.5013],[116.2733,31.4954],[116.2863,31.493],[116.2886,31.4942],[116.3044,31.4883],[116.3087,31.4837],[116.3092,31.4803],[116.3186,31.4686],[116.3241,31.4706],[116.3299,31.467],[116.3228,31.4633],[116.317,31.4571],[116.3121,31.4557],[116.3113,31.4513],[116.3177,31.4492],[116.3227,31.4565],[116.3277,31.4596],[116.3377,31.4629],[116.3418,31.4675],[116.3423,31.4779],[116.3366,31.4876],[116.3385,31.4886],[116.3399,31.4984],[116.3437,31.5042],[116.3482,31.5216],[116.3411,31.5256],[116.3332,31.5255],[116.3316,31.5329],[116.3336,31.5411],[116.338,31.5453],[116.3461,31.5463],[116.3531,31.5443],[116.3566,31.5467],[116.3712,31.5437],[116.3754,31.5366],[116.381,31.5364],[116.3823,31.5315],[116.3906,31.5285],[116.3956,31.5252],[116.4033,31.523],[116.4072,31.5269],[116.4066,31.5334],[116.4108,31.5379],[116.4147,31.5354],[116.4196,31.5272],[116.4249,31.5263],[116.4315,31.5337],[116.4375,31.5362],[116.4443,31.5319],[116.4538,31.5386],[116.4601,31.546],[116.4631,31.5517],[116.4699,31.5525],[116.4736,31.5563],[116.4778,31.5561],[116.4727,31.5649],[116.4774,31.5661],[116.4802,31.5748],[116.4841,31.5823],[116.4791,31.5888],[116.4793,31.5954],[116.4834,31.6047],[116.4754,31.6115],[116.4807,31.6212],[116.4932,31.6353],[116.4925,31.6444],[116.4973,31.652],[116.4995,31.6599],[116.5032,31.6562],[116.5169,31.6619],[116.5143,31.6697],[116.519,31.6732],[116.5182,31.6775],[116.5213,31.6824],[116.5269,31.6844],[116.5219,31.6901],[116.5229,31.695],[116.5157,31.7043],[116.5142,31.7098],[116.525,31.7175],[116.5217,31.7204],[116.5174,31.7352],[116.5055,31.7343],[116.502,31.7377],[116.5024,31.7471],[116.5004,31.7492],[116.4913,31.7469],[116.4906,31.7504],[116.492,31.7624],[116.4978,31.7708],[116.4954,31.7727],[116.4873,31.772],[116.4881,31.7765],[116.4932,31.7845],[116.5036,31.8049],[116.5041,31.8114],[116.5077,31.8177],[116.5031,31.8278],[116.5043,31.8353],[116.51,31.8417],[116.5197,31.8597],[116.5212,31.8697],[116.5183,31.8879],[116.5142,31.8946],[116.5088,31.8967],[116.4928,31.8968],[116.4884,31.8982],[116.483,31.9047],[116.4808,31.9168],[116.4832,31.9249],[116.4894,31.9299],[116.5057,31.9318],[116.5103,31.9369],[116.5107,31.9446],[116.5082,31.9621],[116.5084,31.9658],[116.5026,31.9805],[116.5026,31.9883],[116.5065,31.9942],[116.5069,31.9988],[116.4995,32.0113],[116.4993,32.0148],[116.5057,32.0237],[116.5211,32.0315],[116.5273,32.0294],[116.5332,32.0307],[116.542,32.0306]]]},"properties":{"region_code":"CN-34-3415-341503","parent_region_code":"CN-34-3415","name":"裕安区","level":"county","has_children":false,"full_path":"中国 / 安徽省 / 六安市 / 裕安区","source_admin_code":"341503","osm_relation_id":3243392}},
{"type":"Feature","geometry":{"type":"Polygon","coordinates":[[[116.2169,31.9553],[116.2105,31.9526],[116.2072,31.9536],[116.2045,31.9476],[116.197,31.946],[116.1919,31.941],[116.1865,31.9386],[116.1805,31.9383],[116.1743,31.9417],[116.1539,31.9331],[116.1315,31.9321],[116.1251,31.9369],[116.1208,31.936],[116.1156,31.9383],[116.1109,31.9374],[116.1022,31.9411],[116.0912,31.9405],[116.0923,31.9454],[116.0834,31.9465],[116.0788,31.9483],[116.0722,31.9559],[116.0669,31.959],[116.07,31.9625],[116.0643,31.9645],[116.0597,31.9702],[116.0504,31.9662],[116.0434,31.965],[116.0367,31.9693],[116.0317,31.9762],[116.0278,31.9755],[116.0225,31.9692],[116.0078,31.9729],[116.0049,31.9658],[115.9976,31.9631],[115.9944,31.9643],[115.9926,31.9698],[115.9873,31.9683],[115.9839,31.971],[115.9841,31.9761],[115.9807,31.9842],[115.9743,31.9852],[115.9726,31.9804],[115.9671,31.9797],[115.9689,31.9863],[115.9635,31.9909],[115.9614,31.9953],[115.9565,31.992],[115.9533,31.994],[115.9478,31.9911],[115.9454,31.9859],[115.9366,31.9856],[115.9349,31.9929],[115.9281,31.9971],[115.9206,31.9992],[115.9169,31.992],[115.92,31.9871],[115.9193,31.9836],[115.9137,31.9768],[115.9094,31.9666],[115.9087,31.9593],[115.9045,31.9553],[115.9044,31.9452],[115.9118,31.9412],[115.9138,31.9361],[115.9107,31.9328],[115.9161,31.9248],[115.9173,31.9203],[115.9144,31.9113],[115.9108,31.9047],[115.9028,31.8934],[115.9007,31.8841],[115.8928,31.8803],[115.8957,31.8707],[115.8905,31.8647],[115.8908,31.8523],[115.8885,31.8474],[115.8881,31.8394],[115.8938,31.8323],[115.9008,31.8307],[115.9102,31.8198],[115.9072,31.8007],[115.9106,31.7989],[115.9147,31.7915],[115.9196,31.7909],[115.923,31.7939],[115.9218,31.8059],[115.9247,31.811],[115.9335,31.808],[115.9441,31.8061],[115.9485,31.8019],[115.9568,31.8004],[115.9611,31.7957],[115.9648,31.7961],[115.9671,31.7925],[115.973,31.7893],[115.9817,31.7905],[115.9841,31.7933],[115.9919,31.7936],[115.9945,31.7878],[116.0007,31.7864],[115.9998,31.7819],[116.0037,31.7772],[116.0147,31.7753],[116.0198,31.7764],[116.0324,31.7761],[116.0301,31.7731],[116.034,31.7657],[116.0416,31.7613],[116.0471,31.7697],[116.0528,31.7681],[116.056,31.7702],[116.062,31.7694],[116.0667,31.7748],[116.0677,31.7819],[116.0737,31.7799],[116.0803,31.7823],[116.0831,31.7867],[116.0897,31.7812],[116.0865,31.773],[116.0875,31.7643],[116.0843,31.7605],[116.0947,31.7575],[116.1002,31.7577],[116.1039,31.754],[116.1098,31.7533],[116.1158,31.755],[116.121,31.7501],[116.1266,31.7487],[116.1349,31.7508],[116.1378,31.7552],[116.1457,31.753],[116.1519,31.755],[116.1654,31.7643],[116.1684,31.7685],[116.1668,31.7757],[116.1683,31.7801],[116.1735,31.7824],[116.1763,31.7797],[116.1787,31.77],[116.1815,31.769],[116.1864,31.7731],[116.183,31.778],[116.1852,31.7809],[116.1809,31.7866],[116.1858,31.7926],[116.1939,31.7942],[116.1885,31.8062],[116.1802,31.8098],[116.1835,31.8152],[116.189,31.821],[116.186,31.8272],[116.1878,31.8357],[116.1934,31.8375],[116.1987,31.8355],[116.2037,31.8382],[116.2031,31.8421],[116.1982,31.8415],[116.1997,31.8484],[116.1951,31.8513],[116.197,31.862],[116.1936,31.8688],[116.1943,31.871],[116.2019,31.8757],[116.1974,31.8827],[116.2018,31.8869],[116.202,31.8914],[116.1992,31.8963],[116.2046,31.8989],[116.1978,31.9058],[116.2009,31.9078],[116.1898,31.9147],[116.1927,31.9169],[116.1928,31.9268],[116.2001,31.9288],[116.1976,31.9352],[116.207,31.9421],[116.2143,31.9375],[116.2157,31.9461],[116.2185,31.9488],[116.2169,31.9553]]]},"properties":{"region_code":"CN-34-3415-341504","parent_region_code":"CN-34-3415","name":"叶集区","level":"county","has_children":false,"full_path":"中国 / 安徽省 / 六安市 / 叶集区","source_admin_code":"341504","osm_relation_id":5921582}},
{"type":"Feature","geometry":{"type":"Polygon","coordinates":[[[116.5429,32.0771],[116.5415,32.0857],[116.5326,32.0974],[116.5275,32.1003],[116.5269,32.1061],[116.5228,32.1105],[116.5203,32.1171],[116.527,32.1225],[116.5255,32.1262],[116.5267,32.1338],[116.5257,32.1417],[116.5263,32.148],[116.5203,32.1565],[116.5131,32.1633],[116.5061,32.1749],[116.5061,32.1874],[116.5091,32.1938],[116.5166,32.2017],[116.5118,32.2078],[116.5007,32.2119],[116.4993,32.2177],[116.5069,32.2228],[116.5176,32.2273],[116.5249,32.2369],[116.527,32.2431],[116.5226,32.2569],[116.519,32.2646],[116.5233,32.2671],[116.5252,32.273],[116.5211,32.2876],[116.5187,32.2997],[116.5171,32.3173],[116.5085,32.3274],[116.5023,32.3451],[116.4836,32.3576],[116.4803,32.3626],[116.4772,32.3731],[116.4779,32.3838],[116.4805,32.3878],[116.4943,32.3993],[116.494,32.4052],[116.4879,32.408],[116.4803,32.4079],[116.4724,32.4117],[116.4787,32.418],[116.4816,32.4241],[116.4819,32.4314],[116.4736,32.4373],[116.4736,32.4401],[116.4627,32.4439],[116.4395,32.451],[116.4313,32.4523],[116.4253,32.4512],[116.4072,32.4447],[116.3991,32.4451],[116.3931,32.4473],[116.3825,32.4533],[116.3498,32.4786],[116.3427,32.4873],[116.3337,32.5085],[116.3252,32.5202],[116.3167,32.5242],[116.3075,32.5255],[116.2971,32.5254],[116.2664,32.522],[116.2637,32.5202],[116.2641,32.5059],[116.2629,32.4991],[116.2592,32.4954],[116.2487,32.4888],[116.242,32.4857],[116.2413,32.4798],[116.2485,32.4639],[116.2456,32.4577],[116.2404,32.4597],[116.2385,32.4659],[116.2329,32.4682],[116.2264,32.4641],[116.2201,32.4628],[116.2118,32.4656],[116.2072,32.4633],[116.2082,32.4532],[116.2025,32.4503],[116.1904,32.4558],[116.1868,32.4559],[116.1835,32.4517],[116.1779,32.432],[116.1755,32.4292],[116.1693,32.4287],[116.1671,32.4326],[116.1672,32.4383],[116.1631,32.4424],[116.1582,32.4428],[116.1517,32.4407],[116.1469,32.4413],[116.144,32.4451],[116.1424,32.4563],[116.1401,32.4612],[116.1352,32.4649],[116.1209,32.4708],[116.1177,32.4738],[116.1017,32.5082],[116.0988,32.5215],[116.0945,32.5335],[116.0907,32.5389],[116.0851,32.5424],[116.0371,32.5543],[116.033,32.5575],[116.0294,32.5637],[116.0259,32.579],[116.0211,32.5904],[116.0163,32.5951],[116.004,32.6019],[115.9924,32.6069],[115.9858,32.6081],[115.9712,32.6083],[115.9635,32.6069],[115.9572,32.6029],[115.9474,32.5882],[115.9337,32.5772],[115.9271,32.5711],[115.9182,32.5681],[115.9093,32.5706],[115.9048,32.5693],[115.8969,32.561],[115.8902,32.5562],[115.8707,32.5446],[115.8692,32.5311],[115.8665,32.5275],[115.8509,32.5201],[115.8416,32.5113],[115.8395,32.505],[115.8586,32.508],[115.8683,32.5059],[115.8696,32.5005],[115.877,32.494],[115.8777,32.4895],[115.8763,32.477],[115.868,32.4726],[115.8593,32.4649],[115.8584,32.4621],[115.8627,32.4587],[115.871,32.4607],[115.8763,32.4577],[115.8796,32.4535],[115.8743,32.4346],[115.8792,32.4325],[115.8844,32.4259],[115.883,32.4212],[115.8873,32.4075],[115.8939,32.3941],[115.8929,32.3762],[115.8942,32.3623],[115.8923,32.3487],[115.8951,32.3427],[115.8995,32.3411],[115.9038,32.3276],[115.8989,32.3224],[115.904,32.3188],[115.9013,32.3114],[115.8974,32.3082],[115.8969,32.304],[115.9067,32.2985],[115.9044,32.2935],[115.9063,32.2911],[115.9051,32.2817],[115.9073,32.2786],[115.9123,32.2786],[115.9169,32.2731],[115.9182,32.2689],[115.9139,32.2661],[115.9147,32.2612],[115.9098,32.2614],[115.9104,32.2567],[115.9075,32.2513],[115.9092,32.241],[115.9075,32.2333],[115.9153,32.208],[115.9177,32.1924],[115.9247,32.1885],[115.9283,32.1826],[115.9278,32.1777],[115.9332,32.1726],[115.9339,32.1638],[115.9307,32.157],[115.9341,32.1483],[115.9334,32.1421],[115.9303,32.1294],[115.9268,32.1241],[115.9267,32.1163],[115.922,32.111],[115.9214,32.1072],[115.9257,32.0976],[115.9266,32.0898],[115.93,32.0845],[115.9377,32.081],[115.9374,32.0735],[115.9335,32.0703],[115.9322,32.0625],[115.9175,32.0545],[115.9197,32.0514],[115.919,32.0448],[115.9226,32.0389],[115.9141,32.0304],[115.9179,32.0259],[115.9225,32.0261],[115.9222,32.0178],[115.9246,32.016],[115.9222,32.0098],[115.9294,32.002],[115.9281,31.9971],[115.9349,31.9929],[115.9366,31.9856],[115.9454,31.9859],[115.9478,31.9911],[115.9533,31.994],[115.9565,31.992],[115.9614,31.9953],[115.9635,31.9909],[115.9689,31.9863],[115.9671,31.9797],[115.9726,31.9804],[115.9743,31.9852],[115.9807,31.9842],[115.9841,31.9761],[115.9839,31.971],[115.9873,31.9683],[115.9926,31.9698],[115.9944,31.9643],[115.9976,31.9631],[116.0049,31.9658],[116.0078,31.9729],[116.0225,31.9692],[116.0278,31.9755],[116.0317,31.9762],[116.0367,31.9693],[116.0434,31.965],[116.0504,31.9662],[116.0597,31.9702],[116.0643,31.9645],[116.07,31.9625],[116.0669,31.959],[116.0722,31.9559],[116.0788,31.9483],[116.0834,31.9465],[116.0923,31.9454],[116.0912,31.9405],[116.1022,31.9411],[116.1109,31.9374],[116.1156,31.9383],[116.1208,31.936],[116.1251,31.9369],[116.1315,31.9321],[116.1539,31.9331],[116.1743,31.9417],[116.1805,31.9383],[116.1865,31.9386],[116.1919,31.941],[116.197,31.946],[116.2045,31.9476],[116.2072,31.9536],[116.2105,31.9526],[116.2169,31.9553],[116.2216,31.9569],[116.2238,31.962],[116.2419,31.9732],[116.2431,31.9781],[116.2502,31.9838],[116.2515,31.9908],[116.255,31.9917],[116.255,31.9999],[116.2655,32.003],[116.2694,32.0126],[116.267,32.0162],[116.2708,32.0186],[116.2635,32.0248],[116.2667,32.0279],[116.2681,32.0338],[116.2711,32.0332],[116.2755,32.0384],[116.2839,32.0358],[116.2892,32.0406],[116.2867,32.0443],[116.2901,32.0485],[116.2961,32.0481],[116.3023,32.0521],[116.314,32.05],[116.3173,32.0458],[116.3232,32.0471],[116.3233,32.0406],[116.3412,32.0411],[116.3426,32.0431],[116.3529,32.0453],[116.3581,32.0425],[116.3656,32.0304],[116.3706,32.0304],[116.3708,32.0233],[116.3731,32.0178],[116.3835,32.0164],[116.385,32.0234],[116.3876,32.0263],[116.3947,32.0289],[116.3949,32.0311],[116.4052,32.0317],[116.4063,32.0259],[116.4117,32.0185],[116.4183,32.0151],[116.4214,32.0084],[116.427,32.0079],[116.4306,32.0125],[116.4297,32.0158],[116.4336,32.0243],[116.4408,32.0242],[116.4521,32.0267],[116.4591,32.0249],[116.4676,32.0298],[116.4654,32.0346],[116.4716,32.0377],[116.466,32.0505],[116.4682,32.0555],[116.4738,32.0542],[116.4779,32.0563],[116.4827,32.0525],[116.4956,32.0488],[116.49,32.045],[116.4985,32.0428],[116.5039,32.0432],[116.5079,32.0466],[116.5091,32.051],[116.5159,32.0566],[116.5145,32.0586],[116.5059,32.0593],[116.507,32.065],[116.5042,32.0709],[116.5056,32.0745],[116.513,32.072],[116.5172,32.073],[116.5215,32.0671],[116.5266,32.07],[116.5288,32.0739],[116.5429,32.0771]]]},"properties":{"region_code":"CN-34-3415-341522","parent_region_code":"CN-34-3415","name":"霍邱县","level":"county","has_children":false,"full_path":"中国 / 安徽省 / 六安市 / 霍邱县","source_admin_code":"341522","osm_relation_id":3243386}},
{"type":"Feature","geometry":{"type":"Polygon","coordinates":[[[116.5275,31.2903],[116.5196,31.2864],[116.5174,31.2834],[116.5205,31.2792],[116.5275,31.2624],[116.5258,31.2587],[116.5212,31.2569],[116.5191,31.2497],[116.5131,31.2456],[116.5038,31.2518],[116.5006,31.2478],[116.4941,31.2433],[116.4849,31.2328],[116.4834,31.2242],[116.4799,31.221],[116.4685,31.2164],[116.4721,31.2077],[116.4787,31.1988],[116.4865,31.1904],[116.473,31.1773],[116.4697,31.1769],[116.4679,31.1711],[116.4695,31.1652],[116.4642,31.1605],[116.4597,31.153],[116.4592,31.1438],[116.4481,31.1511],[116.4437,31.1517],[116.4375,31.1614],[116.4344,31.1557],[116.4361,31.1504],[116.433,31.1463],[116.4283,31.1392],[116.429,31.1317],[116.4346,31.1284],[116.4424,31.1296],[116.4486,31.1268],[116.4531,31.1282],[116.4542,31.1325],[116.4615,31.1374],[116.4696,31.1401],[116.4715,31.1376],[116.4823,31.1426],[116.4888,31.1487],[116.4918,31.1488],[116.4968,31.1435],[116.5019,31.1437],[116.5087,31.1568],[116.5155,31.163],[116.5201,31.1653],[116.5254,31.1733],[116.5325,31.1766],[116.5328,31.1818],[116.5381,31.1849],[116.5473,31.183],[116.5509,31.1791],[116.5515,31.1737],[116.5472,31.1676],[116.5489,31.1631],[116.5471,31.1588],[116.5539,31.1495],[116.5511,31.145],[116.5508,31.1373],[116.5539,31.1288],[116.5517,31.1225],[116.5551,31.1205],[116.5574,31.1144],[116.5558,31.1067],[116.551,31.1052],[116.5489,31.0998],[116.5419,31.0939],[116.5422,31.0886],[116.5358,31.0805],[116.5315,31.0711],[116.5329,31.0673],[116.531,31.0624],[116.5276,31.0593],[116.5297,31.0502],[116.5271,31.0464],[116.5256,31.0289],[116.5283,31.0213],[116.541,31.0237],[116.5446,31.028],[116.5541,31.0345],[116.5534,31.0406],[116.5581,31.0446],[116.5599,31.0502],[116.5666,31.0534],[116.5764,31.0549],[116.584,31.0511],[116.5881,31.0537],[116.5893,31.0588],[116.5938,31.0618],[116.5994,31.0627],[116.5999,31.0668],[116.607,31.0689],[116.6066,31.0732],[116.6091,31.0776],[116.6164,31.0782],[116.6206,31.0726],[116.6249,31.0726],[116.6292,31.0683],[116.6352,31.0667],[116.6427,31.0604],[116.6443,31.0535],[116.6567,31.0573],[116.6604,31.0626],[116.6662,31.0677],[116.6815,31.0554],[116.6831,31.0501],[116.691,31.0488],[116.6944,31.046],[116.7032,31.0459],[116.7084,31.0506],[116.7114,31.0568],[116.715,31.0581],[116.7156,31.0627],[116.7212,31.0639],[116.7261,31.0624],[116.7329,31.0655],[116.7376,31.0624],[116.7436,31.0627],[116.7515,31.068],[116.7538,31.0717],[116.76,31.0707],[116.7647,31.0731],[116.7732,31.0723],[116.7786,31.0698],[116.78,31.0668],[116.7876,31.0695],[116.795,31.0791],[116.7987,31.0793],[116.8003,31.0859],[116.8122,31.0898],[116.8193,31.102],[116.8271,31.1046],[116.8317,31.1043],[116.8381,31.1086],[116.8368,31.1184],[116.8306,31.1204],[116.8306,31.1263],[116.8379,31.1317],[116.842,31.1282],[116.8461,31.1279],[116.8603,31.1325],[116.8711,31.13],[116.8767,31.1304],[116.8811,31.1347],[116.8869,31.1356],[116.8984,31.1406],[116.901,31.1446],[116.9075,31.1483],[116.9149,31.1543],[116.9169,31.1616],[116.9253,31.1638],[116.9384,31.1622],[116.9414,31.172],[116.9387,31.1767],[116.941,31.1834],[116.9461,31.1854],[116.9521,31.1961],[116.9525,31.2018],[116.9598,31.2099],[116.9561,31.2139],[116.961,31.2175],[116.9582,31.2213],[116.9612,31.2267],[116.9578,31.2322],[116.962,31.2353],[116.9687,31.2352],[116.9695,31.2411],[116.9726,31.2479],[116.9865,31.2531],[116.9892,31.2581],[116.9943,31.2581],[116.9988,31.2674],[117.0131,31.2713],[117.0142,31.2673],[117.0199,31.2641],[117.0214,31.2601],[117.0285,31.2601],[117.0349,31.2665],[117.0412,31.2701],[117.0419,31.2776],[117.0391,31.2845],[117.0417,31.2913],[117.0588,31.2899],[117.0623,31.2908],[117.0652,31.2961],[117.0679,31.3052],[117.0682,31.3111],[117.0639,31.3164],[117.0662,31.3316],[117.0698,31.3403],[117.0731,31.3444],[117.0713,31.3525],[117.0721,31.3584],[117.0673,31.3699],[117.0805,31.3867],[117.0837,31.3933],[117.0842,31.4028],[117.0883,31.4079],[117.0877,31.4126],[117.0919,31.4169],[117.0988,31.4314],[117.1028,31.4318],[117.1103,31.4444],[117.1147,31.4483],[117.119,31.46],[117.1237,31.4606],[117.1269,31.4664],[117.13,31.4664],[117.1338,31.4722],[117.1426,31.4793],[117.1411,31.4849],[117.1771,31.493],[117.1836,31.494],[117.1956,31.4935],[117.2037,31.4905],[117.2294,31.4919],[117.2384,31.4945],[117.2499,31.5037],[117.2435,31.5087],[117.2316,31.5065],[117.2305,31.5095],[117.2365,31.5122],[117.2314,31.5206],[117.2364,31.5246],[117.2303,31.5287],[117.2239,31.5456],[117.2196,31.5468],[117.2143,31.5424],[117.2086,31.5442],[117.1944,31.5533],[117.189,31.5547],[117.1485,31.5473],[117.1475,31.5521],[117.1432,31.5555],[117.1343,31.5571],[117.1293,31.5545],[117.1276,31.5461],[117.1253,31.5447],[117.1189,31.5467],[117.1082,31.5436],[117.0973,31.5467],[117.0872,31.5478],[117.0772,31.5547],[117.0625,31.554],[117.0575,31.5516],[117.048,31.5425],[117.0461,31.5376],[117.0374,31.5397],[117.0361,31.5438],[117.0245,31.5465],[117.0147,31.5511],[117.0103,31.548],[116.9993,31.551],[116.9973,31.558],[116.9988,31.5625],[116.9904,31.5636],[116.9829,31.5597],[116.9894,31.5507],[116.9855,31.5399],[116.98,31.5409],[116.9765,31.5383],[116.9713,31.5425],[116.9654,31.5362],[116.9531,31.5393],[116.9451,31.5378],[116.9429,31.541],[116.9373,31.5396],[116.9314,31.5418],[116.9265,31.5388],[116.9052,31.5347],[116.8968,31.5358],[116.8961,31.5398],[116.8893,31.5372],[116.8762,31.5394],[116.8723,31.5367],[116.8661,31.5352],[116.8632,31.5311],[116.8564,31.5338],[116.854,31.5305],[116.8464,31.5271],[116.8352,31.5287],[116.8276,31.5221],[116.8285,31.5183],[116.8336,31.5144],[116.8179,31.4948],[116.8189,31.4863],[116.8136,31.4842],[116.8098,31.476],[116.8033,31.4719],[116.8035,31.4682],[116.7982,31.4656],[116.8009,31.4616],[116.794,31.461],[116.7926,31.4567],[116.785,31.4562],[116.7833,31.4533],[116.7768,31.454],[116.7613,31.4477],[116.7564,31.449],[116.7464,31.4425],[116.7458,31.4401],[116.7342,31.4378],[116.7314,31.4347],[116.723,31.4352],[116.7174,31.4324],[116.7148,31.436],[116.7063,31.4347],[116.7013,31.4278],[116.6953,31.4305],[116.691,31.4303],[116.6872,31.4231],[116.6742,31.4227],[116.6627,31.418],[116.6664,31.412],[116.6649,31.4067],[116.6601,31.4031],[116.6512,31.3991],[116.6469,31.3942],[116.648,31.3898],[116.6446,31.3837],[116.6411,31.3826],[116.638,31.378],[116.6399,31.3751],[116.637,31.3633],[116.6322,31.3604],[116.6278,31.3638],[116.6211,31.3615],[116.6153,31.3625],[116.6092,31.358],[116.6,31.3604],[116.5951,31.359],[116.592,31.364],[116.585,31.3681],[116.5824,31.3647],[116.5823,31.3581],[116.5799,31.352],[116.5757,31.3522],[116.5676,31.3449],[116.5678,31.3413],[116.5805,31.3386],[116.587,31.331],[116.5855,31.3259],[116.5869,31.3219],[116.5818,31.3163],[116.5723,31.31],[116.5739,31.3039],[116.5707,31.291],[116.5629,31.2832],[116.5535,31.2834],[116.5465,31.2786],[116.5405,31.2824],[116.5339,31.283],[116.5325,31.2869],[116.5275,31.2903]]]},"properties":{"region_code":"CN-34-3415-341523","parent_region_code":"CN-34-3415","name":"舒城县","level":"county","has_children":false,"full_path":"中国 / 安徽省 / 六安市 / 舒城县","source_admin_code":"341523","osm_relation_id":3243391}},
{"type":"Feature","geometry":{"type":"Polygon","coordinates":[[[116.1266,31.7487],[116.121,31.7501],[116.1158,31.755],[116.1098,31.7533],[116.1039,31.754],[116.1002,31.7577],[116.0947,31.7575],[116.0843,31.7605],[116.0875,31.7643],[116.0865,31.773],[116.0897,31.7812],[116.0831,31.7867],[116.0803,31.7823],[116.0737,31.7799],[116.0677,31.7819],[116.0667,31.7748],[116.062,31.7694],[116.056,31.7702],[116.0528,31.7681],[116.0471,31.7697],[116.0416,31.7613],[116.034,31.7657],[116.0301,31.7731],[116.0324,31.7761],[116.0198,31.7764],[116.0147,31.7753],[116.0037,31.7772],[115.9998,31.7819],[116.0007,31.7864],[115.9945,31.7878],[115.9919,31.7936],[115.9841,31.7933],[115.9817,31.7905],[115.973,31.7893],[115.9671,31.7925],[115.9648,31.7961],[115.9611,31.7957],[115.9568,31.8004],[115.9485,31.8019],[115.9441,31.8061],[115.9335,31.808],[115.9247,31.811],[115.9218,31.8059],[115.923,31.7939],[115.9196,31.7909],[115.9147,31.7915],[115.9106,31.7989],[115.9072,31.8007],[115.9049,31.7948],[115.8962,31.7943],[115.8879,31.7885],[115.8839,31.7835],[115.8844,31.7798],[115.8804,31.7774],[115.851,31.7772],[115.8471,31.7863],[115.8431,31.7876],[115.8394,31.7842],[115.8381,31.7798],[115.8344,31.7763],[115.8306,31.7763],[115.8265,31.78],[115.8213,31.7735],[115.8178,31.7721],[115.8111,31.7643],[115.803,31.7686],[115.7987,31.7737],[115.7891,31.7756],[115.7854,31.7817],[115.7799,31.7826],[115.766,31.7878],[115.7631,31.7899],[115.7589,31.7851],[115.7501,31.7849],[115.7431,31.7833],[115.7352,31.7849],[115.7353,31.7778],[115.7296,31.7785],[115.7275,31.7755],[115.7291,31.7716],[115.734,31.7673],[115.7292,31.7631],[115.7201,31.7672],[115.716,31.7651],[115.7055,31.7738],[115.6972,31.7691],[115.6879,31.7727],[115.6862,31.7779],[115.6766,31.7818],[115.6717,31.7805],[115.6688,31.7751],[115.6579,31.7631],[115.6391,31.7598],[115.6338,31.7596],[115.627,31.7498],[115.6217,31.7467],[115.6176,31.7418],[115.6113,31.7403],[115.6086,31.7368],[115.6046,31.7371],[115.5952,31.7334],[115.5899,31.7269],[115.5808,31.7236],[115.5809,31.717],[115.5763,31.7134],[115.5691,31.7108],[115.5628,31.7116],[115.5506,31.7028],[115.5486,31.6974],[115.53,31.7007],[115.5247,31.7003],[115.5137,31.6927],[115.5094,31.6846],[115.4985,31.6797],[115.4943,31.6754],[115.4889,31.6749],[115.4877,31.6663],[115.4805,31.6615],[115.4818,31.6561],[115.4788,31.6493],[115.4721,31.6471],[115.4757,31.639],[115.4864,31.6231],[115.482,31.6121],[115.465,31.6056],[115.4545,31.6001],[115.4499,31.5958],[115.4429,31.5954],[115.4324,31.5884],[115.4339,31.5796],[115.4283,31.5755],[115.4235,31.5668],[115.4268,31.5624],[115.4241,31.5479],[115.421,31.5452],[115.418,31.5358],[115.4129,31.5275],[115.4047,31.5206],[115.4015,31.5204],[115.3913,31.5156],[115.3863,31.5078],[115.3755,31.5051],[115.3686,31.5008],[115.3664,31.4929],[115.37,31.4872],[115.3692,31.4802],[115.3731,31.4766],[115.3717,31.4719],[115.3758,31.4683],[115.3766,31.4625],[115.3835,31.4514],[115.3807,31.446],[115.382,31.4419],[115.3811,31.4359],[115.3784,31.4317],[115.3798,31.4223],[115.3783,31.4169],[115.3705,31.4133],[115.3692,31.4066],[115.3763,31.3998],[115.3869,31.3934],[115.3864,31.3873],[115.3801,31.384],[115.3772,31.3758],[115.37,31.3736],[115.3761,31.366],[115.3765,31.3622],[115.3743,31.3565],[115.3663,31.3518],[115.3803,31.3449],[115.3843,31.3417],[115.3906,31.3456],[115.4021,31.3391],[115.4118,31.3426],[115.4143,31.3516],[115.4236,31.3483],[115.4282,31.3506],[115.4374,31.3469],[115.4401,31.3419],[115.4407,31.3276],[115.4419,31.3218],[115.4459,31.3146],[115.45,31.3131],[115.458,31.3203],[115.4591,31.3102],[115.4553,31.3071],[115.4555,31.2949],[115.4525,31.2918],[115.4514,31.2863],[115.453,31.2818],[115.4616,31.2778],[115.4646,31.2698],[115.4694,31.2651],[115.4768,31.2669],[115.4802,31.2705],[115.4938,31.2671],[115.496,31.2627],[115.5064,31.2712],[115.5153,31.2658],[115.5218,31.2557],[115.5289,31.2429],[115.5354,31.2363],[115.5377,31.2288],[115.5333,31.2225],[115.5357,31.2212],[115.535,31.2127],[115.5289,31.2057],[115.5305,31.1992],[115.5373,31.1941],[115.5422,31.1963],[115.5435,31.189],[115.5417,31.1851],[115.5499,31.1768],[115.5535,31.1755],[115.549,31.1665],[115.5527,31.1636],[115.564,31.1602],[115.5731,31.1521],[115.5788,31.145],[115.5886,31.1477],[115.5927,31.1544],[115.5921,31.1596],[115.5987,31.1608],[115.6002,31.1694],[115.604,31.1741],[115.614,31.1832],[115.627,31.1847],[115.6305,31.1871],[115.6346,31.1981],[115.6384,31.2042],[115.6389,31.2185],[115.6406,31.2218],[115.6455,31.2221],[115.6491,31.2196],[115.6569,31.2191],[115.6591,31.2103],[115.6708,31.2116],[115.6774,31.2072],[115.6808,31.2075],[115.6855,31.2038],[115.6958,31.2052],[115.6979,31.2029],[115.7042,31.2026],[115.7083,31.2006],[115.7069,31.1863],[115.709,31.1833],[115.7138,31.1834],[115.727,31.1784],[115.7302,31.1686],[115.7293,31.1577],[115.7416,31.1558],[115.7446,31.1523],[115.7469,31.1458],[115.75,31.1451],[115.7526,31.1397],[115.7589,31.1354],[115.7586,31.1334],[115.7639,31.119],[115.763,31.1133],[115.7688,31.1065],[115.7718,31.1055],[115.7771,31.1089],[115.7769,31.1116],[115.7827,31.1155],[115.7831,31.1229],[115.7876,31.1268],[115.7941,31.129],[115.799,31.1281],[115.8076,31.1287],[115.8143,31.1265],[115.8232,31.1267],[115.8412,31.1314],[115.8411,31.1366],[115.8492,31.1423],[115.849,31.1453],[115.8679,31.1507],[115.8745,31.1503],[115.8802,31.1442],[115.8833,31.1339],[115.8889,31.1285],[115.8941,31.1348],[115.915,31.1443],[115.9284,31.1412],[115.935,31.1427],[115.9388,31.1456],[115.9432,31.1453],[115.9518,31.1481],[115.9587,31.1546],[115.9603,31.1599],[115.9532,31.16],[115.949,31.163],[115.9416,31.1647],[115.9396,31.1717],[115.9448,31.175],[115.9409,31.1797],[115.9397,31.1864],[115.9416,31.1891],[115.949,31.1907],[115.9505,31.194],[115.9491,31.1997],[115.9538,31.2095],[115.9571,31.2105],[115.9601,31.2187],[115.9629,31.221],[115.9726,31.2189],[115.9799,31.2222],[115.9815,31.2272],[115.9906,31.2276],[115.9907,31.2319],[116.0001,31.2335],[116.0046,31.2304],[116.0085,31.2314],[116.01,31.236],[116.0151,31.2326],[116.0178,31.2351],[116.0129,31.2392],[116.0174,31.248],[116.0036,31.2528],[115.9984,31.2503],[115.9953,31.2536],[116.0057,31.2588],[116.0094,31.2596],[116.0191,31.2657],[116.0247,31.2725],[116.0252,31.28],[116.0236,31.2816],[116.0273,31.2886],[116.0355,31.2898],[116.0446,31.2925],[116.0559,31.2999],[116.0629,31.3074],[116.0599,31.3101],[116.0679,31.3131],[116.077,31.3202],[116.0785,31.3238],[116.0833,31.3245],[116.0849,31.33],[116.0815,31.3367],[116.0773,31.3397],[116.0693,31.3397],[116.0655,31.3375],[116.0611,31.3406],[116.065,31.3484],[116.0659,31.3576],[116.0633,31.3613],[116.0646,31.3669],[116.0702,31.3705],[116.0736,31.378],[116.0652,31.389],[116.0639,31.393],[116.0592,31.397],[116.0519,31.4097],[116.0581,31.4165],[116.0578,31.4206],[116.0528,31.4246],[116.0466,31.4357],[116.0419,31.4402],[116.0398,31.4464],[116.0415,31.4511],[116.047,31.4531],[116.0585,31.4637],[116.0641,31.4652],[116.0747,31.4736],[116.0826,31.4766],[116.0876,31.4833],[116.0994,31.4858],[116.1005,31.4827],[116.1073,31.4772],[116.1148,31.4792],[116.1173,31.4821],[116.1253,31.4846],[116.1246,31.4898],[116.1297,31.4904],[116.1322,31.4943],[116.1472,31.4997],[116.1619,31.495],[116.1675,31.5027],[116.1648,31.5072],[116.1662,31.5098],[116.1758,31.5133],[116.1775,31.5182],[116.1752,31.5254],[116.1717,31.5245],[116.1687,31.5303],[116.1702,31.5382],[116.1818,31.548],[116.1846,31.5474],[116.1894,31.5525],[116.1938,31.5529],[116.194,31.5582],[116.1916,31.5625],[116.1863,31.5594],[116.1814,31.5604],[116.1696,31.5668],[116.1568,31.5657],[116.1439,31.5705],[116.1375,31.5778],[116.1359,31.5825],[116.1201,31.5795],[116.1154,31.5825],[116.1114,31.5819],[116.1044,31.5868],[116.1016,31.5924],[116.1046,31.5978],[116.0993,31.6036],[116.096,31.6034],[116.0913,31.6107],[116.0736,31.6042],[116.0665,31.6026],[116.0614,31.6056],[116.0616,31.6138],[116.0556,31.6174],[116.0509,31.6152],[116.0425,31.6179],[116.035,31.6234],[116.0359,31.6316],[116.0289,31.634],[116.0255,31.6326],[116.0171,31.6343],[116.0091,31.641],[116.0061,31.6463],[116.0082,31.6538],[116.0124,31.6596],[116.0149,31.6665],[116.0307,31.665],[116.0331,31.6609],[116.0413,31.6663],[116.0416,31.6737],[116.0448,31.6848],[116.0585,31.6836],[116.0651,31.691],[116.0785,31.6946],[116.0838,31.6929],[116.0884,31.698],[116.101,31.7018],[116.1058,31.6964],[116.1125,31.7006],[116.1176,31.7075],[116.1182,31.7129],[116.1208,31.7156],[116.122,31.7328],[116.1251,31.7345],[116.1225,31.7389],[116.1267,31.7447],[116.1266,31.7487]]]},"properties":{"region_code":"CN-34-3415-341524","parent_region_code":"CN-34-3415","name":"金寨县","level":"county","has_children":false,"full_path":"中国 / 安徽省 / 六安市 / 金寨县","source_admin_code":"341524","osm_relation_id":3243389}},
{"type":"Feature","geometry":{"type":"Polygon","coordinates":[[[116.4443,31.5319],[116.4375,31.5362],[116.4315,31.5337],[116.4249,31.5263],[116.4196,31.5272],[116.4147,31.5354],[116.4108,31.5379],[116.4066,31.5334],[116.4072,31.5269],[116.4033,31.523],[116.3956,31.5252],[116.3906,31.5285],[116.3823,31.5315],[116.381,31.5364],[116.3754,31.5366],[116.3712,31.5437],[116.3566,31.5467],[116.3531,31.5443],[116.3461,31.5463],[116.338,31.5453],[116.3336,31.5411],[116.3316,31.5329],[116.3332,31.5255],[116.3411,31.5256],[116.3482,31.5216],[116.3437,31.5042],[116.3399,31.4984],[116.3385,31.4886],[116.3366,31.4876],[116.3423,31.4779],[116.3418,31.4675],[116.3377,31.4629],[116.3277,31.4596],[116.3227,31.4565],[116.3177,31.4492],[116.3113,31.4513],[116.3121,31.4557],[116.317,31.4571],[116.3228,31.4633],[116.3299,31.467],[116.3241,31.4706],[116.3186,31.4686],[116.3092,31.4803],[116.3087,31.4837],[116.3044,31.4883],[116.2886,31.4942],[116.2863,31.493],[116.2733,31.4954],[116.267,31.5013],[116.2545,31.5053],[116.2508,31.5004],[116.2536,31.4933],[116.2503,31.4881],[116.2444,31.484],[116.2406,31.4755],[116.2363,31.47],[116.2305,31.4714],[116.2238,31.477],[116.2174,31.4773],[116.2066,31.4727],[116.2043,31.4694],[116.1973,31.4657],[116.1846,31.4636],[116.1774,31.4605],[116.1773,31.4688],[116.1804,31.4679],[116.1832,31.4728],[116.1813,31.4765],[116.1746,31.4746],[116.1724,31.4773],[116.1736,31.4832],[116.1619,31.495],[116.1472,31.4997],[116.1322,31.4943],[116.1297,31.4904],[116.1246,31.4898],[116.1253,31.4846],[116.1173,31.4821],[116.1148,31.4792],[116.1073,31.4772],[116.1005,31.4827],[116.0994,31.4858],[116.0876,31.4833],[116.0826,31.4766],[116.0747,31.4736],[116.0641,31.4652],[116.0585,31.4637],[116.047,31.4531],[116.0415,31.4511],[116.0398,31.4464],[116.0419,31.4402],[116.0466,31.4357],[116.0528,31.4246],[116.0578,31.4206],[116.0581,31.4165],[116.0519,31.4097],[116.0592,31.397],[116.0639,31.393],[116.0652,31.389],[116.0736,31.378],[116.0702,31.3705],[116.0646,31.3669],[116.0633,31.3613],[116.0659,31.3576],[116.065,31.3484],[116.0611,31.3406],[116.0655,31.3375],[116.0693,31.3397],[116.0773,31.3397],[116.0815,31.3367],[116.0849,31.33],[116.0833,31.3245],[116.0785,31.3238],[116.077,31.3202],[116.0679,31.3131],[116.0599,31.3101],[116.0629,31.3074],[116.0559,31.2999],[116.0446,31.2925],[116.0355,31.2898],[116.0273,31.2886],[116.0236,31.2816],[116.0252,31.28],[116.0247,31.2725],[116.0191,31.2657],[116.0094,31.2596],[116.0057,31.2588],[115.9953,31.2536],[115.9984,31.2503],[116.0036,31.2528],[116.0174,31.248],[116.0129,31.2392],[116.0178,31.2351],[116.0151,31.2326],[116.01,31.236],[116.0085,31.2314],[116.0046,31.2304],[116.0001,31.2335],[115.9907,31.2319],[115.9906,31.2276],[115.9815,31.2272],[115.9799,31.2222],[115.9726,31.2189],[115.9629,31.221],[115.9601,31.2187],[115.9571,31.2105],[115.9538,31.2095],[115.9491,31.1997],[115.9505,31.194],[115.949,31.1907],[115.9416,31.1891],[115.9397,31.1864],[115.9409,31.1797],[115.9448,31.175],[115.9396,31.1717],[115.9416,31.1647],[115.949,31.163],[115.9532,31.16],[115.9603,31.1599],[115.9587,31.1546],[115.9518,31.1481],[115.9432,31.1453],[115.9388,31.1456],[115.935,31.1427],[115.9284,31.1412],[115.915,31.1443],[115.8941,31.1348],[115.8889,31.1285],[115.8874,31.1245],[115.8831,31.1208],[115.8876,31.1168],[115.8854,31.1077],[115.888,31.1053],[115.8923,31.0962],[115.8987,31.091],[115.9087,31.0933],[115.9179,31.088],[115.9169,31.0817],[115.9213,31.0793],[115.9249,31.0748],[115.9285,31.0748],[115.9342,31.0715],[115.9396,31.0711],[115.9421,31.0649],[115.9415,31.0615],[115.9355,31.0463],[115.9369,31.0426],[115.9411,31.0423],[115.9492,31.0455],[115.9527,31.0421],[115.9575,31.0406],[115.968,31.0405],[115.9763,31.045],[115.9833,31.0383],[115.9869,31.0401],[115.9922,31.035],[116.0006,31.0357],[116.0042,31.0297],[116.003,31.0205],[116.0106,31.0143],[116.0145,31.0163],[116.0198,31.0153],[116.026,31.0106],[116.034,31.0181],[116.0406,31.0167],[116.0405,31.0279],[116.0464,31.0432],[116.0441,31.0506],[116.0459,31.054],[116.058,31.0637],[116.0592,31.0721],[116.0642,31.0758],[116.07,31.0748],[116.0761,31.0796],[116.0806,31.0809],[116.0894,31.0876],[116.0878,31.0927],[116.0958,31.0974],[116.1058,31.09],[116.1183,31.0907],[116.1299,31.0946],[116.1341,31.0971],[116.1526,31.1017],[116.1553,31.1043],[116.1611,31.1021],[116.1645,31.097],[116.1711,31.0956],[116.1762,31.0839],[116.1768,31.0788],[116.1747,31.076],[116.1763,31.0707],[116.1813,31.0624],[116.1955,31.0611],[116.1995,31.0598],[116.2066,31.062],[116.211,31.0617],[116.2142,31.0647],[116.2219,31.0671],[116.2273,31.0723],[116.2287,31.0763],[116.2408,31.081],[116.2523,31.0833],[116.2581,31.087],[116.2581,31.0907],[116.2613,31.095],[116.263,31.101],[116.261,31.1035],[116.2727,31.1071],[116.2755,31.1108],[116.2848,31.1172],[116.2874,31.1204],[116.2972,31.122],[116.3015,31.1313],[116.3003,31.1391],[116.3146,31.148],[116.3258,31.1477],[116.3318,31.1528],[116.3376,31.1542],[116.3414,31.168],[116.3466,31.1687],[116.3549,31.176],[116.3588,31.1761],[116.3649,31.1693],[116.373,31.1723],[116.3778,31.1668],[116.3885,31.1642],[116.394,31.1667],[116.4013,31.1655],[116.4061,31.1674],[116.416,31.1592],[116.4282,31.1454],[116.433,31.1463],[116.4361,31.1504],[116.4344,31.1557],[116.4375,31.1614],[116.4437,31.1517],[116.4481,31.1511],[116.4592,31.1438],[116.4597,31.153],[116.4642,31.1605],[116.4695,31.1652],[116.4679,31.1711],[116.4697,31.1769],[116.473,31.1773],[116.4865,31.1904],[116.4787,31.1988],[116.4721,31.2077],[116.4685,31.2164],[116.4799,31.221],[116.4834,31.2242],[116.4849,31.2328],[116.4941,31.2433],[116.5006,31.2478],[116.5038,31.2518],[116.5131,31.2456],[116.5191,31.2497],[116.5212,31.2569],[116.5258,31.2587],[116.5275,31.2624],[116.5205,31.2792],[116.5174,31.2834],[116.5196,31.2864],[116.5275,31.2903],[116.5294,31.3011],[116.5337,31.3039],[116.5316,31.3092],[116.5356,31.3174],[116.5394,31.3207],[116.5384,31.3293],[116.5362,31.3341],[116.5294,31.3367],[116.5226,31.3352],[116.5151,31.3352],[116.503,31.328],[116.4962,31.3282],[116.4907,31.334],[116.4896,31.3418],[116.4932,31.345],[116.4976,31.3546],[116.4957,31.3606],[116.4988,31.3654],[116.5103,31.3584],[116.5149,31.3615],[116.5211,31.3593],[116.5238,31.3624],[116.5211,31.3702],[116.5171,31.3722],[116.5136,31.3833],[116.5153,31.3872],[116.5129,31.395],[116.5149,31.3981],[116.5115,31.4039],[116.5132,31.4074],[116.5102,31.4107],[116.5067,31.4185],[116.5058,31.4241],[116.4971,31.4247],[116.4936,31.4278],[116.4818,31.4281],[116.473,31.4376],[116.4662,31.4395],[116.4641,31.4481],[116.4659,31.4518],[116.4741,31.4536],[116.484,31.4504],[116.4895,31.4508],[116.4908,31.4543],[116.4861,31.4568],[116.4881,31.466],[116.4914,31.4665],[116.5001,31.476],[116.4935,31.4768],[116.4872,31.4725],[116.4794,31.4734],[116.4791,31.4795],[116.4838,31.4869],[116.475,31.4883],[116.4716,31.4991],[116.4664,31.5027],[116.462,31.5026],[116.4615,31.5075],[116.4556,31.5152],[116.4582,31.5165],[116.4537,31.5256],[116.4498,31.5264],[116.4443,31.5319]]]},"properties":{"region_code":"CN-34-3415-341525","parent_region_code":"CN-34-3415","name":"霍山县","level":"county","has_children":false,"full_path":"中国 / 安徽省 / 六安市 / 霍山县","source_admin_code":"341525","osm_relation_id":3243387}}
]}