{"type":"FeatureCollection", "features": [
{"type":"Feature","geometry":{"type":"Polygon","coordinates":[[[117.9554,36.749],[117.9325,36.7429],[117.9293,36.7322],[117.9446,36.7097],[117.9364,36.6954],[117.9077,36.687],[117.8437,36.6967],[117.8204,36.6788],[117.7927,36.6864],[117.7755,36.683],[117.7605,36.6647],[117.743,36.6584],[117.6939,36.6571],[117.704,36.6338],[117.7002,36.5716],[117.7121,36.5541],[117.7331,36.578],[117.7837,36.5688],[117.8008,36.5488],[117.8138,36.5472],[117.8194,36.5728],[117.8367,36.583],[117.9044,36.5659],[117.9327,36.5409],[117.9373,36.5205],[117.9131,36.5046],[117.9269,36.4791],[117.9532,36.4772],[117.9733,36.4661],[117.9797,36.4531],[118.0093,36.4421],[118.0383,36.4535],[118.0642,36.4524],[118.0931,36.4417],[118.0885,36.4252],[118.1039,36.3888],[118.1502,36.4179],[118.1577,36.3902],[118.186,36.3951],[118.2031,36.3752],[118.2296,36.3895],[118.2434,36.4016],[118.2187,36.4143],[118.2271,36.4327],[118.2241,36.4674],[118.2104,36.4783],[118.2048,36.5031],[118.2088,36.5391],[118.1862,36.5457],[118.175,36.5606],[118.1746,36.5934],[118.21,36.6174],[118.1959,36.6416],[118.1854,36.6487],[118.1487,36.6499],[118.1257,36.6845],[118.1271,36.712],[118.0932,36.7184],[118.0795,36.7084],[118.0541,36.7176],[118.0099,36.7148],[117.9933,36.7303],[117.9554,36.749]]]},"properties":{"region_code":"CN-37-3703-370302","parent_region_code":"CN-37-3703","name":"淄川区","level":"county","has_children":false,"full_path":"中国 / 山东省 / 淄博市 / 淄川区","source_admin_code":"370302","osm_relation_id":3468502}},
{"type":"Feature","geometry":{"type":"Polygon","coordinates":[[[118.1271,36.712],[118.1564,36.7274],[118.1485,36.7631],[118.1712,36.7869],[118.1663,36.8106],[118.192,36.8219],[118.1905,36.8613],[118.1621,36.8748],[118.1527,36.886],[118.1154,36.8865],[118.0765,36.8782],[118.0574,36.8882],[118.0572,36.9058],[118.03,36.9111],[118.0041,36.9078],[117.99,36.8989],[117.9727,36.8658],[117.9406,36.881],[117.9437,36.8474],[117.931,36.826],[117.9526,36.8149],[117.9491,36.8026],[117.9628,36.7757],[117.9554,36.749],[117.9933,36.7303],[118.0099,36.7148],[118.0541,36.7176],[118.0795,36.7084],[118.0932,36.7184],[118.1271,36.712]]]},"properties":{"region_code":"CN-37-3703-370303","parent_region_code":"CN-37-3703","name":"张店区","level":"county","has_children":false,"full_path":"中国 / 山东省 / 淄博市 / 张店区","source_admin_code":"370303","osm_relation_id":3468500}},
{"type":"Feature","geometry":{"type":"Polygon","coordinates":[[[117.7121,36.5541],[117.7437,36.5244],[117.7506,36.5109],[117.7564,36.4624],[117.7502,36.4454],[117.8062,36.4367],[117.8272,36.4431],[117.823,36.419],[117.85,36.4125],[117.8534,36.3894],[117.897,36.3522],[117.9201,36.3509],[117.9293,36.3424],[117.9127,36.3178],[117.9175,36.2997],[117.9379,36.274],[117.9673,36.2684],[118.022,36.2966],[118.0419,36.2979],[118.09,36.2871],[118.1273,36.2866],[118.1713,36.2985],[118.1834,36.3357],[118.1962,36.3493],[118.2031,36.3752],[118.186,36.3951],[118.1577,36.3902],[118.1502,36.4179],[118.1039,36.3888],[118.0885,36.4252],[118.0931,36.4417],[118.0642,36.4524],[118.0383,36.4535],[118.0093,36.4421],[117.9797,36.4531],[117.9733,36.4661],[117.9532,36.4772],[117.9269,36.4791],[117.9131,36.5046],[117.9373,36.5205],[117.9327,36.5409],[117.9044,36.5659],[117.8367,36.583],[117.8194,36.5728],[117.8138,36.5472],[117.8008,36.5488],[117.7837,36.5688],[117.7331,36.578],[117.7121,36.5541]]]},"properties":{"region_code":"CN-37-3703-370304","parent_region_code":"CN-37-3703","name":"博山区","level":"county","has_children":false,"full_path":"中国 / 山东省 / 淄博市 / 博山区","source_admin_code":"370304","osm_relation_id":3468495}},
{"type":"Feature","geometry":{"type":"Polygon","coordinates":[[[118.1959,36.6416],[118.2149,36.6617],[118.2104,36.6753],[118.2316,36.7127],[118.2276,36.7245],[118.2663,36.7379],[118.2734,36.751],[118.2922,36.753],[118.2922,36.7771],[118.3444,36.7678],[118.3784,36.7866],[118.4141,36.7958],[118.4321,36.8098],[118.4335,36.8369],[118.4761,36.8524],[118.4591,36.8609],[118.477,36.8787],[118.4773,36.9002],[118.4913,36.9286],[118.4842,36.9432],[118.4603,36.9406],[118.3894,36.9476],[118.3848,36.9691],[118.3627,36.9671],[118.3335,36.9563],[118.2929,36.9638],[118.2819,37.0017],[118.2629,37.0063],[118.2414,36.998],[118.2156,36.967],[118.1981,36.9627],[118.1773,36.9776],[118.1811,36.9651],[118.1736,36.9279],[118.1505,36.9034],[118.1527,36.886],[118.1621,36.8748],[118.1905,36.8613],[118.192,36.8219],[118.1663,36.8106],[118.1712,36.7869],[118.1485,36.7631],[118.1564,36.7274],[118.1271,36.712],[118.1257,36.6845],[118.1487,36.6499],[118.1854,36.6487],[118.1959,36.6416]]]},"properties":{"region_code":"CN-37-3703-370305","parent_region_code":"CN-37-3703","name":"临淄区","level":"county","has_children":false,"full_path":"中国 / 山东省 / 淄博市 / 临淄区","source_admin_code":"370305","osm_relation_id":3468498}},
{"type":"Feature","geometry":{"type":"Polygon","coordinates":[[[117.9554,36.749],[117.9628,36.7757],[117.9491,36.8026],[117.9526,36.8149],[117.931,36.826],[117.9437,36.8474],[117.9406,36.881],[117.9172,36.8857],[117.9114,36.8698],[117.8923,36.8714],[117.8721,36.8615],[117.8281,36.8595],[117.826,36.8359],[117.814,36.8118],[117.8094,36.7885],[117.8344,36.7778],[117.8469,36.7507],[117.816,36.7626],[117.8044,36.7344],[117.7873,36.7073],[117.7641,36.6944],[117.7369,36.6952],[117.7002,36.685],[117.6939,36.6571],[117.743,36.6584],[117.7605,36.6647],[117.7755,36.683],[117.7927,36.6864],[117.8204,36.6788],[117.8437,36.6967],[117.9077,36.687],[117.9364,36.6954],[117.9446,36.7097],[117.9293,36.7322],[117.9325,36.7429],[117.9554,36.749]]]},"properties":{"region_code":"CN-37-3703-370306","parent_region_code":"CN-37-3703","name":"周村区","level":"county","has_children":false,"full_path":"中国 / 山东省 / 淄博市 / 周村区","source_admin_code":"370306","osm_relation_id":3468501}},
{"type":"Feature","geometry":{"type":"Polygon","coordinates":[[[118.1527,36.886],[118.1505,36.9034],[118.1736,36.9279],[118.1811,36.9651],[118.1773,36.9776],[118.1551,36.9813],[118.1472,36.9997],[118.1327,37.0055],[118.13,37.0304],[118.1455,37.0456],[118.1518,37.0641],[118.1301,37.0647],[118.125,37.0905],[118.1048,37.0937],[118.0535,37.0836],[118.0394,37.1014],[117.9835,37.0851],[117.8877,37.0647],[117.8528,37.0622],[117.8398,37.066],[117.8319,37.0291],[117.852,37.0208],[117.8638,36.9856],[117.9027,36.9807],[117.9043,36.9612],[117.9562,36.9083],[117.9343,36.8989],[117.9406,36.881],[117.9727,36.8658],[117.99,36.8989],[118.0041,36.9078],[118.03,36.9111],[118.0572,36.9058],[118.0574,36.8882],[118.0765,36.8782],[118.1154,36.8865],[118.1527,36.886]]]},"properties":{"region_code":"CN-37-3703-370321","parent_region_code":"CN-37-3703","name":"桓台县","level":"county","has_children":false,"full_path":"中国 / 山东省 / 淄博市 / 桓台县","source_admin_code":"370321","osm_relation_id":3468497}},
{"type":"Feature","geometry":{"type":"Polygon","coordinates":[[[118.0394,37.1014],[118.0731,37.1202],[118.0529,37.1573],[118.0762,37.1847],[118.0627,37.2065],[118.0168,37.2215],[118.0138,37.2097],[117.9887,37.2088],[117.9704,37.2152],[117.9721,37.2314],[117.9905,37.2458],[117.9847,37.2618],[117.9612,37.2711],[117.9422,37.2657],[117.9336,37.2796],[117.9032,37.2646],[117.8824,37.262],[117.8577,37.2781],[117.8183,37.278],[117.7765,37.2481],[117.7557,37.2453],[117.6937,37.2557],[117.6536,37.2737],[117.6259,37.2501],[117.6169,37.2203],[117.5893,37.1971],[117.5853,37.1685],[117.5758,37.1554],[117.5455,37.1455],[117.5512,37.1239],[117.5689,37.0888],[117.6035,37.0904],[117.6671,37.0731],[117.7326,37.0642],[117.7939,37.0705],[117.8398,37.066],[117.8528,37.0622],[117.8877,37.0647],[117.9835,37.0851],[118.0394,37.1014]]]},"properties":{"region_code":"CN-37-3703-370322","parent_region_code":"CN-37-3703","name":"高青县","level":"county","has_children":false,"full_path":"中国 / 山东省 / 淄博市 / 高青县","source_admin_code":"370322","osm_relation_id":3468496}},
{"type":"Feature","geometry":{"type":"Polygon","coordinates":[[[118.2031,36.3752],[118.1962,36.3493],[118.1834,36.3357],[118.1713,36.2985],[118.1273,36.2866],[118.09,36.2871],[118.0419,36.2979],[118.022,36.2966],[117.9673,36.2684],[117.9726,36.2623],[117.9564,36.2079],[117.9131,36.1967],[117.9106,36.1702],[117.8978,36.1528],[117.9202,36.1095],[117.9416,36.1064],[117.9335,36.0765],[117.9241,36.0681],[117.9419,36.0351],[117.9439,36.0149],[117.9302,36.006],[117.9406,35.9616],[117.9647,35.9708],[117.9954,35.9463],[118.0262,35.9615],[118.028,35.9784],[118.0587,36.0062],[118.0708,36.0073],[118.1051,36.0276],[118.1268,36.0299],[118.1354,36.0176],[118.1593,36.0207],[118.1868,36.008],[118.1973,35.9949],[118.2047,35.9504],[118.2364,35.9432],[118.2367,35.9312],[118.267,35.9289],[118.2991,35.9511],[118.3186,35.9472],[118.35,35.956],[118.3555,35.972],[118.3747,35.9732],[118.3812,35.9883],[118.4097,35.9917],[118.4294,35.9653],[118.4538,35.9514],[118.4654,35.9614],[118.4968,35.9623],[118.488,35.9962],[118.4635,36.0229],[118.51,36.0264],[118.5167,36.053],[118.5068,36.0691],[118.4845,36.0664],[118.4763,36.0911],[118.4838,36.1253],[118.4588,36.1391],[118.428,36.1238],[118.4035,36.1328],[118.3996,36.1583],[118.3757,36.1889],[118.3798,36.2332],[118.3629,36.2535],[118.3365,36.2589],[118.3137,36.2461],[118.3142,36.2873],[118.2837,36.3409],[118.2606,36.3457],[118.2405,36.3805],[118.2296,36.3895],[118.2031,36.3752]]]},"properties":{"region_code":"CN-37-3703-370323","parent_region_code":"CN-37-3703","name":"沂源县","level":"county","has_children":false,"full_path":"中国 / 山东省 / 淄博市 / 沂源县","source_admin_code":"370323","osm_relation_id":3468499}}
]}