{"type":"FeatureCollection", "features": [
{"type":"Feature","geometry":{"type":"MultiPolygon","coordinates":[[[[117.547,24.5538],[117.5358,24.5458],[117.5389,24.5329],[117.5462,24.534],[117.5413,24.5416],[117.5509,24.5503],[117.547,24.5538]]],[[[117.548,24.5296],[117.5412,24.5221],[117.5253,24.5178],[117.5248,24.5083],[117.5281,24.505],[117.5393,24.5052],[117.5361,24.5127],[117.5396,24.5189],[117.5527,24.523],[117.548,24.5296]]],[[[117.6985,24.6337],[117.6888,24.635],[117.6824,24.6451],[117.6781,24.6467],[117.6611,24.6385],[117.6493,24.6414],[117.6419,24.6509],[117.6288,24.6507],[117.6239,24.6543],[117.6294,24.6665],[117.629,24.6816],[117.6238,24.7008],[117.6122,24.7011],[117.6081,24.6959],[117.5934,24.6841],[117.5763,24.6728],[117.5741,24.6665],[117.5574,24.6559],[117.5519,24.6587],[117.5417,24.6568],[117.5348,24.6635],[117.5224,24.6623],[117.5115,24.6632],[117.5047,24.6673],[117.5037,24.6632],[117.4946,24.6531],[117.4926,24.6481],[117.4944,24.6383],[117.4894,24.635],[117.4871,24.6262],[117.4974,24.6254],[117.5001,24.6187],[117.5056,24.6191],[117.515,24.6118],[117.5202,24.6126],[117.5272,24.6071],[117.5375,24.6083],[117.5446,24.5969],[117.5393,24.5891],[117.522,24.5946],[117.5238,24.5737],[117.5205,24.5705],[117.528,24.5647],[117.5359,24.5717],[117.5477,24.5781],[117.5625,24.5831],[117.5701,24.5781],[117.5781,24.5685],[117.5846,24.5636],[117.5893,24.5482],[117.5882,24.5394],[117.5966,24.5262],[117.6051,24.5208],[117.6054,24.5165],[117.6098,24.5129],[117.6223,24.5082],[117.6395,24.5053],[117.6365,24.4989],[117.6404,24.4868],[117.6509,24.4866],[117.6588,24.4982],[117.6646,24.4931],[117.6731,24.5037],[117.6735,24.5106],[117.6854,24.5295],[117.6871,24.5383],[117.6825,24.5437],[117.6769,24.5407],[117.6667,24.5455],[117.6709,24.5592],[117.6706,24.5684],[117.6819,24.571],[117.6851,24.5776],[117.6923,24.5748],[117.6946,24.5798],[117.7043,24.5752],[117.7163,24.5808],[117.714,24.5882],[117.7042,24.6006],[117.7118,24.6088],[117.7039,24.6114],[117.6985,24.6337]]]]},"properties":{"region_code":"CN-35-3506-350602","parent_region_code":"CN-35-3506","name":"芗城区","level":"county","has_children":false,"full_path":"中国 / 福建省 / 漳州市 / 芗城区","source_admin_code":"350602","osm_relation_id":3242118}},
{"type":"Feature","geometry":{"type":"Polygon","coordinates":[[[117.6646,24.4931],[117.6719,24.4875],[117.679,24.4888],[117.6945,24.4956],[117.7075,24.4919],[117.7182,24.4928],[117.7342,24.4812],[117.7464,24.4831],[117.7465,24.4878],[117.7527,24.4964],[117.7503,24.5026],[117.7691,24.5163],[117.7744,24.5299],[117.7822,24.5291],[117.7854,24.539],[117.7909,24.5397],[117.7946,24.5454],[117.8054,24.5463],[117.8107,24.5531],[117.8121,24.5654],[117.8029,24.5755],[117.7931,24.5753],[117.7835,24.5726],[117.7755,24.5771],[117.7671,24.5776],[117.7605,24.5741],[117.7567,24.5825],[117.7485,24.5867],[117.7368,24.5883],[117.7286,24.5915],[117.7192,24.5986],[117.7164,24.6076],[117.7118,24.6088],[117.7042,24.6006],[117.714,24.5882],[117.7163,24.5808],[117.7043,24.5752],[117.6946,24.5798],[117.6923,24.5748],[117.6851,24.5776],[117.6819,24.571],[117.6706,24.5684],[117.6709,24.5592],[117.6667,24.5455],[117.6769,24.5407],[117.6825,24.5437],[117.6871,24.5383],[117.6854,24.5295],[117.6735,24.5106],[117.6731,24.5037],[117.6646,24.4931]]]},"properties":{"region_code":"CN-35-3506-350603","parent_region_code":"CN-35-3506","name":"龙文区","level":"county","has_children":false,"full_path":"中国 / 福建省 / 漳州市 / 龙文区","source_admin_code":"350603","osm_relation_id":3242115}},
{"type":"Feature","geometry":{"type":"Polygon","coordinates":[[[117.6054,24.5165],[117.5949,24.5106],[117.5901,24.5028],[117.5869,24.4922],[117.5813,24.4874],[117.576,24.4779],[117.571,24.4752],[117.5729,24.4685],[117.557,24.4697],[117.5359,24.4756],[117.5309,24.4836],[117.5285,24.4923],[117.5212,24.4952],[117.517,24.5002],[117.5061,24.5016],[117.4986,24.4939],[117.4972,24.4799],[117.5014,24.477],[117.4993,24.4537],[117.5044,24.4404],[117.4998,24.4327],[117.5043,24.4251],[117.5172,24.4196],[117.5132,24.4123],[117.5011,24.411],[117.495,24.4034],[117.4929,24.3904],[117.4895,24.3898],[117.4934,24.3635],[117.4964,24.3585],[117.5087,24.3553],[117.5107,24.3437],[117.5076,24.3369],[117.5114,24.3385],[117.5299,24.3311],[117.5355,24.3339],[117.5396,24.3208],[117.5328,24.3159],[117.539,24.309],[117.5491,24.308],[117.556,24.3103],[117.5561,24.3169],[117.5651,24.3131],[117.5694,24.3059],[117.5796,24.3045],[117.5872,24.3109],[117.595,24.3089],[117.5956,24.301],[117.6,24.2953],[117.597,24.2873],[117.5879,24.2829],[117.59,24.2779],[117.5843,24.2654],[117.5873,24.254],[117.5996,24.2516],[117.6042,24.245],[117.6131,24.2493],[117.6178,24.2544],[117.6261,24.254],[117.6314,24.2615],[117.6406,24.2867],[117.6479,24.2933],[117.6484,24.3012],[117.6545,24.3077],[117.6544,24.3151],[117.6627,24.3213],[117.663,24.3287],[117.6674,24.3321],[117.6674,24.3387],[117.676,24.3434],[117.6787,24.3552],[117.6835,24.3502],[117.6839,24.3438],[117.6908,24.3451],[117.6905,24.3373],[117.6987,24.3186],[117.7035,24.3143],[117.7111,24.315],[117.7199,24.329],[117.7135,24.3317],[117.7045,24.3409],[117.7029,24.3474],[117.7123,24.3605],[117.7266,24.3514],[117.7262,24.3424],[117.7315,24.3319],[117.7407,24.3355],[117.7487,24.3335],[117.7584,24.3418],[117.7703,24.3368],[117.7867,24.3336],[117.7876,24.3297],[117.8005,24.326],[117.806,24.3277],[117.8108,24.324],[117.8207,24.3279],[117.8403,24.3204],[117.8347,24.3149],[117.8277,24.321],[117.821,24.3177],[117.8379,24.3076],[117.8371,24.3023],[117.8466,24.2783],[117.8471,24.2733],[117.8586,24.269],[117.8607,24.2746],[117.8791,24.2717],[117.8831,24.277],[117.8893,24.275],[117.8948,24.266],[117.9062,24.2673],[117.9105,24.2703],[117.9251,24.2696],[117.9318,24.2845],[117.9294,24.2899],[117.9209,24.2972],[117.9415,24.3139],[117.9487,24.2997],[117.9542,24.2926],[117.9606,24.2904],[117.9706,24.2954],[117.9757,24.2916],[117.9873,24.2914],[117.9915,24.28],[118.0004,24.2836],[118.012,24.2849],[118.0242,24.2831],[118.0283,24.2645],[118.0223,24.2542],[118.03,24.2461],[118.0286,24.2363],[118.0238,24.2334],[118.0232,24.2248],[118.0313,24.219],[118.0464,24.2001],[118.0653,24.158],[118.3416,23.9611],[118.3886,24.0149],[118.4813,24.0758],[118.1198,24.3843],[118.103,24.4025],[118.0865,24.409],[118.0597,24.424],[118.0478,24.4252],[117.9836,24.4294],[117.9475,24.4445],[117.9481,24.4599],[117.9516,24.4743],[117.9566,24.4806],[117.9589,24.4936],[117.9547,24.5002],[117.9437,24.5109],[117.9335,24.516],[117.9325,24.5247],[117.9274,24.5316],[117.9191,24.5355],[117.9128,24.5347],[117.9077,24.5391],[117.9064,24.554],[117.9028,24.5583],[117.9051,24.5672],[117.9091,24.5703],[117.9054,24.5781],[117.9003,24.5784],[117.8823,24.5942],[117.864,24.5896],[117.8592,24.5744],[117.8423,24.5733],[117.8416,24.5769],[117.831,24.5755],[117.8266,24.5707],[117.8197,24.5706],[117.8121,24.5654],[117.8107,24.5531],[117.8054,24.5463],[117.7946,24.5454],[117.7909,24.5397],[117.7854,24.539],[117.7822,24.5291],[117.7744,24.5299],[117.7691,24.5163],[117.7503,24.5026],[117.7527,24.4964],[117.7465,24.4878],[117.7464,24.4831],[117.7342,24.4812],[117.7182,24.4928],[117.7075,24.4919],[117.6945,24.4956],[117.679,24.4888],[117.6719,24.4875],[117.6646,24.4931],[117.6588,24.4982],[117.6509,24.4866],[117.6404,24.4868],[117.6365,24.4989],[117.6395,24.5053],[117.6223,24.5082],[117.6098,24.5129],[117.6054,24.5165]],[[118.2394,24.2078],[118.2642,24.2067],[118.2917,24.1789],[118.2942,24.1308],[118.2525,24.1153],[118.2328,24.1153],[118.2133,24.1206],[118.1889,24.1422],[118.1889,24.1731],[118.2069,24.205],[118.2394,24.2078]]]},"properties":{"region_code":"CN-35-3506-350604","parent_region_code":"CN-35-3506","name":"龙海区","level":"county","has_children":false,"full_path":"中国 / 福建省 / 漳州市 / 龙海区","source_admin_code":"350604","osm_relation_id":3242114}},
{"type":"Feature","geometry":{"type":"Polygon","coordinates":[[[117.7118,24.6088],[117.7164,24.6076],[117.7192,24.5986],[117.7286,24.5915],[117.7368,24.5883],[117.7485,24.5867],[117.7567,24.5825],[117.7605,24.5741],[117.7671,24.5776],[117.7755,24.5771],[117.7835,24.5726],[117.7931,24.5753],[117.8029,24.5755],[117.8121,24.5654],[117.8197,24.5706],[117.8266,24.5707],[117.831,24.5755],[117.8416,24.5769],[117.8423,24.5733],[117.8592,24.5744],[117.864,24.5896],[117.8823,24.5942],[117.8887,24.6032],[117.8858,24.6074],[117.8883,24.6178],[117.8986,24.6164],[117.9158,24.6166],[117.9233,24.6322],[117.9279,24.6383],[117.9368,24.642],[117.9388,24.6465],[117.9486,24.6508],[117.9509,24.6582],[117.9611,24.665],[117.9571,24.6706],[117.9609,24.676],[117.9598,24.6839],[117.9536,24.6976],[117.9513,24.7072],[117.9423,24.7157],[117.9421,24.7204],[117.9361,24.7361],[117.936,24.7455],[117.9406,24.7544],[117.9418,24.7633],[117.9471,24.7673],[117.9549,24.7825],[117.9553,24.8015],[117.954,24.8139],[117.9569,24.8227],[117.9555,24.8304],[117.9571,24.8473],[117.9426,24.8475],[117.9398,24.844],[117.9226,24.865],[117.9099,24.8725],[117.9055,24.8706],[117.8975,24.873],[117.8877,24.8848],[117.8894,24.8906],[117.8778,24.8934],[117.8686,24.8841],[117.8517,24.8819],[117.8499,24.8768],[117.8391,24.8781],[117.8272,24.8851],[117.8202,24.8816],[117.8176,24.8757],[117.8233,24.8685],[117.8159,24.8664],[117.8173,24.86],[117.8075,24.8526],[117.7978,24.8548],[117.7953,24.8639],[117.7874,24.8612],[117.7758,24.85],[117.7659,24.8578],[117.7634,24.8755],[117.7574,24.8709],[117.7482,24.8756],[117.7424,24.8847],[117.7352,24.8848],[117.7276,24.8767],[117.7244,24.8826],[117.7188,24.8821],[117.7114,24.8761],[117.7146,24.8693],[117.7063,24.8645],[117.6938,24.862],[117.6759,24.8513],[117.6695,24.8522],[117.6673,24.8594],[117.6509,24.8594],[117.6464,24.8645],[117.6379,24.8624],[117.6269,24.871],[117.6193,24.8698],[117.6185,24.8653],[117.6245,24.858],[117.6202,24.8421],[117.614,24.8394],[117.6118,24.8342],[117.6027,24.8327],[117.597,24.8269],[117.6042,24.8232],[117.6173,24.8102],[117.6208,24.8037],[117.6151,24.7971],[117.6156,24.7921],[117.6085,24.7865],[117.6197,24.7766],[117.6303,24.7584],[117.6373,24.7565],[117.6394,24.7477],[117.6508,24.7404],[117.6547,24.7349],[117.6697,24.738],[117.6768,24.7205],[117.6856,24.7175],[117.6874,24.7113],[117.6763,24.7059],[117.6653,24.7044],[117.6604,24.6945],[117.6677,24.6879],[117.6712,24.6937],[117.6865,24.6977],[117.6901,24.6903],[117.6892,24.6838],[117.684,24.6744],[117.6924,24.6716],[117.7048,24.6761],[117.7084,24.6638],[117.6976,24.6553],[117.7093,24.6389],[117.7011,24.6383],[117.6985,24.6337],[117.7039,24.6114],[117.7118,24.6088]]]},"properties":{"region_code":"CN-35-3506-350605","parent_region_code":"CN-35-3506","name":"长泰区","level":"county","has_children":false,"full_path":"中国 / 福建省 / 漳州市 / 长泰区","source_admin_code":"350605","osm_relation_id":3242111}},
{"type":"Feature","geometry":{"type":"Polygon","coordinates":[[[117.1398,24.039],[117.1452,24.0247],[117.1406,24.0145],[117.1485,24.0069],[117.1529,23.9985],[117.144,23.9937],[117.1463,23.9856],[117.1528,23.9851],[117.1555,23.9686],[117.1508,23.9685],[117.1478,23.9601],[117.1422,23.9543],[117.154,23.9528],[117.1614,23.9419],[117.1635,23.9344],[117.1709,23.9313],[117.1738,23.9224],[117.1913,23.916],[117.1921,23.9011],[117.2005,23.9005],[117.2045,23.8955],[117.1988,23.891],[117.202,23.8847],[117.2215,23.8712],[117.2226,23.8645],[117.2375,23.85],[117.2448,23.8573],[117.2535,23.855],[117.2617,23.8559],[117.2677,23.8526],[117.2733,23.8544],[117.2833,23.8516],[117.286,23.857],[117.2979,23.8658],[117.3138,23.8673],[117.3168,23.8601],[117.3237,23.8587],[117.3347,23.8602],[117.342,23.8642],[117.3517,23.853],[117.361,23.8503],[117.3591,23.8434],[117.3508,23.8385],[117.3557,23.8272],[117.3536,23.8159],[117.348,23.7985],[117.3507,23.794],[117.3593,23.7892],[117.3705,23.776],[117.3771,23.7809],[117.3946,23.7862],[117.4029,23.7771],[117.4251,23.7657],[117.4378,23.7512],[117.4452,23.7529],[117.4972,23.7771],[117.5122,23.7798],[117.5307,23.7768],[117.5489,23.7982],[117.552,23.8642],[117.5093,23.9022],[117.4897,23.9106],[117.4573,23.9177],[117.4591,23.9273],[117.4529,23.9354],[117.4556,23.9417],[117.469,23.9442],[117.4728,23.9522],[117.4814,23.9595],[117.4857,23.9706],[117.4838,23.9835],[117.4936,23.9877],[117.484,23.9956],[117.4828,24.0034],[117.4758,24.0022],[117.4609,24.004],[117.4585,24.0153],[117.4608,24.0214],[117.4569,24.0321],[117.4612,24.0364],[117.4636,24.0456],[117.4605,24.056],[117.4556,24.0639],[117.4517,24.0753],[117.4447,24.0815],[117.4413,24.1],[117.4203,24.0919],[117.4156,24.0959],[117.4136,24.1061],[117.4095,24.1121],[117.4021,24.1165],[117.3845,24.1139],[117.3791,24.1204],[117.3647,24.1204],[117.3547,24.1113],[117.3442,24.1105],[117.3427,24.1169],[117.333,24.1322],[117.3351,24.1407],[117.3325,24.1579],[117.3396,24.1568],[117.345,24.169],[117.3357,24.1868],[117.3236,24.1973],[117.3239,24.2031],[117.3192,24.2084],[117.3112,24.2105],[117.3085,24.2147],[117.2996,24.2149],[117.2978,24.2209],[117.2802,24.2303],[117.2757,24.2185],[117.2759,24.2024],[117.2603,24.1998],[117.2536,24.2073],[117.242,24.2019],[117.2316,24.1928],[117.2321,24.1807],[117.2371,24.1767],[117.2415,24.1668],[117.2455,24.1643],[117.2591,24.1482],[117.2575,24.1433],[117.2603,24.1363],[117.2579,24.1323],[117.2627,24.1222],[117.2661,24.1097],[117.2643,24.1003],[117.2592,24.0946],[117.2521,24.095],[117.2472,24.0839],[117.2488,24.0713],[117.2415,24.0681],[117.2423,24.0637],[117.2332,24.0605],[117.2222,24.0677],[117.2188,24.0658],[117.2021,24.0705],[117.1977,24.0757],[117.1863,24.083],[117.178,24.0905],[117.1742,24.0883],[117.1643,24.0924],[117.1594,24.0806],[117.1511,24.0817],[117.1487,24.0755],[117.1489,24.0644],[117.1363,24.0607],[117.1347,24.0547],[117.1398,24.039]]]},"properties":{"region_code":"CN-35-3506-350622","parent_region_code":"CN-35-3506","name":"云霄县","level":"county","has_children":false,"full_path":"中国 / 福建省 / 漳州市 / 云霄县","source_admin_code":"350622","osm_relation_id":3242119}},
{"type":"Feature","geometry":{"type":"Polygon","coordinates":[[[117.5076,24.3369],[117.5113,24.314],[117.5035,24.3066],[117.4987,24.2977],[117.4888,24.2987],[117.478,24.2898],[117.4781,24.2855],[117.4699,24.2766],[117.4604,24.2734],[117.4512,24.2775],[117.4368,24.2738],[117.4337,24.2682],[117.4398,24.2544],[117.4389,24.2502],[117.4443,24.241],[117.4348,24.2405],[117.4251,24.2435],[117.4166,24.2425],[117.4139,24.2333],[117.4223,24.2241],[117.4234,24.2153],[117.4286,24.2125],[117.4318,24.2037],[117.4293,24.2004],[117.4307,24.19],[117.4396,24.1685],[117.4394,24.1584],[117.4362,24.1535],[117.4385,24.1399],[117.4366,24.1292],[117.4409,24.1177],[117.4413,24.1],[117.4447,24.0815],[117.4517,24.0753],[117.4556,24.0639],[117.4605,24.056],[117.4636,24.0456],[117.4612,24.0364],[117.4569,24.0321],[117.4608,24.0214],[117.4585,24.0153],[117.4609,24.004],[117.4758,24.0022],[117.4828,24.0034],[117.484,23.9956],[117.4936,23.9877],[117.4838,23.9835],[117.4857,23.9706],[117.4814,23.9595],[117.4728,23.9522],[117.469,23.9442],[117.4556,23.9417],[117.4529,23.9354],[117.4591,23.9273],[117.4573,23.9177],[117.4897,23.9106],[117.5093,23.9022],[117.552,23.8642],[117.5489,23.7982],[117.5307,23.7768],[117.5541,23.7713],[117.5609,23.7663],[117.5719,23.7502],[117.5726,23.6955],[117.8887,23.4413],[118.3416,23.9611],[118.0653,24.158],[118.0464,24.2001],[118.0313,24.219],[118.0232,24.2248],[118.0238,24.2334],[118.0286,24.2363],[118.03,24.2461],[118.0223,24.2542],[118.0283,24.2645],[118.0242,24.2831],[118.012,24.2849],[118.0004,24.2836],[117.9915,24.28],[117.9873,24.2914],[117.9757,24.2916],[117.9706,24.2954],[117.9606,24.2904],[117.9542,24.2926],[117.9487,24.2997],[117.9415,24.3139],[117.9209,24.2972],[117.9294,24.2899],[117.9318,24.2845],[117.9251,24.2696],[117.9105,24.2703],[117.9062,24.2673],[117.8948,24.266],[117.8893,24.275],[117.8831,24.277],[117.8791,24.2717],[117.8607,24.2746],[117.8586,24.269],[117.8471,24.2733],[117.8466,24.2783],[117.8371,24.3023],[117.8379,24.3076],[117.821,24.3177],[117.8277,24.321],[117.8347,24.3149],[117.8403,24.3204],[117.8207,24.3279],[117.8108,24.324],[117.806,24.3277],[117.8005,24.326],[117.7876,24.3297],[117.7867,24.3336],[117.7703,24.3368],[117.7584,24.3418],[117.7487,24.3335],[117.7407,24.3355],[117.7315,24.3319],[117.7262,24.3424],[117.7266,24.3514],[117.7123,24.3605],[117.7029,24.3474],[117.7045,24.3409],[117.7135,24.3317],[117.7199,24.329],[117.7111,24.315],[117.7035,24.3143],[117.6987,24.3186],[117.6905,24.3373],[117.6908,24.3451],[117.6839,24.3438],[117.6835,24.3502],[117.6787,24.3552],[117.676,24.3434],[117.6674,24.3387],[117.6674,24.3321],[117.663,24.3287],[117.6627,24.3213],[117.6544,24.3151],[117.6545,24.3077],[117.6484,24.3012],[117.6479,24.2933],[117.6406,24.2867],[117.6314,24.2615],[117.6261,24.254],[117.6178,24.2544],[117.6131,24.2493],[117.6042,24.245],[117.5996,24.2516],[117.5873,24.254],[117.5843,24.2654],[117.59,24.2779],[117.5879,24.2829],[117.597,24.2873],[117.6,24.2953],[117.5956,24.301],[117.595,24.3089],[117.5872,24.3109],[117.5796,24.3045],[117.5694,24.3059],[117.5651,24.3131],[117.5561,24.3169],[117.556,24.3103],[117.5491,24.308],[117.539,24.309],[117.5328,24.3159],[117.5396,24.3208],[117.5355,24.3339],[117.5299,24.3311],[117.5114,24.3385],[117.5076,24.3369]]]},"properties":{"region_code":"CN-35-3506-350623","parent_region_code":"CN-35-3506","name":"漳浦县","level":"county","has_children":false,"full_path":"中国 / 福建省 / 漳州市 / 漳浦县","source_admin_code":"350623","osm_relation_id":3242120}},
{"type":"Feature","geometry":{"type":"Polygon","coordinates":[[[117.1398,24.039],[117.1362,24.0377],[117.1226,24.0432],[117.1167,24.0567],[117.1115,24.0624],[117.1108,24.0708],[117.0833,24.09],[117.0752,24.104],[117.0537,24.1109],[117.0465,24.1147],[117.0394,24.1224],[117.0304,24.123],[117.0318,24.1297],[117.0276,24.1406],[117.0195,24.1443],[117.0172,24.1505],[117.003,24.1553],[116.9979,24.1633],[116.9932,24.1634],[116.9864,24.1729],[116.984,24.1692],[116.9742,24.1649],[116.9683,24.1564],[116.9602,24.1562],[116.9478,24.1464],[116.9425,24.1378],[116.9369,24.1367],[116.9312,24.1311],[116.9263,24.1123],[116.9221,24.1015],[116.9249,24.0942],[116.9239,24.0859],[116.9252,24.0683],[116.9308,24.0637],[116.9307,24.0588],[116.9375,24.0561],[116.9479,24.0576],[116.9473,24.0404],[116.9359,24.038],[116.9506,24.0231],[116.9509,24.0117],[116.9573,24.0148],[116.9724,24.0072],[116.9769,23.9979],[116.9708,23.9934],[116.9677,23.976],[116.978,23.9621],[116.9748,23.9554],[116.9755,23.9438],[116.9687,23.9298],[116.9504,23.9216],[116.9547,23.9173],[116.9543,23.9034],[116.9684,23.8975],[116.97,23.8878],[116.9746,23.8872],[116.9709,23.875],[116.9573,23.8744],[116.9605,23.8612],[116.97,23.8583],[116.9765,23.8589],[116.9803,23.8658],[116.9943,23.8622],[116.9978,23.8577],[117.0074,23.8584],[117.0082,23.8516],[117.013,23.8497],[117.0188,23.8403],[117.0212,23.8299],[117.0293,23.8298],[117.0245,23.8187],[117.0164,23.812],[117.0232,23.8012],[117.0244,23.7956],[117.0301,23.7901],[117.0345,23.7809],[117.0377,23.7672],[117.0409,23.7632],[117.0399,23.7548],[117.0482,23.7416],[117.0444,23.7266],[117.0491,23.711],[117.0483,23.7009],[117.053,23.6948],[117.0617,23.6912],[117.0692,23.6934],[117.0748,23.6829],[117.0807,23.6764],[117.0859,23.6665],[117.1014,23.6682],[117.1072,23.6584],[117.1156,23.6563],[117.1184,23.6478],[117.1254,23.6539],[117.1361,23.6532],[117.1425,23.6562],[117.1523,23.6434],[117.1588,23.6405],[117.1696,23.6429],[117.1828,23.6323],[117.1902,23.6176],[117.1904,23.5612],[117.2221,23.5243],[117.4083,23.3078],[117.532,23.1648],[117.5985,23.2127],[117.2948,23.564],[117.3206,23.7036],[117.3233,23.7089],[117.3271,23.738],[117.3318,23.7474],[117.3505,23.7543],[117.3571,23.7599],[117.3636,23.7708],[117.3705,23.776],[117.3593,23.7892],[117.3507,23.794],[117.348,23.7985],[117.3536,23.8159],[117.3557,23.8272],[117.3508,23.8385],[117.3591,23.8434],[117.361,23.8503],[117.3517,23.853],[117.342,23.8642],[117.3347,23.8602],[117.3237,23.8587],[117.3168,23.8601],[117.3138,23.8673],[117.2979,23.8658],[117.286,23.857],[117.2833,23.8516],[117.2733,23.8544],[117.2677,23.8526],[117.2617,23.8559],[117.2535,23.855],[117.2448,23.8573],[117.2375,23.85],[117.2226,23.8645],[117.2215,23.8712],[117.202,23.8847],[117.1988,23.891],[117.2045,23.8955],[117.2005,23.9005],[117.1921,23.9011],[117.1913,23.916],[117.1738,23.9224],[117.1709,23.9313],[117.1635,23.9344],[117.1614,23.9419],[117.154,23.9528],[117.1422,23.9543],[117.1478,23.9601],[117.1508,23.9685],[117.1555,23.9686],[117.1528,23.9851],[117.1463,23.9856],[117.144,23.9937],[117.1529,23.9985],[117.1485,24.0069],[117.1406,24.0145],[117.1452,24.0247],[117.1398,24.039]]]},"properties":{"region_code":"CN-35-3506-350624","parent_region_code":"CN-35-3506","name":"诏安县","level":"county","has_children":false,"full_path":"中国 / 福建省 / 漳州市 / 诏安县","source_admin_code":"350624","osm_relation_id":3242121}},
{"type":"Feature","geometry":{"type":"Polygon","coordinates":[[[117.3705,23.776],[117.3636,23.7708],[117.3571,23.7599],[117.3505,23.7543],[117.3318,23.7474],[117.3271,23.738],[117.3233,23.7089],[117.3206,23.7036],[117.2948,23.564],[117.5985,23.2127],[117.8218,23.3731],[117.8584,23.4064],[117.8887,23.4413],[117.5726,23.6955],[117.5719,23.7502],[117.5609,23.7663],[117.5541,23.7713],[117.5307,23.7768],[117.5122,23.7798],[117.4972,23.7771],[117.4452,23.7529],[117.4378,23.7512],[117.4251,23.7657],[117.4029,23.7771],[117.3946,23.7862],[117.3771,23.7809],[117.3705,23.776]]]},"properties":{"region_code":"CN-35-3506-350626","parent_region_code":"CN-35-3506","name":"东山县","level":"county","has_children":false,"full_path":"中国 / 福建省 / 漳州市 / 东山县","source_admin_code":"350626","osm_relation_id":3242112}},
{"type":"Feature","geometry":{"type":"Polygon","coordinates":[[[117.5047,24.6673],[117.5019,24.673],[117.5045,24.6792],[117.5014,24.6868],[117.5123,24.6989],[117.5152,24.7049],[117.5141,24.7163],[117.5105,24.723],[117.5042,24.7227],[117.5008,24.7322],[117.4932,24.7364],[117.4826,24.7332],[117.4809,24.7276],[117.4693,24.7285],[117.4567,24.7334],[117.4544,24.7387],[117.4447,24.7343],[117.4423,24.7404],[117.4432,24.7562],[117.4363,24.7684],[117.4088,24.7715],[117.4032,24.7804],[117.3912,24.7731],[117.3882,24.7764],[117.3919,24.7863],[117.392,24.8012],[117.3895,24.819],[117.3876,24.8229],[117.3721,24.8307],[117.3672,24.8378],[117.3551,24.8411],[117.3471,24.8638],[117.3324,24.8586],[117.331,24.8622],[117.3156,24.8677],[117.3128,24.8793],[117.3072,24.8864],[117.3102,24.892],[117.3042,24.9022],[117.3161,24.9071],[117.3223,24.9124],[117.3208,24.9277],[117.3065,24.9279],[117.2952,24.9376],[117.2795,24.9314],[117.2744,24.9368],[117.2871,24.9419],[117.2902,24.9476],[117.3,24.9526],[117.3045,24.9585],[117.3022,24.9622],[117.3128,24.9687],[117.3144,24.9723],[117.3048,24.9691],[117.2945,24.9804],[117.2848,24.974],[117.2797,24.9773],[117.2892,24.9882],[117.2852,24.994],[117.277,24.9924],[117.2741,24.9868],[117.2543,24.9765],[117.2511,24.9696],[117.2355,24.9699],[117.2292,24.9663],[117.2296,24.9588],[117.2396,24.9607],[117.2487,24.9578],[117.2469,24.9459],[117.2344,24.9373],[117.2331,24.9273],[117.2265,24.9189],[117.2237,24.9114],[117.2147,24.9121],[117.2042,24.9244],[117.1789,24.9275],[117.1794,24.917],[117.1841,24.9063],[117.1909,24.9049],[117.1943,24.8913],[117.1824,24.8797],[117.17,24.8729],[117.1613,24.8729],[117.1638,24.8485],[117.1691,24.8385],[117.1628,24.8321],[117.1637,24.8272],[117.1501,24.8186],[117.1467,24.8031],[117.1409,24.7995],[117.1449,24.7912],[117.143,24.7843],[117.1347,24.785],[117.1298,24.7804],[117.1213,24.7774],[117.1089,24.782],[117.0995,24.7915],[117.0938,24.7912],[117.0864,24.7855],[117.077,24.7834],[117.0655,24.7897],[117.0703,24.8],[117.0698,24.8106],[117.0667,24.8148],[117.0687,24.8254],[117.0589,24.8377],[117.047,24.8248],[117.0441,24.8143],[117.0456,24.7978],[117.0293,24.7898],[117.0318,24.7861],[117.0146,24.7712],[117.0134,24.7662],[117.0155,24.7545],[117.0211,24.7475],[117.0141,24.743],[117.0134,24.7296],[117.0109,24.7222],[117.012,24.7121],[117.0234,24.7034],[117.0217,24.6967],[117.0347,24.6952],[117.0355,24.6858],[117.0286,24.6749],[117.0339,24.6693],[117.042,24.6559],[117.0369,24.6332],[117.0229,24.6375],[117.0131,24.6343],[117.0122,24.6275],[117.0237,24.6115],[117.0195,24.6032],[117.0111,24.5938],[117.0177,24.58],[117.0295,24.5769],[117.0358,24.5732],[117.0385,24.5676],[117.0445,24.5678],[117.0677,24.5591],[117.0702,24.5541],[117.0824,24.5478],[117.0817,24.5365],[117.0918,24.5288],[117.103,24.5275],[117.1043,24.5201],[117.1107,24.5181],[117.1139,24.5125],[117.1216,24.5095],[117.1321,24.4927],[117.1396,24.4874],[117.1384,24.4709],[117.1527,24.4691],[117.1616,24.4734],[117.1665,24.4785],[117.182,24.4779],[117.1905,24.4714],[117.1998,24.477],[117.2028,24.4919],[117.2141,24.4894],[117.2212,24.5014],[117.2307,24.5029],[117.2403,24.5086],[117.2484,24.5019],[117.2622,24.5039],[117.2721,24.497],[117.2829,24.4929],[117.2873,24.4828],[117.2853,24.4755],[117.2991,24.4727],[117.3093,24.4678],[117.3135,24.4756],[117.3231,24.4767],[117.3339,24.4638],[117.3332,24.46],[117.3424,24.4504],[117.3473,24.4485],[117.3546,24.4391],[117.3608,24.4403],[117.364,24.4453],[117.3767,24.446],[117.3814,24.4414],[117.3925,24.4382],[117.4063,24.4434],[117.4159,24.4576],[117.4233,24.4623],[117.4228,24.4718],[117.4262,24.4829],[117.4438,24.4818],[117.4507,24.4859],[117.4615,24.5011],[117.4684,24.5019],[117.4773,24.5136],[117.4832,24.5123],[117.4934,24.5153],[117.5061,24.5016],[117.517,24.5002],[117.5212,24.4952],[117.5285,24.4923],[117.5309,24.4836],[117.5359,24.4756],[117.557,24.4697],[117.5729,24.4685],[117.571,24.4752],[117.576,24.4779],[117.5813,24.4874],[117.5869,24.4922],[117.5901,24.5028],[117.5949,24.5106],[117.6054,24.5165],[117.6051,24.5208],[117.5966,24.5262],[117.5882,24.5394],[117.5893,24.5482],[117.5846,24.5636],[117.5781,24.5685],[117.5701,24.5781],[117.5625,24.5831],[117.5477,24.5781],[117.5359,24.5717],[117.528,24.5647],[117.5205,24.5705],[117.5238,24.5737],[117.522,24.5946],[117.5393,24.5891],[117.5446,24.5969],[117.5375,24.6083],[117.5272,24.6071],[117.5202,24.6126],[117.515,24.6118],[117.5056,24.6191],[117.5001,24.6187],[117.4974,24.6254],[117.4871,24.6262],[117.4894,24.635],[117.4944,24.6383],[117.4926,24.6481],[117.4946,24.6531],[117.5037,24.6632],[117.5047,24.6673]],[[117.547,24.5538],[117.5509,24.5503],[117.5413,24.5416],[117.5462,24.534],[117.5389,24.5329],[117.5358,24.5458],[117.547,24.5538]],[[117.548,24.5296],[117.5527,24.523],[117.5396,24.5189],[117.5361,24.5127],[117.5393,24.5052],[117.5281,24.505],[117.5248,24.5083],[117.5253,24.5178],[117.5412,24.5221],[117.548,24.5296]]]},"properties":{"region_code":"CN-35-3506-350627","parent_region_code":"CN-35-3506","name":"南靖县","level":"county","has_children":false,"full_path":"中国 / 福建省 / 漳州市 / 南靖县","source_admin_code":"350627","osm_relation_id":3242116}},
{"type":"Feature","geometry":{"type":"Polygon","coordinates":[[[117.5061,24.5016],[117.4934,24.5153],[117.4832,24.5123],[117.4773,24.5136],[117.4684,24.5019],[117.4615,24.5011],[117.4507,24.4859],[117.4438,24.4818],[117.4262,24.4829],[117.4228,24.4718],[117.4233,24.4623],[117.4159,24.4576],[117.4063,24.4434],[117.3925,24.4382],[117.3814,24.4414],[117.3767,24.446],[117.364,24.4453],[117.3608,24.4403],[117.3546,24.4391],[117.3473,24.4485],[117.3424,24.4504],[117.3332,24.46],[117.3339,24.4638],[117.3231,24.4767],[117.3135,24.4756],[117.3093,24.4678],[117.2991,24.4727],[117.2853,24.4755],[117.2873,24.4828],[117.2829,24.4929],[117.2721,24.497],[117.2622,24.5039],[117.2484,24.5019],[117.2403,24.5086],[117.2307,24.5029],[117.2212,24.5014],[117.2141,24.4894],[117.2028,24.4919],[117.1998,24.477],[117.1905,24.4714],[117.182,24.4779],[117.1665,24.4785],[117.1616,24.4734],[117.1527,24.4691],[117.1384,24.4709],[117.1396,24.4874],[117.1321,24.4927],[117.1216,24.5095],[117.1139,24.5125],[117.1107,24.5181],[117.1043,24.5201],[117.103,24.5275],[117.0918,24.5288],[117.0817,24.5365],[117.0824,24.5478],[117.0702,24.5541],[117.0677,24.5591],[117.0445,24.5678],[117.0385,24.5676],[117.0358,24.5732],[117.0295,24.5769],[117.0177,24.58],[117.0171,24.568],[117.0133,24.556],[117.0062,24.5542],[116.9947,24.5414],[116.985,24.5503],[116.972,24.5502],[116.9639,24.5478],[116.9502,24.5523],[116.9388,24.5492],[116.9374,24.5445],[116.9271,24.5363],[116.9328,24.5247],[116.9244,24.5164],[116.9176,24.5311],[116.9082,24.5271],[116.9079,24.5204],[116.9144,24.5116],[116.912,24.5003],[116.9244,24.4866],[116.9232,24.4807],[116.9301,24.4687],[116.9359,24.4662],[116.9408,24.4414],[116.9452,24.4335],[116.9431,24.4247],[116.9325,24.4154],[116.9238,24.3999],[116.9247,24.3854],[116.9167,24.3854],[116.908,24.3817],[116.9035,24.3881],[116.8973,24.3881],[116.9007,24.3746],[116.8924,24.3631],[116.8916,24.3537],[116.9038,24.3448],[116.9048,24.3322],[116.915,24.324],[116.9085,24.3145],[116.9097,24.2907],[116.9136,24.2864],[116.925,24.2892],[116.9336,24.2837],[116.9344,24.2714],[116.9318,24.269],[116.9309,24.2509],[116.9346,24.2425],[116.9337,24.2353],[116.9289,24.2293],[116.9295,24.2221],[116.9365,24.2202],[116.9516,24.2199],[116.9531,24.2152],[116.9617,24.2106],[116.9674,24.201],[116.9755,24.2005],[116.9839,24.1957],[116.9922,24.1848],[116.9864,24.1729],[116.9932,24.1634],[116.9979,24.1633],[117.003,24.1553],[117.0172,24.1505],[117.0195,24.1443],[117.0276,24.1406],[117.0318,24.1297],[117.0304,24.123],[117.0394,24.1224],[117.0465,24.1147],[117.0537,24.1109],[117.0752,24.104],[117.0833,24.09],[117.1108,24.0708],[117.1115,24.0624],[117.1167,24.0567],[117.1226,24.0432],[117.1362,24.0377],[117.1398,24.039],[117.1347,24.0547],[117.1363,24.0607],[117.1489,24.0644],[117.1487,24.0755],[117.1511,24.0817],[117.1594,24.0806],[117.1643,24.0924],[117.1742,24.0883],[117.178,24.0905],[117.1863,24.083],[117.1977,24.0757],[117.2021,24.0705],[117.2188,24.0658],[117.2222,24.0677],[117.2332,24.0605],[117.2423,24.0637],[117.2415,24.0681],[117.2488,24.0713],[117.2472,24.0839],[117.2521,24.095],[117.2592,24.0946],[117.2643,24.1003],[117.2661,24.1097],[117.2627,24.1222],[117.2579,24.1323],[117.2603,24.1363],[117.2575,24.1433],[117.2591,24.1482],[117.2455,24.1643],[117.2415,24.1668],[117.2371,24.1767],[117.2321,24.1807],[117.2316,24.1928],[117.242,24.2019],[117.2536,24.2073],[117.2603,24.1998],[117.2759,24.2024],[117.2757,24.2185],[117.2802,24.2303],[117.2978,24.2209],[117.2996,24.2149],[117.3085,24.2147],[117.3112,24.2105],[117.3192,24.2084],[117.3239,24.2031],[117.3236,24.1973],[117.3357,24.1868],[117.345,24.169],[117.3396,24.1568],[117.3325,24.1579],[117.3351,24.1407],[117.333,24.1322],[117.3427,24.1169],[117.3442,24.1105],[117.3547,24.1113],[117.3647,24.1204],[117.3791,24.1204],[117.3845,24.1139],[117.4021,24.1165],[117.4095,24.1121],[117.4136,24.1061],[117.4156,24.0959],[117.4203,24.0919],[117.4413,24.1],[117.4409,24.1177],[117.4366,24.1292],[117.4385,24.1399],[117.4362,24.1535],[117.4394,24.1584],[117.4396,24.1685],[117.4307,24.19],[117.4293,24.2004],[117.4318,24.2037],[117.4286,24.2125],[117.4234,24.2153],[117.4223,24.2241],[117.4139,24.2333],[117.4166,24.2425],[117.4251,24.2435],[117.4348,24.2405],[117.4443,24.241],[117.4389,24.2502],[117.4398,24.2544],[117.4337,24.2682],[117.4368,24.2738],[117.4512,24.2775],[117.4604,24.2734],[117.4699,24.2766],[117.4781,24.2855],[117.478,24.2898],[117.4888,24.2987],[117.4987,24.2977],[117.5035,24.3066],[117.5113,24.314],[117.5076,24.3369],[117.5107,24.3437],[117.5087,24.3553],[117.4964,24.3585],[117.4934,24.3635],[117.4895,24.3898],[117.4929,24.3904],[117.495,24.4034],[117.5011,24.411],[117.5132,24.4123],[117.5172,24.4196],[117.5043,24.4251],[117.4998,24.4327],[117.5044,24.4404],[117.4993,24.4537],[117.5014,24.477],[117.4972,24.4799],[117.4986,24.4939],[117.5061,24.5016]]]},"properties":{"region_code":"CN-35-3506-350628","parent_region_code":"CN-35-3506","name":"平和县","level":"county","has_children":false,"full_path":"中国 / 福建省 / 漳州市 / 平和县","source_admin_code":"350628","osm_relation_id":3242117}},
{"type":"Feature","geometry":{"type":"Polygon","coordinates":[[[117.6985,24.6337],[117.7011,24.6383],[117.7093,24.6389],[117.6976,24.6553],[117.7084,24.6638],[117.7048,24.6761],[117.6924,24.6716],[117.684,24.6744],[117.6892,24.6838],[117.6901,24.6903],[117.6865,24.6977],[117.6712,24.6937],[117.6677,24.6879],[117.6604,24.6945],[117.6653,24.7044],[117.6763,24.7059],[117.6874,24.7113],[117.6856,24.7175],[117.6768,24.7205],[117.6697,24.738],[117.6547,24.7349],[117.6508,24.7404],[117.6394,24.7477],[117.6373,24.7565],[117.6303,24.7584],[117.6197,24.7766],[117.6085,24.7865],[117.6156,24.7921],[117.6151,24.7971],[117.6208,24.8037],[117.6173,24.8102],[117.6042,24.8232],[117.597,24.8269],[117.6027,24.8327],[117.6118,24.8342],[117.614,24.8394],[117.6202,24.8421],[117.6245,24.858],[117.6185,24.8653],[117.6193,24.8698],[117.6173,24.8835],[117.6133,24.8851],[117.6095,24.8956],[117.6115,24.9015],[117.6248,24.9135],[117.628,24.927],[117.6257,24.9298],[117.6165,24.9252],[117.6095,24.9326],[117.6014,24.9309],[117.6034,24.9388],[117.5985,24.9487],[117.5992,24.9534],[117.6075,24.9599],[117.6148,24.9708],[117.6238,24.9697],[117.6324,24.9739],[117.6413,24.9816],[117.6509,24.986],[117.649,24.9919],[117.6526,25.0007],[117.6653,25.0032],[117.6758,24.9984],[117.6809,24.9918],[117.687,24.9932],[117.694,24.9997],[117.6942,25.006],[117.7072,25.0082],[117.713,25.014],[117.7123,25.0204],[117.7227,25.0216],[117.7264,25.0279],[117.7325,25.0287],[117.7353,25.0371],[117.7219,25.0481],[117.7262,25.0537],[117.7216,25.0611],[117.7231,25.0697],[117.7172,25.082],[117.7011,25.0758],[117.689,25.0848],[117.6771,25.0847],[117.6764,25.0899],[117.6701,25.092],[117.6654,25.1041],[117.6675,25.1262],[117.6558,25.1349],[117.6296,25.1372],[117.6274,25.1446],[117.6203,25.1417],[117.6134,25.1529],[117.6185,25.1586],[117.6163,25.1648],[117.6,25.167],[117.5932,25.1757],[117.5782,25.1769],[117.5685,25.1858],[117.5702,25.1917],[117.5616,25.1929],[117.5574,25.1894],[117.5507,25.1952],[117.5542,25.2028],[117.5547,25.2148],[117.5388,25.2136],[117.5409,25.2026],[117.5358,25.1975],[117.5275,25.2027],[117.5242,25.186],[117.5157,25.1768],[117.5036,25.1796],[117.4895,25.176],[117.4907,25.1675],[117.4774,25.1681],[117.4844,25.1601],[117.4785,25.15],[117.4778,25.1372],[117.4702,25.1317],[117.4711,25.1251],[117.4815,25.1219],[117.5012,25.1102],[117.5016,25.0998],[117.5058,25.0955],[117.5062,25.0775],[117.5021,25.0715],[117.5077,25.0608],[117.5068,25.0529],[117.4975,25.0351],[117.4851,25.0284],[117.4913,25.0211],[117.487,25.0155],[117.4847,24.9976],[117.487,24.9869],[117.4852,24.9826],[117.487,24.9616],[117.4787,24.9577],[117.466,24.9622],[117.4536,24.9595],[117.4443,24.9629],[117.4381,24.9626],[117.4305,24.9675],[117.425,24.9784],[117.4113,24.9812],[117.3948,24.9864],[117.3865,24.9816],[117.3799,24.9883],[117.3653,24.9812],[117.3641,24.9771],[117.3544,24.9743],[117.3376,24.9848],[117.3288,24.9767],[117.3217,24.9763],[117.3144,24.9723],[117.3128,24.9687],[117.3022,24.9622],[117.3045,24.9585],[117.3,24.9526],[117.2902,24.9476],[117.2871,24.9419],[117.2744,24.9368],[117.2795,24.9314],[117.2952,24.9376],[117.3065,24.9279],[117.3208,24.9277],[117.3223,24.9124],[117.3161,24.9071],[117.3042,24.9022],[117.3102,24.892],[117.3072,24.8864],[117.3128,24.8793],[117.3156,24.8677],[117.331,24.8622],[117.3324,24.8586],[117.3471,24.8638],[117.3551,24.8411],[117.3672,24.8378],[117.3721,24.8307],[117.3876,24.8229],[117.3895,24.819],[117.392,24.8012],[117.3919,24.7863],[117.3882,24.7764],[117.3912,24.7731],[117.4032,24.7804],[117.4088,24.7715],[117.4363,24.7684],[117.4432,24.7562],[117.4423,24.7404],[117.4447,24.7343],[117.4544,24.7387],[117.4567,24.7334],[117.4693,24.7285],[117.4809,24.7276],[117.4826,24.7332],[117.4932,24.7364],[117.5008,24.7322],[117.5042,24.7227],[117.5105,24.723],[117.5141,24.7163],[117.5152,24.7049],[117.5123,24.6989],[117.5014,24.6868],[117.5045,24.6792],[117.5019,24.673],[117.5047,24.6673],[117.5115,24.6632],[117.5224,24.6623],[117.5348,24.6635],[117.5417,24.6568],[117.5519,24.6587],[117.5574,24.6559],[117.5741,24.6665],[117.5763,24.6728],[117.5934,24.6841],[117.6081,24.6959],[117.6122,24.7011],[117.6238,24.7008],[117.629,24.6816],[117.6294,24.6665],[117.6239,24.6543],[117.6288,24.6507],[117.6419,24.6509],[117.6493,24.6414],[117.6611,24.6385],[117.6781,24.6467],[117.6824,24.6451],[117.6888,24.635],[117.6985,24.6337]]]},"properties":{"region_code":"CN-35-3506-350629","parent_region_code":"CN-35-3506","name":"华安县","level":"county","has_children":false,"full_path":"中国 / 福建省 / 漳州市 / 华安县","source_admin_code":"350629","osm_relation_id":3242113}}
]}