{"type":"FeatureCollection", "features": [
{"type":"Feature","geometry":{"type":"Polygon","coordinates":[[[117.0439,36.6936],[117.038,36.6787],[117.0116,36.6769],[117.0099,36.6642],[117.0086,36.6365],[117.0352,36.6359],[117.0468,36.6261],[117.0611,36.6259],[117.0798,36.6019],[117.0946,36.6036],[117.0988,36.5935],[117.1124,36.5891],[117.1252,36.592],[117.1328,36.5982],[117.1294,36.6138],[117.1387,36.6226],[117.1279,36.6317],[117.1271,36.6395],[117.1361,36.6607],[117.148,36.6675],[117.161,36.6587],[117.1732,36.6586],[117.1721,36.6684],[117.1621,36.6831],[117.1636,36.6965],[117.1572,36.7017],[117.1451,36.6971],[117.136,36.7091],[117.1203,36.7071],[117.1063,36.7096],[117.0941,36.7062],[117.0942,36.694],[117.0845,36.6918],[117.0789,36.6737],[117.0726,36.6686],[117.0524,36.6692],[117.0439,36.6936]]]},"properties":{"region_code":"CN-37-3701-370102","parent_region_code":"CN-37-3701","name":"历下区","level":"county","has_children":false,"full_path":"中国 / 山东省 / 济南市 / 历下区","source_admin_code":"370102","osm_relation_id":5676877}},
{"type":"Feature","geometry":{"type":"Polygon","coordinates":[[[117.0099,36.6642],[116.9899,36.6688],[116.9818,36.6663],[116.9824,36.654],[116.976,36.6435],[116.9464,36.6353],[116.9451,36.6444],[116.9264,36.6465],[116.904,36.6446],[116.9136,36.6219],[116.8951,36.6179],[116.8748,36.6201],[116.8684,36.6292],[116.849,36.6281],[116.8322,36.6333],[116.8129,36.6179],[116.8122,36.6104],[116.8241,36.6066],[116.8372,36.5822],[116.8486,36.5828],[116.8614,36.5753],[116.8671,36.558],[116.8607,36.5535],[116.8648,36.5404],[116.8569,36.5277],[116.8723,36.5083],[116.8873,36.5015],[116.8953,36.4874],[116.9102,36.4915],[116.9282,36.4855],[116.9282,36.4959],[116.9374,36.4994],[116.945,36.5151],[116.9595,36.521],[116.974,36.5185],[116.9803,36.5324],[117.0103,36.5458],[117.0213,36.547],[117.0192,36.5602],[117.0304,36.5634],[117.0358,36.5733],[117.0477,36.5682],[117.0728,36.5723],[117.0808,36.5514],[117.0939,36.5396],[117.1208,36.5418],[117.145,36.5404],[117.1534,36.5451],[117.1528,36.5668],[117.1363,36.5671],[117.1328,36.5774],[117.1225,36.5851],[117.1252,36.592],[117.1124,36.5891],[117.0988,36.5935],[117.0946,36.6036],[117.0798,36.6019],[117.0611,36.6259],[117.0468,36.6261],[117.0352,36.6359],[117.0086,36.6365],[117.0099,36.6642]]]},"properties":{"region_code":"CN-37-3701-370103","parent_region_code":"CN-37-3701","name":"市中区","level":"county","has_children":false,"full_path":"中国 / 山东省 / 济南市 / 市中区","source_admin_code":"370103","osm_relation_id":5676878}},
{"type":"Feature","geometry":{"type":"Polygon","coordinates":[[[116.9818,36.6663],[116.9622,36.6651],[116.9473,36.6833],[116.9378,36.7107],[116.9192,36.7187],[116.926,36.7383],[116.914,36.7432],[116.881,36.7452],[116.8568,36.7298],[116.8284,36.7249],[116.7986,36.7084],[116.7953,36.6989],[116.8099,36.675],[116.7999,36.646],[116.8089,36.636],[116.8023,36.6284],[116.8129,36.6179],[116.8322,36.6333],[116.849,36.6281],[116.8684,36.6292],[116.8748,36.6201],[116.8951,36.6179],[116.9136,36.6219],[116.904,36.6446],[116.9264,36.6465],[116.9451,36.6444],[116.9464,36.6353],[116.976,36.6435],[116.9824,36.654],[116.9818,36.6663]]]},"properties":{"region_code":"CN-37-3701-370104","parent_region_code":"CN-37-3701","name":"槐荫区","level":"county","has_children":false,"full_path":"中国 / 山东省 / 济南市 / 槐荫区","source_admin_code":"370104","osm_relation_id":5676875}},
{"type":"Feature","geometry":{"type":"Polygon","coordinates":[[[117.0439,36.6936],[117.052,36.7069],[117.0379,36.7153],[117.0215,36.7174],[117.0224,36.7254],[117.0141,36.7428],[117.0264,36.7552],[117.0461,36.7567],[117.0696,36.7696],[117.0788,36.7812],[117.0621,36.7834],[117.0456,36.7995],[117.0567,36.8121],[117.0596,36.8621],[117.0359,36.8644],[117.0085,36.8519],[116.9779,36.8549],[116.9723,36.8633],[116.9548,36.8631],[116.9588,36.851],[116.956,36.8414],[116.9419,36.8406],[116.9309,36.8349],[116.9279,36.8237],[116.914,36.8226],[116.887,36.83],[116.8775,36.8259],[116.8838,36.8163],[116.8757,36.8097],[116.8657,36.8118],[116.8598,36.7947],[116.8585,36.7777],[116.8655,36.7596],[116.879,36.7581],[116.881,36.7452],[116.914,36.7432],[116.926,36.7383],[116.9192,36.7187],[116.9378,36.7107],[116.9473,36.6833],[116.9622,36.6651],[116.9818,36.6663],[116.9899,36.6688],[117.0099,36.6642],[117.0116,36.6769],[117.038,36.6787],[117.0439,36.6936]]]},"properties":{"region_code":"CN-37-3701-370105","parent_region_code":"CN-37-3701","name":"天桥区","level":"county","has_children":false,"full_path":"中国 / 山东省 / 济南市 / 天桥区","source_admin_code":"370105","osm_relation_id":5676879}},
{"type":"Feature","geometry":{"type":"Polygon","coordinates":[[[117.1252,36.592],[117.1225,36.5851],[117.1328,36.5774],[117.1363,36.5671],[117.1528,36.5668],[117.1534,36.5451],[117.145,36.5404],[117.1208,36.5418],[117.0939,36.5396],[117.0808,36.5514],[117.0728,36.5723],[117.0477,36.5682],[117.0358,36.5733],[117.0304,36.5634],[117.0192,36.5602],[117.0213,36.547],[117.0103,36.5458],[116.9803,36.5324],[116.974,36.5185],[116.9595,36.521],[116.945,36.5151],[116.9374,36.4994],[116.9282,36.4959],[116.9282,36.4855],[116.9334,36.4794],[116.9491,36.4738],[116.9583,36.4662],[116.9602,36.4429],[116.9842,36.4391],[117.0058,36.4215],[117.007,36.3979],[117.0135,36.3921],[117.0092,36.3829],[117.0093,36.3659],[117.0375,36.3642],[117.0565,36.3553],[117.0496,36.349],[117.0641,36.3413],[117.075,36.3304],[117.0835,36.3469],[117.0943,36.342],[117.1202,36.3385],[117.1273,36.3349],[117.1352,36.3464],[117.1603,36.3536],[117.1759,36.3533],[117.188,36.3822],[117.1969,36.3902],[117.202,36.4045],[117.237,36.4168],[117.2491,36.4391],[117.2739,36.4547],[117.2847,36.4736],[117.3005,36.472],[117.3063,36.4809],[117.3035,36.4922],[117.3261,36.5097],[117.3264,36.5167],[117.3142,36.5196],[117.3108,36.5378],[117.323,36.5506],[117.324,36.5609],[117.3366,36.5661],[117.3382,36.5732],[117.3502,36.5781],[117.3445,36.5933],[117.3596,36.6013],[117.3645,36.6115],[117.3493,36.6229],[117.3591,36.639],[117.3745,36.6458],[117.3687,36.6539],[117.3635,36.6782],[117.3549,36.6838],[117.3605,36.6958],[117.3569,36.7136],[117.3412,36.7142],[117.3308,36.7242],[117.3371,36.7409],[117.3344,36.7603],[117.3247,36.7684],[117.3199,36.8026],[117.3407,36.8073],[117.3406,36.8378],[117.3227,36.8553],[117.3219,36.8727],[117.3145,36.8824],[117.302,36.8787],[117.2603,36.8551],[117.2467,36.8648],[117.2314,36.8596],[117.2136,36.859],[117.201,36.864],[117.2,36.8933],[117.1885,36.8967],[117.1775,36.8926],[117.1643,36.8642],[117.1405,36.8527],[117.1405,36.8343],[117.1286,36.822],[117.1084,36.7915],[117.0838,36.7854],[117.0788,36.7812],[117.0696,36.7696],[117.0461,36.7567],[117.0264,36.7552],[117.0141,36.7428],[117.0224,36.7254],[117.0215,36.7174],[117.0379,36.7153],[117.052,36.7069],[117.0439,36.6936],[117.0524,36.6692],[117.0726,36.6686],[117.0789,36.6737],[117.0845,36.6918],[117.0942,36.694],[117.0941,36.7062],[117.1063,36.7096],[117.1203,36.7071],[117.136,36.7091],[117.1451,36.6971],[117.1572,36.7017],[117.1636,36.6965],[117.1621,36.6831],[117.1721,36.6684],[117.1732,36.6586],[117.161,36.6587],[117.148,36.6675],[117.1361,36.6607],[117.1271,36.6395],[117.1279,36.6317],[117.1387,36.6226],[117.1294,36.6138],[117.1328,36.5982],[117.1252,36.592]]]},"properties":{"region_code":"CN-37-3701-370112","parent_region_code":"CN-37-3701","name":"历城区","level":"county","has_children":false,"full_path":"中国 / 山东省 / 济南市 / 历城区","source_admin_code":"370112","osm_relation_id":5676876}},
{"type":"Feature","geometry":{"type":"Polygon","coordinates":[[[116.8129,36.6179],[116.8023,36.6284],[116.8089,36.636],[116.7999,36.646],[116.8099,36.675],[116.7953,36.6989],[116.791,36.6939],[116.7751,36.6928],[116.7743,36.6669],[116.7698,36.6585],[116.7572,36.6508],[116.7519,36.6294],[116.728,36.6157],[116.6875,36.6074],[116.6865,36.5865],[116.6531,36.5748],[116.6578,36.5644],[116.6547,36.5541],[116.6349,36.5429],[116.6255,36.5449],[116.6045,36.5167],[116.6214,36.509],[116.6222,36.4995],[116.5945,36.4939],[116.5882,36.4879],[116.5912,36.4786],[116.6063,36.4751],[116.6055,36.4596],[116.6159,36.4389],[116.6063,36.4238],[116.5801,36.416],[116.5434,36.4092],[116.5363,36.4063],[116.5249,36.3885],[116.5145,36.3853],[116.5274,36.3745],[116.5492,36.3697],[116.5348,36.3454],[116.5423,36.3318],[116.5547,36.328],[116.5662,36.335],[116.5735,36.3176],[116.5864,36.3156],[116.6147,36.2948],[116.6294,36.2947],[116.6454,36.2998],[116.6811,36.2752],[116.6958,36.2852],[116.7139,36.2794],[116.7248,36.2927],[116.7391,36.3038],[116.771,36.3175],[116.7975,36.3108],[116.8095,36.2962],[116.8251,36.2945],[116.8503,36.3016],[116.8502,36.2895],[116.8593,36.2841],[116.8684,36.2636],[116.8856,36.2556],[116.9011,36.2604],[116.9231,36.2715],[116.9269,36.2651],[116.945,36.2574],[116.9509,36.26],[116.9698,36.2427],[116.9817,36.2507],[116.9909,36.2513],[117.0004,36.2617],[117.0223,36.2698],[117.0508,36.2866],[117.0668,36.2883],[117.0724,36.3073],[117.0694,36.3138],[117.075,36.3304],[117.0641,36.3413],[117.0496,36.349],[117.0565,36.3553],[117.0375,36.3642],[117.0093,36.3659],[117.0092,36.3829],[117.0135,36.3921],[117.007,36.3979],[117.0058,36.4215],[116.9842,36.4391],[116.9602,36.4429],[116.9583,36.4662],[116.9491,36.4738],[116.9334,36.4794],[116.9282,36.4855],[116.9102,36.4915],[116.8953,36.4874],[116.8873,36.5015],[116.8723,36.5083],[116.8569,36.5277],[116.8648,36.5404],[116.8607,36.5535],[116.8671,36.558],[116.8614,36.5753],[116.8486,36.5828],[116.8372,36.5822],[116.8241,36.6066],[116.8122,36.6104],[116.8129,36.6179]]]},"properties":{"region_code":"CN-37-3701-370113","parent_region_code":"CN-37-3701","name":"长清区","level":"county","has_children":false,"full_path":"中国 / 山东省 / 济南市 / 长清区","source_admin_code":"370113","osm_relation_id":5676874}},
{"type":"Feature","geometry":{"type":"Polygon","coordinates":[[[117.3005,36.472],[117.3245,36.467],[117.3384,36.4718],[117.3499,36.4617],[117.3655,36.4434],[117.3782,36.4368],[117.3912,36.4424],[117.3947,36.4572],[117.409,36.471],[117.431,36.4741],[117.451,36.471],[117.4787,36.4797],[117.493,36.4964],[117.4965,36.5086],[117.5328,36.5063],[117.5748,36.5278],[117.5913,36.5426],[117.6078,36.5452],[117.6234,36.5539],[117.6485,36.5355],[117.6749,36.5258],[117.7102,36.5196],[117.7276,36.5265],[117.7437,36.5244],[117.7059,36.5601],[117.7002,36.5716],[117.7006,36.5885],[117.705,36.6146],[117.704,36.6338],[117.6939,36.6571],[117.6941,36.669],[117.7002,36.685],[117.7198,36.6895],[117.7115,36.6957],[117.7133,36.7057],[117.7331,36.7176],[117.7322,36.7327],[117.7374,36.7502],[117.7133,36.7558],[117.6882,36.7535],[117.6814,36.761],[117.6755,36.7778],[117.6485,36.8023],[117.6045,36.8179],[117.5874,36.8354],[117.5752,36.8516],[117.5716,36.8692],[117.5802,36.8908],[117.5644,36.9153],[117.5282,36.9302],[117.5325,36.9404],[117.5439,36.9333],[117.5585,36.9453],[117.559,36.9583],[117.5433,36.9619],[117.5521,36.9702],[117.5448,36.9797],[117.531,36.9787],[117.5176,36.9602],[117.4971,36.9702],[117.4655,36.9683],[117.4664,36.9591],[117.4138,36.9527],[117.4088,36.9608],[117.3962,36.953],[117.3805,36.9541],[117.3719,36.9638],[117.3692,36.9868],[117.3593,36.999],[117.3265,37.0087],[117.3107,37.0274],[117.3265,37.036],[117.3351,37.0694],[117.3067,37.0742],[117.2798,37.0531],[117.2426,37.0415],[117.2376,37.0345],[117.2438,36.9924],[117.241,36.9733],[117.234,36.9628],[117.2001,36.9364],[117.1759,36.909],[117.1775,36.8926],[117.1885,36.8967],[117.2,36.8933],[117.201,36.864],[117.2136,36.859],[117.2314,36.8596],[117.2467,36.8648],[117.2603,36.8551],[117.302,36.8787],[117.3145,36.8824],[117.3219,36.8727],[117.3227,36.8553],[117.3406,36.8378],[117.3407,36.8073],[117.3199,36.8026],[117.3247,36.7684],[117.3344,36.7603],[117.3371,36.7409],[117.3308,36.7242],[117.3412,36.7142],[117.3569,36.7136],[117.3605,36.6958],[117.3549,36.6838],[117.3635,36.6782],[117.3687,36.6539],[117.3745,36.6458],[117.3591,36.639],[117.3493,36.6229],[117.3645,36.6115],[117.3596,36.6013],[117.3445,36.5933],[117.3502,36.5781],[117.3382,36.5732],[117.3366,36.5661],[117.324,36.5609],[117.323,36.5506],[117.3108,36.5378],[117.3142,36.5196],[117.3264,36.5167],[117.3261,36.5097],[117.3035,36.4922],[117.3063,36.4809],[117.3005,36.472]]]},"properties":{"region_code":"CN-37-3701-370114","parent_region_code":"CN-37-3701","name":"章丘区","level":"county","has_children":false,"full_path":"中国 / 山东省 / 济南市 / 章丘区","source_admin_code":"370114","osm_relation_id":3486472}},
{"type":"Feature","geometry":{"type":"Polygon","coordinates":[[[117.0788,36.7812],[117.0838,36.7854],[117.1084,36.7915],[117.1286,36.822],[117.1405,36.8343],[117.1405,36.8527],[117.1643,36.8642],[117.1775,36.8926],[117.1759,36.909],[117.2001,36.9364],[117.234,36.9628],[117.241,36.9733],[117.2438,36.9924],[117.2376,37.0345],[117.2426,37.0415],[117.2798,37.0531],[117.3067,37.0742],[117.3351,37.0694],[117.3532,37.0672],[117.3686,37.0699],[117.3968,37.0874],[117.4327,37.0916],[117.454,37.108],[117.4476,37.1206],[117.4446,37.1515],[117.4334,37.1652],[117.4356,37.173],[117.4287,37.1931],[117.4126,37.1985],[117.3957,37.2239],[117.3923,37.2467],[117.3613,37.234],[117.3631,37.2276],[117.35,37.219],[117.359,37.2002],[117.3296,37.203],[117.3092,37.1885],[117.2811,37.1798],[117.2541,37.1743],[117.2197,37.1595],[117.2017,37.1363],[117.175,37.1296],[117.1574,37.129],[117.138,37.149],[117.1211,37.1477],[117.1099,37.1355],[117.1102,37.1292],[117.0563,37.1241],[117.0455,37.1131],[117.0362,37.1164],[117.0311,37.1213],[117.0175,37.1166],[117.0045,37.1278],[116.9873,37.1266],[116.982,37.1156],[116.9629,37.1094],[116.9536,37.1123],[116.9432,37.1036],[116.9169,37.1044],[116.9119,37.085],[116.912,37.0718],[116.9185,37.0688],[116.9246,37.0469],[116.9359,37.0403],[116.941,37.0305],[116.9044,37.0223],[116.8932,37.0072],[116.8729,36.9986],[116.8814,36.9816],[116.8943,36.9771],[116.8907,36.9642],[116.9048,36.9602],[116.9274,36.9602],[116.928,36.9543],[116.9169,36.9342],[116.9346,36.9226],[116.9532,36.9152],[116.9522,36.9015],[116.9583,36.8951],[116.9548,36.8631],[116.9723,36.8633],[116.9779,36.8549],[117.0085,36.8519],[117.0359,36.8644],[117.0596,36.8621],[117.0567,36.8121],[117.0456,36.7995],[117.0621,36.7834],[117.0788,36.7812]]]},"properties":{"region_code":"CN-37-3701-370115","parent_region_code":"CN-37-3701","name":"济阳区","level":"county","has_children":false,"full_path":"中国 / 山东省 / 济南市 / 济阳区","source_admin_code":"370115","osm_relation_id":3486471}},
{"type":"Feature","geometry":{"type":"Polygon","coordinates":[[[117.3499,36.4617],[117.3438,36.4568],[117.331,36.4347],[117.3406,36.4181],[117.3387,36.4003],[117.3447,36.3896],[117.3452,36.3771],[117.358,36.3593],[117.3855,36.3342],[117.386,36.3265],[117.3742,36.3166],[117.3812,36.3035],[117.382,36.2858],[117.393,36.2845],[117.3889,36.2661],[117.409,36.2678],[117.4126,36.2439],[117.3874,36.2375],[117.3873,36.2224],[117.4067,36.2107],[117.4227,36.222],[117.4422,36.218],[117.4471,36.2038],[117.4352,36.1914],[117.4576,36.17],[117.4699,36.1729],[117.4777,36.1686],[117.4828,36.1561],[117.4713,36.1506],[117.4543,36.1507],[117.4407,36.1201],[117.4498,36.1114],[117.4527,36.0898],[117.4715,36.0907],[117.4778,36.1013],[117.5001,36.098],[117.5248,36.111],[117.5369,36.1118],[117.5441,36.1065],[117.5482,36.0871],[117.5696,36.0753],[117.5909,36.0798],[117.6021,36.0702],[117.6112,36.0716],[117.6362,36.0564],[117.6671,36.0465],[117.679,36.0546],[117.6903,36.0497],[117.7076,36.0601],[117.7079,36.0679],[117.699,36.0742],[117.7009,36.0977],[117.6837,36.1167],[117.6963,36.135],[117.6898,36.151],[117.7039,36.1481],[117.7075,36.1562],[117.7383,36.1581],[117.7551,36.1478],[117.7618,36.1495],[117.7693,36.1693],[117.7544,36.1765],[117.7521,36.1833],[117.7585,36.1961],[117.7571,36.2033],[117.779,36.2242],[117.7923,36.2267],[117.8037,36.2337],[117.8032,36.2495],[117.8221,36.2742],[117.8311,36.2737],[117.8403,36.2869],[117.8496,36.2769],[117.8581,36.257],[117.8638,36.2561],[117.8888,36.2674],[117.9203,36.2728],[117.9225,36.2801],[117.926,36.2851],[117.9175,36.2997],[117.9193,36.3132],[117.9127,36.3178],[117.9293,36.3424],[117.9201,36.3509],[117.897,36.3522],[117.8767,36.3685],[117.8614,36.3866],[117.8534,36.3894],[117.85,36.4125],[117.823,36.419],[117.8214,36.428],[117.8272,36.4431],[117.8135,36.4423],[117.8062,36.4367],[117.7849,36.4413],[117.7502,36.4454],[117.7564,36.4624],[117.7507,36.4961],[117.737,36.4981],[117.7302,36.5051],[117.7506,36.5109],[117.7437,36.5244],[117.7276,36.5265],[117.7102,36.5196],[117.6749,36.5258],[117.6485,36.5355],[117.6234,36.5539],[117.6078,36.5452],[117.5913,36.5426],[117.5748,36.5278],[117.5328,36.5063],[117.4965,36.5086],[117.493,36.4964],[117.4787,36.4797],[117.451,36.471],[117.431,36.4741],[117.409,36.471],[117.3947,36.4572],[117.3912,36.4424],[117.3782,36.4368],[117.3655,36.4434],[117.3499,36.4617]]]},"properties":{"region_code":"CN-37-3701-370116","parent_region_code":"CN-37-3701","name":"莱芜区","level":"county","has_children":false,"full_path":"中国 / 山东省 / 济南市 / 莱芜区","source_admin_code":"370116","osm_relation_id":5676439}},
{"type":"Feature","geometry":{"type":"Polygon","coordinates":[[[117.6903,36.0497],[117.7285,36.0297],[117.7363,36.0368],[117.7493,36.0201],[117.7452,36.012],[117.7509,35.9921],[117.7663,35.9949],[117.7819,36.012],[117.7943,36.0162],[117.8227,36.0131],[117.8472,36.0066],[117.8665,36.0104],[117.873,36.0187],[117.9078,36.0209],[117.9182,36.0157],[117.9208,36.0052],[117.9416,36.0096],[117.9374,36.0241],[117.9419,36.0351],[117.9338,36.0558],[117.9241,36.0681],[117.9335,36.0765],[117.9354,36.0909],[117.9455,36.0985],[117.9416,36.1064],[117.9202,36.1095],[117.9111,36.1211],[117.9075,36.1323],[117.8975,36.1386],[117.8978,36.1528],[117.9106,36.1702],[117.9081,36.1806],[117.9131,36.1967],[117.9299,36.2033],[117.9512,36.2041],[117.9564,36.2079],[117.9598,36.2282],[117.9726,36.2623],[117.9673,36.2684],[117.9379,36.274],[117.9273,36.2718],[117.9225,36.2801],[117.9203,36.2728],[117.8888,36.2674],[117.8638,36.2561],[117.8581,36.257],[117.8496,36.2769],[117.8403,36.2869],[117.8311,36.2737],[117.8221,36.2742],[117.8032,36.2495],[117.8037,36.2337],[117.7923,36.2267],[117.779,36.2242],[117.7571,36.2033],[117.7585,36.1961],[117.7521,36.1833],[117.7544,36.1765],[117.7693,36.1693],[117.7618,36.1495],[117.7551,36.1478],[117.7383,36.1581],[117.7075,36.1562],[117.7039,36.1481],[117.6898,36.151],[117.6963,36.135],[117.6837,36.1167],[117.7009,36.0977],[117.699,36.0742],[117.7079,36.0679],[117.7076,36.0601],[117.6903,36.0497]]]},"properties":{"region_code":"CN-37-3701-370117","parent_region_code":"CN-37-3701","name":"钢城区","level":"county","has_children":false,"full_path":"中国 / 山东省 / 济南市 / 钢城区","source_admin_code":"370117","osm_relation_id":5676438}},
{"type":"Feature","geometry":{"type":"Polygon","coordinates":[[[116.5145,36.3853],[116.494,36.3748],[116.4901,36.3565],[116.4798,36.3485],[116.4742,36.338],[116.447,36.3422],[116.4417,36.3392],[116.4357,36.3214],[116.4229,36.3153],[116.4043,36.3224],[116.3961,36.3219],[116.3445,36.2977],[116.3263,36.2959],[116.3122,36.2816],[116.3036,36.263],[116.2833,36.2438],[116.2776,36.2321],[116.2245,36.178],[116.2234,36.1699],[116.2341,36.1608],[116.2534,36.1315],[116.2662,36.1161],[116.2557,36.101],[116.2594,36.0857],[116.2561,36.0654],[116.2678,36.0539],[116.2539,36.0482],[116.2869,36.0334],[116.3002,36.036],[116.3047,36.0535],[116.3341,36.059],[116.3488,36.0707],[116.3505,36.0814],[116.362,36.0862],[116.3907,36.0879],[116.3995,36.0698],[116.4127,36.0713],[116.4251,36.0661],[116.4239,36.0517],[116.4316,36.041],[116.4436,36.0472],[116.4536,36.0618],[116.5099,36.073],[116.5219,36.0708],[116.5355,36.0818],[116.5402,36.0912],[116.5379,36.1039],[116.5614,36.109],[116.5626,36.1184],[116.5523,36.1438],[116.5429,36.1447],[116.5311,36.1354],[116.5055,36.1482],[116.5168,36.1565],[116.5217,36.1762],[116.505,36.1791],[116.5038,36.1857],[116.4891,36.1962],[116.4748,36.1973],[116.4668,36.2141],[116.4794,36.223],[116.4803,36.235],[116.5008,36.2401],[116.5073,36.2545],[116.5219,36.2545],[116.5309,36.2456],[116.5445,36.2516],[116.5576,36.2628],[116.5692,36.2635],[116.592,36.2715],[116.6053,36.2921],[116.6147,36.2948],[116.5864,36.3156],[116.5735,36.3176],[116.5662,36.335],[116.5547,36.328],[116.5423,36.3318],[116.5348,36.3454],[116.5492,36.3697],[116.5274,36.3745],[116.5145,36.3853]]]},"properties":{"region_code":"CN-37-3701-370124","parent_region_code":"CN-37-3701","name":"平阴县","level":"county","has_children":false,"full_path":"中国 / 山东省 / 济南市 / 平阴县","source_admin_code":"370124","osm_relation_id":3486452}},
{"type":"Feature","geometry":{"type":"Polygon","coordinates":[[[117.3957,37.2239],[117.4036,37.2396],[117.416,37.239],[117.422,37.2534],[117.4319,37.2571],[117.4261,37.2712],[117.4224,37.2941],[117.4168,37.3071],[117.3995,37.3173],[117.3998,37.33],[117.4079,37.3345],[117.4024,37.3574],[117.4015,37.3744],[117.3915,37.3743],[117.3834,37.3874],[117.3697,37.3898],[117.3566,37.3968],[117.3636,37.4293],[117.3545,37.4448],[117.34,37.4549],[117.3215,37.4544],[117.3221,37.4486],[117.2955,37.4498],[117.2901,37.4625],[117.2762,37.4679],[117.2802,37.4858],[117.3138,37.4869],[117.3134,37.504],[117.298,37.5079],[117.2811,37.5065],[117.2774,37.5219],[117.2565,37.5284],[117.2423,37.5281],[117.2259,37.5339],[117.2213,37.5142],[117.2077,37.5092],[117.2078,37.5015],[117.194,37.497],[117.1884,37.4871],[117.1609,37.4846],[117.1459,37.4722],[117.1207,37.479],[117.0915,37.4697],[117.0944,37.4384],[117.068,37.4283],[117.0516,37.4252],[117.0362,37.436],[117.018,37.4392],[117.0078,37.4233],[117.0079,37.4123],[117.0206,37.3978],[116.9926,37.3927],[116.9949,37.38],[117.0021,37.3712],[117.0007,37.3543],[116.9865,37.3484],[116.9774,37.3281],[116.9859,37.3233],[116.9867,37.2955],[116.995,37.2936],[116.9961,37.28],[117.0238,37.275],[117.0263,37.2525],[117.0353,37.2468],[117.0297,37.2229],[117.0162,37.2142],[117.0318,37.2066],[117.0363,37.1965],[117.0513,37.1914],[117.0574,37.1821],[117.055,37.1635],[117.0444,37.161],[117.0486,37.141],[117.0379,37.1309],[117.0362,37.1164],[117.0455,37.1131],[117.0563,37.1241],[117.1102,37.1292],[117.1099,37.1355],[117.1211,37.1477],[117.138,37.149],[117.1574,37.129],[117.175,37.1296],[117.2017,37.1363],[117.2197,37.1595],[117.2541,37.1743],[117.2811,37.1798],[117.3092,37.1885],[117.3296,37.203],[117.359,37.2002],[117.35,37.219],[117.3631,37.2276],[117.3613,37.234],[117.3923,37.2467],[117.3957,37.2239]]]},"properties":{"region_code":"CN-37-3701-370126","parent_region_code":"CN-37-3701","name":"商河县","level":"county","has_children":false,"full_path":"中国 / 山东省 / 济南市 / 商河县","source_admin_code":"370126","osm_relation_id":3486470}}
]}