{"type":"FeatureCollection", "features": [
{"type":"Feature","geometry":{"type":"Polygon","coordinates":[[[118.0634,24.4801],[118.0594,24.4668],[118.0488,24.4525],[118.047,24.4457],[118.0478,24.4252],[118.0597,24.424],[118.0865,24.409],[118.103,24.4025],[118.1198,24.3843],[118.1317,24.3822],[118.1469,24.41],[118.1923,24.435],[118.1974,24.4375],[118.2063,24.4519],[118.2317,24.4781],[118.2594,24.4954],[118.2446,24.499],[118.2018,24.5022],[118.1951,24.5062],[118.1897,24.5007],[118.1814,24.5],[118.1748,24.4949],[118.1613,24.4885],[118.1557,24.4848],[118.1497,24.4854],[118.1435,24.4831],[118.1391,24.4834],[118.1409,24.4925],[118.1342,24.4949],[118.1231,24.4933],[118.1206,24.5055],[118.1156,24.502],[118.1051,24.5002],[118.1007,24.495],[118.0988,24.4988],[118.0946,24.4988],[118.0881,24.495],[118.0848,24.484],[118.0785,24.4839],[118.0728,24.4795],[118.0634,24.4801]]]},"properties":{"region_code":"CN-35-3502-350203","parent_region_code":"CN-35-3502","name":"思明区","level":"county","has_children":false,"full_path":"中国 / 福建省 / 厦门市 / 思明区","source_admin_code":"350203","osm_relation_id":3243085}},
{"type":"Feature","geometry":{"type":"Polygon","coordinates":[[[118.0634,24.4801],[118.0668,24.4921],[118.0794,24.5295],[118.0688,24.5335],[118.0639,24.5377],[118.0498,24.5429],[118.0302,24.5457],[117.9821,24.5536],[117.9842,24.5693],[117.9784,24.5722],[117.9738,24.5765],[117.973,24.5803],[117.9681,24.5838],[117.9571,24.5856],[117.9503,24.5956],[117.9482,24.603],[117.9448,24.606],[117.9427,24.6153],[117.9469,24.6177],[117.9458,24.6292],[117.9503,24.6291],[117.9479,24.6398],[117.9414,24.6427],[117.9388,24.6465],[117.9368,24.642],[117.9279,24.6383],[117.9233,24.6322],[117.9199,24.6225],[117.9158,24.6166],[117.8986,24.6164],[117.8883,24.6178],[117.8858,24.6074],[117.8887,24.6032],[117.8841,24.591],[117.8876,24.5904],[117.9003,24.5784],[117.9054,24.5781],[117.9091,24.5703],[117.9051,24.5672],[117.9028,24.5583],[117.9064,24.554],[117.9077,24.5391],[117.9128,24.5347],[117.9191,24.5355],[117.9274,24.5316],[117.9325,24.5247],[117.9311,24.5195],[117.9335,24.516],[117.9444,24.5139],[117.9437,24.5109],[117.9471,24.5067],[117.9547,24.5002],[117.9589,24.4936],[117.9566,24.4806],[117.9516,24.4743],[117.9512,24.4686],[117.9481,24.4599],[117.9475,24.4445],[117.9836,24.4294],[118.0478,24.4252],[118.047,24.4457],[118.0488,24.4525],[118.0594,24.4668],[118.0634,24.4801]]]},"properties":{"region_code":"CN-35-3502-350205","parent_region_code":"CN-35-3502","name":"海沧区","level":"county","has_children":false,"full_path":"中国 / 福建省 / 厦门市 / 海沧区","source_admin_code":"350205","osm_relation_id":3243082}},
{"type":"Feature","geometry":{"type":"Polygon","coordinates":[[[118.2594,24.4954],[118.1886,24.5492],[118.1736,24.5581],[118.153,24.581],[118.1411,24.5664],[118.1314,24.565],[118.1197,24.5654],[118.1108,24.5632],[118.0903,24.5488],[118.0794,24.5295],[118.0668,24.4921],[118.0634,24.4801],[118.0728,24.4795],[118.0785,24.4839],[118.0848,24.484],[118.0881,24.495],[118.0946,24.4988],[118.0988,24.4988],[118.1007,24.495],[118.1051,24.5002],[118.1156,24.502],[118.1206,24.5055],[118.1231,24.4933],[118.1342,24.4949],[118.1409,24.4925],[118.1391,24.4834],[118.1435,24.4831],[118.1497,24.4854],[118.1557,24.4848],[118.1613,24.4885],[118.1748,24.4949],[118.1814,24.5],[118.1897,24.5007],[118.1951,24.5062],[118.2018,24.5022],[118.2446,24.499],[118.2594,24.4954]]]},"properties":{"region_code":"CN-35-3502-350206","parent_region_code":"CN-35-3502","name":"湖里区","level":"county","has_children":false,"full_path":"中国 / 福建省 / 厦门市 / 湖里区","source_admin_code":"350206","osm_relation_id":3243083}},
{"type":"Feature","geometry":{"type":"Polygon","coordinates":[[[118.0794,24.5295],[118.0903,24.5488],[118.1108,24.5632],[118.1197,24.5654],[118.1314,24.565],[118.1411,24.5664],[118.1289,24.5942],[118.1207,24.6043],[118.1178,24.6104],[118.1206,24.616],[118.1206,24.6248],[118.1184,24.6297],[118.1126,24.6298],[118.1106,24.6342],[118.1,24.6362],[118.0964,24.6403],[118.0858,24.6462],[118.0831,24.6573],[118.086,24.6599],[118.081,24.6645],[118.0772,24.6633],[118.0716,24.6671],[118.0556,24.6665],[118.0436,24.6764],[118.044,24.6815],[118.0399,24.6883],[118.0316,24.694],[118.0317,24.6988],[118.0222,24.7062],[118.0239,24.712],[118.0284,24.7151],[118.0211,24.7251],[118.017,24.7282],[118.0079,24.7301],[118.0044,24.7412],[117.9922,24.7402],[117.9859,24.7356],[117.9808,24.7403],[117.9814,24.7455],[117.9753,24.7498],[117.9648,24.7482],[117.9548,24.7412],[117.9522,24.7456],[117.9406,24.7544],[117.936,24.7455],[117.9361,24.7361],[117.9421,24.7204],[117.9423,24.7157],[117.9513,24.7072],[117.9494,24.7028],[117.9536,24.6976],[117.9561,24.6902],[117.9598,24.6839],[117.9609,24.676],[117.9571,24.6706],[117.9611,24.665],[117.9557,24.6603],[117.9509,24.6582],[117.9486,24.6508],[117.9433,24.6496],[117.9388,24.6465],[117.9414,24.6427],[117.9479,24.6398],[117.9503,24.6291],[117.9458,24.6292],[117.9469,24.6177],[117.9427,24.6153],[117.9448,24.606],[117.9482,24.603],[117.9503,24.5956],[117.9571,24.5856],[117.9681,24.5838],[117.973,24.5803],[117.9738,24.5765],[117.9784,24.5722],[117.9842,24.5693],[117.9821,24.5536],[118.0302,24.5457],[118.0498,24.5429],[118.0639,24.5377],[118.0688,24.5335],[118.0794,24.5295]]]},"properties":{"region_code":"CN-35-3502-350211","parent_region_code":"CN-35-3502","name":"集美区","level":"county","has_children":false,"full_path":"中国 / 福建省 / 厦门市 / 集美区","source_admin_code":"350211","osm_relation_id":3243084}},
{"type":"Feature","geometry":{"type":"Polygon","coordinates":[[[118.153,24.581],[118.1564,24.5908],[118.1628,24.6171],[118.1671,24.6232],[118.173,24.6283],[118.1849,24.6431],[118.1841,24.6606],[118.1893,24.6687],[118.1894,24.6755],[118.1993,24.6834],[118.2027,24.6897],[118.2084,24.6951],[118.2141,24.6897],[118.2219,24.7001],[118.2284,24.7004],[118.2328,24.696],[118.2337,24.7027],[118.2319,24.7075],[118.238,24.7196],[118.2438,24.7182],[118.2473,24.7211],[118.2414,24.7315],[118.2275,24.7324],[118.2225,24.7382],[118.2295,24.7421],[118.2308,24.7518],[118.234,24.7538],[118.2336,24.7592],[118.2442,24.7603],[118.2508,24.7598],[118.2524,24.7645],[118.2566,24.7669],[118.2586,24.7719],[118.2514,24.7793],[118.2509,24.7868],[118.2572,24.7919],[118.2564,24.8113],[118.2445,24.8169],[118.2415,24.821],[118.2349,24.8218],[118.2303,24.8204],[118.2253,24.8233],[118.2243,24.8318],[118.2184,24.8426],[118.2201,24.852],[118.2092,24.8606],[118.2043,24.8626],[118.2037,24.8659],[118.1987,24.8662],[118.1917,24.8698],[118.1876,24.8736],[118.1898,24.8795],[118.1949,24.8843],[118.1986,24.8843],[118.1895,24.8957],[118.1854,24.8944],[118.1799,24.8954],[118.1726,24.8945],[118.1706,24.8978],[118.1655,24.9007],[118.1564,24.9006],[118.1499,24.8951],[118.1437,24.8947],[118.1332,24.8972],[118.1196,24.8907],[118.1099,24.8811],[118.1072,24.877],[118.0913,24.8747],[118.0879,24.8713],[118.0784,24.8656],[118.0714,24.8564],[118.0681,24.8579],[118.0654,24.8645],[118.068,24.8684],[118.0668,24.8715],[118.0688,24.8776],[118.0605,24.8786],[118.0556,24.8697],[118.0519,24.8699],[118.0456,24.8741],[118.046,24.8808],[118.0369,24.8848],[118.0343,24.8938],[118.0379,24.896],[118.0339,24.9022],[118.0271,24.9013],[118.0216,24.9047],[118.0174,24.9045],[118.0124,24.9073],[118.0102,24.9016],[118.012,24.8959],[118.004,24.8958],[117.9992,24.8983],[117.996,24.9028],[117.989,24.9038],[117.9857,24.8975],[117.997,24.8921],[118.0017,24.8931],[118.0118,24.8803],[118.0063,24.8776],[117.9996,24.8799],[117.9982,24.8823],[117.9923,24.8813],[117.9867,24.8753],[117.9869,24.8716],[117.9924,24.8657],[117.9931,24.8623],[117.9852,24.8604],[117.9737,24.854],[117.9688,24.8542],[117.961,24.8578],[117.9585,24.8621],[117.9577,24.8688],[117.9494,24.8747],[117.9417,24.8736],[117.9306,24.8698],[117.9276,24.8766],[117.9225,24.879],[117.9178,24.8838],[117.9132,24.8829],[117.9096,24.8767],[117.9099,24.8725],[117.9175,24.8663],[117.9226,24.865],[117.9286,24.8598],[117.9289,24.8568],[117.9398,24.844],[117.9426,24.8475],[117.953,24.8489],[117.9571,24.8473],[117.9555,24.8304],[117.9542,24.8274],[117.9569,24.8227],[117.954,24.8139],[117.9553,24.8015],[117.9579,24.7985],[117.9553,24.7918],[117.9549,24.7825],[117.949,24.7736],[117.9471,24.7673],[117.9418,24.7633],[117.9406,24.7544],[117.9522,24.7456],[117.9548,24.7412],[117.9648,24.7482],[117.9753,24.7498],[117.9814,24.7455],[117.9808,24.7403],[117.9859,24.7356],[117.9922,24.7402],[118.0044,24.7412],[118.0079,24.7301],[118.017,24.7282],[118.0211,24.7251],[118.0284,24.7151],[118.0239,24.712],[118.0222,24.7062],[118.0317,24.6988],[118.0316,24.694],[118.0399,24.6883],[118.044,24.6815],[118.0436,24.6764],[118.0556,24.6665],[118.0716,24.6671],[118.0772,24.6633],[118.081,24.6645],[118.086,24.6599],[118.0831,24.6573],[118.0858,24.6462],[118.0964,24.6403],[118.1,24.6362],[118.1106,24.6342],[118.1126,24.6298],[118.1184,24.6297],[118.1206,24.6248],[118.1206,24.616],[118.1178,24.6104],[118.1207,24.6043],[118.1289,24.5942],[118.1411,24.5664],[118.153,24.581]]]},"properties":{"region_code":"CN-35-3502-350212","parent_region_code":"CN-35-3502","name":"同安区","level":"county","has_children":false,"full_path":"中国 / 福建省 / 厦门市 / 同安区","source_admin_code":"350212","osm_relation_id":3243086}},
{"type":"Feature","geometry":{"type":"Polygon","coordinates":[[[118.2594,24.4954],[118.2753,24.5053],[118.3308,24.5089],[118.3844,24.5319],[118.4053,24.5428],[118.4494,24.5286],[118.4351,24.5614],[118.3758,24.5709],[118.3586,24.5708],[118.3476,24.5746],[118.3497,24.5823],[118.3489,24.5867],[118.3393,24.5925],[118.3362,24.5989],[118.3383,24.6063],[118.3273,24.6004],[118.3242,24.6024],[118.326,24.6106],[118.3298,24.6099],[118.3322,24.6172],[118.3382,24.6208],[118.3389,24.6259],[118.3424,24.6302],[118.3429,24.6342],[118.3387,24.6435],[118.343,24.6506],[118.3467,24.6518],[118.3464,24.6635],[118.3454,24.6694],[118.3386,24.6731],[118.3327,24.6779],[118.3359,24.6842],[118.319,24.6926],[118.3153,24.698],[118.318,24.7012],[118.3248,24.714],[118.3331,24.7222],[118.331,24.7299],[118.327,24.7347],[118.3226,24.7329],[118.313,24.7415],[118.3149,24.7438],[118.3104,24.7499],[118.3149,24.7545],[118.3193,24.753],[118.3238,24.7567],[118.3296,24.7559],[118.3317,24.7626],[118.3325,24.7745],[118.3395,24.7752],[118.3377,24.7835],[118.3323,24.7835],[118.3295,24.7777],[118.3197,24.7837],[118.3226,24.7948],[118.319,24.7963],[118.3213,24.8011],[118.3139,24.8028],[118.3108,24.8094],[118.304,24.8122],[118.3043,24.8147],[118.2956,24.8211],[118.2987,24.8283],[118.2912,24.832],[118.2821,24.8337],[118.2783,24.8363],[118.2703,24.8333],[118.2684,24.835],[118.262,24.8291],[118.258,24.8275],[118.2543,24.83],[118.25,24.8293],[118.2483,24.8336],[118.2448,24.8357],[118.2403,24.8329],[118.2394,24.8282],[118.2348,24.8255],[118.2267,24.8283],[118.2243,24.8318],[118.2253,24.8233],[118.2303,24.8204],[118.2349,24.8218],[118.2415,24.821],[118.2445,24.8169],[118.2564,24.8113],[118.2572,24.7919],[118.2509,24.7868],[118.2514,24.7793],[118.2586,24.7719],[118.2566,24.7669],[118.2524,24.7645],[118.2508,24.7598],[118.2442,24.7603],[118.2336,24.7592],[118.234,24.7538],[118.2308,24.7518],[118.2295,24.7421],[118.2225,24.7382],[118.2275,24.7324],[118.2414,24.7315],[118.2473,24.7211],[118.2438,24.7182],[118.238,24.7196],[118.2319,24.7075],[118.2337,24.7027],[118.2328,24.696],[118.2284,24.7004],[118.2219,24.7001],[118.2141,24.6897],[118.2084,24.6951],[118.2027,24.6897],[118.1993,24.6834],[118.1894,24.6755],[118.1893,24.6687],[118.1841,24.6606],[118.1849,24.6431],[118.173,24.6283],[118.1671,24.6232],[118.1628,24.6171],[118.1564,24.5908],[118.153,24.581],[118.1736,24.5581],[118.1886,24.5492],[118.2594,24.4954]]]},"properties":{"region_code":"CN-35-3502-350213","parent_region_code":"CN-35-3502","name":"翔安区","level":"county","has_children":false,"full_path":"中国 / 福建省 / 厦门市 / 翔安区","source_admin_code":"350213","osm_relation_id":3243087}}
]}