{"type":"FeatureCollection", "features": [
{"type":"Feature","geometry":{"type":"Polygon","coordinates":[[[117.195,30.4721],[117.182,30.4604],[117.185,30.4347],[117.1706,30.4335],[117.1489,30.4424],[117.1371,30.4341],[117.1312,30.4144],[117.108,30.3974],[117.1131,30.3835],[117.1435,30.3811],[117.1674,30.3833],[117.1755,30.3743],[117.1636,30.3632],[117.162,30.3515],[117.177,30.3319],[117.1777,30.3002],[117.1834,30.2931],[117.2097,30.2994],[117.2227,30.2992],[117.2281,30.2866],[117.2469,30.2867],[117.2608,30.28],[117.2725,30.2897],[117.2686,30.3021],[117.3007,30.3216],[117.3157,30.3184],[117.327,30.2976],[117.346,30.3031],[117.3542,30.2901],[117.3663,30.2938],[117.3851,30.3112],[117.4011,30.3104],[117.412,30.3027],[117.429,30.2989],[117.4426,30.3054],[117.4457,30.3159],[117.4558,30.3268],[117.4668,30.3289],[117.4818,30.3407],[117.4911,30.3362],[117.4864,30.3199],[117.4948,30.3152],[117.4998,30.2941],[117.5094,30.2839],[117.528,30.2801],[117.534,30.2856],[117.5646,30.2964],[117.5882,30.279],[117.6293,30.2833],[117.6362,30.2727],[117.6467,30.2719],[117.6541,30.2615],[117.6678,30.2529],[117.6801,30.257],[117.6761,30.2742],[117.6674,30.2762],[117.673,30.2902],[117.6624,30.2993],[117.6845,30.3101],[117.6974,30.3319],[117.7131,30.322],[117.7294,30.3196],[117.74,30.3254],[117.7554,30.3261],[117.7755,30.3422],[117.7838,30.3591],[117.7788,30.3725],[117.7857,30.3882],[117.788,30.4124],[117.7832,30.4223],[117.7921,30.4304],[117.7895,30.453],[117.7617,30.4616],[117.7396,30.4757],[117.7314,30.4724],[117.7139,30.479],[117.7007,30.4945],[117.7026,30.5032],[117.678,30.5336],[117.6787,30.5506],[117.7204,30.5796],[117.7346,30.5971],[117.7453,30.6021],[117.745,30.6177],[117.7565,30.6335],[117.7782,30.6409],[117.7884,30.6332],[117.8029,30.6411],[117.8324,30.6813],[117.8281,30.6983],[117.8203,30.7067],[117.8034,30.7101],[117.7911,30.721],[117.7989,30.7307],[117.7971,30.7581],[117.7907,30.7515],[117.7791,30.7519],[117.7765,30.7663],[117.7526,30.7645],[117.7538,30.7756],[117.746,30.7816],[117.7531,30.7964],[117.7495,30.806],[117.7383,30.81],[117.7193,30.7959],[117.6982,30.7882],[117.6959,30.8067],[117.6783,30.7963],[117.6679,30.7855],[117.6079,30.7706],[117.5477,30.7482],[117.5131,30.73],[117.4982,30.7242],[117.4934,30.707],[117.4809,30.6887],[117.4581,30.6795],[117.3871,30.6893],[117.3678,30.6967],[117.342,30.6913],[117.3046,30.6777],[117.2745,30.6615],[117.236,30.644],[117.2213,30.6305],[117.2225,30.6132],[117.2426,30.5917],[117.2469,30.5664],[117.2289,30.4998],[117.2137,30.4812],[117.195,30.4721]],[[117.3069,30.4969],[117.3199,30.4959],[117.3241,30.4758],[117.3161,30.4635],[117.3091,30.464],[117.3037,30.449],[117.2715,30.4309],[117.2627,30.4228],[117.2499,30.4253],[117.2596,30.4419],[117.2526,30.4492],[117.2581,30.4652],[117.2782,30.4722],[117.2965,30.4941],[117.3069,30.4969]]]},"properties":{"region_code":"CN-34-3417-341702","parent_region_code":"CN-34-3417","name":"贵池区","level":"county","has_children":false,"full_path":"中国 / 安徽省 / 池州市 / 贵池区","source_admin_code":"341702","osm_relation_id":3164667}},
{"type":"Feature","geometry":{"type":"Polygon","coordinates":[[[117.195,30.4721],[117.1828,30.4709],[117.1576,30.4794],[117.1243,30.4973],[117.0632,30.4989],[117.0202,30.4956],[117.0064,30.4894],[116.9678,30.4584],[116.9408,30.4439],[116.9257,30.4415],[116.9099,30.4285],[116.8981,30.441],[116.8862,30.4291],[116.8834,30.4038],[116.8924,30.3726],[116.9059,30.3345],[116.9277,30.2955],[116.9216,30.2676],[116.9101,30.2521],[116.9009,30.2256],[116.879,30.2054],[116.8746,30.1882],[116.8593,30.1805],[116.8469,30.1628],[116.8396,30.1432],[116.8205,30.1225],[116.8133,30.1195],[116.7868,30.0977],[116.7736,30.0813],[116.7424,30.0594],[116.7695,30.0438],[116.7836,30.0169],[116.7968,29.9989],[116.8172,30.0055],[116.8249,29.9917],[116.8216,29.9795],[116.8304,29.9733],[116.8484,29.9739],[116.864,29.9841],[116.8914,29.9713],[116.8995,29.951],[116.8897,29.9418],[116.8868,29.9253],[116.8913,29.9137],[116.881,29.9081],[116.8806,29.8975],[116.8709,29.885],[116.8504,29.8669],[116.8415,29.8508],[116.8172,29.8371],[116.8236,29.8274],[116.8158,29.8182],[116.8041,29.8195],[116.7826,29.7942],[116.7573,29.8081],[116.7398,29.7934],[116.7355,29.7775],[116.7216,29.7757],[116.7041,29.7462],[116.6831,29.743],[116.6622,29.703],[116.6506,29.704],[116.6473,29.6907],[116.6685,29.6912],[116.6839,29.6761],[116.6545,29.6615],[116.6454,29.646],[116.6777,29.6192],[116.6859,29.6047],[116.7114,29.5933],[116.7159,29.5789],[116.7331,29.5848],[116.7334,29.5944],[116.752,29.5971],[116.7554,29.6053],[116.7822,29.5948],[116.7744,29.5782],[116.7944,29.5651],[116.8303,29.5716],[116.8429,29.579],[116.8536,29.5989],[116.8659,29.6035],[116.8755,29.6197],[116.8939,29.6267],[116.9191,29.6413],[116.9272,29.65],[116.9433,29.6541],[116.9721,29.6539],[116.9715,29.6647],[116.9909,29.6859],[117.0136,29.6896],[117.0305,29.6828],[117.046,29.6921],[117.0595,29.692],[117.0694,29.7009],[117.0848,29.6996],[117.0891,29.708],[117.1073,29.7091],[117.1151,29.7277],[117.1069,29.7539],[117.1127,29.7643],[117.1279,29.7732],[117.1337,29.7859],[117.1211,29.7947],[117.1187,29.8029],[117.1017,29.8044],[117.0666,29.8308],[117.0763,29.8403],[117.085,29.8393],[117.0973,29.8542],[117.1234,29.8645],[117.128,29.8837],[117.1199,29.8935],[117.1248,29.906],[117.157,29.9236],[117.1955,29.9272],[117.2054,29.9417],[117.2008,29.9475],[117.1983,29.972],[117.207,29.9838],[117.2439,29.983],[117.2493,29.9897],[117.2684,29.9993],[117.2735,30.0097],[117.2617,30.021],[117.2651,30.0338],[117.2591,30.0381],[117.2636,30.0543],[117.2742,30.0628],[117.27,30.0728],[117.2848,30.0943],[117.302,30.1056],[117.2787,30.1336],[117.285,30.1488],[117.2922,30.1519],[117.2926,30.1638],[117.2991,30.1738],[117.2947,30.1853],[117.2849,30.1951],[117.2635,30.2071],[117.2465,30.2027],[117.2342,30.2065],[117.2302,30.2165],[117.2287,30.2369],[117.209,30.2551],[117.2136,30.2628],[117.2416,30.2711],[117.2572,30.2727],[117.2608,30.28],[117.2469,30.2867],[117.2281,30.2866],[117.2227,30.2992],[117.2097,30.2994],[117.1834,30.2931],[117.1777,30.3002],[117.177,30.3319],[117.162,30.3515],[117.1636,30.3632],[117.1755,30.3743],[117.1674,30.3833],[117.1435,30.3811],[117.1131,30.3835],[117.108,30.3974],[117.1312,30.4144],[117.1371,30.4341],[117.1489,30.4424],[117.1706,30.4335],[117.185,30.4347],[117.182,30.4604],[117.195,30.4721]]]},"properties":{"region_code":"CN-34-3417-341721","parent_region_code":"CN-34-3417","name":"东至县","level":"county","has_children":false,"full_path":"中国 / 安徽省 / 池州市 / 东至县","source_admin_code":"341721","osm_relation_id":3164666}},
{"type":"Feature","geometry":{"type":"Polygon","coordinates":[[[117.2608,30.28],[117.2572,30.2727],[117.2416,30.2711],[117.2136,30.2628],[117.209,30.2551],[117.2287,30.2369],[117.2302,30.2165],[117.2342,30.2065],[117.2465,30.2027],[117.2635,30.2071],[117.2849,30.1951],[117.2947,30.1853],[117.2991,30.1738],[117.2926,30.1638],[117.2922,30.1519],[117.285,30.1488],[117.2787,30.1336],[117.302,30.1056],[117.2848,30.0943],[117.27,30.0728],[117.2742,30.0628],[117.2636,30.0543],[117.2591,30.0381],[117.2651,30.0338],[117.2617,30.021],[117.2735,30.0097],[117.2684,29.9993],[117.2794,29.9943],[117.2947,30.0014],[117.3142,30.0039],[117.3504,30.0155],[117.3761,30.0081],[117.3828,30.011],[117.3858,30.033],[117.4074,30.034],[117.4201,30.0255],[117.4338,30.0235],[117.4463,30.0275],[117.4565,30.0453],[117.4651,30.0385],[117.4762,30.0406],[117.4851,30.0342],[117.501,30.0378],[117.5291,30.0515],[117.5341,30.0583],[117.5307,30.0791],[117.5362,30.0882],[117.525,30.0918],[117.5238,30.1023],[117.5387,30.1095],[117.5498,30.1033],[117.5457,30.0952],[117.5647,30.093],[117.5635,30.1101],[117.5676,30.1184],[117.5797,30.1207],[117.5946,30.1325],[117.6073,30.1308],[117.6102,30.1144],[117.63,30.1024],[117.6409,30.1171],[117.6506,30.1181],[117.6654,30.1112],[117.6936,30.146],[117.7265,30.1548],[117.749,30.1569],[117.7641,30.1621],[117.7773,30.1566],[117.7903,30.1707],[117.8136,30.1871],[117.8224,30.1821],[117.8414,30.1953],[117.8495,30.1961],[117.8564,30.2122],[117.8497,30.2225],[117.8194,30.2266],[117.8187,30.2416],[117.8327,30.2514],[117.8448,30.2648],[117.8592,30.2713],[117.8714,30.2685],[117.8903,30.2737],[117.885,30.2902],[117.8971,30.2969],[117.9218,30.3312],[117.9341,30.3423],[117.9139,30.3665],[117.9056,30.3454],[117.8751,30.3574],[117.8627,30.358],[117.8615,30.3456],[117.8194,30.3479],[117.8209,30.335],[117.8002,30.3236],[117.7874,30.3278],[117.7871,30.3354],[117.7755,30.3422],[117.7554,30.3261],[117.74,30.3254],[117.7294,30.3196],[117.7131,30.322],[117.6974,30.3319],[117.6845,30.3101],[117.6624,30.2993],[117.673,30.2902],[117.6674,30.2762],[117.6761,30.2742],[117.6801,30.257],[117.6678,30.2529],[117.6541,30.2615],[117.6467,30.2719],[117.6362,30.2727],[117.6293,30.2833],[117.5882,30.279],[117.5646,30.2964],[117.534,30.2856],[117.528,30.2801],[117.5094,30.2839],[117.4998,30.2941],[117.4948,30.3152],[117.4864,30.3199],[117.4911,30.3362],[117.4818,30.3407],[117.4668,30.3289],[117.4558,30.3268],[117.4457,30.3159],[117.4426,30.3054],[117.429,30.2989],[117.412,30.3027],[117.4011,30.3104],[117.3851,30.3112],[117.3663,30.2938],[117.3542,30.2901],[117.346,30.3031],[117.327,30.2976],[117.3157,30.3184],[117.3007,30.3216],[117.2686,30.3021],[117.2725,30.2897],[117.2608,30.28]]]},"properties":{"region_code":"CN-34-3417-341722","parent_region_code":"CN-34-3417","name":"石台县","level":"county","has_children":false,"full_path":"中国 / 安徽省 / 池州市 / 石台县","source_admin_code":"341722","osm_relation_id":3164668}},
{"type":"Feature","geometry":{"type":"Polygon","coordinates":[[[117.7755,30.3422],[117.7871,30.3354],[117.7874,30.3278],[117.8002,30.3236],[117.8209,30.335],[117.8194,30.3479],[117.8615,30.3456],[117.8627,30.358],[117.8751,30.3574],[117.9056,30.3454],[117.9139,30.3665],[117.9251,30.3725],[117.95,30.3943],[117.9524,30.4039],[117.9442,30.409],[117.9347,30.4246],[117.9459,30.4502],[117.9354,30.4639],[117.9425,30.4859],[117.9623,30.5171],[117.9772,30.5277],[117.9813,30.5452],[117.9781,30.564],[117.9836,30.5748],[118.0176,30.5761],[118.0245,30.5867],[118.0364,30.5952],[118.0359,30.6065],[118.0576,30.5982],[118.0807,30.628],[118.0938,30.6415],[118.0935,30.6586],[118.1295,30.7025],[118.1231,30.7035],[118.1195,30.72],[118.1098,30.7216],[118.0997,30.7324],[118.0941,30.7463],[118.0838,30.7407],[118.0606,30.7483],[118.0603,30.7607],[118.0249,30.7791],[118.0125,30.7787],[117.9917,30.7855],[117.9811,30.7979],[117.9636,30.7974],[117.963,30.8083],[117.9854,30.8269],[117.98,30.846],[117.9583,30.8281],[117.9417,30.8322],[117.929,30.8418],[117.9138,30.8226],[117.8946,30.812],[117.8793,30.816],[117.8658,30.805],[117.8562,30.8046],[117.8399,30.7893],[117.839,30.7713],[117.8244,30.7686],[117.8138,30.7618],[117.7971,30.7581],[117.7989,30.7307],[117.7911,30.721],[117.8034,30.7101],[117.8203,30.7067],[117.8281,30.6983],[117.8324,30.6813],[117.8029,30.6411],[117.7884,30.6332],[117.7782,30.6409],[117.7565,30.6335],[117.745,30.6177],[117.7453,30.6021],[117.7346,30.5971],[117.7204,30.5796],[117.6787,30.5506],[117.678,30.5336],[117.7026,30.5032],[117.7007,30.4945],[117.7139,30.479],[117.7314,30.4724],[117.7396,30.4757],[117.7617,30.4616],[117.7895,30.453],[117.7921,30.4304],[117.7832,30.4223],[117.788,30.4124],[117.7857,30.3882],[117.7788,30.3725],[117.7838,30.3591],[117.7755,30.3422]]]},"properties":{"region_code":"CN-34-3417-341723","parent_region_code":"CN-34-3417","name":"青阳县","level":"county","has_children":false,"full_path":"中国 / 安徽省 / 池州市 / 青阳县","source_admin_code":"341723","osm_relation_id":3164650}}
]}