{"type":"FeatureCollection", "features": [
{"type":"Feature","geometry":{"type":"Polygon","coordinates":[[[119.6139,28.5272],[119.6251,28.5099],[119.6322,28.5042],[119.6338,28.4976],[119.6331,28.4909],[119.6303,28.4816],[119.6332,28.4749],[119.643,28.4734],[119.6506,28.4744],[119.6654,28.4725],[119.6718,28.4703],[119.6809,28.4638],[119.6867,28.4537],[119.689,28.4514],[119.6919,28.4398],[119.6917,28.4355],[119.6886,28.4291],[119.6828,28.4206],[119.6799,28.4186],[119.6786,28.4143],[119.6808,28.4087],[119.6844,28.3955],[119.688,28.3897],[119.6902,28.3784],[119.6907,28.3715],[119.6998,28.3593],[119.7054,28.3557],[119.7222,28.3418],[119.7322,28.33],[119.7353,28.3242],[119.7342,28.3151],[119.7326,28.3089],[119.728,28.2983],[119.725,28.2954],[119.7126,28.2949],[119.6972,28.2928],[119.691,28.2937],[119.6825,28.297],[119.678,28.2958],[119.664,28.2962],[119.6486,28.299],[119.6386,28.3024],[119.6229,28.3061],[119.6092,28.3068],[119.5957,28.309],[119.5912,28.3117],[119.5853,28.3133],[119.5801,28.313],[119.5659,28.3106],[119.5551,28.3048],[119.5514,28.2986],[119.5608,28.2863],[119.5683,28.2808],[119.5923,28.2713],[119.6155,28.2611],[119.6254,28.256],[119.6339,28.2539],[119.6432,28.2595],[119.6643,28.271],[119.6717,28.2742],[119.6814,28.2716],[119.6882,28.2674],[119.6958,28.2614],[119.7245,28.241],[119.741,28.2317],[119.745,28.2242],[119.7392,28.221],[119.731,28.2235],[119.711,28.2352],[119.7046,28.2371],[119.7017,28.2362],[119.6996,28.2306],[119.7035,28.2107],[119.7035,28.2047],[119.7018,28.1974],[119.6886,28.191],[119.677,28.1866],[119.6707,28.1859],[119.6571,28.182],[119.6531,28.1798],[119.6542,28.1745],[119.6658,28.1739],[119.6881,28.1736],[119.7088,28.1722],[119.7138,28.1672],[119.7229,28.1532],[119.7247,28.1437],[119.7243,28.1343],[119.7264,28.1239],[119.7299,28.1153],[119.7406,28.1105],[119.7591,28.1124],[119.7734,28.12],[119.7938,28.1347],[119.8042,28.1412],[119.8141,28.1491],[119.8189,28.1517],[119.8286,28.1484],[119.831,28.1425],[119.8412,28.1397],[119.85,28.1439],[119.8484,28.1626],[119.8487,28.1738],[119.8564,28.1722],[119.8694,28.1559],[119.8795,28.1546],[119.9095,28.1739],[119.9083,28.1778],[119.9042,28.1837],[119.8962,28.1901],[119.8892,28.2027],[119.8837,28.2082],[119.8806,28.2149],[119.87,28.2213],[119.864,28.2205],[119.8555,28.2155],[119.8477,28.2098],[119.839,28.2073],[119.8363,28.2042],[119.8375,28.2014],[119.835,28.1981],[119.8311,28.1991],[119.8235,28.1955],[119.8238,28.2019],[119.8201,28.2139],[119.8101,28.2236],[119.8021,28.2303],[119.7997,28.2364],[119.8003,28.2428],[119.8033,28.2466],[119.8083,28.2487],[119.8123,28.2633],[119.8169,28.275],[119.8237,28.2815],[119.8348,28.2933],[119.8458,28.3012],[119.8579,28.3127],[119.8649,28.3185],[119.8712,28.3249],[119.8921,28.3414],[119.8993,28.3453],[119.9128,28.3515],[119.9179,28.3546],[119.9217,28.3583],[119.9281,28.3678],[119.9349,28.3758],[119.9389,28.3789],[119.9475,28.3797],[119.9531,28.3812],[119.9579,28.3849],[119.9686,28.3988],[119.9739,28.4124],[119.9778,28.4173],[119.9818,28.4204],[119.9873,28.4227],[119.9925,28.4216],[119.9954,28.4176],[120.0033,28.4174],[120.0105,28.4207],[120.0143,28.4249],[120.0232,28.4414],[120.0262,28.4454],[120.0405,28.4573],[120.044,28.4595],[120.0543,28.4631],[120.0612,28.4671],[120.0744,28.4793],[120.0839,28.4838],[120.0866,28.482],[120.0862,28.4768],[120.0895,28.4672],[120.0939,28.4675],[120.107,28.4733],[120.1061,28.4794],[120.1072,28.4987],[120.1104,28.5174],[120.1101,28.5295],[120.1068,28.5469],[120.0991,28.5644],[120.0921,28.5743],[120.0868,28.5761],[120.0791,28.572],[120.064,28.5536],[120.0608,28.5483],[120.0557,28.5441],[120.0495,28.5405],[120.0412,28.5392],[120.0347,28.5416],[120.0288,28.5461],[120.0025,28.5605],[119.9935,28.565],[119.9855,28.5735],[119.9869,28.5872],[119.9868,28.5925],[119.9849,28.5955],[119.9801,28.5987],[119.9777,28.6031],[119.9754,28.6174],[119.9699,28.6293],[119.9688,28.6346],[119.9649,28.6389],[119.96,28.6413],[119.9569,28.6407],[119.9502,28.6371],[119.9415,28.6355],[119.936,28.6407],[119.9376,28.6542],[119.9358,28.6587],[119.9301,28.6669],[119.921,28.6743],[119.9066,28.6904],[119.9061,28.7023],[119.9035,28.7212],[119.9017,28.7277],[119.8945,28.7325],[119.8831,28.7333],[119.8685,28.7311],[119.8649,28.7293],[119.8654,28.7249],[119.8523,28.7214],[119.8427,28.7204],[119.8377,28.7213],[119.8313,28.7155],[119.8272,28.7163],[119.8301,28.7095],[119.8273,28.7071],[119.8266,28.7023],[119.8209,28.6975],[119.8171,28.6964],[119.8149,28.6983],[119.8117,28.6959],[119.8112,28.6924],[119.8075,28.692],[119.8105,28.6849],[119.8094,28.6738],[119.8057,28.666],[119.8081,28.6613],[119.808,28.6574],[119.8032,28.6559],[119.8028,28.6494],[119.799,28.6485],[119.7936,28.6429],[119.7922,28.6377],[119.789,28.6372],[119.7852,28.6395],[119.7796,28.6366],[119.7781,28.6387],[119.772,28.6363],[119.7581,28.6441],[119.755,28.6407],[119.7483,28.6387],[119.7506,28.6367],[119.7525,28.6311],[119.7562,28.6309],[119.756,28.6268],[119.7596,28.6213],[119.7585,28.6183],[119.7655,28.6137],[119.7665,28.6117],[119.7638,28.6047],[119.7662,28.6003],[119.7695,28.598],[119.7681,28.5937],[119.7707,28.5898],[119.7638,28.5887],[119.7619,28.5914],[119.7515,28.5962],[119.7451,28.5961],[119.7463,28.5841],[119.7458,28.5788],[119.7399,28.5757],[119.7369,28.577],[119.7366,28.5814],[119.7335,28.5814],[119.7308,28.5719],[119.7244,28.5711],[119.7283,28.5655],[119.7233,28.5654],[119.7218,28.5685],[119.7151,28.5691],[119.7126,28.5658],[119.7149,28.5632],[119.7144,28.5574],[119.7086,28.5548],[119.703,28.5486],[119.7035,28.5386],[119.702,28.5366],[119.6966,28.5349],[119.7001,28.5296],[119.6875,28.5334],[119.6848,28.5358],[119.6756,28.533],[119.6763,28.5303],[119.6708,28.5296],[119.6706,28.5343],[119.665,28.5342],[119.6598,28.5397],[119.6617,28.5435],[119.657,28.5493],[119.6498,28.5498],[119.6508,28.5471],[119.647,28.544],[119.6424,28.5456],[119.6432,28.5408],[119.6406,28.537],[119.6437,28.5347],[119.6438,28.5317],[119.6399,28.5308],[119.6372,28.5328],[119.6277,28.5298],[119.6286,28.5243],[119.6243,28.518],[119.6231,28.5233],[119.6139,28.5272]]]},"properties":{"region_code":"CN-33-3311-331102","parent_region_code":"CN-33-3311","name":"莲都区","level":"county","has_children":false,"full_path":"中国 / 浙江省 / 丽水市 / 莲都区","source_admin_code":"331102","osm_relation_id":3289203}},
{"type":"Feature","geometry":{"type":"Polygon","coordinates":[[[119.9095,28.1739],[119.9148,28.1579],[119.9179,28.1532],[119.9229,28.1482],[119.926,28.1412],[119.9389,28.1277],[119.9499,28.1131],[119.9543,28.1061],[119.9576,28.0986],[119.9608,28.0944],[119.9705,28.078],[119.9708,28.0677],[119.97,28.0601],[119.9622,28.0414],[119.9563,28.0315],[119.9526,28.0231],[119.9487,28.0175],[119.9464,28.0123],[119.9425,28.0108],[119.9305,28.0092],[119.9109,28.0112],[119.893,28.017],[119.8888,28.0199],[119.8813,28.0213],[119.8761,28.0199],[119.8757,28.0167],[119.8786,28.0118],[119.8824,28],[119.8811,27.9968],[119.876,27.9905],[119.8827,27.9805],[119.8904,27.973],[119.8992,27.9672],[119.901,27.9632],[119.909,27.9581],[119.9192,27.9639],[119.9195,27.9699],[119.9267,27.9751],[119.9436,27.9762],[119.9539,27.979],[119.9629,27.9786],[119.966,27.9735],[119.967,27.9668],[119.9649,27.962],[119.9555,27.9555],[119.9547,27.9494],[119.959,27.9434],[119.9692,27.94],[119.9832,27.941],[119.9925,27.9448],[120,27.9442],[120.0034,27.9424],[120.013,27.9403],[120.0221,27.9401],[120.0259,27.9413],[120.0307,27.9458],[120.0409,27.95],[120.0477,27.949],[120.0523,27.9498],[120.0601,27.9493],[120.0694,27.9585],[120.0783,27.961],[120.0862,27.9596],[120.0961,27.9568],[120.0994,27.9574],[120.1042,27.9607],[120.1074,27.967],[120.1082,27.9736],[120.1117,27.9783],[120.1215,27.9809],[120.1513,27.9784],[120.1581,27.9769],[120.1673,27.9709],[120.1738,27.9644],[120.1781,27.9586],[120.1825,27.9486],[120.189,27.9391],[120.1954,27.9342],[120.2157,27.9296],[120.224,27.9307],[120.2263,27.9301],[120.2347,27.9337],[120.2385,27.9373],[120.2411,27.946],[120.2418,27.9555],[120.2451,27.9606],[120.2509,27.9649],[120.2553,27.9654],[120.2729,27.9633],[120.2763,27.9636],[120.2805,27.9683],[120.2831,27.9792],[120.2902,27.9834],[120.3005,27.9844],[120.313,27.981],[120.3253,27.9787],[120.3297,27.977],[120.3372,27.9763],[120.3426,27.9789],[120.344,27.9856],[120.3391,27.9926],[120.3322,27.9984],[120.3287,28],[120.3258,28.0052],[120.3309,28.0086],[120.3407,28.0198],[120.3423,28.026],[120.3417,28.0361],[120.3394,28.0459],[120.34,28.051],[120.3423,28.0531],[120.3495,28.0551],[120.3659,28.0578],[120.3706,28.0621],[120.3672,28.0634],[120.368,28.0675],[120.3635,28.0766],[120.3546,28.0842],[120.3608,28.087],[120.3607,28.0903],[120.3528,28.0929],[120.3544,28.1004],[120.3588,28.0991],[120.3614,28.0941],[120.368,28.0928],[120.3703,28.0975],[120.3745,28.1008],[120.3848,28.0976],[120.3994,28.1091],[120.4073,28.1174],[120.4079,28.1216],[120.4063,28.1243],[120.4015,28.1271],[120.405,28.1357],[120.3986,28.1365],[120.3961,28.1415],[120.3855,28.1409],[120.3807,28.1486],[120.3907,28.1568],[120.3951,28.1557],[120.4053,28.1587],[120.4147,28.1589],[120.4174,28.1628],[120.4204,28.1723],[120.4213,28.1799],[120.4202,28.1888],[120.4173,28.2021],[120.4168,28.2078],[120.418,28.211],[120.4263,28.2206],[120.432,28.2322],[120.4308,28.2361],[120.4249,28.2431],[120.42,28.2501],[120.4187,28.268],[120.4144,28.2848],[120.4078,28.2959],[120.3973,28.3074],[120.3878,28.3125],[120.3828,28.3163],[120.3661,28.32],[120.3491,28.3215],[120.3465,28.3239],[120.3439,28.3305],[120.3468,28.3561],[120.3456,28.3629],[120.3406,28.3729],[120.3369,28.3841],[120.3206,28.408],[120.3184,28.4156],[120.3102,28.4123],[120.2975,28.41],[120.2884,28.4112],[120.2768,28.4174],[120.2639,28.4287],[120.2534,28.4326],[120.2451,28.4334],[120.2321,28.4327],[120.2224,28.4353],[120.216,28.4436],[120.2143,28.4491],[120.2137,28.4562],[120.2098,28.4653],[120.2066,28.4678],[120.1977,28.4722],[120.1857,28.4738],[120.1798,28.4703],[120.1689,28.4609],[120.1589,28.4554],[120.1442,28.4494],[120.1342,28.4472],[120.1289,28.4494],[120.126,28.4521],[120.1211,28.4605],[120.1158,28.4665],[120.107,28.4733],[120.0939,28.4675],[120.0895,28.4672],[120.0862,28.4768],[120.0866,28.482],[120.0839,28.4838],[120.0744,28.4793],[120.0612,28.4671],[120.0543,28.4631],[120.044,28.4595],[120.0405,28.4573],[120.0262,28.4454],[120.0232,28.4414],[120.0143,28.4249],[120.0105,28.4207],[120.0033,28.4174],[119.9954,28.4176],[119.9925,28.4216],[119.9873,28.4227],[119.9818,28.4204],[119.9778,28.4173],[119.9739,28.4124],[119.9686,28.3988],[119.9579,28.3849],[119.9531,28.3812],[119.9475,28.3797],[119.9389,28.3789],[119.9349,28.3758],[119.9281,28.3678],[119.9217,28.3583],[119.9179,28.3546],[119.9128,28.3515],[119.8993,28.3453],[119.8921,28.3414],[119.8712,28.3249],[119.8649,28.3185],[119.8579,28.3127],[119.8458,28.3012],[119.8348,28.2933],[119.8237,28.2815],[119.8169,28.275],[119.8123,28.2633],[119.8083,28.2487],[119.8033,28.2466],[119.8003,28.2428],[119.7997,28.2364],[119.8021,28.2303],[119.8101,28.2236],[119.8201,28.2139],[119.8238,28.2019],[119.8235,28.1955],[119.8311,28.1991],[119.835,28.1981],[119.8375,28.2014],[119.8363,28.2042],[119.839,28.2073],[119.8477,28.2098],[119.8555,28.2155],[119.864,28.2205],[119.87,28.2213],[119.8806,28.2149],[119.8837,28.2082],[119.8892,28.2027],[119.8962,28.1901],[119.9042,28.1837],[119.9083,28.1778],[119.9095,28.1739]]]},"properties":{"region_code":"CN-33-3311-331121","parent_region_code":"CN-33-3311","name":"青田县","level":"county","has_children":false,"full_path":"中国 / 浙江省 / 丽水市 / 青田县","source_admin_code":"331121","osm_relation_id":3218862}},
{"type":"Feature","geometry":{"type":"Polygon","coordinates":[[[120.107,28.4733],[120.1158,28.4665],[120.1211,28.4605],[120.126,28.4521],[120.1289,28.4494],[120.1342,28.4472],[120.1442,28.4494],[120.1589,28.4554],[120.1689,28.4609],[120.1798,28.4703],[120.1857,28.4738],[120.1977,28.4722],[120.2066,28.4678],[120.2098,28.4653],[120.2137,28.4562],[120.2143,28.4491],[120.216,28.4436],[120.2224,28.4353],[120.2321,28.4327],[120.2451,28.4334],[120.2534,28.4326],[120.2639,28.4287],[120.2768,28.4174],[120.2884,28.4112],[120.2975,28.41],[120.3102,28.4123],[120.3184,28.4156],[120.3323,28.4244],[120.3377,28.4256],[120.3438,28.4239],[120.3504,28.4195],[120.36,28.4117],[120.365,28.409],[120.3704,28.4124],[120.3717,28.4184],[120.3686,28.4295],[120.3664,28.4412],[120.3714,28.4473],[120.3818,28.4576],[120.3842,28.4629],[120.3832,28.4827],[120.382,28.4887],[120.379,28.492],[120.3763,28.5005],[120.3715,28.5017],[120.3671,28.4986],[120.3621,28.5032],[120.3528,28.5011],[120.3477,28.5014],[120.3369,28.4989],[120.3314,28.5061],[120.3332,28.5104],[120.328,28.5132],[120.3238,28.5128],[120.3226,28.5162],[120.3169,28.5162],[120.3171,28.5214],[120.3133,28.5255],[120.3085,28.5258],[120.3075,28.5209],[120.3003,28.5103],[120.297,28.5106],[120.2886,28.5173],[120.2899,28.5232],[120.2873,28.5256],[120.2881,28.5298],[120.2857,28.5384],[120.2881,28.5432],[120.2988,28.5508],[120.3085,28.5615],[120.3132,28.5578],[120.3176,28.5571],[120.3182,28.5628],[120.3223,28.5672],[120.3209,28.5715],[120.3172,28.57],[120.3158,28.5735],[120.3217,28.5798],[120.3291,28.5839],[120.3388,28.5778],[120.3456,28.5778],[120.3572,28.5836],[120.3623,28.5799],[120.3663,28.5811],[120.369,28.5763],[120.3726,28.5809],[120.3756,28.5823],[120.3779,28.5861],[120.3781,28.5937],[120.3741,28.5968],[120.3774,28.6016],[120.3734,28.609],[120.3648,28.6123],[120.3655,28.6201],[120.3573,28.628],[120.349,28.6296],[120.3499,28.6335],[120.3447,28.6368],[120.3534,28.641],[120.353,28.6499],[120.3467,28.6502],[120.3446,28.6542],[120.3409,28.6536],[120.3369,28.6559],[120.3322,28.656],[120.3268,28.6633],[120.3241,28.6641],[120.3228,28.6685],[120.318,28.6717],[120.3185,28.6794],[120.3228,28.6836],[120.3196,28.6871],[120.319,28.6903],[120.3204,28.6973],[120.3232,28.6982],[120.3299,28.7056],[120.3328,28.7032],[120.3357,28.7072],[120.3397,28.7097],[120.3451,28.7072],[120.3502,28.7103],[120.3503,28.717],[120.3483,28.718],[120.3474,28.7234],[120.3489,28.7252],[120.3396,28.7273],[120.3401,28.7311],[120.3434,28.7336],[120.3511,28.7348],[120.3528,28.7365],[120.3588,28.7376],[120.3616,28.7414],[120.3657,28.7432],[120.3664,28.7537],[120.3641,28.756],[120.3649,28.7664],[120.3691,28.7755],[120.3751,28.7802],[120.3798,28.7859],[120.3812,28.7894],[120.3843,28.7911],[120.3894,28.7882],[120.3962,28.7883],[120.3992,28.791],[120.3989,28.7954],[120.404,28.7977],[120.4063,28.8013],[120.4026,28.8051],[120.404,28.8095],[120.4103,28.8163],[120.4107,28.8251],[120.4166,28.8328],[120.4222,28.8339],[120.4181,28.8454],[120.4182,28.8494],[120.415,28.8536],[120.412,28.8538],[120.4108,28.8503],[120.4019,28.8483],[120.4003,28.8503],[120.4003,28.8571],[120.3966,28.8587],[120.3917,28.8514],[120.3884,28.85],[120.39,28.845],[120.3894,28.8394],[120.3844,28.8324],[120.3815,28.8327],[120.3768,28.837],[120.3714,28.8357],[120.3638,28.841],[120.3533,28.8424],[120.3513,28.8485],[120.3478,28.8531],[120.3439,28.8531],[120.343,28.8613],[120.335,28.8625],[120.3313,28.8651],[120.331,28.8685],[120.3267,28.8721],[120.3174,28.8752],[120.313,28.8786],[120.3143,28.8813],[120.3127,28.8887],[120.3045,28.8919],[120.3011,28.895],[120.3033,28.8979],[120.3043,28.9033],[120.3033,28.9098],[120.3099,28.9164],[120.311,28.9214],[120.3025,28.9277],[120.3005,28.9348],[120.2976,28.9364],[120.292,28.9346],[120.2857,28.9356],[120.2761,28.9331],[120.2725,28.9342],[120.2733,28.9392],[120.2709,28.9404],[120.2715,28.9444],[120.2696,28.9501],[120.266,28.9527],[120.2592,28.946],[120.2611,28.9438],[120.2586,28.9401],[120.2546,28.9401],[120.2497,28.9328],[120.2546,28.9299],[120.2478,28.9197],[120.2467,28.9155],[120.2522,28.9142],[120.2573,28.9145],[120.2575,28.9108],[120.2547,28.9048],[120.2571,28.9017],[120.2567,28.8976],[120.2583,28.8934],[120.2584,28.8876],[120.2559,28.8828],[120.2584,28.8738],[120.2569,28.8696],[120.25,28.8663],[120.2404,28.8626],[120.2388,28.859],[120.2392,28.8548],[120.2358,28.8503],[120.2307,28.8465],[120.225,28.8451],[120.2244,28.8393],[120.2212,28.8412],[120.2165,28.8364],[120.2112,28.8374],[120.2107,28.8338],[120.2082,28.8299],[120.2074,28.8251],[120.2037,28.8239],[120.2022,28.8176],[120.1955,28.8121],[120.1968,28.8084],[120.1965,28.8033],[120.2003,28.8022],[120.2062,28.7982],[120.2007,28.7904],[120.1955,28.7892],[120.1949,28.787],[120.1883,28.787],[120.1872,28.7885],[120.1789,28.7881],[120.1774,28.7833],[120.1736,28.782],[120.1753,28.7788],[120.1718,28.776],[120.1603,28.7779],[120.1587,28.7804],[120.1533,28.7831],[120.1454,28.7839],[120.1418,28.7871],[120.133,28.7847],[120.1368,28.7784],[120.1282,28.7634],[120.1189,28.7626],[120.1129,28.7657],[120.1048,28.7662],[120.1052,28.7706],[120.0926,28.7714],[120.0868,28.7764],[120.0839,28.7816],[120.0855,28.7871],[120.0839,28.7881],[120.0773,28.7866],[120.0737,28.7874],[120.0643,28.7817],[120.0598,28.7781],[120.0545,28.7714],[120.0493,28.7703],[120.0447,28.7663],[120.0391,28.7646],[120.0334,28.7647],[120.0246,28.7609],[120.0196,28.7688],[120.0162,28.7684],[120.0143,28.7719],[120.0058,28.7744],[120.0069,28.7804],[120.005,28.7848],[120.0002,28.7851],[119.9924,28.7876],[119.9868,28.7931],[119.9812,28.7937],[119.9777,28.7963],[119.9782,28.7992],[119.9706,28.7978],[119.9673,28.7984],[119.9655,28.7919],[119.9626,28.7882],[119.9571,28.7915],[119.9535,28.7922],[119.9442,28.7904],[119.942,28.7939],[119.9363,28.7967],[119.93,28.7968],[119.9279,28.7991],[119.9236,28.7993],[119.9225,28.8024],[119.9173,28.8049],[119.9108,28.8027],[119.9133,28.7997],[119.9186,28.7976],[119.9166,28.7884],[119.9183,28.7857],[119.9106,28.782],[119.9108,28.7775],[119.9072,28.7741],[119.9,28.7703],[119.8967,28.7612],[119.8995,28.759],[119.8923,28.7532],[119.8814,28.7484],[119.8812,28.7509],[119.8762,28.7556],[119.8729,28.7495],[119.8672,28.7456],[119.8711,28.7394],[119.8658,28.7335],[119.8685,28.7311],[119.8831,28.7333],[119.8945,28.7325],[119.9017,28.7277],[119.9035,28.7212],[119.9061,28.7023],[119.9066,28.6904],[119.921,28.6743],[119.9301,28.6669],[119.9358,28.6587],[119.9376,28.6542],[119.936,28.6407],[119.9415,28.6355],[119.9502,28.6371],[119.9569,28.6407],[119.96,28.6413],[119.9649,28.6389],[119.9688,28.6346],[119.9699,28.6293],[119.9754,28.6174],[119.9777,28.6031],[119.9801,28.5987],[119.9849,28.5955],[119.9868,28.5925],[119.9869,28.5872],[119.9855,28.5735],[119.9935,28.565],[120.0025,28.5605],[120.0288,28.5461],[120.0347,28.5416],[120.0412,28.5392],[120.0495,28.5405],[120.0557,28.5441],[120.0608,28.5483],[120.064,28.5536],[120.0791,28.572],[120.0868,28.5761],[120.0921,28.5743],[120.0991,28.5644],[120.1068,28.5469],[120.1101,28.5295],[120.1104,28.5174],[120.1072,28.4987],[120.1061,28.4794],[120.107,28.4733]]]},"properties":{"region_code":"CN-33-3311-331122","parent_region_code":"CN-33-3311","name":"缙云县","level":"county","has_children":false,"full_path":"中国 / 浙江省 / 丽水市 / 缙云县","source_admin_code":"331122","osm_relation_id":3289202}},
{"type":"Feature","geometry":{"type":"Polygon","coordinates":[[[119.4884,28.5591],[119.491,28.5613],[119.4864,28.5692],[119.4921,28.574],[119.4945,28.5787],[119.4915,28.583],[119.4945,28.591],[119.5017,28.5977],[119.5054,28.6041],[119.5128,28.6098],[119.5037,28.6124],[119.5059,28.6182],[119.5027,28.6235],[119.4968,28.6222],[119.494,28.6245],[119.5045,28.6266],[119.5021,28.6319],[119.5071,28.6326],[119.5142,28.6389],[119.5075,28.6404],[119.5032,28.6386],[119.4936,28.6366],[119.4891,28.6334],[119.4893,28.6298],[119.4864,28.628],[119.4813,28.6322],[119.4828,28.6399],[119.4771,28.6434],[119.4741,28.6411],[119.4677,28.6397],[119.4643,28.6372],[119.4576,28.6371],[119.4539,28.6422],[119.455,28.6457],[119.4517,28.6488],[119.4507,28.6528],[119.4533,28.6557],[119.469,28.6571],[119.4745,28.6612],[119.4756,28.664],[119.4715,28.6685],[119.4635,28.6706],[119.4592,28.6696],[119.4566,28.6732],[119.4582,28.6752],[119.4551,28.6854],[119.456,28.6923],[119.4596,28.6972],[119.459,28.7053],[119.4616,28.7109],[119.4576,28.7211],[119.4594,28.725],[119.4577,28.7327],[119.4581,28.7404],[119.4557,28.7452],[119.4625,28.7454],[119.465,28.7475],[119.4704,28.7489],[119.4682,28.7563],[119.4687,28.7671],[119.4601,28.7698],[119.4566,28.7659],[119.4491,28.7634],[119.4434,28.7635],[119.4409,28.7606],[119.4362,28.7596],[119.4287,28.7599],[119.4198,28.7551],[119.418,28.752],[119.4137,28.7524],[119.4101,28.7546],[119.4085,28.7625],[119.4089,28.7662],[119.4017,28.7682],[119.3942,28.7785],[119.3909,28.7792],[119.3885,28.7856],[119.3819,28.7901],[119.3733,28.79],[119.3666,28.7877],[119.3657,28.7796],[119.3632,28.7758],[119.3547,28.7725],[119.3552,28.7676],[119.3522,28.7629],[119.3472,28.7616],[119.3462,28.7595],[119.3369,28.7612],[119.3319,28.7685],[119.3319,28.7751],[119.3296,28.7786],[119.3244,28.7824],[119.3203,28.7818],[119.3215,28.7895],[119.3184,28.7934],[119.3199,28.8009],[119.3147,28.8027],[119.3164,28.806],[119.316,28.8103],[119.3133,28.8146],[119.3079,28.8158],[119.2981,28.8074],[119.2942,28.8068],[119.2897,28.8096],[119.2785,28.8102],[119.273,28.8066],[119.2671,28.8104],[119.2623,28.8086],[119.2616,28.8045],[119.2675,28.8067],[119.2722,28.8018],[119.2674,28.7961],[119.2623,28.7978],[119.2605,28.7929],[119.2577,28.7918],[119.2588,28.7858],[119.2563,28.783],[119.2517,28.7821],[119.2502,28.7765],[119.2477,28.7758],[119.2452,28.7708],[119.2398,28.7647],[119.2316,28.7651],[119.2277,28.7677],[119.2173,28.7695],[119.2135,28.7742],[119.2108,28.7756],[119.2054,28.7748],[119.2036,28.7708],[119.1988,28.7712],[119.2009,28.7787],[119.1902,28.7819],[119.1881,28.7791],[119.1834,28.7772],[119.1772,28.7674],[119.1709,28.7662],[119.1722,28.7621],[119.1709,28.7568],[119.1622,28.7486],[119.158,28.7519],[119.1522,28.7479],[119.1446,28.744],[119.1365,28.7432],[119.1352,28.7411],[119.1281,28.7415],[119.1233,28.7405],[119.1179,28.7427],[119.1155,28.7407],[119.1089,28.7441],[119.0966,28.7467],[119.0929,28.7505],[119.089,28.7427],[119.0833,28.7384],[119.0748,28.7442],[119.0722,28.7402],[119.0677,28.7378],[119.0589,28.7365],[119.055,28.7322],[119.0485,28.7307],[119.0468,28.7266],[119.0416,28.7245],[119.0417,28.7199],[119.0392,28.7154],[119.0321,28.7118],[119.024,28.7127],[119.0181,28.7075],[119.0111,28.7032],[119.0093,28.6969],[119.001,28.694],[118.9956,28.6851],[118.9913,28.6845],[118.9873,28.6808],[118.9859,28.6771],[118.9807,28.6712],[118.9792,28.6665],[118.9748,28.6656],[118.9703,28.6587],[118.9642,28.6542],[118.9631,28.6511],[118.9564,28.6481],[118.9488,28.6519],[118.9417,28.6471],[118.9373,28.6494],[118.9266,28.6447],[118.9207,28.6371],[118.9197,28.6343],[118.923,28.6296],[118.9216,28.6256],[118.9109,28.6161],[118.9125,28.6132],[118.9138,28.6043],[118.9107,28.6016],[118.9059,28.6011],[118.9052,28.5831],[118.9063,28.5816],[118.902,28.5775],[118.9067,28.576],[118.9108,28.5718],[118.907,28.5638],[118.9022,28.5614],[118.9004,28.5549],[118.8974,28.5523],[118.8946,28.5466],[118.8857,28.5427],[118.8863,28.5382],[118.8841,28.536],[118.8772,28.5334],[118.8731,28.5237],[118.8638,28.5166],[118.8611,28.523],[118.8615,28.5306],[118.86,28.533],[118.8521,28.5327],[118.8473,28.5399],[118.8463,28.5446],[118.8403,28.545],[118.8337,28.5432],[118.8298,28.5472],[118.8223,28.5507],[118.8158,28.551],[118.8142,28.548],[118.8078,28.546],[118.8074,28.5422],[118.8048,28.5394],[118.7985,28.5367],[118.7938,28.5391],[118.7878,28.5379],[118.787,28.5353],[118.7811,28.5342],[118.7757,28.5299],[118.7752,28.5263],[118.7704,28.5212],[118.7644,28.5238],[118.7603,28.5275],[118.7558,28.5265],[118.7486,28.5282],[118.7456,28.5275],[118.7442,28.5234],[118.7384,28.513],[118.7298,28.5089],[118.7282,28.5035],[118.722,28.5031],[118.7184,28.4967],[118.7194,28.4914],[118.7225,28.4905],[118.725,28.4831],[118.7205,28.4734],[118.7206,28.4642],[118.7266,28.4603],[118.7245,28.4555],[118.7245,28.445],[118.7219,28.4428],[118.7188,28.4368],[118.7242,28.4323],[118.7188,28.4275],[118.7194,28.4206],[118.7175,28.4165],[118.7196,28.4147],[118.7252,28.4147],[118.7302,28.4198],[118.7331,28.4182],[118.7393,28.4183],[118.7426,28.4203],[118.7506,28.4195],[118.7478,28.4153],[118.7528,28.4134],[118.7547,28.4105],[118.7516,28.4062],[118.7526,28.4026],[118.7508,28.3992],[118.7463,28.3975],[118.7424,28.391],[118.7435,28.3892],[118.7362,28.3795],[118.7358,28.376],[118.7368,28.3658],[118.7331,28.3591],[118.7291,28.355],[118.7267,28.3508],[118.7236,28.3494],[118.719,28.3416],[118.7137,28.3422],[118.7094,28.3391],[118.7081,28.3365],[118.7038,28.3372],[118.6966,28.3299],[118.6974,28.3251],[118.6955,28.3153],[118.7035,28.3133],[118.7091,28.3174],[118.7123,28.3144],[118.7169,28.3173],[118.7238,28.3097],[118.7248,28.3042],[118.7205,28.3003],[118.7223,28.2954],[118.7204,28.291],[118.7224,28.2877],[118.7271,28.2903],[118.7278,28.2976],[118.732,28.2927],[118.7279,28.2925],[118.7269,28.2873],[118.7228,28.2867],[118.7219,28.2843],[118.7273,28.2833],[118.7364,28.279],[118.7365,28.2725],[118.7303,28.2662],[118.7337,28.2638],[118.7392,28.2696],[118.7411,28.268],[118.7376,28.2633],[118.7295,28.2615],[118.74,28.2589],[118.7462,28.2563],[118.7514,28.2558],[118.772,28.256],[118.7819,28.2657],[118.7875,28.2689],[118.7946,28.2692],[118.8012,28.2671],[118.8089,28.2686],[118.8082,28.2788],[118.8071,28.2824],[118.8091,28.2867],[118.812,28.2888],[118.8137,28.2936],[118.821,28.2955],[118.8263,28.2988],[118.8406,28.3055],[118.8445,28.3084],[118.8486,28.3135],[118.8512,28.3147],[118.854,28.3197],[118.8593,28.3219],[118.864,28.3186],[118.867,28.314],[118.8685,28.3018],[118.8709,28.2977],[118.8831,28.2886],[118.8842,28.2836],[118.879,28.2748],[118.8813,28.2726],[118.881,28.2675],[118.8847,28.2622],[118.9,28.2651],[118.9089,28.2674],[118.9146,28.2672],[118.9213,28.2648],[118.9306,28.2579],[118.9336,28.253],[118.9379,28.2412],[118.9448,28.2293],[118.9505,28.222],[118.9666,28.2143],[118.9788,28.2142],[118.9851,28.2166],[118.9922,28.2212],[118.9963,28.2259],[118.9958,28.2353],[118.9929,28.2416],[118.9859,28.2505],[118.9845,28.254],[118.9858,28.2631],[118.988,28.266],[119.0012,28.2797],[119.0097,28.2852],[119.0273,28.2934],[119.0331,28.2949],[119.0463,28.2946],[119.0506,28.2894],[119.0566,28.2766],[119.058,28.2704],[119.0615,28.2682],[119.0651,28.2732],[119.072,28.2774],[119.0785,28.2793],[119.0873,28.2843],[119.0954,28.2937],[119.0996,28.303],[119.1018,28.3142],[119.1079,28.3264],[119.1165,28.3344],[119.1238,28.3356],[119.1282,28.3339],[119.1352,28.3261],[119.1343,28.3225],[119.1342,28.3126],[119.1358,28.3073],[119.1411,28.3037],[119.1481,28.3029],[119.1672,28.3065],[119.165,28.3098],[119.1662,28.3167],[119.1712,28.3155],[119.1748,28.3163],[119.1715,28.3249],[119.1727,28.3281],[119.1796,28.3334],[119.1801,28.3405],[119.1818,28.3492],[119.1791,28.3572],[119.1785,28.3619],[119.1809,28.3657],[119.1813,28.3698],[119.1881,28.3806],[119.1997,28.3844],[119.2016,28.3939],[119.2059,28.3909],[119.2104,28.3897],[119.2132,28.3912],[119.2141,28.3966],[119.2182,28.3983],[119.2204,28.4065],[119.2241,28.4093],[119.2234,28.4124],[119.2191,28.4155],[119.2147,28.4213],[119.2292,28.4325],[119.2284,28.4346],[119.2263,28.4502],[119.2274,28.4604],[119.2353,28.4731],[119.2306,28.4793],[119.2356,28.4863],[119.2378,28.4946],[119.2415,28.501],[119.2405,28.5034],[119.2427,28.5067],[119.2555,28.5076],[119.258,28.5104],[119.2612,28.5094],[119.2631,28.5062],[119.2707,28.504],[119.2735,28.5087],[119.2691,28.5117],[119.2726,28.5168],[119.2716,28.5256],[119.2816,28.5209],[119.2842,28.523],[119.2824,28.5261],[119.2842,28.531],[119.2874,28.5294],[119.29,28.532],[119.2895,28.536],[119.2842,28.5385],[119.2881,28.5436],[119.2943,28.5438],[119.2972,28.5414],[119.3036,28.5437],[119.3009,28.548],[119.3118,28.5568],[119.3127,28.5623],[119.3157,28.5636],[119.3214,28.5712],[119.3256,28.5794],[119.3286,28.5772],[119.3366,28.5818],[119.341,28.5915],[119.3474,28.591],[119.3553,28.5957],[119.358,28.5953],[119.3686,28.6001],[119.3689,28.6051],[119.3718,28.607],[119.378,28.6057],[119.3795,28.6081],[119.3896,28.6046],[119.3925,28.6005],[119.3919,28.5935],[119.3941,28.5895],[119.4053,28.5926],[119.4072,28.5985],[119.4113,28.5942],[119.4158,28.5929],[119.4164,28.5958],[119.4217,28.5943],[119.4269,28.5905],[119.4376,28.5911],[119.439,28.5976],[119.4457,28.5935],[119.4489,28.5961],[119.453,28.5941],[119.4587,28.5889],[119.4563,28.5835],[119.4533,28.582],[119.4507,28.5701],[119.4427,28.5593],[119.4613,28.559],[119.4679,28.5578],[119.4732,28.5592],[119.4745,28.5555],[119.4776,28.5565],[119.4844,28.5552],[119.4884,28.5591]]]},"properties":{"region_code":"CN-33-3311-331123","parent_region_code":"CN-33-3311","name":"遂昌县","level":"county","has_children":false,"full_path":"中国 / 浙江省 / 丽水市 / 遂昌县","source_admin_code":"331123","osm_relation_id":3289207}},
{"type":"Feature","geometry":{"type":"Polygon","coordinates":[[[119.6139,28.5272],[119.6118,28.5313],[119.6037,28.5303],[119.5995,28.5346],[119.5971,28.5293],[119.594,28.53],[119.5922,28.5343],[119.5866,28.5357],[119.5888,28.5397],[119.5844,28.5423],[119.5789,28.5365],[119.5751,28.5403],[119.5643,28.5367],[119.5579,28.5373],[119.5481,28.5361],[119.5451,28.5328],[119.5369,28.5385],[119.534,28.5416],[119.5303,28.5489],[119.5321,28.5507],[119.529,28.5539],[119.5305,28.5577],[119.5251,28.5578],[119.5223,28.5611],[119.5144,28.5625],[119.5095,28.5654],[119.505,28.5644],[119.5013,28.5571],[119.4967,28.5531],[119.4927,28.5532],[119.4884,28.5591],[119.4844,28.5552],[119.4776,28.5565],[119.4745,28.5555],[119.4732,28.5592],[119.4679,28.5578],[119.4613,28.559],[119.4427,28.5593],[119.4507,28.5701],[119.4533,28.582],[119.4563,28.5835],[119.4587,28.5889],[119.453,28.5941],[119.4489,28.5961],[119.4457,28.5935],[119.439,28.5976],[119.4376,28.5911],[119.4269,28.5905],[119.4217,28.5943],[119.4164,28.5958],[119.4158,28.5929],[119.4113,28.5942],[119.4072,28.5985],[119.4053,28.5926],[119.3941,28.5895],[119.3919,28.5935],[119.3925,28.6005],[119.3896,28.6046],[119.3795,28.6081],[119.378,28.6057],[119.3718,28.607],[119.3689,28.6051],[119.3686,28.6001],[119.358,28.5953],[119.3553,28.5957],[119.3474,28.591],[119.341,28.5915],[119.3366,28.5818],[119.3286,28.5772],[119.3256,28.5794],[119.3214,28.5712],[119.3157,28.5636],[119.3127,28.5623],[119.3118,28.5568],[119.3009,28.548],[119.3036,28.5437],[119.2972,28.5414],[119.2943,28.5438],[119.2881,28.5436],[119.2842,28.5385],[119.2895,28.536],[119.29,28.532],[119.2874,28.5294],[119.2842,28.531],[119.2824,28.5261],[119.2842,28.523],[119.2816,28.5209],[119.2716,28.5256],[119.2726,28.5168],[119.2691,28.5117],[119.2735,28.5087],[119.2707,28.504],[119.2631,28.5062],[119.2612,28.5094],[119.258,28.5104],[119.2555,28.5076],[119.2427,28.5067],[119.2405,28.5034],[119.2415,28.501],[119.2378,28.4946],[119.2356,28.4863],[119.2306,28.4793],[119.2353,28.4731],[119.2274,28.4604],[119.2263,28.4502],[119.2284,28.4346],[119.2292,28.4325],[119.2147,28.4213],[119.2191,28.4155],[119.2234,28.4124],[119.2241,28.4093],[119.2204,28.4065],[119.2182,28.3983],[119.2141,28.3966],[119.2132,28.3912],[119.2104,28.3897],[119.2059,28.3909],[119.2016,28.3939],[119.1997,28.3844],[119.1881,28.3806],[119.1813,28.3698],[119.1809,28.3657],[119.1785,28.3619],[119.1791,28.3572],[119.1818,28.3492],[119.1801,28.3405],[119.1796,28.3334],[119.1727,28.3281],[119.1715,28.3249],[119.1748,28.3163],[119.1712,28.3155],[119.1662,28.3167],[119.165,28.3098],[119.1672,28.3065],[119.1662,28.2995],[119.168,28.2969],[119.1741,28.295],[119.1796,28.2891],[119.1762,28.2821],[119.179,28.2767],[119.1742,28.2729],[119.1785,28.2715],[119.1805,28.2752],[119.1859,28.2757],[119.1946,28.267],[119.1987,28.2646],[119.1993,28.2612],[119.2025,28.2586],[119.2058,28.2601],[119.2104,28.2572],[119.2146,28.2564],[119.2124,28.2642],[119.2169,28.2672],[119.2182,28.2701],[119.2238,28.2723],[119.2212,28.278],[119.2161,28.2757],[119.2091,28.282],[119.2028,28.2865],[119.2029,28.2941],[119.2063,28.2982],[119.2065,28.301],[119.2122,28.3023],[119.2188,28.301],[119.2223,28.2982],[119.2291,28.2953],[119.2372,28.2945],[119.2396,28.2925],[119.2484,28.2908],[119.2492,28.2891],[119.2629,28.2876],[119.2667,28.2853],[119.2664,28.2787],[119.2687,28.2753],[119.2694,28.2692],[119.272,28.2654],[119.279,28.2653],[119.2836,28.2627],[119.2846,28.2526],[119.2821,28.2478],[119.2896,28.2453],[119.2977,28.2451],[119.3024,28.2433],[119.3077,28.252],[119.3154,28.2533],[119.3206,28.2572],[119.3297,28.2564],[119.3311,28.2521],[119.3344,28.2486],[119.3355,28.2429],[119.3438,28.2431],[119.3514,28.246],[119.3598,28.245],[119.3663,28.2468],[119.366,28.253],[119.3741,28.2562],[119.3776,28.2649],[119.3845,28.2643],[119.391,28.2623],[119.3839,28.2573],[119.3902,28.2548],[119.3923,28.2521],[119.3877,28.2471],[119.3899,28.2441],[119.3962,28.2473],[119.3962,28.2507],[119.4006,28.2535],[119.4127,28.2503],[119.4169,28.2483],[119.4191,28.2433],[119.4264,28.2423],[119.4261,28.2456],[119.4293,28.247],[119.4331,28.242],[119.437,28.2416],[119.4397,28.2474],[119.4332,28.2501],[119.4353,28.2541],[119.4316,28.2556],[119.4339,28.2587],[119.4398,28.256],[119.4394,28.2609],[119.4424,28.2663],[119.4507,28.2641],[119.4553,28.2674],[119.466,28.2636],[119.4715,28.2635],[119.4767,28.2658],[119.4813,28.2696],[119.4915,28.2725],[119.4988,28.2732],[119.5068,28.2716],[119.5183,28.2678],[119.5222,28.2823],[119.5222,28.289],[119.5253,28.296],[119.5321,28.3033],[119.5433,28.3037],[119.5514,28.2986],[119.5551,28.3048],[119.5659,28.3106],[119.5801,28.313],[119.5853,28.3133],[119.5912,28.3117],[119.5957,28.309],[119.6092,28.3068],[119.6229,28.3061],[119.6386,28.3024],[119.6486,28.299],[119.664,28.2962],[119.678,28.2958],[119.6825,28.297],[119.691,28.2937],[119.6972,28.2928],[119.7126,28.2949],[119.725,28.2954],[119.728,28.2983],[119.7326,28.3089],[119.7342,28.3151],[119.7353,28.3242],[119.7322,28.33],[119.7222,28.3418],[119.7054,28.3557],[119.6998,28.3593],[119.6907,28.3715],[119.6902,28.3784],[119.688,28.3897],[119.6844,28.3955],[119.6808,28.4087],[119.6786,28.4143],[119.6799,28.4186],[119.6828,28.4206],[119.6886,28.4291],[119.6917,28.4355],[119.6919,28.4398],[119.689,28.4514],[119.6867,28.4537],[119.6809,28.4638],[119.6718,28.4703],[119.6654,28.4725],[119.6506,28.4744],[119.643,28.4734],[119.6332,28.4749],[119.6303,28.4816],[119.6331,28.4909],[119.6338,28.4976],[119.6322,28.5042],[119.6251,28.5099],[119.6139,28.5272]]]},"properties":{"region_code":"CN-33-3311-331124","parent_region_code":"CN-33-3311","name":"松阳县","level":"county","has_children":false,"full_path":"中国 / 浙江省 / 丽水市 / 松阳县","source_admin_code":"331124","osm_relation_id":3289205}},
{"type":"Feature","geometry":{"type":"Polygon","coordinates":[[[119.5514,28.2986],[119.5433,28.3037],[119.5321,28.3033],[119.5253,28.296],[119.5222,28.289],[119.5222,28.2823],[119.5183,28.2678],[119.5068,28.2716],[119.4988,28.2732],[119.4915,28.2725],[119.4813,28.2696],[119.4767,28.2658],[119.4715,28.2635],[119.466,28.2636],[119.4553,28.2674],[119.4507,28.2641],[119.4424,28.2663],[119.4394,28.2609],[119.4398,28.256],[119.4339,28.2587],[119.4316,28.2556],[119.4353,28.2541],[119.4332,28.2501],[119.4397,28.2474],[119.437,28.2416],[119.4331,28.242],[119.4293,28.247],[119.4261,28.2456],[119.4264,28.2423],[119.4191,28.2433],[119.4169,28.2483],[119.4127,28.2503],[119.4006,28.2535],[119.3962,28.2507],[119.3962,28.2473],[119.3899,28.2441],[119.3853,28.2402],[119.3822,28.2352],[119.3881,28.2333],[119.3976,28.2271],[119.3994,28.2224],[119.4047,28.2208],[119.4046,28.2177],[119.4098,28.2118],[119.4082,28.207],[119.4105,28.2024],[119.408,28.1963],[119.401,28.1841],[119.3979,28.1773],[119.398,28.1714],[119.3916,28.1615],[119.3911,28.1564],[119.3889,28.1495],[119.3919,28.1453],[119.3833,28.1454],[119.378,28.1473],[119.376,28.1454],[119.3801,28.1363],[119.3747,28.1336],[119.3784,28.1276],[119.3783,28.1224],[119.3881,28.1174],[119.3902,28.1099],[119.4008,28.1035],[119.4009,28.0997],[119.4047,28.0985],[119.406,28.0936],[119.409,28.0904],[119.4099,28.0778],[119.4046,28.0736],[119.4072,28.0681],[119.408,28.0618],[119.4137,28.0591],[119.4141,28.0493],[119.4221,28.0386],[119.417,28.035],[119.41,28.0334],[119.4082,28.0299],[119.3966,28.028],[119.3942,28.021],[119.3904,28.0202],[119.381,28.0063],[119.3906,27.9917],[119.3831,27.9921],[119.3852,27.9802],[119.3817,27.9804],[119.3809,27.9853],[119.3766,27.9856],[119.3751,27.9821],[119.3703,27.9895],[119.3621,27.9929],[119.3618,27.9978],[119.3514,28.0006],[119.3502,27.9981],[119.3557,27.9894],[119.3492,27.9836],[119.3571,27.9793],[119.3549,27.9747],[119.3608,27.9717],[119.3625,27.9682],[119.3676,27.9665],[119.3744,27.9565],[119.3661,27.9529],[119.3667,27.9498],[119.3816,27.9447],[119.3819,27.9364],[119.3865,27.933],[119.383,27.9299],[119.3879,27.9275],[119.3853,27.9214],[119.3908,27.9174],[119.4027,27.9119],[119.4255,27.9105],[119.4338,27.9127],[119.4488,27.9213],[119.4546,27.9269],[119.4593,27.9364],[119.4611,27.9463],[119.4586,27.9516],[119.4568,27.9611],[119.4563,27.9693],[119.4565,27.979],[119.4621,27.9844],[119.472,27.9881],[119.4847,27.9887],[119.5022,27.9943],[119.5116,27.9959],[119.5177,28],[119.5375,28.0046],[119.5412,28.0066],[119.5536,28.0105],[119.5667,28.0159],[119.5934,28.0291],[119.608,28.038],[119.6144,28.044],[119.6272,28.0532],[119.6339,28.0588],[119.6491,28.0686],[119.655,28.0737],[119.6615,28.0813],[119.6724,28.0959],[119.6759,28.1038],[119.6798,28.1106],[119.688,28.1291],[119.7013,28.1435],[119.7229,28.1532],[119.7138,28.1672],[119.7088,28.1722],[119.6881,28.1736],[119.6658,28.1739],[119.6542,28.1745],[119.6531,28.1798],[119.6571,28.182],[119.6707,28.1859],[119.677,28.1866],[119.6886,28.191],[119.7018,28.1974],[119.7035,28.2047],[119.7035,28.2107],[119.6996,28.2306],[119.7017,28.2362],[119.7046,28.2371],[119.711,28.2352],[119.731,28.2235],[119.7392,28.221],[119.745,28.2242],[119.741,28.2317],[119.7245,28.241],[119.6958,28.2614],[119.6882,28.2674],[119.6814,28.2716],[119.6717,28.2742],[119.6643,28.271],[119.6432,28.2595],[119.6339,28.2539],[119.6254,28.256],[119.6155,28.2611],[119.5923,28.2713],[119.5683,28.2808],[119.5608,28.2863],[119.5514,28.2986]]]},"properties":{"region_code":"CN-33-3311-331125","parent_region_code":"CN-33-3311","name":"云和县","level":"county","has_children":false,"full_path":"中国 / 浙江省 / 丽水市 / 云和县","source_admin_code":"331125","osm_relation_id":3289208}},
{"type":"Feature","geometry":{"type":"Polygon","coordinates":[[[118.8287,27.8449],[118.8309,27.8428],[118.8329,27.8365],[118.8308,27.833],[118.8342,27.826],[118.8339,27.824],[118.8409,27.8165],[118.8452,27.8131],[118.8427,27.8047],[118.8471,27.8002],[118.8475,27.7967],[118.8443,27.7948],[118.8409,27.7962],[118.8391,27.7929],[118.8344,27.7923],[118.8379,27.7861],[118.835,27.782],[118.8445,27.7799],[118.8435,27.7767],[118.8511,27.7795],[118.8509,27.7694],[118.858,27.7618],[118.8592,27.7551],[118.8648,27.7489],[118.8652,27.7413],[118.8677,27.737],[118.8778,27.7332],[118.8794,27.7275],[118.8865,27.721],[118.8904,27.723],[118.8936,27.7225],[118.8914,27.7174],[118.8964,27.7126],[118.8964,27.71],[118.8901,27.7084],[118.8835,27.7102],[118.8807,27.7079],[118.872,27.7088],[118.8702,27.7028],[118.876,27.6992],[118.8767,27.6943],[118.874,27.689],[118.8702,27.6868],[118.8705,27.682],[118.8757,27.6773],[118.8751,27.6742],[118.8799,27.6686],[118.8816,27.6643],[118.8873,27.663],[118.8918,27.6582],[118.8935,27.6534],[118.8973,27.6506],[118.8973,27.6458],[118.9,27.6443],[118.8966,27.6369],[118.9002,27.6338],[118.8988,27.6286],[118.9039,27.6269],[118.9099,27.6214],[118.912,27.6161],[118.9055,27.6128],[118.9036,27.6087],[118.9049,27.6061],[118.9026,27.6032],[118.9032,27.6001],[118.8989,27.5946],[118.9001,27.5913],[118.8978,27.5859],[118.8994,27.5783],[118.9067,27.5721],[118.896,27.5709],[118.8906,27.5652],[118.8918,27.5596],[118.8891,27.5551],[118.8824,27.5507],[118.8777,27.5433],[118.8745,27.5433],[118.868,27.5456],[118.8648,27.5439],[118.8586,27.5304],[118.8553,27.5299],[118.8533,27.5224],[118.8557,27.5197],[118.8563,27.5153],[118.8614,27.519],[118.8658,27.5191],[118.8699,27.521],[118.8727,27.5199],[118.873,27.5113],[118.8767,27.5074],[118.876,27.5026],[118.8822,27.505],[118.8825,27.5019],[118.8869,27.4938],[118.8832,27.4878],[118.8931,27.4823],[118.8975,27.4765],[118.8983,27.472],[118.8965,27.4697],[118.8989,27.4659],[118.9056,27.4636],[118.9147,27.4664],[118.9207,27.4658],[118.9262,27.4667],[118.9334,27.4658],[118.9357,27.4618],[118.9423,27.4606],[118.9522,27.4523],[118.9563,27.4579],[118.9556,27.4603],[118.9589,27.4654],[118.9566,27.4719],[118.9611,27.4763],[118.9685,27.4774],[118.973,27.4796],[118.9794,27.4778],[118.9849,27.4815],[118.9846,27.4853],[118.9862,27.4898],[118.9791,27.4967],[118.9773,27.5008],[118.9873,27.5073],[118.9901,27.5008],[118.9941,27.4999],[119.0074,27.499],[119.0113,27.5026],[119.0186,27.5],[119.0194,27.4961],[119.0278,27.492],[119.0297,27.4852],[119.0357,27.4818],[119.0379,27.4849],[119.0505,27.482],[119.0512,27.4762],[119.0544,27.473],[119.0631,27.4708],[119.0674,27.4744],[119.0706,27.4751],[119.079,27.4676],[119.0857,27.4679],[119.0969,27.4786],[119.1077,27.4843],[119.1101,27.4874],[119.1233,27.4822],[119.1228,27.4797],[119.1263,27.4749],[119.1265,27.4676],[119.1241,27.4652],[119.1199,27.4665],[119.1144,27.4653],[119.1213,27.4581],[119.1221,27.4549],[119.1182,27.4507],[119.1186,27.4473],[119.1168,27.4392],[119.1202,27.4384],[119.123,27.4352],[119.1347,27.4379],[119.1408,27.4343],[119.1432,27.4284],[119.1474,27.4316],[119.1515,27.4316],[119.152,27.4287],[119.1611,27.4308],[119.1668,27.4286],[119.175,27.4314],[119.1764,27.4285],[119.1807,27.4282],[119.1877,27.4242],[119.1913,27.4211],[119.1979,27.4243],[119.2004,27.4232],[119.2052,27.4251],[119.223,27.4201],[119.2299,27.4236],[119.2332,27.4211],[119.2395,27.4224],[119.2396,27.4272],[119.2376,27.4307],[119.241,27.434],[119.2438,27.431],[119.2416,27.4246],[119.2574,27.4239],[119.2632,27.4249],[119.2732,27.4416],[119.2717,27.4465],[119.2736,27.4495],[119.2743,27.4557],[119.2829,27.4571],[119.2853,27.459],[119.2867,27.4658],[119.2901,27.4658],[119.2966,27.4696],[119.298,27.467],[119.3056,27.4689],[119.3094,27.4684],[119.3119,27.4705],[119.3128,27.4748],[119.3164,27.4783],[119.3159,27.4815],[119.3189,27.4848],[119.3217,27.4825],[119.3274,27.4846],[119.3325,27.4841],[119.3343,27.4861],[119.3347,27.4911],[119.3429,27.4966],[119.3422,27.5],[119.3387,27.5051],[119.3393,27.5088],[119.3351,27.5129],[119.3355,27.5171],[119.338,27.518],[119.3397,27.5231],[119.3441,27.5252],[119.3486,27.5219],[119.3549,27.5252],[119.3609,27.5318],[119.3663,27.5313],[119.3706,27.5338],[119.376,27.5344],[119.3812,27.5367],[119.3844,27.5363],[119.3929,27.5388],[119.395,27.537],[119.4023,27.538],[119.4089,27.5377],[119.4102,27.5389],[119.4172,27.5354],[119.4284,27.5272],[119.4266,27.5158],[119.4274,27.5114],[119.4374,27.5116],[119.4433,27.5135],[119.448,27.5185],[119.4478,27.5221],[119.4528,27.5218],[119.463,27.5267],[119.4663,27.5307],[119.4664,27.5374],[119.4684,27.5428],[119.4711,27.5447],[119.473,27.5489],[119.4796,27.5533],[119.4789,27.5584],[119.4852,27.5649],[119.4875,27.5706],[119.4808,27.5744],[119.4848,27.5805],[119.4829,27.5834],[119.4842,27.5875],[119.4819,27.5952],[119.4848,27.6003],[119.4838,27.6024],[119.4893,27.6048],[119.494,27.6097],[119.4981,27.6117],[119.4999,27.615],[119.4944,27.6189],[119.4929,27.6291],[119.4971,27.6322],[119.4938,27.6366],[119.496,27.6379],[119.4966,27.6528],[119.4763,27.6667],[119.474,27.676],[119.4784,27.6958],[119.4754,27.7003],[119.4685,27.702],[119.4557,27.709],[119.4485,27.7084],[119.4409,27.6955],[119.4369,27.6915],[119.4307,27.6893],[119.4151,27.6871],[119.4087,27.6785],[119.4013,27.6823],[119.3927,27.6892],[119.3842,27.6896],[119.375,27.6847],[119.3664,27.6783],[119.3617,27.6793],[119.3502,27.6908],[119.3423,27.6964],[119.3354,27.6996],[119.3238,27.7021],[119.3185,27.7061],[119.3103,27.7189],[119.305,27.7216],[119.2865,27.7263],[119.2825,27.7307],[119.2828,27.7351],[119.2879,27.7417],[119.3019,27.7531],[119.3043,27.756],[119.3068,27.7624],[119.307,27.7704],[119.3015,27.7884],[119.2952,27.7959],[119.2857,27.798],[119.28,27.7965],[119.2674,27.799],[119.2542,27.7995],[119.2454,27.7976],[119.238,27.8001],[119.2311,27.8034],[119.2332,27.8172],[119.2318,27.8326],[119.2301,27.8367],[119.2201,27.8287],[119.2132,27.824],[119.2038,27.8203],[119.1919,27.8171],[119.1865,27.819],[119.1739,27.8346],[119.1618,27.8452],[119.1492,27.8491],[119.1428,27.8499],[119.1397,27.8422],[119.1409,27.8351],[119.1376,27.8294],[119.1364,27.8227],[119.139,27.8119],[119.1441,27.8086],[119.151,27.8073],[119.1684,27.8072],[119.1719,27.8018],[119.1723,27.7775],[119.1695,27.7709],[119.1681,27.7624],[119.1661,27.7567],[119.1589,27.7573],[119.1503,27.7554],[119.1376,27.7541],[119.1249,27.7518],[119.1174,27.7494],[119.0987,27.7454],[119.0925,27.7467],[119.0842,27.7443],[119.0681,27.7423],[119.0639,27.7408],[119.0551,27.7398],[119.0462,27.745],[119.0394,27.7511],[119.0321,27.7591],[119.0283,27.7619],[119.022,27.7689],[119.0141,27.7736],[119.0153,27.7819],[119.0124,27.7893],[119.0095,27.7999],[119.0031,27.8032],[118.9968,27.8077],[118.9873,27.8102],[118.9803,27.8128],[118.962,27.8132],[118.9501,27.8154],[118.929,27.8282],[118.9163,27.8383],[118.9092,27.8465],[118.9009,27.8574],[118.893,27.8628],[118.8859,27.8653],[118.8754,27.8583],[118.8656,27.8493],[118.8541,27.8429],[118.845,27.8423],[118.8287,27.8449]]]},"properties":{"region_code":"CN-33-3311-331126","parent_region_code":"CN-33-3311","name":"庆元县","level":"county","has_children":false,"full_path":"中国 / 浙江省 / 丽水市 / 庆元县","source_admin_code":"331126","osm_relation_id":3289206}},
{"type":"Feature","geometry":{"type":"Polygon","coordinates":[[[119.7229,28.1532],[119.7013,28.1435],[119.688,28.1291],[119.6798,28.1106],[119.6759,28.1038],[119.6724,28.0959],[119.6615,28.0813],[119.655,28.0737],[119.6491,28.0686],[119.6339,28.0588],[119.6272,28.0532],[119.6144,28.044],[119.608,28.038],[119.5934,28.0291],[119.5667,28.0159],[119.5536,28.0105],[119.5412,28.0066],[119.5375,28.0046],[119.5177,28],[119.5116,27.9959],[119.5022,27.9943],[119.4847,27.9887],[119.472,27.9881],[119.4621,27.9844],[119.4565,27.979],[119.4563,27.9693],[119.4568,27.9611],[119.4586,27.9516],[119.4611,27.9463],[119.4593,27.9364],[119.4546,27.9269],[119.4488,27.9213],[119.4338,27.9127],[119.4255,27.9105],[119.4027,27.9119],[119.3908,27.9174],[119.3837,27.916],[119.3802,27.9222],[119.3746,27.926],[119.3642,27.9211],[119.3618,27.9214],[119.3605,27.9127],[119.3541,27.9137],[119.3487,27.9062],[119.3447,27.9034],[119.3364,27.9079],[119.3253,27.9092],[119.3148,27.9124],[119.2968,27.9084],[119.2841,27.908],[119.28,27.9062],[119.2767,27.9015],[119.2702,27.8876],[119.2633,27.8829],[119.2544,27.8684],[119.2503,27.8607],[119.2412,27.8475],[119.2301,27.8367],[119.2318,27.8326],[119.2332,27.8172],[119.2311,27.8034],[119.238,27.8001],[119.2454,27.7976],[119.2542,27.7995],[119.2674,27.799],[119.28,27.7965],[119.2857,27.798],[119.2952,27.7959],[119.3015,27.7884],[119.307,27.7704],[119.3068,27.7624],[119.3043,27.756],[119.3019,27.7531],[119.2879,27.7417],[119.2828,27.7351],[119.2825,27.7307],[119.2865,27.7263],[119.305,27.7216],[119.3103,27.7189],[119.3185,27.7061],[119.3238,27.7021],[119.3354,27.6996],[119.3423,27.6964],[119.3502,27.6908],[119.3617,27.6793],[119.3664,27.6783],[119.375,27.6847],[119.3842,27.6896],[119.3927,27.6892],[119.4013,27.6823],[119.4087,27.6785],[119.4151,27.6871],[119.4307,27.6893],[119.4369,27.6915],[119.4409,27.6955],[119.4485,27.7084],[119.4557,27.709],[119.4685,27.702],[119.4754,27.7003],[119.4784,27.6958],[119.474,27.676],[119.4763,27.6667],[119.4966,27.6528],[119.503,27.6522],[119.5085,27.6569],[119.5127,27.6526],[119.5152,27.6522],[119.5197,27.6571],[119.5211,27.6637],[119.5338,27.6617],[119.5381,27.6694],[119.5352,27.6776],[119.5397,27.6781],[119.5399,27.6748],[119.5459,27.6732],[119.545,27.6674],[119.5529,27.6657],[119.5583,27.6695],[119.5639,27.667],[119.568,27.6693],[119.5712,27.6748],[119.575,27.6738],[119.5754,27.6705],[119.5817,27.6667],[119.5898,27.67],[119.5922,27.6734],[119.6031,27.6775],[119.6105,27.6759],[119.6155,27.6769],[119.6169,27.6734],[119.6281,27.6727],[119.6315,27.6711],[119.6461,27.6815],[119.6491,27.7195],[119.6699,27.7409],[119.6795,27.7564],[119.6949,27.7634],[119.7174,27.7656],[119.7328,27.7766],[119.7399,27.7991],[119.7595,27.8079],[119.7758,27.8002],[119.7804,27.7992],[119.7816,27.8056],[119.7801,27.8071],[119.7837,27.8119],[119.7795,27.8154],[119.7794,27.8238],[119.7755,27.828],[119.7809,27.846],[119.7867,27.8579],[119.7907,27.8927],[119.7911,27.9133],[119.8119,27.9269],[119.8483,27.9316],[119.8499,27.945],[119.8365,27.9553],[119.844,27.9645],[119.8665,27.9645],[119.8703,27.9829],[119.876,27.9905],[119.8811,27.9968],[119.8824,28],[119.8786,28.0118],[119.8757,28.0167],[119.8761,28.0199],[119.8813,28.0213],[119.8888,28.0199],[119.893,28.017],[119.9109,28.0112],[119.9305,28.0092],[119.9425,28.0108],[119.9464,28.0123],[119.9487,28.0175],[119.9526,28.0231],[119.9563,28.0315],[119.9622,28.0414],[119.97,28.0601],[119.9708,28.0677],[119.9705,28.078],[119.9608,28.0944],[119.9576,28.0986],[119.9543,28.1061],[119.9499,28.1131],[119.9389,28.1277],[119.926,28.1412],[119.9229,28.1482],[119.9179,28.1532],[119.9148,28.1579],[119.9095,28.1739],[119.8795,28.1546],[119.8694,28.1559],[119.8564,28.1722],[119.8487,28.1738],[119.8484,28.1626],[119.85,28.1439],[119.8412,28.1397],[119.831,28.1425],[119.8286,28.1484],[119.8189,28.1517],[119.8141,28.1491],[119.8042,28.1412],[119.7938,28.1347],[119.7734,28.12],[119.7591,28.1124],[119.7406,28.1105],[119.7299,28.1153],[119.7264,28.1239],[119.7243,28.1343],[119.7247,28.1437],[119.7229,28.1532]]]},"properties":{"region_code":"CN-33-3311-331127","parent_region_code":"CN-33-3311","name":"景宁畲族自治县","level":"county","has_children":false,"full_path":"中国 / 浙江省 / 丽水市 / 景宁畲族自治县","source_admin_code":"331127","osm_relation_id":3289201}},
{"type":"Feature","geometry":{"type":"Polygon","coordinates":[[[118.7514,28.2558],[118.7493,28.2534],[118.7496,28.249],[118.7599,28.2411],[118.7617,28.2382],[118.7666,28.2396],[118.7698,28.243],[118.7817,28.2464],[118.7887,28.2466],[118.7958,28.2455],[118.8015,28.2395],[118.7987,28.2366],[118.8088,28.2337],[118.8052,28.2231],[118.8014,28.2196],[118.8015,28.2174],[118.7985,28.2108],[118.7919,28.212],[118.7871,28.2057],[118.7839,28.2045],[118.7803,28.1968],[118.7751,28.1946],[118.7704,28.195],[118.7661,28.1911],[118.7636,28.1851],[118.7597,28.1818],[118.7597,28.1777],[118.7561,28.1738],[118.759,28.171],[118.7683,28.17],[118.7783,28.1763],[118.7871,28.1713],[118.7927,28.1724],[118.7919,28.1665],[118.7963,28.164],[118.8013,28.1571],[118.802,28.1533],[118.806,28.1519],[118.8027,28.1423],[118.7962,28.1422],[118.7955,28.1365],[118.7982,28.1307],[118.7964,28.1237],[118.7981,28.1203],[118.7953,28.1174],[118.7914,28.1162],[118.7857,28.118],[118.7819,28.1177],[118.7774,28.1204],[118.7758,28.1143],[118.7687,28.1165],[118.7659,28.1098],[118.7619,28.1073],[118.7596,28.1019],[118.76,28.0991],[118.7524,28.0949],[118.7455,28.0962],[118.7397,28.0924],[118.7385,28.0872],[118.7339,28.0849],[118.7307,28.0785],[118.7233,28.0758],[118.7167,28.0694],[118.7118,28.0675],[118.7144,28.0589],[118.7126,28.0566],[118.7149,28.051],[118.7136,28.0449],[118.7129,28.0353],[118.7168,28.0358],[118.7237,28.041],[118.7258,28.0408],[118.729,28.0356],[118.7296,28.0313],[118.7242,28.0228],[118.7202,28.0144],[118.7209,28.0094],[118.7238,28.0013],[118.7286,27.9921],[118.7266,27.991],[118.7282,27.9855],[118.7278,27.979],[118.7242,27.978],[118.7243,27.9734],[118.7274,27.9704],[118.732,27.9689],[118.7345,27.9644],[118.7448,27.9566],[118.7473,27.9533],[118.7473,27.9461],[118.749,27.9443],[118.757,27.9461],[118.7649,27.9442],[118.7708,27.9407],[118.7806,27.9406],[118.7864,27.9369],[118.7952,27.9345],[118.8009,27.9271],[118.7961,27.9238],[118.8004,27.9209],[118.8096,27.9207],[118.8133,27.9185],[118.811,27.9131],[118.8163,27.9091],[118.8155,27.8985],[118.8205,27.8925],[118.8282,27.8911],[118.8227,27.8852],[118.8239,27.8768],[118.829,27.8744],[118.8331,27.8673],[118.8282,27.8626],[118.8279,27.8573],[118.8254,27.8515],[118.8218,27.8501],[118.8287,27.8449],[118.845,27.8423],[118.8541,27.8429],[118.8656,27.8493],[118.8754,27.8583],[118.8859,27.8653],[118.893,27.8628],[118.9009,27.8574],[118.9092,27.8465],[118.9163,27.8383],[118.929,27.8282],[118.9501,27.8154],[118.962,27.8132],[118.9803,27.8128],[118.9873,27.8102],[118.9968,27.8077],[119.0031,27.8032],[119.0095,27.7999],[119.0124,27.7893],[119.0153,27.7819],[119.0141,27.7736],[119.022,27.7689],[119.0283,27.7619],[119.0321,27.7591],[119.0394,27.7511],[119.0462,27.745],[119.0551,27.7398],[119.0639,27.7408],[119.0681,27.7423],[119.0842,27.7443],[119.0925,27.7467],[119.0987,27.7454],[119.1174,27.7494],[119.1249,27.7518],[119.1376,27.7541],[119.1503,27.7554],[119.1589,27.7573],[119.1661,27.7567],[119.1681,27.7624],[119.1695,27.7709],[119.1723,27.7775],[119.1719,27.8018],[119.1684,27.8072],[119.151,27.8073],[119.1441,27.8086],[119.139,27.8119],[119.1364,27.8227],[119.1376,27.8294],[119.1409,27.8351],[119.1397,27.8422],[119.1428,27.8499],[119.1492,27.8491],[119.1618,27.8452],[119.1739,27.8346],[119.1865,27.819],[119.1919,27.8171],[119.2038,27.8203],[119.2132,27.824],[119.2201,27.8287],[119.2301,27.8367],[119.2412,27.8475],[119.2503,27.8607],[119.2544,27.8684],[119.2633,27.8829],[119.2702,27.8876],[119.2767,27.9015],[119.28,27.9062],[119.2841,27.908],[119.2968,27.9084],[119.3148,27.9124],[119.3253,27.9092],[119.3364,27.9079],[119.3447,27.9034],[119.3487,27.9062],[119.3541,27.9137],[119.3605,27.9127],[119.3618,27.9214],[119.3642,27.9211],[119.3746,27.926],[119.3802,27.9222],[119.3837,27.916],[119.3908,27.9174],[119.3853,27.9214],[119.3879,27.9275],[119.383,27.9299],[119.3865,27.933],[119.3819,27.9364],[119.3816,27.9447],[119.3667,27.9498],[119.3661,27.9529],[119.3744,27.9565],[119.3676,27.9665],[119.3625,27.9682],[119.3608,27.9717],[119.3549,27.9747],[119.3571,27.9793],[119.3492,27.9836],[119.3557,27.9894],[119.3502,27.9981],[119.3514,28.0006],[119.3618,27.9978],[119.3621,27.9929],[119.3703,27.9895],[119.3751,27.9821],[119.3766,27.9856],[119.3809,27.9853],[119.3817,27.9804],[119.3852,27.9802],[119.3831,27.9921],[119.3906,27.9917],[119.381,28.0063],[119.3904,28.0202],[119.3942,28.021],[119.3966,28.028],[119.4082,28.0299],[119.41,28.0334],[119.417,28.035],[119.4221,28.0386],[119.4141,28.0493],[119.4137,28.0591],[119.408,28.0618],[119.4072,28.0681],[119.4046,28.0736],[119.4099,28.0778],[119.409,28.0904],[119.406,28.0936],[119.4047,28.0985],[119.4009,28.0997],[119.4008,28.1035],[119.3902,28.1099],[119.3881,28.1174],[119.3783,28.1224],[119.3784,28.1276],[119.3747,28.1336],[119.3801,28.1363],[119.376,28.1454],[119.378,28.1473],[119.3833,28.1454],[119.3919,28.1453],[119.3889,28.1495],[119.3911,28.1564],[119.3916,28.1615],[119.398,28.1714],[119.3979,28.1773],[119.401,28.1841],[119.408,28.1963],[119.4105,28.2024],[119.4082,28.207],[119.4098,28.2118],[119.4046,28.2177],[119.4047,28.2208],[119.3994,28.2224],[119.3976,28.2271],[119.3881,28.2333],[119.3822,28.2352],[119.3853,28.2402],[119.3899,28.2441],[119.3877,28.2471],[119.3923,28.2521],[119.3902,28.2548],[119.3839,28.2573],[119.391,28.2623],[119.3845,28.2643],[119.3776,28.2649],[119.3741,28.2562],[119.366,28.253],[119.3663,28.2468],[119.3598,28.245],[119.3514,28.246],[119.3438,28.2431],[119.3355,28.2429],[119.3344,28.2486],[119.3311,28.2521],[119.3297,28.2564],[119.3206,28.2572],[119.3154,28.2533],[119.3077,28.252],[119.3024,28.2433],[119.2977,28.2451],[119.2896,28.2453],[119.2821,28.2478],[119.2846,28.2526],[119.2836,28.2627],[119.279,28.2653],[119.272,28.2654],[119.2694,28.2692],[119.2687,28.2753],[119.2664,28.2787],[119.2667,28.2853],[119.2629,28.2876],[119.2492,28.2891],[119.2484,28.2908],[119.2396,28.2925],[119.2372,28.2945],[119.2291,28.2953],[119.2223,28.2982],[119.2188,28.301],[119.2122,28.3023],[119.2065,28.301],[119.2063,28.2982],[119.2029,28.2941],[119.2028,28.2865],[119.2091,28.282],[119.2161,28.2757],[119.2212,28.278],[119.2238,28.2723],[119.2182,28.2701],[119.2169,28.2672],[119.2124,28.2642],[119.2146,28.2564],[119.2104,28.2572],[119.2058,28.2601],[119.2025,28.2586],[119.1993,28.2612],[119.1987,28.2646],[119.1946,28.267],[119.1859,28.2757],[119.1805,28.2752],[119.1785,28.2715],[119.1742,28.2729],[119.179,28.2767],[119.1762,28.2821],[119.1796,28.2891],[119.1741,28.295],[119.168,28.2969],[119.1662,28.2995],[119.1672,28.3065],[119.1481,28.3029],[119.1411,28.3037],[119.1358,28.3073],[119.1342,28.3126],[119.1343,28.3225],[119.1352,28.3261],[119.1282,28.3339],[119.1238,28.3356],[119.1165,28.3344],[119.1079,28.3264],[119.1018,28.3142],[119.0996,28.303],[119.0954,28.2937],[119.0873,28.2843],[119.0785,28.2793],[119.072,28.2774],[119.0651,28.2732],[119.0615,28.2682],[119.058,28.2704],[119.0566,28.2766],[119.0506,28.2894],[119.0463,28.2946],[119.0331,28.2949],[119.0273,28.2934],[119.0097,28.2852],[119.0012,28.2797],[118.988,28.266],[118.9858,28.2631],[118.9845,28.254],[118.9859,28.2505],[118.9929,28.2416],[118.9958,28.2353],[118.9963,28.2259],[118.9922,28.2212],[118.9851,28.2166],[118.9788,28.2142],[118.9666,28.2143],[118.9505,28.222],[118.9448,28.2293],[118.9379,28.2412],[118.9336,28.253],[118.9306,28.2579],[118.9213,28.2648],[118.9146,28.2672],[118.9089,28.2674],[118.9,28.2651],[118.8847,28.2622],[118.881,28.2675],[118.8813,28.2726],[118.879,28.2748],[118.8842,28.2836],[118.8831,28.2886],[118.8709,28.2977],[118.8685,28.3018],[118.867,28.314],[118.864,28.3186],[118.8593,28.3219],[118.854,28.3197],[118.8512,28.3147],[118.8486,28.3135],[118.8445,28.3084],[118.8406,28.3055],[118.8263,28.2988],[118.821,28.2955],[118.8137,28.2936],[118.812,28.2888],[118.8091,28.2867],[118.8071,28.2824],[118.8082,28.2788],[118.8089,28.2686],[118.8012,28.2671],[118.7946,28.2692],[118.7875,28.2689],[118.7819,28.2657],[118.772,28.256],[118.7514,28.2558]]]},"properties":{"region_code":"CN-33-3311-331181","parent_region_code":"CN-33-3311","name":"龙泉市","level":"county","has_children":false,"full_path":"中国 / 浙江省 / 丽水市 / 龙泉市","source_admin_code":"331181","osm_relation_id":3289204}}
]}