{"type":"FeatureCollection", "features": [
{"type":"Feature","geometry":{"type":"Polygon","coordinates":[[[116.5066,37.5484],[116.5013,37.5409],[116.4934,37.5368],[116.4767,37.5209],[116.4574,37.5173],[116.4507,37.5134],[116.4411,37.5003],[116.432,37.4755],[116.4205,37.4778],[116.405,37.4938],[116.3989,37.512],[116.3819,37.5114],[116.3822,37.5206],[116.3725,37.5208],[116.3631,37.5256],[116.362,37.533],[116.3709,37.5454],[116.3705,37.5557],[116.3738,37.5624],[116.3612,37.5652],[116.3471,37.5635],[116.3376,37.5651],[116.3357,37.5741],[116.3281,37.5754],[116.3205,37.5687],[116.3146,37.5704],[116.295,37.5604],[116.2876,37.559],[116.2889,37.5522],[116.2834,37.5335],[116.2856,37.5231],[116.2733,37.5242],[116.2778,37.5176],[116.2745,37.5105],[116.2837,37.5087],[116.2797,37.502],[116.2872,37.4971],[116.2836,37.483],[116.2749,37.4821],[116.266,37.4772],[116.2749,37.4698],[116.2658,37.4661],[116.2579,37.4733],[116.26,37.4778],[116.2375,37.4899],[116.2326,37.488],[116.2294,37.4791],[116.2187,37.4792],[116.2184,37.4741],[116.2237,37.468],[116.2238,37.4588],[116.2376,37.4556],[116.2374,37.4475],[116.2322,37.4451],[116.2284,37.4365],[116.2217,37.4334],[116.2208,37.4274],[116.226,37.4239],[116.2415,37.4216],[116.2442,37.4253],[116.2579,37.4265],[116.2605,37.4178],[116.2693,37.4172],[116.269,37.4113],[116.2777,37.4007],[116.2668,37.3972],[116.2675,37.39],[116.2554,37.3889],[116.2518,37.3819],[116.2299,37.3609],[116.2437,37.3583],[116.2837,37.347],[116.2852,37.3282],[116.2753,37.3261],[116.28,37.3189],[116.2795,37.3043],[116.2822,37.2918],[116.2911,37.2911],[116.295,37.2835],[116.3026,37.2812],[116.3083,37.2715],[116.3177,37.2713],[116.3231,37.2669],[116.3463,37.2684],[116.3576,37.2664],[116.358,37.2773],[116.3627,37.2843],[116.3759,37.2859],[116.3695,37.296],[116.3704,37.3011],[116.3844,37.3083],[116.386,37.3143],[116.3884,37.3262],[116.393,37.3336],[116.4049,37.3427],[116.4234,37.3454],[116.4316,37.3554],[116.4453,37.3657],[116.4556,37.3761],[116.4487,37.3796],[116.4389,37.38],[116.4462,37.3886],[116.4595,37.3868],[116.4704,37.3902],[116.4716,37.3978],[116.4826,37.3969],[116.4853,37.4104],[116.4712,37.4143],[116.4635,37.4187],[116.4699,37.4248],[116.4709,37.4337],[116.4768,37.4329],[116.4802,37.4554],[116.4779,37.4589],[116.4831,37.4679],[116.4983,37.4646],[116.4989,37.4566],[116.4954,37.4478],[116.5084,37.446],[116.5193,37.4479],[116.5319,37.4453],[116.5364,37.4418],[116.5457,37.4444],[116.5495,37.4625],[116.5442,37.4678],[116.5628,37.4817],[116.57,37.4799],[116.5758,37.4993],[116.5664,37.5036],[116.5712,37.5137],[116.5835,37.5104],[116.5956,37.5163],[116.5947,37.5246],[116.5825,37.526],[116.5766,37.5301],[116.5688,37.5438],[116.5617,37.5369],[116.5534,37.5366],[116.5482,37.5413],[116.5129,37.5411],[116.5169,37.5477],[116.5066,37.5484]]]},"properties":{"region_code":"CN-37-3714-371402","parent_region_code":"CN-37-3714","name":"德城区","level":"county","has_children":false,"full_path":"中国 / 山东省 / 德州市 / 德城区","source_admin_code":"371402","osm_relation_id":5679926}},
{"type":"Feature","geometry":{"type":"Polygon","coordinates":[[[116.386,37.3143],[116.3982,37.3093],[116.3967,37.2915],[116.408,37.2873],[116.4042,37.2803],[116.4191,37.2768],[116.424,37.2801],[116.4324,37.2763],[116.4419,37.2754],[116.4767,37.2755],[116.4861,37.2708],[116.4963,37.2752],[116.5129,37.2717],[116.5282,37.2785],[116.5404,37.2754],[116.5438,37.266],[116.5556,37.2642],[116.5896,37.2491],[116.5913,37.2549],[116.5978,37.2547],[116.6088,37.2425],[116.6163,37.2457],[116.6256,37.2437],[116.6344,37.2517],[116.6405,37.2498],[116.643,37.242],[116.6517,37.2389],[116.6484,37.2312],[116.6624,37.2257],[116.6653,37.2167],[116.6874,37.222],[116.6967,37.2175],[116.6946,37.2109],[116.7032,37.2042],[116.7224,37.2119],[116.726,37.2162],[116.7428,37.2249],[116.7429,37.2315],[116.751,37.2446],[116.7608,37.2405],[116.7627,37.2473],[116.7702,37.2463],[116.7925,37.2511],[116.8002,37.2608],[116.8017,37.2759],[116.7964,37.278],[116.7986,37.2881],[116.8093,37.2895],[116.8143,37.3],[116.8141,37.308],[116.8209,37.3219],[116.825,37.3221],[116.8224,37.3371],[116.8388,37.3394],[116.8451,37.3371],[116.8535,37.3386],[116.8596,37.3433],[116.8578,37.3489],[116.8609,37.3621],[116.8661,37.3665],[116.8635,37.3757],[116.8773,37.3767],[116.8856,37.3889],[116.8855,37.4023],[116.8967,37.4145],[116.9038,37.4327],[116.8908,37.4347],[116.8853,37.4424],[116.8881,37.4497],[116.8948,37.4561],[116.8935,37.4625],[116.8982,37.4933],[116.8886,37.5034],[116.8895,37.5093],[116.8977,37.515],[116.915,37.5214],[116.9168,37.5117],[116.9324,37.5214],[116.9441,37.5243],[116.9394,37.5371],[116.9273,37.5421],[116.9255,37.549],[116.9126,37.5499],[116.9079,37.5553],[116.908,37.5683],[116.9173,37.5707],[116.9124,37.5725],[116.9106,37.5812],[116.9042,37.5834],[116.8945,37.6015],[116.897,37.6071],[116.8919,37.6149],[116.8833,37.6145],[116.8755,37.6072],[116.8665,37.6111],[116.8552,37.6126],[116.847,37.6095],[116.8452,37.6036],[116.8249,37.6023],[116.821,37.5961],[116.8121,37.5921],[116.819,37.5847],[116.8266,37.5836],[116.8263,37.573],[116.8174,37.57],[116.8128,37.5617],[116.8061,37.5623],[116.7984,37.55],[116.7692,37.552],[116.7627,37.5455],[116.7527,37.5467],[116.7498,37.5567],[116.7383,37.5697],[116.731,37.5705],[116.7196,37.5782],[116.7045,37.5817],[116.6851,37.5805],[116.6781,37.585],[116.6744,37.5678],[116.6612,37.5685],[116.6559,37.5572],[116.6485,37.5548],[116.64,37.5556],[116.6359,37.5488],[116.6269,37.5529],[116.6179,37.5533],[116.6157,37.538],[116.6057,37.5353],[116.5947,37.5246],[116.5956,37.5163],[116.5835,37.5104],[116.5712,37.5137],[116.5664,37.5036],[116.5758,37.4993],[116.57,37.4799],[116.5628,37.4817],[116.5442,37.4678],[116.5495,37.4625],[116.5457,37.4444],[116.5364,37.4418],[116.5319,37.4453],[116.5193,37.4479],[116.5084,37.446],[116.4954,37.4478],[116.4989,37.4566],[116.4983,37.4646],[116.4831,37.4679],[116.4779,37.4589],[116.4802,37.4554],[116.4768,37.4329],[116.4709,37.4337],[116.4699,37.4248],[116.4635,37.4187],[116.4712,37.4143],[116.4853,37.4104],[116.4826,37.3969],[116.4716,37.3978],[116.4704,37.3902],[116.4595,37.3868],[116.4462,37.3886],[116.4389,37.38],[116.4487,37.3796],[116.4556,37.3761],[116.4453,37.3657],[116.4316,37.3554],[116.4234,37.3454],[116.4049,37.3427],[116.393,37.3336],[116.3884,37.3262],[116.386,37.3143]]]},"properties":{"region_code":"CN-37-3714-371403","parent_region_code":"CN-37-3714","name":"陵城区","level":"county","has_children":false,"full_path":"中国 / 山东省 / 德州市 / 陵城区","source_admin_code":"371403","osm_relation_id":5679927}},
{"type":"Feature","geometry":{"type":"Polygon","coordinates":[[[116.5947,37.5246],[116.6057,37.5353],[116.6157,37.538],[116.6179,37.5533],[116.6269,37.5529],[116.6359,37.5488],[116.64,37.5556],[116.6485,37.5548],[116.6559,37.5572],[116.6612,37.5685],[116.6744,37.5678],[116.6781,37.585],[116.6851,37.5805],[116.7045,37.5817],[116.7196,37.5782],[116.731,37.5705],[116.7383,37.5697],[116.7498,37.5567],[116.7527,37.5467],[116.7627,37.5455],[116.7692,37.552],[116.7984,37.55],[116.8061,37.5623],[116.8128,37.5617],[116.8174,37.57],[116.8263,37.573],[116.8266,37.5836],[116.819,37.5847],[116.8121,37.5921],[116.821,37.5961],[116.8249,37.6023],[116.8452,37.6036],[116.847,37.6095],[116.8552,37.6126],[116.8665,37.6111],[116.8755,37.6072],[116.8833,37.6145],[116.8919,37.6149],[116.897,37.6071],[116.8945,37.6015],[116.9042,37.5834],[116.9106,37.5812],[116.9124,37.5725],[116.9173,37.5707],[116.9249,37.5729],[116.9387,37.5722],[116.9401,37.5817],[116.95,37.5816],[116.9593,37.5902],[116.9617,37.5978],[116.9819,37.598],[116.9821,37.6031],[116.9962,37.6025],[116.9974,37.6241],[116.9923,37.6244],[116.991,37.6328],[117.0024,37.6326],[117.0119,37.637],[117.0097,37.65],[117.0147,37.6697],[117.0035,37.6718],[116.9986,37.6767],[116.9873,37.6774],[116.9929,37.6847],[116.9937,37.6963],[116.9879,37.6998],[116.9901,37.7095],[116.9886,37.7168],[116.9921,37.7318],[116.9838,37.7314],[116.9766,37.7345],[116.9753,37.7425],[116.9699,37.7432],[116.971,37.7513],[116.9669,37.7545],[116.9687,37.7705],[116.9581,37.7716],[116.9535,37.7787],[116.9536,37.7861],[116.9458,37.7922],[116.9445,37.8105],[116.9547,37.8286],[116.9473,37.8298],[116.9426,37.8237],[116.9335,37.8258],[116.9344,37.8352],[116.9382,37.8365],[116.9358,37.8402],[116.9155,37.8446],[116.9028,37.8423],[116.8731,37.843],[116.8451,37.835],[116.8297,37.8351],[116.8219,37.8404],[116.8069,37.8406],[116.7962,37.837],[116.7626,37.8128],[116.7537,37.8024],[116.7431,37.7995],[116.7494,37.7872],[116.7478,37.7692],[116.7449,37.7601],[116.733,37.7564],[116.724,37.7647],[116.7175,37.7663],[116.7122,37.7582],[116.7187,37.7435],[116.7038,37.7346],[116.7003,37.7396],[116.693,37.7381],[116.6944,37.7299],[116.6746,37.7242],[116.6692,37.7198],[116.6596,37.6899],[116.6533,37.6804],[116.6326,37.68],[116.6307,37.6754],[116.6355,37.6659],[116.623,37.6494],[116.599,37.6248],[116.5947,37.6214],[116.5691,37.6092],[116.5549,37.5917],[116.5395,37.5815],[116.5368,37.5711],[116.5325,37.5676],[116.5189,37.5629],[116.5112,37.5563],[116.5066,37.5484],[116.5169,37.5477],[116.5129,37.5411],[116.5482,37.5413],[116.5534,37.5366],[116.5617,37.5369],[116.5688,37.5438],[116.5766,37.5301],[116.5825,37.526],[116.5947,37.5246]]]},"properties":{"region_code":"CN-37-3714-371422","parent_region_code":"CN-37-3714","name":"宁津县","level":"county","has_children":false,"full_path":"中国 / 山东省 / 德州市 / 宁津县","source_admin_code":"371422","osm_relation_id":5679929}},
{"type":"Feature","geometry":{"type":"Polygon","coordinates":[[[117.3069,37.8575],[117.3157,37.847],[117.3265,37.849],[117.3345,37.843],[117.3393,37.8433],[117.3429,37.8309],[117.3483,37.8262],[117.3361,37.8232],[117.3283,37.8244],[117.3201,37.8206],[117.3158,37.8105],[117.3065,37.8102],[117.3056,37.8007],[117.2974,37.7984],[117.304,37.7912],[117.31,37.7681],[117.3063,37.7574],[117.3099,37.7552],[117.3089,37.7364],[117.3124,37.7322],[117.3113,37.7249],[117.3193,37.7205],[117.3164,37.7049],[117.3311,37.7046],[117.3388,37.7085],[117.3453,37.7065],[117.36,37.6926],[117.3567,37.6758],[117.3519,37.672],[117.3506,37.6651],[117.3538,37.6526],[117.3635,37.6511],[117.3785,37.6562],[117.3938,37.668],[117.3944,37.677],[117.4001,37.6806],[117.4158,37.673],[117.4362,37.6691],[117.439,37.6749],[117.4453,37.6734],[117.4469,37.6674],[117.4604,37.6537],[117.4725,37.651],[117.4737,37.6647],[117.4825,37.6782],[117.4973,37.6798],[117.5084,37.6885],[117.5255,37.6884],[117.5323,37.6943],[117.5373,37.7033],[117.5316,37.7067],[117.5353,37.7141],[117.5423,37.7159],[117.544,37.7218],[117.5363,37.7259],[117.5407,37.7425],[117.5382,37.747],[117.5255,37.7475],[117.5156,37.7587],[117.5206,37.7624],[117.5413,37.7669],[117.5409,37.7755],[117.5454,37.7857],[117.5542,37.7998],[117.5621,37.804],[117.5604,37.8122],[117.5657,37.8165],[117.5787,37.8196],[117.5847,37.8251],[117.5884,37.8336],[117.5962,37.8366],[117.6004,37.8444],[117.5883,37.853],[117.5798,37.855],[117.5736,37.8602],[117.5759,37.8673],[117.5717,37.8774],[117.5584,37.8774],[117.5532,37.8828],[117.5332,37.8859],[117.5383,37.9011],[117.5376,37.9085],[117.5324,37.909],[117.5286,37.9199],[117.5275,37.9301],[117.535,37.9389],[117.5456,37.9413],[117.5565,37.949],[117.5641,37.9502],[117.5663,37.9588],[117.5593,37.9606],[117.5606,37.9745],[117.5537,38.0027],[117.5429,38.0028],[117.5351,38.0107],[117.5238,37.999],[117.5186,37.9902],[117.5157,37.9696],[117.5058,37.9411],[117.4842,37.9249],[117.4747,37.914],[117.4637,37.8949],[117.4326,37.8535],[117.4165,37.8461],[117.3961,37.8408],[117.3915,37.8456],[117.3757,37.8535],[117.3587,37.8532],[117.343,37.8601],[117.3336,37.8624],[117.3157,37.8607],[117.3069,37.8575]]]},"properties":{"region_code":"CN-37-3714-371423","parent_region_code":"CN-37-3714","name":"庆云县","level":"county","has_children":false,"full_path":"中国 / 山东省 / 德州市 / 庆云县","source_admin_code":"371423","osm_relation_id":3513345}},
{"type":"Feature","geometry":{"type":"Polygon","coordinates":[[[116.7032,37.2042],[116.7079,37.2008],[116.7098,37.1959],[116.7178,37.194],[116.7195,37.1888],[116.7172,37.1804],[116.7293,37.1757],[116.7276,37.1665],[116.7232,37.1657],[116.7125,37.1534],[116.7078,37.1423],[116.7102,37.1364],[116.7096,37.0921],[116.6991,37.0919],[116.699,37.0864],[116.7109,37.0745],[116.7316,37.0596],[116.7383,37.0588],[116.7428,37.0529],[116.7426,37.0457],[116.7304,37.0425],[116.729,37.0335],[116.7347,37.0284],[116.7429,37.0309],[116.758,37.0318],[116.7629,37.021],[116.7621,37.0095],[116.771,37.0115],[116.7796,37.0098],[116.7899,36.9994],[116.8198,36.9976],[116.8343,37.0008],[116.844,37.0088],[116.8524,37.0088],[116.8693,36.999],[116.8795,36.9992],[116.8932,37.0072],[116.8999,37.0189],[116.9044,37.0223],[116.9246,37.0277],[116.941,37.0305],[116.9359,37.0403],[116.9246,37.0469],[116.9197,37.0579],[116.9185,37.0688],[116.912,37.0718],[116.9119,37.085],[116.9169,37.1044],[116.9231,37.1018],[116.9432,37.1036],[116.9439,37.1073],[116.9536,37.1123],[116.9629,37.1094],[116.9727,37.1111],[116.982,37.1156],[116.9873,37.1266],[117.0045,37.1278],[117.0154,37.1213],[117.0175,37.1166],[117.0311,37.1213],[117.0382,37.1209],[117.0379,37.1309],[117.0486,37.141],[117.0483,37.1492],[117.0444,37.161],[117.055,37.1635],[117.0574,37.1821],[117.0513,37.1914],[117.0363,37.1965],[117.0318,37.2066],[117.0206,37.2101],[117.0162,37.2142],[117.0248,37.2219],[117.0297,37.2229],[117.0307,37.2371],[117.0366,37.2381],[117.0353,37.2468],[117.0263,37.2525],[117.0264,37.2668],[117.0238,37.275],[116.9961,37.28],[116.995,37.2936],[116.9867,37.2955],[116.9883,37.307],[116.9858,37.312],[116.9859,37.3233],[116.9774,37.3281],[116.9802,37.3379],[116.9865,37.3484],[117.0007,37.3543],[117.0033,37.3634],[117.0021,37.3712],[116.9949,37.38],[116.9926,37.3927],[117.0106,37.3941],[117.0206,37.3978],[117.0196,37.4029],[117.0126,37.4058],[117.0079,37.4123],[117.0078,37.4233],[117.0123,37.4347],[117.0255,37.442],[117.0346,37.4486],[117.031,37.4543],[117.0245,37.4534],[117.0122,37.4626],[117.0272,37.4714],[117.02,37.4763],[117.0104,37.4876],[117.0135,37.498],[117.0095,37.5103],[116.9981,37.5146],[116.9954,37.5206],[116.9708,37.5222],[116.9591,37.5259],[116.9441,37.5243],[116.9324,37.5214],[116.9168,37.5117],[116.915,37.5214],[116.8977,37.515],[116.8895,37.5093],[116.8886,37.5034],[116.8982,37.4933],[116.8935,37.4625],[116.8948,37.4561],[116.8881,37.4497],[116.8853,37.4424],[116.8908,37.4347],[116.9038,37.4327],[116.8967,37.4145],[116.8855,37.4023],[116.8856,37.3889],[116.8773,37.3767],[116.8635,37.3757],[116.8661,37.3665],[116.8609,37.3621],[116.8578,37.3489],[116.8596,37.3433],[116.8535,37.3386],[116.8451,37.3371],[116.8388,37.3394],[116.8224,37.3371],[116.825,37.3221],[116.8209,37.3219],[116.8141,37.308],[116.8143,37.3],[116.8093,37.2895],[116.7986,37.2881],[116.7964,37.278],[116.8017,37.2759],[116.8002,37.2608],[116.7925,37.2511],[116.7702,37.2463],[116.7627,37.2473],[116.7608,37.2405],[116.751,37.2446],[116.7429,37.2315],[116.7428,37.2249],[116.726,37.2162],[116.7224,37.2119],[116.7032,37.2042]]]},"properties":{"region_code":"CN-37-3714-371424","parent_region_code":"CN-37-3714","name":"临邑县","level":"county","has_children":false,"full_path":"中国 / 山东省 / 德州市 / 临邑县","source_admin_code":"371424","osm_relation_id":5679928}},
{"type":"Feature","geometry":{"type":"Polygon","coordinates":[[[116.7347,37.0284],[116.7353,37.0242],[116.7196,37.0188],[116.7202,37.0158],[116.7069,37.0073],[116.7062,36.9959],[116.7118,36.9864],[116.7126,36.977],[116.7244,36.9685],[116.7225,36.96],[116.7325,36.9603],[116.7415,36.9519],[116.7413,36.9418],[116.7465,36.9387],[116.7455,36.9312],[116.7325,36.9264],[116.7297,36.9189],[116.7357,36.9161],[116.7229,36.9039],[116.7152,36.8802],[116.7224,36.8544],[116.7214,36.8475],[116.7158,36.8405],[116.7103,36.825],[116.6912,36.8359],[116.6925,36.8419],[116.6806,36.8524],[116.6722,36.8545],[116.6677,36.851],[116.659,36.8563],[116.6395,36.8594],[116.6296,36.8412],[116.6316,36.8351],[116.6297,36.8278],[116.6371,36.8174],[116.6344,36.809],[116.6274,36.8003],[116.6185,36.7825],[116.6151,36.7827],[116.6075,36.7722],[116.6071,36.7651],[116.5927,36.7687],[116.5938,36.7727],[116.5834,36.7766],[116.5763,36.7711],[116.5593,36.7673],[116.5595,36.7571],[116.5632,36.7472],[116.5495,36.7441],[116.5551,36.7338],[116.5479,36.7186],[116.5432,36.7193],[116.539,36.71],[116.5458,36.6976],[116.545,36.6787],[116.5366,36.6742],[116.5223,36.6764],[116.5141,36.6759],[116.4864,36.682],[116.4763,36.692],[116.4647,36.6948],[116.4601,36.6915],[116.4507,36.6934],[116.4407,36.6924],[116.4206,36.7],[116.4048,36.7026],[116.3956,36.7008],[116.3922,36.6912],[116.3988,36.6902],[116.3965,36.6818],[116.401,36.6771],[116.3992,36.6662],[116.4077,36.6539],[116.4014,36.6494],[116.4046,36.6432],[116.4017,36.6277],[116.3973,36.6201],[116.4009,36.6165],[116.4093,36.6173],[116.4082,36.6043],[116.4031,36.6005],[116.4035,36.5911],[116.401,36.5784],[116.3885,36.5761],[116.3939,36.5693],[116.3963,36.552],[116.3926,36.5458],[116.392,36.5262],[116.4069,36.5187],[116.4224,36.5057],[116.4229,36.5012],[116.4377,36.498],[116.4425,36.4855],[116.4533,36.4791],[116.4569,36.4716],[116.4512,36.4619],[116.4552,36.4576],[116.4558,36.4479],[116.4658,36.4471],[116.4711,36.4436],[116.4829,36.4535],[116.4877,36.4507],[116.5017,36.4481],[116.5073,36.4403],[116.5063,36.4299],[116.5214,36.4242],[116.5341,36.4285],[116.5306,36.4183],[116.5432,36.4165],[116.5434,36.4092],[116.5801,36.416],[116.596,36.4197],[116.6063,36.4238],[116.6138,36.4298],[116.6159,36.4389],[116.6055,36.4596],[116.6063,36.4751],[116.5912,36.4786],[116.5882,36.4879],[116.5945,36.4939],[116.612,36.4965],[116.6222,36.4995],[116.6214,36.509],[116.6045,36.5167],[116.606,36.5224],[116.6135,36.5289],[116.6255,36.5449],[116.6349,36.5429],[116.648,36.5485],[116.6547,36.5541],[116.6578,36.5644],[116.6531,36.5748],[116.6597,36.5794],[116.6749,36.581],[116.6865,36.5865],[116.6885,36.5964],[116.6875,36.6074],[116.7012,36.6088],[116.728,36.6157],[116.7519,36.6294],[116.7572,36.6508],[116.7698,36.6585],[116.7743,36.6669],[116.7751,36.6928],[116.791,36.6939],[116.7954,36.6965],[116.7986,36.7084],[116.8284,36.7249],[116.8377,36.7277],[116.8568,36.7298],[116.8742,36.7432],[116.881,36.7452],[116.8821,36.7519],[116.879,36.7581],[116.8655,36.7596],[116.8585,36.7777],[116.8598,36.7947],[116.8657,36.8118],[116.8757,36.8097],[116.8825,36.8113],[116.8838,36.8163],[116.8775,36.8259],[116.8817,36.8333],[116.887,36.83],[116.914,36.8226],[116.9279,36.8237],[116.9309,36.8349],[116.9281,36.8438],[116.9388,36.8447],[116.9419,36.8406],[116.956,36.8414],[116.9593,36.8436],[116.957,36.8625],[116.951,36.8642],[116.9512,36.8708],[116.9571,36.8757],[116.9583,36.8951],[116.9522,36.9015],[116.9552,36.9107],[116.9532,36.9152],[116.9346,36.9226],[116.9169,36.9342],[116.928,36.9543],[116.9274,36.9602],[116.9048,36.9602],[116.9021,36.9631],[116.8907,36.9642],[116.8943,36.9771],[116.8814,36.9816],[116.8801,36.9913],[116.8693,36.999],[116.8524,37.0088],[116.844,37.0088],[116.8343,37.0008],[116.8198,36.9976],[116.7899,36.9994],[116.7796,37.0098],[116.771,37.0115],[116.7621,37.0095],[116.7629,37.021],[116.758,37.0318],[116.7429,37.0309],[116.7347,37.0284]]]},"properties":{"region_code":"CN-37-3714-371425","parent_region_code":"CN-37-3714","name":"齐河县","level":"county","has_children":false,"full_path":"中国 / 山东省 / 德州市 / 齐河县","source_admin_code":"371425","osm_relation_id":5679931}},
{"type":"Feature","geometry":{"type":"Polygon","coordinates":[[[116.2822,37.2918],[116.2741,37.2876],[116.2684,37.28],[116.2675,37.2694],[116.2693,37.261],[116.279,37.2607],[116.2818,37.2568],[116.2778,37.2488],[116.2698,37.2498],[116.2663,37.2402],[116.2615,37.2407],[116.2573,37.2283],[116.2415,37.2129],[116.2333,37.213],[116.2242,37.2009],[116.2281,37.1917],[116.2322,37.1895],[116.2316,37.1823],[116.2189,37.175],[116.2062,37.1713],[116.1956,37.1602],[116.1915,37.159],[116.1835,37.1479],[116.1786,37.1461],[116.1952,37.1431],[116.1988,37.1312],[116.2078,37.1257],[116.2128,37.1192],[116.2126,37.1132],[116.2216,37.1098],[116.2258,37.0986],[116.252,37.0939],[116.253,37.0877],[116.2627,37.0788],[116.2642,37.0702],[116.2593,37.0644],[116.2456,37.054],[116.2275,37.0314],[116.2309,37.0278],[116.2447,37.025],[116.242,37.0193],[116.2473,37.0118],[116.2645,37.0068],[116.277,37.0051],[116.276,37.0006],[116.283,36.9951],[116.2927,36.9974],[116.2993,36.9919],[116.3061,36.9908],[116.3077,36.9851],[116.3168,36.9806],[116.3165,36.9728],[116.3229,36.9694],[116.3322,36.9698],[116.3355,36.9797],[116.3411,36.9766],[116.3551,36.9742],[116.3598,36.9663],[116.373,36.9636],[116.3818,36.9701],[116.3911,36.9714],[116.3969,36.9691],[116.4055,36.9719],[116.4144,36.9778],[116.4291,36.9768],[116.4263,36.9678],[116.4322,36.9583],[116.4437,36.9523],[116.4505,36.9653],[116.4503,36.9755],[116.4561,36.9977],[116.4716,37.0018],[116.4822,37.0196],[116.4967,37.0273],[116.5122,37.0267],[116.53,37.0445],[116.5359,37.043],[116.5492,37.0522],[116.5695,37.0732],[116.5794,37.0757],[116.5886,37.0911],[116.5887,37.0988],[116.5942,37.1048],[116.6032,37.104],[116.6086,37.1099],[116.6127,37.1203],[116.6161,37.1363],[116.621,37.1387],[116.6332,37.1544],[116.6524,37.1508],[116.6645,37.1602],[116.6682,37.1603],[116.6771,37.172],[116.6787,37.1781],[116.6958,37.1919],[116.7071,37.195],[116.7079,37.2008],[116.7032,37.2042],[116.6946,37.2109],[116.6967,37.2175],[116.6874,37.222],[116.6653,37.2167],[116.6624,37.2257],[116.6484,37.2312],[116.6517,37.2389],[116.643,37.242],[116.6405,37.2498],[116.6344,37.2517],[116.6256,37.2437],[116.6163,37.2457],[116.6088,37.2425],[116.5978,37.2547],[116.5913,37.2549],[116.5896,37.2491],[116.5556,37.2642],[116.5438,37.266],[116.5404,37.2754],[116.5282,37.2785],[116.5129,37.2717],[116.4963,37.2752],[116.4861,37.2708],[116.4767,37.2755],[116.4419,37.2754],[116.4324,37.2763],[116.424,37.2801],[116.4191,37.2768],[116.4042,37.2803],[116.408,37.2873],[116.3967,37.2915],[116.3982,37.3093],[116.386,37.3143],[116.3844,37.3083],[116.3704,37.3011],[116.3695,37.296],[116.3759,37.2859],[116.3627,37.2843],[116.358,37.2773],[116.3576,37.2664],[116.3463,37.2684],[116.3231,37.2669],[116.3177,37.2713],[116.3083,37.2715],[116.3026,37.2812],[116.295,37.2835],[116.2911,37.2911],[116.2822,37.2918]]]},"properties":{"region_code":"CN-37-3714-371426","parent_region_code":"CN-37-3714","name":"平原县","level":"county","has_children":false,"full_path":"中国 / 山东省 / 德州市 / 平原县","source_admin_code":"371426","osm_relation_id":5679930}},
{"type":"Feature","geometry":{"type":"Polygon","coordinates":[[[116.1786,37.1461],[116.1698,37.144],[116.1685,37.1553],[116.1612,37.1568],[116.1599,37.162],[116.144,37.1641],[116.1309,37.1676],[116.1133,37.1685],[116.1088,37.1671],[116.1055,37.154],[116.0947,37.1519],[116.0784,37.1547],[116.069,37.1506],[116.0567,37.1519],[116.051,37.1422],[116.0447,37.1388],[116.0402,37.1216],[116.0298,37.1166],[116.0241,37.0931],[116.0155,37.0903],[116.0064,37.091],[116.004,37.0973],[115.9859,37.0979],[115.9777,37.1066],[115.9795,37.1187],[115.9761,37.1244],[115.9664,37.1255],[115.951,37.1141],[115.9486,37.1027],[115.9444,37.0946],[115.948,37.0883],[115.9397,37.0861],[115.935,37.0703],[115.935,37.0618],[115.9317,37.0532],[115.9145,37.0513],[115.8841,37.0607],[115.8721,37.0605],[115.8732,37.0659],[115.8606,37.0721],[115.8504,37.0597],[115.8279,37.0456],[115.8168,37.0288],[115.8064,37.029],[115.8062,37.0147],[115.7925,37.0049],[115.7857,37.0058],[115.7785,36.9973],[115.7704,36.992],[115.7718,36.986],[115.7811,36.9825],[115.7791,36.9692],[115.7871,36.9742],[115.7916,36.9688],[115.7781,36.9465],[115.7656,36.9361],[115.755,36.9248],[115.7581,36.9203],[115.7669,36.9198],[115.7677,36.9131],[115.7737,36.9128],[115.7738,36.9046],[115.7793,36.9043],[115.7812,36.9125],[115.7855,36.9139],[115.8075,36.9129],[115.8132,36.9083],[115.8178,36.9132],[115.8261,36.9105],[115.8276,36.918],[115.8413,36.912],[115.8508,36.9026],[115.8636,36.9015],[115.8672,36.9045],[115.868,36.9136],[115.8798,36.9098],[115.8827,36.9028],[115.8994,36.8982],[115.9039,36.8914],[115.9139,36.8924],[115.9257,36.8887],[115.9296,36.8933],[115.9395,36.8935],[115.9446,36.8838],[115.96,36.8821],[115.9683,36.8904],[115.9754,36.8904],[115.9844,36.8834],[116.009,36.8824],[116.0088,36.8862],[116.0248,36.8871],[116.0419,36.8939],[116.0441,36.8907],[116.0648,36.888],[116.07,36.8889],[116.0765,36.8833],[116.0911,36.8831],[116.0925,36.8914],[116.1139,36.8962],[116.1181,36.8898],[116.1329,36.8998],[116.1445,36.9123],[116.1564,36.9151],[116.1655,36.9221],[116.1683,36.9296],[116.1676,36.9458],[116.1747,36.9489],[116.1789,36.9608],[116.1832,36.9589],[116.1934,36.9651],[116.2058,36.9626],[116.2138,36.979],[116.2063,36.9838],[116.2082,36.9907],[116.2233,36.9958],[116.2285,37.0007],[116.23,37.0096],[116.2165,37.0098],[116.2198,37.0161],[116.2206,37.027],[116.2275,37.0314],[116.2456,37.054],[116.2593,37.0644],[116.2642,37.0702],[116.2627,37.0788],[116.253,37.0877],[116.252,37.0939],[116.2258,37.0986],[116.2216,37.1098],[116.2126,37.1132],[116.2128,37.1192],[116.2078,37.1257],[116.1988,37.1312],[116.1952,37.1431],[116.1786,37.1461]]]},"properties":{"region_code":"CN-37-3714-371427","parent_region_code":"CN-37-3714","name":"夏津县","level":"county","has_children":false,"full_path":"中国 / 山东省 / 德州市 / 夏津县","source_admin_code":"371427","osm_relation_id":5679933}},
{"type":"Feature","geometry":{"type":"Polygon","coordinates":[[[116.2299,37.3609],[116.2181,37.3631],[116.2044,37.3629],[116.1983,37.366],[116.1884,37.3652],[116.1754,37.3721],[116.1633,37.3835],[116.1238,37.373],[116.1105,37.3741],[116.1029,37.3676],[116.0806,37.3729],[116.074,37.3726],[116.067,37.3676],[116.0472,37.3677],[116.0469,37.3574],[116.0275,37.3575],[116.0182,37.3592],[116.0152,37.352],[116.0082,37.3489],[116.0029,37.3423],[115.9817,37.341],[115.9694,37.3345],[115.9777,37.3287],[115.9702,37.3171],[115.979,37.316],[115.9757,37.3065],[115.9678,37.293],[115.9624,37.2875],[115.9709,37.2747],[115.9666,37.2562],[115.9618,37.2499],[115.9647,37.2405],[115.9494,37.2274],[115.9463,37.2227],[115.9365,37.2274],[115.9233,37.2206],[115.9091,37.2099],[115.9031,37.2022],[115.899,37.1879],[115.9071,37.18],[115.9055,37.1743],[115.8969,37.1656],[115.8797,37.1569],[115.8739,37.1515],[115.8743,37.1385],[115.8806,37.1261],[115.8795,37.1189],[115.8634,37.0847],[115.8606,37.0721],[115.8732,37.0659],[115.8721,37.0605],[115.8841,37.0607],[115.9145,37.0513],[115.9317,37.0532],[115.935,37.0618],[115.935,37.0703],[115.9397,37.0861],[115.948,37.0883],[115.9444,37.0946],[115.9486,37.1027],[115.951,37.1141],[115.9664,37.1255],[115.9761,37.1244],[115.9795,37.1187],[115.9777,37.1066],[115.9859,37.0979],[116.004,37.0973],[116.0064,37.091],[116.0155,37.0903],[116.0241,37.0931],[116.0298,37.1166],[116.0402,37.1216],[116.0447,37.1388],[116.051,37.1422],[116.0567,37.1519],[116.069,37.1506],[116.0784,37.1547],[116.0947,37.1519],[116.1055,37.154],[116.1088,37.1671],[116.1133,37.1685],[116.1309,37.1676],[116.144,37.1641],[116.1599,37.162],[116.1612,37.1568],[116.1685,37.1553],[116.1698,37.144],[116.1786,37.1461],[116.1835,37.1479],[116.1915,37.159],[116.1956,37.1602],[116.2062,37.1713],[116.2189,37.175],[116.2316,37.1823],[116.2322,37.1895],[116.2281,37.1917],[116.2242,37.2009],[116.2333,37.213],[116.2415,37.2129],[116.2573,37.2283],[116.2615,37.2407],[116.2663,37.2402],[116.2698,37.2498],[116.2778,37.2488],[116.2818,37.2568],[116.279,37.2607],[116.2693,37.261],[116.2675,37.2694],[116.2684,37.28],[116.2741,37.2876],[116.2822,37.2918],[116.2795,37.3043],[116.28,37.3189],[116.2753,37.3261],[116.2852,37.3282],[116.2837,37.347],[116.2437,37.3583],[116.2299,37.3609]]]},"properties":{"region_code":"CN-37-3714-371428","parent_region_code":"CN-37-3714","name":"武城县","level":"county","has_children":false,"full_path":"中国 / 山东省 / 德州市 / 武城县","source_admin_code":"371428","osm_relation_id":5679932}},
{"type":"Feature","geometry":{"type":"Polygon","coordinates":[[[116.9441,37.5243],[116.9591,37.5259],[116.9708,37.5222],[116.9954,37.5206],[116.9981,37.5146],[117.0095,37.5103],[117.0135,37.498],[117.0104,37.4876],[117.02,37.4763],[117.0272,37.4714],[117.0122,37.4626],[117.0245,37.4534],[117.031,37.4543],[117.0346,37.4486],[117.0255,37.442],[117.0254,37.4381],[117.045,37.4321],[117.0516,37.4252],[117.068,37.4283],[117.0687,37.4344],[117.0808,37.4327],[117.0917,37.4343],[117.0944,37.4384],[117.093,37.4513],[117.1006,37.452],[117.1,37.4583],[117.093,37.4599],[117.0915,37.4697],[117.105,37.4755],[117.1207,37.4862],[117.1207,37.479],[117.1301,37.4748],[117.1459,37.4722],[117.1531,37.4775],[117.1545,37.4861],[117.1609,37.4846],[117.1884,37.4871],[117.1931,37.4889],[117.194,37.497],[117.2078,37.5015],[117.2077,37.5092],[117.2152,37.5094],[117.2213,37.5142],[117.2259,37.5339],[117.2301,37.5369],[117.2423,37.5281],[117.261,37.5282],[117.2585,37.5379],[117.2683,37.5411],[117.2749,37.546],[117.2746,37.5518],[117.2791,37.5627],[117.2745,37.5681],[117.275,37.5771],[117.2857,37.5781],[117.291,37.5844],[117.3021,37.5864],[117.3044,37.5934],[117.3029,37.6009],[117.313,37.619],[117.3117,37.6293],[117.3019,37.6343],[117.31,37.6534],[117.3084,37.6644],[117.3175,37.6669],[117.3229,37.6759],[117.341,37.678],[117.3415,37.6882],[117.3385,37.6922],[117.3453,37.7065],[117.3388,37.7085],[117.3311,37.7046],[117.3164,37.7049],[117.3193,37.7205],[117.3113,37.7249],[117.3124,37.7322],[117.3089,37.7364],[117.3099,37.7552],[117.3063,37.7574],[117.31,37.7681],[117.304,37.7912],[117.2974,37.7984],[117.3056,37.8007],[117.3065,37.8102],[117.3158,37.8105],[117.3201,37.8206],[117.3283,37.8244],[117.3361,37.8232],[117.3483,37.8262],[117.3429,37.8309],[117.3393,37.8433],[117.3345,37.843],[117.3265,37.849],[117.3157,37.847],[117.3069,37.8575],[117.2938,37.8499],[117.2824,37.8478],[117.2635,37.8384],[117.2599,37.8407],[117.2472,37.8385],[117.2018,37.8429],[117.1792,37.849],[117.1684,37.8459],[117.162,37.8397],[117.1457,37.8386],[117.0891,37.8484],[117.0609,37.8469],[117.031,37.837],[117.0299,37.8333],[117.0182,37.8319],[116.9966,37.8343],[116.9691,37.8406],[116.9524,37.8391],[116.9462,37.8354],[116.9382,37.8365],[116.9344,37.8352],[116.9335,37.8258],[116.9426,37.8237],[116.9473,37.8298],[116.9547,37.8286],[116.9445,37.8105],[116.9458,37.7922],[116.9536,37.7861],[116.9535,37.7787],[116.9581,37.7716],[116.9687,37.7705],[116.9669,37.7545],[116.971,37.7513],[116.9699,37.7432],[116.9753,37.7425],[116.9766,37.7345],[116.9838,37.7314],[116.9921,37.7318],[116.9886,37.7168],[116.9901,37.7095],[116.9879,37.6998],[116.9937,37.6963],[116.9929,37.6847],[116.9873,37.6774],[116.9986,37.6767],[117.0035,37.6718],[117.0147,37.6697],[117.0097,37.65],[117.0119,37.637],[117.0024,37.6326],[116.991,37.6328],[116.9923,37.6244],[116.9974,37.6241],[116.9962,37.6025],[116.9821,37.6031],[116.9819,37.598],[116.9617,37.5978],[116.9593,37.5902],[116.95,37.5816],[116.9401,37.5817],[116.9387,37.5722],[116.9249,37.5729],[116.9173,37.5707],[116.908,37.5683],[116.9079,37.5553],[116.9126,37.5499],[116.9255,37.549],[116.9273,37.5421],[116.9394,37.5371],[116.9441,37.5243]]]},"properties":{"region_code":"CN-37-3714-371481","parent_region_code":"CN-37-3714","name":"乐陵市","level":"county","has_children":false,"full_path":"中国 / 山东省 / 德州市 / 乐陵市","source_admin_code":"371481","osm_relation_id":3513344}},
{"type":"Feature","geometry":{"type":"Polygon","coordinates":[[[116.7079,37.2008],[116.7071,37.195],[116.6958,37.1919],[116.6787,37.1781],[116.6771,37.172],[116.6682,37.1603],[116.6645,37.1602],[116.6524,37.1508],[116.6332,37.1544],[116.621,37.1387],[116.6161,37.1363],[116.6127,37.1203],[116.6086,37.1099],[116.6032,37.104],[116.5942,37.1048],[116.5887,37.0988],[116.5886,37.0911],[116.5794,37.0757],[116.5695,37.0732],[116.5492,37.0522],[116.5359,37.043],[116.53,37.0445],[116.5122,37.0267],[116.4967,37.0273],[116.4822,37.0196],[116.4716,37.0018],[116.4561,36.9977],[116.4503,36.9755],[116.4505,36.9653],[116.4437,36.9523],[116.447,36.9547],[116.4649,36.9464],[116.4648,36.9395],[116.4556,36.94],[116.4526,36.9363],[116.4385,36.9328],[116.4391,36.9236],[116.4495,36.9067],[116.448,36.9026],[116.4364,36.8994],[116.4355,36.9059],[116.4279,36.908],[116.4158,36.9043],[116.4135,36.8963],[116.4116,36.8784],[116.425,36.876],[116.4252,36.8657],[116.4085,36.8603],[116.4077,36.8508],[116.4007,36.8406],[116.4042,36.8388],[116.3996,36.8266],[116.394,36.8235],[116.4021,36.8152],[116.4034,36.8066],[116.3918,36.8088],[116.3861,36.8024],[116.378,36.802],[116.3818,36.792],[116.3903,36.7919],[116.3934,36.7808],[116.3895,36.7749],[116.3971,36.7725],[116.3921,36.7639],[116.3943,36.757],[116.4023,36.7458],[116.3958,36.7413],[116.3886,36.7413],[116.3802,36.7248],[116.382,36.7195],[116.393,36.7177],[116.3956,36.7008],[116.4048,36.7026],[116.4206,36.7],[116.4407,36.6924],[116.4507,36.6934],[116.4601,36.6915],[116.4647,36.6948],[116.4763,36.692],[116.4864,36.682],[116.5141,36.6759],[116.5223,36.6764],[116.5366,36.6742],[116.545,36.6787],[116.5458,36.6976],[116.539,36.71],[116.5432,36.7193],[116.5479,36.7186],[116.5551,36.7338],[116.5495,36.7441],[116.5632,36.7472],[116.5595,36.7571],[116.5593,36.7673],[116.5763,36.7711],[116.5834,36.7766],[116.5938,36.7727],[116.5927,36.7687],[116.6071,36.7651],[116.6075,36.7722],[116.6151,36.7827],[116.6185,36.7825],[116.6274,36.8003],[116.6344,36.809],[116.6371,36.8174],[116.6297,36.8278],[116.6316,36.8351],[116.6296,36.8412],[116.6395,36.8594],[116.659,36.8563],[116.6677,36.851],[116.6722,36.8545],[116.6806,36.8524],[116.6925,36.8419],[116.6912,36.8359],[116.7103,36.825],[116.7158,36.8405],[116.7214,36.8475],[116.7224,36.8544],[116.7152,36.8802],[116.7229,36.9039],[116.7357,36.9161],[116.7297,36.9189],[116.7325,36.9264],[116.7455,36.9312],[116.7465,36.9387],[116.7413,36.9418],[116.7415,36.9519],[116.7325,36.9603],[116.7225,36.96],[116.7244,36.9685],[116.7126,36.977],[116.7118,36.9864],[116.7062,36.9959],[116.7069,37.0073],[116.7202,37.0158],[116.7196,37.0188],[116.7353,37.0242],[116.7347,37.0284],[116.729,37.0335],[116.7304,37.0425],[116.7426,37.0457],[116.7428,37.0529],[116.7383,37.0588],[116.7316,37.0596],[116.7109,37.0745],[116.699,37.0864],[116.6991,37.0919],[116.7096,37.0921],[116.7102,37.1364],[116.7078,37.1423],[116.7125,37.1534],[116.7232,37.1657],[116.7276,37.1665],[116.7293,37.1757],[116.7172,37.1804],[116.7195,37.1888],[116.7178,37.194],[116.7098,37.1959],[116.7079,37.2008]]]},"properties":{"region_code":"CN-37-3714-371482","parent_region_code":"CN-37-3714","name":"禹城市","level":"county","has_children":false,"full_path":"中国 / 山东省 / 德州市 / 禹城市","source_admin_code":"371482","osm_relation_id":5679934}}
]}