{"type":"FeatureCollection", "features": [
{"type":"Feature","geometry":{"type":"Polygon","coordinates":[[[118.7324,28.8361],[118.7413,28.8358],[118.7425,28.8388],[118.7489,28.8414],[118.7502,28.844],[118.75,28.8501],[118.7518,28.852],[118.7632,28.8579],[118.7669,28.8609],[118.7669,28.8655],[118.7726,28.8677],[118.7733,28.8724],[118.7674,28.8789],[118.7704,28.8816],[118.7773,28.8826],[118.7778,28.8873],[118.7824,28.8895],[118.7888,28.8906],[118.7895,28.8932],[118.7945,28.8962],[118.802,28.8957],[118.8,28.9017],[118.804,28.9064],[118.809,28.9064],[118.8187,28.9175],[118.8229,28.9203],[118.8281,28.9206],[118.8335,28.917],[118.8293,28.9105],[118.833,28.9046],[118.8389,28.8988],[118.8367,28.8925],[118.8391,28.891],[118.8356,28.8841],[118.8409,28.8798],[118.8382,28.8743],[118.8482,28.8718],[118.8574,28.8715],[118.8611,28.863],[118.8668,28.8615],[118.873,28.8534],[118.8742,28.8464],[118.8826,28.8455],[118.8843,28.8353],[118.8836,28.8315],[118.8858,28.8269],[118.8828,28.8235],[118.8838,28.8197],[118.8785,28.8169],[118.8739,28.813],[118.8773,28.8088],[118.8828,28.8111],[118.8844,28.8144],[118.8842,28.8221],[118.8865,28.826],[118.8946,28.8276],[118.8993,28.8375],[118.9096,28.8336],[118.915,28.8355],[118.9169,28.8378],[118.926,28.8397],[118.9364,28.8363],[118.9428,28.8437],[118.9433,28.8559],[118.9377,28.8572],[118.9383,28.8611],[118.9357,28.867],[118.9366,28.8718],[118.9396,28.8733],[118.9384,28.8811],[118.931,28.8898],[118.935,28.9005],[118.9415,28.9001],[118.9488,28.903],[118.9519,28.9091],[118.9487,28.9135],[118.9456,28.9136],[118.9426,28.9231],[118.9362,28.928],[118.9314,28.929],[118.9279,28.9274],[118.9225,28.9276],[118.9197,28.9313],[118.9277,28.9386],[118.9299,28.9418],[118.9294,28.9468],[118.9239,28.9537],[118.9182,28.9507],[118.9125,28.9436],[118.9066,28.9479],[118.9048,28.9515],[118.8877,28.9539],[118.9128,28.9698],[118.918,28.9747],[118.9204,28.9787],[118.9206,28.986],[118.9146,28.9888],[118.9059,28.9882],[118.9,28.9844],[118.8961,28.9798],[118.8916,28.9769],[118.8866,28.9762],[118.8817,28.9778],[118.8788,28.9813],[118.8803,28.9833],[118.8784,28.9887],[118.8814,28.993],[118.8761,28.9969],[118.875,29.0048],[118.8767,29.0095],[118.8725,29.014],[118.8768,29.017],[118.8776,29.0208],[118.8828,29.0237],[118.891,29.0253],[118.8961,29.0309],[118.8889,29.0334],[118.8858,29.0311],[118.8794,29.0403],[118.8835,29.0487],[118.8797,29.0526],[118.8851,29.0604],[118.8819,29.0624],[118.8862,29.0654],[118.8831,29.0689],[118.8755,29.0737],[118.8763,29.0777],[118.8729,29.08],[118.8629,29.0829],[118.8591,29.083],[118.8574,29.0914],[118.8501,29.0967],[118.8477,29.1104],[118.8495,29.1153],[118.8457,29.1202],[118.842,29.1217],[118.8346,29.1315],[118.8392,29.1402],[118.8394,29.1489],[118.8329,29.143],[118.8257,29.1422],[118.8234,29.1465],[118.8247,29.1564],[118.8236,29.16],[118.827,29.1649],[118.8213,29.1688],[118.8267,29.1757],[118.8257,29.1824],[118.8208,29.1826],[118.8173,29.1791],[118.8127,29.182],[118.8102,29.1804],[118.8046,29.1818],[118.8007,29.1793],[118.7992,29.1843],[118.7926,29.1886],[118.7866,29.1849],[118.7704,29.1884],[118.7663,29.1926],[118.7589,29.193],[118.7558,29.1891],[118.7519,29.1873],[118.7523,29.1827],[118.7544,29.1797],[118.7536,29.172],[118.7505,29.1714],[118.7463,29.167],[118.7398,29.1649],[118.7401,29.1534],[118.7338,29.1512],[118.7339,29.1443],[118.7327,29.1411],[118.7358,29.1336],[118.7317,29.1234],[118.7226,29.1192],[118.7226,29.1163],[118.7193,29.1098],[118.7121,29.1084],[118.7087,29.1024],[118.7062,29.1021],[118.7029,29.093],[118.704,29.0917],[118.702,29.0847],[118.7024,29.0808],[118.7,29.0751],[118.6969,29.0739],[118.6939,29.0676],[118.697,29.0533],[118.6909,29.0411],[118.6942,29.0324],[118.6881,29.0244],[118.6839,29.0153],[118.6817,29.0134],[118.6881,29.0088],[118.6861,29.005],[118.689,28.9959],[118.6932,28.9922],[118.6882,28.9899],[118.6877,28.9856],[118.6904,28.9746],[118.6977,28.9759],[118.7009,28.9709],[118.7041,28.9692],[118.7058,28.9649],[118.7106,28.9622],[118.717,28.9542],[118.7206,28.9527],[118.7173,28.9463],[118.7184,28.9443],[118.7122,28.942],[118.7101,28.9369],[118.7195,28.9399],[118.7201,28.9362],[118.7159,28.9345],[118.714,28.9313],[118.716,28.9247],[118.713,28.9155],[118.7087,28.9111],[118.7072,28.9066],[118.7012,28.9059],[118.6943,28.8955],[118.684,28.8949],[118.6833,28.891],[118.6914,28.8883],[118.6951,28.8891],[118.7037,28.8866],[118.7008,28.8777],[118.7093,28.8692],[118.7136,28.869],[118.7221,28.8636],[118.7298,28.85],[118.7295,28.8453],[118.7337,28.8415],[118.7324,28.8361]]]},"properties":{"region_code":"CN-33-3308-330802","parent_region_code":"CN-33-3308","name":"柯城区","level":"county","has_children":false,"full_path":"中国 / 浙江省 / 衢州市 / 柯城区","source_admin_code":"330802","osm_relation_id":3278464}},
{"type":"Feature","geometry":{"type":"Polygon","coordinates":[[[118.7324,28.8361],[118.7363,28.829],[118.7394,28.8202],[118.7446,28.8195],[118.7449,28.8169],[118.7377,28.8139],[118.7415,28.8049],[118.7459,28.8058],[118.7484,28.8024],[118.7468,28.7981],[118.7538,28.7961],[118.754,28.793],[118.7582,28.7898],[118.761,28.7901],[118.765,28.7847],[118.7594,28.7832],[118.7622,28.7787],[118.7677,28.7734],[118.767,28.7679],[118.7716,28.7642],[118.7774,28.7642],[118.7812,28.7609],[118.7821,28.7554],[118.7849,28.7509],[118.7811,28.7441],[118.785,28.7419],[118.7799,28.7339],[118.7824,28.7269],[118.7801,28.7227],[118.7828,28.72],[118.783,28.7153],[118.7851,28.7086],[118.7911,28.7079],[118.7884,28.6988],[118.7841,28.695],[118.7819,28.6869],[118.7816,28.681],[118.784,28.6767],[118.7857,28.6683],[118.7894,28.6627],[118.7947,28.6666],[118.7994,28.6653],[118.7979,28.6573],[118.8035,28.6552],[118.8123,28.6495],[118.8114,28.642],[118.8137,28.6343],[118.808,28.6261],[118.8011,28.6221],[118.8002,28.6191],[118.8058,28.6191],[118.8099,28.6114],[118.8033,28.6085],[118.8039,28.6],[118.7971,28.5916],[118.7938,28.5896],[118.7945,28.5862],[118.7905,28.5855],[118.7879,28.5761],[118.7902,28.5738],[118.7893,28.5696],[118.7851,28.566],[118.7887,28.5606],[118.7935,28.5634],[118.7954,28.5619],[118.7888,28.5561],[118.7925,28.5527],[118.7914,28.5488],[118.7938,28.5391],[118.7985,28.5367],[118.8048,28.5394],[118.8074,28.5422],[118.8078,28.546],[118.8142,28.548],[118.8158,28.551],[118.8223,28.5507],[118.8298,28.5472],[118.8337,28.5432],[118.8403,28.545],[118.8463,28.5446],[118.8473,28.5399],[118.8521,28.5327],[118.86,28.533],[118.8615,28.5306],[118.8611,28.523],[118.8638,28.5166],[118.8731,28.5237],[118.8772,28.5334],[118.8841,28.536],[118.8863,28.5382],[118.8857,28.5427],[118.8946,28.5466],[118.8974,28.5523],[118.9004,28.5549],[118.9022,28.5614],[118.907,28.5638],[118.9108,28.5718],[118.9067,28.576],[118.902,28.5775],[118.9052,28.5831],[118.9059,28.6011],[118.9107,28.6016],[118.9138,28.6043],[118.9125,28.6132],[118.9109,28.6161],[118.9216,28.6256],[118.923,28.6296],[118.9197,28.6343],[118.9207,28.6371],[118.9266,28.6447],[118.9373,28.6494],[118.9417,28.6471],[118.9488,28.6519],[118.9564,28.6481],[118.9631,28.6511],[118.9642,28.6542],[118.9703,28.6587],[118.9748,28.6656],[118.9792,28.6665],[118.9807,28.6712],[118.9859,28.6771],[118.9873,28.6808],[118.9913,28.6845],[118.9956,28.6851],[119.001,28.694],[119.0093,28.6969],[119.0111,28.7032],[119.0181,28.7075],[119.024,28.7127],[119.0321,28.7118],[119.0392,28.7154],[119.0417,28.7199],[119.0416,28.7245],[119.0468,28.7266],[119.0485,28.7307],[119.055,28.7322],[119.0586,28.7367],[119.0593,28.7413],[119.0578,28.7458],[119.0609,28.7521],[119.0638,28.7518],[119.0669,28.7549],[119.067,28.7583],[119.0724,28.7619],[119.0725,28.7668],[119.075,28.7713],[119.0723,28.7782],[119.0686,28.783],[119.0618,28.7861],[119.0627,28.7963],[119.0607,28.8031],[119.0612,28.806],[119.0664,28.8102],[119.073,28.813],[119.0793,28.8137],[119.0849,28.8222],[119.0954,28.8261],[119.094,28.8373],[119.0985,28.8414],[119.1032,28.8559],[119.0994,28.8599],[119.1005,28.8654],[119.0998,28.8706],[119.1067,28.8746],[119.1107,28.8801],[119.108,28.8871],[119.1076,28.8919],[119.111,28.902],[119.1043,28.9054],[119.1012,28.9093],[119.106,28.9135],[119.1065,28.9187],[119.1119,28.9265],[119.1124,28.9306],[119.109,28.9313],[119.1113,28.9369],[119.1073,28.9407],[119.1005,28.9442],[119.0993,28.9467],[119.0948,28.9486],[119.0892,28.9465],[119.0872,28.9478],[119.089,28.9537],[119.0861,28.9563],[119.0797,28.9538],[119.0808,28.9621],[119.0793,28.9644],[119.0746,28.9636],[119.0652,28.9664],[119.0639,28.9706],[119.0606,28.9745],[119.0636,28.9805],[119.067,28.9787],[119.0718,28.9831],[119.0682,28.9852],[119.0725,28.9904],[119.0824,28.9941],[119.0858,28.9931],[119.088,28.9888],[119.0916,28.9907],[119.0898,28.9958],[119.0871,28.999],[119.0931,29.0023],[119.0908,29.0048],[119.0923,29.0076],[119.0858,29.0089],[119.0871,29.0121],[119.0768,29.0119],[119.074,29.0175],[119.0665,29.0192],[119.0682,29.0249],[119.0661,29.0272],[119.0655,29.0359],[119.0572,29.0356],[119.0572,29.0434],[119.0537,29.0464],[119.0471,29.0375],[119.0396,29.0436],[119.0334,29.0437],[119.0303,29.0476],[119.0368,29.0476],[119.0384,29.0525],[119.0352,29.0556],[119.0381,29.0592],[119.0459,29.0569],[119.05,29.0588],[119.0527,29.0635],[119.0509,29.0683],[119.0558,29.0713],[119.0574,29.075],[119.0544,29.0763],[119.0524,29.0813],[119.0594,29.0866],[119.0611,29.0824],[119.0582,29.0778],[119.0658,29.0797],[119.0717,29.0872],[119.0834,29.0868],[119.0853,29.0905],[119.0807,29.0927],[119.0824,29.0955],[119.087,29.0961],[119.0907,29.1007],[119.0896,29.104],[119.0858,29.1078],[119.0808,29.1067],[119.0777,29.1128],[119.0802,29.1163],[119.0713,29.1221],[119.0705,29.1264],[119.0652,29.1312],[119.0657,29.1393],[119.0725,29.1429],[119.0769,29.1474],[119.0742,29.1563],[119.0712,29.1592],[119.0599,29.1576],[119.0567,29.1591],[119.0561,29.1633],[119.0517,29.1651],[119.0497,29.1708],[119.0432,29.1756],[119.0495,29.1772],[119.0518,29.1824],[119.0478,29.1857],[119.0469,29.1903],[119.051,29.1916],[119.0525,29.1953],[119.0476,29.1991],[119.0476,29.2045],[119.041,29.2061],[119.0422,29.2083],[119.0387,29.2153],[119.0412,29.2184],[119.0409,29.224],[119.0351,29.2223],[119.0265,29.2214],[119.0222,29.2221],[119.0201,29.2173],[119.0103,29.2146],[119.0063,29.2146],[119.0036,29.212],[118.9977,29.2119],[118.9954,29.2142],[118.9936,29.2197],[118.9897,29.2192],[118.9838,29.2216],[118.9829,29.2276],[118.9804,29.2285],[118.9812,29.2343],[118.978,29.2411],[118.9831,29.2467],[118.9827,29.2505],[118.98,29.2543],[118.9777,29.2615],[118.9745,29.2625],[118.9708,29.2608],[118.966,29.2668],[118.963,29.2674],[118.9605,29.2714],[118.9546,29.2696],[118.9535,29.2798],[118.9484,29.2825],[118.9467,29.2866],[118.9524,29.2893],[118.9559,29.294],[118.9599,29.2971],[118.9579,29.3005],[118.9508,29.2999],[118.9446,29.3026],[118.9405,29.3076],[118.9272,29.3126],[118.92,29.3143],[118.9153,29.3202],[118.9107,29.3215],[118.9061,29.3274],[118.9023,29.3279],[118.8969,29.3351],[118.8883,29.3334],[118.8855,29.3267],[118.88,29.3258],[118.874,29.3286],[118.8681,29.3283],[118.8621,29.3241],[118.8528,29.3142],[118.8498,29.3059],[118.8469,29.3021],[118.8378,29.3008],[118.8331,29.2945],[118.8242,29.2915],[118.8226,29.2843],[118.818,29.2816],[118.812,29.2845],[118.8077,29.2831],[118.8037,29.2797],[118.7998,29.2787],[118.7917,29.2732],[118.789,29.2702],[118.7821,29.2697],[118.7802,29.2637],[118.7721,29.2543],[118.7673,29.2532],[118.7623,29.2543],[118.7583,29.2502],[118.756,29.2437],[118.7615,29.2378],[118.7609,29.2313],[118.7616,29.2248],[118.7596,29.2221],[118.7545,29.2206],[118.7497,29.2161],[118.752,29.2126],[118.7505,29.2071],[118.756,29.2011],[118.7589,29.193],[118.7663,29.1926],[118.7704,29.1884],[118.7866,29.1849],[118.7926,29.1886],[118.7992,29.1843],[118.8007,29.1793],[118.8046,29.1818],[118.8102,29.1804],[118.8127,29.182],[118.8173,29.1791],[118.8208,29.1826],[118.8257,29.1824],[118.8267,29.1757],[118.8213,29.1688],[118.827,29.1649],[118.8236,29.16],[118.8247,29.1564],[118.8234,29.1465],[118.8257,29.1422],[118.8329,29.143],[118.8394,29.1489],[118.8392,29.1402],[118.8346,29.1315],[118.842,29.1217],[118.8457,29.1202],[118.8495,29.1153],[118.8477,29.1104],[118.8501,29.0967],[118.8574,29.0914],[118.8591,29.083],[118.8629,29.0829],[118.8729,29.08],[118.8763,29.0777],[118.8755,29.0737],[118.8831,29.0689],[118.8862,29.0654],[118.8819,29.0624],[118.8851,29.0604],[118.8797,29.0526],[118.8835,29.0487],[118.8794,29.0403],[118.8858,29.0311],[118.8889,29.0334],[118.8961,29.0309],[118.891,29.0253],[118.8828,29.0237],[118.8776,29.0208],[118.8768,29.017],[118.8725,29.014],[118.8767,29.0095],[118.875,29.0048],[118.8761,28.9969],[118.8814,28.993],[118.8784,28.9887],[118.8803,28.9833],[118.8788,28.9813],[118.8817,28.9778],[118.8866,28.9762],[118.8916,28.9769],[118.8961,28.9798],[118.9,28.9844],[118.9059,28.9882],[118.9146,28.9888],[118.9206,28.986],[118.9204,28.9787],[118.918,28.9747],[118.9128,28.9698],[118.8877,28.9539],[118.9048,28.9515],[118.9066,28.9479],[118.9125,28.9436],[118.9182,28.9507],[118.9239,28.9537],[118.9294,28.9468],[118.9299,28.9418],[118.9277,28.9386],[118.9197,28.9313],[118.9225,28.9276],[118.9279,28.9274],[118.9314,28.929],[118.9362,28.928],[118.9426,28.9231],[118.9456,28.9136],[118.9487,28.9135],[118.9519,28.9091],[118.9488,28.903],[118.9415,28.9001],[118.935,28.9005],[118.931,28.8898],[118.9384,28.8811],[118.9396,28.8733],[118.9366,28.8718],[118.9357,28.867],[118.9383,28.8611],[118.9377,28.8572],[118.9433,28.8559],[118.9428,28.8437],[118.9364,28.8363],[118.926,28.8397],[118.9169,28.8378],[118.915,28.8355],[118.9096,28.8336],[118.8993,28.8375],[118.8946,28.8276],[118.8865,28.826],[118.8842,28.8221],[118.8844,28.8144],[118.8828,28.8111],[118.8773,28.8088],[118.8739,28.813],[118.8785,28.8169],[118.8838,28.8197],[118.8828,28.8235],[118.8858,28.8269],[118.8836,28.8315],[118.8843,28.8353],[118.8826,28.8455],[118.8742,28.8464],[118.873,28.8534],[118.8668,28.8615],[118.8611,28.863],[118.8574,28.8715],[118.8482,28.8718],[118.8382,28.8743],[118.8409,28.8798],[118.8356,28.8841],[118.8391,28.891],[118.8367,28.8925],[118.8389,28.8988],[118.833,28.9046],[118.8293,28.9105],[118.8335,28.917],[118.8281,28.9206],[118.8229,28.9203],[118.8187,28.9175],[118.809,28.9064],[118.804,28.9064],[118.8,28.9017],[118.802,28.8957],[118.7945,28.8962],[118.7895,28.8932],[118.7888,28.8906],[118.7824,28.8895],[118.7778,28.8873],[118.7773,28.8826],[118.7704,28.8816],[118.7674,28.8789],[118.7733,28.8724],[118.7726,28.8677],[118.7669,28.8655],[118.7669,28.8609],[118.7632,28.8579],[118.7518,28.852],[118.75,28.8501],[118.7502,28.844],[118.7489,28.8414],[118.7425,28.8388],[118.7413,28.8358],[118.7324,28.8361]]]},"properties":{"region_code":"CN-33-3308-330803","parent_region_code":"CN-33-3308","name":"衢江区","level":"county","has_children":false,"full_path":"中国 / 浙江省 / 衢州市 / 衢江区","source_admin_code":"330803","osm_relation_id":3278466}},
{"type":"Feature","geometry":{"type":"Polygon","coordinates":[[[118.7589,29.193],[118.756,29.2011],[118.7505,29.2071],[118.752,29.2126],[118.7497,29.2161],[118.7377,29.2163],[118.7319,29.2111],[118.7276,29.2099],[118.7255,29.2022],[118.7157,29.2012],[118.7146,29.1963],[118.7107,29.1937],[118.7071,29.1891],[118.7001,29.1937],[118.6942,29.1955],[118.6905,29.1993],[118.6827,29.2042],[118.6771,29.2058],[118.6701,29.203],[118.6654,29.204],[118.6574,29.2009],[118.6445,29.199],[118.6415,29.1976],[118.6293,29.195],[118.6233,29.196],[118.6153,29.1926],[118.6177,29.1861],[118.6153,29.1808],[118.6121,29.1773],[118.6157,29.1751],[118.6126,29.1702],[118.6102,29.1698],[118.6059,29.1645],[118.6037,29.1651],[118.5989,29.1588],[118.5888,29.1508],[118.5866,29.152],[118.5818,29.1495],[118.5796,29.1449],[118.5749,29.1406],[118.5728,29.1338],[118.5767,29.1254],[118.5747,29.1211],[118.5654,29.1099],[118.5591,29.1081],[118.5575,29.106],[118.5449,29.0977],[118.5396,29.0933],[118.5343,29.094],[118.5295,29.0891],[118.525,29.0865],[118.5257,29.0832],[118.5235,29.0787],[118.516,29.0755],[118.5148,29.0718],[118.5102,29.07],[118.4992,29.0585],[118.4933,29.0576],[118.4875,29.0482],[118.4847,29.0422],[118.4792,29.0409],[118.4789,29.0381],[118.4637,29.0326],[118.4588,29.0328],[118.454,29.0378],[118.448,29.0339],[118.4443,29.0248],[118.4447,29.0196],[118.4477,29.0172],[118.4421,29.0126],[118.4394,29.0084],[118.4439,29.0023],[118.4362,28.9908],[118.4327,28.9906],[118.4295,28.9822],[118.4307,28.9802],[118.4264,28.977],[118.4235,28.9775],[118.4163,28.9749],[118.4103,28.9796],[118.4082,28.984],[118.3924,28.9869],[118.3885,28.9834],[118.3795,28.9828],[118.3769,28.98],[118.37,28.9777],[118.3688,28.9755],[118.3572,28.9701],[118.3503,28.9583],[118.347,28.9508],[118.3548,28.9439],[118.3523,28.9372],[118.3492,28.9349],[118.3422,28.9369],[118.3379,28.9315],[118.3344,28.9302],[118.3298,28.9326],[118.3249,28.9332],[118.3217,28.9292],[118.3188,28.9296],[118.3136,28.9265],[118.3081,28.926],[118.303,28.9289],[118.2986,28.9262],[118.2935,28.9263],[118.2905,28.9292],[118.2873,28.9264],[118.2833,28.9266],[118.281,28.9302],[118.2769,28.9312],[118.2677,28.9269],[118.2584,28.9355],[118.2542,28.9323],[118.252,28.9265],[118.2579,28.9233],[118.2665,28.9203],[118.2658,28.9174],[118.2681,28.9137],[118.2695,28.9055],[118.2729,28.8985],[118.2764,28.8948],[118.2774,28.8896],[118.2768,28.8847],[118.2811,28.8794],[118.2834,28.8705],[118.2892,28.8638],[118.2906,28.8578],[118.2926,28.8557],[118.2921,28.851],[118.3,28.8435],[118.2898,28.8382],[118.2941,28.8336],[118.2957,28.829],[118.2993,28.8304],[118.3008,28.8266],[118.3061,28.8244],[118.3154,28.8244],[118.3168,28.8222],[118.3287,28.8171],[118.3354,28.8186],[118.3427,28.8165],[118.3529,28.818],[118.3545,28.8157],[118.3588,28.8163],[118.3631,28.8142],[118.3689,28.8061],[118.3673,28.804],[118.3769,28.79],[118.3751,28.7879],[118.3761,28.7808],[118.3785,28.7771],[118.3877,28.7806],[118.3901,28.7842],[118.3899,28.7889],[118.3913,28.7966],[118.3972,28.7954],[118.4025,28.7967],[118.4076,28.7961],[118.4125,28.7982],[118.4152,28.7911],[118.4192,28.7887],[118.4263,28.793],[118.4351,28.7925],[118.4435,28.7885],[118.4503,28.7838],[118.4534,28.7836],[118.4581,28.78],[118.4558,28.7759],[118.464,28.7704],[118.467,28.7699],[118.4698,28.7741],[118.4695,28.7798],[118.48,28.792],[118.4819,28.8023],[118.4866,28.8051],[118.4882,28.8122],[118.4917,28.8136],[118.4925,28.8189],[118.4956,28.8235],[118.4922,28.8322],[118.4935,28.8346],[118.4999,28.8349],[118.5038,28.8372],[118.5096,28.8359],[118.5143,28.8382],[118.5172,28.8342],[118.5177,28.8292],[118.522,28.8263],[118.5255,28.828],[118.5283,28.8322],[118.5284,28.8393],[118.5388,28.8421],[118.5431,28.8396],[118.5512,28.8402],[118.5531,28.8418],[118.5582,28.8407],[118.564,28.846],[118.5629,28.85],[118.567,28.8506],[118.5708,28.8473],[118.5757,28.8468],[118.5836,28.8434],[118.5894,28.8452],[118.5948,28.8421],[118.602,28.8432],[118.6023,28.8457],[118.6133,28.856],[118.6117,28.8598],[118.6072,28.8654],[118.6086,28.8695],[118.6122,28.8723],[118.6154,28.8718],[118.6322,28.8627],[118.6379,28.863],[118.6453,28.8671],[118.6558,28.8713],[118.6599,28.8707],[118.6728,28.8747],[118.6765,28.8787],[118.6749,28.8806],[118.6757,28.8859],[118.6833,28.891],[118.684,28.8949],[118.6943,28.8955],[118.7012,28.9059],[118.7072,28.9066],[118.7087,28.9111],[118.713,28.9155],[118.716,28.9247],[118.714,28.9313],[118.7159,28.9345],[118.7201,28.9362],[118.7195,28.9399],[118.7101,28.9369],[118.7122,28.942],[118.7184,28.9443],[118.7173,28.9463],[118.7206,28.9527],[118.717,28.9542],[118.7106,28.9622],[118.7058,28.9649],[118.7041,28.9692],[118.7009,28.9709],[118.6977,28.9759],[118.6904,28.9746],[118.6877,28.9856],[118.6882,28.9899],[118.6932,28.9922],[118.689,28.9959],[118.6861,29.005],[118.6881,29.0088],[118.6817,29.0134],[118.6839,29.0153],[118.6881,29.0244],[118.6942,29.0324],[118.6909,29.0411],[118.697,29.0533],[118.6939,29.0676],[118.6969,29.0739],[118.7,29.0751],[118.7024,29.0808],[118.702,29.0847],[118.704,29.0917],[118.7029,29.093],[118.7062,29.1021],[118.7087,29.1024],[118.7121,29.1084],[118.7193,29.1098],[118.7226,29.1163],[118.7226,29.1192],[118.7317,29.1234],[118.7358,29.1336],[118.7327,29.1411],[118.7339,29.1443],[118.7338,29.1512],[118.7401,29.1534],[118.7398,29.1649],[118.7463,29.167],[118.7505,29.1714],[118.7536,29.172],[118.7544,29.1797],[118.7523,29.1827],[118.7519,29.1873],[118.7558,29.1891],[118.7589,29.193]]]},"properties":{"region_code":"CN-33-3308-330822","parent_region_code":"CN-33-3308","name":"常山县","level":"county","has_children":false,"full_path":"中国 / 浙江省 / 衢州市 / 常山县","source_admin_code":"330822","osm_relation_id":3278461}},
{"type":"Feature","geometry":{"type":"Polygon","coordinates":[[[118.6233,29.196],[118.6218,29.2009],[118.6278,29.2072],[118.6282,29.2137],[118.6263,29.2157],[118.6272,29.2207],[118.6246,29.2231],[118.6157,29.2213],[118.6118,29.2274],[118.6062,29.238],[118.6028,29.2409],[118.6033,29.244],[118.6094,29.2491],[118.6101,29.2542],[118.6051,29.2621],[118.6042,29.2674],[118.6012,29.2711],[118.6047,29.2746],[118.6056,29.2823],[118.6122,29.2807],[118.6143,29.2738],[118.6208,29.2687],[118.6238,29.2696],[118.6322,29.2662],[118.6271,29.28],[118.6213,29.2857],[118.6177,29.2932],[118.614,29.2952],[118.6106,29.3001],[118.6121,29.3091],[118.6052,29.3133],[118.5986,29.3208],[118.5983,29.3284],[118.5939,29.3319],[118.5885,29.3333],[118.5831,29.3305],[118.583,29.3348],[118.5784,29.3368],[118.5738,29.3355],[118.568,29.3414],[118.5597,29.3426],[118.5538,29.3413],[118.5526,29.3443],[118.5481,29.3439],[118.5443,29.3402],[118.5373,29.3399],[118.5369,29.3457],[118.5285,29.3448],[118.5266,29.3482],[118.5227,29.3484],[118.522,29.3527],[118.5182,29.3537],[118.5205,29.3645],[118.5172,29.3649],[118.5143,29.3696],[118.5029,29.3639],[118.4973,29.3653],[118.4884,29.3636],[118.4852,29.3701],[118.4775,29.371],[118.4686,29.3645],[118.4581,29.3617],[118.451,29.3704],[118.4518,29.3741],[118.4391,29.3798],[118.4358,29.3782],[118.427,29.3828],[118.4196,29.3891],[118.4166,29.3931],[118.4131,29.3926],[118.4094,29.3963],[118.4121,29.4033],[118.411,29.4061],[118.403,29.4059],[118.4003,29.4097],[118.4097,29.422],[118.4016,29.4261],[118.3944,29.4276],[118.3888,29.4257],[118.3852,29.4261],[118.3792,29.4359],[118.3722,29.4362],[118.3668,29.4415],[118.3655,29.4482],[118.362,29.4489],[118.3598,29.4533],[118.3485,29.4546],[118.3465,29.4606],[118.3404,29.4639],[118.3418,29.4678],[118.34,29.4722],[118.3406,29.4757],[118.3374,29.483],[118.3311,29.4854],[118.3267,29.4931],[118.3254,29.4985],[118.3168,29.4998],[118.3124,29.4978],[118.3054,29.4993],[118.2994,29.4924],[118.3019,29.4898],[118.3011,29.4807],[118.3036,29.4784],[118.3041,29.4736],[118.3065,29.4701],[118.3085,29.4618],[118.3112,29.4575],[118.3096,29.455],[118.3118,29.4519],[118.3099,29.4465],[118.3098,29.4257],[118.301,29.4225],[118.297,29.4237],[118.2937,29.4209],[118.2867,29.4222],[118.2862,29.4271],[118.2809,29.4292],[118.2722,29.4263],[118.2658,29.4304],[118.2521,29.4282],[118.2449,29.4339],[118.2358,29.4305],[118.2304,29.4272],[118.2229,29.4277],[118.2145,29.4245],[118.2108,29.4207],[118.2092,29.4134],[118.2075,29.4131],[118.2011,29.4045],[118.2002,29.3996],[118.1942,29.3953],[118.1923,29.3973],[118.1876,29.3971],[118.1856,29.3933],[118.1943,29.3856],[118.2032,29.3799],[118.2016,29.3735],[118.1982,29.3704],[118.2033,29.3628],[118.2043,29.3583],[118.202,29.3547],[118.2039,29.3502],[118.1938,29.3438],[118.1885,29.3433],[118.1775,29.3337],[118.178,29.329],[118.1743,29.3241],[118.171,29.3233],[118.1682,29.3198],[118.1623,29.3174],[118.1619,29.3132],[118.1697,29.3106],[118.1737,29.3009],[118.167,29.301],[118.1679,29.2959],[118.164,29.2952],[118.1636,29.2905],[118.1649,29.2845],[118.155,29.2848],[118.1435,29.2898],[118.1387,29.2901],[118.131,29.2866],[118.1234,29.2886],[118.1191,29.2909],[118.1155,29.2907],[118.1089,29.2957],[118.1031,29.2923],[118.101,29.2875],[118.0972,29.2864],[118.0784,29.2926],[118.0695,29.2933],[118.0664,29.289],[118.0704,29.2878],[118.0727,29.2803],[118.0719,29.2727],[118.0757,29.2668],[118.0712,29.2536],[118.0703,29.2485],[118.0752,29.2464],[118.0792,29.2402],[118.0742,29.233],[118.0748,29.228],[118.0787,29.222],[118.0622,29.2184],[118.0583,29.2191],[118.0511,29.2173],[118.0427,29.2195],[118.0361,29.213],[118.0369,29.2089],[118.034,29.205],[118.036,29.203],[118.0315,29.1972],[118.0318,29.1938],[118.0276,29.1854],[118.0286,29.1786],[118.0233,29.1739],[118.0224,29.171],[118.0271,29.1676],[118.0357,29.1639],[118.0385,29.1603],[118.0378,29.1558],[118.0394,29.1517],[118.037,29.149],[118.0384,29.1419],[118.0332,29.1283],[118.0407,29.1249],[118.0481,29.1189],[118.0485,29.1156],[118.0388,29.1137],[118.0308,29.1015],[118.0327,29.096],[118.0399,29.0908],[118.046,29.0911],[118.0506,29.0888],[118.0554,29.084],[118.0639,29.0839],[118.0649,29.0816],[118.0704,29.0776],[118.0681,29.0702],[118.072,29.0654],[118.0676,29.0634],[118.065,29.0592],[118.06,29.0567],[118.0604,29.0525],[118.067,29.0456],[118.0656,29.0441],[118.0677,29.039],[118.0743,29.0403],[118.0789,29.034],[118.0836,29.0297],[118.084,29.0184],[118.0828,29.0157],[118.0877,29.0059],[118.0933,29.004],[118.0955,29.0049],[118.0983,29.0132],[118.1018,29.0148],[118.1053,29.0066],[118.102,29.006],[118.1013,29.0012],[118.0973,28.9961],[118.0993,28.9942],[118.1049,28.9943],[118.1047,28.9976],[118.1073,29.0039],[118.1057,29.0057],[118.1108,29.0125],[118.1153,29.014],[118.1219,29.0188],[118.1272,29.0111],[118.1239,29.0066],[118.1241,29.002],[118.1204,28.9968],[118.1268,28.9905],[118.1285,28.9864],[118.1349,28.9831],[118.1394,28.9833],[118.1418,28.9875],[118.1498,28.9899],[118.1515,28.9883],[118.1625,28.9887],[118.1701,28.9827],[118.1748,28.984],[118.1783,28.98],[118.1815,28.9799],[118.1843,28.9738],[118.191,28.9682],[118.1944,28.96],[118.1936,28.9581],[118.1995,28.9555],[118.2045,28.9576],[118.2068,28.952],[118.2104,28.9507],[118.2153,28.952],[118.2228,28.9477],[118.2224,28.9446],[118.2161,28.9373],[118.211,28.9342],[118.2049,28.9281],[118.202,28.9233],[118.1917,28.9195],[118.1887,28.9164],[118.1881,28.9112],[118.1904,28.9065],[118.1948,28.9053],[118.1993,28.9082],[118.2036,28.9077],[118.2072,28.9106],[118.2121,28.9114],[118.2163,28.9149],[118.2212,28.9147],[118.2234,28.9177],[118.2283,28.9186],[118.2324,28.9218],[118.2385,28.9234],[118.2456,28.9223],[118.2492,28.9263],[118.252,28.9265],[118.2542,28.9323],[118.2584,28.9355],[118.2677,28.9269],[118.2769,28.9312],[118.281,28.9302],[118.2833,28.9266],[118.2873,28.9264],[118.2905,28.9292],[118.2935,28.9263],[118.2986,28.9262],[118.303,28.9289],[118.3081,28.926],[118.3136,28.9265],[118.3188,28.9296],[118.3217,28.9292],[118.3249,28.9332],[118.3298,28.9326],[118.3344,28.9302],[118.3379,28.9315],[118.3422,28.9369],[118.3492,28.9349],[118.3523,28.9372],[118.3548,28.9439],[118.347,28.9508],[118.3503,28.9583],[118.3572,28.9701],[118.3688,28.9755],[118.37,28.9777],[118.3769,28.98],[118.3795,28.9828],[118.3885,28.9834],[118.3924,28.9869],[118.4082,28.984],[118.4103,28.9796],[118.4163,28.9749],[118.4235,28.9775],[118.4264,28.977],[118.4307,28.9802],[118.4295,28.9822],[118.4327,28.9906],[118.4362,28.9908],[118.4439,29.0023],[118.4394,29.0084],[118.4421,29.0126],[118.4477,29.0172],[118.4447,29.0196],[118.4443,29.0248],[118.448,29.0339],[118.454,29.0378],[118.4588,29.0328],[118.4637,29.0326],[118.4789,29.0381],[118.4792,29.0409],[118.4847,29.0422],[118.4875,29.0482],[118.4933,29.0576],[118.4992,29.0585],[118.5102,29.07],[118.5148,29.0718],[118.516,29.0755],[118.5235,29.0787],[118.5257,29.0832],[118.525,29.0865],[118.5295,29.0891],[118.5343,29.094],[118.5396,29.0933],[118.5449,29.0977],[118.5575,29.106],[118.5591,29.1081],[118.5654,29.1099],[118.5747,29.1211],[118.5767,29.1254],[118.5728,29.1338],[118.5749,29.1406],[118.5796,29.1449],[118.5818,29.1495],[118.5866,29.152],[118.5888,29.1508],[118.5989,29.1588],[118.6037,29.1651],[118.6059,29.1645],[118.6102,29.1698],[118.6126,29.1702],[118.6157,29.1751],[118.6121,29.1773],[118.6153,29.1808],[118.6177,29.1861],[118.6153,29.1926],[118.6233,29.196]]]},"properties":{"region_code":"CN-33-3308-330824","parent_region_code":"CN-33-3308","name":"开化县","level":"county","has_children":false,"full_path":"中国 / 浙江省 / 衢州市 / 开化县","source_admin_code":"330824","osm_relation_id":3278463}},
{"type":"Feature","geometry":{"type":"Polygon","coordinates":[[[119.0586,28.7367],[119.0677,28.7378],[119.0722,28.7402],[119.0748,28.7442],[119.0833,28.7384],[119.089,28.7427],[119.0929,28.7505],[119.0966,28.7467],[119.1089,28.7441],[119.1155,28.7407],[119.1179,28.7427],[119.1233,28.7405],[119.1281,28.7415],[119.1352,28.7411],[119.1365,28.7432],[119.1446,28.744],[119.158,28.7519],[119.1622,28.7486],[119.1709,28.7568],[119.1722,28.7621],[119.1709,28.7662],[119.1772,28.7674],[119.1834,28.7772],[119.1881,28.7791],[119.1902,28.7819],[119.2009,28.7787],[119.1988,28.7712],[119.2036,28.7708],[119.2054,28.7748],[119.2108,28.7756],[119.2173,28.7695],[119.2277,28.7677],[119.2316,28.7651],[119.2398,28.7647],[119.2452,28.7708],[119.2477,28.7758],[119.2502,28.7765],[119.2517,28.7821],[119.2563,28.783],[119.2588,28.7858],[119.2577,28.7918],[119.2605,28.7929],[119.2623,28.7978],[119.2674,28.7961],[119.2722,28.8018],[119.2675,28.8067],[119.2616,28.8045],[119.2623,28.8086],[119.2671,28.8104],[119.273,28.8066],[119.2785,28.8102],[119.2897,28.8096],[119.2942,28.8068],[119.2981,28.8074],[119.3079,28.8158],[119.3133,28.8146],[119.316,28.8103],[119.3212,28.81],[119.33,28.816],[119.3349,28.8224],[119.3347,28.8269],[119.338,28.8274],[119.3405,28.8306],[119.3381,28.8345],[119.3338,28.8356],[119.3309,28.8386],[119.3285,28.8484],[119.3231,28.8498],[119.3052,28.8464],[119.3059,28.8542],[119.3092,28.8645],[119.3074,28.8686],[119.3146,28.8707],[119.3282,28.868],[119.3324,28.877],[119.3312,28.8822],[119.3331,28.8839],[119.3374,28.8929],[119.3397,28.8953],[119.3417,28.9016],[119.3363,28.9077],[119.3327,28.9099],[119.3274,28.9107],[119.3254,28.9207],[119.3221,28.9228],[119.3217,28.9284],[119.3232,28.9335],[119.3215,28.9391],[119.3155,28.9401],[119.3112,28.9455],[119.3126,28.9479],[119.3085,28.9573],[119.3161,28.9697],[119.3193,28.9708],[119.3173,28.9768],[119.3218,28.9821],[119.3241,28.9893],[119.3172,28.9941],[119.3197,29.0006],[119.3158,29.0018],[119.3147,29.0067],[119.3182,29.0133],[119.3188,29.0217],[119.3228,29.0229],[119.3204,29.0322],[119.3229,29.0371],[119.3267,29.037],[119.3259,29.0429],[119.3289,29.0451],[119.3289,29.0485],[119.3254,29.0511],[119.3234,29.0562],[119.3196,29.0609],[119.3214,29.0632],[119.3237,29.0713],[119.3279,29.0714],[119.3318,29.0753],[119.33,29.082],[119.3267,29.0837],[119.3209,29.0921],[119.3199,29.0966],[119.3151,29.0944],[119.3113,29.0886],[119.306,29.0887],[119.3022,29.0911],[119.2948,29.0917],[119.2949,29.098],[119.2967,29.1025],[119.2899,29.1065],[119.286,29.1069],[119.2857,29.11],[119.2824,29.1129],[119.2818,29.1164],[119.2765,29.12],[119.2663,29.1214],[119.2633,29.1254],[119.2649,29.1315],[119.2617,29.1379],[119.2553,29.1379],[119.2473,29.1403],[119.244,29.1442],[119.2467,29.1485],[119.2439,29.1542],[119.2437,29.1576],[119.2387,29.1642],[119.2385,29.1697],[119.2363,29.1725],[119.2402,29.1785],[119.2389,29.1813],[119.2405,29.185],[119.238,29.1867],[119.238,29.1911],[119.2311,29.1956],[119.226,29.192],[119.2234,29.1956],[119.2182,29.1962],[119.2184,29.1997],[119.2293,29.1996],[119.2287,29.2036],[119.2327,29.2062],[119.2284,29.2109],[119.2282,29.2165],[119.2314,29.2178],[119.2292,29.2219],[119.2309,29.226],[119.2398,29.2309],[119.2411,29.2346],[119.2471,29.2385],[119.249,29.2433],[119.2541,29.2499],[119.2459,29.2539],[119.2438,29.2559],[119.2297,29.2532],[119.2315,29.2616],[119.2268,29.27],[119.2291,29.2733],[119.2239,29.2748],[119.223,29.2781],[119.2254,29.2807],[119.2247,29.2866],[119.2229,29.2886],[119.226,29.2921],[119.2215,29.2955],[119.2178,29.2948],[119.2066,29.2966],[119.2054,29.2926],[119.2005,29.2909],[119.1961,29.293],[119.1925,29.2842],[119.1899,29.2747],[119.1814,29.2714],[119.186,29.2667],[119.1874,29.261],[119.1917,29.2588],[119.1955,29.2609],[119.1997,29.2561],[119.2054,29.2515],[119.2102,29.2504],[119.2069,29.2469],[119.2099,29.243],[119.2052,29.2369],[119.2058,29.2301],[119.2088,29.2285],[119.2077,29.2249],[119.204,29.224],[119.198,29.229],[119.1909,29.2298],[119.1871,29.2316],[119.1846,29.2294],[119.1858,29.2226],[119.1905,29.2193],[119.1853,29.2147],[119.1856,29.2077],[119.1804,29.2063],[119.1781,29.2093],[119.1716,29.2116],[119.1704,29.2162],[119.1655,29.2155],[119.1621,29.2211],[119.1581,29.2177],[119.1559,29.2215],[119.147,29.23],[119.1403,29.2253],[119.136,29.2261],[119.1338,29.2229],[119.1256,29.224],[119.1229,29.2296],[119.1265,29.236],[119.1206,29.2397],[119.1104,29.2358],[119.1055,29.2325],[119.1035,29.229],[119.0952,29.2308],[119.0915,29.2301],[119.0873,29.2335],[119.0852,29.2321],[119.0795,29.2329],[119.0714,29.2258],[119.0681,29.2279],[119.0596,29.2294],[119.0586,29.231],[119.049,29.2247],[119.0409,29.224],[119.0412,29.2184],[119.0387,29.2153],[119.0422,29.2083],[119.041,29.2061],[119.0476,29.2045],[119.0476,29.1991],[119.0525,29.1953],[119.051,29.1916],[119.0469,29.1903],[119.0478,29.1857],[119.0518,29.1824],[119.0495,29.1772],[119.0432,29.1756],[119.0497,29.1708],[119.0517,29.1651],[119.0561,29.1633],[119.0567,29.1591],[119.0599,29.1576],[119.0712,29.1592],[119.0742,29.1563],[119.0769,29.1474],[119.0725,29.1429],[119.0657,29.1393],[119.0652,29.1312],[119.0705,29.1264],[119.0713,29.1221],[119.0802,29.1163],[119.0777,29.1128],[119.0808,29.1067],[119.0858,29.1078],[119.0896,29.104],[119.0907,29.1007],[119.087,29.0961],[119.0824,29.0955],[119.0807,29.0927],[119.0853,29.0905],[119.0834,29.0868],[119.0717,29.0872],[119.0658,29.0797],[119.0582,29.0778],[119.0611,29.0824],[119.0594,29.0866],[119.0524,29.0813],[119.0544,29.0763],[119.0574,29.075],[119.0558,29.0713],[119.0509,29.0683],[119.0527,29.0635],[119.05,29.0588],[119.0459,29.0569],[119.0381,29.0592],[119.0352,29.0556],[119.0384,29.0525],[119.0368,29.0476],[119.0303,29.0476],[119.0334,29.0437],[119.0396,29.0436],[119.0471,29.0375],[119.0537,29.0464],[119.0572,29.0434],[119.0572,29.0356],[119.0655,29.0359],[119.0661,29.0272],[119.0682,29.0249],[119.0665,29.0192],[119.074,29.0175],[119.0768,29.0119],[119.0871,29.0121],[119.0858,29.0089],[119.0923,29.0076],[119.0908,29.0048],[119.0931,29.0023],[119.0871,28.999],[119.0898,28.9958],[119.0916,28.9907],[119.088,28.9888],[119.0858,28.9931],[119.0824,28.9941],[119.0725,28.9904],[119.0682,28.9852],[119.0718,28.9831],[119.067,28.9787],[119.0636,28.9805],[119.0606,28.9745],[119.0639,28.9706],[119.0652,28.9664],[119.0746,28.9636],[119.0793,28.9644],[119.0808,28.9621],[119.0797,28.9538],[119.0861,28.9563],[119.089,28.9537],[119.0872,28.9478],[119.0892,28.9465],[119.0948,28.9486],[119.0993,28.9467],[119.1005,28.9442],[119.1073,28.9407],[119.1113,28.9369],[119.109,28.9313],[119.1124,28.9306],[119.1119,28.9265],[119.1065,28.9187],[119.106,28.9135],[119.1012,28.9093],[119.1043,28.9054],[119.111,28.902],[119.1076,28.8919],[119.108,28.8871],[119.1107,28.8801],[119.1067,28.8746],[119.0998,28.8706],[119.1005,28.8654],[119.0994,28.8599],[119.1032,28.8559],[119.0985,28.8414],[119.094,28.8373],[119.0954,28.8261],[119.0849,28.8222],[119.0793,28.8137],[119.073,28.813],[119.0664,28.8102],[119.0612,28.806],[119.0607,28.8031],[119.0627,28.7963],[119.0618,28.7861],[119.0686,28.783],[119.0723,28.7782],[119.075,28.7713],[119.0725,28.7668],[119.0724,28.7619],[119.067,28.7583],[119.0669,28.7549],[119.0638,28.7518],[119.0609,28.7521],[119.0578,28.7458],[119.0593,28.7413],[119.0586,28.7367]]]},"properties":{"region_code":"CN-33-3308-330825","parent_region_code":"CN-33-3308","name":"龙游县","level":"county","has_children":false,"full_path":"中国 / 浙江省 / 衢州市 / 龙游县","source_admin_code":"330825","osm_relation_id":3278465}},
{"type":"Feature","geometry":{"type":"Polygon","coordinates":[[[118.6833,28.891],[118.6757,28.8859],[118.6749,28.8806],[118.6765,28.8787],[118.6728,28.8747],[118.6599,28.8707],[118.6558,28.8713],[118.6453,28.8671],[118.6379,28.863],[118.6322,28.8627],[118.6154,28.8718],[118.6122,28.8723],[118.6086,28.8695],[118.6072,28.8654],[118.6117,28.8598],[118.6133,28.856],[118.6023,28.8457],[118.602,28.8432],[118.5948,28.8421],[118.5894,28.8452],[118.5836,28.8434],[118.5757,28.8468],[118.5708,28.8473],[118.567,28.8506],[118.5629,28.85],[118.564,28.846],[118.5582,28.8407],[118.5531,28.8418],[118.5512,28.8402],[118.5431,28.8396],[118.5388,28.8421],[118.5284,28.8393],[118.5283,28.8322],[118.5255,28.828],[118.522,28.8263],[118.5177,28.8292],[118.5172,28.8342],[118.5143,28.8382],[118.5096,28.8359],[118.5038,28.8372],[118.4999,28.8349],[118.4935,28.8346],[118.4922,28.8322],[118.4956,28.8235],[118.4925,28.8189],[118.4917,28.8136],[118.4882,28.8122],[118.4866,28.8051],[118.4819,28.8023],[118.48,28.792],[118.4695,28.7798],[118.4698,28.7741],[118.467,28.7699],[118.464,28.7704],[118.4558,28.7759],[118.4581,28.78],[118.4534,28.7836],[118.4503,28.7838],[118.4435,28.7885],[118.4351,28.7925],[118.4263,28.793],[118.4192,28.7887],[118.4152,28.7911],[118.4125,28.7982],[118.4076,28.7961],[118.4025,28.7967],[118.3972,28.7954],[118.3913,28.7966],[118.3899,28.7889],[118.3901,28.7842],[118.3877,28.7806],[118.3785,28.7771],[118.3799,28.7698],[118.3799,28.7628],[118.382,28.7577],[118.3871,28.7585],[118.3885,28.7516],[118.3824,28.749],[118.3867,28.7456],[118.3872,28.7413],[118.3941,28.7397],[118.3943,28.7364],[118.3885,28.7372],[118.3943,28.7304],[118.3969,28.7173],[118.3872,28.7135],[118.3867,28.706],[118.3917,28.7048],[118.3976,28.7062],[118.4012,28.7001],[118.4045,28.7017],[118.4103,28.6938],[118.4095,28.6896],[118.4112,28.6853],[118.4168,28.6825],[118.4229,28.6844],[118.4262,28.6829],[118.4279,28.6794],[118.4258,28.6754],[118.4257,28.6693],[118.4274,28.6673],[118.4254,28.6633],[118.4261,28.6542],[118.4172,28.649],[118.4189,28.646],[118.4184,28.6417],[118.4225,28.6344],[118.4281,28.6278],[118.4243,28.6219],[118.4218,28.6205],[118.4205,28.615],[118.4138,28.6147],[118.4087,28.6126],[118.4104,28.6064],[118.4084,28.604],[118.4108,28.5981],[118.4157,28.5967],[118.4183,28.5881],[118.4123,28.5868],[118.411,28.58],[118.4127,28.576],[118.4061,28.5761],[118.405,28.5697],[118.4087,28.5662],[118.4089,28.5616],[118.4071,28.5589],[118.4133,28.5559],[118.417,28.5489],[118.4168,28.5429],[118.4211,28.5352],[118.4193,28.5326],[118.422,28.5252],[118.4263,28.5232],[118.428,28.5193],[118.432,28.5248],[118.4372,28.5196],[118.4397,28.5192],[118.4389,28.5137],[118.4306,28.5069],[118.4215,28.5047],[118.4194,28.5033],[118.4137,28.5055],[118.4094,28.5008],[118.4159,28.4962],[118.4254,28.4949],[118.4308,28.4964],[118.4353,28.4945],[118.4386,28.4891],[118.4454,28.4848],[118.4483,28.4798],[118.4516,28.4801],[118.4546,28.4835],[118.4624,28.4839],[118.4696,28.482],[118.4729,28.4778],[118.4727,28.474],[118.4672,28.4667],[118.461,28.4621],[118.4651,28.4578],[118.4606,28.4569],[118.4603,28.4506],[118.4565,28.4445],[118.4544,28.4334],[118.4519,28.4283],[118.4484,28.4268],[118.4452,28.4184],[118.4349,28.4153],[118.4332,28.4126],[118.4345,28.4093],[118.4265,28.4051],[118.4265,28.4025],[118.4331,28.403],[118.436,28.3979],[118.4357,28.3947],[118.4433,28.3905],[118.4482,28.3889],[118.4527,28.3827],[118.4546,28.3747],[118.4592,28.3692],[118.4583,28.3629],[118.4638,28.3605],[118.4647,28.3578],[118.4652,28.3467],[118.4693,28.341],[118.4668,28.3361],[118.4752,28.3306],[118.4781,28.3374],[118.4822,28.3329],[118.4801,28.3281],[118.4766,28.3245],[118.4686,28.3215],[118.4669,28.3174],[118.4614,28.3095],[118.4504,28.3019],[118.4419,28.297],[118.4346,28.2949],[118.4281,28.2916],[118.4248,28.2827],[118.4277,28.2798],[118.4299,28.271],[118.4324,28.2722],[118.4366,28.2698],[118.434,28.2654],[118.4373,28.264],[118.4441,28.2646],[118.4449,28.2624],[118.4382,28.2536],[118.4438,28.2542],[118.4501,28.2489],[118.4543,28.25],[118.4589,28.2463],[118.4636,28.2485],[118.4716,28.2472],[118.4753,28.25],[118.4781,28.2486],[118.4836,28.2427],[118.4871,28.2415],[118.4909,28.2477],[118.4979,28.2511],[118.4975,28.2567],[118.4886,28.2651],[118.4888,28.2708],[118.491,28.2723],[118.4895,28.2773],[118.4952,28.2792],[118.4981,28.2829],[118.5035,28.2822],[118.5091,28.2789],[118.5091,28.2748],[118.5114,28.2731],[118.516,28.2754],[118.5137,28.2801],[118.5192,28.2807],[118.5203,28.2782],[118.5251,28.2773],[118.5264,28.2749],[118.5335,28.275],[118.5414,28.2772],[118.5389,28.2726],[118.5404,28.2665],[118.5448,28.2703],[118.5443,28.2749],[118.5415,28.2772],[118.5436,28.285],[118.5484,28.2819],[118.5563,28.2825],[118.5631,28.2888],[118.5677,28.2915],[118.5736,28.288],[118.5764,28.2903],[118.5827,28.287],[118.5878,28.2802],[118.5931,28.275],[118.5909,28.2677],[118.5907,28.2607],[118.597,28.2572],[118.6022,28.2603],[118.604,28.2654],[118.6065,28.2664],[118.6144,28.2599],[118.6192,28.2614],[118.6215,28.2658],[118.6244,28.264],[118.6292,28.2655],[118.6356,28.2772],[118.6406,28.2769],[118.6487,28.2806],[118.6633,28.2724],[118.6716,28.2733],[118.6748,28.2785],[118.6788,28.2801],[118.681,28.2871],[118.6872,28.2931],[118.6895,28.3031],[118.6893,28.3081],[118.6942,28.3109],[118.6974,28.3251],[118.6966,28.3299],[118.7038,28.3372],[118.7081,28.3365],[118.7137,28.3422],[118.719,28.3416],[118.7236,28.3494],[118.7267,28.3508],[118.7331,28.3591],[118.7368,28.3658],[118.7362,28.3795],[118.7435,28.3892],[118.7424,28.391],[118.7463,28.3975],[118.7508,28.3992],[118.7526,28.4026],[118.7516,28.4062],[118.7547,28.4105],[118.7528,28.4134],[118.7478,28.4153],[118.7506,28.4195],[118.7426,28.4203],[118.7393,28.4183],[118.7331,28.4182],[118.7302,28.4198],[118.7252,28.4147],[118.7196,28.4147],[118.7175,28.4165],[118.7194,28.4206],[118.7188,28.4275],[118.7242,28.4323],[118.7188,28.4368],[118.7219,28.4428],[118.7245,28.445],[118.7245,28.4555],[118.7266,28.4603],[118.7206,28.4642],[118.7205,28.4734],[118.725,28.4831],[118.7225,28.4905],[118.7194,28.4914],[118.7184,28.4967],[118.722,28.5031],[118.7282,28.5035],[118.7298,28.5089],[118.7384,28.513],[118.7442,28.5234],[118.7456,28.5275],[118.7486,28.5282],[118.7558,28.5265],[118.7603,28.5275],[118.7644,28.5238],[118.7704,28.5212],[118.7752,28.5263],[118.7757,28.5299],[118.7811,28.5342],[118.787,28.5353],[118.7878,28.5379],[118.7938,28.5391],[118.7914,28.5488],[118.7925,28.5527],[118.7888,28.5561],[118.7954,28.5619],[118.7935,28.5634],[118.7887,28.5606],[118.7851,28.566],[118.7893,28.5696],[118.7902,28.5738],[118.7879,28.5761],[118.7905,28.5855],[118.7945,28.5862],[118.7938,28.5896],[118.7971,28.5916],[118.8039,28.6],[118.8033,28.6085],[118.8099,28.6114],[118.8058,28.6191],[118.8002,28.6191],[118.8011,28.6221],[118.808,28.6261],[118.8137,28.6343],[118.8114,28.642],[118.8123,28.6495],[118.8035,28.6552],[118.7979,28.6573],[118.7994,28.6653],[118.7947,28.6666],[118.7894,28.6627],[118.7857,28.6683],[118.784,28.6767],[118.7816,28.681],[118.7819,28.6869],[118.7841,28.695],[118.7884,28.6988],[118.7911,28.7079],[118.7851,28.7086],[118.783,28.7153],[118.7828,28.72],[118.7801,28.7227],[118.7824,28.7269],[118.7799,28.7339],[118.785,28.7419],[118.7811,28.7441],[118.7849,28.7509],[118.7821,28.7554],[118.7812,28.7609],[118.7774,28.7642],[118.7716,28.7642],[118.767,28.7679],[118.7677,28.7734],[118.7622,28.7787],[118.7594,28.7832],[118.765,28.7847],[118.761,28.7901],[118.7582,28.7898],[118.754,28.793],[118.7538,28.7961],[118.7468,28.7981],[118.7484,28.8024],[118.7459,28.8058],[118.7415,28.8049],[118.7377,28.8139],[118.7449,28.8169],[118.7446,28.8195],[118.7394,28.8202],[118.7363,28.829],[118.7324,28.8361],[118.7337,28.8415],[118.7295,28.8453],[118.7298,28.85],[118.7221,28.8636],[118.7136,28.869],[118.7093,28.8692],[118.7008,28.8777],[118.7037,28.8866],[118.6951,28.8891],[118.6914,28.8883],[118.6833,28.891]]]},"properties":{"region_code":"CN-33-3308-330881","parent_region_code":"CN-33-3308","name":"江山市","level":"county","has_children":false,"full_path":"中国 / 浙江省 / 衢州市 / 江山市","source_admin_code":"330881","osm_relation_id":3278462}}
]}