{"type":"FeatureCollection", "features": [
{"type":"Feature","geometry":{"type":"Polygon","coordinates":[[[118.6402,31.6804],[118.6513,31.6802],[118.6595,31.6824],[118.667,31.6996],[118.6734,31.6982],[118.6783,31.7047],[118.6859,31.7095],[118.6853,31.7229],[118.6728,31.731],[118.6484,31.734],[118.6446,31.7427],[118.6363,31.7478],[118.6385,31.7553],[118.6372,31.7614],[118.6218,31.7614],[118.6123,31.7533],[118.6034,31.7596],[118.5968,31.7597],[118.5873,31.7465],[118.5702,31.743],[118.5645,31.7468],[118.5572,31.74],[118.5522,31.7318],[118.5449,31.7367],[118.5341,31.7376],[118.53,31.7419],[118.5156,31.7481],[118.5245,31.7545],[118.5334,31.7534],[118.5331,31.7616],[118.527,31.7691],[118.5166,31.7636],[118.4988,31.7735],[118.497,31.7783],[118.4774,31.7789],[118.4616,31.7663],[118.453,31.7639],[118.4384,31.7549],[118.4289,31.7456],[118.4204,31.7328],[118.4166,31.7218],[118.4134,31.6986],[118.432,31.6999],[118.4369,31.6973],[118.4479,31.6951],[118.4577,31.6957],[118.4606,31.711],[118.4633,31.7128],[118.4756,31.7101],[118.486,31.7019],[118.4921,31.6995],[118.4973,31.6911],[118.4984,31.6805],[118.505,31.6752],[118.505,31.6688],[118.5155,31.6688],[118.5276,31.6714],[118.5277,31.6653],[118.5346,31.6644],[118.5418,31.6694],[118.5435,31.6785],[118.5542,31.6795],[118.5611,31.6763],[118.5649,31.669],[118.5726,31.6719],[118.5828,31.6677],[118.5913,31.676],[118.6057,31.6863],[118.6098,31.6988],[118.6195,31.7026],[118.626,31.6993],[118.6305,31.6874],[118.6354,31.6884],[118.6402,31.6804]]]},"properties":{"region_code":"CN-34-3405-340503","parent_region_code":"CN-34-3405","name":"花山区","level":"county","has_children":false,"full_path":"中国 / 安徽省 / 马鞍山市 / 花山区","source_admin_code":"340503","osm_relation_id":3260814}},
{"type":"Feature","geometry":{"type":"Polygon","coordinates":[[[118.4369,31.6973],[118.4387,31.6757],[118.4465,31.6509],[118.4531,31.6414],[118.4587,31.6269],[118.4618,31.6084],[118.46,31.5867],[118.4654,31.5876],[118.4749,31.6015],[118.4881,31.6006],[118.4938,31.5961],[118.4967,31.5888],[118.5045,31.5859],[118.5002,31.5741],[118.5097,31.5749],[118.5166,31.573],[118.5337,31.5816],[118.5428,31.5749],[118.5492,31.5784],[118.5562,31.5782],[118.5789,31.5869],[118.5865,31.5962],[118.5835,31.5997],[118.5817,31.6096],[118.5755,31.6151],[118.5807,31.6219],[118.5855,31.6152],[118.6009,31.6151],[118.6046,31.6248],[118.6303,31.6286],[118.6339,31.6344],[118.6436,31.6372],[118.6445,31.65],[118.6391,31.6519],[118.6432,31.6607],[118.6425,31.6687],[118.6375,31.6738],[118.6402,31.6804],[118.6354,31.6884],[118.6305,31.6874],[118.626,31.6993],[118.6195,31.7026],[118.6098,31.6988],[118.6057,31.6863],[118.5913,31.676],[118.5828,31.6677],[118.5726,31.6719],[118.5649,31.669],[118.5611,31.6763],[118.5542,31.6795],[118.5435,31.6785],[118.5418,31.6694],[118.5346,31.6644],[118.5277,31.6653],[118.5276,31.6714],[118.5155,31.6688],[118.505,31.6688],[118.505,31.6752],[118.4984,31.6805],[118.4973,31.6911],[118.4921,31.6995],[118.486,31.7019],[118.4756,31.7101],[118.4633,31.7128],[118.4606,31.711],[118.4577,31.6957],[118.4479,31.6951],[118.4369,31.6973]]]},"properties":{"region_code":"CN-34-3405-340504","parent_region_code":"CN-34-3405","name":"雨山区","level":"county","has_children":false,"full_path":"中国 / 安徽省 / 马鞍山市 / 雨山区","source_admin_code":"340504","osm_relation_id":3260815}},
{"type":"Feature","geometry":{"type":"Polygon","coordinates":[[[118.5865,31.5962],[118.5935,31.6007],[118.5992,31.5998],[118.61,31.5927],[118.6167,31.5914],[118.6243,31.5849],[118.6297,31.5738],[118.6329,31.561],[118.6364,31.5572],[118.6357,31.5496],[118.6295,31.5323],[118.649,31.5286],[118.6696,31.53],[118.6802,31.5343],[118.6867,31.5315],[118.7225,31.5074],[118.7329,31.4974],[118.751,31.4928],[118.7677,31.4848],[118.7711,31.4894],[118.7853,31.4863],[118.7906,31.4867],[118.8048,31.482],[118.8531,31.4784],[118.8609,31.45],[118.8635,31.425],[118.8692,31.4323],[118.8766,31.4501],[118.874,31.4831],[118.8781,31.4986],[118.8825,31.5313],[118.8701,31.5417],[118.8713,31.5527],[118.8654,31.5556],[118.8714,31.564],[118.8775,31.5643],[118.8786,31.57],[118.8676,31.5765],[118.8725,31.5925],[118.8641,31.5997],[118.8675,31.6078],[118.8663,31.6118],[118.8584,31.617],[118.8542,31.6258],[118.8431,31.6263],[118.8363,31.6308],[118.8151,31.633],[118.8151,31.6258],[118.8105,31.6225],[118.7987,31.6209],[118.7907,31.6308],[118.7856,31.6316],[118.7866,31.6404],[118.7831,31.6506],[118.7779,31.6583],[118.7872,31.6612],[118.7941,31.6684],[118.7836,31.6741],[118.7694,31.6847],[118.7631,31.6795],[118.7552,31.6824],[118.7459,31.6797],[118.7393,31.6705],[118.74,31.6587],[118.7333,31.649],[118.7316,31.6361],[118.721,31.6343],[118.7136,31.6299],[118.7077,31.6453],[118.6991,31.6405],[118.6901,31.642],[118.6792,31.6386],[118.6685,31.6428],[118.6529,31.6432],[118.6445,31.65],[118.6436,31.6372],[118.6339,31.6344],[118.6303,31.6286],[118.6046,31.6248],[118.6009,31.6151],[118.5855,31.6152],[118.5807,31.6219],[118.5755,31.6151],[118.5817,31.6096],[118.5835,31.5997],[118.5865,31.5962]],[[118.8425,31.4997],[118.8352,31.5],[118.8453,31.5261],[118.8505,31.5304],[118.8635,31.5342],[118.8673,31.5296],[118.8625,31.5235],[118.8514,31.523],[118.8425,31.4997]]]},"properties":{"region_code":"CN-34-3405-340506","parent_region_code":"CN-34-3405","name":"博望区","level":"county","has_children":false,"full_path":"中国 / 安徽省 / 马鞍山市 / 博望区","source_admin_code":"340506","osm_relation_id":3260810}},
{"type":"Feature","geometry":{"type":"Polygon","coordinates":[[[118.4134,31.6986],[118.407,31.6838],[118.4012,31.6639],[118.3913,31.6111],[118.3859,31.5708],[118.38,31.5511],[118.3712,31.5343],[118.3875,31.5072],[118.4045,31.4966],[118.4101,31.5041],[118.4173,31.4814],[118.4284,31.473],[118.425,31.4583],[118.4194,31.4574],[118.4245,31.4385],[118.4311,31.4274],[118.4377,31.4091],[118.4397,31.3954],[118.4565,31.4013],[118.4612,31.397],[118.4735,31.395],[118.4839,31.3954],[118.4904,31.4065],[118.4966,31.4025],[118.5046,31.4058],[118.5199,31.4042],[118.518,31.3927],[118.5188,31.3817],[118.5388,31.3679],[118.5399,31.361],[118.5487,31.357],[118.5528,31.3486],[118.5466,31.3395],[118.5464,31.3342],[118.5521,31.328],[118.5501,31.3211],[118.5596,31.3118],[118.5615,31.3046],[118.566,31.3039],[118.5703,31.2938],[118.577,31.2922],[118.5924,31.2972],[118.6055,31.298],[118.6138,31.2969],[118.6209,31.3],[118.6376,31.3018],[118.6449,31.3066],[118.6678,31.3081],[118.674,31.3065],[118.69,31.3114],[118.6992,31.31],[118.7084,31.3229],[118.7148,31.3248],[118.7296,31.3471],[118.7405,31.3751],[118.7489,31.3871],[118.76,31.3911],[118.765,31.382],[118.7637,31.366],[118.785,31.3713],[118.7947,31.3711],[118.8053,31.3733],[118.8273,31.3812],[118.8396,31.3949],[118.8448,31.3943],[118.8554,31.4128],[118.8635,31.425],[118.8609,31.45],[118.8531,31.4784],[118.8048,31.482],[118.7906,31.4867],[118.7853,31.4863],[118.7711,31.4894],[118.7677,31.4848],[118.751,31.4928],[118.7329,31.4974],[118.7225,31.5074],[118.6867,31.5315],[118.6802,31.5343],[118.6696,31.53],[118.649,31.5286],[118.6295,31.5323],[118.6357,31.5496],[118.6364,31.5572],[118.6329,31.561],[118.6297,31.5738],[118.6243,31.5849],[118.6167,31.5914],[118.61,31.5927],[118.5992,31.5998],[118.5935,31.6007],[118.5865,31.5962],[118.5789,31.5869],[118.5562,31.5782],[118.5492,31.5784],[118.5428,31.5749],[118.5337,31.5816],[118.5166,31.573],[118.5097,31.5749],[118.5002,31.5741],[118.5045,31.5859],[118.4967,31.5888],[118.4938,31.5961],[118.4881,31.6006],[118.4749,31.6015],[118.4654,31.5876],[118.46,31.5867],[118.4618,31.6084],[118.4587,31.6269],[118.4531,31.6414],[118.4465,31.6509],[118.4387,31.6757],[118.4369,31.6973],[118.432,31.6999],[118.4134,31.6986]]]},"properties":{"region_code":"CN-34-3405-340521","parent_region_code":"CN-34-3405","name":"当涂县","level":"county","has_children":false,"full_path":"中国 / 安徽省 / 马鞍山市 / 当涂县","source_admin_code":"340521","osm_relation_id":3260811}},
{"type":"Feature","geometry":{"type":"Polygon","coordinates":[[[118.1334,31.5202],[118.1324,31.5275],[118.1361,31.5325],[118.136,31.5432],[118.1438,31.5483],[118.1458,31.5619],[118.1412,31.565],[118.1451,31.5761],[118.1404,31.5835],[118.1499,31.5973],[118.1524,31.6186],[118.1619,31.6211],[118.1749,31.6286],[118.1637,31.6474],[118.1683,31.6552],[118.1782,31.657],[118.1851,31.6617],[118.1893,31.6689],[118.1892,31.6761],[118.1928,31.6785],[118.195,31.6868],[118.1888,31.6962],[118.1953,31.7038],[118.2076,31.7067],[118.2176,31.7181],[118.2143,31.7245],[118.1949,31.7198],[118.1724,31.7116],[118.1595,31.7143],[118.1626,31.7247],[118.1605,31.7298],[118.168,31.7469],[118.1763,31.7554],[118.1787,31.7609],[118.1775,31.7698],[118.1742,31.7716],[118.1719,31.7826],[118.1722,31.7927],[118.1695,31.7952],[118.1555,31.7969],[118.1454,31.8005],[118.1405,31.8066],[118.152,31.8148],[118.1504,31.8231],[118.1369,31.8236],[118.1277,31.8179],[118.125,31.8264],[118.1202,31.8314],[118.106,31.8246],[118.0919,31.8331],[118.0907,31.8388],[118.0854,31.8438],[118.0762,31.8462],[118.0786,31.8544],[118.0649,31.8532],[118.0609,31.8659],[118.0393,31.8596],[118.0296,31.8607],[118.0345,31.8513],[118.0283,31.8488],[118.0228,31.8573],[118.0121,31.8618],[118.0097,31.8726],[117.9919,31.8826],[117.985,31.8815],[117.9743,31.8903],[117.9635,31.9049],[117.9531,31.9042],[117.9432,31.8834],[117.9372,31.8745],[117.9363,31.8629],[117.9335,31.8534],[117.9175,31.8445],[117.9028,31.8423],[117.9081,31.8308],[117.8984,31.8212],[117.9011,31.8091],[117.8998,31.8057],[117.9048,31.7952],[117.9111,31.7887],[117.9045,31.785],[117.9005,31.778],[117.9041,31.7679],[117.915,31.7657],[117.9205,31.7614],[117.9088,31.7525],[117.914,31.7419],[117.9198,31.7363],[117.9284,31.7357],[117.9286,31.7308],[117.8946,31.705],[117.9019,31.6991],[117.9121,31.6991],[117.921,31.6884],[117.9323,31.6807],[117.9343,31.6737],[117.9446,31.6736],[117.9561,31.6681],[117.9618,31.6582],[117.9599,31.6552],[117.9643,31.6414],[117.9685,31.6371],[117.967,31.6229],[117.9552,31.6193],[117.9504,31.6284],[117.9399,31.6306],[117.9288,31.6191],[117.932,31.6138],[117.9264,31.6079],[117.931,31.5917],[117.9248,31.5897],[117.9247,31.5845],[117.9291,31.5788],[117.9237,31.571],[117.909,31.5677],[117.9083,31.5625],[117.9027,31.5601],[117.903,31.5495],[117.9106,31.5525],[117.916,31.5505],[117.9231,31.5398],[117.9434,31.5431],[117.9467,31.5394],[117.9364,31.529],[117.9362,31.5247],[117.9492,31.5217],[117.9535,31.5098],[117.9607,31.5058],[117.963,31.4935],[117.9552,31.4918],[117.9525,31.4845],[117.9559,31.4808],[117.9628,31.481],[117.9776,31.476],[117.9776,31.4701],[117.9657,31.4691],[117.963,31.4656],[117.9653,31.4565],[117.9706,31.4507],[117.9702,31.4379],[117.9802,31.4347],[117.9839,31.4407],[118.0705,31.421],[118.1172,31.4112],[118.1311,31.4074],[118.1598,31.4011],[118.1633,31.4048],[118.1576,31.4168],[118.1658,31.4316],[118.1589,31.4354],[118.1437,31.4384],[118.1257,31.4395],[118.1219,31.4579],[118.1239,31.4658],[118.1326,31.4711],[118.1388,31.4699],[118.1452,31.4764],[118.1391,31.4792],[118.1356,31.4962],[118.1309,31.5018],[118.1288,31.5177],[118.1334,31.5202]]]},"properties":{"region_code":"CN-34-3405-340522","parent_region_code":"CN-34-3405","name":"含山县","level":"county","has_children":false,"full_path":"中国 / 安徽省 / 马鞍山市 / 含山县","source_admin_code":"340522","osm_relation_id":3260812}},
{"type":"Feature","geometry":{"type":"Polygon","coordinates":[[[118.4774,31.7789],[118.4757,31.7867],[118.4881,31.8134],[118.4994,31.843],[118.4851,31.8454],[118.4703,31.8524],[118.4614,31.86],[118.46,31.8695],[118.4716,31.8733],[118.473,31.8854],[118.4635,31.8882],[118.448,31.8862],[118.4398,31.8914],[118.4354,31.8979],[118.4275,31.8991],[118.4193,31.8963],[118.4178,31.8868],[118.4125,31.8869],[118.4049,31.8965],[118.4038,31.904],[118.4055,31.9137],[118.3962,31.9149],[118.3882,31.9185],[118.3789,31.9112],[118.3702,31.9127],[118.3735,31.918],[118.369,31.9298],[118.3578,31.9296],[118.3581,31.937],[118.3639,31.9436],[118.3602,31.9516],[118.3655,31.9622],[118.3628,31.9678],[118.3755,31.9692],[118.3692,31.9852],[118.3779,31.982],[118.384,31.9857],[118.3904,31.9957],[118.3847,32.0012],[118.3855,32.0189],[118.3956,32.0214],[118.3775,32.0351],[118.3841,32.0459],[118.3896,32.0485],[118.3778,32.0613],[118.3684,32.0589],[118.3684,32.0502],[118.3589,32.0456],[118.352,32.0392],[118.3369,32.0314],[118.3342,32.0321],[118.3216,32.0249],[118.3066,32.0074],[118.3004,31.9931],[118.2933,31.9864],[118.2813,31.9787],[118.2634,31.9633],[118.2474,31.9524],[118.2318,31.9386],[118.2177,31.9305],[118.2079,31.9309],[118.1962,31.928],[118.1842,31.9195],[118.1807,31.9126],[118.1634,31.904],[118.1549,31.9083],[118.1439,31.9086],[118.1273,31.9038],[118.1194,31.9084],[118.1083,31.9025],[118.1058,31.8941],[118.0904,31.8851],[118.0804,31.8776],[118.082,31.871],[118.0786,31.8664],[118.0807,31.8568],[118.0786,31.8544],[118.0762,31.8462],[118.0854,31.8438],[118.0907,31.8388],[118.0919,31.8331],[118.106,31.8246],[118.1202,31.8314],[118.125,31.8264],[118.1277,31.8179],[118.1369,31.8236],[118.1504,31.8231],[118.152,31.8148],[118.1405,31.8066],[118.1454,31.8005],[118.1555,31.7969],[118.1695,31.7952],[118.1722,31.7927],[118.1719,31.7826],[118.1742,31.7716],[118.1775,31.7698],[118.1787,31.7609],[118.1763,31.7554],[118.168,31.7469],[118.1605,31.7298],[118.1626,31.7247],[118.1595,31.7143],[118.1724,31.7116],[118.1949,31.7198],[118.2143,31.7245],[118.2176,31.7181],[118.2076,31.7067],[118.1953,31.7038],[118.1888,31.6962],[118.195,31.6868],[118.1928,31.6785],[118.1892,31.6761],[118.1893,31.6689],[118.1851,31.6617],[118.1782,31.657],[118.1683,31.6552],[118.1637,31.6474],[118.1749,31.6286],[118.1619,31.6211],[118.1524,31.6186],[118.1499,31.5973],[118.1404,31.5835],[118.1451,31.5761],[118.1412,31.565],[118.1458,31.5619],[118.1438,31.5483],[118.136,31.5432],[118.1361,31.5325],[118.1324,31.5275],[118.1334,31.5202],[118.1429,31.5204],[118.1542,31.5257],[118.1596,31.5326],[118.1764,31.5404],[118.1939,31.5368],[118.1974,31.5287],[118.2141,31.5267],[118.2286,31.5298],[118.2441,31.5359],[118.2485,31.5272],[118.2641,31.517],[118.2651,31.5101],[118.2823,31.5035],[118.2987,31.503],[118.3055,31.5078],[118.3073,31.4993],[118.3022,31.494],[118.2978,31.4813],[118.3016,31.4559],[118.3094,31.4562],[118.314,31.4437],[118.3207,31.4428],[118.3234,31.4491],[118.3376,31.4641],[118.3577,31.4945],[118.3712,31.5343],[118.38,31.5511],[118.3859,31.5708],[118.3913,31.6111],[118.4012,31.6639],[118.407,31.6838],[118.4134,31.6986],[118.4166,31.7218],[118.4204,31.7328],[118.4289,31.7456],[118.4384,31.7549],[118.453,31.7639],[118.4616,31.7663],[118.4774,31.7789]]]},"properties":{"region_code":"CN-34-3405-340523","parent_region_code":"CN-34-3405","name":"和县","level":"county","has_children":false,"full_path":"中国 / 安徽省 / 马鞍山市 / 和县","source_admin_code":"340523","osm_relation_id":3260813}}
]}