{"type":"FeatureCollection", "features": [
{"type":"Feature","geometry":{"type":"Polygon","coordinates":[[[118.7943,32.0973],[118.7888,32.0904],[118.7788,32.0942],[118.7789,32.0438],[118.8227,32.0408],[118.8325,32.0423],[118.8347,32.0372],[118.8327,32.0309],[118.8391,32.0313],[118.8392,32.0246],[118.8452,32.0211],[118.8551,32.0255],[118.8627,32.0264],[118.8713,32.0234],[118.8712,32.0193],[118.8756,32.0168],[118.8803,32.0213],[118.8905,32.0252],[118.8922,32.0278],[118.8904,32.0326],[118.8847,32.0379],[118.8776,32.038],[118.8721,32.0482],[118.8783,32.0506],[118.8819,32.0547],[118.8829,32.063],[118.8761,32.0737],[118.8769,32.0782],[118.8879,32.0767],[118.888,32.0807],[118.9028,32.0883],[118.8956,32.0975],[118.8921,32.0967],[118.8799,32.1053],[118.8729,32.105],[118.8691,32.1015],[118.8609,32.1028],[118.8553,32.1008],[118.8441,32.099],[118.8361,32.1022],[118.8325,32.1068],[118.8214,32.107],[118.814,32.1058],[118.813,32.0979],[118.8011,32.1003],[118.7943,32.0973]]]},"properties":{"region_code":"CN-32-3201-320102","parent_region_code":"CN-32-3201","name":"玄武区","level":"county","has_children":false,"full_path":"中国 / 江苏省 / 南京市 / 玄武区","source_admin_code":"320102","osm_relation_id":2138698}},
{"type":"Feature","geometry":{"type":"Polygon","coordinates":[[[118.7789,32.0438],[118.7618,32.0449],[118.7594,32.0437],[118.7634,32.0342],[118.7631,32.0269],[118.7589,32.0145],[118.7644,32.0105],[118.7766,32.0077],[118.7805,32.0012],[118.7866,31.9987],[118.797,31.9841],[118.804,31.9767],[118.8078,31.9775],[118.8241,31.9831],[118.8323,31.9832],[118.8567,32.0038],[118.8605,32.0028],[118.8705,32.0109],[118.8756,32.0168],[118.8712,32.0193],[118.8713,32.0234],[118.8627,32.0264],[118.8551,32.0255],[118.8452,32.0211],[118.8392,32.0246],[118.8391,32.0313],[118.8327,32.0309],[118.8347,32.0372],[118.8325,32.0423],[118.8227,32.0408],[118.7789,32.0438]]]},"properties":{"region_code":"CN-32-3201-320104","parent_region_code":"CN-32-3201","name":"秦淮区","level":"county","has_children":false,"full_path":"中国 / 江苏省 / 南京市 / 秦淮区","source_admin_code":"320104","osm_relation_id":2140011}},
{"type":"Feature","geometry":{"type":"Polygon","coordinates":[[[118.7594,32.0437],[118.7523,32.0394],[118.7363,32.0416],[118.7293,32.0417],[118.7285,32.031],[118.715,32.0343],[118.7182,32.0394],[118.7223,32.0417],[118.7145,32.0452],[118.7197,32.0544],[118.7225,32.0631],[118.7231,32.0832],[118.7253,32.0911],[118.7236,32.097],[118.7053,32.0778],[118.6969,32.0667],[118.6855,32.0496],[118.6749,32.0298],[118.666,32.0169],[118.6612,32.0084],[118.6568,31.9952],[118.6472,31.9798],[118.6542,31.9687],[118.6586,31.9656],[118.6716,31.9632],[118.7023,31.9583],[118.7104,31.9609],[118.719,31.9703],[118.7363,31.9846],[118.749,32.0021],[118.7547,32.0164],[118.7589,32.0145],[118.7631,32.0269],[118.7634,32.0342],[118.7594,32.0437]]]},"properties":{"region_code":"CN-32-3201-320105","parent_region_code":"CN-32-3201","name":"建邺区","level":"county","has_children":false,"full_path":"中国 / 江苏省 / 南京市 / 建邺区","source_admin_code":"320105","osm_relation_id":2139809}},
{"type":"Feature","geometry":{"type":"Polygon","coordinates":[[[118.7943,32.0973],[118.7977,32.1186],[118.8016,32.1242],[118.7959,32.1289],[118.7927,32.1244],[118.7835,32.1255],[118.7809,32.1288],[118.7619,32.1336],[118.7422,32.1172],[118.7299,32.105],[118.7236,32.097],[118.7253,32.0911],[118.7231,32.0832],[118.7225,32.0631],[118.7197,32.0544],[118.7145,32.0452],[118.7223,32.0417],[118.7182,32.0394],[118.715,32.0343],[118.7285,32.031],[118.7293,32.0417],[118.7363,32.0416],[118.7523,32.0394],[118.7594,32.0437],[118.7618,32.0449],[118.7789,32.0438],[118.7788,32.0942],[118.7888,32.0904],[118.7943,32.0973]]]},"properties":{"region_code":"CN-32-3201-320106","parent_region_code":"CN-32-3201","name":"鼓楼区","level":"county","has_children":false,"full_path":"中国 / 江苏省 / 南京市 / 鼓楼区","source_admin_code":"320106","osm_relation_id":2139790}},
{"type":"Feature","geometry":{"type":"MultiPolygon","coordinates":[[[[118.3516,31.9404],[118.35,31.9473],[118.3423,31.9562],[118.338,31.9575],[118.3386,31.9472],[118.3442,31.9444],[118.3476,31.9394],[118.3516,31.9404]]],[[[118.7236,32.097],[118.7299,32.105],[118.7422,32.1172],[118.7619,32.1336],[118.7715,32.1438],[118.7739,32.1518],[118.7702,32.1689],[118.756,32.1672],[118.7536,32.1785],[118.7424,32.1865],[118.7308,32.1722],[118.7252,32.1698],[118.724,32.1778],[118.7262,32.1825],[118.7269,32.1949],[118.734,32.1951],[118.7338,32.2009],[118.7231,32.2052],[118.7257,32.2112],[118.7247,32.2156],[118.7187,32.2207],[118.7189,32.2257],[118.7159,32.2371],[118.7179,32.2437],[118.7135,32.2485],[118.7138,32.252],[118.6993,32.2509],[118.6702,32.2532],[118.6626,32.2386],[118.6451,32.22],[118.6386,32.212],[118.6315,32.2098],[118.6246,32.2052],[118.6112,32.2075],[118.6049,32.2045],[118.5938,32.2021],[118.5894,32.1976],[118.5857,32.2028],[118.5756,32.2009],[118.5755,32.2061],[118.5716,32.2093],[118.5659,32.2106],[118.5653,32.2062],[118.5571,32.204],[118.5542,32.199],[118.5474,32.2018],[118.543,32.197],[118.5337,32.1947],[118.5258,32.1976],[118.519,32.1909],[118.513,32.1913],[118.504,32.1967],[118.5035,32.1856],[118.4998,32.1822],[118.4941,32.1839],[118.4906,32.1783],[118.4921,32.1715],[118.4906,32.1636],[118.493,32.163],[118.5002,32.1456],[118.4925,32.1401],[118.4939,32.1373],[118.4895,32.1334],[118.4951,32.125],[118.4843,32.1229],[118.4778,32.1191],[118.4706,32.1193],[118.4678,32.1169],[118.4683,32.1116],[118.4653,32.1102],[118.4583,32.1026],[118.4526,32.1026],[118.4479,32.0988],[118.4357,32.0939],[118.4334,32.0907],[118.4285,32.0914],[118.4253,32.0881],[118.416,32.0875],[118.4098,32.0895],[118.4064,32.0827],[118.3994,32.0823],[118.3894,32.0778],[118.3916,32.074],[118.3878,32.0645],[118.3831,32.065],[118.3778,32.0613],[118.383,32.055],[118.3867,32.054],[118.3896,32.0485],[118.3841,32.0459],[118.3775,32.0351],[118.3817,32.0307],[118.3956,32.0214],[118.3855,32.0189],[118.3829,32.0147],[118.385,32.01],[118.3847,32.0012],[118.3904,31.9957],[118.3888,31.9911],[118.3841,31.989],[118.384,31.9857],[118.3779,31.982],[118.3692,31.9852],[118.3755,31.9692],[118.3628,31.9678],[118.3655,31.9622],[118.3602,31.9516],[118.3639,31.9436],[118.3581,31.937],[118.3578,31.9296],[118.369,31.9298],[118.3695,31.9241],[118.3734,31.9236],[118.3735,31.918],[118.3702,31.9127],[118.3789,31.9112],[118.3882,31.9185],[118.3962,31.9149],[118.4055,31.9137],[118.4038,31.904],[118.4049,31.8965],[118.41,31.8942],[118.4088,31.8905],[118.4125,31.8869],[118.4178,31.8868],[118.4193,31.8963],[118.4275,31.8991],[118.4354,31.8979],[118.4398,31.8914],[118.4449,31.8917],[118.448,31.8862],[118.4635,31.8882],[118.473,31.8854],[118.4732,31.8776],[118.4716,31.8733],[118.46,31.8695],[118.4614,31.86],[118.4703,31.8524],[118.4851,31.8454],[118.4994,31.843],[118.517,31.8728],[118.5229,31.8795],[118.5475,31.8991],[118.5599,31.9153],[118.5644,31.9191],[118.5744,31.924],[118.586,31.9284],[118.6004,31.9356],[118.6117,31.945],[118.6439,31.9755],[118.6472,31.9798],[118.6568,31.9952],[118.6612,32.0084],[118.666,32.0169],[118.6749,32.0298],[118.6855,32.0496],[118.6969,32.0667],[118.7053,32.0778],[118.7236,32.097]]]]},"properties":{"region_code":"CN-32-3201-320111","parent_region_code":"CN-32-3201","name":"浦口区","level":"county","has_children":false,"full_path":"中国 / 江苏省 / 南京市 / 浦口区","source_admin_code":"320111","osm_relation_id":2124188}},
{"type":"Feature","geometry":{"type":"Polygon","coordinates":[[[118.8922,32.0278],[118.9017,32.0323],[118.9135,32.0434],[118.9095,32.0454],[118.9159,32.0538],[118.9118,32.0565],[118.9165,32.0643],[118.9165,32.069],[118.9134,32.0706],[118.914,32.0759],[118.9195,32.0795],[118.9257,32.0757],[118.9337,32.0805],[118.9341,32.0875],[118.9421,32.0932],[118.9433,32.0992],[118.9484,32.104],[118.9522,32.1008],[118.9576,32.1024],[118.9666,32.1105],[118.9737,32.1083],[118.9786,32.1091],[118.9758,32.0939],[118.9709,32.0849],[118.9673,32.0842],[118.9662,32.0791],[118.9694,32.0755],[118.9805,32.0736],[118.9795,32.0687],[118.9877,32.0683],[118.9886,32.071],[118.9979,32.0784],[119.003,32.0803],[118.9983,32.0841],[118.9965,32.0935],[119.0027,32.0986],[119.011,32.0984],[119.0156,32.1002],[119.0184,32.0978],[119.0344,32.0968],[119.0379,32.0981],[119.0438,32.0965],[119.0451,32.1003],[119.0417,32.1034],[119.046,32.1076],[119.0444,32.1118],[119.0213,32.118],[119.0168,32.1168],[119.0035,32.1179],[119.0039,32.1268],[119.0108,32.1318],[119.0146,32.1305],[119.0197,32.1369],[119.0189,32.1396],[119.0268,32.1473],[119.0307,32.1476],[119.034,32.159],[119.0423,32.1603],[119.0532,32.1584],[119.055,32.1648],[119.0682,32.1647],[119.0764,32.1677],[119.0714,32.1709],[119.0748,32.1765],[119.0796,32.1803],[119.0887,32.1819],[119.1104,32.1882],[119.1294,32.1953],[119.1363,32.1938],[119.1467,32.189],[119.1474,32.1857],[119.1541,32.1828],[119.158,32.1875],[119.1784,32.1915],[119.1871,32.1869],[119.1909,32.187],[119.2123,32.1938],[119.215,32.2018],[119.2395,32.2181],[119.2235,32.2246],[119.1901,32.2358],[119.1615,32.244],[119.133,32.2466],[119.1217,32.2471],[119.1073,32.2463],[119.084,32.2422],[119.0748,32.2379],[119.0635,32.2288],[119.0454,32.2041],[119.0273,32.1899],[119.0178,32.1847],[119.0006,32.1807],[118.9433,32.1776],[118.9075,32.1789],[118.892,32.1812],[118.8739,32.181],[118.8643,32.1909],[118.8555,32.2103],[118.8494,32.2199],[118.8431,32.2254],[118.8322,32.2302],[118.8225,32.2326],[118.8131,32.2331],[118.7955,32.2291],[118.7702,32.216],[118.7626,32.2104],[118.7603,32.2066],[118.7603,32.1991],[118.7702,32.1689],[118.7739,32.1518],[118.7715,32.1438],[118.7619,32.1336],[118.7809,32.1288],[118.7835,32.1255],[118.7927,32.1244],[118.7959,32.1289],[118.8016,32.1242],[118.7977,32.1186],[118.7943,32.0973],[118.8011,32.1003],[118.813,32.0979],[118.814,32.1058],[118.8214,32.107],[118.8325,32.1068],[118.8361,32.1022],[118.8441,32.099],[118.8553,32.1008],[118.8609,32.1028],[118.8691,32.1015],[118.8729,32.105],[118.8799,32.1053],[118.8921,32.0967],[118.8956,32.0975],[118.9028,32.0883],[118.888,32.0807],[118.8879,32.0767],[118.8769,32.0782],[118.8761,32.0737],[118.8829,32.063],[118.8819,32.0547],[118.8783,32.0506],[118.8721,32.0482],[118.8776,32.038],[118.8847,32.0379],[118.8904,32.0326],[118.8922,32.0278]]]},"properties":{"region_code":"CN-32-3201-320113","parent_region_code":"CN-32-3201","name":"栖霞区","level":"county","has_children":false,"full_path":"中国 / 江苏省 / 南京市 / 栖霞区","source_admin_code":"320113","osm_relation_id":2140010}},
{"type":"Feature","geometry":{"type":"Polygon","coordinates":[[[118.7589,32.0145],[118.7547,32.0164],[118.749,32.0021],[118.7363,31.9846],[118.719,31.9703],[118.7104,31.9609],[118.7023,31.9583],[118.6716,31.9632],[118.6586,31.9656],[118.6542,31.9687],[118.6472,31.9798],[118.6439,31.9755],[118.6117,31.945],[118.6004,31.9356],[118.6019,31.9326],[118.6002,31.9274],[118.5928,31.9163],[118.5844,31.9082],[118.5919,31.9029],[118.5871,31.8971],[118.586,31.8908],[118.5887,31.8875],[118.5952,31.8853],[118.601,31.8873],[118.605,31.8846],[118.6108,31.8851],[118.6143,31.8809],[118.6098,31.8744],[118.6158,31.8699],[118.6234,31.8709],[118.6285,31.8677],[118.6464,31.8793],[118.6502,31.8836],[118.6488,31.8938],[118.6536,31.9005],[118.6616,31.9],[118.6726,31.9019],[118.6752,31.8974],[118.6826,31.8981],[118.6855,31.9052],[118.6761,31.9079],[118.6767,31.9101],[118.6711,31.9149],[118.6724,31.9203],[118.6828,31.9234],[118.6868,31.9269],[118.6989,31.9284],[118.7044,31.9259],[118.7122,31.9301],[118.7122,31.9347],[118.7175,31.9348],[118.7172,31.9288],[118.7211,31.9263],[118.7215,31.9208],[118.7272,31.9172],[118.735,31.9167],[118.7404,31.9141],[118.7485,31.9171],[118.751,31.9203],[118.7601,31.9143],[118.761,31.9201],[118.7692,31.9201],[118.7704,31.9336],[118.7672,31.9415],[118.7619,31.9448],[118.764,31.9585],[118.7694,31.9606],[118.7769,31.9597],[118.78,31.9644],[118.7899,31.9707],[118.7965,31.9694],[118.7994,31.965],[118.8042,31.9662],[118.8078,31.9775],[118.804,31.9767],[118.797,31.9841],[118.7866,31.9987],[118.7805,32.0012],[118.7766,32.0077],[118.7644,32.0105],[118.7589,32.0145]]]},"properties":{"region_code":"CN-32-3201-320114","parent_region_code":"CN-32-3201","name":"雨花台区","level":"county","has_children":false,"full_path":"中国 / 江苏省 / 南京市 / 雨花台区","source_admin_code":"320114","osm_relation_id":2139830}},
{"type":"Feature","geometry":{"type":"Polygon","coordinates":[[[118.8756,32.0168],[118.8705,32.0109],[118.8605,32.0028],[118.8567,32.0038],[118.8323,31.9832],[118.8241,31.9831],[118.8078,31.9775],[118.8042,31.9662],[118.7994,31.965],[118.7965,31.9694],[118.7899,31.9707],[118.78,31.9644],[118.7769,31.9597],[118.7694,31.9606],[118.764,31.9585],[118.7619,31.9448],[118.7672,31.9415],[118.7704,31.9336],[118.7692,31.9201],[118.761,31.9201],[118.7601,31.9143],[118.751,31.9203],[118.7485,31.9171],[118.7404,31.9141],[118.735,31.9167],[118.7272,31.9172],[118.7215,31.9208],[118.7211,31.9263],[118.7172,31.9288],[118.7175,31.9348],[118.7122,31.9347],[118.7122,31.9301],[118.7044,31.9259],[118.6989,31.9284],[118.6868,31.9269],[118.6828,31.9234],[118.6724,31.9203],[118.6711,31.9149],[118.6767,31.9101],[118.6761,31.9079],[118.6855,31.9052],[118.6826,31.8981],[118.6752,31.8974],[118.6726,31.9019],[118.6616,31.9],[118.6536,31.9005],[118.6488,31.8938],[118.6502,31.8836],[118.6464,31.8793],[118.6285,31.8677],[118.6234,31.8709],[118.6158,31.8699],[118.6098,31.8744],[118.6143,31.8809],[118.6108,31.8851],[118.605,31.8846],[118.601,31.8873],[118.5952,31.8853],[118.5887,31.8875],[118.586,31.8908],[118.5871,31.8971],[118.5919,31.9029],[118.5844,31.9082],[118.5928,31.9163],[118.6002,31.9274],[118.6019,31.9326],[118.6004,31.9356],[118.586,31.9284],[118.5744,31.924],[118.5644,31.9191],[118.5599,31.9153],[118.5475,31.8991],[118.5229,31.8795],[118.517,31.8728],[118.4994,31.843],[118.4881,31.8134],[118.4757,31.7867],[118.4766,31.7796],[118.4856,31.7778],[118.497,31.7783],[118.4988,31.7735],[118.5046,31.768],[118.5077,31.7687],[118.5166,31.7636],[118.527,31.7691],[118.5323,31.7679],[118.5417,31.7629],[118.5403,31.7598],[118.5331,31.7616],[118.5312,31.7593],[118.5334,31.7534],[118.529,31.7516],[118.5245,31.7545],[118.5156,31.7481],[118.5231,31.7449],[118.5239,31.7391],[118.53,31.7419],[118.5341,31.7376],[118.5449,31.7367],[118.548,31.7311],[118.5522,31.7318],[118.5572,31.74],[118.5645,31.7468],[118.5702,31.743],[118.5791,31.7457],[118.5873,31.7465],[118.5908,31.75],[118.5968,31.7597],[118.6034,31.7596],[118.6123,31.7533],[118.6218,31.7614],[118.6372,31.7614],[118.6385,31.7553],[118.6433,31.753],[118.6363,31.7478],[118.6446,31.7427],[118.6484,31.734],[118.6517,31.7325],[118.6599,31.7331],[118.6728,31.731],[118.6752,31.7279],[118.6807,31.7271],[118.6853,31.7229],[118.6859,31.7095],[118.6783,31.7047],[118.6796,31.7023],[118.6734,31.6982],[118.667,31.6996],[118.6644,31.6956],[118.6664,31.6906],[118.6619,31.6888],[118.6595,31.6824],[118.6513,31.6802],[118.6408,31.6811],[118.6375,31.6738],[118.6425,31.6687],[118.6432,31.6607],[118.64,31.6584],[118.6391,31.6519],[118.651,31.6465],[118.6529,31.6432],[118.6685,31.6428],[118.6792,31.6386],[118.6836,31.6384],[118.6901,31.642],[118.6991,31.6405],[118.7077,31.6453],[118.7136,31.6299],[118.7222,31.6306],[118.721,31.6343],[118.7316,31.6361],[118.7318,31.642],[118.7347,31.6449],[118.7333,31.649],[118.7355,31.6546],[118.74,31.6587],[118.7387,31.6622],[118.7393,31.6705],[118.7459,31.6797],[118.7508,31.6798],[118.7552,31.6824],[118.7631,31.6795],[118.7694,31.6847],[118.7748,31.6821],[118.7836,31.6741],[118.7932,31.6706],[118.7941,31.6684],[118.7872,31.6612],[118.7779,31.6583],[118.7786,31.6538],[118.7831,31.6506],[118.7824,31.6462],[118.7866,31.6404],[118.7856,31.6316],[118.7907,31.6308],[118.7987,31.6209],[118.8105,31.6225],[118.8151,31.6258],[118.8151,31.633],[118.8196,31.6314],[118.8285,31.6327],[118.8285,31.6379],[118.8348,31.6439],[118.8457,31.641],[118.8527,31.6482],[118.862,31.6497],[118.8693,31.6475],[118.879,31.648],[118.8813,31.6627],[118.8864,31.668],[118.896,31.6657],[118.8991,31.6686],[118.9002,31.6757],[118.8979,31.6821],[118.9025,31.6865],[118.9137,31.691],[118.9247,31.6875],[118.9289,31.684],[118.9319,31.6756],[118.9348,31.6758],[118.9418,31.6825],[118.9384,31.6852],[118.9386,31.6911],[118.9413,31.6927],[118.9432,31.7019],[118.9402,31.7045],[118.936,31.7125],[118.9312,31.7159],[118.9274,31.722],[118.9122,31.728],[118.8942,31.7363],[118.8963,31.7482],[118.8902,31.7621],[118.8895,31.7687],[118.8985,31.7828],[118.8971,31.7923],[118.906,31.7891],[118.9169,31.7801],[118.9229,31.7779],[118.9261,31.7793],[118.9465,31.7699],[118.965,31.7722],[118.9716,31.7684],[118.9736,31.7699],[118.9772,31.772],[118.9745,31.7772],[118.9734,31.7856],[118.9863,31.7847],[118.9921,31.7814],[118.9931,31.7857],[118.9998,31.7892],[119.0009,31.8011],[118.9934,31.8036],[118.9817,31.8196],[118.9731,31.8248],[118.9659,31.8267],[118.9686,31.8323],[118.9651,31.8385],[118.9721,31.838],[118.9736,31.8452],[118.9859,31.8463],[118.9909,31.8455],[118.9966,31.8482],[119.0007,31.8422],[119.0054,31.8476],[119.0132,31.8491],[119.0209,31.8489],[119.0219,31.8516],[119.0284,31.8549],[119.04,31.8555],[119.0398,31.8603],[119.0471,31.8636],[119.0589,31.8643],[119.0577,31.8678],[119.064,31.8719],[119.0683,31.8667],[119.0884,31.8621],[119.0957,31.8681],[119.0981,31.8789],[119.1032,31.8873],[119.1128,31.8892],[119.1144,31.8976],[119.1087,31.9019],[119.1103,31.9065],[119.1086,31.9113],[119.1043,31.9128],[119.1024,31.9285],[119.0966,31.9351],[119.0896,31.9363],[119.0831,31.9345],[119.0794,31.9379],[119.0713,31.9386],[119.0598,31.9421],[119.0482,31.9412],[119.0472,31.9387],[119.0389,31.9392],[119.0334,31.9411],[119.03,31.946],[119.0236,31.9492],[119.0236,31.9561],[119.0296,31.9648],[119.0356,31.9634],[119.0409,31.9696],[119.0601,31.9759],[119.0644,31.9718],[119.0716,31.9693],[119.0762,31.9756],[119.0897,31.9752],[119.095,31.9697],[119.1005,31.9673],[119.1074,31.9736],[119.1045,31.9758],[119.1047,31.9808],[119.1142,31.9799],[119.1153,31.9845],[119.1087,31.9904],[119.1081,31.9978],[119.1033,32.0013],[119.1007,32.006],[119.0918,32.0023],[119.0851,32.0049],[119.0883,32.0142],[119.0916,32.0201],[119.0882,32.024],[119.0903,32.0299],[119.0871,32.0311],[119.0909,32.0389],[119.0865,32.0456],[119.0814,32.049],[119.0807,32.0554],[119.0922,32.0634],[119.092,32.0673],[119.0956,32.0779],[119.0933,32.0811],[119.0956,32.0931],[119.0899,32.0967],[119.0826,32.0958],[119.0802,32.1006],[119.0763,32.0994],[119.0748,32.1092],[119.0697,32.1078],[119.0657,32.1109],[119.0536,32.1045],[119.046,32.1076],[119.0417,32.1034],[119.0451,32.1003],[119.0438,32.0965],[119.0379,32.0981],[119.0344,32.0968],[119.0184,32.0978],[119.0156,32.1002],[119.011,32.0984],[119.0027,32.0986],[118.9965,32.0935],[118.9983,32.0841],[119.003,32.0803],[118.9979,32.0784],[118.9886,32.071],[118.9877,32.0683],[118.9795,32.0687],[118.9805,32.0736],[118.9694,32.0755],[118.9662,32.0791],[118.9673,32.0842],[118.9709,32.0849],[118.9758,32.0939],[118.9786,32.1091],[118.9737,32.1083],[118.9666,32.1105],[118.9576,32.1024],[118.9522,32.1008],[118.9484,32.104],[118.9433,32.0992],[118.9421,32.0932],[118.9341,32.0875],[118.9337,32.0805],[118.9257,32.0757],[118.9195,32.0795],[118.914,32.0759],[118.9134,32.0706],[118.9165,32.069],[118.9165,32.0643],[118.9118,32.0565],[118.9159,32.0538],[118.9095,32.0454],[118.9135,32.0434],[118.9017,32.0323],[118.8922,32.0278],[118.8905,32.0252],[118.8803,32.0213],[118.8756,32.0168]]]},"properties":{"region_code":"CN-32-3201-320115","parent_region_code":"CN-32-3201","name":"江宁区","level":"county","has_children":false,"full_path":"中国 / 江苏省 / 南京市 / 江宁区","source_admin_code":"320115","osm_relation_id":2147642}},
{"type":"Feature","geometry":{"type":"Polygon","coordinates":[[[118.7702,32.1689],[118.7603,32.1991],[118.7603,32.2066],[118.7626,32.2104],[118.7702,32.216],[118.7955,32.2291],[118.8131,32.2331],[118.8225,32.2326],[118.8322,32.2302],[118.8431,32.2254],[118.8494,32.2199],[118.8555,32.2103],[118.8643,32.1909],[118.8739,32.181],[118.892,32.1812],[118.9075,32.1789],[118.9433,32.1776],[119.0006,32.1807],[119.0178,32.1847],[119.0273,32.1899],[119.0454,32.2041],[119.0635,32.2288],[119.0748,32.2379],[119.0715,32.2449],[119.0704,32.2514],[119.0545,32.2537],[119.0307,32.2606],[119.0347,32.2691],[119.0368,32.2782],[119.034,32.2846],[119.0351,32.289],[119.0302,32.2974],[119.0342,32.3003],[119.0365,32.3071],[119.0312,32.3079],[119.0295,32.3155],[119.0322,32.3169],[119.0326,32.3256],[119.0303,32.3277],[119.0365,32.334],[119.0235,32.3414],[119.0239,32.3459],[119.0209,32.3506],[119.0208,32.3551],[119.0289,32.3563],[119.0331,32.3594],[119.0338,32.3646],[119.0384,32.3666],[119.0316,32.3725],[119.0152,32.3759],[119.0172,32.3811],[119.0235,32.3836],[119.0321,32.3848],[119.0282,32.3906],[119.0204,32.3956],[119.0176,32.4009],[119.0098,32.4012],[119.0119,32.4061],[119.0073,32.4133],[119.0121,32.4235],[119.0175,32.4227],[119.0221,32.4315],[119.0158,32.448],[119.0179,32.4542],[119.0176,32.4596],[119.0316,32.4579],[119.0359,32.4591],[119.0407,32.4669],[119.0447,32.4644],[119.0534,32.4641],[119.0613,32.4704],[119.0578,32.4869],[119.0463,32.4943],[119.0419,32.495],[119.0427,32.4995],[119.0403,32.5054],[119.0368,32.5051],[119.0357,32.5167],[119.0268,32.5188],[119.0164,32.5182],[119.0155,32.5231],[119.0107,32.5232],[119.0111,32.5153],[119.0017,32.5168],[119.0004,32.5103],[118.9938,32.507],[118.9924,32.5031],[118.9859,32.5076],[118.9799,32.5059],[118.9709,32.5067],[118.9687,32.5117],[118.9634,32.5174],[118.9643,32.5273],[118.9607,32.5307],[118.9548,32.5304],[118.9516,32.5379],[118.9425,32.5481],[118.9381,32.5487],[118.9321,32.5567],[118.9259,32.5596],[118.9151,32.559],[118.9113,32.5618],[118.9082,32.5581],[118.9102,32.5519],[118.904,32.5538],[118.903,32.5587],[118.892,32.5553],[118.8847,32.5571],[118.8821,32.5603],[118.8882,32.5624],[118.8933,32.5598],[118.8945,32.5648],[118.8928,32.5692],[118.8936,32.5742],[118.8915,32.5788],[118.8962,32.5848],[118.9045,32.5886],[118.9007,32.5933],[118.8915,32.5889],[118.8821,32.5904],[118.8773,32.5876],[118.8803,32.5786],[118.877,32.5763],[118.8695,32.5855],[118.8676,32.5789],[118.8583,32.5786],[118.8545,32.5761],[118.8492,32.5765],[118.8428,32.5701],[118.8334,32.5766],[118.8295,32.5719],[118.8242,32.5826],[118.8124,32.5828],[118.8133,32.59],[118.8184,32.5908],[118.8188,32.5965],[118.8164,32.5993],[118.8174,32.6046],[118.803,32.601],[118.8048,32.5961],[118.7982,32.5925],[118.8,32.5863],[118.7821,32.5849],[118.7695,32.5925],[118.7697,32.6013],[118.7563,32.6073],[118.7473,32.6063],[118.7487,32.6035],[118.7455,32.5991],[118.738,32.602],[118.7381,32.5934],[118.7293,32.5928],[118.7198,32.5997],[118.7181,32.6075],[118.7147,32.6154],[118.71,32.608],[118.7043,32.6106],[118.6912,32.608],[118.6958,32.5915],[118.6922,32.59],[118.684,32.5901],[118.671,32.5956],[118.6641,32.5969],[118.6539,32.5961],[118.6483,32.6003],[118.6471,32.5954],[118.6363,32.589],[118.6372,32.5855],[118.6297,32.582],[118.6251,32.5851],[118.6229,32.5912],[118.6167,32.5906],[118.6139,32.5961],[118.6079,32.5962],[118.5929,32.604],[118.5898,32.5989],[118.5742,32.5954],[118.5722,32.5922],[118.5641,32.5878],[118.5622,32.579],[118.558,32.5671],[118.5657,32.5587],[118.5725,32.5546],[118.5937,32.547],[118.6042,32.5395],[118.5999,32.5343],[118.6013,32.5239],[118.6092,32.5243],[118.6115,32.5132],[118.6053,32.5099],[118.606,32.5061],[118.6011,32.5027],[118.5883,32.5048],[118.5891,32.4954],[118.587,32.4859],[118.5937,32.4792],[118.6003,32.4797],[118.603,32.473],[118.6146,32.474],[118.6223,32.4704],[118.6294,32.4732],[118.6379,32.4725],[118.6432,32.4786],[118.6487,32.4783],[118.6679,32.4722],[118.6804,32.4755],[118.6859,32.4751],[118.6873,32.4667],[118.6852,32.4604],[118.6793,32.4617],[118.6795,32.4573],[118.6864,32.4556],[118.6849,32.4521],[118.6816,32.4323],[118.6851,32.4248],[118.6803,32.4066],[118.6737,32.3964],[118.6749,32.3914],[118.6822,32.3869],[118.6856,32.3793],[118.6887,32.3845],[118.6933,32.3855],[118.6966,32.3813],[118.6985,32.3707],[118.6923,32.371],[118.6903,32.3589],[118.6879,32.356],[118.6922,32.3449],[118.7006,32.3423],[118.703,32.3391],[118.6987,32.3316],[118.6818,32.3319],[118.6789,32.3296],[118.6801,32.3254],[118.6903,32.3238],[118.6877,32.3196],[118.6808,32.3203],[118.6711,32.3175],[118.6638,32.3112],[118.6552,32.3076],[118.6522,32.3017],[118.6552,32.2984],[118.6632,32.2979],[118.6651,32.294],[118.6651,32.2864],[118.6541,32.2687],[118.6561,32.2639],[118.6625,32.2597],[118.6707,32.2573],[118.6702,32.2532],[118.6993,32.2509],[118.7138,32.252],[118.7135,32.2485],[118.7179,32.2437],[118.7159,32.2371],[118.7189,32.2257],[118.7187,32.2207],[118.7247,32.2156],[118.7257,32.2112],[118.7231,32.2052],[118.7338,32.2009],[118.734,32.1951],[118.7269,32.1949],[118.7262,32.1825],[118.724,32.1778],[118.7252,32.1698],[118.7308,32.1722],[118.7424,32.1865],[118.7536,32.1785],[118.756,32.1672],[118.7702,32.1689]]]},"properties":{"region_code":"CN-32-3201-320116","parent_region_code":"CN-32-3201","name":"六合区","level":"county","has_children":false,"full_path":"中国 / 江苏省 / 南京市 / 六合区","source_admin_code":"320116","osm_relation_id":2131458}},
{"type":"Feature","geometry":{"type":"MultiPolygon","coordinates":[[[[119.1379,31.4249],[119.1362,31.4351],[119.1308,31.4379],[119.1263,31.4341],[119.1242,31.421],[119.1317,31.4212],[119.135,31.4171],[119.1386,31.4207],[119.1379,31.4249]]],[[[118.8425,31.4997],[118.8514,31.523],[118.8568,31.5212],[118.8625,31.5235],[118.8673,31.5296],[118.8635,31.5342],[118.8505,31.5304],[118.8453,31.5261],[118.8352,31.5],[118.8425,31.4997]]],[[[118.8285,31.6327],[118.8363,31.6308],[118.8431,31.6263],[118.8542,31.6258],[118.8584,31.617],[118.8663,31.6118],[118.8675,31.6078],[118.8645,31.6043],[118.8641,31.5997],[118.8562,31.5982],[118.8591,31.5933],[118.8669,31.5949],[118.8725,31.5925],[118.8676,31.5765],[118.8727,31.5722],[118.8786,31.57],[118.8775,31.5643],[118.8714,31.564],[118.8665,31.5604],[118.8654,31.5556],[118.8713,31.5527],[118.8701,31.5417],[118.8754,31.5366],[118.8809,31.5356],[118.8825,31.5313],[118.8781,31.4986],[118.874,31.4831],[118.8851,31.4757],[118.9048,31.4563],[118.9239,31.4283],[118.928,31.4192],[118.9317,31.3993],[118.9389,31.4025],[118.947,31.4004],[118.9567,31.3941],[118.9548,31.3885],[118.9644,31.3891],[118.9655,31.3851],[118.9719,31.3842],[118.9776,31.3885],[118.9814,31.3971],[118.9894,31.3981],[118.9894,31.3942],[118.9966,31.3851],[119.0006,31.3827],[119.0051,31.3847],[119.0083,31.3972],[119.0151,31.3994],[119.0109,31.4069],[119.0102,31.4113],[119.0167,31.4213],[119.0214,31.4237],[119.0279,31.4322],[119.041,31.4313],[119.0423,31.4271],[119.053,31.4299],[119.0594,31.4293],[119.0647,31.4263],[119.0683,31.4268],[119.0734,31.4338],[119.0788,31.4342],[119.077,31.426],[119.0903,31.4246],[119.0947,31.4297],[119.0978,31.4255],[119.1029,31.4234],[119.108,31.4252],[119.1163,31.4234],[119.1217,31.4439],[119.1285,31.4423],[119.1374,31.4461],[119.1349,31.449],[119.1358,31.4534],[119.1417,31.4565],[119.1508,31.4719],[119.1498,31.4764],[119.1515,31.4824],[119.1418,31.4884],[119.1477,31.4946],[119.1523,31.4967],[119.1618,31.4963],[119.18,31.5034],[119.185,31.5127],[119.1942,31.5265],[119.1936,31.5329],[119.1758,31.5295],[119.1771,31.5344],[119.1748,31.5383],[119.1781,31.542],[119.1798,31.5521],[119.1928,31.5533],[119.2002,31.5608],[119.2001,31.5655],[119.2092,31.5715],[119.213,31.5804],[119.2106,31.5861],[119.2176,31.5991],[119.2213,31.6016],[119.2203,31.6063],[119.2266,31.6152],[119.2264,31.621],[119.232,31.6232],[119.2259,31.634],[119.2212,31.6303],[119.217,31.6329],[119.2122,31.6305],[119.2055,31.6326],[119.2026,31.6355],[119.2011,31.6487],[119.1844,31.6509],[119.1805,31.6552],[119.1886,31.6622],[119.1874,31.6672],[119.1817,31.669],[119.1823,31.6808],[119.1868,31.6859],[119.1808,31.6972],[119.1746,31.6962],[119.1683,31.6999],[119.1586,31.7011],[119.1534,31.6995],[119.1488,31.7083],[119.1443,31.7084],[119.1398,31.7136],[119.1405,31.718],[119.1347,31.7247],[119.1233,31.725],[119.1216,31.7278],[119.119,31.7406],[119.1128,31.7413],[119.1035,31.7482],[119.1036,31.7555],[119.0929,31.7559],[119.0902,31.7631],[119.086,31.7673],[119.0847,31.7728],[119.0718,31.7707],[119.0716,31.7768],[119.0738,31.7829],[119.0713,31.7864],[119.0629,31.7839],[119.059,31.7842],[119.0473,31.7923],[119.0388,31.7911],[119.0299,31.7866],[119.0212,31.7867],[119.0124,31.7806],[119.0053,31.7813],[118.9999,31.7798],[118.9939,31.7688],[118.985,31.7682],[118.9835,31.7658],[118.9745,31.7676],[118.9736,31.7699],[118.9716,31.7684],[118.965,31.7722],[118.9465,31.7699],[118.9261,31.7793],[118.9229,31.7779],[118.9169,31.7801],[118.906,31.7891],[118.8971,31.7923],[118.8985,31.7828],[118.8895,31.7687],[118.8902,31.7621],[118.8963,31.7482],[118.8942,31.7363],[118.9122,31.728],[118.9274,31.722],[118.9312,31.7159],[118.936,31.7125],[118.9402,31.7045],[118.9432,31.7019],[118.9413,31.6927],[118.9386,31.6911],[118.9384,31.6852],[118.9418,31.6825],[118.9348,31.6758],[118.9319,31.6756],[118.9289,31.684],[118.9247,31.6875],[118.9137,31.691],[118.9025,31.6865],[118.8979,31.6821],[118.9002,31.6757],[118.8991,31.6686],[118.896,31.6657],[118.8864,31.668],[118.8813,31.6627],[118.879,31.648],[118.8693,31.6475],[118.862,31.6497],[118.8527,31.6482],[118.8457,31.641],[118.8348,31.6439],[118.8285,31.6379],[118.8285,31.6327]]]]},"properties":{"region_code":"CN-32-3201-320117","parent_region_code":"CN-32-3201","name":"溧水区","level":"county","has_children":false,"full_path":"中国 / 江苏省 / 南京市 / 溧水区","source_admin_code":"320117","osm_relation_id":2147643}},
{"type":"Feature","geometry":{"type":"MultiPolygon","coordinates":[[[[118.8653,31.2397],[118.8632,31.244],[118.8486,31.2413],[118.8511,31.2366],[118.8548,31.2357],[118.8653,31.2397]]],[[[118.874,31.4831],[118.8766,31.4501],[118.8692,31.4323],[118.8554,31.4128],[118.8448,31.3943],[118.8396,31.3949],[118.8322,31.3879],[118.8273,31.3812],[118.8175,31.3772],[118.8142,31.3775],[118.8053,31.3733],[118.7947,31.3711],[118.785,31.3713],[118.7637,31.366],[118.7628,31.3687],[118.7657,31.3755],[118.765,31.382],[118.7619,31.385],[118.76,31.3911],[118.7489,31.3871],[118.7405,31.3751],[118.7296,31.3471],[118.7147,31.3245],[118.7134,31.2971],[118.6977,31.3048],[118.6961,31.3021],[118.7029,31.299],[118.7125,31.292],[118.7156,31.2955],[118.7207,31.2943],[118.7185,31.287],[118.7219,31.2843],[118.7485,31.282],[118.7581,31.2782],[118.7747,31.2623],[118.7756,31.2569],[118.7744,31.2455],[118.7787,31.2393],[118.7902,31.2314],[118.7982,31.2303],[118.8041,31.2364],[118.8151,31.2379],[118.8192,31.2326],[118.8266,31.2316],[118.8312,31.2361],[118.8455,31.2417],[118.8651,31.2446],[118.8659,31.2408],[118.8761,31.241],[118.8825,31.2323],[118.8998,31.235],[118.9097,31.242],[118.9135,31.2463],[118.923,31.2423],[118.934,31.2415],[118.9442,31.2369],[118.9487,31.2395],[118.9626,31.2399],[118.9688,31.241],[118.9731,31.2391],[118.9796,31.2398],[118.9816,31.2331],[118.9887,31.2328],[118.9984,31.2361],[119.009,31.2433],[119.014,31.2438],[119.0176,31.2402],[119.0234,31.2407],[119.0294,31.2386],[119.0355,31.2389],[119.0443,31.2331],[119.0513,31.2351],[119.0522,31.2399],[119.0594,31.2386],[119.0642,31.2395],[119.0725,31.2344],[119.0797,31.2363],[119.0799,31.2404],[119.092,31.2423],[119.0956,31.2362],[119.1,31.2368],[119.1001,31.2433],[119.0981,31.2461],[119.0989,31.2558],[119.1063,31.256],[119.11,31.2607],[119.1152,31.2637],[119.1204,31.2631],[119.1276,31.2654],[119.133,31.2706],[119.137,31.2714],[119.1429,31.2762],[119.1461,31.2852],[119.1455,31.2937],[119.1497,31.2933],[119.1528,31.2968],[119.1637,31.294],[119.1702,31.2955],[119.1755,31.3022],[119.1827,31.3042],[119.1838,31.31],[119.1899,31.3113],[119.1902,31.3164],[119.1881,31.3212],[119.192,31.3255],[119.193,31.3323],[119.2028,31.3435],[119.2128,31.3508],[119.2094,31.3564],[119.2002,31.3604],[119.1967,31.3694],[119.1917,31.3762],[119.1804,31.3834],[119.1745,31.3819],[119.1697,31.3851],[119.1633,31.3997],[119.1659,31.4016],[119.1633,31.4107],[119.166,31.4141],[119.1627,31.4245],[119.1581,31.4279],[119.1635,31.4341],[119.1587,31.4426],[119.147,31.4409],[119.1418,31.4462],[119.1374,31.4461],[119.1285,31.4423],[119.1217,31.4439],[119.1163,31.4234],[119.108,31.4252],[119.1029,31.4234],[119.0978,31.4255],[119.0947,31.4297],[119.0903,31.4246],[119.077,31.426],[119.0788,31.4342],[119.0734,31.4338],[119.0683,31.4268],[119.0647,31.4263],[119.0594,31.4293],[119.053,31.4299],[119.0423,31.4271],[119.041,31.4313],[119.0279,31.4322],[119.0214,31.4237],[119.0167,31.4213],[119.0102,31.4113],[119.0109,31.4069],[119.0151,31.3994],[119.0083,31.3972],[119.0051,31.3847],[119.0006,31.3827],[118.9966,31.3851],[118.9894,31.3942],[118.9894,31.3981],[118.9814,31.3971],[118.9776,31.3885],[118.9719,31.3842],[118.9655,31.3851],[118.9644,31.3891],[118.9548,31.3885],[118.9567,31.3941],[118.947,31.4004],[118.9389,31.4025],[118.9317,31.3993],[118.928,31.4192],[118.9239,31.4283],[118.9048,31.4563],[118.8851,31.4757],[118.874,31.4831]],[[119.1379,31.4249],[119.1386,31.4207],[119.135,31.4171],[119.1317,31.4212],[119.1242,31.421],[119.1263,31.4341],[119.1308,31.4379],[119.1362,31.4351],[119.1379,31.4249]]]]},"properties":{"region_code":"CN-32-3201-320118","parent_region_code":"CN-32-3201","name":"高淳区","level":"county","has_children":false,"full_path":"中国 / 江苏省 / 南京市 / 高淳区","source_admin_code":"320118","osm_relation_id":2147644}}
]}