{"type":"FeatureCollection", "features": [
{"type":"Feature","geometry":{"type":"Polygon","coordinates":[[[117.8517,30.8896],[117.8644,30.8898],[117.8721,30.9046],[117.8888,30.9125],[117.9008,30.9084],[117.8994,30.9302],[117.902,30.9419],[117.8855,30.9507],[117.8846,30.9597],[117.8926,30.9764],[117.8902,30.9955],[117.8965,31.0087],[117.8642,31.0099],[117.8128,31.0227],[117.8008,31.0144],[117.7859,31.0114],[117.7706,31.0035],[117.7687,30.9881],[117.7706,30.9631],[117.7953,30.9699],[117.8035,30.9639],[117.8059,30.9505],[117.7845,30.9421],[117.7716,30.9466],[117.7643,30.9325],[117.7522,30.9223],[117.78,30.9134],[117.7876,30.9204],[117.8108,30.9012],[117.8299,30.8947],[117.8332,30.9054],[117.8476,30.9044],[117.8517,30.8896]]]},"properties":{"region_code":"CN-34-3407-340705","parent_region_code":"CN-34-3407","name":"铜官区","level":"county","has_children":false,"full_path":"中国 / 安徽省 / 铜陵市 / 铜官区","source_admin_code":"340705","osm_relation_id":3262055}},
{"type":"Feature","geometry":{"type":"Polygon","coordinates":[[[117.8517,30.8896],[117.8447,30.8734],[117.8278,30.8578],[117.8079,30.8438],[117.7914,30.8398],[117.7933,30.831],[117.782,30.8203],[117.7729,30.8194],[117.7654,30.8014],[117.7641,30.7889],[117.7538,30.7756],[117.7526,30.7645],[117.7765,30.7663],[117.7791,30.7519],[117.7907,30.7515],[117.7979,30.76],[117.8138,30.7618],[117.839,30.7713],[117.8399,30.7893],[117.8562,30.8046],[117.8658,30.805],[117.8793,30.816],[117.8946,30.812],[117.9138,30.8226],[117.929,30.8418],[117.9417,30.8322],[117.9583,30.8281],[117.9852,30.8526],[118.005,30.862],[118.0218,30.8474],[118.0342,30.8475],[118.0366,30.8617],[118.0516,30.8744],[118.0654,30.872],[118.073,30.8636],[118.0974,30.8891],[118.1267,30.9045],[118.1486,30.9041],[118.1555,30.9102],[118.1497,30.9329],[118.1485,30.9502],[118.1547,30.966],[118.1422,30.9724],[118.1146,30.9683],[118.0921,30.9777],[118.0898,30.9896],[118.0759,31.0135],[118.0465,31.0206],[118.0286,31.0217],[118.0235,31.0345],[118.0074,31.0368],[118.0049,31.0472],[118.0187,31.0672],[118.0059,31.0793],[117.99,31.0698],[117.9792,31.093],[117.9437,31.0717],[117.9253,31.0687],[117.9077,31.0734],[117.89,31.086],[117.8772,31.1028],[117.8759,31.1127],[117.8652,31.1297],[117.8424,31.1421],[117.8219,31.1413],[117.8052,31.1367],[117.7844,31.1225],[117.7622,31.0959],[117.7281,31.0122],[117.7288,30.9728],[117.7363,30.9115],[117.7522,30.9223],[117.7643,30.9325],[117.7716,30.9466],[117.7845,30.9421],[117.8059,30.9505],[117.8035,30.9639],[117.7953,30.9699],[117.7706,30.9631],[117.7687,30.9881],[117.7706,31.0035],[117.7859,31.0114],[117.8008,31.0144],[117.8128,31.0227],[117.8642,31.0099],[117.8965,31.0087],[117.8902,30.9955],[117.8926,30.9764],[117.8846,30.9597],[117.8855,30.9507],[117.902,30.9419],[117.8994,30.9302],[117.9008,30.9084],[117.8888,30.9125],[117.8721,30.9046],[117.8644,30.8898],[117.8517,30.8896]]]},"properties":{"region_code":"CN-34-3407-340706","parent_region_code":"CN-34-3407","name":"义安区","level":"county","has_children":false,"full_path":"中国 / 安徽省 / 铜陵市 / 义安区","source_admin_code":"340706","osm_relation_id":3262056}},
{"type":"Feature","geometry":{"type":"MultiPolygon","coordinates":[[[[117.3069,30.4969],[117.2965,30.4941],[117.2782,30.4722],[117.2581,30.4652],[117.2526,30.4492],[117.2596,30.4419],[117.2499,30.4253],[117.2627,30.4228],[117.2715,30.4309],[117.3037,30.449],[117.3091,30.464],[117.3241,30.4758],[117.3199,30.4959],[117.3069,30.4969]]],[[[116.9215,30.661],[116.917,30.656],[116.9207,30.6404],[116.9292,30.6331],[116.9521,30.6309],[116.9603,30.6343],[116.9682,30.6477],[116.9356,30.6651],[116.9215,30.661]]],[[[117.7522,30.9223],[117.7363,30.9115],[117.7288,30.9728],[117.7281,31.0122],[117.7022,31.0136],[117.6806,30.9879],[117.6803,30.9734],[117.6634,30.9702],[117.6551,30.9494],[117.6447,30.9618],[117.619,30.9757],[117.5854,30.981],[117.5761,30.972],[117.5863,30.9657],[117.5573,30.9518],[117.5531,30.9383],[117.5293,30.9375],[117.5142,30.9521],[117.5003,30.9587],[117.495,30.9306],[117.5024,30.9038],[117.5179,30.9073],[117.5338,30.8743],[117.5458,30.8667],[117.568,30.8601],[117.5658,30.8429],[117.5441,30.8333],[117.5311,30.8067],[117.5446,30.8019],[117.5624,30.7882],[117.5672,30.7781],[117.5876,30.7637],[117.6079,30.7706],[117.6679,30.7855],[117.6783,30.7963],[117.6959,30.8067],[117.6982,30.7882],[117.7193,30.7959],[117.7383,30.81],[117.7495,30.806],[117.7531,30.7964],[117.746,30.7816],[117.7538,30.7756],[117.7641,30.7889],[117.7654,30.8014],[117.7729,30.8194],[117.782,30.8203],[117.7933,30.831],[117.7914,30.8398],[117.8079,30.8438],[117.8278,30.8578],[117.8447,30.8734],[117.8517,30.8896],[117.8476,30.9044],[117.8332,30.9054],[117.8299,30.8947],[117.8108,30.9012],[117.7876,30.9204],[117.78,30.9134],[117.7522,30.9223]]]]},"properties":{"region_code":"CN-34-3407-340711","parent_region_code":"CN-34-3407","name":"郊区","level":"county","has_children":false,"full_path":"中国 / 安徽省 / 铜陵市 / 郊区","source_admin_code":"340711","osm_relation_id":3262053}},
{"type":"Feature","geometry":{"type":"Polygon","coordinates":[[[117.5761,30.972],[117.5612,30.9716],[117.5484,30.9778],[117.5436,30.9691],[117.5264,30.9734],[117.5318,30.9951],[117.522,30.9954],[117.504,31.0054],[117.4838,30.999],[117.4742,30.9922],[117.4609,30.9951],[117.4424,30.9847],[117.4403,30.9772],[117.4105,30.9818],[117.3798,30.9672],[117.3802,30.9541],[117.3624,30.9553],[117.3629,30.9725],[117.3524,30.983],[117.3492,30.9936],[117.3285,30.9889],[117.3075,31.0026],[117.2973,30.9969],[117.2935,30.9871],[117.2729,30.9869],[117.2491,31.011],[117.222,31.0254],[117.2212,31.0362],[117.2009,31.0624],[117.1936,31.0611],[117.169,31.093],[117.1573,31.0814],[117.1392,31.056],[117.1402,31.0411],[117.1333,31.0359],[117.1381,31.0128],[117.1179,31.0059],[117.1138,31.0139],[117.0895,31.0128],[117.0872,30.9876],[117.0759,30.9763],[117.0745,30.9638],[117.0909,30.8878],[117.0997,30.8345],[117.101,30.815],[117.0993,30.769],[117.1117,30.7581],[117.1224,30.756],[117.1184,30.7436],[117.1267,30.74],[117.158,30.7099],[117.1683,30.7052],[117.1724,30.6942],[117.1945,30.7043],[117.1996,30.6942],[117.2241,30.6949],[117.21,30.6834],[117.2016,30.6709],[117.2005,30.6502],[117.2052,30.6415],[117.2213,30.6305],[117.236,30.644],[117.2745,30.6615],[117.3046,30.6777],[117.342,30.6913],[117.3678,30.6967],[117.3871,30.6893],[117.4581,30.6795],[117.4809,30.6887],[117.4934,30.707],[117.4982,30.7242],[117.5131,30.73],[117.5584,30.753],[117.5876,30.7637],[117.5672,30.7781],[117.5624,30.7882],[117.5446,30.8019],[117.5311,30.8067],[117.5441,30.8333],[117.5658,30.8429],[117.568,30.8601],[117.5458,30.8667],[117.5338,30.8743],[117.5179,30.9073],[117.5024,30.9038],[117.495,30.9306],[117.5003,30.9587],[117.5142,30.9521],[117.5293,30.9375],[117.5531,30.9383],[117.5573,30.9518],[117.5863,30.9657],[117.5761,30.972]]]},"properties":{"region_code":"CN-34-3407-340722","parent_region_code":"CN-34-3407","name":"枞阳县","level":"county","has_children":false,"full_path":"中国 / 安徽省 / 铜陵市 / 枞阳县","source_admin_code":"340722","osm_relation_id":3220386}}
]}