{"type":"FeatureCollection", "features": [
{"type":"Feature","geometry":{"type":"Polygon","coordinates":[[[115.8828,29.5217],[115.8857,29.5209],[115.8912,29.5258],[115.8986,29.5209],[115.9101,29.5279],[115.9138,29.5394],[115.9181,29.543],[115.922,29.5514],[115.9343,29.5576],[115.9404,29.5638],[115.9393,29.5702],[115.9479,29.5753],[115.9495,29.5792],[115.9569,29.578],[115.9623,29.5825],[115.9583,29.59],[115.9602,29.5915],[115.9702,29.5849],[115.9728,29.5919],[115.9796,29.5955],[115.9824,29.5946],[115.9932,29.6089],[116.0005,29.6166],[116.0139,29.6219],[116.0174,29.6305],[116.0224,29.6333],[116.0403,29.638],[116.0438,29.6334],[116.0414,29.6297],[116.0293,29.6292],[116.028,29.6233],[116.0379,29.6209],[116.0436,29.6176],[116.042,29.6143],[116.0451,29.6075],[116.0381,29.6012],[116.0345,29.5944],[116.0433,29.5948],[116.0446,29.5906],[116.0515,29.5883],[116.0559,29.582],[116.0652,29.5843],[116.0776,29.5829],[116.0906,29.566],[116.0936,29.5606],[116.0987,29.5582],[116.1018,29.5492],[116.1023,29.5413],[116.1074,29.533],[116.1069,29.5273],[116.1322,29.5298],[116.1329,29.5285],[116.132,29.5306],[116.1315,29.5474],[116.1291,29.5553],[116.1228,29.5692],[116.1206,29.5797],[116.1225,29.593],[116.1254,29.6015],[116.1342,29.6122],[116.1437,29.628],[116.1522,29.6493],[116.1568,29.6588],[116.1677,29.6727],[116.1798,29.6937],[116.1896,29.7166],[116.1981,29.7349],[116.2025,29.7429],[116.2101,29.7475],[116.2253,29.7585],[116.2079,29.7595],[116.1467,29.7672],[116.1334,29.7654],[116.0932,29.7655],[116.0768,29.7643],[116.0774,29.7552],[116.0821,29.7498],[116.0817,29.7435],[116.0738,29.7411],[116.0781,29.7346],[116.0729,29.7283],[116.0671,29.7291],[116.0589,29.7258],[116.0562,29.7305],[116.0512,29.7294],[116.0522,29.7369],[116.048,29.7398],[116.0388,29.7352],[116.0336,29.7303],[116.0233,29.7279],[116.0159,29.7238],[116.017,29.7204],[116.0067,29.7143],[115.9925,29.7035],[115.9824,29.6949],[115.9708,29.6918],[115.9746,29.6792],[115.9735,29.6685],[115.9842,29.6652],[115.9805,29.6612],[115.9775,29.649],[115.9628,29.6218],[115.9629,29.6181],[115.9568,29.615],[115.9346,29.6082],[115.9354,29.5984],[115.9269,29.5991],[115.9269,29.6075],[115.9313,29.6162],[115.9203,29.6222],[115.9237,29.6313],[115.9165,29.644],[115.9265,29.6469],[115.9361,29.6545],[115.9423,29.663],[115.9376,29.6743],[115.9502,29.6796],[115.9528,29.684],[115.9479,29.6911],[115.9467,29.6972],[115.9534,29.6991],[115.9562,29.7079],[115.949,29.7139],[115.9419,29.7121],[115.9396,29.724],[115.9294,29.7238],[115.9208,29.7081],[115.9119,29.7032],[115.9069,29.6974],[115.9023,29.6883],[115.8962,29.6812],[115.8964,29.6775],[115.9007,29.6683],[115.8976,29.6627],[115.9026,29.6575],[115.8922,29.6589],[115.8883,29.6526],[115.8881,29.6463],[115.8987,29.6385],[115.9,29.6328],[115.9094,29.6289],[115.9094,29.6252],[115.9167,29.6203],[115.9071,29.61],[115.9117,29.6071],[115.9041,29.599],[115.9144,29.5933],[115.9179,29.5846],[115.9091,29.5734],[115.9053,29.576],[115.8983,29.5771],[115.8919,29.5677],[115.8889,29.5697],[115.8826,29.568],[115.8791,29.5646],[115.8806,29.5572],[115.8785,29.5505],[115.8776,29.5406],[115.8714,29.5377],[115.8705,29.5322],[115.8775,29.522],[115.8828,29.5217]]]},"properties":{"region_code":"CN-36-3604-360402","parent_region_code":"CN-36-3604","name":"濂溪区","level":"county","has_children":false,"full_path":"中国 / 江西省 / 九江市 / 濂溪区","source_admin_code":"360402","osm_relation_id":3190445}},
{"type":"Feature","geometry":{"type":"Polygon","coordinates":[[[116.0768,29.7643],[116.0686,29.7653],[116.0442,29.7613],[116.043,29.7639],[116.0274,29.7564],[115.9831,29.7363],[115.9608,29.7274],[115.9396,29.724],[115.9419,29.7121],[115.949,29.7139],[115.9562,29.7079],[115.9534,29.6991],[115.9467,29.6972],[115.9479,29.6911],[115.9528,29.684],[115.9502,29.6796],[115.9376,29.6743],[115.9423,29.663],[115.9361,29.6545],[115.9265,29.6469],[115.9165,29.644],[115.9237,29.6313],[115.9203,29.6222],[115.9313,29.6162],[115.9269,29.6075],[115.9269,29.5991],[115.9354,29.5984],[115.9346,29.6082],[115.9568,29.615],[115.9629,29.6181],[115.9628,29.6218],[115.9775,29.649],[115.9805,29.6612],[115.9842,29.6652],[115.9735,29.6685],[115.9746,29.6792],[115.9708,29.6918],[115.9824,29.6949],[115.9925,29.7035],[116.0067,29.7143],[116.017,29.7204],[116.0159,29.7238],[116.0233,29.7279],[116.0336,29.7303],[116.0388,29.7352],[116.048,29.7398],[116.0522,29.7369],[116.0512,29.7294],[116.0562,29.7305],[116.0589,29.7258],[116.0671,29.7291],[116.0729,29.7283],[116.0781,29.7346],[116.0738,29.7411],[116.0817,29.7435],[116.0821,29.7498],[116.0774,29.7552],[116.0768,29.7643]]]},"properties":{"region_code":"CN-36-3604-360403","parent_region_code":"CN-36-3604","name":"浔阳区","level":"county","has_children":false,"full_path":"中国 / 江西省 / 九江市 / 浔阳区","source_admin_code":"360403","osm_relation_id":3190451}},
{"type":"Feature","geometry":{"type":"MultiPolygon","coordinates":[[[[115.9294,29.7238],[115.9049,29.727],[115.8325,29.751],[115.79,29.7758],[115.7567,29.7963],[115.7013,29.8408],[115.6781,29.8505],[115.6633,29.8531],[115.6496,29.8514],[115.6509,29.8416],[115.6539,29.8309],[115.6614,29.8185],[115.6698,29.811],[115.6717,29.8024],[115.6772,29.7989],[115.6825,29.7918],[115.7006,29.7792],[115.7086,29.7753],[115.7143,29.7661],[115.7111,29.7587],[115.7037,29.7528],[115.6992,29.7445],[115.6928,29.7379],[115.6931,29.7344],[115.7034,29.7337],[115.7028,29.7275],[115.7052,29.7235],[115.6993,29.7205],[115.6985,29.7118],[115.6949,29.7069],[115.7036,29.7001],[115.7083,29.6998],[115.7099,29.6956],[115.7268,29.6963],[115.7332,29.6977],[115.7358,29.6959],[115.7523,29.698],[115.7658,29.7082],[115.77,29.7067],[115.7652,29.7012],[115.7686,29.6939],[115.7654,29.6923],[115.7542,29.6934],[115.7485,29.6879],[115.757,29.687],[115.7567,29.6826],[115.7451,29.6781],[115.7378,29.6772],[115.7326,29.6792],[115.7188,29.6757],[115.7192,29.6815],[115.7149,29.6816],[115.713,29.6776],[115.7049,29.6733],[115.6966,29.6726],[115.6929,29.6688],[115.6848,29.6709],[115.6804,29.6653],[115.6861,29.6509],[115.6712,29.6512],[115.6655,29.6421],[115.6576,29.6392],[115.6599,29.6338],[115.6556,29.633],[115.6528,29.6407],[115.6497,29.6425],[115.645,29.6358],[115.6408,29.6347],[115.6399,29.6255],[115.6338,29.6295],[115.6163,29.6262],[115.6172,29.6177],[115.6162,29.6119],[115.6208,29.6094],[115.6282,29.609],[115.631,29.6031],[115.6425,29.5942],[115.6454,29.5885],[115.6497,29.5856],[115.6492,29.5817],[115.6545,29.5692],[115.6638,29.565],[115.6664,29.5611],[115.6631,29.556],[115.6705,29.5476],[115.6679,29.5425],[115.674,29.5441],[115.6867,29.5453],[115.6995,29.5423],[115.7092,29.5428],[115.7116,29.5369],[115.7151,29.5341],[115.7138,29.5264],[115.71,29.5212],[115.7135,29.5156],[115.7136,29.5114],[115.7273,29.5078],[115.7318,29.5023],[115.7439,29.5001],[115.7541,29.4887],[115.7613,29.4837],[115.7619,29.476],[115.7652,29.4743],[115.7656,29.4661],[115.7609,29.4635],[115.7597,29.4587],[115.7677,29.4571],[115.7747,29.4494],[115.7838,29.4469],[115.7902,29.4379],[115.7941,29.4349],[115.7917,29.421],[115.7952,29.4163],[115.7918,29.4064],[115.7937,29.4014],[115.8033,29.3921],[115.8075,29.3843],[115.8137,29.3841],[115.8167,29.3845],[115.8226,29.3773],[115.8228,29.3698],[115.8281,29.365],[115.8269,29.361],[115.8312,29.3546],[115.8376,29.3506],[115.8461,29.3477],[115.8525,29.3515],[115.8556,29.3502],[115.8594,29.3548],[115.8579,29.367],[115.8619,29.3734],[115.8586,29.3762],[115.8541,29.3865],[115.8481,29.3915],[115.8481,29.3964],[115.8445,29.4021],[115.8451,29.4083],[115.854,29.4132],[115.8577,29.4217],[115.8648,29.4251],[115.8679,29.4302],[115.8666,29.4338],[115.8756,29.4352],[115.88,29.443],[115.8819,29.4505],[115.8773,29.4552],[115.8824,29.457],[115.8821,29.4613],[115.8872,29.4668],[115.8959,29.4681],[115.9004,29.4737],[115.9007,29.4786],[115.9071,29.4921],[115.9112,29.4937],[115.9137,29.5028],[115.9046,29.5114],[115.8993,29.5092],[115.8934,29.5108],[115.8869,29.5101],[115.8698,29.5063],[115.8691,29.513],[115.8728,29.5191],[115.8828,29.5217],[115.8775,29.522],[115.8705,29.5322],[115.8714,29.5377],[115.8776,29.5406],[115.8785,29.5505],[115.8806,29.5572],[115.8791,29.5646],[115.8826,29.568],[115.8889,29.5697],[115.8919,29.5677],[115.8983,29.5771],[115.9053,29.576],[115.9091,29.5734],[115.9179,29.5846],[115.9144,29.5933],[115.9041,29.599],[115.9117,29.6071],[115.9071,29.61],[115.9167,29.6203],[115.9094,29.6252],[115.9094,29.6289],[115.9,29.6328],[115.8987,29.6385],[115.8881,29.6463],[115.8883,29.6526],[115.8922,29.6589],[115.9026,29.6575],[115.8976,29.6627],[115.9007,29.6683],[115.8964,29.6775],[115.8962,29.6812],[115.9023,29.6883],[115.9069,29.6974],[115.9119,29.7032],[115.9208,29.7081],[115.9294,29.7238]]],[[[116.2253,29.7585],[116.2323,29.762],[116.237,29.7675],[116.2493,29.778],[116.258,29.784],[116.249,29.7887],[116.2304,29.8114],[116.2233,29.8212],[116.2181,29.8261],[116.203,29.8317],[116.1883,29.8324],[116.158,29.8319],[116.1415,29.8295],[116.1182,29.8213],[116.1038,29.8134],[116.0773,29.7955],[116.066,29.785],[116.0533,29.7689],[116.043,29.7639],[116.0442,29.7613],[116.0686,29.7653],[116.0768,29.7643],[116.0932,29.7655],[116.1334,29.7654],[116.1467,29.7672],[116.2079,29.7595],[116.2253,29.7585]]]]},"properties":{"region_code":"CN-36-3604-360404","parent_region_code":"CN-36-3604","name":"柴桑区","level":"county","has_children":false,"full_path":"中国 / 江西省 / 九江市 / 柴桑区","source_admin_code":"360404","osm_relation_id":3190444}},
{"type":"Feature","geometry":{"type":"Polygon","coordinates":[[[114.9402,28.8764],[114.95,28.8812],[114.9528,28.8897],[114.9456,28.9006],[114.9432,28.91],[114.9493,28.9181],[114.9442,28.9268],[114.9494,28.9313],[114.9543,28.9383],[114.9616,28.9402],[114.964,28.9499],[114.9622,28.9601],[114.9636,28.9631],[114.9585,28.972],[114.9668,28.9813],[114.9783,28.986],[114.975,28.9918],[114.975,28.9978],[114.9836,29.0003],[114.9903,29.0106],[115.0112,29.0153],[115.0189,29.0123],[115.0299,29.0162],[115.0372,29.0167],[115.0449,29.0232],[115.0449,29.0341],[115.0554,29.0385],[115.0627,29.0362],[115.0676,29.0371],[115.0713,29.0429],[115.079,29.0473],[115.0897,29.0505],[115.0929,29.0545],[115.1029,29.0546],[115.1126,29.0593],[115.1205,29.0659],[115.1237,29.0657],[115.1408,29.0773],[115.1455,29.0788],[115.1591,29.0798],[115.1714,29.0833],[115.1788,29.0868],[115.1845,29.0862],[115.1998,29.0899],[115.2106,29.0975],[115.226,29.0963],[115.2312,29.0932],[115.2439,29.0929],[115.2606,29.0975],[115.2644,29.1011],[115.275,29.1002],[115.2828,29.1026],[115.2885,29.098],[115.3063,29.1019],[115.314,29.1015],[115.3338,29.097],[115.3479,29.0895],[115.3602,29.0882],[115.3679,29.0844],[115.3881,29.0793],[115.39,29.0702],[115.4027,29.0691],[115.4044,29.0659],[115.4129,29.0661],[115.4154,29.0686],[115.4241,29.0689],[115.4252,29.0728],[115.4197,29.0765],[115.4241,29.0804],[115.4248,29.0963],[115.4324,29.0999],[115.4373,29.098],[115.4409,29.1081],[115.4405,29.1216],[115.4416,29.1263],[115.4316,29.1276],[115.4328,29.1354],[115.4331,29.1493],[115.4282,29.1516],[115.4251,29.1597],[115.4204,29.164],[115.4249,29.1727],[115.4185,29.1829],[115.4128,29.1823],[115.4039,29.1866],[115.4069,29.1941],[115.4108,29.1986],[115.4111,29.2033],[115.4083,29.209],[115.4076,29.2154],[115.4036,29.2184],[115.4108,29.229],[115.4105,29.2384],[115.4066,29.2439],[115.4062,29.249],[115.4025,29.2504],[115.4024,29.2592],[115.3981,29.2672],[115.3978,29.2758],[115.392,29.2828],[115.3929,29.2899],[115.397,29.294],[115.3948,29.2971],[115.3975,29.3049],[115.392,29.3195],[115.3926,29.3222],[115.3992,29.3248],[115.3922,29.3297],[115.3859,29.3293],[115.3843,29.3376],[115.3817,29.3385],[115.379,29.3475],[115.3812,29.3556],[115.3844,29.3595],[115.3937,29.3621],[115.393,29.3655],[115.3862,29.3696],[115.3843,29.3775],[115.3801,29.3819],[115.3781,29.3903],[115.3746,29.3892],[115.3701,29.3929],[115.362,29.3952],[115.3569,29.3944],[115.3514,29.3964],[115.3487,29.3929],[115.342,29.3927],[115.3404,29.4044],[115.3186,29.4041],[115.3115,29.4093],[115.3077,29.414],[115.313,29.4355],[115.3178,29.4397],[115.3176,29.443],[115.3129,29.4484],[115.3126,29.4546],[115.3157,29.4631],[115.3138,29.468],[115.3093,29.4719],[115.3004,29.4701],[115.2961,29.4716],[115.2935,29.4824],[115.2975,29.4841],[115.3009,29.4893],[115.3019,29.4949],[115.3074,29.5003],[115.2955,29.5088],[115.2883,29.5064],[115.2698,29.5059],[115.2657,29.5036],[115.2547,29.5016],[115.2494,29.5021],[115.2397,29.4995],[115.2311,29.5],[115.2288,29.4956],[115.219,29.497],[115.2136,29.492],[115.2118,29.4858],[115.2069,29.4795],[115.1917,29.4865],[115.1926,29.4895],[115.1764,29.5009],[115.1721,29.4988],[115.1632,29.5011],[115.1587,29.5058],[115.1534,29.5086],[115.1298,29.5143],[115.1243,29.5114],[115.1193,29.5121],[115.1086,29.5177],[115.0955,29.5229],[115.0852,29.5216],[115.0814,29.5258],[115.0945,29.5529],[115.091,29.557],[115.0825,29.5627],[115.0764,29.559],[115.0669,29.5605],[115.0636,29.5577],[115.0563,29.5566],[115.0502,29.5536],[115.0415,29.5547],[115.0281,29.5493],[115.0242,29.5546],[115.0189,29.5582],[115.0139,29.5576],[115.0077,29.5672],[114.9985,29.5704],[114.993,29.5739],[114.9921,29.568],[114.9885,29.5654],[114.9799,29.5646],[114.9763,29.5671],[114.9714,29.5624],[114.9695,29.5576],[114.9654,29.555],[114.9506,29.5525],[114.9489,29.5474],[114.9432,29.5467],[114.9409,29.5371],[114.9417,29.5306],[114.952,29.5273],[114.9586,29.5289],[114.968,29.5229],[114.9673,29.5191],[114.9587,29.5133],[114.9566,29.5053],[114.9531,29.505],[114.9458,29.4998],[114.9341,29.4969],[114.9266,29.5032],[114.9209,29.5012],[114.9183,29.5045],[114.9221,29.5233],[114.9169,29.5237],[114.9135,29.5134],[114.902,29.5095],[114.897,29.513],[114.9001,29.5211],[114.9036,29.5221],[114.8984,29.5325],[114.8925,29.5332],[114.8906,29.5304],[114.8888,29.5148],[114.884,29.504],[114.8771,29.5042],[114.8784,29.496],[114.8706,29.4921],[114.8665,29.483],[114.8573,29.4808],[114.8542,29.4751],[114.8568,29.4702],[114.8622,29.4681],[114.8678,29.4725],[114.8716,29.4705],[114.873,29.4626],[114.8777,29.4549],[114.878,29.4425],[114.8798,29.4388],[114.8877,29.4417],[114.8983,29.4511],[114.9021,29.4503],[114.9095,29.4529],[114.9186,29.4648],[114.9142,29.4679],[114.9016,29.4705],[114.9057,29.4778],[114.9108,29.4802],[114.9129,29.4855],[114.9215,29.4905],[114.9294,29.4908],[114.9344,29.4869],[114.934,29.4832],[114.9296,29.4793],[114.9336,29.4721],[114.9415,29.4667],[114.9352,29.4645],[114.9321,29.4554],[114.928,29.4496],[114.9228,29.4497],[114.9238,29.4418],[114.9274,29.4375],[114.9261,29.4285],[114.9221,29.4191],[114.9187,29.4185],[114.9112,29.424],[114.906,29.4242],[114.8992,29.4151],[114.8949,29.4058],[114.8877,29.3997],[114.874,29.3938],[114.8716,29.3947],[114.8734,29.4024],[114.8642,29.4076],[114.8479,29.403],[114.8373,29.3972],[114.8209,29.3924],[114.8014,29.3793],[114.7973,29.3821],[114.7841,29.3864],[114.7779,29.3857],[114.768,29.3773],[114.7605,29.3774],[114.7576,29.3683],[114.7541,29.3649],[114.7375,29.3669],[114.7352,29.3686],[114.7353,29.3909],[114.7314,29.3956],[114.708,29.3975],[114.6983,29.3932],[114.6889,29.3907],[114.6757,29.3899],[114.668,29.3965],[114.6606,29.3924],[114.653,29.393],[114.6398,29.3835],[114.6283,29.3815],[114.6196,29.3846],[114.61,29.3795],[114.6061,29.375],[114.6007,29.3647],[114.5959,29.3606],[114.5893,29.3594],[114.5798,29.353],[114.5645,29.3475],[114.5563,29.3462],[114.5518,29.3474],[114.5436,29.3378],[114.5369,29.3338],[114.5287,29.3337],[114.5148,29.3294],[114.5123,29.3215],[114.5175,29.302],[114.5177,29.2968],[114.5277,29.2954],[114.5384,29.2762],[114.5375,29.2723],[114.5213,29.265],[114.5163,29.2556],[114.5083,29.2492],[114.4888,29.2404],[114.4803,29.2356],[114.4781,29.2228],[114.4716,29.2172],[114.4815,29.2132],[114.4836,29.2081],[114.4899,29.2029],[114.5024,29.1971],[114.5065,29.194],[114.5127,29.194],[114.521,29.191],[114.5237,29.1826],[114.5288,29.1795],[114.5335,29.1841],[114.5404,29.1876],[114.5499,29.1886],[114.5592,29.1846],[114.5706,29.1835],[114.5814,29.1856],[114.5882,29.179],[114.5973,29.1797],[114.601,29.183],[114.6062,29.192],[114.6115,29.1961],[114.6422,29.2],[114.6477,29.2031],[114.6523,29.2032],[114.6623,29.1976],[114.6687,29.1996],[114.6774,29.1991],[114.6876,29.1939],[114.6994,29.1929],[114.7104,29.1908],[114.7242,29.1865],[114.7331,29.1781],[114.7464,29.1737],[114.7547,29.1673],[114.7666,29.1674],[114.7704,29.1697],[114.7802,29.1642],[114.7823,29.1427],[114.7805,29.1377],[114.7808,29.1279],[114.7791,29.1187],[114.7825,29.118],[114.792,29.1202],[114.7946,29.1305],[114.7989,29.1335],[114.8069,29.1302],[114.815,29.1138],[114.8214,29.1064],[114.8171,29.0911],[114.8175,29.0851],[114.8266,29.0788],[114.8247,29.0636],[114.8258,29.0575],[114.8316,29.0507],[114.8306,29.0413],[114.8351,29.0347],[114.8339,29.0281],[114.8284,29.0233],[114.8185,29],[114.8191,28.9873],[114.8296,28.9815],[114.8355,28.9689],[114.8425,28.9647],[114.8434,28.9577],[114.8462,28.952],[114.8543,28.945],[114.8633,28.9426],[114.8675,28.9332],[114.8747,28.9232],[114.8885,28.9212],[114.8942,28.9225],[114.8995,28.9182],[114.9052,28.9199],[114.915,28.9195],[114.9189,28.9162],[114.9202,28.9103],[114.9274,28.9015],[114.9351,28.8841],[114.9402,28.8764]]]},"properties":{"region_code":"CN-36-3604-360423","parent_region_code":"CN-36-3604","name":"武宁县","level":"county","has_children":false,"full_path":"中国 / 江西省 / 九江市 / 武宁县","source_admin_code":"360423","osm_relation_id":3190448}},
{"type":"Feature","geometry":{"type":"Polygon","coordinates":[[[114.5148,29.3294],[114.4975,29.3263],[114.4919,29.3321],[114.4873,29.3293],[114.4796,29.329],[114.4732,29.3313],[114.4591,29.3253],[114.4505,29.3286],[114.4451,29.3339],[114.4431,29.3388],[114.4352,29.3441],[114.4299,29.3432],[114.4209,29.339],[114.4118,29.3375],[114.4067,29.3391],[114.3942,29.3401],[114.3839,29.3363],[114.3819,29.3334],[114.3687,29.3235],[114.3559,29.3277],[114.3538,29.3256],[114.3444,29.3238],[114.3371,29.3285],[114.3293,29.3366],[114.3273,29.3453],[114.3218,29.3528],[114.3189,29.3597],[114.3053,29.3681],[114.2955,29.365],[114.2901,29.3611],[114.2803,29.3588],[114.2775,29.3558],[114.2711,29.3563],[114.2585,29.3503],[114.2536,29.3463],[114.2555,29.3387],[114.256,29.3264],[114.2572,29.3231],[114.2515,29.3194],[114.2454,29.3092],[114.246,29.3042],[114.2546,29.299],[114.2559,29.2925],[114.2497,29.2868],[114.2488,29.2789],[114.2498,29.272],[114.2409,29.2676],[114.2481,29.2525],[114.2494,29.2418],[114.247,29.2368],[114.2362,29.2347],[114.2251,29.2397],[114.2175,29.2371],[114.2105,29.2368],[114.2115,29.2324],[114.1965,29.2261],[114.1855,29.2255],[114.1716,29.2157],[114.1648,29.2192],[114.1564,29.2194],[114.1418,29.2152],[114.1383,29.213],[114.126,29.2176],[114.1196,29.2139],[114.1138,29.2139],[114.1013,29.2162],[114.0664,29.2081],[114.0649,29.2026],[114.0606,29.1965],[114.0546,29.1911],[114.0524,29.185],[114.047,29.1785],[114.0389,29.1756],[114.035,29.1709],[114.0328,29.1643],[114.0199,29.1517],[114.0152,29.1461],[114.0083,29.1449],[114.0006,29.1405],[113.9986,29.1361],[113.9931,29.1324],[113.9817,29.1288],[113.9802,29.123],[113.9747,29.1141],[113.9688,29.107],[113.9612,29.1015],[113.9506,29.1033],[113.9474,29.1004],[113.9466,29.0846],[113.9444,29.0793],[113.9468,29.0719],[113.9443,29.0619],[113.9379,29.0545],[113.9374,29.0502],[113.9412,29.0464],[113.9428,29.0347],[113.9412,29.0303],[113.9409,29.0211],[113.9466,29.0141],[113.9507,29.0065],[113.9563,29.0008],[113.9514,28.9893],[113.9503,28.9815],[113.9565,28.964],[113.9614,28.9474],[113.9684,28.941],[113.9706,28.9417],[113.9776,28.9504],[113.9848,28.9544],[113.9924,28.9549],[114.0006,28.9596],[114.0041,28.958],[114.0045,28.9488],[113.9985,28.9295],[113.9995,28.9214],[114.0091,28.9209],[114.0139,28.9172],[114.0185,28.9108],[114.0213,28.8966],[114.0365,28.9104],[114.0483,28.909],[114.0573,28.9029],[114.0594,28.8988],[114.0612,28.8875],[114.0564,28.8839],[114.0508,28.8735],[114.0532,28.8648],[114.0567,28.8597],[114.0541,28.8527],[114.0576,28.8488],[114.0643,28.8488],[114.0657,28.8436],[114.0709,28.8375],[114.0748,28.8362],[114.0919,28.8367],[114.1004,28.8406],[114.1193,28.8462],[114.1235,28.8446],[114.1232,28.8397],[114.1289,28.8299],[114.1374,28.831],[114.144,28.838],[114.1484,28.8323],[114.1464,28.8248],[114.1491,28.8199],[114.1465,28.8046],[114.1433,28.7995],[114.1347,28.7921],[114.1319,28.7827],[114.1335,28.7809],[114.1483,28.7738],[114.152,28.778],[114.1564,28.7782],[114.1594,28.7817],[114.1578,28.7883],[114.1773,28.8023],[114.1844,28.8039],[114.1934,28.8119],[114.198,28.822],[114.2066,28.827],[114.208,28.8317],[114.213,28.8327],[114.2202,28.8243],[114.2194,28.8137],[114.2243,28.8099],[114.2268,28.8027],[114.2354,28.8015],[114.2394,28.8107],[114.2454,28.8093],[114.2486,28.8115],[114.2534,28.8092],[114.2566,28.7988],[114.2623,28.7928],[114.2651,28.7794],[114.2661,28.7678],[114.2701,28.7667],[114.2788,28.7601],[114.2845,28.7608],[114.2937,28.7509],[114.2995,28.7472],[114.3036,28.7471],[114.3083,28.7384],[114.3076,28.7314],[114.3149,28.7275],[114.3239,28.7253],[114.3271,28.7199],[114.3356,28.7166],[114.3365,28.7123],[114.3415,28.708],[114.3491,28.7042],[114.3516,28.7065],[114.3593,28.7042],[114.3625,28.7149],[114.3663,28.7165],[114.3777,28.7116],[114.3849,28.7068],[114.3944,28.7081],[114.3975,28.707],[114.4092,28.71],[114.4142,28.7175],[114.4271,28.7165],[114.4343,28.7095],[114.4405,28.7087],[114.4509,28.7026],[114.4597,28.6993],[114.463,28.7049],[114.457,28.7176],[114.4564,28.7232],[114.4615,28.7285],[114.4615,28.7324],[114.4699,28.7425],[114.4749,28.7461],[114.473,28.7493],[114.4751,28.7546],[114.4837,28.7576],[114.486,28.7606],[114.4925,28.7574],[114.4984,28.7599],[114.5076,28.7613],[114.5143,28.7582],[114.519,28.7625],[114.5266,28.7641],[114.5307,28.7614],[114.5436,28.7612],[114.5444,28.7661],[114.5492,28.7705],[114.5568,28.7729],[114.5664,28.7733],[114.5742,28.7674],[114.5758,28.7632],[114.5786,28.7467],[114.5778,28.743],[114.5821,28.734],[114.5877,28.726],[114.6046,28.7157],[114.6111,28.7132],[114.6131,28.7055],[114.6203,28.6977],[114.6274,28.6973],[114.6302,28.6949],[114.6365,28.6957],[114.6418,28.6899],[114.6555,28.6917],[114.6594,28.6903],[114.6695,28.6945],[114.6929,28.6906],[114.698,28.6929],[114.701,28.6888],[114.7052,28.6953],[114.7151,28.6938],[114.7187,28.6913],[114.7313,28.6897],[114.7368,28.6985],[114.7378,28.7032],[114.742,28.7031],[114.7513,28.708],[114.756,28.715],[114.7601,28.717],[114.7687,28.7153],[114.7835,28.7265],[114.7942,28.7279],[114.7984,28.733],[114.7985,28.7421],[114.7952,28.7513],[114.7912,28.7563],[114.7922,28.7592],[114.8004,28.7632],[114.8065,28.7728],[114.817,28.7698],[114.8222,28.7636],[114.8237,28.7571],[114.8354,28.7446],[114.8388,28.7473],[114.851,28.7501],[114.8509,28.754],[114.8546,28.7576],[114.8612,28.7591],[114.8661,28.7559],[114.8688,28.762],[114.8641,28.7687],[114.8675,28.7736],[114.8758,28.7768],[114.8791,28.7734],[114.8868,28.773],[114.8913,28.7758],[114.8918,28.7812],[114.897,28.7902],[114.9007,28.7908],[114.9116,28.8027],[114.9135,28.8102],[114.9102,28.8165],[114.9019,28.8228],[114.9025,28.8334],[114.9039,28.837],[114.9049,28.8503],[114.9032,28.8548],[114.9187,28.8719],[114.929,28.8709],[114.9402,28.8764],[114.9351,28.8841],[114.9274,28.9015],[114.9202,28.9103],[114.9189,28.9162],[114.915,28.9195],[114.9052,28.9199],[114.8995,28.9182],[114.8942,28.9225],[114.8885,28.9212],[114.8747,28.9232],[114.8675,28.9332],[114.8633,28.9426],[114.8543,28.945],[114.8462,28.952],[114.8434,28.9577],[114.8425,28.9647],[114.8355,28.9689],[114.8296,28.9815],[114.8191,28.9873],[114.8185,29],[114.8284,29.0233],[114.8339,29.0281],[114.8351,29.0347],[114.8306,29.0413],[114.8316,29.0507],[114.8258,29.0575],[114.8247,29.0636],[114.8266,29.0788],[114.8175,29.0851],[114.8171,29.0911],[114.8214,29.1064],[114.815,29.1138],[114.8069,29.1302],[114.7989,29.1335],[114.7946,29.1305],[114.792,29.1202],[114.7825,29.118],[114.7791,29.1187],[114.7808,29.1279],[114.7805,29.1377],[114.7823,29.1427],[114.7802,29.1642],[114.7704,29.1697],[114.7666,29.1674],[114.7547,29.1673],[114.7464,29.1737],[114.7331,29.1781],[114.7242,29.1865],[114.7104,29.1908],[114.6994,29.1929],[114.6876,29.1939],[114.6774,29.1991],[114.6687,29.1996],[114.6623,29.1976],[114.6523,29.2032],[114.6477,29.2031],[114.6422,29.2],[114.6115,29.1961],[114.6062,29.192],[114.601,29.183],[114.5973,29.1797],[114.5882,29.179],[114.5814,29.1856],[114.5706,29.1835],[114.5592,29.1846],[114.5499,29.1886],[114.5404,29.1876],[114.5335,29.1841],[114.5288,29.1795],[114.5237,29.1826],[114.521,29.191],[114.5127,29.194],[114.5065,29.194],[114.5024,29.1971],[114.4899,29.2029],[114.4836,29.2081],[114.4815,29.2132],[114.4716,29.2172],[114.4781,29.2228],[114.4803,29.2356],[114.4888,29.2404],[114.5083,29.2492],[114.5163,29.2556],[114.5213,29.265],[114.5375,29.2723],[114.5384,29.2762],[114.5277,29.2954],[114.5177,29.2968],[114.5175,29.302],[114.5123,29.3215],[114.5148,29.3294]]]},"properties":{"region_code":"CN-36-3604-360424","parent_region_code":"CN-36-3604","name":"修水县","level":"county","has_children":false,"full_path":"中国 / 江西省 / 九江市 / 修水县","source_admin_code":"360424","osm_relation_id":3190450}},
{"type":"Feature","geometry":{"type":"Polygon","coordinates":[[[115.4241,29.0689],[115.4418,29.0622],[115.4429,29.0578],[115.4343,29.0499],[115.4322,29.0439],[115.4357,29.0425],[115.4455,29.0321],[115.4487,29.0326],[115.4585,29.0289],[115.4635,29.0295],[115.4671,29.0214],[115.464,29.0177],[115.4675,29.015],[115.4698,29.0082],[115.4765,29.0126],[115.4829,29.0128],[115.4889,29.0105],[115.4969,29.0172],[115.5063,29.0187],[115.5099,29.017],[115.5209,29.0166],[115.5235,29.013],[115.5325,29.009],[115.54,28.999],[115.5434,28.9889],[115.5502,28.9824],[115.5605,28.9774],[115.5687,28.9689],[115.5797,28.967],[115.5814,28.9722],[115.5857,28.9738],[115.5939,28.9728],[115.5922,28.9692],[115.5868,28.9716],[115.5839,28.968],[115.5983,28.9642],[115.6043,28.9679],[115.6133,28.9659],[115.6169,28.9612],[115.618,28.9544],[115.6236,28.951],[115.6304,28.9518],[115.6408,28.9459],[115.6475,28.951],[115.6519,28.9486],[115.6559,28.9519],[115.6602,28.9511],[115.6634,28.947],[115.6702,28.9493],[115.6725,28.9561],[115.6775,28.9548],[115.6768,28.9462],[115.6733,28.9438],[115.6687,28.9453],[115.6596,28.9397],[115.662,28.9319],[115.6698,28.9319],[115.6725,28.9255],[115.6806,28.9271],[115.6908,28.9265],[115.6971,28.9244],[115.7037,28.9246],[115.7142,28.9197],[115.7213,28.9253],[115.7203,28.9308],[115.7242,28.9355],[115.7312,28.9312],[115.7362,28.9253],[115.738,28.9194],[115.7443,28.9163],[115.7502,28.9087],[115.7514,28.9012],[115.7571,28.8964],[115.7643,28.8985],[115.7662,28.9039],[115.7708,28.907],[115.7803,28.9069],[115.7917,28.9022],[115.7985,28.9053],[115.7999,28.9123],[115.8069,28.91],[115.8121,28.9163],[115.8101,28.9214],[115.8133,28.9316],[115.8136,28.9376],[115.8198,28.9431],[115.8183,28.9455],[115.8203,28.9587],[115.8158,28.9739],[115.8142,28.9834],[115.8143,29.0007],[115.8297,29.0007],[115.8296,29.0044],[115.8434,29.0041],[115.8499,28.9994],[115.8522,28.9943],[115.8566,28.9928],[115.8554,28.9853],[115.8683,28.9869],[115.8783,29.0004],[115.8768,29.0036],[115.8848,29.0103],[115.8847,29.0171],[115.877,29.0233],[115.8807,29.0272],[115.8857,29.0258],[115.895,29.0375],[115.9029,29.0362],[115.911,29.0457],[115.9168,29.0622],[115.9102,29.0752],[115.9108,29.0797],[115.9156,29.0813],[115.918,29.0886],[115.9256,29.0969],[115.9312,29.0958],[115.9326,29.0928],[115.9409,29.096],[115.9477,29.0961],[115.9532,29.0996],[115.9726,29.103],[115.9791,29.0922],[115.9828,29.0923],[115.9908,29.1017],[115.9918,29.1065],[115.9968,29.1101],[116.0032,29.1093],[116.0033,29.1022],[116.0111,29.097],[116.0135,29.0915],[116.0204,29.0937],[116.0226,29.0982],[116.0281,29.0987],[116.0343,29.1048],[116.0339,29.111],[116.0435,29.1084],[116.0541,29.1165],[116.0592,29.1191],[116.0806,29.1157],[116.0859,29.1177],[116.0884,29.1219],[116.1069,29.1204],[116.1273,29.1251],[116.1681,29.1208],[116.2017,29.1306],[116.2037,29.1283],[116.2068,29.1324],[116.2472,29.1682],[116.2484,29.1763],[116.2398,29.216],[116.2358,29.2203],[116.2213,29.2299],[116.2062,29.2345],[116.1837,29.2344],[116.1594,29.2319],[116.1476,29.235],[116.0879,29.2462],[116.0796,29.2495],[116.0706,29.2559],[116.0655,29.2611],[116.0569,29.2723],[116.0495,29.2798],[116.0464,29.2867],[116.045,29.2965],[116.0409,29.3066],[116.0339,29.3022],[116.0262,29.2946],[116.0028,29.2827],[115.9896,29.2732],[115.9875,29.2657],[115.9878,29.2523],[115.9893,29.2456],[116.0035,29.2366],[116.0103,29.2313],[116.0171,29.2225],[116.0189,29.2129],[116.0145,29.1962],[116.0121,29.1927],[115.9952,29.1821],[115.9896,29.1817],[115.9733,29.1863],[115.9649,29.1849],[115.9617,29.1827],[115.9475,29.1661],[115.9402,29.1593],[115.9323,29.1663],[115.9387,29.175],[115.9354,29.1826],[115.9247,29.1786],[115.9291,29.1877],[115.9242,29.1878],[115.9235,29.1792],[115.9203,29.1759],[115.9212,29.1719],[115.914,29.1568],[115.9079,29.1536],[115.8919,29.1537],[115.889,29.159],[115.8822,29.1547],[115.8826,29.1519],[115.871,29.152],[115.8694,29.158],[115.8635,29.1591],[115.8604,29.1668],[115.8537,29.1682],[115.8513,29.1644],[115.8395,29.169],[115.8307,29.1651],[115.8269,29.1532],[115.8182,29.1521],[115.8086,29.1544],[115.8052,29.157],[115.8038,29.1624],[115.7948,29.168],[115.7893,29.1675],[115.7823,29.1742],[115.7816,29.1818],[115.7748,29.1799],[115.7678,29.1733],[115.7633,29.1739],[115.7603,29.1823],[115.7605,29.1955],[115.7556,29.1928],[115.7541,29.1982],[115.7473,29.202],[115.7394,29.2036],[115.7418,29.2089],[115.7376,29.2133],[115.7363,29.2196],[115.7329,29.2215],[115.7301,29.232],[115.7195,29.2319],[115.717,29.2408],[115.7134,29.2444],[115.7073,29.2432],[115.7033,29.252],[115.698,29.2491],[115.6885,29.2551],[115.689,29.2603],[115.6934,29.2707],[115.6887,29.2709],[115.6834,29.2825],[115.6846,29.2864],[115.6698,29.2944],[115.6661,29.2949],[115.6565,29.2925],[115.6443,29.3033],[115.6412,29.3025],[115.6365,29.3143],[115.6277,29.3187],[115.6184,29.316],[115.6123,29.3166],[115.6124,29.312],[115.6049,29.3141],[115.5908,29.3099],[115.5676,29.3146],[115.5636,29.312],[115.5478,29.3156],[115.5421,29.3104],[115.5333,29.3128],[115.5285,29.3112],[115.5224,29.3163],[115.5053,29.3141],[115.4805,29.3226],[115.4759,29.3205],[115.4651,29.3263],[115.4591,29.3272],[115.4566,29.323],[115.4488,29.3252],[115.4514,29.3338],[115.4412,29.3439],[115.4286,29.347],[115.4236,29.3423],[115.4141,29.3454],[115.4137,29.3506],[115.4068,29.3504],[115.4024,29.3481],[115.3839,29.3529],[115.3812,29.3556],[115.379,29.3475],[115.3817,29.3385],[115.3843,29.3376],[115.3859,29.3293],[115.3922,29.3297],[115.3992,29.3248],[115.3926,29.3222],[115.392,29.3195],[115.3975,29.3049],[115.3948,29.2971],[115.397,29.294],[115.3929,29.2899],[115.392,29.2828],[115.3978,29.2758],[115.3981,29.2672],[115.4024,29.2592],[115.4025,29.2504],[115.4062,29.249],[115.4066,29.2439],[115.4105,29.2384],[115.4108,29.229],[115.4036,29.2184],[115.4076,29.2154],[115.4083,29.209],[115.4111,29.2033],[115.4108,29.1986],[115.4069,29.1941],[115.4039,29.1866],[115.4128,29.1823],[115.4185,29.1829],[115.4249,29.1727],[115.4204,29.164],[115.4251,29.1597],[115.4282,29.1516],[115.4331,29.1493],[115.4328,29.1354],[115.4316,29.1276],[115.4416,29.1263],[115.4405,29.1216],[115.4409,29.1081],[115.4373,29.098],[115.4324,29.0999],[115.4248,29.0963],[115.4241,29.0804],[115.4197,29.0765],[115.4252,29.0728],[115.4241,29.0689]],[[115.7988,28.9831],[115.8009,28.9752],[115.8041,28.9698],[115.7975,28.962],[115.7944,28.9552],[115.7861,28.9627],[115.7847,28.9714],[115.7906,28.9721],[115.791,28.9797],[115.7988,28.9831]],[[115.7996,28.9409],[115.8012,28.9343],[115.7959,28.9287],[115.7909,28.9296],[115.7801,28.936],[115.7874,28.9397],[115.7911,28.938],[115.7933,28.9454],[115.7983,28.9447],[115.7996,28.9409]]]},"properties":{"region_code":"CN-36-3604-360425","parent_region_code":"CN-36-3604","name":"永修县","level":"county","has_children":false,"full_path":"中国 / 江西省 / 九江市 / 永修县","source_admin_code":"360425","osm_relation_id":3190452}},
{"type":"Feature","geometry":{"type":"Polygon","coordinates":[[[115.6679,29.5425],[115.6602,29.543],[115.6515,29.537],[115.6315,29.5366],[115.6213,29.5346],[115.6163,29.5308],[115.6044,29.5281],[115.5983,29.5292],[115.5932,29.5254],[115.5809,29.5226],[115.5832,29.5307],[115.5724,29.5261],[115.5678,29.5267],[115.5571,29.5238],[115.5599,29.5189],[115.557,29.5051],[115.5615,29.4992],[115.5534,29.4948],[115.5413,29.5013],[115.5418,29.5065],[115.5341,29.5081],[115.5314,29.5173],[115.5166,29.511],[115.5051,29.5077],[115.4992,29.5038],[115.4948,29.5074],[115.4893,29.5073],[115.4841,29.5045],[115.4773,29.5068],[115.4682,29.5013],[115.4652,29.4968],[115.4607,29.4943],[115.4632,29.4881],[115.4572,29.4857],[115.4512,29.4739],[115.4436,29.4727],[115.434,29.4598],[115.4314,29.4515],[115.4325,29.4463],[115.4297,29.4382],[115.4207,29.4366],[115.4181,29.4411],[115.404,29.4485],[115.3964,29.4507],[115.3944,29.4457],[115.3883,29.4452],[115.3853,29.4383],[115.387,29.4317],[115.3797,29.4235],[115.3821,29.417],[115.3774,29.4128],[115.3821,29.4089],[115.3789,29.4012],[115.3781,29.3903],[115.3801,29.3819],[115.3843,29.3775],[115.3862,29.3696],[115.393,29.3655],[115.3937,29.3621],[115.3844,29.3595],[115.3812,29.3556],[115.3839,29.3529],[115.4024,29.3481],[115.4068,29.3504],[115.4137,29.3506],[115.4141,29.3454],[115.4236,29.3423],[115.4286,29.347],[115.4412,29.3439],[115.4514,29.3338],[115.4488,29.3252],[115.4566,29.323],[115.4591,29.3272],[115.4651,29.3263],[115.4759,29.3205],[115.4805,29.3226],[115.5053,29.3141],[115.5224,29.3163],[115.5285,29.3112],[115.5333,29.3128],[115.5421,29.3104],[115.5478,29.3156],[115.5636,29.312],[115.5676,29.3146],[115.5908,29.3099],[115.6049,29.3141],[115.6124,29.312],[115.6123,29.3166],[115.6184,29.316],[115.6277,29.3187],[115.6365,29.3143],[115.6412,29.3025],[115.6443,29.3033],[115.6565,29.2925],[115.6661,29.2949],[115.6698,29.2944],[115.6846,29.2864],[115.6834,29.2825],[115.6887,29.2709],[115.6934,29.2707],[115.7003,29.2685],[115.7059,29.2708],[115.713,29.2767],[115.718,29.2745],[115.7287,29.2828],[115.7276,29.291],[115.7375,29.2968],[115.75,29.2935],[115.7515,29.2983],[115.7589,29.2966],[115.7623,29.2904],[115.7697,29.2973],[115.7839,29.2929],[115.7832,29.3013],[115.7906,29.3076],[115.7997,29.3071],[115.8007,29.313],[115.8096,29.3148],[115.8109,29.3201],[115.8068,29.3237],[115.8109,29.342],[115.8059,29.348],[115.8085,29.354],[115.8101,29.3629],[115.8127,29.367],[115.811,29.3724],[115.8161,29.3742],[115.8137,29.3841],[115.8075,29.3843],[115.8033,29.3921],[115.7937,29.4014],[115.7918,29.4064],[115.7952,29.4163],[115.7917,29.421],[115.7941,29.4349],[115.7902,29.4379],[115.7838,29.4469],[115.7747,29.4494],[115.7677,29.4571],[115.7597,29.4587],[115.7609,29.4635],[115.7656,29.4661],[115.7652,29.4743],[115.7619,29.476],[115.7613,29.4837],[115.7541,29.4887],[115.7439,29.5001],[115.7318,29.5023],[115.7273,29.5078],[115.7136,29.5114],[115.7135,29.5156],[115.71,29.5212],[115.7138,29.5264],[115.7151,29.5341],[115.7116,29.5369],[115.7092,29.5428],[115.6995,29.5423],[115.6867,29.5453],[115.674,29.5441],[115.6679,29.5425]]]},"properties":{"region_code":"CN-36-3604-360426","parent_region_code":"CN-36-3604","name":"德安县","level":"county","has_children":false,"full_path":"中国 / 江西省 / 九江市 / 德安县","source_admin_code":"360426","osm_relation_id":3190440}},
{"type":"Feature","geometry":{"type":"Polygon","coordinates":[[[116.2037,29.1283],[116.207,29.1275],[116.2181,29.1301],[116.233,29.1359],[116.2588,29.1355],[116.2747,29.1369],[116.2785,29.1315],[116.282,29.1209],[116.2815,29.1155],[116.2858,29.1118],[116.311,29.0996],[116.3231,29.1042],[116.3278,29.0955],[116.3351,29.0881],[116.3521,29.0814],[116.362,29.0801],[116.3708,29.0751],[116.3732,29.0688],[116.3824,29.0588],[116.3903,29.0551],[116.3954,29.0556],[116.4015,29.0589],[116.41,29.0714],[116.4184,29.0796],[116.4231,29.0867],[116.4326,29.0976],[116.4324,29.1067],[116.438,29.1108],[116.4435,29.1086],[116.4526,29.1182],[116.4465,29.1268],[116.468,29.1585],[116.5428,29.1588],[116.5817,29.1873],[116.6417,29.2323],[116.6233,29.2431],[116.6062,29.2517],[116.5989,29.2541],[116.5888,29.2552],[116.5903,29.2612],[116.5854,29.2625],[116.5842,29.2782],[116.5786,29.2808],[116.5784,29.2847],[116.5708,29.2891],[116.5605,29.2985],[116.5578,29.3049],[116.56,29.315],[116.5568,29.3162],[116.5526,29.3225],[116.5477,29.3256],[116.5398,29.3367],[116.5373,29.3438],[116.5329,29.346],[116.5382,29.354],[116.5369,29.3622],[116.5455,29.3584],[116.5497,29.3582],[116.55,29.3677],[116.544,29.3705],[116.5526,29.3759],[116.5552,29.3794],[116.552,29.3857],[116.5439,29.3916],[116.5437,29.3951],[116.5378,29.3997],[116.5352,29.4052],[116.5332,29.4146],[116.5357,29.4177],[116.525,29.4263],[116.5164,29.4256],[116.5121,29.4357],[116.5179,29.4437],[116.5158,29.4503],[116.5196,29.4553],[116.5201,29.4637],[116.5298,29.4618],[116.5329,29.4637],[116.5351,29.4735],[116.5341,29.4815],[116.5307,29.4864],[116.5239,29.4874],[116.5153,29.4949],[116.5181,29.5022],[116.5278,29.5071],[116.5276,29.5158],[116.5238,29.5169],[116.5238,29.5218],[116.5309,29.5272],[116.5284,29.5301],[116.5299,29.5423],[116.526,29.5468],[116.5303,29.5588],[116.5247,29.5595],[116.5173,29.5569],[116.5126,29.5641],[116.5046,29.5576],[116.4973,29.5685],[116.4869,29.5745],[116.4899,29.5796],[116.5009,29.5869],[116.5084,29.606],[116.5127,29.6141],[116.5118,29.6237],[116.5084,29.6278],[116.5086,29.6338],[116.5001,29.6347],[116.4984,29.6381],[116.4909,29.6366],[116.4849,29.6319],[116.4786,29.6304],[116.4709,29.6197],[116.4661,29.6201],[116.4549,29.6157],[116.4468,29.6147],[116.4395,29.6122],[116.4254,29.6094],[116.4131,29.6049],[116.4074,29.5972],[116.4036,29.5907],[116.4015,29.5825],[116.3973,29.578],[116.3966,29.573],[116.3918,29.5727],[116.3837,29.5634],[116.381,29.5626],[116.3768,29.5551],[116.3709,29.5541],[116.3646,29.5481],[116.3441,29.5442],[116.3434,29.5515],[116.3378,29.5607],[116.3351,29.5583],[116.3286,29.5611],[116.3292,29.5648],[116.3192,29.568],[116.3152,29.5679],[116.31,29.5636],[116.3095,29.5587],[116.3054,29.5528],[116.2986,29.5546],[116.3021,29.5641],[116.3023,29.5694],[116.306,29.573],[116.3029,29.587],[116.2955,29.5837],[116.2884,29.5847],[116.284,29.5803],[116.2771,29.5778],[116.2748,29.5747],[116.2767,29.5697],[116.2694,29.5599],[116.2744,29.555],[116.2797,29.5526],[116.275,29.5473],[116.2743,29.541],[116.2706,29.5389],[116.2755,29.5296],[116.2803,29.527],[116.2925,29.5347],[116.295,29.5285],[116.2946,29.5228],[116.2875,29.5218],[116.2864,29.5158],[116.291,29.5026],[116.287,29.4977],[116.2825,29.509],[116.2861,29.5124],[116.2863,29.5179],[116.2815,29.5197],[116.2762,29.5123],[116.2729,29.5119],[116.2722,29.5056],[116.2674,29.5041],[116.2618,29.5089],[116.2559,29.5075],[116.2517,29.5116],[116.2391,29.5092],[116.243,29.5248],[116.2352,29.5285],[116.2316,29.5338],[116.2229,29.5334],[116.2178,29.538],[116.2063,29.5274],[116.205,29.5228],[116.201,29.5193],[116.1909,29.5209],[116.1868,29.5171],[116.1798,29.5162],[116.1753,29.5089],[116.1703,29.5114],[116.1703,29.5172],[116.1671,29.5207],[116.159,29.5213],[116.1566,29.5293],[116.1518,29.5205],[116.145,29.5219],[116.14,29.5277],[116.1329,29.5285],[116.1373,29.5206],[116.1335,29.5072],[116.1265,29.4918],[116.1187,29.4834],[116.1112,29.4782],[116.0973,29.4709],[116.0929,29.4673],[116.082,29.4544],[116.0733,29.4507],[116.0534,29.4445],[116.0421,29.4375],[116.0306,29.424],[116.0266,29.4135],[116.0278,29.3958],[116.034,29.3853],[116.0494,29.3753],[116.0616,29.3655],[116.0649,29.3604],[116.0665,29.3486],[116.0648,29.3409],[116.055,29.3197],[116.048,29.3116],[116.0409,29.3066],[116.045,29.2965],[116.0464,29.2867],[116.0495,29.2798],[116.0569,29.2723],[116.0655,29.2611],[116.0706,29.2559],[116.0796,29.2495],[116.0879,29.2462],[116.1476,29.235],[116.1594,29.2319],[116.1837,29.2344],[116.2062,29.2345],[116.2213,29.2299],[116.2358,29.2203],[116.2398,29.216],[116.2484,29.1763],[116.2472,29.1682],[116.2068,29.1324],[116.2037,29.1283]]]},"properties":{"region_code":"CN-36-3604-360428","parent_region_code":"CN-36-3604","name":"都昌县","level":"county","has_children":false,"full_path":"中国 / 江西省 / 九江市 / 都昌县","source_admin_code":"360428","osm_relation_id":3190441}},
{"type":"Feature","geometry":{"type":"Polygon","coordinates":[[[116.1329,29.5285],[116.14,29.5277],[116.145,29.5219],[116.1518,29.5205],[116.1566,29.5293],[116.159,29.5213],[116.1671,29.5207],[116.1703,29.5172],[116.1703,29.5114],[116.1753,29.5089],[116.1798,29.5162],[116.1868,29.5171],[116.1909,29.5209],[116.201,29.5193],[116.205,29.5228],[116.2063,29.5274],[116.2178,29.538],[116.2229,29.5334],[116.2316,29.5338],[116.2352,29.5285],[116.243,29.5248],[116.2391,29.5092],[116.2517,29.5116],[116.2559,29.5075],[116.2618,29.5089],[116.2674,29.5041],[116.2722,29.5056],[116.2729,29.5119],[116.2762,29.5123],[116.2815,29.5197],[116.2863,29.5179],[116.2861,29.5124],[116.2825,29.509],[116.287,29.4977],[116.291,29.5026],[116.2864,29.5158],[116.2875,29.5218],[116.2946,29.5228],[116.295,29.5285],[116.2925,29.5347],[116.2803,29.527],[116.2755,29.5296],[116.2706,29.5389],[116.2743,29.541],[116.275,29.5473],[116.2797,29.5526],[116.2744,29.555],[116.2694,29.5599],[116.2767,29.5697],[116.2748,29.5747],[116.2771,29.5778],[116.284,29.5803],[116.2884,29.5847],[116.2955,29.5837],[116.3029,29.587],[116.306,29.573],[116.3023,29.5694],[116.3021,29.5641],[116.2986,29.5546],[116.3054,29.5528],[116.3095,29.5587],[116.31,29.5636],[116.3152,29.5679],[116.3192,29.568],[116.3292,29.5648],[116.3286,29.5611],[116.3351,29.5583],[116.3378,29.5607],[116.3434,29.5515],[116.3441,29.5442],[116.3646,29.5481],[116.3709,29.5541],[116.3768,29.5551],[116.381,29.5626],[116.3837,29.5634],[116.3918,29.5727],[116.3966,29.573],[116.3973,29.578],[116.4015,29.5825],[116.4036,29.5907],[116.4074,29.5972],[116.3889,29.6205],[116.3968,29.6287],[116.3959,29.6342],[116.3897,29.6359],[116.3816,29.6442],[116.3715,29.6499],[116.3669,29.6585],[116.3741,29.6667],[116.3758,29.6729],[116.3823,29.6767],[116.3874,29.6819],[116.3912,29.6887],[116.3981,29.686],[116.4065,29.6876],[116.4086,29.6826],[116.4149,29.6818],[116.4173,29.6925],[116.4132,29.6951],[116.419,29.7048],[116.4209,29.7157],[116.4168,29.7215],[116.412,29.7224],[116.4107,29.7284],[116.4122,29.7338],[116.4122,29.747],[116.409,29.7507],[116.406,29.7666],[116.3967,29.7684],[116.3964,29.7768],[116.4052,29.784],[116.406,29.7928],[116.3997,29.797],[116.4039,29.8072],[116.4027,29.8099],[116.3942,29.8114],[116.3976,29.8179],[116.4043,29.824],[116.4038,29.8296],[116.3953,29.8323],[116.3887,29.8311],[116.3839,29.8356],[116.3937,29.8476],[116.3896,29.8578],[116.3872,29.8581],[116.3548,29.8463],[116.3377,29.838],[116.3301,29.8333],[116.3197,29.8235],[116.2994,29.8084],[116.2752,29.7926],[116.258,29.784],[116.2493,29.778],[116.237,29.7675],[116.2323,29.762],[116.2253,29.7585],[116.2101,29.7475],[116.2025,29.7429],[116.1981,29.7349],[116.1896,29.7166],[116.1798,29.6937],[116.1677,29.6727],[116.1568,29.6588],[116.1522,29.6493],[116.1437,29.628],[116.1342,29.6122],[116.1254,29.6015],[116.1225,29.593],[116.1206,29.5797],[116.1228,29.5692],[116.1291,29.5553],[116.1315,29.5474],[116.132,29.5306],[116.1329,29.5285]]]},"properties":{"region_code":"CN-36-3604-360429","parent_region_code":"CN-36-3604","name":"湖口县","level":"county","has_children":false,"full_path":"中国 / 江西省 / 九江市 / 湖口县","source_admin_code":"360429","osm_relation_id":3190443}},
{"type":"Feature","geometry":{"type":"MultiPolygon","coordinates":[[[[116.7109,29.6918],[116.7107,29.6995],[116.7013,29.6987],[116.7,29.6915],[116.7091,29.69],[116.7109,29.6918]]],[[[116.6937,29.7118],[116.6948,29.7063],[116.7011,29.7025],[116.6984,29.7126],[116.6937,29.7118]]],[[[116.5127,29.6141],[116.5176,29.6139],[116.5238,29.6056],[116.5305,29.6079],[116.5342,29.6033],[116.5394,29.6011],[116.5428,29.6049],[116.5471,29.5998],[116.5507,29.6006],[116.5558,29.5971],[116.5637,29.6011],[116.5738,29.596],[116.5769,29.5903],[116.5754,29.5853],[116.5841,29.5792],[116.5881,29.5815],[116.5953,29.5802],[116.5991,29.5765],[116.6086,29.5741],[116.6146,29.5855],[116.6231,29.5834],[116.6406,29.5848],[116.6428,29.5875],[116.6411,29.5938],[116.6444,29.5996],[116.6426,29.6062],[116.6459,29.6092],[116.6536,29.6109],[116.6626,29.6042],[116.6664,29.6034],[116.6753,29.606],[116.679,29.6087],[116.6777,29.6192],[116.669,29.6265],[116.6654,29.6275],[116.6598,29.6341],[116.6509,29.6374],[116.6459,29.6427],[116.6454,29.646],[116.6545,29.6615],[116.6646,29.6656],[116.6686,29.6708],[116.6839,29.6761],[116.6763,29.6866],[116.6685,29.6912],[116.6625,29.6904],[116.6473,29.6907],[116.6446,29.699],[116.6506,29.704],[116.6622,29.703],[116.6658,29.7056],[116.6652,29.7119],[116.6704,29.7152],[116.6719,29.7198],[116.6712,29.7293],[116.6746,29.7303],[116.6785,29.738],[116.6831,29.743],[116.6913,29.7431],[116.7041,29.7462],[116.7051,29.7521],[116.7124,29.759],[116.7104,29.7625],[116.7172,29.7679],[116.7216,29.7757],[116.7267,29.7748],[116.7355,29.7775],[116.7363,29.7861],[116.7398,29.7934],[116.747,29.7996],[116.7523,29.8003],[116.7573,29.8081],[116.7752,29.7982],[116.7763,29.7947],[116.7826,29.7942],[116.7878,29.8014],[116.7919,29.8046],[116.7979,29.8032],[116.7977,29.8109],[116.8041,29.8195],[116.8158,29.8182],[116.8235,29.8223],[116.8236,29.8274],[116.8172,29.8371],[116.8269,29.8411],[116.8415,29.8508],[116.8451,29.8594],[116.8504,29.8669],[116.8536,29.8679],[116.8618,29.8759],[116.8632,29.8818],[116.8709,29.885],[116.8773,29.8953],[116.8806,29.8975],[116.881,29.9081],[116.885,29.9124],[116.8913,29.9137],[116.8928,29.919],[116.8868,29.9253],[116.8891,29.9311],[116.8897,29.9418],[116.8989,29.9468],[116.8995,29.951],[116.8914,29.9713],[116.882,29.9702],[116.8799,29.9781],[116.8731,29.9763],[116.871,29.9811],[116.864,29.9841],[116.8484,29.9739],[116.8402,29.972],[116.8304,29.9733],[116.8299,29.9645],[116.8239,29.9658],[116.8216,29.9795],[116.8249,29.9917],[116.8231,30.0001],[116.8248,30.0037],[116.8248,30.0135],[116.8202,30.0126],[116.8172,30.0055],[116.8095,30.0017],[116.8059,30.0027],[116.7968,29.9989],[116.7928,30.0067],[116.7878,30.0099],[116.7836,30.0169],[116.7854,30.0215],[116.7805,30.0247],[116.7695,30.0438],[116.7608,30.0466],[116.7576,30.0517],[116.7504,30.0525],[116.7424,30.0594],[116.7301,30.0565],[116.7157,30.0567],[116.71,30.0586],[116.6813,30.0732],[116.6696,30.0777],[116.6567,30.08],[116.6379,30.0791],[116.6157,30.0758],[116.6064,30.0735],[116.5993,30.0693],[116.5918,30.0624],[116.5808,30.0479],[116.5725,30.0324],[116.5667,30.0169],[116.5651,30.0011],[116.5667,29.9925],[116.5608,29.9583],[116.5539,29.9268],[116.5472,29.9126],[116.5366,29.9043],[116.5208,29.9003],[116.5094,29.8999],[116.4748,29.9005],[116.4624,29.8987],[116.4363,29.8822],[116.4112,29.8695],[116.3872,29.8581],[116.3896,29.8578],[116.3937,29.8476],[116.3839,29.8356],[116.3887,29.8311],[116.3953,29.8323],[116.4038,29.8296],[116.4043,29.824],[116.3976,29.8179],[116.3942,29.8114],[116.4027,29.8099],[116.4039,29.8072],[116.3997,29.797],[116.406,29.7928],[116.4052,29.784],[116.3964,29.7768],[116.3967,29.7684],[116.406,29.7666],[116.409,29.7507],[116.4122,29.747],[116.4122,29.7338],[116.4107,29.7284],[116.412,29.7224],[116.4168,29.7215],[116.4209,29.7157],[116.419,29.7048],[116.4132,29.6951],[116.4173,29.6925],[116.4149,29.6818],[116.4086,29.6826],[116.4065,29.6876],[116.3981,29.686],[116.3912,29.6887],[116.3874,29.6819],[116.3823,29.6767],[116.3758,29.6729],[116.3741,29.6667],[116.3669,29.6585],[116.3715,29.6499],[116.3816,29.6442],[116.3897,29.6359],[116.3959,29.6342],[116.3968,29.6287],[116.3889,29.6205],[116.4074,29.5972],[116.4131,29.6049],[116.4254,29.6094],[116.4395,29.6122],[116.4468,29.6147],[116.4549,29.6157],[116.4661,29.6201],[116.4709,29.6197],[116.4786,29.6304],[116.4849,29.6319],[116.4909,29.6366],[116.4984,29.6381],[116.5001,29.6347],[116.5086,29.6338],[116.5084,29.6278],[116.5118,29.6237],[116.5127,29.6141]]]]},"properties":{"region_code":"CN-36-3604-360430","parent_region_code":"CN-36-3604","name":"彭泽县","level":"county","has_children":false,"full_path":"中国 / 江西省 / 九江市 / 彭泽县","source_admin_code":"360430","osm_relation_id":3190446}},
{"type":"Feature","geometry":{"type":"Polygon","coordinates":[[[115.6496,29.8514],[115.6038,29.8418],[115.5658,29.8384],[115.5499,29.8384],[115.5186,29.8403],[115.5052,29.8418],[115.5013,29.8266],[115.4855,29.821],[115.4793,29.82],[115.4724,29.8124],[115.464,29.8082],[115.4702,29.8034],[115.4712,29.792],[115.4669,29.79],[115.4669,29.7855],[115.4704,29.7821],[115.4669,29.7755],[115.4587,29.772],[115.4601,29.7561],[115.4662,29.7617],[115.4713,29.7565],[115.4696,29.7469],[115.4608,29.7354],[115.4519,29.7351],[115.4484,29.7251],[115.4389,29.7267],[115.4326,29.7164],[115.4257,29.7124],[115.4186,29.711],[115.42,29.7054],[115.413,29.7],[115.4135,29.6893],[115.4071,29.6802],[115.3955,29.6841],[115.3905,29.6768],[115.3865,29.6776],[115.3753,29.6708],[115.3611,29.659],[115.358,29.6532],[115.3537,29.6494],[115.3504,29.652],[115.34,29.6508],[115.3316,29.6527],[115.3292,29.6498],[115.3226,29.6495],[115.315,29.64],[115.3094,29.638],[115.3021,29.64],[115.2927,29.6314],[115.2851,29.6267],[115.283,29.6225],[115.2735,29.6256],[115.2658,29.6258],[115.2569,29.6383],[115.252,29.6396],[115.2528,29.6443],[115.269,29.6503],[115.2655,29.6567],[115.2586,29.6604],[115.248,29.6611],[115.243,29.6583],[115.2319,29.6569],[115.2264,29.654],[115.2157,29.6556],[115.2057,29.655],[115.1991,29.657],[115.1668,29.6596],[115.1589,29.6584],[115.1457,29.6607],[115.1385,29.6662],[115.1296,29.6785],[115.1295,29.6831],[115.12,29.6827],[115.1111,29.6855],[115.1054,29.6782],[115.1052,29.6707],[115.1015,29.6668],[115.1035,29.6614],[115.123,29.6517],[115.1346,29.6538],[115.1389,29.6456],[115.1372,29.639],[115.1302,29.6393],[115.1266,29.6333],[115.1281,29.6284],[115.1272,29.6213],[115.1304,29.6176],[115.1252,29.6134],[115.1233,29.6088],[115.124,29.603],[115.1115,29.5999],[115.128,29.5928],[115.1366,29.5984],[115.1502,29.6016],[115.1518,29.6051],[115.1701,29.6008],[115.1727,29.5951],[115.1707,29.5923],[115.1522,29.5875],[115.1523,29.5801],[115.1482,29.5787],[115.1517,29.5718],[115.152,29.5664],[115.1475,29.5597],[115.1508,29.5546],[115.146,29.5498],[115.1485,29.5442],[115.146,29.5378],[115.1409,29.5353],[115.149,29.5297],[115.1499,29.522],[115.155,29.5122],[115.1534,29.5086],[115.1587,29.5058],[115.1632,29.5011],[115.1721,29.4988],[115.1764,29.5009],[115.1926,29.4895],[115.1917,29.4865],[115.2069,29.4795],[115.2118,29.4858],[115.2136,29.492],[115.219,29.497],[115.2288,29.4956],[115.2311,29.5],[115.2397,29.4995],[115.2494,29.5021],[115.2547,29.5016],[115.2657,29.5036],[115.2698,29.5059],[115.2883,29.5064],[115.2955,29.5088],[115.3074,29.5003],[115.3019,29.4949],[115.3009,29.4893],[115.2975,29.4841],[115.2935,29.4824],[115.2961,29.4716],[115.3004,29.4701],[115.3093,29.4719],[115.3138,29.468],[115.3157,29.4631],[115.3126,29.4546],[115.3129,29.4484],[115.3176,29.443],[115.3178,29.4397],[115.313,29.4355],[115.3077,29.414],[115.3115,29.4093],[115.3186,29.4041],[115.3404,29.4044],[115.342,29.3927],[115.3487,29.3929],[115.3514,29.3964],[115.3569,29.3944],[115.362,29.3952],[115.3701,29.3929],[115.3746,29.3892],[115.3781,29.3903],[115.3789,29.4012],[115.3821,29.4089],[115.3774,29.4128],[115.3821,29.417],[115.3797,29.4235],[115.387,29.4317],[115.3853,29.4383],[115.3883,29.4452],[115.3944,29.4457],[115.3964,29.4507],[115.404,29.4485],[115.4181,29.4411],[115.4207,29.4366],[115.4297,29.4382],[115.4325,29.4463],[115.4314,29.4515],[115.434,29.4598],[115.4436,29.4727],[115.4512,29.4739],[115.4572,29.4857],[115.4632,29.4881],[115.4607,29.4943],[115.4652,29.4968],[115.4682,29.5013],[115.4773,29.5068],[115.4841,29.5045],[115.4893,29.5073],[115.4948,29.5074],[115.4992,29.5038],[115.5051,29.5077],[115.5166,29.511],[115.5314,29.5173],[115.5341,29.5081],[115.5418,29.5065],[115.5413,29.5013],[115.5534,29.4948],[115.5615,29.4992],[115.557,29.5051],[115.5599,29.5189],[115.5571,29.5238],[115.5678,29.5267],[115.5724,29.5261],[115.5832,29.5307],[115.5809,29.5226],[115.5932,29.5254],[115.5983,29.5292],[115.6044,29.5281],[115.6163,29.5308],[115.6213,29.5346],[115.6315,29.5366],[115.6515,29.537],[115.6602,29.543],[115.6679,29.5425],[115.6705,29.5476],[115.6631,29.556],[115.6664,29.5611],[115.6638,29.565],[115.6545,29.5692],[115.6492,29.5817],[115.6497,29.5856],[115.6454,29.5885],[115.6425,29.5942],[115.631,29.6031],[115.6282,29.609],[115.6208,29.6094],[115.6162,29.6119],[115.6172,29.6177],[115.6163,29.6262],[115.6338,29.6295],[115.6399,29.6255],[115.6408,29.6347],[115.645,29.6358],[115.6497,29.6425],[115.6528,29.6407],[115.6556,29.633],[115.6599,29.6338],[115.6576,29.6392],[115.6655,29.6421],[115.6712,29.6512],[115.6861,29.6509],[115.6804,29.6653],[115.6848,29.6709],[115.6929,29.6688],[115.6966,29.6726],[115.7049,29.6733],[115.713,29.6776],[115.7149,29.6816],[115.7192,29.6815],[115.7188,29.6757],[115.7326,29.6792],[115.7378,29.6772],[115.7451,29.6781],[115.7567,29.6826],[115.757,29.687],[115.7485,29.6879],[115.7542,29.6934],[115.7654,29.6923],[115.7686,29.6939],[115.7652,29.7012],[115.77,29.7067],[115.7658,29.7082],[115.7523,29.698],[115.7358,29.6959],[115.7332,29.6977],[115.7268,29.6963],[115.7099,29.6956],[115.7083,29.6998],[115.7036,29.7001],[115.6949,29.7069],[115.6985,29.7118],[115.6993,29.7205],[115.7052,29.7235],[115.7028,29.7275],[115.7034,29.7337],[115.6931,29.7344],[115.6928,29.7379],[115.6992,29.7445],[115.7037,29.7528],[115.7111,29.7587],[115.7143,29.7661],[115.7086,29.7753],[115.7006,29.7792],[115.6825,29.7918],[115.6772,29.7989],[115.6717,29.8024],[115.6698,29.811],[115.6614,29.8185],[115.6539,29.8309],[115.6509,29.8416],[115.6496,29.8514]]]},"properties":{"region_code":"CN-36-3604-360481","parent_region_code":"CN-36-3604","name":"瑞昌市","level":"county","has_children":false,"full_path":"中国 / 江西省 / 九江市 / 瑞昌市","source_admin_code":"360481","osm_relation_id":3190447}},
{"type":"Feature","geometry":{"type":"Polygon","coordinates":[[[115.8137,29.3841],[115.8161,29.3742],[115.811,29.3724],[115.8127,29.367],[115.8101,29.3629],[115.8085,29.354],[115.8059,29.348],[115.8109,29.342],[115.8068,29.3237],[115.8109,29.3201],[115.8096,29.3148],[115.8007,29.313],[115.7997,29.3071],[115.7906,29.3076],[115.7832,29.3013],[115.7839,29.2929],[115.7697,29.2973],[115.7623,29.2904],[115.7589,29.2966],[115.7515,29.2983],[115.75,29.2935],[115.7375,29.2968],[115.7276,29.291],[115.7287,29.2828],[115.718,29.2745],[115.713,29.2767],[115.7059,29.2708],[115.7003,29.2685],[115.6934,29.2707],[115.689,29.2603],[115.6885,29.2551],[115.698,29.2491],[115.7033,29.252],[115.7073,29.2432],[115.7134,29.2444],[115.717,29.2408],[115.7195,29.2319],[115.7301,29.232],[115.7329,29.2215],[115.7363,29.2196],[115.7376,29.2133],[115.7418,29.2089],[115.7394,29.2036],[115.7473,29.202],[115.7541,29.1982],[115.7556,29.1928],[115.7605,29.1955],[115.7603,29.1823],[115.7633,29.1739],[115.7678,29.1733],[115.7748,29.1799],[115.7816,29.1818],[115.7823,29.1742],[115.7893,29.1675],[115.7948,29.168],[115.8038,29.1624],[115.8052,29.157],[115.8086,29.1544],[115.8182,29.1521],[115.8269,29.1532],[115.8307,29.1651],[115.8395,29.169],[115.8513,29.1644],[115.8537,29.1682],[115.8604,29.1668],[115.8635,29.1591],[115.8694,29.158],[115.8758,29.1667],[115.8753,29.1694],[115.8812,29.1766],[115.8791,29.1822],[115.882,29.1856],[115.8794,29.1895],[115.8844,29.195],[115.8886,29.1922],[115.8927,29.1937],[115.9051,29.2034],[115.9133,29.2038],[115.9172,29.21],[115.9143,29.2232],[115.905,29.2222],[115.9005,29.2264],[115.8979,29.2225],[115.8856,29.2232],[115.8822,29.2205],[115.8709,29.2179],[115.8699,29.2146],[115.8552,29.207],[115.8467,29.204],[115.8437,29.2062],[115.8439,29.2116],[115.8363,29.213],[115.8358,29.2218],[115.8295,29.223],[115.8278,29.2306],[115.8386,29.2341],[115.8411,29.2163],[115.8569,29.218],[115.8634,29.2234],[115.8751,29.2298],[115.8942,29.2388],[115.8958,29.2418],[115.8952,29.2494],[115.8977,29.255],[115.9071,29.2619],[115.9142,29.2736],[115.9113,29.2798],[115.914,29.2863],[115.9142,29.2928],[115.917,29.2991],[115.9107,29.3005],[115.9103,29.3041],[115.916,29.3082],[115.913,29.3138],[115.9114,29.3243],[115.9089,29.3274],[115.898,29.3215],[115.8899,29.3197],[115.8828,29.3166],[115.8809,29.3241],[115.8821,29.3295],[115.8766,29.3321],[115.8708,29.3323],[115.8597,29.3354],[115.8602,29.3453],[115.8556,29.3502],[115.8525,29.3515],[115.8461,29.3477],[115.8376,29.3506],[115.8312,29.3546],[115.8269,29.361],[115.8281,29.365],[115.8228,29.3698],[115.8226,29.3773],[115.8167,29.3845],[115.8137,29.3841]]]},"properties":{"region_code":"CN-36-3604-360482","parent_region_code":"CN-36-3604","name":"共青城市","level":"county","has_children":false,"full_path":"中国 / 江西省 / 九江市 / 共青城市","source_admin_code":"360482","osm_relation_id":3190442}},
{"type":"Feature","geometry":{"type":"Polygon","coordinates":[[[115.8828,29.5217],[115.8728,29.5191],[115.8691,29.513],[115.8698,29.5063],[115.8869,29.5101],[115.8934,29.5108],[115.8993,29.5092],[115.9046,29.5114],[115.9137,29.5028],[115.9112,29.4937],[115.9071,29.4921],[115.9007,29.4786],[115.9004,29.4737],[115.8959,29.4681],[115.8872,29.4668],[115.8821,29.4613],[115.8824,29.457],[115.8773,29.4552],[115.8819,29.4505],[115.88,29.443],[115.8756,29.4352],[115.8666,29.4338],[115.8679,29.4302],[115.8648,29.4251],[115.8577,29.4217],[115.854,29.4132],[115.8451,29.4083],[115.8445,29.4021],[115.8481,29.3964],[115.8481,29.3915],[115.8541,29.3865],[115.8586,29.3762],[115.8619,29.3734],[115.8579,29.367],[115.8594,29.3548],[115.8556,29.3502],[115.8602,29.3453],[115.8597,29.3354],[115.8708,29.3323],[115.8766,29.3321],[115.8821,29.3295],[115.8809,29.3241],[115.8828,29.3166],[115.8899,29.3197],[115.898,29.3215],[115.9089,29.3274],[115.9114,29.3243],[115.913,29.3138],[115.916,29.3082],[115.9103,29.3041],[115.9107,29.3005],[115.917,29.2991],[115.9142,29.2928],[115.914,29.2863],[115.9113,29.2798],[115.9142,29.2736],[115.9071,29.2619],[115.8977,29.255],[115.8952,29.2494],[115.8958,29.2418],[115.8942,29.2388],[115.8751,29.2298],[115.8634,29.2234],[115.8569,29.218],[115.8411,29.2163],[115.8386,29.2341],[115.8278,29.2306],[115.8295,29.223],[115.8358,29.2218],[115.8363,29.213],[115.8439,29.2116],[115.8437,29.2062],[115.8467,29.204],[115.8552,29.207],[115.8699,29.2146],[115.8709,29.2179],[115.8822,29.2205],[115.8856,29.2232],[115.8979,29.2225],[115.9005,29.2264],[115.905,29.2222],[115.9143,29.2232],[115.9172,29.21],[115.9133,29.2038],[115.9051,29.2034],[115.8927,29.1937],[115.8886,29.1922],[115.8844,29.195],[115.8794,29.1895],[115.882,29.1856],[115.8791,29.1822],[115.8812,29.1766],[115.8753,29.1694],[115.8758,29.1667],[115.8694,29.158],[115.871,29.152],[115.8826,29.1519],[115.8822,29.1547],[115.889,29.159],[115.8919,29.1537],[115.9079,29.1536],[115.914,29.1568],[115.9212,29.1719],[115.9203,29.1759],[115.9235,29.1792],[115.9242,29.1878],[115.9291,29.1877],[115.9247,29.1786],[115.9354,29.1826],[115.9387,29.175],[115.9323,29.1663],[115.9402,29.1593],[115.9475,29.1661],[115.9617,29.1827],[115.9649,29.1849],[115.9733,29.1863],[115.9896,29.1817],[115.9952,29.1821],[116.0121,29.1927],[116.0145,29.1962],[116.0189,29.2129],[116.0171,29.2225],[116.0103,29.2313],[116.0035,29.2366],[115.9893,29.2456],[115.9878,29.2523],[115.9875,29.2657],[115.9896,29.2732],[116.0028,29.2827],[116.0262,29.2946],[116.0339,29.3022],[116.0409,29.3066],[116.048,29.3116],[116.055,29.3197],[116.0648,29.3409],[116.0665,29.3486],[116.0649,29.3604],[116.0616,29.3655],[116.0494,29.3753],[116.034,29.3853],[116.0278,29.3958],[116.0266,29.4135],[116.0306,29.424],[116.0421,29.4375],[116.0534,29.4445],[116.0733,29.4507],[116.082,29.4544],[116.0929,29.4673],[116.0973,29.4709],[116.1112,29.4782],[116.1187,29.4834],[116.1265,29.4918],[116.1335,29.5072],[116.1373,29.5206],[116.1329,29.5285],[116.1322,29.5298],[116.1069,29.5273],[116.1074,29.533],[116.1023,29.5413],[116.1018,29.5492],[116.0987,29.5582],[116.0936,29.5606],[116.0906,29.566],[116.0776,29.5829],[116.0652,29.5843],[116.0559,29.582],[116.0515,29.5883],[116.0446,29.5906],[116.0433,29.5948],[116.0345,29.5944],[116.0381,29.6012],[116.0451,29.6075],[116.042,29.6143],[116.0436,29.6176],[116.0379,29.6209],[116.028,29.6233],[116.0293,29.6292],[116.0414,29.6297],[116.0438,29.6334],[116.0403,29.638],[116.0224,29.6333],[116.0174,29.6305],[116.0139,29.6219],[116.0005,29.6166],[115.9932,29.6089],[115.9824,29.5946],[115.9796,29.5955],[115.9728,29.5919],[115.9702,29.5849],[115.9602,29.5915],[115.9583,29.59],[115.9623,29.5825],[115.9569,29.578],[115.9495,29.5792],[115.9479,29.5753],[115.9393,29.5702],[115.9404,29.5638],[115.9343,29.5576],[115.922,29.5514],[115.9181,29.543],[115.9138,29.5394],[115.9101,29.5279],[115.8986,29.5209],[115.8912,29.5258],[115.8857,29.5209],[115.8828,29.5217]]]},"properties":{"region_code":"CN-36-3604-360483","parent_region_code":"CN-36-3604","name":"庐山市","level":"county","has_children":false,"full_path":"中国 / 江西省 / 九江市 / 庐山市","source_admin_code":"360483","osm_relation_id":3190449}}
]}