{"type":"FeatureCollection", "features": [
{"type":"Feature","geometry":{"type":"Polygon","coordinates":[[[120.7718,30.6296],[120.7744,30.6179],[120.7775,30.6184],[120.7831,30.6075],[120.7889,30.6058],[120.7908,30.6104],[120.7964,30.6098],[120.7933,30.6172],[120.7961,30.618],[120.7924,30.6296],[120.7939,30.6343],[120.8015,30.6366],[120.806,30.6288],[120.809,30.6274],[120.8207,30.6257],[120.8284,30.6263],[120.8286,30.623],[120.8341,30.6221],[120.8392,30.6196],[120.8426,30.6202],[120.8436,30.6152],[120.8492,30.6121],[120.8585,30.61],[120.8656,30.6112],[120.8726,30.6151],[120.8763,30.6136],[120.8969,30.6179],[120.8975,30.6122],[120.9056,30.6164],[120.9155,30.6143],[120.9212,30.6102],[120.9327,30.6102],[120.9344,30.6175],[120.9388,30.6181],[120.9358,30.6234],[120.9428,30.6258],[120.9425,30.6279],[120.9534,30.6305],[120.9524,30.635],[120.9497,30.6351],[120.9483,30.6422],[120.9514,30.6481],[120.9522,30.6564],[120.9504,30.664],[120.9489,30.676],[120.9499,30.685],[120.948,30.6928],[120.9474,30.7046],[120.9589,30.703],[120.9756,30.7059],[120.9748,30.7131],[120.9754,30.7193],[120.978,30.7224],[120.9733,30.7268],[120.9674,30.7255],[120.9681,30.7371],[120.9693,30.742],[120.9734,30.7505],[120.9708,30.7514],[120.9641,30.7501],[120.9632,30.7578],[120.9568,30.7578],[120.9588,30.7623],[120.9579,30.779],[120.95,30.7783],[120.9467,30.776],[120.9366,30.7761],[120.9326,30.774],[120.9159,30.7612],[120.9146,30.7672],[120.9164,30.7708],[120.9176,30.7796],[120.9118,30.7807],[120.9107,30.7741],[120.8976,30.775],[120.8996,30.7788],[120.8984,30.7911],[120.886,30.7916],[120.8801,30.7897],[120.8767,30.7921],[120.8622,30.7901],[120.8559,30.7914],[120.8455,30.7865],[120.8456,30.7985],[120.8517,30.8032],[120.8538,30.8099],[120.8592,30.8158],[120.8605,30.8197],[120.8727,30.8287],[120.8657,30.8328],[120.8553,30.8356],[120.8453,30.8426],[120.8448,30.8446],[120.8346,30.8404],[120.8196,30.8291],[120.8185,30.8308],[120.8151,30.8293],[120.8169,30.8251],[120.8061,30.8162],[120.7923,30.8011],[120.802,30.7931],[120.804,30.7898],[120.775,30.7771],[120.7716,30.7844],[120.768,30.787],[120.7594,30.7798],[120.7554,30.7892],[120.74,30.7876],[120.7275,30.7855],[120.7259,30.7833],[120.7312,30.7798],[120.7269,30.7682],[120.7286,30.763],[120.7219,30.7619],[120.7216,30.7578],[120.7128,30.7578],[120.6987,30.7552],[120.6957,30.753],[120.6518,30.7304],[120.6526,30.7253],[120.6496,30.721],[120.6508,30.7163],[120.656,30.7128],[120.6627,30.7156],[120.666,30.719],[120.672,30.7179],[120.6782,30.7197],[120.6823,30.7112],[120.6698,30.6988],[120.6737,30.6957],[120.6864,30.7012],[120.688,30.6989],[120.6958,30.7033],[120.7003,30.6982],[120.7084,30.6923],[120.7132,30.6969],[120.715,30.6937],[120.719,30.6925],[120.7246,30.6937],[120.7293,30.6992],[120.7414,30.6999],[120.74,30.6942],[120.7527,30.6844],[120.7596,30.6776],[120.7606,30.6693],[120.7624,30.666],[120.7585,30.6615],[120.753,30.6617],[120.7533,30.6565],[120.751,30.6533],[120.7575,30.6477],[120.7517,30.6397],[120.7543,30.6344],[120.7517,30.6335],[120.751,30.6254],[120.7611,30.6294],[120.7652,30.6286],[120.7718,30.6296]]]},"properties":{"region_code":"CN-33-3304-330402","parent_region_code":"CN-33-3304","name":"南湖区","level":"county","has_children":false,"full_path":"中国 / 浙江省 / 嘉兴市 / 南湖区","source_admin_code":"330402","osm_relation_id":4590578}},
{"type":"Feature","geometry":{"type":"Polygon","coordinates":[[[120.8185,30.8308],[120.8168,30.8358],[120.8171,30.8429],[120.8058,30.8411],[120.8067,30.8356],[120.8113,30.834],[120.8057,30.8279],[120.7999,30.8265],[120.7977,30.8302],[120.7925,30.8299],[120.7902,30.8422],[120.7921,30.8472],[120.7922,30.8544],[120.794,30.8576],[120.7878,30.8584],[120.7872,30.8616],[120.7903,30.8644],[120.7893,30.8842],[120.7917,30.8842],[120.7895,30.8997],[120.7956,30.9014],[120.7984,30.9063],[120.7918,30.9062],[120.7908,30.9035],[120.7805,30.9068],[120.7771,30.9065],[120.7764,30.8994],[120.7686,30.9012],[120.7656,30.9057],[120.7686,30.9112],[120.7635,30.9206],[120.7573,30.9251],[120.7648,30.9323],[120.7762,30.9383],[120.7686,30.9458],[120.7642,30.9512],[120.7682,30.954],[120.7663,30.959],[120.7597,30.9597],[120.761,30.9632],[120.749,30.9655],[120.7471,30.9608],[120.7414,30.9653],[120.7375,30.9652],[120.7344,30.969],[120.7248,30.9734],[120.7119,30.9726],[120.7049,30.974],[120.7045,30.9696],[120.6983,30.9668],[120.6936,30.9722],[120.6869,30.9664],[120.6831,30.9651],[120.6784,30.958],[120.6849,30.9548],[120.692,30.9528],[120.7022,30.9419],[120.7063,30.9321],[120.7082,30.9205],[120.7075,30.914],[120.7055,30.9089],[120.7086,30.8925],[120.7073,30.8871],[120.6993,30.8864],[120.6944,30.8843],[120.698,30.8792],[120.6955,30.8758],[120.6971,30.8709],[120.6867,30.8727],[120.6865,30.8769],[120.6833,30.8784],[120.6804,30.8838],[120.6759,30.8803],[120.668,30.8788],[120.666,30.8697],[120.6536,30.8652],[120.6537,30.8589],[120.6509,30.8581],[120.6506,30.8494],[120.6455,30.8531],[120.6401,30.8536],[120.6378,30.8579],[120.6322,30.8564],[120.6221,30.8585],[120.6142,30.853],[120.6046,30.8508],[120.5996,30.8513],[120.5818,30.8573],[120.5775,30.8541],[120.5768,30.8479],[120.5682,30.8433],[120.5583,30.8369],[120.5524,30.8349],[120.5538,30.8295],[120.5498,30.826],[120.5293,30.7968],[120.5321,30.7931],[120.5373,30.792],[120.5446,30.7931],[120.5481,30.7899],[120.5552,30.7917],[120.5589,30.7785],[120.5599,30.7456],[120.5682,30.7464],[120.5705,30.7428],[120.5703,30.7387],[120.5767,30.7335],[120.5735,30.7307],[120.5792,30.7261],[120.5822,30.729],[120.586,30.7259],[120.601,30.7043],[120.6116,30.7098],[120.618,30.7007],[120.6259,30.6911],[120.64,30.6887],[120.6415,30.683],[120.6364,30.6811],[120.6364,30.6762],[120.6321,30.6723],[120.6331,30.667],[120.6319,30.6631],[120.627,30.6599],[120.6268,30.6535],[120.6293,30.6512],[120.6309,30.6422],[120.6266,30.6417],[120.6216,30.6348],[120.6246,30.6306],[120.6226,30.6273],[120.6118,30.6314],[120.6114,30.6198],[120.6017,30.6191],[120.6009,30.6149],[120.6052,30.6087],[120.6079,30.6079],[120.6072,30.6012],[120.61,30.5996],[120.6126,30.5903],[120.6169,30.5896],[120.6313,30.5912],[120.6383,30.5862],[120.6444,30.5866],[120.6504,30.5929],[120.6524,30.5902],[120.6572,30.5894],[120.6617,30.583],[120.6945,30.5871],[120.7153,30.5835],[120.723,30.588],[120.7276,30.5938],[120.7267,30.6028],[120.7353,30.6041],[120.7427,30.604],[120.7455,30.6081],[120.7518,30.6118],[120.7547,30.6152],[120.7539,30.6219],[120.7607,30.6221],[120.7718,30.6296],[120.7652,30.6286],[120.7611,30.6294],[120.751,30.6254],[120.7517,30.6335],[120.7543,30.6344],[120.7517,30.6397],[120.7575,30.6477],[120.751,30.6533],[120.7533,30.6565],[120.753,30.6617],[120.7585,30.6615],[120.7624,30.666],[120.7606,30.6693],[120.7596,30.6776],[120.7527,30.6844],[120.74,30.6942],[120.7414,30.6999],[120.7293,30.6992],[120.7246,30.6937],[120.719,30.6925],[120.715,30.6937],[120.7132,30.6969],[120.7084,30.6923],[120.7003,30.6982],[120.6958,30.7033],[120.688,30.6989],[120.6864,30.7012],[120.6737,30.6957],[120.6698,30.6988],[120.6823,30.7112],[120.6782,30.7197],[120.672,30.7179],[120.666,30.719],[120.6627,30.7156],[120.656,30.7128],[120.6508,30.7163],[120.6496,30.721],[120.6526,30.7253],[120.6518,30.7304],[120.6957,30.753],[120.6987,30.7552],[120.7128,30.7578],[120.7216,30.7578],[120.7219,30.7619],[120.7286,30.763],[120.7269,30.7682],[120.7312,30.7798],[120.7259,30.7833],[120.7275,30.7855],[120.74,30.7876],[120.7554,30.7892],[120.7594,30.7798],[120.768,30.787],[120.7716,30.7844],[120.775,30.7771],[120.804,30.7898],[120.802,30.7931],[120.7923,30.8011],[120.8061,30.8162],[120.8169,30.8251],[120.8151,30.8293],[120.8185,30.8308]]]},"properties":{"region_code":"CN-33-3304-330411","parent_region_code":"CN-33-3304","name":"秀洲区","level":"county","has_children":false,"full_path":"中国 / 浙江省 / 嘉兴市 / 秀洲区","source_admin_code":"330411","osm_relation_id":4590588}},
{"type":"Feature","geometry":{"type":"Polygon","coordinates":[[[120.9579,30.779],[120.9662,30.7802],[120.9665,30.7831],[120.9757,30.7848],[120.9753,30.7818],[120.9859,30.7806],[120.9905,30.7757],[121.0001,30.7772],[121.0078,30.7766],[121.0083,30.7798],[121.0124,30.7839],[121.0187,30.7823],[121.024,30.785],[121.021,30.7899],[121.0215,30.7947],[121.0285,30.7963],[121.0285,30.8049],[121.0311,30.8056],[121.0303,30.8154],[121.0335,30.8165],[121.0322,30.8207],[121.0253,30.831],[121.0111,30.8361],[121.0067,30.8369],[120.9992,30.8287],[120.9964,30.8317],[120.9899,30.8235],[120.9858,30.8257],[120.9843,30.835],[120.9887,30.8409],[120.9909,30.8402],[120.9935,30.8468],[120.9994,30.8483],[121.0035,30.8546],[121.0117,30.865],[121.0098,30.8668],[121.0137,30.8713],[121.0113,30.8734],[121.0167,30.8811],[121.0136,30.885],[121.0092,30.8841],[121.0027,30.8857],[121.0057,30.8892],[120.9989,30.8913],[120.9888,30.8924],[120.9892,30.8964],[120.9862,30.8981],[120.9885,30.9042],[120.9946,30.9081],[120.9987,30.9075],[121.0004,30.9116],[120.9952,30.9119],[120.9956,30.9372],[120.9966,30.94],[120.9928,30.9462],[120.9931,30.9525],[120.991,30.957],[120.9875,30.9706],[120.9891,30.9742],[120.9969,30.9761],[120.9966,30.9794],[120.9908,30.9974],[120.9881,30.999],[120.9879,31.0101],[120.9851,31.0152],[120.9797,31.0164],[120.9775,31.0187],[120.9604,31.0185],[120.9598,31.0231],[120.9559,31.0235],[120.954,31.0305],[120.9478,31.0324],[120.9452,31.03],[120.9471,31.0264],[120.9458,31.0198],[120.9318,31.0193],[120.9363,31.0126],[120.9311,31.0118],[120.9274,31.0138],[120.9224,31.0127],[120.9145,31.0148],[120.9076,31.0141],[120.9072,31.0194],[120.893,31.0197],[120.8914,31.0139],[120.8887,31.013],[120.889,31.008],[120.8855,31.0036],[120.8808,31.0035],[120.8691,30.9976],[120.8638,30.9977],[120.8631,30.9933],[120.8544,30.9921],[120.8498,30.9956],[120.8429,30.9922],[120.8384,30.9943],[120.8349,31.0023],[120.8269,31.0043],[120.8181,31.0081],[120.8031,31.0084],[120.7776,31.0043],[120.7695,31.0035],[120.7722,30.9997],[120.7649,30.9989],[120.7624,30.993],[120.7655,30.9804],[120.7619,30.9782],[120.7555,30.978],[120.7482,30.9718],[120.7435,30.9707],[120.7414,30.9653],[120.7471,30.9608],[120.749,30.9655],[120.761,30.9632],[120.7597,30.9597],[120.7663,30.959],[120.7682,30.954],[120.7642,30.9512],[120.7686,30.9458],[120.7762,30.9383],[120.7648,30.9323],[120.7573,30.9251],[120.7635,30.9206],[120.7686,30.9112],[120.7656,30.9057],[120.7686,30.9012],[120.7764,30.8994],[120.7771,30.9065],[120.7805,30.9068],[120.7908,30.9035],[120.7918,30.9062],[120.7984,30.9063],[120.7956,30.9014],[120.7895,30.8997],[120.7917,30.8842],[120.7893,30.8842],[120.7903,30.8644],[120.7872,30.8616],[120.7878,30.8584],[120.794,30.8576],[120.7922,30.8544],[120.7921,30.8472],[120.7902,30.8422],[120.7925,30.8299],[120.7977,30.8302],[120.7999,30.8265],[120.8057,30.8279],[120.8113,30.834],[120.8067,30.8356],[120.8058,30.8411],[120.8171,30.8429],[120.8168,30.8358],[120.8185,30.8308],[120.8196,30.8291],[120.8346,30.8404],[120.8448,30.8446],[120.8453,30.8426],[120.8553,30.8356],[120.8657,30.8328],[120.8727,30.8287],[120.8605,30.8197],[120.8592,30.8158],[120.8538,30.8099],[120.8517,30.8032],[120.8456,30.7985],[120.8455,30.7865],[120.8559,30.7914],[120.8622,30.7901],[120.8767,30.7921],[120.8801,30.7897],[120.886,30.7916],[120.8984,30.7911],[120.8996,30.7788],[120.8976,30.775],[120.9107,30.7741],[120.9118,30.7807],[120.9176,30.7796],[120.9164,30.7708],[120.9146,30.7672],[120.9159,30.7612],[120.9326,30.774],[120.9366,30.7761],[120.9467,30.776],[120.95,30.7783],[120.9579,30.779]]]},"properties":{"region_code":"CN-33-3304-330421","parent_region_code":"CN-33-3304","name":"嘉善县","level":"county","has_children":false,"full_path":"中国 / 浙江省 / 嘉兴市 / 嘉善县","source_admin_code":"330421","osm_relation_id":4590587}},
{"type":"Feature","geometry":{"type":"Polygon","coordinates":[[[120.7718,30.6296],[120.7607,30.6221],[120.7539,30.6219],[120.7547,30.6152],[120.7518,30.6118],[120.7455,30.6081],[120.7427,30.604],[120.7353,30.6041],[120.7267,30.6028],[120.7276,30.5938],[120.723,30.588],[120.7233,30.5801],[120.7286,30.5728],[120.7255,30.5687],[120.727,30.5662],[120.7371,30.5653],[120.744,30.5657],[120.7447,30.5616],[120.748,30.5569],[120.7465,30.5529],[120.7509,30.5479],[120.7476,30.5389],[120.7431,30.5336],[120.7498,30.5229],[120.7674,30.5159],[120.7763,30.5145],[120.7803,30.5041],[120.776,30.5031],[120.7811,30.4943],[120.7873,30.4796],[120.7959,30.4706],[120.7907,30.4628],[120.7922,30.4572],[120.7968,30.455],[120.7978,30.4463],[120.8064,30.4476],[120.8076,30.4422],[120.8064,30.4392],[120.8022,30.4397],[120.7986,30.4373],[120.7989,30.4325],[120.8033,30.4311],[120.8151,30.4319],[120.8135,30.4277],[120.8177,30.4261],[120.8192,30.4225],[120.8171,30.4182],[120.8149,30.4086],[120.8162,30.4071],[120.8159,30.3988],[120.8106,30.4004],[120.8079,30.3906],[120.8151,30.3834],[120.8159,30.3801],[120.8215,30.3766],[120.824,30.3772],[120.8315,30.3724],[120.8348,30.3668],[120.8355,30.3595],[120.8386,30.3539],[120.836,30.3506],[120.838,30.3285],[120.8406,30.3057],[120.8706,30.2655],[120.8825,30.2647],[120.8994,30.2656],[120.9034,30.2668],[120.9339,30.2795],[120.9542,30.2908],[120.9914,30.3135],[121.1068,30.4087],[121.1994,30.4514],[121.1292,30.5341],[121.1025,30.5451],[121.074,30.562],[121.0515,30.5791],[121.0437,30.594],[121.0456,30.5949],[121.0415,30.6048],[121.0384,30.6079],[121.0332,30.6098],[121.0389,30.6132],[121.0357,30.6214],[121.0323,30.6252],[121.0308,30.6343],[121.0269,30.6346],[121.01,30.6234],[121.0067,30.6241],[121.0034,30.621],[120.9941,30.631],[120.9858,30.6287],[120.9845,30.631],[120.9781,30.6238],[120.9721,30.6293],[120.9751,30.6363],[120.9743,30.6398],[120.9645,30.6415],[120.9637,30.6378],[120.9524,30.635],[120.9534,30.6305],[120.9425,30.6279],[120.9428,30.6258],[120.9358,30.6234],[120.9388,30.6181],[120.9344,30.6175],[120.9327,30.6102],[120.9212,30.6102],[120.9155,30.6143],[120.9056,30.6164],[120.8975,30.6122],[120.8969,30.6179],[120.8763,30.6136],[120.8726,30.6151],[120.8656,30.6112],[120.8585,30.61],[120.8492,30.6121],[120.8436,30.6152],[120.8426,30.6202],[120.8392,30.6196],[120.8341,30.6221],[120.8286,30.623],[120.8284,30.6263],[120.8207,30.6257],[120.809,30.6274],[120.806,30.6288],[120.8015,30.6366],[120.7939,30.6343],[120.7924,30.6296],[120.7961,30.618],[120.7933,30.6172],[120.7964,30.6098],[120.7908,30.6104],[120.7889,30.6058],[120.7831,30.6075],[120.7775,30.6184],[120.7744,30.6179],[120.7718,30.6296]]]},"properties":{"region_code":"CN-33-3304-330424","parent_region_code":"CN-33-3304","name":"海盐县","level":"county","has_children":false,"full_path":"中国 / 浙江省 / 嘉兴市 / 海盐县","source_admin_code":"330424","osm_relation_id":4590573}},
{"type":"Feature","geometry":{"type":"Polygon","coordinates":[[[120.6444,30.5866],[120.6436,30.5813],[120.6455,30.5797],[120.6513,30.5818],[120.6542,30.5733],[120.6638,30.5577],[120.6533,30.5537],[120.6563,30.5465],[120.6522,30.5445],[120.6537,30.5386],[120.6457,30.5391],[120.6415,30.5379],[120.6299,30.5376],[120.6232,30.5359],[120.6182,30.5385],[120.6071,30.5378],[120.6031,30.5421],[120.6037,30.5292],[120.5988,30.5298],[120.5927,30.5324],[120.5928,30.5245],[120.5802,30.5229],[120.5791,30.5259],[120.5707,30.5239],[120.57,30.5162],[120.567,30.513],[120.5571,30.5091],[120.5542,30.5067],[120.5569,30.5028],[120.5548,30.5007],[120.5555,30.4936],[120.5601,30.4908],[120.5589,30.4871],[120.5329,30.4858],[120.5322,30.4837],[120.5252,30.4854],[120.5096,30.4847],[120.5085,30.4898],[120.5016,30.4934],[120.4976,30.501],[120.4913,30.4967],[120.4777,30.4956],[120.4707,30.5063],[120.464,30.5061],[120.4625,30.4996],[120.4533,30.5004],[120.4531,30.4975],[120.4396,30.4977],[120.4366,30.4952],[120.4322,30.5043],[120.4266,30.5048],[120.4268,30.4928],[120.4216,30.491],[120.4193,30.4865],[120.4008,30.4904],[120.3871,30.4953],[120.3721,30.4926],[120.3717,30.4858],[120.3698,30.4776],[120.3633,30.4766],[120.3598,30.4845],[120.3512,30.4798],[120.3491,30.4814],[120.34,30.4794],[120.3406,30.474],[120.3355,30.474],[120.3372,30.4684],[120.3326,30.4665],[120.3334,30.4531],[120.3358,30.4486],[120.3348,30.4423],[120.3356,30.4363],[120.3311,30.4352],[120.332,30.4318],[120.3262,30.4296],[120.3281,30.4271],[120.3283,30.4183],[120.324,30.4177],[120.3166,30.4103],[120.3174,30.407],[120.3063,30.4032],[120.3016,30.3991],[120.3048,30.3957],[120.3107,30.3977],[120.3144,30.3911],[120.3133,30.389],[120.315,30.3813],[120.3201,30.3811],[120.3281,30.3776],[120.337,30.3785],[120.3372,30.3755],[120.3408,30.3718],[120.3501,30.3754],[120.3533,30.3756],[120.3747,30.3823],[120.3953,30.3863],[120.3962,30.3753],[120.393,30.3729],[120.3833,30.3726],[120.3753,30.3589],[120.3768,30.3568],[120.3742,30.3522],[120.3747,30.3464],[120.3935,30.3306],[120.4084,30.3188],[120.4143,30.3333],[120.4187,30.3427],[120.4242,30.3568],[120.4301,30.3684],[120.4369,30.3803],[120.443,30.3829],[120.4678,30.3872],[120.5044,30.3926],[120.5215,30.392],[120.5391,30.3908],[120.5892,30.3905],[120.6065,30.39],[120.6173,30.3905],[120.6363,30.3895],[120.6458,30.3878],[120.66,30.3823],[120.6757,30.3753],[120.6923,30.3644],[120.6991,30.3593],[120.7067,30.3512],[120.7104,30.3406],[120.714,30.3246],[120.7189,30.3114],[120.7248,30.3004],[120.7365,30.2839],[120.7509,30.2703],[120.7607,30.2632],[120.7817,30.2588],[120.7966,30.2576],[120.8091,30.2579],[120.8225,30.2593],[120.8439,30.2635],[120.855,30.265],[120.8706,30.2655],[120.8406,30.3057],[120.838,30.3285],[120.836,30.3506],[120.8386,30.3539],[120.8355,30.3595],[120.8348,30.3668],[120.8315,30.3724],[120.824,30.3772],[120.8215,30.3766],[120.8159,30.3801],[120.8151,30.3834],[120.8079,30.3906],[120.8106,30.4004],[120.8159,30.3988],[120.8162,30.4071],[120.8149,30.4086],[120.8171,30.4182],[120.8192,30.4225],[120.8177,30.4261],[120.8135,30.4277],[120.8151,30.4319],[120.8033,30.4311],[120.7989,30.4325],[120.7986,30.4373],[120.8022,30.4397],[120.8064,30.4392],[120.8076,30.4422],[120.8064,30.4476],[120.7978,30.4463],[120.7968,30.455],[120.7922,30.4572],[120.7907,30.4628],[120.7959,30.4706],[120.7873,30.4796],[120.7811,30.4943],[120.776,30.5031],[120.7803,30.5041],[120.7763,30.5145],[120.7674,30.5159],[120.7498,30.5229],[120.7431,30.5336],[120.7476,30.5389],[120.7509,30.5479],[120.7465,30.5529],[120.748,30.5569],[120.7447,30.5616],[120.744,30.5657],[120.7371,30.5653],[120.727,30.5662],[120.7255,30.5687],[120.7286,30.5728],[120.7233,30.5801],[120.723,30.588],[120.7153,30.5835],[120.6945,30.5871],[120.6617,30.583],[120.6572,30.5894],[120.6524,30.5902],[120.6504,30.5929],[120.6444,30.5866]]]},"properties":{"region_code":"CN-33-3304-330481","parent_region_code":"CN-33-3304","name":"海宁市","level":"county","has_children":false,"full_path":"中国 / 浙江省 / 嘉兴市 / 海宁市","source_admin_code":"330481","osm_relation_id":4590545}},
{"type":"Feature","geometry":{"type":"Polygon","coordinates":[[[120.9524,30.635],[120.9637,30.6378],[120.9645,30.6415],[120.9743,30.6398],[120.9751,30.6363],[120.9721,30.6293],[120.9781,30.6238],[120.9845,30.631],[120.9858,30.6287],[120.9941,30.631],[121.0034,30.621],[121.0067,30.6241],[121.01,30.6234],[121.0269,30.6346],[121.0308,30.6343],[121.0323,30.6252],[121.0357,30.6214],[121.0389,30.6132],[121.0332,30.6098],[121.0384,30.6079],[121.0415,30.6048],[121.0456,30.5949],[121.0437,30.594],[121.0515,30.5791],[121.074,30.562],[121.1025,30.5451],[121.1292,30.5341],[121.1994,30.4514],[121.206,30.4544],[121.3143,30.4408],[121.3895,30.3793],[121.5062,30.2836],[121.5062,30.485],[121.5063,30.6786],[121.4223,30.6714],[121.3507,30.6694],[121.2744,30.6801],[121.2685,30.6917],[121.2655,30.7045],[121.2608,30.7121],[121.2637,30.7147],[121.262,30.7178],[121.2647,30.7226],[121.2687,30.7245],[121.2641,30.737],[121.2609,30.737],[121.2516,30.7464],[121.2281,30.758],[121.225,30.7696],[121.2184,30.7781],[121.216,30.7849],[121.213,30.7879],[121.2017,30.7879],[121.195,30.7854],[121.1965,30.776],[121.1925,30.7756],[121.1867,30.7821],[121.1817,30.7811],[121.1807,30.7782],[121.1728,30.7758],[121.1663,30.7784],[121.1587,30.7774],[121.1484,30.7809],[121.1392,30.7817],[121.1364,30.7793],[121.1278,30.7793],[121.1226,30.7809],[121.1214,30.7949],[121.1227,30.8056],[121.1257,30.8178],[121.1335,30.8288],[121.1299,30.8303],[121.13,30.8354],[121.1215,30.8382],[121.1159,30.8384],[121.1157,30.8453],[121.1193,30.8496],[121.1067,30.8539],[121.1004,30.8517],[121.0969,30.853],[121.0927,30.859],[121.0759,30.8509],[121.0625,30.8509],[121.0564,30.8473],[121.0569,30.8407],[121.043,30.8331],[121.0449,30.8283],[121.0377,30.8276],[121.035,30.8232],[121.039,30.8225],[121.0405,30.8182],[121.0335,30.8165],[121.0303,30.8154],[121.0311,30.8056],[121.0285,30.8049],[121.0285,30.7963],[121.0215,30.7947],[121.021,30.7899],[121.024,30.785],[121.0187,30.7823],[121.0124,30.7839],[121.0083,30.7798],[121.0078,30.7766],[121.0001,30.7772],[120.9905,30.7757],[120.9859,30.7806],[120.9753,30.7818],[120.9757,30.7848],[120.9665,30.7831],[120.9662,30.7802],[120.9579,30.779],[120.9588,30.7623],[120.9568,30.7578],[120.9632,30.7578],[120.9641,30.7501],[120.9708,30.7514],[120.9734,30.7505],[120.9693,30.742],[120.9681,30.7371],[120.9674,30.7255],[120.9733,30.7268],[120.978,30.7224],[120.9754,30.7193],[120.9748,30.7131],[120.9756,30.7059],[120.9589,30.703],[120.9474,30.7046],[120.948,30.6928],[120.9499,30.685],[120.9489,30.676],[120.9504,30.664],[120.9522,30.6564],[120.9514,30.6481],[120.9483,30.6422],[120.9497,30.6351],[120.9524,30.635]]]},"properties":{"region_code":"CN-33-3304-330482","parent_region_code":"CN-33-3304","name":"平湖市","level":"county","has_children":false,"full_path":"中国 / 浙江省 / 嘉兴市 / 平湖市","source_admin_code":"330482","osm_relation_id":4590572}},
{"type":"Feature","geometry":{"type":"Polygon","coordinates":[[[120.5293,30.7968],[120.5136,30.7753],[120.5009,30.7609],[120.4984,30.7607],[120.4847,30.7659],[120.4766,30.7657],[120.4749,30.7672],[120.4653,30.7668],[120.4699,30.7573],[120.4679,30.7498],[120.4704,30.748],[120.4702,30.7438],[120.4749,30.7437],[120.4773,30.7362],[120.4799,30.7351],[120.4819,30.7302],[120.4733,30.7159],[120.462,30.7039],[120.4578,30.7044],[120.4482,30.7034],[120.4382,30.7046],[120.4391,30.6973],[120.4431,30.6917],[120.4512,30.6878],[120.4473,30.6808],[120.4333,30.6843],[120.4295,30.6823],[120.4231,30.6827],[120.414,30.6792],[120.4039,30.6792],[120.4014,30.673],[120.3945,30.6745],[120.3878,30.6746],[120.3749,30.6715],[120.3752,30.6618],[120.3737,30.6587],[120.3659,30.6603],[120.3589,30.6575],[120.3501,30.6659],[120.3448,30.6648],[120.3431,30.6596],[120.3366,30.6617],[120.3343,30.6597],[120.3399,30.6532],[120.3388,30.6414],[120.3366,30.6405],[120.3355,30.6222],[120.331,30.6178],[120.3145,30.6146],[120.312,30.6157],[120.3043,30.6149],[120.2995,30.6127],[120.3005,30.6083],[120.2983,30.6056],[120.2958,30.5973],[120.3049,30.5907],[120.3083,30.5865],[120.3123,30.5872],[120.3146,30.5806],[120.3073,30.5728],[120.2971,30.5679],[120.2911,30.5667],[120.2934,30.5629],[120.2962,30.5529],[120.2934,30.5492],[120.2975,30.5389],[120.2939,30.533],[120.2948,30.522],[120.3033,30.5232],[120.3145,30.5233],[120.318,30.515],[120.3178,30.5109],[120.3233,30.4939],[120.3211,30.4794],[120.3259,30.4716],[120.3311,30.4754],[120.3355,30.474],[120.3406,30.474],[120.34,30.4794],[120.3491,30.4814],[120.3512,30.4798],[120.3598,30.4845],[120.3633,30.4766],[120.3698,30.4776],[120.3717,30.4858],[120.3721,30.4926],[120.3871,30.4953],[120.4008,30.4904],[120.4193,30.4865],[120.4216,30.491],[120.4268,30.4928],[120.4266,30.5048],[120.4322,30.5043],[120.4366,30.4952],[120.4396,30.4977],[120.4531,30.4975],[120.4533,30.5004],[120.4625,30.4996],[120.464,30.5061],[120.4707,30.5063],[120.4777,30.4956],[120.4913,30.4967],[120.4976,30.501],[120.5016,30.4934],[120.5085,30.4898],[120.5096,30.4847],[120.5252,30.4854],[120.5322,30.4837],[120.5329,30.4858],[120.5589,30.4871],[120.5601,30.4908],[120.5555,30.4936],[120.5548,30.5007],[120.5569,30.5028],[120.5542,30.5067],[120.5571,30.5091],[120.567,30.513],[120.57,30.5162],[120.5707,30.5239],[120.5791,30.5259],[120.5802,30.5229],[120.5928,30.5245],[120.5927,30.5324],[120.5988,30.5298],[120.6037,30.5292],[120.6031,30.5421],[120.6071,30.5378],[120.6182,30.5385],[120.6232,30.5359],[120.6299,30.5376],[120.6415,30.5379],[120.6457,30.5391],[120.6537,30.5386],[120.6522,30.5445],[120.6563,30.5465],[120.6533,30.5537],[120.6638,30.5577],[120.6542,30.5733],[120.6513,30.5818],[120.6455,30.5797],[120.6436,30.5813],[120.6444,30.5866],[120.6383,30.5862],[120.6313,30.5912],[120.6169,30.5896],[120.6126,30.5903],[120.61,30.5996],[120.6072,30.6012],[120.6079,30.6079],[120.6052,30.6087],[120.6009,30.6149],[120.6017,30.6191],[120.6114,30.6198],[120.6118,30.6314],[120.6226,30.6273],[120.6246,30.6306],[120.6216,30.6348],[120.6266,30.6417],[120.6309,30.6422],[120.6293,30.6512],[120.6268,30.6535],[120.627,30.6599],[120.6319,30.6631],[120.6331,30.667],[120.6321,30.6723],[120.6364,30.6762],[120.6364,30.6811],[120.6415,30.683],[120.64,30.6887],[120.6259,30.6911],[120.618,30.7007],[120.6116,30.7098],[120.601,30.7043],[120.586,30.7259],[120.5822,30.729],[120.5792,30.7261],[120.5735,30.7307],[120.5767,30.7335],[120.5703,30.7387],[120.5705,30.7428],[120.5682,30.7464],[120.5599,30.7456],[120.5589,30.7785],[120.5552,30.7917],[120.5481,30.7899],[120.5446,30.7931],[120.5373,30.792],[120.5321,30.7931],[120.5293,30.7968]]]},"properties":{"region_code":"CN-33-3304-330483","parent_region_code":"CN-33-3304","name":"桐乡市","level":"county","has_children":false,"full_path":"中国 / 浙江省 / 嘉兴市 / 桐乡市","source_admin_code":"330483","osm_relation_id":4590513}}
]}