{"type":"FeatureCollection", "features": [
{"type":"Feature","geometry":{"type":"Polygon","coordinates":[[[119.0531,36.5841],[119.0805,36.6005],[119.09,36.616],[119.099,36.6485],[119.0919,36.6615],[119.107,36.6714],[119.0947,36.6893],[119.1077,36.7026],[119.1041,36.7418],[119.1178,36.804],[119.0595,36.7979],[119.0456,36.7786],[119.0046,36.7778],[118.991,36.8037],[118.9671,36.807],[118.9455,36.787],[118.9427,36.7627],[118.9599,36.7523],[118.9415,36.6658],[118.939,36.6332],[118.9494,36.609],[118.9898,36.603],[119.0065,36.5952],[119.0532,36.5958],[119.0531,36.5841]]]},"properties":{"region_code":"CN-37-3707-370702","parent_region_code":"CN-37-3707","name":"潍城区","level":"county","has_children":false,"full_path":"中国 / 山东省 / 潍坊市 / 潍城区","source_admin_code":"370702","osm_relation_id":3468768}},
{"type":"Feature","geometry":{"type":"Polygon","coordinates":[[[119.1178,36.804],[119.1425,36.7928],[119.1381,36.7757],[119.1492,36.7685],[119.1503,36.7493],[119.1614,36.7396],[119.2018,36.7313],[119.2413,36.7298],[119.2956,36.7213],[119.3387,36.7295],[119.3492,36.7367],[119.374,36.7283],[119.4056,36.7305],[119.4287,36.724],[119.4301,36.7714],[119.4073,36.7949],[119.3874,36.7933],[119.3484,36.759],[119.3166,36.7776],[119.3265,36.7912],[119.3155,36.8061],[119.3142,36.8246],[119.2956,36.8248],[119.2797,36.8108],[119.2529,36.805],[119.2303,36.8137],[119.2148,36.8397],[119.2281,36.8518],[119.2171,36.8992],[119.2247,36.9045],[119.2331,36.9479],[119.2412,36.9625],[119.2436,37.0053],[119.2505,37.0587],[119.2422,37.0827],[119.2699,37.1084],[119.2884,37.1447],[119.2883,37.1672],[119.3564,37.3598],[119.2432,37.3723],[119.1193,37.3459],[119.0267,37.2191],[119.0151,37.2199],[119.0145,37.1935],[118.9614,37.1931],[118.9498,37.1979],[118.9043,37.1973],[118.8932,37.1856],[118.8945,37.1247],[118.9253,37.1244],[118.9302,37.086],[118.9503,37.081],[118.9669,37.0635],[119.0024,37.0814],[119.0617,37.0821],[119.0909,37.0855],[119.1127,37.0811],[119.0878,37.056],[119.0881,37.0432],[119.0697,37.0144],[119.0767,36.9879],[119.0351,36.9669],[119.0169,36.9385],[119.0033,36.9275],[118.9963,36.9032],[119.0124,36.8806],[119.0001,36.8771],[119.0071,36.8577],[119.0002,36.8162],[118.9671,36.807],[118.991,36.8037],[119.0046,36.7778],[119.0456,36.7786],[119.0595,36.7979],[119.1178,36.804]]]},"properties":{"region_code":"CN-37-3707-370703","parent_region_code":"CN-37-3707","name":"寒亭区","level":"county","has_children":false,"full_path":"中国 / 山东省 / 潍坊市 / 寒亭区","source_admin_code":"370703","osm_relation_id":3468763}},
{"type":"Feature","geometry":{"type":"Polygon","coordinates":[[[119.0531,36.5841],[119.0737,36.567],[119.0955,36.5685],[119.1106,36.5539],[119.112,36.5218],[119.1367,36.5044],[119.149,36.5219],[119.1704,36.5334],[119.1809,36.5293],[119.2046,36.5487],[119.2437,36.5532],[119.2742,36.5409],[119.2777,36.5273],[119.3069,36.5132],[119.3119,36.4988],[119.361,36.4894],[119.3619,36.4576],[119.337,36.4515],[119.3302,36.4298],[119.3619,36.4242],[119.3719,36.3735],[119.3332,36.3859],[119.3233,36.3548],[119.3379,36.3426],[119.3545,36.3436],[119.3856,36.3618],[119.3956,36.3451],[119.3851,36.3336],[119.4032,36.3144],[119.448,36.3129],[119.4445,36.2835],[119.4752,36.2731],[119.4744,36.2828],[119.5034,36.2903],[119.4984,36.3234],[119.5097,36.3423],[119.4907,36.3484],[119.4918,36.383],[119.5132,36.3967],[119.5194,36.4226],[119.5321,36.4436],[119.5574,36.4492],[119.5373,36.5064],[119.5393,36.5427],[119.5105,36.5425],[119.471,36.5634],[119.4781,36.5912],[119.4585,36.5967],[119.4715,36.6302],[119.4404,36.647],[119.3858,36.646],[119.3633,36.6671],[119.4004,36.7107],[119.4287,36.724],[119.4056,36.7305],[119.374,36.7283],[119.3492,36.7367],[119.3387,36.7295],[119.2956,36.7213],[119.3003,36.6996],[119.2903,36.6847],[119.2972,36.6561],[119.2683,36.6513],[119.2657,36.618],[119.2179,36.616],[119.2129,36.6566],[119.142,36.6735],[119.1373,36.646],[119.1455,36.6353],[119.1203,36.6272],[119.1179,36.6081],[119.09,36.616],[119.0805,36.6005],[119.0531,36.5841]]]},"properties":{"region_code":"CN-37-3707-370704","parent_region_code":"CN-37-3707","name":"坊子区","level":"county","has_children":false,"full_path":"中国 / 山东省 / 潍坊市 / 坊子区","source_admin_code":"370704","osm_relation_id":3468761}},
{"type":"Feature","geometry":{"type":"Polygon","coordinates":[[[119.09,36.616],[119.1179,36.6081],[119.1203,36.6272],[119.1455,36.6353],[119.1373,36.646],[119.142,36.6735],[119.2129,36.6566],[119.2179,36.616],[119.2657,36.618],[119.2683,36.6513],[119.2972,36.6561],[119.2903,36.6847],[119.3003,36.6996],[119.2956,36.7213],[119.2413,36.7298],[119.2018,36.7313],[119.1614,36.7396],[119.1503,36.7493],[119.1492,36.7685],[119.1381,36.7757],[119.1425,36.7928],[119.1178,36.804],[119.1041,36.7418],[119.1077,36.7026],[119.0947,36.6893],[119.107,36.6714],[119.0919,36.6615],[119.099,36.6485],[119.09,36.616]]]},"properties":{"region_code":"CN-37-3707-370705","parent_region_code":"CN-37-3707","name":"奎文区","level":"county","has_children":false,"full_path":"中国 / 山东省 / 潍坊市 / 奎文区","source_admin_code":"370705","osm_relation_id":3468764}},
{"type":"Feature","geometry":{"type":"Polygon","coordinates":[[[118.7864,36.3096],[118.7517,36.2862],[118.729,36.3015],[118.7389,36.3176],[118.7324,36.3377],[118.718,36.3558],[118.7409,36.3628],[118.729,36.3956],[118.7662,36.3914],[118.7855,36.3726],[118.7915,36.3915],[118.8062,36.4005],[118.8216,36.4246],[118.8195,36.4421],[118.7915,36.4447],[118.774,36.4522],[118.7643,36.4942],[118.7785,36.5213],[118.7762,36.5553],[118.7662,36.5683],[118.7394,36.5796],[118.7127,36.5703],[118.6921,36.5707],[118.6665,36.595],[118.6641,36.6121],[118.6124,36.612],[118.598,36.6185],[118.5744,36.6099],[118.5574,36.584],[118.5653,36.5595],[118.5242,36.5521],[118.5039,36.5326],[118.4721,36.5376],[118.4082,36.508],[118.3841,36.5119],[118.382,36.4913],[118.3462,36.4671],[118.293,36.4372],[118.2763,36.4455],[118.2623,36.4207],[118.2356,36.4143],[118.2341,36.3909],[118.2538,36.3525],[118.2837,36.3409],[118.3142,36.2873],[118.3137,36.2461],[118.3365,36.2589],[118.3629,36.2535],[118.3798,36.2332],[118.3757,36.1889],[118.3996,36.1583],[118.4035,36.1328],[118.428,36.1238],[118.4588,36.1391],[118.4838,36.1253],[118.4763,36.0911],[118.4845,36.0664],[118.5072,36.0735],[118.5226,36.0922],[118.5197,36.1129],[118.5476,36.1301],[118.5661,36.1569],[118.5769,36.1524],[118.6148,36.1766],[118.639,36.1771],[118.6706,36.1699],[118.6878,36.1487],[118.7092,36.1552],[118.7317,36.1463],[118.7459,36.1947],[118.7469,36.2116],[118.7631,36.2463],[118.7815,36.2708],[118.7864,36.3096]]]},"properties":{"region_code":"CN-37-3707-370724","parent_region_code":"CN-37-3707","name":"临朐县","level":"county","has_children":false,"full_path":"中国 / 山东省 / 潍坊市 / 临朐县","source_admin_code":"370724","osm_relation_id":3468765}},
{"type":"Feature","geometry":{"type":"Polygon","coordinates":[[[118.9427,36.7627],[118.9181,36.7466],[118.8904,36.7476],[118.8668,36.762],[118.8253,36.758],[118.8173,36.7349],[118.7769,36.7385],[118.7577,36.745],[118.7195,36.7197],[118.7138,36.7107],[118.7336,36.6964],[118.7586,36.6966],[118.7652,36.67],[118.7597,36.6621],[118.77,36.6355],[118.7585,36.6287],[118.7546,36.6047],[118.7394,36.5796],[118.7662,36.5683],[118.7762,36.5553],[118.7785,36.5213],[118.7643,36.4942],[118.774,36.4522],[118.7915,36.4447],[118.8195,36.4421],[118.8216,36.4246],[118.8062,36.4005],[118.7915,36.3915],[118.7855,36.3726],[118.7662,36.3914],[118.729,36.3956],[118.7409,36.3628],[118.718,36.3558],[118.7324,36.3377],[118.7389,36.3176],[118.729,36.3015],[118.7517,36.2862],[118.7864,36.3096],[118.7854,36.3275],[118.8048,36.3578],[118.8242,36.3573],[118.8743,36.3301],[118.9155,36.3294],[118.9363,36.3404],[118.9842,36.3455],[119.0085,36.3656],[119.0043,36.3838],[119.0056,36.4278],[119.0146,36.4438],[119.0289,36.4461],[119.0751,36.432],[119.0912,36.4567],[119.1032,36.4639],[119.1735,36.4769],[119.1616,36.5117],[119.149,36.5219],[119.1367,36.5044],[119.112,36.5218],[119.1106,36.5539],[119.0955,36.5685],[119.0737,36.567],[119.0531,36.5841],[119.0532,36.5958],[119.0065,36.5952],[118.9898,36.603],[118.9494,36.609],[118.939,36.6332],[118.9415,36.6658],[118.9599,36.7523],[118.9427,36.7627]]]},"properties":{"region_code":"CN-37-3707-370725","parent_region_code":"CN-37-3707","name":"昌乐县","level":"county","has_children":false,"full_path":"中国 / 山东省 / 潍坊市 / 昌乐县","source_admin_code":"370725","osm_relation_id":3468759}},
{"type":"Feature","geometry":{"type":"Polygon","coordinates":[[[118.7394,36.5796],[118.7546,36.6047],[118.7585,36.6287],[118.77,36.6355],[118.7597,36.6621],[118.7652,36.67],[118.7586,36.6966],[118.7336,36.6964],[118.7138,36.7107],[118.7195,36.7197],[118.6914,36.7506],[118.687,36.7661],[118.6523,36.7722],[118.6566,36.7914],[118.6252,36.8124],[118.6326,36.8424],[118.632,36.878],[118.6139,36.9079],[118.5792,36.9198],[118.5739,36.9434],[118.5567,36.951],[118.5492,36.9379],[118.4707,36.9565],[118.4913,36.9286],[118.4773,36.9002],[118.477,36.8787],[118.4591,36.8609],[118.4761,36.8524],[118.4335,36.8369],[118.4321,36.8098],[118.4141,36.7958],[118.3784,36.7866],[118.3444,36.7678],[118.2922,36.7771],[118.2922,36.753],[118.2734,36.751],[118.2663,36.7379],[118.2276,36.7245],[118.2316,36.7127],[118.2104,36.6753],[118.2149,36.6617],[118.201,36.6369],[118.21,36.6174],[118.1746,36.5934],[118.175,36.5606],[118.1862,36.5457],[118.2088,36.5391],[118.2048,36.5031],[118.2104,36.4783],[118.2241,36.4674],[118.2271,36.4327],[118.2356,36.4143],[118.2623,36.4207],[118.2763,36.4455],[118.293,36.4372],[118.3462,36.4671],[118.382,36.4913],[118.3841,36.5119],[118.4082,36.508],[118.4721,36.5376],[118.5039,36.5326],[118.5242,36.5521],[118.5653,36.5595],[118.5574,36.584],[118.5744,36.6099],[118.598,36.6185],[118.6124,36.612],[118.6641,36.6121],[118.6665,36.595],[118.6921,36.5707],[118.7127,36.5703],[118.7394,36.5796]]]},"properties":{"region_code":"CN-37-3707-370781","parent_region_code":"CN-37-3707","name":"青州市","level":"county","has_children":false,"full_path":"中国 / 山东省 / 潍坊市 / 青州市","source_admin_code":"370781","osm_relation_id":3468766}},
{"type":"Feature","geometry":{"type":"Polygon","coordinates":[[[119.4445,36.2835],[119.4336,36.2648],[119.3932,36.2516],[119.3507,36.2181],[119.3213,36.2175],[119.2982,36.2025],[119.2754,36.1956],[119.2368,36.2048],[119.1953,36.1963],[119.1691,36.1848],[119.1732,36.1715],[119.1145,36.1341],[119.0924,36.1002],[119.0721,36.0988],[119.0573,36.0861],[119.0341,36.0409],[119.0421,36.0245],[119.0042,36.0237],[118.9961,36.0061],[119.0221,35.9765],[119.0489,35.9806],[119.0601,35.9645],[119.1177,35.9639],[119.1729,35.9755],[119.1769,35.9667],[119.1724,35.9242],[119.1402,35.8997],[119.1904,35.8823],[119.2489,35.8971],[119.2833,35.9169],[119.2915,35.9011],[119.3116,35.8937],[119.3356,35.904],[119.3525,35.8952],[119.3657,35.8649],[119.3526,35.8496],[119.3672,35.8392],[119.3684,35.8206],[119.3616,35.7815],[119.3702,35.7751],[119.422,35.8065],[119.4591,35.8131],[119.4878,35.7944],[119.481,35.7762],[119.4844,35.7578],[119.5034,35.7528],[119.5173,35.7277],[119.5486,35.729],[119.5693,35.7173],[119.5974,35.717],[119.6218,35.7243],[119.5862,35.7633],[119.5934,35.7785],[119.6077,35.7833],[119.6195,35.8005],[119.6198,35.828],[119.6393,35.8491],[119.6708,35.8542],[119.6935,35.8693],[119.7219,35.8678],[119.722,35.8964],[119.712,35.918],[119.696,35.9348],[119.6806,35.9751],[119.6797,35.9978],[119.7017,36.0271],[119.7018,36.048],[119.6541,36.0655],[119.6283,36.0678],[119.6268,36.0916],[119.6517,36.1009],[119.6389,36.1291],[119.6471,36.1435],[119.6206,36.1682],[119.6023,36.1972],[119.587,36.1952],[119.5624,36.1578],[119.5348,36.1555],[119.521,36.1839],[119.5084,36.1914],[119.4346,36.2017],[119.4361,36.212],[119.4628,36.2624],[119.4752,36.2731],[119.4445,36.2835]]]},"properties":{"region_code":"CN-37-3707-370782","parent_region_code":"CN-37-3707","name":"诸城市","level":"county","has_children":false,"full_path":"中国 / 山东省 / 潍坊市 / 诸城市","source_admin_code":"370782","osm_relation_id":3468769}},
{"type":"Feature","geometry":{"type":"Polygon","coordinates":[[[118.9671,36.807],[119.0002,36.8162],[119.0071,36.8577],[119.0001,36.8771],[119.0124,36.8806],[118.9963,36.9032],[119.0033,36.9275],[119.0169,36.9385],[119.0351,36.9669],[119.0767,36.9879],[119.0697,37.0144],[119.0881,37.0432],[119.0878,37.056],[119.1127,37.0811],[119.0909,37.0855],[119.0617,37.0821],[119.0024,37.0814],[118.9669,37.0635],[118.9503,37.081],[118.9302,37.086],[118.9253,37.1244],[118.8945,37.1247],[118.8932,37.1856],[118.9043,37.1973],[118.9498,37.1979],[118.9614,37.1931],[119.0145,37.1935],[119.0151,37.2199],[119.0267,37.2191],[119.1193,37.3459],[118.9549,37.311],[118.9297,37.296],[118.901,37.2977],[118.8178,37.2884],[118.7733,37.2797],[118.7043,37.2409],[118.6693,37.2282],[118.6605,37.1988],[118.6496,37.1834],[118.6473,37.1549],[118.6657,37.1336],[118.6694,37.1184],[118.6629,37.0894],[118.6351,37.0674],[118.6123,37.0606],[118.5817,37.0625],[118.5529,37.0567],[118.5569,37.0406],[118.5416,37.0302],[118.5824,37.0116],[118.546,36.9873],[118.5567,36.951],[118.5739,36.9434],[118.5792,36.9198],[118.6139,36.9079],[118.632,36.878],[118.6326,36.8424],[118.6252,36.8124],[118.6566,36.7914],[118.6523,36.7722],[118.687,36.7661],[118.6914,36.7506],[118.7195,36.7197],[118.7577,36.745],[118.7769,36.7385],[118.8173,36.7349],[118.8253,36.758],[118.8668,36.762],[118.8904,36.7476],[118.9181,36.7466],[118.9427,36.7627],[118.9455,36.787],[118.9671,36.807]]]},"properties":{"region_code":"CN-37-3707-370783","parent_region_code":"CN-37-3707","name":"寿光市","level":"county","has_children":false,"full_path":"中国 / 山东省 / 潍坊市 / 寿光市","source_admin_code":"370783","osm_relation_id":3468767}},
{"type":"Feature","geometry":{"type":"Polygon","coordinates":[[[119.149,36.5219],[119.1616,36.5117],[119.1735,36.4769],[119.1032,36.4639],[119.0912,36.4567],[119.0751,36.432],[119.0289,36.4461],[119.0146,36.4438],[119.0056,36.4278],[119.0043,36.3838],[119.0085,36.3656],[118.9842,36.3455],[118.9363,36.3404],[118.9155,36.3294],[118.8743,36.3301],[118.8242,36.3573],[118.8048,36.3578],[118.7854,36.3275],[118.7864,36.3096],[118.7815,36.2708],[118.7631,36.2463],[118.7469,36.2116],[118.7459,36.1947],[118.7557,36.2051],[118.7824,36.1971],[118.8306,36.2029],[118.8422,36.1965],[118.8396,36.1771],[118.8537,36.1627],[118.8528,36.127],[118.8631,36.098],[118.8769,36.0844],[118.9067,36.0961],[118.9098,36.111],[118.9412,36.1164],[118.9779,36.0939],[119.0088,36.0991],[119.0573,36.0861],[119.0721,36.0988],[119.0924,36.1002],[119.1145,36.1341],[119.1732,36.1715],[119.1691,36.1848],[119.1953,36.1963],[119.2368,36.2048],[119.2754,36.1956],[119.2982,36.2025],[119.3213,36.2175],[119.3507,36.2181],[119.3932,36.2516],[119.4336,36.2648],[119.4445,36.2835],[119.448,36.3129],[119.4032,36.3144],[119.3851,36.3336],[119.3956,36.3451],[119.3856,36.3618],[119.3545,36.3436],[119.3379,36.3426],[119.3233,36.3548],[119.3332,36.3859],[119.3719,36.3735],[119.3619,36.4242],[119.3302,36.4298],[119.337,36.4515],[119.3619,36.4576],[119.361,36.4894],[119.3119,36.4988],[119.3069,36.5132],[119.2777,36.5273],[119.2742,36.5409],[119.2437,36.5532],[119.2046,36.5487],[119.1809,36.5293],[119.1704,36.5334],[119.149,36.5219]]]},"properties":{"region_code":"CN-37-3707-370784","parent_region_code":"CN-37-3707","name":"安丘市","level":"county","has_children":false,"full_path":"中国 / 山东省 / 潍坊市 / 安丘市","source_admin_code":"370784","osm_relation_id":3468758}},
{"type":"Feature","geometry":{"type":"Polygon","coordinates":[[[119.4752,36.2731],[119.4628,36.2624],[119.4361,36.212],[119.4346,36.2017],[119.5084,36.1914],[119.521,36.1839],[119.5348,36.1555],[119.5624,36.1578],[119.587,36.1952],[119.6023,36.1972],[119.6206,36.1682],[119.6471,36.1435],[119.6657,36.1779],[119.7173,36.1756],[119.7426,36.1586],[119.7869,36.1716],[119.8035,36.167],[119.8261,36.1849],[119.8027,36.2328],[119.8251,36.2605],[119.8286,36.2788],[119.8636,36.3108],[119.8846,36.3181],[119.9047,36.3844],[119.9403,36.3846],[119.9213,36.4033],[119.9201,36.4193],[119.9435,36.4441],[119.9633,36.4501],[120.0006,36.4484],[120.0075,36.4676],[119.9988,36.4772],[119.9945,36.5034],[119.9534,36.5206],[119.9302,36.5107],[119.9125,36.526],[119.8398,36.5377],[119.7747,36.562],[119.746,36.5679],[119.6918,36.6043],[119.6764,36.6068],[119.6156,36.6423],[119.5912,36.69],[119.5592,36.6816],[119.5418,36.6564],[119.5398,36.6409],[119.5576,36.6295],[119.5818,36.5883],[119.5952,36.5813],[119.5974,36.5596],[119.6117,36.5452],[119.6168,36.5184],[119.6116,36.5047],[119.6189,36.4845],[119.6081,36.4525],[119.5907,36.4467],[119.5574,36.4492],[119.5321,36.4436],[119.5194,36.4226],[119.5132,36.3967],[119.4918,36.383],[119.4907,36.3484],[119.5097,36.3423],[119.4984,36.3234],[119.5034,36.2903],[119.4744,36.2828],[119.4752,36.2731]]]},"properties":{"region_code":"CN-37-3707-370785","parent_region_code":"CN-37-3707","name":"高密市","level":"county","has_children":false,"full_path":"中国 / 山东省 / 潍坊市 / 高密市","source_admin_code":"370785","osm_relation_id":3468762}},
{"type":"Feature","geometry":{"type":"Polygon","coordinates":[[[119.4287,36.724],[119.4004,36.7107],[119.3633,36.6671],[119.3858,36.646],[119.4404,36.647],[119.4715,36.6302],[119.4585,36.5967],[119.4781,36.5912],[119.471,36.5634],[119.5105,36.5425],[119.5393,36.5427],[119.5373,36.5064],[119.5574,36.4492],[119.5907,36.4467],[119.6081,36.4525],[119.6189,36.4845],[119.6116,36.5047],[119.6168,36.5184],[119.6117,36.5452],[119.5974,36.5596],[119.5952,36.5813],[119.5818,36.5883],[119.5576,36.6295],[119.5398,36.6409],[119.5418,36.6564],[119.5592,36.6816],[119.5912,36.69],[119.5744,36.7117],[119.5438,36.7229],[119.5308,36.7415],[119.5253,36.7696],[119.5359,36.8073],[119.5626,36.8057],[119.5923,36.8572],[119.5944,36.9205],[119.5779,36.9495],[119.5919,36.988],[119.5991,36.9952],[119.6079,37.0292],[119.6002,37.0394],[119.5499,37.0597],[119.5571,37.0898],[119.5744,37.118],[119.5527,37.3562],[119.3564,37.3598],[119.2883,37.1672],[119.2884,37.1447],[119.2699,37.1084],[119.2422,37.0827],[119.2505,37.0587],[119.2436,37.0053],[119.2412,36.9625],[119.2331,36.9479],[119.2247,36.9045],[119.2171,36.8992],[119.2281,36.8518],[119.2148,36.8397],[119.2303,36.8137],[119.2529,36.805],[119.2797,36.8108],[119.2956,36.8248],[119.3142,36.8246],[119.3155,36.8061],[119.3265,36.7912],[119.3166,36.7776],[119.3484,36.759],[119.3874,36.7933],[119.4073,36.7949],[119.4301,36.7714],[119.4287,36.724]]]},"properties":{"region_code":"CN-37-3707-370786","parent_region_code":"CN-37-3707","name":"昌邑市","level":"county","has_children":false,"full_path":"中国 / 山东省 / 潍坊市 / 昌邑市","source_admin_code":"370786","osm_relation_id":3468760}}
]}