{"type":"FeatureCollection", "features": [
{"type":"Feature","geometry":{"type":"Polygon","coordinates":[[[119.0528,35.4538],[119.0594,35.465],[119.0912,35.4595],[119.1051,35.4418],[119.1297,35.4434],[119.1583,35.4358],[119.1737,35.4375],[119.171,35.4183],[119.1759,35.4039],[119.1878,35.3942],[119.1926,35.3656],[119.2006,35.35],[119.2407,35.3373],[119.2499,35.3457],[119.2702,35.3379],[119.2912,35.356],[119.3159,35.3634],[119.3364,35.3631],[119.3707,35.3768],[119.3836,35.3757],[119.3815,35.3595],[119.3889,35.3246],[119.3755,35.3063],[119.347,35.2916],[119.3124,35.2956],[119.2978,35.2418],[119.3046,35.2325],[119.3193,35.2345],[119.3402,35.2237],[119.3441,35.206],[119.3709,35.2077],[119.3898,35.1986],[120.4489,35.1986],[120.7277,35.4517],[119.8382,35.4517],[119.6962,35.5655],[119.6673,35.5752],[119.6604,35.5848],[119.6089,35.6047],[119.6048,35.592],[119.5871,35.6006],[119.5695,35.5868],[119.5546,35.5934],[119.5305,35.5923],[119.5172,35.601],[119.4919,35.6054],[119.4853,35.5977],[119.4601,35.5936],[119.4542,35.579],[119.4402,35.5636],[119.4199,35.5759],[119.3931,35.5786],[119.3625,35.5615],[119.3501,35.5597],[119.3279,35.5806],[119.3048,35.5482],[119.2672,35.535],[119.2419,35.5602],[119.2341,35.5779],[119.1845,35.5908],[119.169,35.5814],[119.1636,35.5678],[119.1332,35.555],[119.0963,35.5708],[119.0768,35.5565],[119.0624,35.5521],[119.0565,35.5411],[119.0372,35.5336],[119.0404,35.4916],[119.0307,35.471],[119.0528,35.4538]]]},"properties":{"region_code":"CN-37-3711-371102","parent_region_code":"CN-37-3711","name":"东港区","level":"county","has_children":false,"full_path":"中国 / 山东省 / 日照市 / 东港区","source_admin_code":"371102","osm_relation_id":5656078}},
{"type":"Feature","geometry":{"type":"Polygon","coordinates":[[[119.0528,35.4538],[119.0666,35.4488],[119.04,35.4222],[119.0144,35.3889],[119.0382,35.3779],[119.0821,35.3497],[119.0928,35.328],[119.1186,35.3347],[119.1431,35.3277],[119.1348,35.3163],[119.1477,35.3032],[119.1486,35.2898],[119.1668,35.291],[119.1772,35.2832],[119.1804,35.258],[119.1749,35.2371],[119.1665,35.2334],[119.1547,35.2035],[119.1267,35.198],[119.1343,35.1848],[119.1473,35.1878],[119.1601,35.1632],[119.1583,35.1395],[119.1848,35.1384],[119.1935,35.1133],[119.2196,35.1091],[119.2403,35.1265],[119.2857,35.1117],[119.2977,35.0858],[119.3099,35.0255],[120,35.1667],[120.4132,35.1662],[120.4489,35.1986],[119.3898,35.1986],[119.3709,35.2077],[119.3441,35.206],[119.3402,35.2237],[119.3193,35.2345],[119.3046,35.2325],[119.2978,35.2418],[119.3124,35.2956],[119.347,35.2916],[119.3755,35.3063],[119.3889,35.3246],[119.3815,35.3595],[119.3836,35.3757],[119.3707,35.3768],[119.3364,35.3631],[119.3159,35.3634],[119.2912,35.356],[119.2702,35.3379],[119.2499,35.3457],[119.2407,35.3373],[119.2006,35.35],[119.1926,35.3656],[119.1878,35.3942],[119.1759,35.4039],[119.171,35.4183],[119.1737,35.4375],[119.1583,35.4358],[119.1297,35.4434],[119.1051,35.4418],[119.0912,35.4595],[119.0594,35.465],[119.0528,35.4538]]]},"properties":{"region_code":"CN-37-3711-371103","parent_region_code":"CN-37-3711","name":"岚山区","level":"county","has_children":false,"full_path":"中国 / 山东省 / 日照市 / 岚山区","source_admin_code":"371103","osm_relation_id":5656079}},
{"type":"Feature","geometry":{"type":"Polygon","coordinates":[[[119.5305,35.5923],[119.5318,35.6058],[119.5132,35.6141],[119.5228,35.6545],[119.5236,35.6748],[119.5141,35.6852],[119.5173,35.7277],[119.5034,35.7528],[119.4844,35.7578],[119.481,35.7762],[119.4878,35.7944],[119.4591,35.8131],[119.422,35.8065],[119.392,35.7912],[119.3702,35.7751],[119.3616,35.7815],[119.3684,35.8206],[119.3672,35.8392],[119.3526,35.8496],[119.3657,35.8649],[119.3525,35.8952],[119.3356,35.904],[119.3116,35.8937],[119.2915,35.9011],[119.2833,35.9169],[119.2489,35.8971],[119.2103,35.8854],[119.1904,35.8823],[119.164,35.8929],[119.1487,35.8906],[119.1402,35.8997],[119.1724,35.9242],[119.1769,35.9667],[119.1729,35.9755],[119.1177,35.9639],[119.0824,35.9631],[119.0718,35.959],[119.0491,35.9521],[119.0492,35.9282],[119.0414,35.921],[119.0578,35.9071],[119.0558,35.8982],[119.0251,35.8833],[119.0338,35.859],[119.0173,35.8407],[118.9874,35.8476],[118.9723,35.8456],[118.9527,35.8543],[118.9335,35.8371],[118.9203,35.8063],[118.9287,35.7798],[118.9511,35.7729],[118.9766,35.782],[118.9988,35.7649],[119.0383,35.7582],[119.041,35.7475],[119.0673,35.7211],[119.0847,35.6988],[119.1074,35.6993],[119.1196,35.6873],[119.0967,35.671],[119.0945,35.6527],[119.0817,35.6312],[119.0637,35.6237],[119.0462,35.606],[119.0458,35.5892],[119.0624,35.5521],[119.0768,35.5565],[119.0963,35.5708],[119.1332,35.555],[119.1636,35.5678],[119.169,35.5814],[119.1845,35.5908],[119.2341,35.5779],[119.2419,35.5602],[119.2672,35.535],[119.3048,35.5482],[119.3279,35.5806],[119.3501,35.5597],[119.3625,35.5615],[119.3931,35.5786],[119.4199,35.5759],[119.4402,35.5636],[119.4542,35.579],[119.4601,35.5936],[119.4853,35.5977],[119.4919,35.6054],[119.5172,35.601],[119.5305,35.5923]]]},"properties":{"region_code":"CN-37-3711-371121","parent_region_code":"CN-37-3711","name":"五莲县","level":"county","has_children":false,"full_path":"中国 / 山东省 / 日照市 / 五莲县","source_admin_code":"371121","osm_relation_id":5656045}},
{"type":"Feature","geometry":{"type":"Polygon","coordinates":[[[119.0624,35.5521],[119.0458,35.5892],[119.0462,35.606],[119.0637,35.6237],[119.0817,35.6312],[119.0945,35.6527],[119.0967,35.671],[119.1196,35.6873],[119.1074,35.6993],[119.0847,35.6988],[119.0673,35.7211],[119.041,35.7475],[119.0383,35.7582],[118.9988,35.7649],[118.9766,35.782],[118.9511,35.7729],[118.9287,35.7798],[118.9203,35.8063],[118.9335,35.8371],[118.9527,35.8543],[118.9723,35.8456],[118.9874,35.8476],[119.0173,35.8407],[119.0338,35.859],[119.0251,35.8833],[119.0558,35.8982],[119.0578,35.9071],[119.0414,35.921],[119.0492,35.9282],[119.0491,35.9521],[119.0718,35.959],[119.0601,35.9645],[119.0489,35.9806],[119.0221,35.9765],[119.0118,35.9929],[118.9961,36.0061],[119.0044,36.0363],[118.9888,36.0365],[118.9844,36.0186],[118.9624,36.0129],[118.9433,36.0144],[118.9339,36.004],[118.8932,36.0123],[118.8731,35.999],[118.8932,35.9732],[118.8935,35.9616],[118.851,35.9534],[118.834,35.9542],[118.8018,35.9398],[118.8013,35.9249],[118.7688,35.9155],[118.7561,35.879],[118.7539,35.8575],[118.7319,35.8578],[118.7225,35.8388],[118.7125,35.8342],[118.7169,35.8175],[118.6943,35.7849],[118.7047,35.7626],[118.6986,35.7417],[118.7206,35.7296],[118.7412,35.7333],[118.7711,35.7264],[118.7923,35.7292],[118.7993,35.7106],[118.7899,35.6963],[118.7881,35.6738],[118.765,35.6598],[118.7545,35.6442],[118.7337,35.6282],[118.729,35.5993],[118.7354,35.5767],[118.7193,35.5503],[118.6902,35.533],[118.6875,35.5198],[118.6989,35.5072],[118.7276,35.4936],[118.7191,35.473],[118.7047,35.4563],[118.6774,35.4635],[118.6707,35.4541],[118.6539,35.4627],[118.6388,35.4519],[118.6254,35.432],[118.5978,35.4146],[118.6002,35.391],[118.6201,35.3906],[118.6265,35.3672],[118.6389,35.3701],[118.644,35.3825],[118.6615,35.3723],[118.6937,35.3799],[118.7274,35.3598],[118.772,35.3752],[118.7867,35.3673],[118.8156,35.3798],[118.8411,35.3711],[118.8689,35.3888],[118.8704,35.3604],[118.916,35.3491],[118.9241,35.3313],[118.9438,35.3409],[118.962,35.3363],[118.983,35.3542],[118.9797,35.3819],[118.9959,35.3896],[119.0144,35.3889],[119.04,35.4222],[119.0666,35.4488],[119.0528,35.4538],[119.0307,35.471],[119.0404,35.4916],[119.0372,35.5336],[119.0565,35.5411],[119.0624,35.5521]]]},"properties":{"region_code":"CN-37-3711-371122","parent_region_code":"CN-37-3711","name":"莒县","level":"county","has_children":false,"full_path":"中国 / 山东省 / 日照市 / 莒县","source_admin_code":"371122","osm_relation_id":5656034}}
]}