{"type":"FeatureCollection", "features": [
{"type":"Feature","geometry":{"type":"Polygon","coordinates":[[[118.3212,32.4405],[118.3168,32.437],[118.3103,32.4396],[118.2946,32.4355],[118.2909,32.4273],[118.2835,32.4251],[118.2717,32.4319],[118.2653,32.4291],[118.2625,32.4241],[118.278,32.4089],[118.2815,32.3952],[118.282,32.3849],[118.2935,32.3798],[118.2868,32.3729],[118.2758,32.3723],[118.269,32.3687],[118.2642,32.3707],[118.2515,32.3885],[118.2407,32.3932],[118.2266,32.3868],[118.2182,32.3768],[118.2125,32.374],[118.1946,32.3699],[118.1872,32.3512],[118.1851,32.3402],[118.179,32.3357],[118.1758,32.3226],[118.1699,32.3146],[118.1693,32.3045],[118.1724,32.2962],[118.1952,32.3026],[118.2117,32.305],[118.2268,32.3163],[118.233,32.3166],[118.2412,32.3067],[118.251,32.3055],[118.2699,32.2989],[118.2748,32.2923],[118.2644,32.284],[118.2755,32.2735],[118.2837,32.2772],[118.2955,32.2765],[118.2993,32.2827],[118.3116,32.2885],[118.3184,32.2968],[118.3361,32.308],[118.3419,32.2949],[118.351,32.292],[118.3706,32.2984],[118.3777,32.3082],[118.3853,32.3151],[118.4062,32.3136],[118.4265,32.3108],[118.4357,32.3205],[118.4371,32.3262],[118.43,32.3311],[118.4279,32.3406],[118.4377,32.3457],[118.432,32.3493],[118.4299,32.362],[118.4232,32.3654],[118.4079,32.3656],[118.4012,32.3741],[118.3951,32.3681],[118.3858,32.3753],[118.3841,32.3829],[118.3793,32.3877],[118.3657,32.3936],[118.3708,32.4054],[118.3631,32.4123],[118.3566,32.4093],[118.3471,32.409],[118.3433,32.4152],[118.3488,32.4205],[118.3452,32.4299],[118.34,32.4334],[118.3375,32.4405],[118.329,32.442],[118.3212,32.4405]]]},"properties":{"region_code":"CN-34-3411-341102","parent_region_code":"CN-34-3411","name":"琅琊区","level":"county","has_children":false,"full_path":"中国 / 安徽省 / 滁州市 / 琅琊区","source_admin_code":"341102","osm_relation_id":3231583}},
{"type":"Feature","geometry":{"type":"Polygon","coordinates":[[[118.3212,32.4405],[118.3118,32.4527],[118.3138,32.4601],[118.3224,32.4689],[118.3206,32.4746],[118.3239,32.4843],[118.3333,32.4828],[118.3309,32.478],[118.3403,32.4741],[118.3462,32.4792],[118.343,32.4946],[118.3381,32.503],[118.3289,32.5056],[118.3365,32.5223],[118.3415,32.5279],[118.346,32.5391],[118.3381,32.5464],[118.3366,32.5511],[118.3436,32.5628],[118.3528,32.5657],[118.3608,32.5788],[118.3604,32.5834],[118.3672,32.5959],[118.3655,32.5991],[118.3518,32.5988],[118.3386,32.6044],[118.3315,32.6097],[118.3269,32.608],[118.3116,32.5814],[118.3037,32.5733],[118.3009,32.5647],[118.2944,32.561],[118.29,32.5537],[118.2906,32.5457],[118.2861,32.5264],[118.2782,32.5137],[118.2841,32.5097],[118.284,32.5051],[118.2748,32.5035],[118.2795,32.4981],[118.2751,32.4946],[118.2629,32.4946],[118.263,32.4877],[118.2595,32.4735],[118.2534,32.4694],[118.2397,32.4666],[118.2392,32.4547],[118.2347,32.4494],[118.2241,32.4569],[118.2088,32.4502],[118.1985,32.4544],[118.1997,32.4657],[118.19,32.4633],[118.181,32.4719],[118.1687,32.4735],[118.1673,32.4656],[118.1548,32.4722],[118.1461,32.472],[118.1404,32.4747],[118.1095,32.4785],[118.1073,32.4716],[118.0643,32.4691],[118.049,32.4725],[118.0409,32.4702],[118.0368,32.4613],[118.0375,32.4559],[118.0333,32.4485],[118.0384,32.4411],[118.0365,32.4295],[118.0289,32.4191],[117.9976,32.4042],[117.9954,32.3945],[117.9806,32.3838],[117.9772,32.3782],[117.9758,32.3667],[117.9611,32.3687],[117.9569,32.3641],[117.9515,32.3686],[117.9342,32.3577],[117.9291,32.3397],[117.9208,32.3345],[117.9194,32.321],[117.9225,32.3182],[117.9124,32.3068],[117.9037,32.3012],[117.903,32.2939],[117.8914,32.2832],[117.8894,32.2758],[117.8791,32.2742],[117.8774,32.2651],[117.8812,32.2604],[117.875,32.2536],[117.8824,32.2449],[117.884,32.2398],[117.8755,32.2357],[117.8663,32.2405],[117.8527,32.2362],[117.8406,32.2376],[117.8322,32.2242],[117.8394,32.2188],[117.8539,32.2132],[117.853,32.2051],[117.8595,32.204],[117.8616,32.1974],[117.8746,32.2022],[117.8815,32.1994],[117.8885,32.2002],[117.9044,32.1965],[117.9067,32.1915],[117.916,32.1899],[117.9215,32.1954],[117.9313,32.195],[117.9373,32.199],[117.9256,32.2069],[117.9304,32.213],[117.9297,32.2229],[117.9395,32.2312],[117.94,32.2389],[117.9547,32.2383],[117.9661,32.2408],[117.9728,32.2369],[117.9792,32.2398],[117.985,32.2364],[117.9927,32.2421],[117.9972,32.2377],[118.0085,32.2396],[118.0162,32.2356],[118.0286,32.2356],[118.0319,32.2302],[118.054,32.2309],[118.0569,32.2254],[118.0695,32.2215],[118.0732,32.2245],[118.0835,32.2259],[118.0899,32.2232],[118.0915,32.2302],[118.0966,32.2343],[118.1015,32.2284],[118.1086,32.2274],[118.1119,32.2203],[118.118,32.2211],[118.1237,32.2162],[118.1317,32.2169],[118.1363,32.2087],[118.141,32.2062],[118.1488,32.2139],[118.1612,32.2116],[118.1653,32.203],[118.1818,32.1961],[118.1836,32.1985],[118.1956,32.2003],[118.201,32.21],[118.1984,32.2208],[118.2046,32.227],[118.2123,32.2268],[118.2193,32.2113],[118.2261,32.2061],[118.2319,32.2058],[118.2344,32.1963],[118.245,32.2004],[118.2524,32.1965],[118.2642,32.2019],[118.2675,32.1972],[118.2794,32.2045],[118.288,32.2051],[118.3016,32.202],[118.3059,32.2063],[118.3171,32.2067],[118.3177,32.1951],[118.328,32.1954],[118.3494,32.19],[118.357,32.1901],[118.3644,32.1855],[118.3542,32.1821],[118.3602,32.171],[118.3717,32.1652],[118.3821,32.1581],[118.3774,32.1548],[118.3839,32.1431],[118.3748,32.1377],[118.3786,32.131],[118.3885,32.1242],[118.416,32.0875],[118.4253,32.0881],[118.4285,32.0914],[118.4583,32.1026],[118.4683,32.1116],[118.4706,32.1193],[118.4778,32.1191],[118.4843,32.1229],[118.4951,32.125],[118.4895,32.1334],[118.4925,32.1401],[118.5002,32.1456],[118.493,32.163],[118.4906,32.1783],[118.4941,32.1839],[118.5035,32.1856],[118.504,32.1967],[118.4857,32.2],[118.4687,32.2008],[118.4663,32.2064],[118.4553,32.2054],[118.4454,32.2107],[118.441,32.2061],[118.4343,32.2123],[118.4265,32.214],[118.4154,32.2313],[118.4099,32.2325],[118.4099,32.2428],[118.4166,32.244],[118.4057,32.2544],[118.3999,32.2552],[118.3992,32.2624],[118.3905,32.2623],[118.3917,32.2706],[118.3997,32.2726],[118.4122,32.2645],[118.418,32.2721],[118.4257,32.2784],[118.4213,32.2855],[118.4233,32.2932],[118.4212,32.2982],[118.427,32.3034],[118.4265,32.3108],[118.4062,32.3136],[118.3853,32.3151],[118.3777,32.3082],[118.3706,32.2984],[118.351,32.292],[118.3419,32.2949],[118.3361,32.308],[118.3184,32.2968],[118.3116,32.2885],[118.2993,32.2827],[118.2955,32.2765],[118.2837,32.2772],[118.2755,32.2735],[118.2644,32.284],[118.2748,32.2923],[118.2699,32.2989],[118.251,32.3055],[118.2412,32.3067],[118.233,32.3166],[118.2268,32.3163],[118.2117,32.305],[118.1952,32.3026],[118.1724,32.2962],[118.1693,32.3045],[118.1699,32.3146],[118.1758,32.3226],[118.179,32.3357],[118.1851,32.3402],[118.1872,32.3512],[118.1946,32.3699],[118.2125,32.374],[118.2182,32.3768],[118.2266,32.3868],[118.2407,32.3932],[118.2515,32.3885],[118.2642,32.3707],[118.269,32.3687],[118.2758,32.3723],[118.2868,32.3729],[118.2935,32.3798],[118.282,32.3849],[118.2815,32.3952],[118.278,32.4089],[118.2625,32.4241],[118.2653,32.4291],[118.2717,32.4319],[118.2835,32.4251],[118.2909,32.4273],[118.2946,32.4355],[118.3103,32.4396],[118.3168,32.437],[118.3212,32.4405]]]},"properties":{"region_code":"CN-34-3411-341103","parent_region_code":"CN-34-3411","name":"南谯区","level":"county","has_children":false,"full_path":"中国 / 安徽省 / 滁州市 / 南谯区","source_admin_code":"341103","osm_relation_id":3231585}},
{"type":"Feature","geometry":{"type":"Polygon","coordinates":[[[118.4265,32.3108],[118.427,32.3034],[118.4212,32.2982],[118.4233,32.2932],[118.4213,32.2855],[118.4257,32.2784],[118.418,32.2721],[118.4122,32.2645],[118.3997,32.2726],[118.3917,32.2706],[118.3905,32.2623],[118.3992,32.2624],[118.3999,32.2552],[118.4057,32.2544],[118.4166,32.244],[118.4099,32.2428],[118.4099,32.2325],[118.4154,32.2313],[118.4265,32.214],[118.4343,32.2123],[118.441,32.2061],[118.4454,32.2107],[118.4553,32.2054],[118.4663,32.2064],[118.4687,32.2008],[118.4857,32.2],[118.504,32.1967],[118.513,32.1913],[118.519,32.1909],[118.5258,32.1976],[118.5337,32.1947],[118.543,32.197],[118.5474,32.2018],[118.5542,32.199],[118.5571,32.204],[118.5653,32.2062],[118.5755,32.2061],[118.5756,32.2009],[118.5857,32.2028],[118.5938,32.2021],[118.6112,32.2075],[118.6246,32.2052],[118.6386,32.212],[118.6626,32.2386],[118.6707,32.2573],[118.6561,32.2639],[118.6541,32.2687],[118.6651,32.2864],[118.6632,32.2979],[118.6522,32.3017],[118.6552,32.3076],[118.6638,32.3112],[118.6711,32.3175],[118.6808,32.3203],[118.6818,32.3319],[118.6987,32.3316],[118.703,32.3391],[118.6922,32.3449],[118.6879,32.356],[118.6903,32.3589],[118.6923,32.371],[118.6985,32.3707],[118.6966,32.3813],[118.6749,32.3914],[118.6737,32.3964],[118.6803,32.4066],[118.6851,32.4248],[118.6816,32.4323],[118.6873,32.4667],[118.6859,32.4751],[118.6804,32.4755],[118.6679,32.4722],[118.6487,32.4783],[118.6432,32.4786],[118.6379,32.4725],[118.6294,32.4732],[118.6223,32.4704],[118.6146,32.474],[118.603,32.473],[118.6003,32.4797],[118.5937,32.4792],[118.587,32.4859],[118.5891,32.4954],[118.5883,32.5048],[118.6011,32.5027],[118.6053,32.5099],[118.6115,32.5132],[118.6092,32.5243],[118.6013,32.5239],[118.5999,32.5343],[118.6042,32.5395],[118.5937,32.547],[118.5725,32.5546],[118.5657,32.5587],[118.558,32.5671],[118.5641,32.5878],[118.5742,32.5954],[118.5898,32.5989],[118.5929,32.604],[118.6079,32.5962],[118.6139,32.5961],[118.6167,32.5906],[118.6229,32.5912],[118.6297,32.582],[118.6363,32.589],[118.6471,32.5954],[118.6641,32.5969],[118.684,32.5901],[118.6958,32.5915],[118.6912,32.608],[118.6833,32.62],[118.6911,32.6256],[118.6922,32.63],[118.6777,32.6369],[118.667,32.6346],[118.6591,32.6392],[118.6659,32.6466],[118.677,32.6481],[118.6811,32.6538],[118.6901,32.6512],[118.6885,32.6606],[118.6947,32.6682],[118.6955,32.6759],[118.69,32.6918],[118.6925,32.7014],[118.7068,32.7054],[118.7077,32.7112],[118.6959,32.7247],[118.6835,32.7314],[118.6757,32.7307],[118.6672,32.7346],[118.6529,32.7379],[118.6332,32.7482],[118.6281,32.7431],[118.6221,32.7451],[118.6127,32.743],[118.6059,32.739],[118.6023,32.7298],[118.5686,32.723],[118.5555,32.7327],[118.538,32.7322],[118.5209,32.7303],[118.5154,32.7266],[118.5082,32.7279],[118.4975,32.7248],[118.4858,32.7282],[118.4771,32.7245],[118.4659,32.7239],[118.4565,32.727],[118.4531,32.7325],[118.4516,32.7426],[118.4443,32.745],[118.4256,32.7229],[118.4186,32.7186],[118.4181,32.7141],[118.4101,32.7035],[118.4127,32.6948],[118.4226,32.6832],[118.4244,32.6782],[118.424,32.6636],[118.4154,32.6604],[118.4071,32.65],[118.4106,32.6422],[118.4209,32.6373],[118.4203,32.6283],[118.4084,32.6229],[118.4002,32.6133],[118.4036,32.6049],[118.4007,32.5966],[118.3864,32.5999],[118.3655,32.5991],[118.3672,32.5959],[118.3604,32.5834],[118.3608,32.5788],[118.3528,32.5657],[118.3436,32.5628],[118.3366,32.5511],[118.3381,32.5464],[118.346,32.5391],[118.3415,32.5279],[118.3365,32.5223],[118.3289,32.5056],[118.3381,32.503],[118.343,32.4946],[118.3462,32.4792],[118.3403,32.4741],[118.3309,32.478],[118.3333,32.4828],[118.3239,32.4843],[118.3206,32.4746],[118.3224,32.4689],[118.3138,32.4601],[118.3118,32.4527],[118.3212,32.4405],[118.329,32.442],[118.3375,32.4405],[118.34,32.4334],[118.3452,32.4299],[118.3488,32.4205],[118.3433,32.4152],[118.3471,32.409],[118.3566,32.4093],[118.3631,32.4123],[118.3708,32.4054],[118.3657,32.3936],[118.3793,32.3877],[118.3841,32.3829],[118.3858,32.3753],[118.3951,32.3681],[118.4012,32.3741],[118.4079,32.3656],[118.4232,32.3654],[118.4299,32.362],[118.432,32.3493],[118.4377,32.3457],[118.4279,32.3406],[118.43,32.3311],[118.4371,32.3262],[118.4357,32.3205],[118.4265,32.3108]]]},"properties":{"region_code":"CN-34-3411-341122","parent_region_code":"CN-34-3411","name":"来安县","level":"county","has_children":false,"full_path":"中国 / 安徽省 / 滁州市 / 来安县","source_admin_code":"341122","osm_relation_id":3231582}},
{"type":"Feature","geometry":{"type":"Polygon","coordinates":[[[117.8616,32.1974],[117.8599,32.1939],[117.8655,32.1883],[117.8661,32.1801],[117.8636,32.1695],[117.8696,32.1642],[117.8702,32.142],[117.8667,32.136],[117.8532,32.1254],[117.8472,32.1077],[117.8532,32.1057],[117.8611,32.1093],[117.8624,32.0994],[117.8489,32.0931],[117.8677,32.0853],[117.8653,32.0803],[117.8687,32.0679],[117.8767,32.0679],[117.8783,32.0627],[117.8724,32.0602],[117.869,32.0518],[117.8576,32.044],[117.8554,32.0393],[117.8312,32.0398],[117.8278,32.0297],[117.8333,32.0147],[117.8175,32.0119],[117.8108,31.9991],[117.8254,31.9955],[117.8307,31.9812],[117.8393,31.9767],[117.8376,31.9732],[117.8411,31.9648],[117.848,31.9631],[117.8517,31.9578],[117.863,31.9481],[117.8638,31.9325],[117.8727,31.9323],[117.88,31.9294],[117.8954,31.9312],[117.9078,31.925],[117.9239,31.9234],[117.9287,31.9174],[117.9343,31.9173],[117.9465,31.9106],[117.9488,31.9052],[117.9602,31.9054],[117.9743,31.8903],[117.985,31.8815],[117.9919,31.8826],[118.0097,31.8726],[118.0121,31.8618],[118.0228,31.8573],[118.0283,31.8488],[118.0345,31.8513],[118.0296,31.8607],[118.0393,31.8596],[118.0609,31.8659],[118.0649,31.8532],[118.0807,31.8568],[118.0786,31.8664],[118.082,31.871],[118.0804,31.8776],[118.0904,31.8851],[118.1058,31.8941],[118.1083,31.9025],[118.1194,31.9084],[118.1273,31.9038],[118.1439,31.9086],[118.1549,31.9083],[118.1634,31.904],[118.1807,31.9126],[118.1842,31.9195],[118.1962,31.928],[118.2079,31.9309],[118.2177,31.9305],[118.2318,31.9386],[118.2474,31.9524],[118.2634,31.9633],[118.2813,31.9787],[118.2933,31.9864],[118.3004,31.9931],[118.3066,32.0074],[118.3216,32.0249],[118.3342,32.0321],[118.3369,32.0314],[118.352,32.0392],[118.3589,32.0456],[118.3684,32.0502],[118.3684,32.0589],[118.3878,32.0645],[118.3916,32.074],[118.3894,32.0778],[118.3994,32.0823],[118.4064,32.0827],[118.4098,32.0895],[118.416,32.0875],[118.3885,32.1242],[118.3786,32.131],[118.3748,32.1377],[118.3839,32.1431],[118.3774,32.1548],[118.3821,32.1581],[118.3717,32.1652],[118.3602,32.171],[118.3542,32.1821],[118.3644,32.1855],[118.357,32.1901],[118.3494,32.19],[118.328,32.1954],[118.3177,32.1951],[118.3171,32.2067],[118.3059,32.2063],[118.3016,32.202],[118.288,32.2051],[118.2794,32.2045],[118.2675,32.1972],[118.2642,32.2019],[118.2524,32.1965],[118.245,32.2004],[118.2344,32.1963],[118.2319,32.2058],[118.2261,32.2061],[118.2193,32.2113],[118.2123,32.2268],[118.2046,32.227],[118.1984,32.2208],[118.201,32.21],[118.1956,32.2003],[118.1836,32.1985],[118.1818,32.1961],[118.1653,32.203],[118.1612,32.2116],[118.1488,32.2139],[118.141,32.2062],[118.1363,32.2087],[118.1317,32.2169],[118.1237,32.2162],[118.118,32.2211],[118.1119,32.2203],[118.1086,32.2274],[118.1015,32.2284],[118.0966,32.2343],[118.0915,32.2302],[118.0899,32.2232],[118.0835,32.2259],[118.0732,32.2245],[118.0695,32.2215],[118.0569,32.2254],[118.054,32.2309],[118.0319,32.2302],[118.0286,32.2356],[118.0162,32.2356],[118.0085,32.2396],[117.9972,32.2377],[117.9927,32.2421],[117.985,32.2364],[117.9792,32.2398],[117.9728,32.2369],[117.9661,32.2408],[117.9547,32.2383],[117.94,32.2389],[117.9395,32.2312],[117.9297,32.2229],[117.9304,32.213],[117.9256,32.2069],[117.9373,32.199],[117.9313,32.195],[117.9215,32.1954],[117.916,32.1899],[117.9067,32.1915],[117.9044,32.1965],[117.8885,32.2002],[117.8815,32.1994],[117.8746,32.2022],[117.8616,32.1974]]]},"properties":{"region_code":"CN-34-3411-341124","parent_region_code":"CN-34-3411","name":"全椒县","level":"county","has_children":false,"full_path":"中国 / 安徽省 / 滁州市 / 全椒县","source_admin_code":"341124","osm_relation_id":3231586}},
{"type":"Feature","geometry":{"type":"Polygon","coordinates":[[[118.1095,32.4785],[118.106,32.4926],[118.1012,32.4996],[118.0928,32.5007],[118.0845,32.5095],[118.0814,32.5186],[118.0758,32.525],[118.0778,32.5307],[118.0848,32.5322],[118.0798,32.5458],[118.0749,32.5516],[118.0666,32.554],[118.0663,32.565],[118.0737,32.5723],[118.0705,32.5764],[118.076,32.584],[118.0682,32.5873],[118.07,32.5945],[118.0783,32.6007],[118.0688,32.6046],[118.0618,32.6106],[118.0475,32.6166],[118.0366,32.6128],[118.0339,32.6096],[118.014,32.615],[118.0006,32.6266],[117.9916,32.6255],[117.9828,32.6283],[117.9652,32.6437],[117.95,32.6365],[117.9461,32.6422],[117.9461,32.6486],[117.9386,32.6514],[117.9376,32.6558],[117.9426,32.6603],[117.9385,32.6703],[117.9483,32.6827],[117.9409,32.6855],[117.9333,32.6809],[117.9249,32.6694],[117.9153,32.6696],[117.9053,32.6655],[117.8969,32.6672],[117.8771,32.6598],[117.8696,32.6589],[117.8556,32.6625],[117.8461,32.6573],[117.8236,32.6519],[117.811,32.6468],[117.8039,32.6465],[117.8037,32.6332],[117.7971,32.6325],[117.7851,32.6369],[117.7829,32.6441],[117.7772,32.6466],[117.7709,32.6444],[117.7637,32.6366],[117.7544,32.6341],[117.7454,32.6481],[117.7508,32.6601],[117.7464,32.6602],[117.7371,32.6705],[117.74,32.6785],[117.739,32.6913],[117.7347,32.6976],[117.7394,32.7061],[117.7337,32.7097],[117.7238,32.7021],[117.7103,32.7039],[117.702,32.7],[117.7022,32.6902],[117.7055,32.6858],[117.6926,32.6725],[117.6845,32.6588],[117.6842,32.6545],[117.6687,32.6405],[117.6632,32.6396],[117.6697,32.6275],[117.6678,32.6224],[117.6617,32.6194],[117.6536,32.6227],[117.6349,32.6271],[117.6227,32.6336],[117.6221,32.6377],[117.614,32.6454],[117.592,32.6523],[117.5725,32.6509],[117.5663,32.6462],[117.557,32.6338],[117.5496,32.6389],[117.5492,32.6508],[117.5322,32.6526],[117.5202,32.6522],[117.5143,32.6487],[117.509,32.6513],[117.4918,32.652],[117.4765,32.6571],[117.4638,32.6585],[117.4568,32.6573],[117.452,32.6511],[117.4405,32.6484],[117.4333,32.6673],[117.4229,32.6724],[117.4139,32.6708],[117.4127,32.6621],[117.4063,32.653],[117.3944,32.6513],[117.3879,32.6541],[117.3742,32.6657],[117.366,32.6665],[117.3638,32.6725],[117.3546,32.6686],[117.3603,32.66],[117.3451,32.6553],[117.3384,32.6465],[117.3286,32.6502],[117.3399,32.6551],[117.3318,32.659],[117.326,32.6509],[117.3101,32.6437],[117.2987,32.634],[117.289,32.6306],[117.2736,32.629],[117.2682,32.6263],[117.2579,32.6292],[117.2456,32.6272],[117.2327,32.6302],[117.2248,32.629],[117.2108,32.622],[117.1952,32.6204],[117.1872,32.6168],[117.1904,32.61],[117.1952,32.5909],[117.1995,32.5804],[117.2094,32.5618],[117.2059,32.5517],[117.1997,32.5483],[117.1953,32.5332],[117.197,32.5258],[117.2048,32.5187],[117.2073,32.5098],[117.2027,32.4989],[117.2055,32.4791],[117.2024,32.4743],[117.2081,32.4714],[117.2102,32.4655],[117.2165,32.4623],[117.2315,32.4642],[117.2408,32.4593],[117.2453,32.4613],[117.2607,32.4545],[117.2736,32.4473],[117.2821,32.4452],[117.3002,32.4515],[117.3054,32.4558],[117.3123,32.4543],[117.3105,32.4484],[117.3146,32.4412],[117.3229,32.4392],[117.3347,32.4484],[117.3445,32.4535],[117.3516,32.4507],[117.354,32.458],[117.3741,32.4625],[117.3757,32.469],[117.3819,32.4767],[117.3894,32.478],[117.3935,32.4701],[117.3907,32.4559],[117.378,32.4365],[117.377,32.4277],[117.382,32.4178],[117.3777,32.4115],[117.3772,32.4046],[117.3663,32.3968],[117.356,32.3949],[117.3489,32.39],[117.3573,32.3827],[117.3677,32.3764],[117.3721,32.3866],[117.3853,32.3968],[117.3935,32.3958],[117.3986,32.3888],[117.4075,32.3838],[117.4095,32.3786],[117.4269,32.3731],[117.4336,32.3729],[117.4375,32.3678],[117.4378,32.3418],[117.428,32.3429],[117.4193,32.3372],[117.4162,32.3251],[117.4092,32.3183],[117.4083,32.3135],[117.4011,32.3109],[117.4007,32.302],[117.3949,32.2955],[117.3968,32.289],[117.3872,32.2849],[117.3955,32.2811],[117.396,32.2728],[117.4028,32.2705],[117.4087,32.2734],[117.4117,32.2664],[117.4177,32.2679],[117.4232,32.2621],[117.4149,32.2504],[117.4249,32.2452],[117.4316,32.2327],[117.4416,32.2383],[117.465,32.2275],[117.4676,32.2212],[117.474,32.2183],[117.4749,32.2135],[117.4865,32.2123],[117.4916,32.203],[117.4993,32.2026],[117.5062,32.2077],[117.5232,32.2076],[117.5299,32.2113],[117.5451,32.2126],[117.5536,32.2166],[117.5625,32.2268],[117.5684,32.2277],[117.5683,32.2345],[117.5822,32.2334],[117.5853,32.2404],[117.6007,32.2399],[117.6116,32.2515],[117.6311,32.2553],[117.6494,32.262],[117.6723,32.2556],[117.6981,32.2549],[117.7056,32.2454],[117.7008,32.2394],[117.7145,32.2375],[117.7178,32.2443],[117.7242,32.2463],[117.7336,32.2441],[117.7474,32.2379],[117.7613,32.2427],[117.7777,32.2376],[117.7835,32.2312],[117.7853,32.2219],[117.7918,32.2181],[117.8084,32.2248],[117.8105,32.2299],[117.82,32.2338],[117.8217,32.2287],[117.8322,32.2242],[117.8406,32.2376],[117.8527,32.2362],[117.8663,32.2405],[117.8755,32.2357],[117.884,32.2398],[117.8824,32.2449],[117.875,32.2536],[117.8812,32.2604],[117.8774,32.2651],[117.8791,32.2742],[117.8894,32.2758],[117.8914,32.2832],[117.903,32.2939],[117.9037,32.3012],[117.9124,32.3068],[117.9225,32.3182],[117.9194,32.321],[117.9208,32.3345],[117.9291,32.3397],[117.9342,32.3577],[117.9515,32.3686],[117.9569,32.3641],[117.9611,32.3687],[117.9758,32.3667],[117.9772,32.3782],[117.9806,32.3838],[117.9954,32.3945],[117.9976,32.4042],[118.0289,32.4191],[118.0365,32.4295],[118.0384,32.4411],[118.0333,32.4485],[118.0375,32.4559],[118.0368,32.4613],[118.0409,32.4702],[118.049,32.4725],[118.0643,32.4691],[118.1073,32.4716],[118.1095,32.4785]]]},"properties":{"region_code":"CN-34-3411-341125","parent_region_code":"CN-34-3411","name":"定远县","level":"county","has_children":false,"full_path":"中国 / 安徽省 / 滁州市 / 定远县","source_admin_code":"341125","osm_relation_id":3231580}},
{"type":"Feature","geometry":{"type":"Polygon","coordinates":[[[117.9333,32.6809],[117.9267,32.6855],[117.9249,32.6934],[117.9334,32.6938],[117.9264,32.7054],[117.9211,32.7349],[117.9279,32.7439],[117.9356,32.7446],[117.9404,32.7641],[117.944,32.7685],[117.9383,32.779],[117.9186,32.7839],[117.9131,32.781],[117.9056,32.789],[117.904,32.7992],[117.9051,32.8135],[117.9004,32.8225],[117.9022,32.8418],[117.9119,32.8475],[117.909,32.8611],[117.9118,32.8649],[117.9054,32.8699],[117.902,32.8797],[117.8864,32.8822],[117.8771,32.8802],[117.8607,32.8842],[117.8467,32.892],[117.8413,32.901],[117.8454,32.9037],[117.8433,32.9242],[117.8391,32.9325],[117.8379,32.9509],[117.8339,32.9657],[117.8293,32.9771],[117.8306,32.9833],[117.8474,33.0003],[117.8537,33.0026],[117.8679,33.0027],[117.8739,33.0049],[117.8955,33.0203],[117.8887,33.0268],[117.8855,33.034],[117.888,33.0374],[117.8817,33.0479],[117.8549,33.0379],[117.8385,33.036],[117.8075,33.03],[117.7985,33.0314],[117.789,33.0419],[117.7748,33.0496],[117.7656,33.0489],[117.7551,33.0381],[117.7393,33.0095],[117.7347,33.0052],[117.726,33.0042],[117.7175,33.007],[117.7068,33.0063],[117.7008,33.0025],[117.6952,32.9929],[117.6931,32.98],[117.6844,32.959],[117.6696,32.9302],[117.6652,32.9186],[117.6547,32.9136],[117.6418,32.9128],[117.636,32.9154],[117.6235,32.9261],[117.6179,32.9271],[117.5998,32.9247],[117.5931,32.9275],[117.5656,32.9505],[117.5421,32.9726],[117.5247,32.9827],[117.5214,32.9698],[117.5214,32.9537],[117.5234,32.94],[117.5087,32.9389],[117.5027,32.9289],[117.5022,32.9213],[117.4938,32.8981],[117.5039,32.8903],[117.5079,32.8902],[117.5071,32.8731],[117.5015,32.8697],[117.4958,32.8735],[117.487,32.8688],[117.4751,32.8541],[117.4751,32.8487],[117.4609,32.84],[117.4502,32.8435],[117.4227,32.8447],[117.415,32.8485],[117.4134,32.8349],[117.394,32.835],[117.3688,32.841],[117.363,32.8397],[117.3543,32.8418],[117.3489,32.8365],[117.3371,32.8301],[117.3267,32.8288],[117.3098,32.8292],[117.303,32.825],[117.3044,32.8212],[117.2921,32.8186],[117.2788,32.8192],[117.2787,32.8148],[117.2706,32.8072],[117.2505,32.8093],[117.2456,32.8037],[117.2398,32.8029],[117.2376,32.7917],[117.2298,32.7855],[117.2315,32.7771],[117.2251,32.7666],[117.2138,32.7567],[117.2082,32.7551],[117.188,32.7366],[117.1944,32.7274],[117.1858,32.72],[117.1786,32.7058],[117.1778,32.7001],[117.1561,32.6891],[117.1545,32.6836],[117.1707,32.6581],[117.172,32.6418],[117.1775,32.6372],[117.1872,32.6168],[117.1952,32.6204],[117.2108,32.622],[117.2248,32.629],[117.2327,32.6302],[117.2456,32.6272],[117.2579,32.6292],[117.2682,32.6263],[117.2736,32.629],[117.289,32.6306],[117.2987,32.634],[117.3101,32.6437],[117.326,32.6509],[117.3318,32.659],[117.3399,32.6551],[117.3286,32.6502],[117.3384,32.6465],[117.3451,32.6553],[117.3603,32.66],[117.3546,32.6686],[117.3638,32.6725],[117.366,32.6665],[117.3742,32.6657],[117.3879,32.6541],[117.3944,32.6513],[117.4063,32.653],[117.4127,32.6621],[117.4139,32.6708],[117.4229,32.6724],[117.4333,32.6673],[117.4405,32.6484],[117.452,32.6511],[117.4568,32.6573],[117.4638,32.6585],[117.4765,32.6571],[117.4918,32.652],[117.509,32.6513],[117.5143,32.6487],[117.5202,32.6522],[117.5322,32.6526],[117.5492,32.6508],[117.5496,32.6389],[117.557,32.6338],[117.5663,32.6462],[117.5725,32.6509],[117.592,32.6523],[117.614,32.6454],[117.6221,32.6377],[117.6227,32.6336],[117.6349,32.6271],[117.6536,32.6227],[117.6617,32.6194],[117.6678,32.6224],[117.6697,32.6275],[117.6632,32.6396],[117.6687,32.6405],[117.6842,32.6545],[117.6845,32.6588],[117.6926,32.6725],[117.7055,32.6858],[117.7022,32.6902],[117.702,32.7],[117.7103,32.7039],[117.7238,32.7021],[117.7337,32.7097],[117.7394,32.7061],[117.7347,32.6976],[117.739,32.6913],[117.74,32.6785],[117.7371,32.6705],[117.7464,32.6602],[117.7508,32.6601],[117.7454,32.6481],[117.7544,32.6341],[117.7637,32.6366],[117.7709,32.6444],[117.7772,32.6466],[117.7829,32.6441],[117.7851,32.6369],[117.7971,32.6325],[117.8037,32.6332],[117.8039,32.6465],[117.811,32.6468],[117.8236,32.6519],[117.8461,32.6573],[117.8556,32.6625],[117.8696,32.6589],[117.8771,32.6598],[117.8969,32.6672],[117.9053,32.6655],[117.9153,32.6696],[117.9249,32.6694],[117.9333,32.6809]]]},"properties":{"region_code":"CN-34-3411-341126","parent_region_code":"CN-34-3411","name":"凤阳县","level":"county","has_children":false,"full_path":"中国 / 安徽省 / 滁州市 / 凤阳县","source_admin_code":"341126","osm_relation_id":3231581}},
{"type":"Feature","geometry":{"type":"Polygon","coordinates":[[[118.6912,32.608],[118.7043,32.6106],[118.71,32.608],[118.7147,32.6154],[118.7198,32.5997],[118.7293,32.5928],[118.7381,32.5934],[118.738,32.602],[118.7455,32.5991],[118.7473,32.6063],[118.7563,32.6073],[118.7697,32.6013],[118.7695,32.5925],[118.7821,32.5849],[118.8,32.5863],[118.7982,32.5925],[118.8048,32.5961],[118.803,32.601],[118.8174,32.6046],[118.8184,32.5908],[118.8133,32.59],[118.8124,32.5828],[118.8242,32.5826],[118.8295,32.5719],[118.8334,32.5766],[118.8428,32.5701],[118.8492,32.5765],[118.8676,32.5789],[118.877,32.5763],[118.8803,32.5786],[118.8773,32.5876],[118.8821,32.5904],[118.8915,32.5889],[118.9007,32.5933],[118.9045,32.5886],[118.8962,32.5848],[118.8915,32.5788],[118.8945,32.5648],[118.8882,32.5624],[118.8847,32.5571],[118.892,32.5553],[118.9113,32.5618],[118.9151,32.559],[118.9259,32.5596],[118.9321,32.5567],[118.9381,32.5487],[118.9425,32.5481],[118.9516,32.5379],[118.9548,32.5304],[118.9643,32.5273],[118.9634,32.5174],[118.9709,32.5067],[118.9938,32.507],[119.0004,32.5103],[119.0017,32.5168],[119.0111,32.5153],[119.0164,32.5182],[119.0268,32.5188],[119.0357,32.5167],[119.0368,32.5051],[119.0403,32.5054],[119.0463,32.4943],[119.0578,32.4869],[119.0613,32.4704],[119.0573,32.4638],[119.0666,32.4615],[119.0682,32.4567],[119.0785,32.4523],[119.0863,32.4597],[119.085,32.4688],[119.0892,32.4771],[119.101,32.4738],[119.1053,32.4784],[119.1138,32.4818],[119.1256,32.493],[119.135,32.4948],[119.1405,32.4931],[119.1398,32.5042],[119.1469,32.5067],[119.1491,32.5116],[119.145,32.5247],[119.1481,32.5369],[119.1581,32.5395],[119.1603,32.5457],[119.1532,32.5506],[119.1472,32.5586],[119.1509,32.5646],[119.1634,32.5773],[119.1724,32.579],[119.1713,32.5956],[119.1806,32.6013],[119.1857,32.5965],[119.1831,32.5926],[119.1855,32.5854],[119.1944,32.5846],[119.1979,32.5796],[119.2091,32.5718],[119.2093,32.5913],[119.218,32.5976],[119.2129,32.6008],[119.2238,32.6066],[119.2037,32.616],[119.2039,32.6199],[119.2112,32.6284],[119.2076,32.6382],[119.2033,32.6426],[119.2061,32.6953],[119.2051,32.7287],[119.1854,32.8034],[119.1797,32.8292],[119.1396,32.8268],[119.107,32.8206],[119.1016,32.8225],[119.0877,32.8364],[119.0735,32.8542],[119.0667,32.86],[119.0542,32.8666],[119.0481,32.8735],[119.0484,32.8817],[119.0404,32.8929],[119.0394,32.9128],[119.0294,32.9097],[119.0147,32.9082],[119.0099,32.9108],[119.0134,32.9268],[119.0239,32.9274],[119.0202,32.9473],[119.0155,32.9583],[119.0089,32.9568],[118.9969,32.961],[118.9873,32.9601],[118.9609,32.9497],[118.9522,32.9512],[118.9438,32.9476],[118.9353,32.9498],[118.9311,32.9392],[118.9147,32.9414],[118.8998,32.9473],[118.8971,32.9434],[118.886,32.9463],[118.8853,32.9531],[118.8895,32.9611],[118.8817,32.9638],[118.8778,32.9594],[118.8639,32.9614],[118.8436,32.9601],[118.8378,32.9457],[118.8386,32.9398],[118.8434,32.9343],[118.8422,32.9244],[118.8323,32.9237],[118.8318,32.9155],[118.8238,32.9177],[118.819,32.9221],[118.8121,32.9227],[118.8025,32.9171],[118.8076,32.9088],[118.8064,32.9],[118.8092,32.8884],[118.8054,32.8777],[118.8009,32.8759],[118.8087,32.862],[118.7882,32.8563],[118.787,32.8527],[118.7749,32.8509],[118.7719,32.8545],[118.7618,32.8546],[118.7517,32.8592],[118.7423,32.8593],[118.7338,32.8539],[118.7373,32.8251],[118.7402,32.8194],[118.7398,32.8039],[118.7306,32.7879],[118.7328,32.7845],[118.7301,32.7742],[118.7374,32.7635],[118.7462,32.7593],[118.7511,32.7509],[118.7523,32.7413],[118.7484,32.737],[118.7425,32.7384],[118.7325,32.7361],[118.7123,32.7256],[118.7061,32.7281],[118.7006,32.7228],[118.6959,32.7247],[118.7077,32.7112],[118.7068,32.7054],[118.6925,32.7014],[118.69,32.6918],[118.6955,32.6759],[118.6947,32.6682],[118.6885,32.6606],[118.6901,32.6512],[118.6811,32.6538],[118.677,32.6481],[118.6659,32.6466],[118.6591,32.6392],[118.667,32.6346],[118.6777,32.6369],[118.6922,32.63],[118.6911,32.6256],[118.6833,32.62],[118.6912,32.608]]]},"properties":{"region_code":"CN-34-3411-341181","parent_region_code":"CN-34-3411","name":"天长市","level":"county","has_children":false,"full_path":"中国 / 安徽省 / 滁州市 / 天长市","source_admin_code":"341181","osm_relation_id":3231587}},
{"type":"Feature","geometry":{"type":"Polygon","coordinates":[[[118.3655,32.5991],[118.3864,32.5999],[118.4007,32.5966],[118.4036,32.6049],[118.4002,32.6133],[118.4084,32.6229],[118.4203,32.6283],[118.4209,32.6373],[118.4106,32.6422],[118.4071,32.65],[118.4154,32.6604],[118.424,32.6636],[118.4244,32.6782],[118.4226,32.6832],[118.4127,32.6948],[118.4101,32.7035],[118.4181,32.7141],[118.4186,32.7186],[118.4056,32.7187],[118.3995,32.722],[118.3894,32.7204],[118.3871,32.7239],[118.3753,32.7206],[118.3648,32.7208],[118.3609,32.731],[118.3618,32.7408],[118.3654,32.7442],[118.3653,32.7595],[118.3559,32.7741],[118.3349,32.773],[118.3287,32.7636],[118.3205,32.7639],[118.3213,32.7735],[118.3135,32.7819],[118.305,32.7806],[118.2985,32.7824],[118.2917,32.8007],[118.2995,32.8074],[118.3003,32.8179],[118.2921,32.8348],[118.2904,32.8485],[118.2793,32.852],[118.2815,32.8594],[118.267,32.8573],[118.2609,32.8582],[118.2512,32.8535],[118.2401,32.8552],[118.2407,32.8666],[118.2383,32.8761],[118.2299,32.8988],[118.2284,32.9203],[118.2302,32.9264],[118.2374,32.9344],[118.2497,32.9408],[118.286,32.9487],[118.2992,32.9585],[118.3068,32.961],[118.3044,32.9671],[118.295,32.971],[118.2692,32.9709],[118.2592,32.9736],[118.2512,32.9798],[118.241,32.9933],[118.2378,33.0043],[118.2389,33.0273],[118.2354,33.0463],[118.2277,33.0632],[118.2203,33.0612],[118.2058,33.0632],[118.2095,33.0724],[118.223,33.0738],[118.2199,33.0858],[118.2192,33.0988],[118.2166,33.1074],[118.2041,33.1062],[118.2049,33.1134],[118.2155,33.1162],[118.2183,33.1575],[118.2166,33.1818],[118.2115,33.1935],[118.2061,33.2007],[118.1889,33.2133],[118.1726,33.2195],[118.1639,33.2155],[118.1587,33.2105],[118.151,33.1957],[118.1544,33.1834],[118.1522,33.1764],[118.1446,33.1706],[118.1077,33.1605],[118.0852,33.1529],[118.0672,33.1427],[118.0478,33.1397],[118.0643,33.1366],[118.0689,33.1318],[118.0689,33.1197],[118.0743,33.1121],[118.0666,33.1092],[118.0575,33.0969],[118.0634,33.0936],[118.0621,33.0837],[118.0563,33.0802],[118.0522,33.0731],[118.0427,33.0715],[118.035,33.0769],[118.0255,33.0783],[118.0224,33.0685],[118.0122,33.0658],[118.0064,33.058],[117.9958,33.0584],[117.9938,33.0436],[117.9991,33.0412],[117.9998,33.0327],[118.0064,33.0321],[118.0206,33.0387],[118.0251,33.0352],[118.0316,33.0233],[118.0233,33.0105],[118.0163,33.0056],[117.9996,33.0031],[117.9923,33.0121],[117.9867,33.0106],[117.9763,33.0142],[117.9688,33.0059],[117.9569,33.0044],[117.9451,33.0173],[117.9383,33.0157],[117.9307,33.0041],[117.9119,32.9956],[117.906,32.9881],[117.8879,32.9909],[117.8843,32.9997],[117.8739,33.0049],[117.8679,33.0027],[117.8537,33.0026],[117.8474,33.0003],[117.8306,32.9833],[117.8293,32.9771],[117.8339,32.9657],[117.8379,32.9509],[117.8391,32.9325],[117.8433,32.9242],[117.8454,32.9037],[117.8413,32.901],[117.8467,32.892],[117.8607,32.8842],[117.8771,32.8802],[117.8864,32.8822],[117.902,32.8797],[117.9054,32.8699],[117.9118,32.8649],[117.909,32.8611],[117.9119,32.8475],[117.9022,32.8418],[117.9004,32.8225],[117.9051,32.8135],[117.904,32.7992],[117.9056,32.789],[117.9131,32.781],[117.9186,32.7839],[117.9383,32.779],[117.944,32.7685],[117.9404,32.7641],[117.9356,32.7446],[117.9279,32.7439],[117.9211,32.7349],[117.9264,32.7054],[117.9334,32.6938],[117.9249,32.6934],[117.9267,32.6855],[117.9333,32.6809],[117.9409,32.6855],[117.9483,32.6827],[117.9385,32.6703],[117.9426,32.6603],[117.9376,32.6558],[117.9386,32.6514],[117.9461,32.6486],[117.9461,32.6422],[117.95,32.6365],[117.9652,32.6437],[117.9828,32.6283],[117.9916,32.6255],[118.0006,32.6266],[118.014,32.615],[118.0339,32.6096],[118.0366,32.6128],[118.0475,32.6166],[118.0618,32.6106],[118.0688,32.6046],[118.0783,32.6007],[118.07,32.5945],[118.0682,32.5873],[118.076,32.584],[118.0705,32.5764],[118.0737,32.5723],[118.0663,32.565],[118.0666,32.554],[118.0749,32.5516],[118.0798,32.5458],[118.0848,32.5322],[118.0778,32.5307],[118.0758,32.525],[118.0814,32.5186],[118.0845,32.5095],[118.0928,32.5007],[118.1012,32.4996],[118.106,32.4926],[118.1095,32.4785],[118.1404,32.4747],[118.1461,32.472],[118.1548,32.4722],[118.1673,32.4656],[118.1687,32.4735],[118.181,32.4719],[118.19,32.4633],[118.1997,32.4657],[118.1985,32.4544],[118.2088,32.4502],[118.2241,32.4569],[118.2347,32.4494],[118.2392,32.4547],[118.2397,32.4666],[118.2534,32.4694],[118.2595,32.4735],[118.263,32.4877],[118.2629,32.4946],[118.2751,32.4946],[118.2795,32.4981],[118.2748,32.5035],[118.284,32.5051],[118.2841,32.5097],[118.2782,32.5137],[118.2861,32.5264],[118.2906,32.5457],[118.29,32.5537],[118.2944,32.561],[118.3009,32.5647],[118.3037,32.5733],[118.3116,32.5814],[118.3269,32.608],[118.3315,32.6097],[118.3386,32.6044],[118.3518,32.5988],[118.3655,32.5991]]]},"properties":{"region_code":"CN-34-3411-341182","parent_region_code":"CN-34-3411","name":"明光市","level":"county","has_children":false,"full_path":"中国 / 安徽省 / 滁州市 / 明光市","source_admin_code":"341182","osm_relation_id":3231584}}
]}