{"type":"FeatureCollection", "features": [
{"type":"Feature","geometry":{"type":"MultiPolygon","coordinates":[[[[119.8027,34.9828],[119.8157,34.9818],[119.9065,35.0021],[119.9303,35.1416],[119.9224,35.147],[119.9013,35.1446],[119.8012,34.9869],[119.8027,34.9828]]],[[[119.211,34.7927],[119.1925,34.8232],[119.1702,34.8135],[119.1579,34.8169],[119.1562,34.7857],[119.149,34.749],[119.1699,34.7468],[119.172,34.737],[119.1905,34.7404],[119.2107,34.7822],[119.211,34.7927]]],[[[119.7438,34.9783],[119.2521,34.8201],[119.2215,34.7902],[119.2146,34.777],[119.2188,34.7669],[119.2014,34.7518],[119.1947,34.7322],[119.2023,34.7153],[119.1933,34.6959],[119.1775,34.6835],[119.1816,34.6755],[119.1648,34.6534],[119.1885,34.6466],[119.1905,34.6535],[119.2398,34.6752],[119.2736,34.6607],[119.3008,34.6551],[119.328,34.6596],[119.3423,34.6535],[119.3696,34.6558],[119.378,34.6655],[119.395,34.6404],[119.4132,34.6379],[119.3721,34.615],[119.3719,34.6079],[119.3519,34.5974],[119.3595,34.5822],[119.3375,34.5839],[119.3215,34.569],[119.297,34.5632],[119.2904,34.5325],[119.3154,34.5133],[119.3395,34.5063],[119.3573,34.4848],[119.3851,34.479],[119.3982,34.4697],[119.4161,34.4719],[119.4707,34.4891],[119.5125,34.4945],[119.5311,34.5003],[119.5471,34.4902],[119.5591,34.4926],[119.5843,34.4884],[119.6362,34.509],[119.6464,34.5236],[119.6551,34.5264],[119.6967,34.6021],[119.6988,34.6677],[119.7438,34.9783]]]]},"properties":{"region_code":"CN-32-3207-320703","parent_region_code":"CN-32-3207","name":"连云区","level":"county","has_children":false,"full_path":"中国 / 江苏省 / 连云港市 / 连云区","source_admin_code":"320703","osm_relation_id":4574311}},
{"type":"Feature","geometry":{"type":"Polygon","coordinates":[[[119.1775,34.6835],[119.1257,34.6849],[119.092,34.6761],[119.068,34.6761],[119.047,34.6909],[119.0235,34.6994],[119.0102,34.7001],[118.9899,34.6934],[119.0069,34.6863],[119.0058,34.6553],[119.013,34.6549],[119.0135,34.6254],[118.9999,34.629],[118.9881,34.6131],[118.9824,34.5978],[118.9837,34.5711],[118.9612,34.567],[118.9735,34.5492],[118.9739,34.5093],[118.9966,34.5029],[119.0275,34.5095],[119.0285,34.5259],[119.0388,34.5301],[119.0407,34.5466],[119.0664,34.5541],[119.0658,34.5854],[119.0941,34.5899],[119.1106,34.5826],[119.1072,34.5596],[119.1092,34.5422],[119.0898,34.5347],[119.1023,34.5179],[119.0983,34.484],[119.0913,34.482],[119.0941,34.4555],[119.0752,34.4595],[119.0724,34.4419],[119.0904,34.4492],[119.1107,34.4428],[119.1118,34.4338],[119.1289,34.4305],[119.1544,34.4325],[119.1587,34.4394],[119.1872,34.4364],[119.1973,34.4476],[119.2176,34.46],[119.2512,34.4635],[119.3491,34.4695],[119.3982,34.4697],[119.3851,34.479],[119.3573,34.4848],[119.3395,34.5063],[119.3154,34.5133],[119.2904,34.5325],[119.297,34.5632],[119.3215,34.569],[119.3375,34.5839],[119.3595,34.5822],[119.3519,34.5974],[119.3719,34.6079],[119.3721,34.615],[119.4132,34.6379],[119.395,34.6404],[119.378,34.6655],[119.3696,34.6558],[119.3423,34.6535],[119.328,34.6596],[119.3008,34.6551],[119.2736,34.6607],[119.2398,34.6752],[119.1905,34.6535],[119.1885,34.6466],[119.1648,34.6534],[119.1816,34.6755],[119.1775,34.6835]]]},"properties":{"region_code":"CN-32-3207-320706","parent_region_code":"CN-32-3207","name":"海州区","level":"county","has_children":false,"full_path":"中国 / 江苏省 / 连云港市 / 海州区","source_admin_code":"320706","osm_relation_id":4574684}},
{"type":"Feature","geometry":{"type":"Polygon","coordinates":[[[119.7438,34.9783],[119.3099,35.0255],[119.2977,35.0858],[119.2857,35.1117],[119.2613,35.1179],[119.2403,35.1265],[119.2196,35.1091],[119.1882,35.1119],[119.1635,35.1079],[119.1269,35.097],[119.1298,35.0825],[119.1154,35.0656],[119.1208,35.055],[119.1102,35.0506],[119.0899,35.0569],[119.0659,35.0575],[119.0435,35.0494],[119.0147,35.0538],[118.9824,35.0524],[118.9557,35.0453],[118.9327,35.0458],[118.9207,35.0525],[118.8943,35.0436],[118.8821,35.035],[118.8599,35.032],[118.8547,35.0247],[118.8661,34.9965],[118.8578,34.9885],[118.851,34.9684],[118.8593,34.9524],[118.8529,34.939],[118.8137,34.9039],[118.8112,34.8895],[118.8009,34.8851],[118.802,34.8553],[118.7925,34.8442],[118.7681,34.8479],[118.7629,34.8355],[118.7776,34.8347],[118.7717,34.8208],[118.7691,34.7979],[118.7705,34.7776],[118.7793,34.7718],[118.8678,34.7711],[118.8788,34.7546],[118.8998,34.7314],[118.9234,34.7188],[118.9568,34.6952],[118.9747,34.6904],[118.9899,34.6934],[119.0102,34.7001],[119.0235,34.6994],[119.047,34.6909],[119.068,34.6761],[119.092,34.6761],[119.1257,34.6849],[119.1775,34.6835],[119.1933,34.6959],[119.2023,34.7153],[119.1947,34.7322],[119.2014,34.7518],[119.2188,34.7669],[119.2146,34.777],[119.2215,34.7902],[119.2521,34.8201],[119.7438,34.9783]],[[119.211,34.7927],[119.2107,34.7822],[119.1905,34.7404],[119.172,34.737],[119.1699,34.7468],[119.149,34.749],[119.1562,34.7857],[119.1579,34.8169],[119.1702,34.8135],[119.1925,34.8232],[119.211,34.7927]]]},"properties":{"region_code":"CN-32-3207-320707","parent_region_code":"CN-32-3207","name":"赣榆区","level":"county","has_children":false,"full_path":"中国 / 江苏省 / 连云港市 / 赣榆区","source_admin_code":"320707","osm_relation_id":4574136}},
{"type":"Feature","geometry":{"type":"Polygon","coordinates":[[[118.9899,34.6934],[118.9747,34.6904],[118.9568,34.6952],[118.9234,34.7188],[118.8998,34.7314],[118.8788,34.7546],[118.8678,34.7711],[118.7793,34.7718],[118.7705,34.7776],[118.7691,34.7979],[118.7605,34.7907],[118.7379,34.7933],[118.7343,34.768],[118.7269,34.7709],[118.7103,34.7648],[118.7135,34.7463],[118.7217,34.7478],[118.7352,34.7347],[118.7497,34.7387],[118.7658,34.7375],[118.7717,34.7236],[118.7394,34.6987],[118.7073,34.694],[118.6968,34.6849],[118.6744,34.6795],[118.6717,34.6981],[118.6578,34.7001],[118.6349,34.6941],[118.5993,34.692],[118.6029,34.7111],[118.5838,34.716],[118.5511,34.7118],[118.5239,34.7153],[118.5187,34.7002],[118.5239,34.6878],[118.5027,34.6892],[118.4954,34.6637],[118.4751,34.6748],[118.4627,34.675],[118.455,34.6567],[118.46,34.6429],[118.4701,34.6414],[118.4706,34.6223],[118.4572,34.6255],[118.4463,34.6186],[118.4335,34.6262],[118.4266,34.62],[118.4156,34.5972],[118.4189,34.5769],[118.4307,34.5439],[118.4293,34.5202],[118.4115,34.4947],[118.4036,34.466],[118.3956,34.4262],[118.4136,34.4261],[118.432,34.4186],[118.4617,34.4147],[118.5285,34.4423],[118.5623,34.4291],[118.5789,34.4296],[118.5903,34.4458],[118.6032,34.4516],[118.6244,34.4416],[118.6357,34.4413],[118.6711,34.4121],[118.6645,34.3913],[118.6366,34.3802],[118.6392,34.3578],[118.6569,34.3453],[118.6752,34.3403],[118.681,34.3476],[118.7141,34.3363],[118.7302,34.325],[118.7457,34.331],[118.7564,34.3212],[118.7554,34.3136],[118.7801,34.3128],[118.8049,34.3381],[118.806,34.3541],[118.8364,34.3706],[118.8599,34.3674],[118.9059,34.3697],[118.9386,34.3782],[118.9565,34.3623],[118.9891,34.3912],[118.9893,34.4044],[119.0099,34.4076],[119.02,34.4011],[119.0325,34.404],[119.0366,34.4218],[119.0555,34.4212],[119.058,34.4404],[119.0724,34.4419],[119.0752,34.4595],[119.0941,34.4555],[119.0913,34.482],[119.0983,34.484],[119.1023,34.5179],[119.0898,34.5347],[119.1092,34.5422],[119.1072,34.5596],[119.1106,34.5826],[119.0941,34.5899],[119.0658,34.5854],[119.0664,34.5541],[119.0407,34.5466],[119.0388,34.5301],[119.0285,34.5259],[119.0275,34.5095],[118.9966,34.5029],[118.9739,34.5093],[118.9735,34.5492],[118.9612,34.567],[118.9837,34.5711],[118.9824,34.5978],[118.9881,34.6131],[118.9999,34.629],[119.0135,34.6254],[119.013,34.6549],[119.0058,34.6553],[119.0069,34.6863],[118.9899,34.6934]]]},"properties":{"region_code":"CN-32-3207-320722","parent_region_code":"CN-32-3207","name":"东海县","level":"county","has_children":false,"full_path":"中国 / 江苏省 / 连云港市 / 东海县","source_admin_code":"320722","osm_relation_id":4574090}},
{"type":"Feature","geometry":{"type":"Polygon","coordinates":[[[119.3982,34.4697],[119.3491,34.4695],[119.2512,34.4635],[119.2176,34.46],[119.1973,34.4476],[119.1872,34.4364],[119.1587,34.4394],[119.1544,34.4325],[119.1289,34.4305],[119.1118,34.4338],[119.1107,34.4428],[119.0904,34.4492],[119.0724,34.4419],[119.058,34.4404],[119.0555,34.4212],[119.0838,34.4219],[119.0812,34.4108],[119.0597,34.4101],[119.0492,34.3772],[119.0529,34.3478],[119.0626,34.3385],[119.0771,34.3128],[119.0673,34.2699],[119.085,34.2634],[119.0856,34.2413],[119.0929,34.2212],[119.0928,34.2055],[119.1255,34.2069],[119.1283,34.2024],[119.226,34.2107],[119.2491,34.2136],[119.27,34.223],[119.301,34.2293],[119.3316,34.2296],[119.3764,34.2372],[119.3917,34.2334],[119.4181,34.2382],[119.446,34.2467],[119.4731,34.2439],[119.4739,34.2549],[119.4915,34.259],[119.5106,34.2748],[119.5263,34.2789],[119.5359,34.2884],[119.599,34.3304],[119.6277,34.3424],[119.6568,34.362],[119.6639,34.3712],[119.6927,34.373],[119.6978,34.3673],[119.719,34.3766],[119.7542,34.4041],[119.7685,34.3973],[119.7741,34.4122],[119.7576,34.4167],[119.7933,34.4425],[119.8035,34.4513],[119.8064,34.4641],[119.8192,34.4703],[119.8782,34.5321],[119.6988,34.6677],[119.6967,34.6021],[119.6551,34.5264],[119.6464,34.5236],[119.6362,34.509],[119.5843,34.4884],[119.5591,34.4926],[119.5471,34.4902],[119.5311,34.5003],[119.5125,34.4945],[119.4707,34.4891],[119.4161,34.4719],[119.3982,34.4697]]]},"properties":{"region_code":"CN-32-3207-320723","parent_region_code":"CN-32-3207","name":"灌云县","level":"county","has_children":false,"full_path":"中国 / 江苏省 / 连云港市 / 灌云县","source_admin_code":"320723","osm_relation_id":4574301}},
{"type":"Feature","geometry":{"type":"Polygon","coordinates":[[[119.1283,34.2024],[119.1343,34.1894],[119.1269,34.1813],[119.1409,34.1757],[119.1288,34.1414],[119.1639,34.1299],[119.1706,34.1203],[119.1597,34.1065],[119.169,34.0946],[119.1885,34.0937],[119.1942,34.0756],[119.2106,34.061],[119.2235,34.06],[119.2414,34.04],[119.2591,34.0369],[119.2846,34.0491],[119.3013,34.0488],[119.3027,34.0372],[119.3277,34.0298],[119.3674,34.0376],[119.3807,34.035],[119.392,34.0446],[119.3988,34.0282],[119.4084,34.0186],[119.4103,34.0055],[119.4284,34.0077],[119.4344,33.9915],[119.4546,33.9926],[119.4823,34.0107],[119.511,34.022],[119.5224,34.0382],[119.5403,34.0343],[119.5436,34.0222],[119.5669,34.0251],[119.5649,34.0352],[119.5498,34.0613],[119.5603,34.0716],[119.5712,34.0713],[119.5806,34.0794],[119.5774,34.0956],[119.5709,34.102],[119.5552,34.1015],[119.5473,34.1161],[119.533,34.1109],[119.5154,34.1373],[119.5297,34.1563],[119.5218,34.1662],[119.508,34.1628],[119.4974,34.1731],[119.5308,34.1905],[119.5479,34.2086],[119.5739,34.2116],[119.6328,34.2484],[119.6606,34.2583],[119.7332,34.3085],[119.7392,34.3228],[119.7487,34.3274],[119.7506,34.3497],[119.7664,34.3552],[119.7739,34.3683],[119.7997,34.3833],[119.7855,34.4012],[119.7829,34.4137],[119.7936,34.4339],[119.7933,34.4425],[119.7576,34.4167],[119.7741,34.4122],[119.7685,34.3973],[119.7542,34.4041],[119.719,34.3766],[119.6978,34.3673],[119.6927,34.373],[119.6639,34.3712],[119.6568,34.362],[119.6277,34.3424],[119.599,34.3304],[119.5359,34.2884],[119.5263,34.2789],[119.5106,34.2748],[119.4915,34.259],[119.4739,34.2549],[119.4731,34.2439],[119.446,34.2467],[119.4181,34.2382],[119.3917,34.2334],[119.3764,34.2372],[119.3316,34.2296],[119.301,34.2293],[119.27,34.223],[119.2491,34.2136],[119.226,34.2107],[119.1283,34.2024]]]},"properties":{"region_code":"CN-32-3207-320724","parent_region_code":"CN-32-3207","name":"灌南县","level":"county","has_children":false,"full_path":"中国 / 江苏省 / 连云港市 / 灌南县","source_admin_code":"320724","osm_relation_id":4574112}}
]}