{"type":"FeatureCollection", "features": [
{"type":"Feature","geometry":{"type":"Polygon","coordinates":[[[117.5247,32.9827],[117.5136,32.9841],[117.5036,32.9779],[117.4855,32.9753],[117.4722,32.983],[117.4649,32.9809],[117.4392,32.9676],[117.4254,32.9641],[117.3936,32.966],[117.3744,32.9633],[117.3561,32.9535],[117.3661,32.9413],[117.3822,32.9419],[117.3968,32.9395],[117.4038,32.9352],[117.4001,32.9148],[117.3919,32.8854],[117.3982,32.881],[117.4103,32.8653],[117.4104,32.8542],[117.415,32.8485],[117.4227,32.8447],[117.4502,32.8435],[117.4609,32.84],[117.4751,32.8487],[117.4751,32.8541],[117.487,32.8688],[117.4958,32.8735],[117.5071,32.8731],[117.5079,32.8902],[117.4938,32.8981],[117.5022,32.9213],[117.5027,32.9289],[117.5087,32.9389],[117.5234,32.94],[117.5214,32.9698],[117.5247,32.9827]]]},"properties":{"region_code":"CN-34-3403-340302","parent_region_code":"CN-34-3403","name":"龙子湖区","level":"county","has_children":false,"full_path":"中国 / 安徽省 / 蚌埠市 / 龙子湖区","source_admin_code":"340302","osm_relation_id":3262331}},
{"type":"Feature","geometry":{"type":"Polygon","coordinates":[[[117.3561,32.9535],[117.3464,32.9492],[117.3492,32.9279],[117.3389,32.905],[117.3347,32.9058],[117.3223,32.8963],[117.3157,32.8795],[117.3008,32.8516],[117.3015,32.8428],[117.2921,32.8186],[117.3044,32.8212],[117.3098,32.8292],[117.3371,32.8301],[117.3543,32.8418],[117.3688,32.841],[117.394,32.835],[117.4134,32.8349],[117.415,32.8485],[117.4104,32.8542],[117.4103,32.8653],[117.3982,32.881],[117.3919,32.8854],[117.4001,32.9148],[117.4038,32.9352],[117.3968,32.9395],[117.3822,32.9419],[117.3661,32.9413],[117.3561,32.9535]]]},"properties":{"region_code":"CN-34-3403-340303","parent_region_code":"CN-34-3403","name":"蚌山区","level":"county","has_children":false,"full_path":"中国 / 安徽省 / 蚌埠市 / 蚌山区","source_admin_code":"340303","osm_relation_id":3262327}},
{"type":"Feature","geometry":{"type":"Polygon","coordinates":[[[117.3464,32.9492],[117.3112,32.9528],[117.2968,32.9555],[117.2749,32.9548],[117.256,32.9572],[117.2322,32.9603],[117.2154,32.9595],[117.2068,32.9536],[117.1972,32.9395],[117.1906,32.9355],[117.1771,32.935],[117.1704,32.9293],[117.172,32.9143],[117.1821,32.898],[117.177,32.8877],[117.1716,32.8637],[117.1657,32.8556],[117.1413,32.8555],[117.1233,32.8497],[117.113,32.8361],[117.1048,32.8134],[117.1009,32.7909],[117.0946,32.7768],[117.0847,32.7632],[117.0794,32.7503],[117.0936,32.7483],[117.0959,32.7516],[117.1196,32.7594],[117.1416,32.7524],[117.1504,32.7579],[117.1517,32.7437],[117.1597,32.7409],[117.1694,32.7436],[117.1836,32.7361],[117.188,32.7366],[117.2082,32.7551],[117.2251,32.7666],[117.2315,32.7771],[117.2298,32.7855],[117.2376,32.7917],[117.2398,32.8029],[117.2505,32.8093],[117.2706,32.8072],[117.2788,32.8192],[117.2921,32.8186],[117.3015,32.8428],[117.3008,32.8516],[117.3157,32.8795],[117.3223,32.8963],[117.3347,32.9058],[117.3389,32.905],[117.3492,32.9279],[117.3464,32.9492]]]},"properties":{"region_code":"CN-34-3403-340304","parent_region_code":"CN-34-3403","name":"禹会区","level":"county","has_children":false,"full_path":"中国 / 安徽省 / 蚌埠市 / 禹会区","source_admin_code":"340304","osm_relation_id":3262333}},
{"type":"Feature","geometry":{"type":"Polygon","coordinates":[[[117.5247,32.9827],[117.5421,32.9726],[117.5543,32.9612],[117.5661,32.9731],[117.5651,32.9803],[117.5815,32.9898],[117.5897,32.9867],[117.6002,32.9718],[117.6224,32.9721],[117.622,32.9855],[117.6307,32.989],[117.6249,33.0137],[117.641,33.0254],[117.625,33.0343],[117.626,33.0409],[117.6146,33.0563],[117.6146,33.0704],[117.6114,33.0751],[117.5982,33.0725],[117.5706,33.0786],[117.5541,33.0801],[117.5463,33.0771],[117.5317,33.0762],[117.5216,33.0694],[117.4964,33.0729],[117.4855,33.0633],[117.4754,33.0508],[117.4706,33.0376],[117.4614,33.0347],[117.4499,33.0394],[117.4422,33.0388],[117.4369,33.0485],[117.4355,33.0781],[117.4254,33.0758],[117.4177,33.0862],[117.3922,33.0862],[117.3747,33.0925],[117.355,33.0901],[117.3388,33.0964],[117.3366,33.0918],[117.3209,33.096],[117.3205,33.0908],[117.3051,33.08],[117.2978,33.062],[117.2914,33.054],[117.278,33.0576],[117.2687,33.0634],[117.258,33.0635],[117.2546,33.053],[117.2365,33.0329],[117.2364,33.0184],[117.2519,33.0159],[117.2537,33.0106],[117.2514,32.9951],[117.2684,32.9925],[117.2648,32.9773],[117.2584,32.9699],[117.256,32.9572],[117.2749,32.9548],[117.2968,32.9555],[117.3112,32.9528],[117.3464,32.9492],[117.3561,32.9535],[117.3744,32.9633],[117.3936,32.966],[117.4254,32.9641],[117.4392,32.9676],[117.4649,32.9809],[117.4722,32.983],[117.4855,32.9753],[117.5036,32.9779],[117.5136,32.9841],[117.5247,32.9827]]]},"properties":{"region_code":"CN-34-3403-340311","parent_region_code":"CN-34-3403","name":"淮上区","level":"county","has_children":false,"full_path":"中国 / 安徽省 / 蚌埠市 / 淮上区","source_admin_code":"340311","osm_relation_id":3262329}},
{"type":"Feature","geometry":{"type":"Polygon","coordinates":[[[117.256,32.9572],[117.2584,32.9699],[117.2648,32.9773],[117.2684,32.9925],[117.2514,32.9951],[117.2537,33.0106],[117.2519,33.0159],[117.2364,33.0184],[117.2365,33.0329],[117.2546,33.053],[117.258,33.0635],[117.2687,33.0634],[117.278,33.0576],[117.2914,33.054],[117.2978,33.062],[117.3051,33.08],[117.3205,33.0908],[117.3079,33.1154],[117.3118,33.149],[117.3011,33.1436],[117.2881,33.1435],[117.2639,33.1499],[117.2701,33.1707],[117.2639,33.1776],[117.2534,33.1792],[117.2172,33.2008],[117.2152,33.196],[117.2028,33.1942],[117.1854,33.2054],[117.1882,33.2132],[117.18,33.2219],[117.1821,33.2341],[117.1941,33.233],[117.2023,33.2438],[117.2019,33.2581],[117.1976,33.2625],[117.1593,33.2738],[117.1448,33.2745],[117.1002,33.2824],[117.0899,33.2864],[117.0769,33.2862],[117.0559,33.2911],[117.0303,33.2949],[117.0112,33.2939],[117.0126,33.2798],[116.998,33.2832],[116.9827,33.2818],[116.9801,33.2754],[116.9565,33.2794],[116.9458,33.2854],[116.9391,33.2955],[116.9387,33.3046],[116.9207,33.3111],[116.9072,33.3081],[116.9072,33.3028],[116.8951,33.3029],[116.8905,33.2984],[116.8698,33.3014],[116.8673,33.2864],[116.8596,33.2815],[116.8393,33.285],[116.826,33.2931],[116.8168,33.3026],[116.8028,33.3053],[116.7963,33.2983],[116.7904,33.2793],[116.8032,33.2769],[116.8081,33.252],[116.8189,33.2449],[116.8155,33.2377],[116.82,33.2164],[116.8239,33.2156],[116.8124,33.1819],[116.8193,33.1783],[116.8131,33.1591],[116.8055,33.1573],[116.7886,33.1741],[116.7653,33.1466],[116.7606,33.1486],[116.752,33.1332],[116.7534,33.126],[116.7622,33.115],[116.7633,33.0947],[116.7564,33.0928],[116.7437,33.0701],[116.7442,33.0588],[116.7486,33.055],[116.7696,33.0462],[116.7761,33.049],[116.7879,33.0447],[116.7925,33.0337],[116.8046,33.0301],[116.8109,33.0222],[116.8135,33.0005],[116.8061,32.9967],[116.7967,33.0016],[116.7895,32.9972],[116.7703,32.999],[116.7605,33.008],[116.7485,33.0029],[116.7527,32.9935],[116.746,32.9776],[116.7349,32.9697],[116.7365,32.9552],[116.7439,32.9466],[116.7276,32.9365],[116.7254,32.9317],[116.7624,32.9237],[116.7799,32.9212],[116.7876,32.9054],[116.824,32.89],[116.8352,32.8874],[116.8349,32.8757],[116.8803,32.8442],[116.8841,32.8494],[116.8945,32.8445],[116.8904,32.8373],[116.9059,32.827],[116.9148,32.8262],[116.9195,32.818],[116.9172,32.8105],[116.9292,32.8115],[116.9558,32.794],[116.9894,32.7849],[116.9964,32.7817],[117.0143,32.7581],[117.0262,32.7579],[117.0245,32.7488],[117.0378,32.7364],[117.0556,32.7307],[117.0379,32.7225],[117.0436,32.7182],[117.0601,32.7247],[117.0718,32.7214],[117.087,32.7279],[117.0759,32.7393],[117.0794,32.7503],[117.0847,32.7632],[117.0946,32.7768],[117.1009,32.7909],[117.1048,32.8134],[117.113,32.8361],[117.1233,32.8497],[117.1413,32.8555],[117.1657,32.8556],[117.1716,32.8637],[117.177,32.8877],[117.1821,32.898],[117.172,32.9143],[117.1704,32.9293],[117.1771,32.935],[117.1906,32.9355],[117.1972,32.9395],[117.2068,32.9536],[117.2154,32.9595],[117.2322,32.9603],[117.256,32.9572]]]},"properties":{"region_code":"CN-34-3403-340321","parent_region_code":"CN-34-3403","name":"怀远县","level":"county","has_children":false,"full_path":"中国 / 安徽省 / 蚌埠市 / 怀远县","source_admin_code":"340321","osm_relation_id":3262330}},
{"type":"Feature","geometry":{"type":"Polygon","coordinates":[[[117.5543,32.9612],[117.5931,32.9275],[117.5998,32.9247],[117.6235,32.9261],[117.6418,32.9128],[117.6547,32.9136],[117.6652,32.9186],[117.6696,32.9302],[117.6844,32.959],[117.6931,32.98],[117.6952,32.9929],[117.7068,33.0063],[117.726,33.0042],[117.7393,33.0095],[117.7551,33.0381],[117.7656,33.0489],[117.7748,33.0496],[117.789,33.0419],[117.7985,33.0314],[117.8075,33.03],[117.8549,33.0379],[117.8817,33.0479],[117.888,33.0374],[117.8887,33.0268],[117.8955,33.0203],[117.8783,33.0083],[117.8879,32.9909],[117.906,32.9881],[117.9119,32.9956],[117.9307,33.0041],[117.9383,33.0157],[117.9451,33.0173],[117.9569,33.0044],[117.9688,33.0059],[117.9763,33.0142],[117.9923,33.0121],[117.9996,33.0031],[118.0163,33.0056],[118.0233,33.0105],[118.0316,33.0233],[118.0206,33.0387],[118.0064,33.0321],[117.9998,33.0327],[117.9938,33.0436],[117.9958,33.0584],[118.0064,33.058],[118.0122,33.0658],[118.0224,33.0685],[118.0255,33.0783],[118.035,33.0769],[118.0427,33.0715],[118.0522,33.0731],[118.0621,33.0837],[118.0634,33.0936],[118.0575,33.0969],[118.0666,33.1092],[118.0743,33.1121],[118.0689,33.1197],[118.0689,33.1318],[118.0593,33.1413],[118.0566,33.1489],[118.0379,33.1522],[118.0395,33.14],[118.0321,33.1379],[118.0315,33.1548],[118.0194,33.1584],[118.0131,33.1663],[118.0008,33.1713],[118.0009,33.1786],[117.9847,33.18],[117.9816,33.1955],[117.974,33.2039],[117.98,33.2076],[117.9803,33.2217],[117.9742,33.228],[117.9642,33.2289],[117.9549,33.2233],[117.9421,33.2253],[117.9355,33.2356],[117.9416,33.2451],[117.9432,33.2553],[117.9414,33.2684],[117.9641,33.2791],[117.9743,33.2964],[117.9786,33.2989],[117.9801,33.321],[117.9859,33.3353],[117.9704,33.336],[117.9654,33.3316],[117.9383,33.3298],[117.9114,33.332],[117.9078,33.3443],[117.8866,33.3293],[117.8553,33.3281],[117.8544,33.3145],[117.8442,33.2966],[117.8089,33.3013],[117.8001,33.2754],[117.7886,33.2804],[117.7645,33.2827],[117.7533,33.2772],[117.7323,33.2758],[117.7252,33.2823],[117.7079,33.2844],[117.6893,33.2932],[117.6842,33.307],[117.672,33.3084],[117.6676,33.3206],[117.6599,33.3294],[117.6433,33.331],[117.6254,33.3432],[117.605,33.3396],[117.58,33.3245],[117.5829,33.3182],[117.5841,33.3027],[117.594,33.2987],[117.5874,33.289],[117.586,33.2781],[117.5997,33.2696],[117.5971,33.2612],[117.5874,33.261],[117.5818,33.2502],[117.5819,33.2364],[117.5706,33.2238],[117.5562,33.2274],[117.5436,33.2196],[117.5361,33.2205],[117.5321,33.2129],[117.5351,33.2041],[117.5449,33.2029],[117.5388,33.1781],[117.5568,33.169],[117.5532,33.1633],[117.5438,33.1633],[117.5349,33.1486],[117.5357,33.1383],[117.5268,33.1407],[117.5189,33.1338],[117.51,33.1164],[117.5073,33.1063],[117.5136,33.1044],[117.5227,33.0931],[117.5186,33.0865],[117.5179,33.0756],[117.5216,33.0694],[117.5317,33.0762],[117.5463,33.0771],[117.5541,33.0801],[117.5706,33.0786],[117.5982,33.0725],[117.6114,33.0751],[117.6146,33.0704],[117.6146,33.0563],[117.626,33.0409],[117.625,33.0343],[117.641,33.0254],[117.6249,33.0137],[117.6307,32.989],[117.622,32.9855],[117.6224,32.9721],[117.6002,32.9718],[117.5897,32.9867],[117.5815,32.9898],[117.5651,32.9803],[117.5661,32.9731],[117.5543,32.9612]]]},"properties":{"region_code":"CN-34-3403-340322","parent_region_code":"CN-34-3403","name":"五河县","level":"county","has_children":false,"full_path":"中国 / 安徽省 / 蚌埠市 / 五河县","source_admin_code":"340322","osm_relation_id":3262332}},
{"type":"Feature","geometry":{"type":"Polygon","coordinates":[[[117.5216,33.0694],[117.5179,33.0756],[117.5186,33.0865],[117.5227,33.0931],[117.5136,33.1044],[117.5073,33.1063],[117.51,33.1164],[117.5189,33.1338],[117.5268,33.1407],[117.5357,33.1383],[117.5349,33.1486],[117.5438,33.1633],[117.5532,33.1633],[117.5568,33.169],[117.5388,33.1781],[117.5449,33.2029],[117.5351,33.2041],[117.5321,33.2129],[117.5361,33.2205],[117.5436,33.2196],[117.5562,33.2274],[117.5706,33.2238],[117.5819,33.2364],[117.5818,33.2502],[117.5874,33.261],[117.5971,33.2612],[117.5997,33.2696],[117.586,33.2781],[117.5874,33.289],[117.594,33.2987],[117.5841,33.3027],[117.5829,33.3182],[117.58,33.3245],[117.5718,33.3241],[117.5635,33.33],[117.5495,33.3317],[117.5347,33.3307],[117.5216,33.3391],[117.5103,33.3406],[117.4976,33.3482],[117.4769,33.3476],[117.4702,33.3499],[117.4358,33.3745],[117.4282,33.3755],[117.4249,33.3876],[117.4172,33.4019],[117.4074,33.4079],[117.4053,33.414],[117.3927,33.4277],[117.3956,33.4428],[117.386,33.4581],[117.3799,33.4623],[117.3497,33.4723],[117.3236,33.476],[117.317,33.4749],[117.3062,33.4929],[117.274,33.4966],[117.2725,33.4893],[117.2495,33.4963],[117.2376,33.5019],[117.2355,33.4875],[117.2313,33.4809],[117.2237,33.4793],[117.2208,33.4705],[117.2209,33.4572],[117.2147,33.4533],[117.2023,33.4546],[117.1971,33.4253],[117.1552,33.4583],[117.1458,33.442],[117.1364,33.4448],[117.1242,33.4329],[117.1204,33.4235],[117.1285,33.4213],[117.1381,33.4115],[117.1272,33.3885],[117.1199,33.3824],[117.1086,33.3879],[117.0965,33.3985],[117.0874,33.4003],[117.0791,33.408],[117.0636,33.4011],[117.0553,33.3933],[117.0458,33.373],[117.0557,33.3761],[117.0802,33.3666],[117.0821,33.3611],[117.0919,33.3579],[117.0849,33.3459],[117.0739,33.3466],[117.068,33.334],[117.0599,33.3276],[117.0621,33.3197],[117.0746,33.3224],[117.0865,33.3188],[117.094,33.3124],[117.0899,33.2864],[117.1002,33.2824],[117.1448,33.2745],[117.1593,33.2738],[117.1976,33.2625],[117.2019,33.2581],[117.2023,33.2438],[117.1941,33.233],[117.1821,33.2341],[117.18,33.2219],[117.1882,33.2132],[117.1854,33.2054],[117.2028,33.1942],[117.2152,33.196],[117.2172,33.2008],[117.2534,33.1792],[117.2639,33.1776],[117.2701,33.1707],[117.2639,33.1499],[117.2881,33.1435],[117.3011,33.1436],[117.3118,33.149],[117.3079,33.1154],[117.3205,33.0908],[117.3209,33.096],[117.3366,33.0918],[117.3388,33.0964],[117.355,33.0901],[117.3747,33.0925],[117.3922,33.0862],[117.4177,33.0862],[117.4254,33.0758],[117.4355,33.0781],[117.4369,33.0485],[117.4422,33.0388],[117.4499,33.0394],[117.4614,33.0347],[117.4706,33.0376],[117.4754,33.0508],[117.4855,33.0633],[117.4964,33.0729],[117.5216,33.0694]]]},"properties":{"region_code":"CN-34-3403-340323","parent_region_code":"CN-34-3403","name":"固镇县","level":"county","has_children":false,"full_path":"中国 / 安徽省 / 蚌埠市 / 固镇县","source_admin_code":"340323","osm_relation_id":3262328}}
]}