{"type":"FeatureCollection", "features": [
{"type":"Feature","geometry":{"type":"Polygon","coordinates":[[[119.2181,37.4907],[118.9386,37.4894],[118.9016,37.4915],[118.8669,37.4826],[118.8628,37.4699],[118.7724,37.4928],[118.7391,37.4865],[118.6955,37.5072],[118.6812,37.4927],[118.6488,37.5129],[118.5338,37.5122],[118.5346,37.5231],[118.4833,37.5353],[118.4574,37.5046],[118.4268,37.4886],[118.4414,37.4798],[118.4259,37.4448],[118.4318,37.4245],[118.3861,37.4293],[118.3588,37.4267],[118.33,37.4148],[118.3042,37.4178],[118.2485,37.456],[118.2335,37.423],[118.2317,37.3896],[118.2108,37.3853],[118.2117,37.3701],[118.2787,37.3612],[118.3116,37.353],[118.3077,37.314],[118.362,37.2787],[118.3697,37.261],[118.3846,37.2612],[118.3995,37.2891],[118.4166,37.2979],[118.4643,37.303],[118.5043,37.2946],[118.5451,37.2928],[118.5452,37.3117],[118.5733,37.3052],[118.63,37.3108],[118.6338,37.3207],[118.6712,37.3346],[118.7125,37.3361],[118.7228,37.3212],[118.7683,37.3293],[118.8444,37.3328],[118.8728,37.3282],[118.9002,37.3584],[118.9317,37.3497],[118.9912,37.3586],[119.2291,37.4182],[119.2181,37.4907]]]},"properties":{"region_code":"CN-37-3705-370502","parent_region_code":"CN-37-3705","name":"东营区","level":"county","has_children":false,"full_path":"中国 / 山东省 / 东营市 / 东营区","source_admin_code":"370502","osm_relation_id":5678407}},
{"type":"Feature","geometry":{"type":"Polygon","coordinates":[[[119.4666,37.9976],[119.3191,38.1497],[119.1587,38.2541],[118.9689,38.354],[118.7931,38.352],[118.7934,38.1435],[118.7678,38.1346],[118.7419,38.1111],[118.721,38.1188],[118.7107,38.139],[118.6931,38.1428],[118.6686,38.1244],[118.6708,37.99],[118.6631,37.9634],[118.5931,37.9629],[118.6168,37.9482],[118.6176,37.9262],[118.5209,37.9234],[118.468,37.9335],[118.4606,37.9607],[118.4195,37.9596],[118.4134,38.0023],[118.4173,38.0189],[118.3844,38.0158],[118.3756,38.0405],[118.3356,38.0654],[118.3379,38.0913],[118.3286,38.1367],[118.3367,38.1495],[118.3369,38.414],[118.2705,38.4339],[118.2309,38.1268],[118.2363,38.1097],[118.2235,38.0705],[118.215,37.9819],[118.22,37.9227],[118.2376,37.8949],[118.2334,37.8678],[118.2525,37.8541],[118.2804,37.8562],[118.296,37.8698],[118.321,37.8645],[118.3549,37.7982],[118.4064,37.7962],[118.4548,37.8392],[118.4856,37.8436],[118.5057,37.8205],[118.5034,37.7849],[118.5407,37.7988],[118.5668,37.7916],[118.5998,37.8017],[118.6326,37.8262],[118.6778,37.8062],[118.6694,37.7827],[118.6942,37.766],[118.7217,37.7812],[118.7843,37.8069],[118.8498,37.8538],[118.9022,37.8732],[118.9778,37.9483],[119.4666,37.9976]]]},"properties":{"region_code":"CN-37-3705-370503","parent_region_code":"CN-37-3705","name":"河口区","level":"county","has_children":false,"full_path":"中国 / 山东省 / 东营市 / 河口区","source_admin_code":"370503","osm_relation_id":5678409}},
{"type":"Feature","geometry":{"type":"Polygon","coordinates":[[[119.2181,37.4907],[119.4186,37.6023],[119.5264,37.6069],[119.5151,37.9474],[119.4666,37.9976],[118.9778,37.9483],[118.9022,37.8732],[118.8498,37.8538],[118.7843,37.8069],[118.7217,37.7812],[118.6942,37.766],[118.7041,37.7382],[118.6733,37.7245],[118.6343,37.6624],[118.5175,37.6008],[118.45,37.6147],[118.4013,37.6109],[118.341,37.5977],[118.329,37.5902],[118.302,37.5059],[118.2687,37.4872],[118.2485,37.456],[118.3042,37.4178],[118.33,37.4148],[118.3588,37.4267],[118.3861,37.4293],[118.4318,37.4245],[118.4259,37.4448],[118.4414,37.4798],[118.4268,37.4886],[118.4574,37.5046],[118.4833,37.5353],[118.5346,37.5231],[118.5338,37.5122],[118.6488,37.5129],[118.6812,37.4927],[118.6955,37.5072],[118.7391,37.4865],[118.7724,37.4928],[118.8628,37.4699],[118.8669,37.4826],[118.9016,37.4915],[118.9386,37.4894],[119.2181,37.4907]]]},"properties":{"region_code":"CN-37-3705-370505","parent_region_code":"CN-37-3705","name":"垦利区","level":"county","has_children":false,"full_path":"中国 / 山东省 / 东营市 / 垦利区","source_admin_code":"370505","osm_relation_id":5678410}},
{"type":"Feature","geometry":{"type":"MultiPolygon","coordinates":[[[[118.7931,38.352],[118.559,38.3492],[118.5418,38.361],[118.5413,38.0847],[118.5675,38.0477],[118.5805,38.0401],[118.5763,38.018],[118.6043,37.9785],[118.5931,37.9629],[118.6631,37.9634],[118.6708,37.99],[118.6686,38.1244],[118.6931,38.1428],[118.7107,38.139],[118.721,38.1188],[118.7419,38.1111],[118.7678,38.1346],[118.7934,38.1435],[118.7931,38.352]]],[[[118.2485,37.456],[118.2687,37.4872],[118.302,37.5059],[118.329,37.5902],[118.341,37.5977],[118.4013,37.6109],[118.45,37.6147],[118.5175,37.6008],[118.6343,37.6624],[118.6733,37.7245],[118.7041,37.7382],[118.6942,37.766],[118.6694,37.7827],[118.6778,37.8062],[118.6326,37.8262],[118.5998,37.8017],[118.5668,37.7916],[118.5407,37.7988],[118.5034,37.7849],[118.5057,37.8205],[118.4856,37.8436],[118.4548,37.8392],[118.4064,37.7962],[118.3549,37.7982],[118.3431,37.7908],[118.3309,37.7286],[118.3134,37.712],[118.2991,37.6821],[118.2785,37.6612],[118.2493,37.6537],[118.2045,37.6654],[118.1713,37.6569],[118.1489,37.6271],[118.1424,37.5924],[118.1213,37.5772],[118.1279,37.5575],[118.167,37.5628],[118.1634,37.5427],[118.1303,37.5157],[118.1067,37.4624],[118.1155,37.4396],[118.1443,37.4375],[118.1588,37.4073],[118.1485,37.3776],[118.1557,37.3618],[118.2108,37.3853],[118.2317,37.3896],[118.2335,37.423],[118.2485,37.456]]]]},"properties":{"region_code":"CN-37-3705-370522","parent_region_code":"CN-37-3705","name":"利津县","level":"county","has_children":false,"full_path":"中国 / 山东省 / 东营市 / 利津县","source_admin_code":"370522","osm_relation_id":5678411}},
{"type":"Feature","geometry":{"type":"Polygon","coordinates":[[[118.3697,37.261],[118.341,37.231],[118.3697,37.2054],[118.3808,37.1771],[118.3717,37.1534],[118.3356,37.1323],[118.3444,37.1016],[118.3269,37.0814],[118.3323,37.0536],[118.3211,37.0361],[118.2947,37.0184],[118.2837,36.9993],[118.2982,36.9602],[118.3335,36.9563],[118.3848,36.9691],[118.3894,36.9476],[118.4603,36.9406],[118.4707,36.9565],[118.5492,36.9379],[118.5563,36.9509],[118.546,36.9873],[118.5824,37.0116],[118.5416,37.0302],[118.5569,37.0406],[118.5529,37.0567],[118.5817,37.0625],[118.6123,37.0606],[118.6351,37.0674],[118.6629,37.0894],[118.6694,37.1184],[118.6473,37.1549],[118.6496,37.1834],[118.6693,37.2282],[118.7043,37.2409],[118.7733,37.2797],[118.8178,37.2884],[118.901,37.2977],[118.9297,37.296],[118.9549,37.311],[119.2432,37.3723],[119.2291,37.4182],[118.9912,37.3586],[118.9317,37.3497],[118.9002,37.3584],[118.8728,37.3282],[118.8444,37.3328],[118.7683,37.3293],[118.7228,37.3212],[118.7125,37.3361],[118.6712,37.3346],[118.6338,37.3207],[118.63,37.3108],[118.5733,37.3052],[118.5452,37.3117],[118.5451,37.2928],[118.5043,37.2946],[118.4643,37.303],[118.4166,37.2979],[118.3995,37.2891],[118.3846,37.2612],[118.3697,37.261]]]},"properties":{"region_code":"CN-37-3705-370523","parent_region_code":"CN-37-3705","name":"广饶县","level":"county","has_children":false,"full_path":"中国 / 山东省 / 东营市 / 广饶县","source_admin_code":"370523","osm_relation_id":5678408}}
]}