{"type":"FeatureCollection", "features": [
{"type":"Feature","geometry":{"type":"Polygon","coordinates":[[[121.0783,31.8623],[121.0796,31.8738],[121.0762,31.8803],[121.0788,31.8903],[121.0774,31.9119],[121.0737,31.9211],[121.0822,31.9268],[121.0818,31.9502],[121.0747,31.9589],[121.0733,31.967],[121.0641,31.9667],[121.0637,31.9911],[121.0673,31.9968],[121.0879,31.9974],[121.0978,31.9992],[121.1412,31.9939],[121.1489,32.0017],[121.1905,32.0008],[121.1925,32.0179],[121.2022,32.0216],[121.2097,32.0299],[121.2084,32.0359],[121.2201,32.0432],[121.2229,32.0525],[121.2303,32.0583],[121.2337,32.0656],[121.2421,32.0704],[121.2488,32.0797],[121.2474,32.0838],[121.2509,32.0971],[121.2503,32.1047],[121.2597,32.1097],[121.2819,32.1123],[121.3298,32.1146],[121.3307,32.1021],[121.3376,32.1023],[121.3385,32.0946],[121.3447,32.0928],[121.3785,32.0926],[121.3899,32.0936],[121.4009,32.0981],[121.4276,32.0932],[121.4265,32.1139],[121.4414,32.1404],[121.4715,32.1404],[121.5271,32.1521],[121.5492,32.168],[121.5727,32.1507],[121.6449,32.1362],[121.735,32.1747],[121.7347,32.2049],[121.7344,32.2382],[121.9303,32.2553],[122.179,32.2553],[122.1578,32.3109],[121.9097,32.3111],[121.734,32.2758],[121.7337,32.2986],[121.5309,32.2962],[121.5296,32.2044],[121.4127,32.2041],[121.3683,32.2032],[121.3337,32.2001],[121.2699,32.1982],[121.252,32.1952],[121.235,32.1972],[121.2297,32.1945],[121.2228,32.2026],[121.2129,32.2058],[121.2007,32.2038],[121.1476,32.2111],[121.1086,32.218],[121.0857,32.2196],[121.0766,32.2284],[121.0606,32.2287],[121.0565,32.2363],[121.0448,32.2352],[121.0372,32.2393],[121.0328,32.2491],[121.025,32.2469],[121.012,32.2503],[121.0078,32.2608],[120.9676,32.2533],[120.9638,32.248],[120.9536,32.243],[120.9449,32.2486],[120.9231,32.2519],[120.9089,32.2514],[120.9059,32.2452],[120.8983,32.2479],[120.8774,32.2483],[120.8709,32.2468],[120.8615,32.2498],[120.8487,32.2576],[120.8365,32.2597],[120.832,32.2573],[120.8335,32.2491],[120.8315,32.2403],[120.8249,32.2408],[120.8207,32.2349],[120.8128,32.2348],[120.8084,32.2444],[120.7912,32.2463],[120.789,32.2381],[120.777,32.2183],[120.7769,32.2072],[120.7805,32.1949],[120.7744,32.1939],[120.7687,32.1999],[120.762,32.201],[120.7577,32.1949],[120.735,32.1917],[120.735,32.1835],[120.7298,32.18],[120.7308,32.1707],[120.7427,32.1648],[120.7364,32.1584],[120.714,32.1599],[120.7147,32.1667],[120.6994,32.1632],[120.694,32.1422],[120.7041,32.1413],[120.704,32.1194],[120.6811,32.1208],[120.675,32.1121],[120.68,32.1001],[120.6538,32.0944],[120.6451,32.0838],[120.6461,32.0609],[120.6408,32.0634],[120.6231,32.0525],[120.6269,32.0352],[120.6317,32.0332],[120.6478,32.0332],[120.6567,32.0262],[120.6576,32.014],[120.6515,32.0093],[120.6395,32.0065],[120.6333,31.9976],[120.6531,31.9972],[120.7311,32.0055],[120.7372,32.0391],[120.7667,32.1041],[120.808,32.1452],[120.8166,32.1436],[120.8153,32.1375],[120.8248,32.1346],[120.8272,32.1265],[120.8415,32.1248],[120.8525,32.1275],[120.8702,32.1116],[120.8758,32.1034],[120.8655,32.0968],[120.8659,32.0839],[120.8697,32.082],[120.8866,32.09],[120.8893,32.0855],[120.9048,32.0861],[120.9189,32.0789],[120.9119,32.0677],[120.9037,32.0603],[120.9042,32.0481],[120.9113,32.0423],[120.963,32.0442],[120.9665,32.0351],[120.9643,32.0271],[120.9579,32.0284],[120.9594,32.0148],[120.9544,32.0079],[120.9425,32.0098],[120.9392,31.9925],[120.9456,31.993],[120.9499,31.9816],[120.9592,31.9769],[120.9611,31.9689],[120.9769,31.9669],[120.9952,31.9742],[121.0048,31.9809],[121.0092,31.9703],[121.008,31.9472],[120.9887,31.9472],[120.9967,31.9168],[121.0042,31.9071],[120.9989,31.8973],[121.0095,31.8983],[121.0236,31.894],[121.0202,31.8777],[121.0157,31.8734],[121.0265,31.8668],[121.0404,31.8629],[121.0615,31.8641],[121.0783,31.8623]]]},"properties":{"region_code":"CN-32-3206-320612","parent_region_code":"CN-32-3206","name":"通州区","level":"county","has_children":false,"full_path":"中国 / 江苏省 / 南通市 / 通州区","source_admin_code":"320612","osm_relation_id":5670639}},
{"type":"Feature","geometry":{"type":"Polygon","coordinates":[[[120.7311,32.0055],[120.7408,32.0062],[120.7688,32.0024],[120.7801,31.9994],[120.7897,31.9926],[120.8035,31.973],[120.8044,31.9661],[120.8238,31.9337],[120.8437,31.8969],[120.8676,31.8565],[120.8836,31.8331],[120.9015,31.8154],[120.9421,31.7956],[120.9559,31.7913],[120.9927,31.7855],[121.0298,31.7852],[121.0348,31.8176],[121.0431,31.8251],[121.0422,31.8355],[121.057,31.8339],[121.0576,31.8282],[121.074,31.8312],[121.0785,31.8347],[121.0783,31.8623],[121.0615,31.8641],[121.0404,31.8629],[121.0265,31.8668],[121.0157,31.8734],[121.0202,31.8777],[121.0236,31.894],[121.0095,31.8983],[120.9989,31.8973],[121.0042,31.9071],[120.9967,31.9168],[120.9887,31.9472],[121.008,31.9472],[121.0092,31.9703],[121.0048,31.9809],[120.9952,31.9742],[120.9769,31.9669],[120.9611,31.9689],[120.9592,31.9769],[120.9499,31.9816],[120.9456,31.993],[120.9392,31.9925],[120.9425,32.0098],[120.9544,32.0079],[120.9594,32.0148],[120.9579,32.0284],[120.9643,32.0271],[120.9665,32.0351],[120.963,32.0442],[120.9113,32.0423],[120.9042,32.0481],[120.9037,32.0603],[120.9119,32.0677],[120.9189,32.0789],[120.9048,32.0861],[120.8893,32.0855],[120.8866,32.09],[120.8697,32.082],[120.8659,32.0839],[120.8655,32.0968],[120.8758,32.1034],[120.8702,32.1116],[120.8525,32.1275],[120.8415,32.1248],[120.8272,32.1265],[120.8248,32.1346],[120.8153,32.1375],[120.8166,32.1436],[120.808,32.1452],[120.7667,32.1041],[120.7372,32.0391],[120.7311,32.0055]]]},"properties":{"region_code":"CN-32-3206-320613","parent_region_code":"CN-32-3206","name":"崇川区","level":"county","has_children":false,"full_path":"中国 / 江苏省 / 南通市 / 崇川区","source_admin_code":"320613","osm_relation_id":5670633}},
{"type":"Feature","geometry":{"type":"MultiPolygon","coordinates":[[[[121.7347,32.2049],[121.9495,32.2049],[122.1979,32.2049],[122.179,32.2553],[121.9303,32.2553],[121.7344,32.2382],[121.7347,32.2049]]],[[[121.0783,31.8623],[121.0785,31.8347],[121.074,31.8312],[121.0576,31.8282],[121.057,31.8339],[121.0422,31.8355],[121.0431,31.8251],[121.0348,31.8176],[121.0298,31.7852],[121.0551,31.7844],[121.0702,31.7792],[121.096,31.7655],[121.1028,31.7685],[121.1347,31.7883],[121.1517,31.8019],[121.1713,31.8198],[121.2204,31.8481],[121.2812,31.8703],[121.2904,31.872],[121.3055,31.8714],[121.328,31.863],[121.3696,31.8437],[121.3815,31.8351],[121.4008,31.8116],[121.4065,31.8085],[121.4117,31.7993],[121.4062,31.7973],[121.418,31.7796],[121.4288,31.7709],[121.4412,31.7947],[121.4519,31.8234],[121.4615,31.8415],[121.4578,31.8525],[121.4696,31.8819],[121.4757,31.8861],[121.4785,31.8962],[121.5001,31.9043],[121.4932,31.9088],[121.5039,31.9423],[121.504,31.9575],[121.5005,31.9659],[121.5115,31.9716],[121.5186,31.9815],[121.519,32.015],[121.5205,32.0295],[121.5198,32.0448],[121.5293,32.065],[121.5266,32.0857],[121.534,32.1056],[121.5466,32.1305],[121.5636,32.1364],[121.5727,32.1507],[121.5492,32.168],[121.5271,32.1521],[121.4715,32.1404],[121.4414,32.1404],[121.4265,32.1139],[121.4276,32.0932],[121.4009,32.0981],[121.3899,32.0936],[121.3785,32.0926],[121.3447,32.0928],[121.3385,32.0946],[121.3376,32.1023],[121.3307,32.1021],[121.3298,32.1146],[121.2819,32.1123],[121.2597,32.1097],[121.2503,32.1047],[121.2509,32.0971],[121.2474,32.0838],[121.2488,32.0797],[121.2421,32.0704],[121.2337,32.0656],[121.2303,32.0583],[121.2229,32.0525],[121.2201,32.0432],[121.2084,32.0359],[121.2097,32.0299],[121.2022,32.0216],[121.1925,32.0179],[121.1905,32.0008],[121.1489,32.0017],[121.1412,31.9939],[121.0978,31.9992],[121.0879,31.9974],[121.0673,31.9968],[121.0637,31.9911],[121.0641,31.9667],[121.0733,31.967],[121.0747,31.9589],[121.0818,31.9502],[121.0822,31.9268],[121.0737,31.9211],[121.0774,31.9119],[121.0788,31.8903],[121.0762,31.8803],[121.0796,31.8738],[121.0783,31.8623]]]]},"properties":{"region_code":"CN-32-3206-320614","parent_region_code":"CN-32-3206","name":"海门区","level":"county","has_children":false,"full_path":"中国 / 江苏省 / 南通市 / 海门区","source_admin_code":"320614","osm_relation_id":5670636}},
{"type":"Feature","geometry":{"type":"Polygon","coordinates":[[[122.1578,32.3109],[121.9492,32.8583],[121.7005,32.8583],[121.4191,32.8583],[121.4164,32.7679],[121.1363,32.6226],[121.0714,32.6327],[121.0429,32.6481],[120.9693,32.6304],[120.9517,32.6139],[120.9035,32.6151],[120.8855,32.6026],[120.8701,32.6076],[120.8566,32.5864],[120.8599,32.5679],[120.8565,32.5647],[120.8434,32.5673],[120.8351,32.5626],[120.8335,32.5717],[120.8229,32.564],[120.8173,32.5561],[120.8076,32.5613],[120.8023,32.5473],[120.7909,32.5526],[120.7908,32.5382],[120.7979,32.5312],[120.795,32.5191],[120.7895,32.5163],[120.7693,32.5141],[120.7445,32.5147],[120.7318,32.5118],[120.7084,32.5126],[120.7051,32.5044],[120.6959,32.4937],[120.6926,32.4829],[120.7048,32.4772],[120.704,32.4669],[120.7079,32.4429],[120.7177,32.4312],[120.7417,32.4389],[120.739,32.4285],[120.7334,32.4194],[120.7393,32.4042],[120.7349,32.3843],[120.7445,32.3696],[120.7461,32.3564],[120.7664,32.3528],[120.7707,32.3468],[120.7793,32.3199],[120.785,32.3222],[120.7954,32.3112],[120.8166,32.3132],[120.8254,32.3039],[120.8263,32.2859],[120.8204,32.2837],[120.8218,32.2748],[120.8278,32.2665],[120.8211,32.2627],[120.8245,32.2551],[120.8335,32.2491],[120.832,32.2573],[120.8365,32.2597],[120.8487,32.2576],[120.8615,32.2498],[120.8709,32.2468],[120.8774,32.2483],[120.8983,32.2479],[120.9059,32.2452],[120.9089,32.2514],[120.9231,32.2519],[120.9449,32.2486],[120.9536,32.243],[120.9638,32.248],[120.9676,32.2533],[121.0078,32.2608],[121.012,32.2503],[121.025,32.2469],[121.0328,32.2491],[121.0372,32.2393],[121.0448,32.2352],[121.0565,32.2363],[121.0606,32.2287],[121.0766,32.2284],[121.0857,32.2196],[121.1086,32.218],[121.1476,32.2111],[121.2007,32.2038],[121.2129,32.2058],[121.2228,32.2026],[121.2297,32.1945],[121.235,32.1972],[121.252,32.1952],[121.2699,32.1982],[121.3337,32.2001],[121.3683,32.2032],[121.4127,32.2041],[121.5296,32.2044],[121.5309,32.2962],[121.7337,32.2986],[121.734,32.2758],[121.9097,32.3111],[122.1578,32.3109]]]},"properties":{"region_code":"CN-32-3206-320623","parent_region_code":"CN-32-3206","name":"如东县","level":"county","has_children":false,"full_path":"中国 / 江苏省 / 南通市 / 如东县","source_admin_code":"320623","osm_relation_id":5670637}},
{"type":"Feature","geometry":{"type":"Polygon","coordinates":[[[121.5727,32.1507],[121.5636,32.1364],[121.5466,32.1305],[121.534,32.1056],[121.5266,32.0857],[121.5293,32.065],[121.5198,32.0448],[121.5205,32.0295],[121.519,32.015],[121.5186,31.9815],[121.5115,31.9716],[121.5005,31.9659],[121.504,31.9575],[121.5039,31.9423],[121.4932,31.9088],[121.5001,31.9043],[121.4785,31.8962],[121.4757,31.8861],[121.4696,31.8819],[121.4578,31.8525],[121.4615,31.8415],[121.4519,31.8234],[121.4412,31.7947],[121.4288,31.7709],[121.4469,31.7631],[121.4622,31.7596],[121.4949,31.7552],[121.5106,31.7449],[121.5246,31.7417],[121.5466,31.7305],[121.5604,31.7196],[121.5891,31.7091],[121.6072,31.7066],[121.6331,31.6965],[121.6406,31.6978],[121.8109,31.6464],[121.8741,31.6341],[121.9228,31.682],[122.0197,31.7019],[122.3845,31.7019],[122.1979,32.2049],[121.9495,32.2049],[121.7347,32.2049],[121.735,32.1747],[121.6449,32.1362],[121.5727,32.1507]]]},"properties":{"region_code":"CN-32-3206-320681","parent_region_code":"CN-32-3206","name":"启东市","level":"county","has_children":false,"full_path":"中国 / 江苏省 / 南通市 / 启东市","source_admin_code":"320681","osm_relation_id":3320332}},
{"type":"Feature","geometry":{"type":"Polygon","coordinates":[[[120.8335,32.2491],[120.8245,32.2551],[120.8211,32.2627],[120.8278,32.2665],[120.8218,32.2748],[120.8204,32.2837],[120.8263,32.2859],[120.8254,32.3039],[120.8166,32.3132],[120.7954,32.3112],[120.785,32.3222],[120.7793,32.3199],[120.7707,32.3468],[120.7664,32.3528],[120.7461,32.3564],[120.7445,32.3696],[120.7349,32.3843],[120.7393,32.4042],[120.7334,32.4194],[120.739,32.4285],[120.7417,32.4389],[120.7177,32.4312],[120.7079,32.4429],[120.704,32.4669],[120.6952,32.4671],[120.6927,32.475],[120.6773,32.4752],[120.6719,32.4904],[120.6649,32.4853],[120.6575,32.4902],[120.6444,32.4746],[120.633,32.4768],[120.6147,32.4701],[120.609,32.4799],[120.5881,32.4834],[120.5874,32.4911],[120.5744,32.4881],[120.5655,32.4884],[120.5533,32.4838],[120.5505,32.4922],[120.5209,32.4876],[120.5252,32.4709],[120.5063,32.4709],[120.5011,32.4752],[120.467,32.4689],[120.4587,32.4556],[120.4635,32.446],[120.4501,32.4391],[120.4502,32.4347],[120.4364,32.4209],[120.4326,32.4265],[120.4245,32.4227],[120.4177,32.4067],[120.4022,32.4006],[120.4043,32.3962],[120.3909,32.3901],[120.3998,32.3763],[120.3851,32.3638],[120.3725,32.3597],[120.3666,32.3635],[120.3563,32.3609],[120.3514,32.3637],[120.3427,32.3581],[120.3444,32.3506],[120.3403,32.343],[120.3453,32.3371],[120.3492,32.3256],[120.3599,32.3175],[120.3609,32.3126],[120.3517,32.3045],[120.3443,32.3021],[120.3473,32.293],[120.3421,32.2692],[120.3452,32.2575],[120.3423,32.2522],[120.3491,32.2443],[120.3567,32.2424],[120.3656,32.2312],[120.3661,32.2146],[120.356,32.2031],[120.3566,32.1986],[120.3454,32.1822],[120.3405,32.1705],[120.3446,32.166],[120.3407,32.1603],[120.3493,32.1509],[120.3527,32.1422],[120.3514,32.1327],[120.3713,32.1296],[120.3869,32.1301],[120.3952,32.1253],[120.4069,32.1266],[120.4316,32.1251],[120.4432,32.1191],[120.478,32.1056],[120.5058,32.0959],[120.515,32.075],[120.5131,32.0637],[120.5249,32.0589],[120.5434,32.0563],[120.5413,32.043],[120.5532,32.0355],[120.5431,32.015],[120.5607,32.0093],[120.5938,32.0027],[120.6333,31.9976],[120.6395,32.0065],[120.6515,32.0093],[120.6576,32.014],[120.6567,32.0262],[120.6478,32.0332],[120.6317,32.0332],[120.6269,32.0352],[120.6231,32.0525],[120.6408,32.0634],[120.6461,32.0609],[120.6451,32.0838],[120.6538,32.0944],[120.68,32.1001],[120.675,32.1121],[120.6811,32.1208],[120.704,32.1194],[120.7041,32.1413],[120.694,32.1422],[120.6994,32.1632],[120.7147,32.1667],[120.714,32.1599],[120.7364,32.1584],[120.7427,32.1648],[120.7308,32.1707],[120.7298,32.18],[120.735,32.1835],[120.735,32.1917],[120.7577,32.1949],[120.762,32.201],[120.7687,32.1999],[120.7744,32.1939],[120.7805,32.1949],[120.7769,32.2072],[120.777,32.2183],[120.789,32.2381],[120.7912,32.2463],[120.8084,32.2444],[120.8128,32.2348],[120.8207,32.2349],[120.8249,32.2408],[120.8315,32.2403],[120.8335,32.2491]]]},"properties":{"region_code":"CN-32-3206-320682","parent_region_code":"CN-32-3206","name":"如皋市","level":"county","has_children":false,"full_path":"中国 / 江苏省 / 南通市 / 如皋市","source_admin_code":"320682","osm_relation_id":5670638}},
{"type":"Feature","geometry":{"type":"Polygon","coordinates":[[[121.0429,32.6481],[121.01,32.666],[120.9668,32.6517],[120.9386,32.6458],[120.9369,32.647],[120.8913,32.6338],[120.8588,32.6325],[120.8592,32.6208],[120.8466,32.6204],[120.8613,32.6095],[120.8469,32.606],[120.8335,32.6086],[120.827,32.5993],[120.8128,32.5943],[120.8031,32.5859],[120.7877,32.5833],[120.7887,32.6041],[120.7732,32.6038],[120.7635,32.6078],[120.7601,32.6047],[120.7391,32.6038],[120.7352,32.6004],[120.7358,32.5901],[120.7257,32.5872],[120.7253,32.5941],[120.7153,32.5937],[120.7159,32.603],[120.7044,32.6059],[120.6791,32.5996],[120.6659,32.5882],[120.6585,32.5756],[120.6477,32.5764],[120.6443,32.5922],[120.6531,32.5961],[120.6507,32.6067],[120.6397,32.6179],[120.634,32.615],[120.6245,32.6177],[120.6135,32.6046],[120.609,32.6079],[120.6163,32.6296],[120.6074,32.6359],[120.6055,32.6424],[120.596,32.6521],[120.5807,32.6397],[120.5667,32.6401],[120.5377,32.6338],[120.5327,32.6375],[120.5184,32.6364],[120.5094,32.6384],[120.5018,32.6441],[120.4914,32.6424],[120.493,32.6251],[120.4837,32.6282],[120.4805,32.6333],[120.4532,32.6342],[120.4379,32.6322],[120.4426,32.6423],[120.4319,32.65],[120.426,32.6776],[120.4141,32.6802],[120.4041,32.6907],[120.3925,32.6895],[120.3841,32.6933],[120.3863,32.7072],[120.3727,32.7143],[120.366,32.7072],[120.3286,32.7066],[120.3138,32.7009],[120.3122,32.7075],[120.3028,32.7024],[120.2868,32.6897],[120.2736,32.6819],[120.2456,32.6821],[120.2421,32.6766],[120.2314,32.6748],[120.227,32.6795],[120.2198,32.6783],[120.2189,32.6605],[120.2231,32.6514],[120.2156,32.6513],[120.2163,32.6373],[120.2083,32.6294],[120.203,32.6109],[120.1972,32.6034],[120.2024,32.5931],[120.2185,32.5843],[120.2236,32.5897],[120.2443,32.5971],[120.2541,32.5933],[120.253,32.5871],[120.2569,32.5773],[120.2576,32.5641],[120.265,32.5511],[120.2583,32.5187],[120.2597,32.5094],[120.254,32.5031],[120.253,32.4948],[120.2598,32.4892],[120.2671,32.4736],[120.2673,32.4609],[120.2705,32.4409],[120.2759,32.4333],[120.2754,32.4228],[120.2789,32.4025],[120.2835,32.3912],[120.2785,32.382],[120.2843,32.3727],[120.2968,32.3745],[120.3043,32.3638],[120.3169,32.3702],[120.3458,32.3799],[120.3472,32.3702],[120.3514,32.3637],[120.3563,32.3609],[120.3666,32.3635],[120.3725,32.3597],[120.3851,32.3638],[120.3998,32.3763],[120.3909,32.3901],[120.4043,32.3962],[120.4022,32.4006],[120.4177,32.4067],[120.4245,32.4227],[120.4326,32.4265],[120.4364,32.4209],[120.4502,32.4347],[120.4501,32.4391],[120.4635,32.446],[120.4587,32.4556],[120.467,32.4689],[120.5011,32.4752],[120.5063,32.4709],[120.5252,32.4709],[120.5209,32.4876],[120.5505,32.4922],[120.5533,32.4838],[120.5655,32.4884],[120.5744,32.4881],[120.5874,32.4911],[120.5881,32.4834],[120.609,32.4799],[120.6147,32.4701],[120.633,32.4768],[120.6444,32.4746],[120.6575,32.4902],[120.6649,32.4853],[120.6719,32.4904],[120.6773,32.4752],[120.6927,32.475],[120.6952,32.4671],[120.704,32.4669],[120.7048,32.4772],[120.6926,32.4829],[120.6959,32.4937],[120.7051,32.5044],[120.7084,32.5126],[120.7318,32.5118],[120.7445,32.5147],[120.7693,32.5141],[120.7895,32.5163],[120.795,32.5191],[120.7979,32.5312],[120.7908,32.5382],[120.7909,32.5526],[120.8023,32.5473],[120.8076,32.5613],[120.8173,32.5561],[120.8229,32.564],[120.8335,32.5717],[120.8351,32.5626],[120.8434,32.5673],[120.8565,32.5647],[120.8599,32.5679],[120.8566,32.5864],[120.8701,32.6076],[120.8855,32.6026],[120.9035,32.6151],[120.9517,32.6139],[120.9693,32.6304],[121.0429,32.6481]]]},"properties":{"region_code":"CN-32-3206-320685","parent_region_code":"CN-32-3206","name":"海安市","level":"county","has_children":false,"full_path":"中国 / 江苏省 / 南通市 / 海安市","source_admin_code":"320685","osm_relation_id":5670635}}
]}