{"type":"FeatureCollection", "features": [
{"type":"Feature","geometry":{"type":"Polygon","coordinates":[[[121.5455,37.5266],[121.6763,37.7012],[121.4454,37.8058],[121.3052,37.6463],[121.3011,37.5768],[121.2925,37.571],[121.2896,37.5658],[121.2831,37.5353],[121.2852,37.5287],[121.2832,37.5074],[121.2803,37.5033],[121.2811,37.4911],[121.2908,37.4905],[121.2886,37.4784],[121.2925,37.4706],[121.3006,37.4692],[121.3054,37.4615],[121.3043,37.4486],[121.3222,37.4406],[121.3251,37.4356],[121.3242,37.426],[121.3298,37.4198],[121.3546,37.4186],[121.3609,37.4146],[121.3641,37.4192],[121.3791,37.4233],[121.3836,37.4413],[121.3924,37.4462],[121.385,37.4508],[121.3783,37.4614],[121.3823,37.4681],[121.3923,37.4923],[121.388,37.5006],[121.3897,37.5032],[121.4009,37.5008],[121.4105,37.4923],[121.4119,37.4839],[121.4228,37.4835],[121.4369,37.4857],[121.4348,37.4974],[121.4257,37.5042],[121.4074,37.5066],[121.4079,37.5194],[121.4135,37.5254],[121.4242,37.5248],[121.4273,37.5214],[121.4347,37.5243],[121.5455,37.5266]]]},"properties":{"region_code":"CN-37-3706-370602","parent_region_code":"CN-37-3706","name":"芝罘区","level":"county","has_children":false,"full_path":"中国 / 山东省 / 烟台市 / 芝罘区","source_admin_code":"370602","osm_relation_id":5653048}},
{"type":"Feature","geometry":{"type":"Polygon","coordinates":[[[121.4454,37.8058],[121.3858,37.8327],[121.3603,37.834],[121.3381,37.834],[121.3119,37.857],[121.2976,37.867],[121.2769,37.879],[121.2602,37.887],[121.2426,37.894],[121.2167,37.902],[121.2018,37.9055],[121.0679,37.7594],[121.0214,37.7087],[121.0133,37.7024],[121.0223,37.6949],[121.0088,37.6908],[121.0115,37.676],[121.0098,37.6701],[121.0151,37.6621],[121.0261,37.6602],[121.0272,37.6546],[121.0368,37.6522],[121.0365,37.6475],[121.0491,37.6365],[121.0691,37.6274],[121.0867,37.625],[121.0873,37.6172],[121.0809,37.6094],[121.0858,37.6043],[121.0755,37.5898],[121.0679,37.5872],[121.0659,37.581],[121.0598,37.5731],[121.0631,37.5677],[121.0592,37.5634],[121.0625,37.5515],[121.0569,37.5424],[121.0464,37.5329],[121.0403,37.5324],[121.0396,37.5223],[121.0478,37.5103],[121.0295,37.499],[121.026,37.5017],[121.0176,37.5002],[121.013,37.5025],[121.0093,37.5124],[120.9983,37.5187],[120.9891,37.5293],[120.9882,37.537],[120.9832,37.5401],[120.9694,37.5326],[120.9609,37.5325],[120.9558,37.5361],[120.9478,37.5375],[120.941,37.5334],[120.9388,37.5281],[120.9288,37.523],[120.9198,37.5234],[120.9108,37.5192],[120.8985,37.528],[120.8909,37.5303],[120.8798,37.5301],[120.8763,37.5437],[120.8596,37.5471],[120.8553,37.5434],[120.8582,37.5366],[120.8502,37.5283],[120.8506,37.5206],[120.8424,37.516],[120.8518,37.509],[120.8622,37.4973],[120.8555,37.487],[120.8444,37.4822],[120.838,37.465],[120.8425,37.4628],[120.8403,37.4558],[120.8478,37.4567],[120.8505,37.4527],[120.8504,37.4446],[120.859,37.4419],[120.8759,37.443],[120.8853,37.4333],[120.894,37.4372],[120.9098,37.4272],[120.9123,37.4191],[120.9165,37.4159],[120.9234,37.4239],[120.9251,37.4301],[120.9402,37.4294],[120.944,37.4238],[120.944,37.4164],[120.9477,37.4139],[120.9411,37.4],[120.9456,37.395],[120.9513,37.3971],[120.9528,37.4026],[120.9604,37.4082],[120.9693,37.4085],[120.9685,37.4151],[120.9724,37.4235],[120.9831,37.4305],[121.0005,37.4313],[121.002,37.4358],[121.0114,37.4439],[121.0211,37.446],[121.0324,37.4371],[121.0365,37.4379],[121.0489,37.4273],[121.0464,37.416],[121.054,37.4029],[121.0632,37.4058],[121.0716,37.4111],[121.0764,37.4181],[121.0784,37.4254],[121.096,37.4339],[121.106,37.434],[121.1054,37.4255],[121.1176,37.4197],[121.1217,37.4094],[121.1305,37.4042],[121.1341,37.3941],[121.1319,37.3911],[121.1179,37.386],[121.1196,37.3798],[121.1078,37.3488],[121.1019,37.3409],[121.0931,37.3361],[121.0932,37.3273],[121.1046,37.3228],[121.1161,37.3233],[121.1223,37.3359],[121.1284,37.3387],[121.1318,37.3453],[121.1373,37.3487],[121.1387,37.3545],[121.1512,37.3602],[121.1636,37.3599],[121.18,37.3703],[121.1875,37.366],[121.1952,37.3556],[121.2062,37.3505],[121.2183,37.3351],[121.2172,37.3312],[121.222,37.3257],[121.2253,37.3171],[121.2418,37.3155],[121.2463,37.3136],[121.2572,37.2966],[121.2624,37.2935],[121.2612,37.2871],[121.2559,37.2824],[121.2635,37.2703],[121.246,37.2622],[121.2423,37.2557],[121.2594,37.234],[121.2652,37.237],[121.2757,37.2373],[121.2898,37.2454],[121.2967,37.246],[121.3054,37.2527],[121.3105,37.2614],[121.3181,37.2641],[121.3284,37.276],[121.3347,37.287],[121.3371,37.2949],[121.3364,37.3027],[121.3224,37.3171],[121.3174,37.3242],[121.33,37.3275],[121.3327,37.3388],[121.3259,37.3468],[121.3257,37.3523],[121.3379,37.3707],[121.3415,37.378],[121.3457,37.3962],[121.3536,37.4022],[121.362,37.4001],[121.3643,37.4065],[121.3609,37.4146],[121.3546,37.4186],[121.3298,37.4198],[121.3242,37.426],[121.3251,37.4356],[121.3222,37.4406],[121.3043,37.4486],[121.3054,37.4615],[121.3006,37.4692],[121.2925,37.4706],[121.2886,37.4784],[121.2908,37.4905],[121.2811,37.4911],[121.2803,37.5033],[121.2832,37.5074],[121.2852,37.5287],[121.2831,37.5353],[121.2896,37.5658],[121.2925,37.571],[121.3011,37.5768],[121.3052,37.6463],[121.4454,37.8058]]]},"properties":{"region_code":"CN-37-3706-370611","parent_region_code":"CN-37-3706","name":"福山区","level":"county","has_children":false,"full_path":"中国 / 山东省 / 烟台市 / 福山区","source_admin_code":"370611","osm_relation_id":5653486}},
{"type":"Feature","geometry":{"type":"Polygon","coordinates":[[[121.5455,37.5266],[121.5717,37.4387],[121.5693,37.4135],[121.5616,37.4141],[121.5468,37.4118],[121.5359,37.3978],[121.5381,37.3906],[121.5314,37.3903],[121.5175,37.3822],[121.5055,37.3792],[121.502,37.3693],[121.496,37.3652],[121.4883,37.3523],[121.4773,37.3419],[121.4737,37.3321],[121.4665,37.3314],[121.4657,37.3169],[121.456,37.311],[121.4587,37.3048],[121.4454,37.2957],[121.4295,37.299],[121.4237,37.2959],[121.4203,37.2891],[121.415,37.2892],[121.415,37.2757],[121.4226,37.2693],[121.4193,37.2578],[121.4072,37.2479],[121.3823,37.2475],[121.3713,37.2518],[121.3722,37.2555],[121.3661,37.2601],[121.3495,37.2563],[121.3438,37.2636],[121.3302,37.2678],[121.3284,37.276],[121.3181,37.2641],[121.3105,37.2614],[121.3054,37.2527],[121.2967,37.246],[121.2898,37.2454],[121.2757,37.2373],[121.2652,37.237],[121.2594,37.234],[121.2423,37.2557],[121.2266,37.2545],[121.2074,37.2335],[121.204,37.2169],[121.209,37.2001],[121.2014,37.1943],[121.1916,37.196],[121.1865,37.1939],[121.1851,37.1875],[121.1885,37.176],[121.1779,37.1692],[121.1704,37.1687],[121.1567,37.1638],[121.1505,37.1597],[121.1528,37.154],[121.1593,37.1502],[121.1702,37.1313],[121.1647,37.1254],[121.1624,37.1031],[121.1689,37.0908],[121.1748,37.0867],[121.1736,37.0749],[121.1795,37.0699],[121.1983,37.0719],[121.2052,37.0781],[121.2178,37.0793],[121.2234,37.0895],[121.2292,37.0872],[121.2389,37.0904],[121.2467,37.0957],[121.2491,37.1033],[121.2602,37.1158],[121.2692,37.12],[121.2784,37.131],[121.2884,37.1313],[121.2954,37.1381],[121.2978,37.1454],[121.3058,37.144],[121.3126,37.1479],[121.3168,37.1394],[121.3153,37.134],[121.3342,37.1306],[121.3388,37.1257],[121.3445,37.136],[121.3551,37.1424],[121.3615,37.1307],[121.358,37.1276],[121.3495,37.128],[121.3622,37.1113],[121.3719,37.1123],[121.3741,37.1079],[121.384,37.1048],[121.3886,37.0967],[121.4121,37.1002],[121.4218,37.0955],[121.4258,37.1079],[121.4366,37.1197],[121.4417,37.1306],[121.4475,37.1262],[121.4562,37.1251],[121.4531,37.1181],[121.4716,37.1214],[121.4906,37.1124],[121.4942,37.1049],[121.506,37.1101],[121.5103,37.103],[121.5245,37.1086],[121.5341,37.1055],[121.5404,37.1074],[121.544,37.1135],[121.5507,37.1099],[121.5572,37.117],[121.5656,37.1157],[121.576,37.107],[121.5769,37.1153],[121.5822,37.118],[121.5829,37.126],[121.5861,37.1295],[121.5808,37.1343],[121.5856,37.1421],[121.5995,37.1471],[121.5979,37.1402],[121.6024,37.1304],[121.6094,37.1272],[121.6166,37.1285],[121.6277,37.1402],[121.6332,37.1402],[121.6508,37.1202],[121.6624,37.1186],[121.6645,37.1111],[121.6748,37.121],[121.6801,37.1229],[121.6794,37.1304],[121.6823,37.1359],[121.6756,37.1389],[121.6816,37.1451],[121.6894,37.1403],[121.6902,37.1336],[121.6965,37.1237],[121.7285,37.1248],[121.7327,37.1283],[121.7326,37.1354],[121.7427,37.135],[121.7446,37.1423],[121.7517,37.1543],[121.7567,37.1593],[121.7629,37.1698],[121.7553,37.1782],[121.7544,37.1916],[121.7641,37.1958],[121.7601,37.2062],[121.7591,37.2169],[121.7421,37.2228],[121.7429,37.2407],[121.7511,37.2464],[121.771,37.2475],[121.7706,37.2552],[121.7787,37.2626],[121.7864,37.2839],[121.7873,37.296],[121.7929,37.3102],[121.8032,37.3056],[121.8162,37.3106],[121.8277,37.3257],[121.8378,37.3263],[121.8604,37.3366],[121.8592,37.3538],[121.8667,37.3555],[121.8657,37.3659],[121.8677,37.3718],[121.8751,37.3747],[121.8857,37.3827],[121.8838,37.3913],[121.8912,37.3978],[121.8903,37.4037],[121.8987,37.4104],[121.9064,37.4125],[121.9122,37.4169],[121.9119,37.4215],[121.9196,37.4264],[121.9208,37.4412],[121.9289,37.452],[121.9244,37.4541],[121.9242,37.4602],[121.9204,37.4695],[121.9191,37.55],[121.917,37.6719],[121.8348,37.6763],[121.8156,37.661],[121.794,37.658],[121.7841,37.659],[121.7719,37.6798],[121.7172,37.6827],[121.6763,37.7012],[121.5455,37.5266]]]},"properties":{"region_code":"CN-37-3706-370612","parent_region_code":"CN-37-3706","name":"牟平区","level":"county","has_children":false,"full_path":"中国 / 山东省 / 烟台市 / 牟平区","source_admin_code":"370612","osm_relation_id":5653933}},
{"type":"Feature","geometry":{"type":"Polygon","coordinates":[[[121.3609,37.4146],[121.3643,37.4065],[121.362,37.4001],[121.3536,37.4022],[121.3457,37.3962],[121.3415,37.378],[121.3379,37.3707],[121.3257,37.3523],[121.3259,37.3468],[121.3327,37.3388],[121.33,37.3275],[121.3174,37.3242],[121.3224,37.3171],[121.3364,37.3027],[121.3371,37.2949],[121.3347,37.287],[121.3284,37.276],[121.3302,37.2678],[121.3438,37.2636],[121.3495,37.2563],[121.3661,37.2601],[121.3722,37.2555],[121.3713,37.2518],[121.3823,37.2475],[121.4072,37.2479],[121.4193,37.2578],[121.4226,37.2693],[121.415,37.2757],[121.415,37.2892],[121.4203,37.2891],[121.4237,37.2959],[121.4295,37.299],[121.4454,37.2957],[121.4587,37.3048],[121.456,37.311],[121.4657,37.3169],[121.4665,37.3314],[121.4737,37.3321],[121.4773,37.3419],[121.4883,37.3523],[121.496,37.3652],[121.502,37.3693],[121.5055,37.3792],[121.5175,37.3822],[121.5314,37.3903],[121.5381,37.3906],[121.5359,37.3978],[121.5468,37.4118],[121.5616,37.4141],[121.5693,37.4135],[121.5717,37.4387],[121.5455,37.5266],[121.4347,37.5243],[121.4273,37.5214],[121.4242,37.5248],[121.4135,37.5254],[121.4079,37.5194],[121.4074,37.5066],[121.4257,37.5042],[121.4348,37.4974],[121.4369,37.4857],[121.4228,37.4835],[121.4119,37.4839],[121.4105,37.4923],[121.4009,37.5008],[121.3897,37.5032],[121.388,37.5006],[121.3923,37.4923],[121.3823,37.4681],[121.3783,37.4614],[121.385,37.4508],[121.3924,37.4462],[121.3836,37.4413],[121.3791,37.4233],[121.3641,37.4192],[121.3609,37.4146]]]},"properties":{"region_code":"CN-37-3706-370613","parent_region_code":"CN-37-3706","name":"莱山区","level":"county","has_children":false,"full_path":"中国 / 山东省 / 烟台市 / 莱山区","source_admin_code":"370613","osm_relation_id":5654121}},
{"type":"Feature","geometry":{"type":"Polygon","coordinates":[[[121.2018,37.9055],[121.1814,37.909],[121.1631,37.911],[121.1587,37.915],[121.1697,37.9303],[121.0022,38.0059],[121.0419,38.4899],[120.7281,38.5584],[120.3999,38.0989],[120.3408,37.965],[120.4754,37.8954],[120.5362,37.8646],[120.5798,37.7577],[120.5805,37.7458],[120.5857,37.7382],[120.5912,37.7239],[120.5978,37.7226],[120.6042,37.7084],[120.6016,37.698],[120.6041,37.6902],[120.5973,37.6835],[120.5965,37.6736],[120.607,37.6732],[120.61,37.6778],[120.6245,37.6775],[120.6356,37.6742],[120.6507,37.6727],[120.6586,37.67],[120.6733,37.6716],[120.6752,37.6435],[120.669,37.6431],[120.6656,37.6315],[120.6808,37.628],[120.6812,37.6239],[120.6997,37.62],[120.7346,37.6056],[120.7415,37.6007],[120.746,37.5933],[120.7461,37.5866],[120.7338,37.5832],[120.7332,37.5784],[120.7403,37.5738],[120.744,37.5659],[120.7382,37.557],[120.7279,37.5534],[120.7255,37.5479],[120.7289,37.5379],[120.7229,37.5351],[120.7241,37.5195],[120.711,37.5039],[120.7112,37.4975],[120.7211,37.4938],[120.7307,37.4823],[120.7394,37.4718],[120.7361,37.4587],[120.7266,37.4312],[120.7254,37.425],[120.7347,37.4154],[120.7485,37.4172],[120.778,37.4247],[120.7897,37.4298],[120.8006,37.4413],[120.8104,37.4426],[120.8222,37.4395],[120.8282,37.4443],[120.8489,37.4407],[120.8504,37.4446],[120.8505,37.4527],[120.8478,37.4567],[120.8403,37.4558],[120.8425,37.4628],[120.838,37.465],[120.8444,37.4822],[120.8555,37.487],[120.8622,37.4973],[120.8518,37.509],[120.8424,37.516],[120.8506,37.5206],[120.8502,37.5283],[120.8582,37.5366],[120.8553,37.5434],[120.8596,37.5471],[120.8763,37.5437],[120.8798,37.5301],[120.8909,37.5303],[120.8985,37.528],[120.9108,37.5192],[120.9198,37.5234],[120.9288,37.523],[120.9388,37.5281],[120.941,37.5334],[120.9478,37.5375],[120.9558,37.5361],[120.9609,37.5325],[120.9694,37.5326],[120.9832,37.5401],[120.9882,37.537],[120.9891,37.5293],[120.9983,37.5187],[121.0093,37.5124],[121.013,37.5025],[121.0176,37.5002],[121.026,37.5017],[121.0295,37.499],[121.0478,37.5103],[121.0396,37.5223],[121.0403,37.5324],[121.0464,37.5329],[121.0569,37.5424],[121.0625,37.5515],[121.0592,37.5634],[121.0631,37.5677],[121.0598,37.5731],[121.0659,37.581],[121.0679,37.5872],[121.0755,37.5898],[121.0858,37.6043],[121.0809,37.6094],[121.0873,37.6172],[121.0867,37.625],[121.0691,37.6274],[121.0491,37.6365],[121.0365,37.6475],[121.0368,37.6522],[121.0272,37.6546],[121.0261,37.6602],[121.0151,37.6621],[121.0098,37.6701],[121.0115,37.676],[121.0088,37.6908],[121.0223,37.6949],[121.0133,37.7024],[121.0214,37.7087],[121.0679,37.7594],[121.2018,37.9055]]]},"properties":{"region_code":"CN-37-3706-370614","parent_region_code":"CN-37-3706","name":"蓬莱区","level":"county","has_children":false,"full_path":"中国 / 山东省 / 烟台市 / 蓬莱区","source_admin_code":"370614","osm_relation_id":11246458}},
{"type":"Feature","geometry":{"type":"Polygon","coordinates":[[[120.3408,37.965],[120.2934,37.9439],[120.2797,37.8994],[120.2778,37.8777],[120.1355,37.8789],[120.0744,37.8486],[119.9936,37.7684],[120.2453,37.5529],[120.2593,37.5343],[120.2683,37.5258],[120.2765,37.5213],[120.2847,37.5294],[120.2924,37.5262],[120.3017,37.5268],[120.3112,37.5379],[120.3172,37.5358],[120.3328,37.5364],[120.3344,37.5309],[120.3431,37.5313],[120.3496,37.5377],[120.3584,37.541],[120.3683,37.5407],[120.3702,37.537],[120.3801,37.5323],[120.3899,37.5234],[120.387,37.5153],[120.3963,37.5148],[120.4069,37.5331],[120.4166,37.5326],[120.4258,37.5255],[120.4362,37.5215],[120.4418,37.522],[120.4492,37.5166],[120.4663,37.523],[120.4756,37.5189],[120.4734,37.5113],[120.4867,37.5113],[120.4918,37.4979],[120.4885,37.4951],[120.4794,37.4805],[120.4846,37.471],[120.4821,37.4661],[120.5031,37.4645],[120.5161,37.4603],[120.5282,37.4727],[120.5294,37.4767],[120.5395,37.4807],[120.5462,37.4866],[120.5614,37.4809],[120.5667,37.4746],[120.5794,37.4689],[120.5826,37.4646],[120.5919,37.461],[120.5942,37.4574],[120.6057,37.4602],[120.6075,37.4647],[120.6173,37.4717],[120.6192,37.4774],[120.6266,37.4812],[120.6388,37.4833],[120.6452,37.4867],[120.646,37.4968],[120.657,37.4938],[120.6639,37.4873],[120.6664,37.4795],[120.675,37.4768],[120.6773,37.4724],[120.6945,37.4688],[120.7003,37.4597],[120.7063,37.4612],[120.7148,37.4595],[120.7214,37.4701],[120.7243,37.4801],[120.7307,37.4823],[120.7211,37.4938],[120.7112,37.4975],[120.711,37.5039],[120.7241,37.5195],[120.7229,37.5351],[120.7289,37.5379],[120.7255,37.5479],[120.7279,37.5534],[120.7382,37.557],[120.744,37.5659],[120.7403,37.5738],[120.7332,37.5784],[120.7338,37.5832],[120.7461,37.5866],[120.746,37.5933],[120.7415,37.6007],[120.7346,37.6056],[120.6997,37.62],[120.6812,37.6239],[120.6808,37.628],[120.6656,37.6315],[120.669,37.6431],[120.6752,37.6435],[120.6733,37.6716],[120.6586,37.67],[120.6507,37.6727],[120.6356,37.6742],[120.6245,37.6775],[120.61,37.6778],[120.607,37.6732],[120.5965,37.6736],[120.5973,37.6835],[120.6041,37.6902],[120.6016,37.698],[120.6042,37.7084],[120.5978,37.7226],[120.5912,37.7239],[120.5857,37.7382],[120.5805,37.7458],[120.5798,37.7577],[120.5362,37.8646],[120.4754,37.8954],[120.3408,37.965]]]},"properties":{"region_code":"CN-37-3706-370681","parent_region_code":"CN-37-3706","name":"龙口市","level":"county","has_children":false,"full_path":"中国 / 山东省 / 烟台市 / 龙口市","source_admin_code":"370681","osm_relation_id":5654313}},
{"type":"Feature","geometry":{"type":"Polygon","coordinates":[[[120.5202,37.143],[120.5231,37.1361],[120.5377,37.1281],[120.5428,37.1162],[120.5405,37.1045],[120.5341,37.1036],[120.536,37.097],[120.5316,37.0814],[120.5367,37.0776],[120.5339,37.0723],[120.535,37.0599],[120.5281,37.0556],[120.5325,37.0474],[120.545,37.0408],[120.5542,37.047],[120.5661,37.046],[120.5732,37.0503],[120.5797,37.0577],[120.5818,37.0481],[120.596,37.0459],[120.6015,37.0467],[120.6089,37.0243],[120.6014,37.0181],[120.6018,37.0008],[120.5982,36.9996],[120.596,36.9918],[120.5892,36.9909],[120.5849,36.9979],[120.5777,37.0014],[120.5712,36.9987],[120.5693,36.9872],[120.5638,36.9829],[120.5618,36.9652],[120.5556,36.9603],[120.5585,36.9513],[120.5664,36.9483],[120.5696,36.9432],[120.5671,36.9379],[120.5685,36.9281],[120.5737,36.9262],[120.5893,36.912],[120.5991,36.9099],[120.6127,36.9108],[120.6181,36.907],[120.6173,36.8923],[120.614,36.8882],[120.6045,36.8834],[120.5814,36.8823],[120.5719,36.8796],[120.5751,36.8586],[120.5837,36.8588],[120.5885,36.8533],[120.5828,36.8434],[120.5838,36.8394],[120.6051,36.8326],[120.6076,36.8285],[120.5996,36.8178],[120.6008,36.8099],[120.5969,36.8048],[120.5861,36.8012],[120.5781,36.8033],[120.5642,36.8023],[120.56,36.7985],[120.5507,36.7784],[120.5437,36.7755],[120.5407,36.7692],[120.5393,36.7488],[120.5578,36.7363],[120.5795,36.7347],[120.5806,36.7283],[120.5848,36.7241],[120.5919,36.7079],[120.5816,36.6971],[120.5945,36.6916],[120.6053,36.6916],[120.6205,36.6791],[120.6227,36.6597],[120.6374,36.6659],[120.6475,36.6631],[120.6443,36.6557],[120.648,36.6506],[120.6559,36.6478],[120.6537,36.6401],[120.6547,36.6297],[120.6527,36.6265],[120.6401,36.6264],[120.6388,36.6133],[120.6357,36.6099],[120.6353,36.6005],[120.631,36.5967],[120.6311,36.5752],[120.633,36.5739],[120.6519,36.5788],[120.6654,36.588],[120.6783,36.5897],[120.6882,36.5978],[120.6986,36.5975],[120.6949,36.607],[120.7046,36.6128],[120.7036,36.6212],[120.72,36.6242],[120.7336,36.6173],[120.7466,36.6147],[120.7528,36.6055],[120.7634,36.6051],[120.7728,36.601],[120.7767,36.5906],[120.7817,36.5926],[120.7886,36.5885],[120.8106,36.5912],[120.8165,36.5993],[120.8572,36.6199],[120.8845,36.6136],[120.8826,36.6216],[120.8607,36.6438],[120.8555,36.6551],[120.8492,36.6587],[120.8498,36.6628],[120.8336,36.6863],[120.8372,36.6928],[120.8445,36.6925],[120.8579,36.6958],[120.8537,36.7077],[120.8596,36.7137],[120.8669,36.7279],[120.8676,36.7469],[120.8638,36.7522],[120.8654,36.7596],[120.8714,36.7608],[120.875,36.7766],[120.8805,36.7818],[120.879,36.7888],[120.8865,36.7921],[120.8922,36.8034],[120.8887,36.81],[120.892,36.8126],[120.9074,36.814],[120.9167,36.8097],[120.915,36.8239],[120.9097,36.8307],[120.9029,36.8342],[120.9045,36.8442],[120.893,36.8431],[120.8905,36.8477],[120.896,36.8534],[120.8961,36.8578],[120.9087,36.8671],[120.9216,36.8734],[120.9259,36.8693],[120.932,36.8732],[120.9443,36.8896],[120.9367,36.9039],[120.9439,36.9159],[120.9582,36.9174],[120.9587,36.9202],[120.9504,36.9265],[120.9509,36.9307],[120.9573,36.9403],[120.9524,36.9461],[120.9532,36.957],[120.9622,36.9617],[120.9551,36.9665],[120.9569,36.9699],[120.953,36.9788],[120.9526,36.9874],[120.9611,36.9961],[120.9617,37.0011],[120.9747,37.0159],[120.9751,37.0231],[120.9831,37.0335],[120.9814,37.0417],[120.978,37.0442],[120.9693,37.041],[120.9657,37.0437],[120.9508,37.0464],[120.9448,37.0446],[120.9372,37.049],[120.9409,37.0582],[120.9338,37.0697],[120.929,37.0714],[120.918,37.0835],[120.9133,37.0825],[120.9037,37.0873],[120.8992,37.0879],[120.8948,37.1006],[120.8892,37.1021],[120.8849,37.1077],[120.8687,37.1059],[120.8641,37.0977],[120.8462,37.0984],[120.8352,37.1018],[120.8268,37.1015],[120.8189,37.1064],[120.82,37.1171],[120.8146,37.1243],[120.8216,37.129],[120.8204,37.1374],[120.8041,37.1388],[120.7963,37.1451],[120.7933,37.1388],[120.7853,37.1428],[120.7856,37.1476],[120.7673,37.1507],[120.762,37.1497],[120.7606,37.1442],[120.7481,37.1376],[120.7395,37.1356],[120.7354,37.1451],[120.7314,37.1479],[120.7128,37.1512],[120.7118,37.1576],[120.7012,37.1613],[120.6951,37.1572],[120.6894,37.1586],[120.6594,37.1411],[120.6543,37.1492],[120.6501,37.1508],[120.6433,37.1461],[120.6279,37.1435],[120.6197,37.136],[120.6078,37.1376],[120.6037,37.1423],[120.598,37.1618],[120.5946,37.1547],[120.5834,37.153],[120.5763,37.1604],[120.5646,37.1572],[120.5502,37.153],[120.5361,37.1569],[120.5308,37.1488],[120.5202,37.143]]]},"properties":{"region_code":"CN-37-3706-370682","parent_region_code":"CN-37-3706","name":"莱阳市","level":"county","has_children":false,"full_path":"中国 / 山东省 / 烟台市 / 莱阳市","source_admin_code":"370682","osm_relation_id":5654962}},
{"type":"Feature","geometry":{"type":"Polygon","coordinates":[[[119.9171,37.6901],[119.8876,37.6058],[119.6895,37.6061],[119.7002,37.5644],[119.534,37.5606],[119.5527,37.3562],[119.5744,37.118],[119.5721,37.11],[119.5571,37.0898],[119.5556,37.0724],[119.5499,37.0597],[119.5565,37.0533],[119.5735,37.0511],[119.5845,37.043],[119.6002,37.0394],[119.6072,37.0333],[119.6079,37.0292],[119.6049,37.0153],[119.6134,37.0169],[119.6143,37.0125],[119.6256,37.0128],[119.6402,37.0097],[119.6496,37.0099],[119.6607,37.0042],[119.6759,37.003],[119.6761,36.998],[119.7105,37.0051],[119.7167,36.9928],[119.7261,36.9876],[119.7349,36.9917],[119.755,36.9922],[119.7643,36.996],[119.7662,37.0067],[119.7753,37.0073],[119.7913,37.0134],[119.7994,37.0134],[119.806,37.0105],[119.8071,37.0054],[119.8146,37.0022],[119.8387,37.0004],[119.846,37.0016],[119.8815,37],[119.9024,36.995],[119.9179,36.9938],[119.9451,37.0062],[119.9508,37.0113],[119.9624,37.0138],[119.9706,37.0107],[119.9745,37.0167],[119.9793,37.0176],[119.9857,37.0127],[120.0023,37.0098],[120.0176,37.0034],[120.0207,36.9991],[120.0304,36.9982],[120.0431,37.0175],[120.0498,37.0193],[120.0863,37.0174],[120.0968,37.0134],[120.1095,37.0163],[120.1171,37.0157],[120.1231,37.0189],[120.1352,37.0213],[120.1364,37.0148],[120.1515,37.0142],[120.1627,37.018],[120.1694,37.0328],[120.1775,37.032],[120.1835,37.0375],[120.1888,37.0332],[120.2013,37.0378],[120.2037,37.0464],[120.2134,37.0604],[120.2104,37.0693],[120.2132,37.0829],[120.225,37.089],[120.2229,37.094],[120.2287,37.0978],[120.2258,37.1061],[120.2292,37.1135],[120.2293,37.1227],[120.2373,37.1229],[120.2424,37.1182],[120.2523,37.1167],[120.2573,37.119],[120.2565,37.1338],[120.2466,37.1361],[120.2435,37.1457],[120.2427,37.1561],[120.2507,37.1657],[120.2679,37.1703],[120.2658,37.1755],[120.2742,37.1773],[120.2822,37.1828],[120.2848,37.196],[120.2923,37.2026],[120.29,37.2084],[120.295,37.2118],[120.2947,37.2167],[120.301,37.2186],[120.3066,37.2298],[120.3008,37.2462],[120.2961,37.2488],[120.2834,37.2476],[120.276,37.2545],[120.276,37.2652],[120.2709,37.2689],[120.2663,37.2771],[120.2658,37.284],[120.256,37.2859],[120.2414,37.2807],[120.2266,37.2913],[120.2332,37.2966],[120.2348,37.305],[120.2214,37.3199],[120.2153,37.3232],[120.2121,37.3367],[120.2137,37.3439],[120.2011,37.3479],[120.1926,37.3553],[120.1876,37.3479],[120.1802,37.3423],[120.1593,37.3527],[120.1549,37.3538],[120.1536,37.3616],[120.1396,37.3751],[120.1474,37.4026],[120.1525,37.4043],[120.1446,37.4168],[120.1455,37.429],[120.1501,37.4346],[120.1619,37.435],[120.172,37.4335],[120.1628,37.4428],[120.1533,37.443],[120.1566,37.4495],[120.1477,37.4545],[120.1447,37.4742],[120.0809,37.5995],[119.9171,37.6901]]]},"properties":{"region_code":"CN-37-3706-370683","parent_region_code":"CN-37-3706","name":"莱州市","level":"county","has_children":false,"full_path":"中国 / 山东省 / 烟台市 / 莱州市","source_admin_code":"370683","osm_relation_id":5654336}},
{"type":"Feature","geometry":{"type":"Polygon","coordinates":[[[119.9936,37.7684],[119.9171,37.6901],[120.0809,37.5995],[120.1447,37.4742],[120.1477,37.4545],[120.1566,37.4495],[120.1533,37.443],[120.1628,37.4428],[120.172,37.4335],[120.1619,37.435],[120.1501,37.4346],[120.1455,37.429],[120.1446,37.4168],[120.1525,37.4043],[120.1474,37.4026],[120.1396,37.3751],[120.1536,37.3616],[120.1549,37.3538],[120.1593,37.3527],[120.1802,37.3423],[120.1876,37.3479],[120.1926,37.3553],[120.2011,37.3479],[120.2137,37.3439],[120.2121,37.3367],[120.2153,37.3232],[120.2214,37.3199],[120.2348,37.305],[120.2332,37.2966],[120.2266,37.2913],[120.2414,37.2807],[120.256,37.2859],[120.2658,37.284],[120.2663,37.2771],[120.2709,37.2689],[120.276,37.2652],[120.276,37.2545],[120.2834,37.2476],[120.2961,37.2488],[120.3008,37.2462],[120.3066,37.2298],[120.301,37.2186],[120.2947,37.2167],[120.295,37.2118],[120.29,37.2084],[120.2923,37.2026],[120.2848,37.196],[120.2822,37.1828],[120.2742,37.1773],[120.2658,37.1755],[120.2679,37.1703],[120.2507,37.1657],[120.2427,37.1561],[120.2435,37.1457],[120.2466,37.1361],[120.2565,37.1338],[120.2573,37.119],[120.2523,37.1167],[120.259,37.1139],[120.2662,37.1194],[120.275,37.1304],[120.298,37.1294],[120.2949,37.1191],[120.3007,37.1112],[120.3101,37.1123],[120.3181,37.1065],[120.3262,37.1112],[120.3316,37.1034],[120.3311,37.0912],[120.3394,37.0848],[120.343,37.0762],[120.3473,37.0787],[120.3525,37.0876],[120.357,37.0997],[120.3644,37.1039],[120.3727,37.1045],[120.3862,37.1018],[120.3929,37.0956],[120.4037,37.0943],[120.4069,37.0981],[120.4058,37.1103],[120.4196,37.112],[120.442,37.1182],[120.449,37.1183],[120.4578,37.1144],[120.4736,37.1235],[120.4804,37.1229],[120.488,37.126],[120.4882,37.1326],[120.5054,37.1475],[120.5123,37.1483],[120.5202,37.143],[120.5308,37.1488],[120.5361,37.1569],[120.5502,37.153],[120.5646,37.1572],[120.5617,37.1706],[120.5611,37.1846],[120.5553,37.1936],[120.5473,37.1962],[120.5534,37.2013],[120.5557,37.2107],[120.5607,37.2157],[120.5664,37.2149],[120.5801,37.2384],[120.5809,37.2484],[120.5765,37.2641],[120.5782,37.2801],[120.5832,37.2892],[120.5931,37.2931],[120.5972,37.2996],[120.5955,37.3073],[120.5965,37.3182],[120.5853,37.3351],[120.5803,37.3478],[120.5784,37.3589],[120.5815,37.3664],[120.5964,37.3871],[120.6054,37.4065],[120.6173,37.4067],[120.6189,37.4135],[120.6174,37.4232],[120.6009,37.4337],[120.6139,37.4363],[120.6206,37.4357],[120.6288,37.4399],[120.6285,37.4475],[120.6321,37.4626],[120.6248,37.4635],[120.6173,37.4717],[120.6075,37.4647],[120.6057,37.4602],[120.5942,37.4574],[120.5919,37.461],[120.5826,37.4646],[120.5794,37.4689],[120.5667,37.4746],[120.5614,37.4809],[120.5462,37.4866],[120.5395,37.4807],[120.5294,37.4767],[120.5282,37.4727],[120.5161,37.4603],[120.5031,37.4645],[120.4821,37.4661],[120.4846,37.471],[120.4794,37.4805],[120.4885,37.4951],[120.4918,37.4979],[120.4867,37.5113],[120.4734,37.5113],[120.4756,37.5189],[120.4663,37.523],[120.4492,37.5166],[120.4418,37.522],[120.4362,37.5215],[120.4258,37.5255],[120.4166,37.5326],[120.4069,37.5331],[120.3963,37.5148],[120.387,37.5153],[120.3899,37.5234],[120.3801,37.5323],[120.3702,37.537],[120.3683,37.5407],[120.3584,37.541],[120.3496,37.5377],[120.3431,37.5313],[120.3344,37.5309],[120.3328,37.5364],[120.3172,37.5358],[120.3112,37.5379],[120.3017,37.5268],[120.2924,37.5262],[120.2847,37.5294],[120.2765,37.5213],[120.2683,37.5258],[120.2593,37.5343],[120.2453,37.5529],[119.9936,37.7684]]]},"properties":{"region_code":"CN-37-3706-370685","parent_region_code":"CN-37-3706","name":"招远市","level":"county","has_children":false,"full_path":"中国 / 山东省 / 烟台市 / 招远市","source_admin_code":"370685","osm_relation_id":5654933}},
{"type":"Feature","geometry":{"type":"Polygon","coordinates":[[[120.8504,37.4446],[120.8489,37.4407],[120.8282,37.4443],[120.8222,37.4395],[120.8104,37.4426],[120.8006,37.4413],[120.7897,37.4298],[120.778,37.4247],[120.7485,37.4172],[120.7347,37.4154],[120.7254,37.425],[120.7266,37.4312],[120.7361,37.4587],[120.7394,37.4718],[120.7307,37.4823],[120.7243,37.4801],[120.7214,37.4701],[120.7148,37.4595],[120.7063,37.4612],[120.7003,37.4597],[120.6945,37.4688],[120.6773,37.4724],[120.675,37.4768],[120.6664,37.4795],[120.6639,37.4873],[120.657,37.4938],[120.646,37.4968],[120.6452,37.4867],[120.6388,37.4833],[120.6266,37.4812],[120.6192,37.4774],[120.6173,37.4717],[120.6248,37.4635],[120.6321,37.4626],[120.6285,37.4475],[120.6288,37.4399],[120.6206,37.4357],[120.6139,37.4363],[120.6009,37.4337],[120.6174,37.4232],[120.6189,37.4135],[120.6173,37.4067],[120.6054,37.4065],[120.5964,37.3871],[120.5815,37.3664],[120.5784,37.3589],[120.5803,37.3478],[120.5853,37.3351],[120.5965,37.3182],[120.5955,37.3073],[120.5972,37.2996],[120.5931,37.2931],[120.5832,37.2892],[120.5782,37.2801],[120.5765,37.2641],[120.5809,37.2484],[120.5801,37.2384],[120.5664,37.2149],[120.5607,37.2157],[120.5557,37.2107],[120.5534,37.2013],[120.5473,37.1962],[120.5553,37.1936],[120.5611,37.1846],[120.5617,37.1706],[120.5646,37.1572],[120.5763,37.1604],[120.5834,37.153],[120.5946,37.1547],[120.598,37.1618],[120.6037,37.1423],[120.6078,37.1376],[120.6197,37.136],[120.6279,37.1435],[120.6433,37.1461],[120.6501,37.1508],[120.6543,37.1492],[120.6594,37.1411],[120.6894,37.1586],[120.6951,37.1572],[120.7012,37.1613],[120.7118,37.1576],[120.7128,37.1512],[120.7314,37.1479],[120.7354,37.1451],[120.7395,37.1356],[120.7481,37.1376],[120.7606,37.1442],[120.762,37.1497],[120.7673,37.1507],[120.7856,37.1476],[120.7853,37.1428],[120.7933,37.1388],[120.7963,37.1451],[120.8041,37.1388],[120.8204,37.1374],[120.8216,37.129],[120.8146,37.1243],[120.82,37.1171],[120.8189,37.1064],[120.8268,37.1015],[120.8352,37.1018],[120.8462,37.0984],[120.8641,37.0977],[120.8687,37.1059],[120.8849,37.1077],[120.8892,37.1021],[120.8948,37.1006],[120.8992,37.0879],[120.9037,37.0873],[120.9235,37.101],[120.9411,37.1047],[120.9551,37.1163],[120.9529,37.1375],[120.9552,37.1457],[120.9701,37.1479],[120.9822,37.1464],[120.9981,37.1377],[121.0028,37.1325],[121.0118,37.1337],[121.0166,37.1302],[121.0227,37.1326],[121.029,37.1488],[121.0356,37.1501],[121.037,37.1436],[121.0339,37.1387],[121.0387,37.1313],[121.0454,37.128],[121.0539,37.1296],[121.059,37.1334],[121.0592,37.1394],[121.0699,37.1471],[121.0683,37.161],[121.0864,37.1696],[121.0898,37.1744],[121.0962,37.1739],[121.103,37.1683],[121.111,37.1679],[121.1279,37.1592],[121.1505,37.1597],[121.1567,37.1638],[121.1704,37.1687],[121.1779,37.1692],[121.1885,37.176],[121.1851,37.1875],[121.1865,37.1939],[121.1916,37.196],[121.2014,37.1943],[121.209,37.2001],[121.204,37.2169],[121.2074,37.2335],[121.2266,37.2545],[121.2423,37.2557],[121.246,37.2622],[121.2635,37.2703],[121.2559,37.2824],[121.2612,37.2871],[121.2624,37.2935],[121.2572,37.2966],[121.2463,37.3136],[121.2418,37.3155],[121.2253,37.3171],[121.222,37.3257],[121.2172,37.3312],[121.2183,37.3351],[121.2062,37.3505],[121.1952,37.3556],[121.1875,37.366],[121.18,37.3703],[121.1636,37.3599],[121.1512,37.3602],[121.1387,37.3545],[121.1373,37.3487],[121.1318,37.3453],[121.1284,37.3387],[121.1223,37.3359],[121.1161,37.3233],[121.1046,37.3228],[121.0932,37.3273],[121.0931,37.3361],[121.1019,37.3409],[121.1078,37.3488],[121.1196,37.3798],[121.1179,37.386],[121.1319,37.3911],[121.1341,37.3941],[121.1305,37.4042],[121.1217,37.4094],[121.1176,37.4197],[121.1054,37.4255],[121.106,37.434],[121.096,37.4339],[121.0784,37.4254],[121.0764,37.4181],[121.0716,37.4111],[121.0632,37.4058],[121.054,37.4029],[121.0464,37.416],[121.0489,37.4273],[121.0365,37.4379],[121.0324,37.4371],[121.0211,37.446],[121.0114,37.4439],[121.002,37.4358],[121.0005,37.4313],[120.9831,37.4305],[120.9724,37.4235],[120.9685,37.4151],[120.9693,37.4085],[120.9604,37.4082],[120.9528,37.4026],[120.9513,37.3971],[120.9456,37.395],[120.9411,37.4],[120.9477,37.4139],[120.944,37.4164],[120.944,37.4238],[120.9402,37.4294],[120.9251,37.4301],[120.9234,37.4239],[120.9165,37.4159],[120.9123,37.4191],[120.9098,37.4272],[120.894,37.4372],[120.8853,37.4333],[120.8759,37.443],[120.859,37.4419],[120.8504,37.4446]]]},"properties":{"region_code":"CN-37-3706-370686","parent_region_code":"CN-37-3706","name":"栖霞市","level":"county","has_children":false,"full_path":"中国 / 山东省 / 烟台市 / 栖霞市","source_admin_code":"370686","osm_relation_id":5654957}},
{"type":"Feature","geometry":{"type":"Polygon","coordinates":[[[121.1505,37.1597],[121.1279,37.1592],[121.111,37.1679],[121.103,37.1683],[121.0962,37.1739],[121.0898,37.1744],[121.0864,37.1696],[121.0683,37.161],[121.0699,37.1471],[121.0592,37.1394],[121.059,37.1334],[121.0539,37.1296],[121.0454,37.128],[121.0387,37.1313],[121.0339,37.1387],[121.037,37.1436],[121.0356,37.1501],[121.029,37.1488],[121.0227,37.1326],[121.0166,37.1302],[121.0118,37.1337],[121.0028,37.1325],[120.9981,37.1377],[120.9822,37.1464],[120.9701,37.1479],[120.9552,37.1457],[120.9529,37.1375],[120.9551,37.1163],[120.9411,37.1047],[120.9235,37.101],[120.9037,37.0873],[120.9133,37.0825],[120.918,37.0835],[120.929,37.0714],[120.9338,37.0697],[120.9409,37.0582],[120.9372,37.049],[120.9448,37.0446],[120.9508,37.0464],[120.9657,37.0437],[120.9693,37.041],[120.978,37.0442],[120.9814,37.0417],[120.9831,37.0335],[120.9751,37.0231],[120.9747,37.0159],[120.9617,37.0011],[120.9611,36.9961],[120.9526,36.9874],[120.953,36.9788],[120.9569,36.9699],[120.9551,36.9665],[120.9622,36.9617],[120.9532,36.957],[120.9524,36.9461],[120.9573,36.9403],[120.9509,36.9307],[120.9504,36.9265],[120.9587,36.9202],[120.9582,36.9174],[120.9439,36.9159],[120.9367,36.9039],[120.9443,36.8896],[120.932,36.8732],[120.9259,36.8693],[120.9216,36.8734],[120.9087,36.8671],[120.8961,36.8578],[120.896,36.8534],[120.8905,36.8477],[120.893,36.8431],[120.9045,36.8442],[120.9029,36.8342],[120.9097,36.8307],[120.915,36.8239],[120.9167,36.8097],[120.9074,36.814],[120.892,36.8126],[120.8887,36.81],[120.8922,36.8034],[120.8865,36.7921],[120.879,36.7888],[120.8805,36.7818],[120.875,36.7766],[120.8714,36.7608],[120.8654,36.7596],[120.8638,36.7522],[120.8676,36.7469],[120.8669,36.7279],[120.8596,36.7137],[120.8537,36.7077],[120.8579,36.6958],[120.8445,36.6925],[120.8372,36.6928],[120.8336,36.6863],[120.8498,36.6628],[120.8492,36.6587],[120.8555,36.6551],[120.8607,36.6438],[120.8826,36.6216],[120.8845,36.6136],[120.916,36.5932],[120.9287,36.5812],[120.9416,36.573],[120.9833,36.5579],[121.048,36.5305],[121.5699,36.0664],[121.6328,36.1054],[121.4618,36.7433],[121.4775,36.7604],[121.4746,36.7818],[121.467,36.7815],[121.4618,36.7856],[121.456,36.7827],[121.4488,36.7888],[121.4366,36.7913],[121.4228,36.7905],[121.4121,36.793],[121.402,36.7888],[121.3968,36.7952],[121.399,36.8024],[121.3907,36.8068],[121.3851,36.8173],[121.3879,36.8275],[121.3845,36.8334],[121.3736,36.8403],[121.3644,36.8413],[121.3576,36.8501],[121.3526,36.8686],[121.359,36.8681],[121.3669,36.8715],[121.3776,36.8824],[121.3651,36.8849],[121.3585,36.8982],[121.3636,36.9039],[121.3595,36.9097],[121.3583,36.9219],[121.3423,36.9215],[121.3326,36.9163],[121.3291,36.9098],[121.3102,36.9046],[121.3098,36.9117],[121.3025,36.912],[121.3012,36.9189],[121.2874,36.9194],[121.2787,36.916],[121.2724,36.9261],[121.2617,36.9257],[121.2583,36.9321],[121.2513,36.9339],[121.2454,36.9458],[121.2568,36.9506],[121.2529,36.956],[121.2355,36.9568],[121.2238,36.9677],[121.2282,36.972],[121.2245,36.9791],[121.2279,36.9829],[121.22,36.9885],[121.208,36.9866],[121.1955,36.9943],[121.1792,37],[121.1683,37.0074],[121.1752,37.0114],[121.1752,37.0152],[121.189,37.0159],[121.1902,37.03],[121.1865,37.0379],[121.1958,37.0437],[121.1989,37.0486],[121.1916,37.0553],[121.1914,37.0657],[121.1983,37.0719],[121.1795,37.0699],[121.1736,37.0749],[121.1748,37.0867],[121.1689,37.0908],[121.1624,37.1031],[121.1647,37.1254],[121.1702,37.1313],[121.1593,37.1502],[121.1528,37.154],[121.1505,37.1597]]]},"properties":{"region_code":"CN-37-3706-370687","parent_region_code":"CN-37-3706","name":"海阳市","level":"county","has_children":false,"full_path":"中国 / 山东省 / 烟台市 / 海阳市","source_admin_code":"370687","osm_relation_id":5654961}}
]}