{"type":"FeatureCollection", "features": [
{"type":"Feature","geometry":{"type":"Polygon","coordinates":[[[118.0244,28.3871],[118.0272,28.3875],[118.0365,28.3931],[118.0426,28.3941],[118.0483,28.4019],[118.0471,28.4049],[118.049,28.4272],[118.0548,28.43],[118.0644,28.4283],[118.0718,28.4286],[118.0777,28.4302],[118.0871,28.4308],[118.095,28.4273],[118.1006,28.4304],[118.1048,28.4377],[118.1097,28.4396],[118.1175,28.445],[118.1301,28.4478],[118.1319,28.452],[118.1377,28.4539],[118.133,28.4623],[118.1353,28.4664],[118.1349,28.4698],[118.1309,28.4706],[118.1329,28.4791],[118.1362,28.4814],[118.1404,28.4816],[118.1458,28.4841],[118.1442,28.4937],[118.1464,28.4996],[118.1525,28.5047],[118.1552,28.5118],[118.1515,28.5154],[118.1452,28.5161],[118.1409,28.5189],[118.1337,28.5272],[118.1343,28.5304],[118.1296,28.5331],[118.1351,28.5369],[118.135,28.5413],[118.1385,28.5432],[118.1405,28.547],[118.1411,28.5541],[118.134,28.5605],[118.1339,28.5737],[118.1304,28.5756],[118.1269,28.5689],[118.1191,28.5679],[118.1112,28.5706],[118.1006,28.5705],[118.1064,28.5825],[118.1144,28.5887],[118.1195,28.5895],[118.1238,28.5879],[118.129,28.588],[118.1305,28.5936],[118.1393,28.5957],[118.1427,28.5994],[118.1385,28.6021],[118.1372,28.6053],[118.1326,28.6085],[118.1329,28.6147],[118.1358,28.6156],[118.138,28.6197],[118.1395,28.6271],[118.1375,28.6297],[118.1405,28.635],[118.1348,28.6378],[118.1316,28.633],[118.1261,28.6287],[118.125,28.6254],[118.127,28.6211],[118.1245,28.6188],[118.1178,28.6178],[118.1123,28.612],[118.1062,28.6079],[118.1051,28.604],[118.101,28.6039],[118.0988,28.5999],[118.094,28.5969],[118.0806,28.5965],[118.0768,28.5923],[118.0691,28.5897],[118.0663,28.5911],[118.064,28.6042],[118.0647,28.6076],[118.0582,28.6175],[118.0483,28.6191],[118.0492,28.6119],[118.0477,28.6066],[118.0446,28.6038],[118.0381,28.6047],[118.0385,28.6011],[118.032,28.602],[118.0313,28.6155],[118.0271,28.6143],[118.0221,28.6217],[118.0146,28.6203],[118.0115,28.6161],[118.0122,28.6094],[118.0146,28.6062],[118.0179,28.5903],[118.0254,28.5862],[118.0237,28.5803],[118.0266,28.5716],[118.0319,28.5699],[118.0334,28.5593],[118.0324,28.5537],[118.0363,28.5517],[118.042,28.5588],[118.0455,28.5544],[118.0524,28.5496],[118.0486,28.5453],[118.0468,28.5386],[118.0445,28.5376],[118.0401,28.5319],[118.0349,28.529],[118.0328,28.5347],[118.0297,28.5332],[118.0234,28.5254],[118.0203,28.5256],[118.015,28.5229],[118.0108,28.5184],[118.0119,28.5145],[118.0073,28.5123],[117.9941,28.5096],[117.9903,28.5065],[117.9889,28.4955],[117.982,28.4942],[117.9777,28.4816],[117.9761,28.4705],[117.9702,28.4705],[117.9682,28.4656],[117.9636,28.4663],[117.9684,28.4721],[117.968,28.4751],[117.9641,28.4802],[117.9631,28.4855],[117.966,28.4942],[117.9593,28.4955],[117.9545,28.4908],[117.9493,28.4901],[117.9485,28.4831],[117.9445,28.476],[117.9439,28.4721],[117.9409,28.4692],[117.9335,28.4659],[117.9356,28.4622],[117.925,28.4572],[117.9253,28.4538],[117.93,28.4539],[117.9246,28.4468],[117.9271,28.438],[117.9313,28.435],[117.93,28.4312],[117.9375,28.4234],[117.9402,28.4145],[117.9377,28.4084],[117.9321,28.4053],[117.9292,28.3944],[117.9306,28.3902],[117.9289,28.3854],[117.9248,28.3797],[117.9279,28.3779],[117.9335,28.3774],[117.9405,28.3841],[117.946,28.3851],[117.9482,28.3834],[117.9525,28.3871],[117.9563,28.3864],[117.959,28.3786],[117.964,28.38],[117.9681,28.3781],[117.9706,28.3824],[117.9756,28.385],[117.9739,28.3921],[117.9756,28.397],[117.9797,28.3999],[117.9768,28.4056],[117.9837,28.4065],[117.9901,28.4125],[117.9896,28.4154],[118.0028,28.4177],[118.0063,28.4115],[118.0074,28.4058],[118.0107,28.4008],[118.0234,28.3988],[118.0248,28.3929],[118.0244,28.3871]]]},"properties":{"region_code":"CN-36-3611-361102","parent_region_code":"CN-36-3611","name":"信州区","level":"county","has_children":false,"full_path":"中国 / 江西省 / 上饶市 / 信州区","source_admin_code":"361102","osm_relation_id":3046785}},
{"type":"Feature","geometry":{"type":"Polygon","coordinates":[[[118.0244,28.3871],[118.025,28.3808],[118.0291,28.3762],[118.0384,28.3773],[118.0425,28.3793],[118.0441,28.3759],[118.0506,28.3696],[118.0518,28.3659],[118.0571,28.3625],[118.0595,28.3674],[118.0642,28.3651],[118.0667,28.3619],[118.0657,28.3565],[118.0696,28.3513],[118.0773,28.3506],[118.0836,28.3411],[118.0936,28.3381],[118.0915,28.3333],[118.0973,28.3273],[118.0975,28.3223],[118.1029,28.3206],[118.1049,28.317],[118.1097,28.3152],[118.1136,28.306],[118.1164,28.3019],[118.1217,28.3002],[118.1259,28.3019],[118.1272,28.3068],[118.1326,28.3079],[118.1371,28.3042],[118.1425,28.3057],[118.1414,28.3105],[118.1551,28.3132],[118.1632,28.3127],[118.1654,28.3144],[118.1645,28.3196],[118.1615,28.3226],[118.1667,28.3258],[118.1751,28.3252],[118.178,28.3269],[118.1831,28.3256],[118.1952,28.326],[118.1927,28.3207],[118.1933,28.317],[118.1865,28.3165],[118.1859,28.3085],[118.1832,28.3068],[118.1784,28.2998],[118.1824,28.292],[118.1783,28.2843],[118.1803,28.2795],[118.176,28.2701],[118.1784,28.2613],[118.1843,28.2544],[118.1871,28.2457],[118.186,28.2379],[118.1928,28.2364],[118.199,28.2292],[118.201,28.2223],[118.1978,28.2194],[118.1959,28.2143],[118.196,28.2034],[118.1947,28.2007],[118.1898,28.1983],[118.1788,28.1851],[118.1797,28.1766],[118.1775,28.1727],[118.1837,28.1673],[118.187,28.1542],[118.191,28.1525],[118.1895,28.1447],[118.1873,28.1415],[118.1887,28.1385],[118.1981,28.1395],[118.202,28.1254],[118.2039,28.1229],[118.2012,28.1197],[118.208,28.1154],[118.1967,28.0943],[118.201,28.092],[118.2016,28.0874],[118.2042,28.0832],[118.2103,28.0824],[118.2144,28.0846],[118.2202,28.0841],[118.2215,28.0813],[118.2184,28.0747],[118.2175,28.0699],[118.2108,28.0607],[118.2202,28.0625],[118.2326,28.0722],[118.2374,28.0787],[118.2474,28.0725],[118.2515,28.0731],[118.2603,28.0809],[118.2697,28.0859],[118.2768,28.085],[118.2811,28.0873],[118.2877,28.0853],[118.3041,28.0926],[118.3153,28.0912],[118.3189,28.0927],[118.3302,28.0911],[118.3334,28.0917],[118.3353,28.0879],[118.3471,28.0897],[118.3502,28.0941],[118.3506,28.1066],[118.3539,28.1105],[118.3539,28.1167],[118.3518,28.119],[118.3517,28.1276],[118.3634,28.1325],[118.3621,28.1362],[118.3567,28.1418],[118.3572,28.149],[118.3541,28.154],[118.3561,28.1593],[118.3625,28.1609],[118.3736,28.1685],[118.3742,28.1708],[118.3697,28.1772],[118.3693,28.1821],[118.3705,28.1897],[118.3675,28.1922],[118.3584,28.1934],[118.353,28.1958],[118.3412,28.1946],[118.3345,28.1976],[118.3295,28.2101],[118.3234,28.2119],[118.3148,28.2176],[118.3101,28.2239],[118.3103,28.2265],[118.3155,28.2302],[118.3341,28.2391],[118.3388,28.2378],[118.3459,28.2489],[118.3454,28.2535],[118.3484,28.2552],[118.3597,28.2572],[118.3601,28.2603],[118.368,28.2688],[118.3724,28.2701],[118.3775,28.2683],[118.3835,28.27],[118.3917,28.2783],[118.3987,28.2805],[118.4005,28.2837],[118.41,28.2874],[118.4174,28.2936],[118.4278,28.296],[118.4286,28.2917],[118.4346,28.2949],[118.4419,28.297],[118.4504,28.3019],[118.4614,28.3095],[118.4669,28.3174],[118.4686,28.3215],[118.4766,28.3245],[118.4801,28.3281],[118.4822,28.3329],[118.4781,28.3374],[118.4752,28.3306],[118.4668,28.3361],[118.4693,28.341],[118.4652,28.3467],[118.4638,28.3605],[118.4583,28.3629],[118.4592,28.3692],[118.4546,28.3747],[118.4527,28.3827],[118.4482,28.3889],[118.4357,28.3947],[118.436,28.3979],[118.4331,28.403],[118.4265,28.4025],[118.4265,28.4051],[118.4345,28.4093],[118.4349,28.4153],[118.4452,28.4184],[118.4484,28.4268],[118.4519,28.4283],[118.4544,28.4334],[118.4565,28.4445],[118.4603,28.4506],[118.4606,28.4569],[118.4651,28.4578],[118.461,28.4621],[118.4672,28.4667],[118.4727,28.474],[118.4729,28.4778],[118.4696,28.482],[118.4624,28.4839],[118.4546,28.4835],[118.4516,28.4801],[118.4483,28.4798],[118.4454,28.4848],[118.4386,28.4891],[118.4353,28.4945],[118.4308,28.4964],[118.4254,28.4949],[118.4159,28.4962],[118.4094,28.5008],[118.4137,28.5055],[118.4194,28.5033],[118.4215,28.5047],[118.4306,28.5069],[118.4389,28.5137],[118.4372,28.5196],[118.432,28.5248],[118.428,28.5193],[118.4217,28.526],[118.4088,28.5205],[118.4084,28.5188],[118.4008,28.514],[118.3985,28.5156],[118.3926,28.509],[118.3913,28.505],[118.3868,28.5011],[118.3815,28.5007],[118.3692,28.5047],[118.3634,28.5033],[118.359,28.5047],[118.3551,28.5031],[118.3518,28.5044],[118.3441,28.5113],[118.3394,28.5142],[118.3351,28.5189],[118.3324,28.5155],[118.3297,28.5241],[118.331,28.5386],[118.3385,28.5404],[118.3357,28.5448],[118.3324,28.5439],[118.3306,28.5501],[118.3322,28.5538],[118.3244,28.5553],[118.3185,28.56],[118.3218,28.5619],[118.3176,28.5678],[118.3114,28.5662],[118.3069,28.5672],[118.3052,28.5646],[118.3044,28.5446],[118.2976,28.5359],[118.2916,28.5329],[118.2884,28.5339],[118.283,28.5323],[118.2805,28.5337],[118.2731,28.5343],[118.2759,28.5398],[118.2744,28.5525],[118.2663,28.5599],[118.2639,28.5607],[118.2627,28.5673],[118.257,28.5644],[118.2522,28.5656],[118.2519,28.5702],[118.2462,28.5734],[118.2377,28.5712],[118.2361,28.5737],[118.2317,28.5735],[118.2287,28.5792],[118.2394,28.5826],[118.2366,28.5929],[118.2284,28.5973],[118.2262,28.6006],[118.2288,28.6043],[118.2271,28.6083],[118.2304,28.6125],[118.2307,28.6167],[118.2282,28.6209],[118.2337,28.623],[118.2307,28.628],[118.226,28.6262],[118.2157,28.6264],[118.2053,28.6194],[118.2008,28.6214],[118.1921,28.6176],[118.1886,28.6217],[118.1781,28.6141],[118.1747,28.6065],[118.1711,28.6038],[118.163,28.6063],[118.1594,28.612],[118.1561,28.6094],[118.1477,28.6103],[118.1396,28.617],[118.138,28.6197],[118.1358,28.6156],[118.1329,28.6147],[118.1326,28.6085],[118.1372,28.6053],[118.1385,28.6021],[118.1427,28.5994],[118.1393,28.5957],[118.1305,28.5936],[118.129,28.588],[118.1238,28.5879],[118.1195,28.5895],[118.1144,28.5887],[118.1064,28.5825],[118.1006,28.5705],[118.1112,28.5706],[118.1191,28.5679],[118.1269,28.5689],[118.1304,28.5756],[118.1339,28.5737],[118.134,28.5605],[118.1411,28.5541],[118.1405,28.547],[118.1385,28.5432],[118.135,28.5413],[118.1351,28.5369],[118.1296,28.5331],[118.1343,28.5304],[118.1337,28.5272],[118.1409,28.5189],[118.1452,28.5161],[118.1515,28.5154],[118.1552,28.5118],[118.1525,28.5047],[118.1464,28.4996],[118.1442,28.4937],[118.1458,28.4841],[118.1404,28.4816],[118.1362,28.4814],[118.1329,28.4791],[118.1309,28.4706],[118.1349,28.4698],[118.1353,28.4664],[118.133,28.4623],[118.1377,28.4539],[118.1319,28.452],[118.1301,28.4478],[118.1175,28.445],[118.1097,28.4396],[118.1048,28.4377],[118.1006,28.4304],[118.095,28.4273],[118.0871,28.4308],[118.0777,28.4302],[118.0718,28.4286],[118.0644,28.4283],[118.0548,28.43],[118.049,28.4272],[118.0471,28.4049],[118.0483,28.4019],[118.0426,28.3941],[118.0365,28.3931],[118.0272,28.3875],[118.0244,28.3871]]]},"properties":{"region_code":"CN-36-3611-361103","parent_region_code":"CN-36-3611","name":"广丰区","level":"county","has_children":false,"full_path":"中国 / 江西省 / 上饶市 / 广丰区","source_admin_code":"361103","osm_relation_id":3046779}},
{"type":"Feature","geometry":{"type":"Polygon","coordinates":[[[118.0146,28.6203],[118.0099,28.6232],[118.0118,28.6264],[118.0186,28.6278],[118.0217,28.6319],[118.021,28.6345],[118.0242,28.6404],[118.0205,28.6473],[118.016,28.6457],[118.0153,28.6525],[118.0114,28.6533],[118.0097,28.6581],[117.9933,28.6536],[117.9893,28.6499],[117.9827,28.6516],[117.9791,28.6438],[117.971,28.6373],[117.9597,28.6347],[117.9522,28.6381],[117.9445,28.6329],[117.9379,28.6302],[117.9312,28.6321],[117.9268,28.6403],[117.9304,28.6422],[117.9267,28.6457],[117.9306,28.6587],[117.9382,28.6612],[117.9343,28.6705],[117.9391,28.6747],[117.941,28.6785],[117.9401,28.6823],[117.9341,28.6841],[117.9375,28.6896],[117.9359,28.6943],[117.9364,28.6991],[117.9319,28.7086],[117.929,28.7087],[117.9261,28.714],[117.9263,28.7182],[117.9425,28.7297],[117.9407,28.7359],[117.9317,28.7379],[117.9311,28.7407],[117.9194,28.7434],[117.9068,28.7443],[117.909,28.7544],[117.9066,28.759],[117.9024,28.7627],[117.8914,28.7691],[117.8874,28.7732],[117.8831,28.7738],[117.8736,28.7842],[117.8757,28.7873],[117.8725,28.7912],[117.8758,28.8005],[117.8759,28.8066],[117.8721,28.8158],[117.8671,28.8123],[117.8579,28.8128],[117.8517,28.8166],[117.8418,28.8175],[117.8416,28.8218],[117.8362,28.8257],[117.8309,28.8231],[117.8262,28.8281],[117.8201,28.8268],[117.8168,28.829],[117.8077,28.8274],[117.8035,28.8314],[117.7957,28.8348],[117.792,28.8294],[117.7832,28.8272],[117.7794,28.8285],[117.771,28.8248],[117.7668,28.8301],[117.7681,28.8339],[117.7638,28.8366],[117.7584,28.8355],[117.7542,28.8382],[117.7486,28.8383],[117.744,28.8402],[117.7307,28.8307],[117.7309,28.8246],[117.7292,28.8213],[117.7252,28.8191],[117.7169,28.8194],[117.7154,28.8156],[117.7219,28.8146],[117.729,28.806],[117.7179,28.7981],[117.712,28.7984],[117.7141,28.7926],[117.7149,28.7858],[117.7183,28.7823],[117.7151,28.777],[117.7157,28.7732],[117.7192,28.7687],[117.7176,28.7648],[117.7222,28.7619],[117.723,28.7556],[117.7189,28.7553],[117.7245,28.7489],[117.7286,28.7404],[117.7237,28.7325],[117.7197,28.7294],[117.7219,28.722],[117.7235,28.7186],[117.7215,28.7131],[117.7231,28.7096],[117.7191,28.7052],[117.7209,28.6912],[117.7177,28.6887],[117.7146,28.6899],[117.7095,28.6877],[117.7113,28.6846],[117.7151,28.6849],[117.7207,28.6791],[117.7197,28.673],[117.7208,28.6686],[117.7175,28.6666],[117.7184,28.6613],[117.7153,28.6572],[117.7207,28.6527],[117.7231,28.6481],[117.7362,28.6512],[117.7405,28.6491],[117.7415,28.6448],[117.7381,28.635],[117.7298,28.6313],[117.7262,28.6338],[117.7227,28.6228],[117.7148,28.6141],[117.7057,28.6119],[117.7025,28.6085],[117.7062,28.6065],[117.7051,28.6023],[117.7081,28.5991],[117.7076,28.5963],[117.7167,28.5869],[117.7171,28.5822],[117.7155,28.5762],[117.713,28.5728],[117.7047,28.5679],[117.706,28.5627],[117.7128,28.5589],[117.7157,28.5588],[117.7189,28.5531],[117.7139,28.547],[117.7285,28.5433],[117.725,28.5383],[117.7259,28.533],[117.724,28.5288],[117.7151,28.5256],[117.7087,28.5209],[117.7005,28.5133],[117.6964,28.4991],[117.7049,28.4979],[117.7083,28.5002],[117.7172,28.5035],[117.7235,28.5034],[117.7282,28.4992],[117.7252,28.4974],[117.7239,28.4934],[117.7318,28.4862],[117.7267,28.4804],[117.7287,28.4778],[117.7256,28.4732],[117.7435,28.4629],[117.7569,28.4664],[117.7635,28.4708],[117.7691,28.4762],[117.7703,28.4694],[117.774,28.4668],[117.7737,28.4592],[117.7761,28.4527],[117.7721,28.4507],[117.7669,28.4536],[117.7651,28.4503],[117.7598,28.4474],[117.7532,28.4457],[117.7506,28.4466],[117.7472,28.4429],[117.7508,28.4404],[117.7466,28.4361],[117.7452,28.4306],[117.7385,28.4219],[117.7365,28.4207],[117.7379,28.4106],[117.7389,28.3977],[117.7364,28.3939],[117.7319,28.393],[117.7304,28.3856],[117.733,28.3829],[117.7316,28.3801],[117.738,28.3796],[117.7419,28.3758],[117.7388,28.3696],[117.7434,28.3676],[117.7424,28.3622],[117.7474,28.3514],[117.7396,28.3494],[117.7418,28.3427],[117.7416,28.3367],[117.7381,28.3325],[117.7412,28.3257],[117.7383,28.3211],[117.7401,28.3175],[117.7464,28.3174],[117.752,28.3148],[117.7585,28.3068],[117.7652,28.3157],[117.7679,28.321],[117.7678,28.3242],[117.7643,28.327],[117.7634,28.3308],[117.7647,28.3363],[117.7697,28.3422],[117.7708,28.3475],[117.7752,28.346],[117.7787,28.349],[117.7806,28.3533],[117.7841,28.3499],[117.7848,28.344],[117.7831,28.3398],[117.7945,28.3382],[117.7993,28.3423],[117.8032,28.3392],[117.807,28.3418],[117.8156,28.3397],[117.8227,28.3357],[117.8303,28.3393],[117.837,28.3402],[117.8436,28.3441],[117.8486,28.3427],[117.8463,28.3392],[117.8461,28.3268],[117.8518,28.3293],[117.8533,28.3197],[117.8599,28.3208],[117.8591,28.3164],[117.8613,28.3119],[117.8648,28.3127],[117.8731,28.3029],[117.8703,28.298],[117.875,28.287],[117.8756,28.2831],[117.8664,28.2871],[117.8638,28.2913],[117.8599,28.2926],[117.857,28.2903],[117.8546,28.2843],[117.8466,28.2798],[117.8436,28.2769],[117.8474,28.2722],[117.8472,28.2665],[117.8385,28.2661],[117.8357,28.2638],[117.8389,28.2542],[117.8438,28.2568],[117.8471,28.2611],[117.8494,28.259],[117.8457,28.2551],[117.8503,28.2492],[117.8478,28.2422],[117.851,28.2395],[117.8635,28.2363],[117.8706,28.2311],[117.8754,28.2299],[117.8772,28.2275],[117.8763,28.221],[117.8829,28.2179],[117.8839,28.2114],[117.8866,28.2074],[117.8918,28.2038],[117.9018,28.195],[117.8975,28.1873],[117.8986,28.1844],[117.906,28.1794],[117.9097,28.1752],[117.9158,28.1782],[117.921,28.1829],[117.9208,28.1865],[117.9293,28.1861],[117.9458,28.1782],[117.9581,28.1773],[117.9599,28.1799],[117.964,28.177],[117.966,28.173],[117.9607,28.17],[117.958,28.1648],[117.961,28.1566],[117.9613,28.1501],[117.9588,28.1431],[117.9638,28.1375],[117.9664,28.1385],[117.9691,28.1335],[117.9668,28.1313],[117.9644,28.1253],[117.9629,28.1163],[117.9522,28.1044],[117.951,28.1006],[117.9538,28.0977],[117.9499,28.0888],[117.9518,28.0864],[117.9511,28.0777],[117.9535,28.0741],[117.9509,28.07],[117.9528,28.0636],[117.9607,28.0654],[117.9627,28.0545],[117.9647,28.0521],[117.9643,28.0409],[117.9715,28.033],[117.9755,28.0274],[117.98,28.0166],[117.9793,28.0101],[117.9819,28.0061],[117.9869,28.0022],[117.9926,27.9998],[117.9911,27.9953],[117.994,27.9944],[118.0014,27.9837],[118.0058,27.9858],[118.011,27.9839],[118.0233,27.9908],[118.029,27.9915],[118.0341,27.9889],[118.0377,27.9834],[118.0416,27.9819],[118.0459,27.9848],[118.0522,27.9837],[118.0559,27.9859],[118.063,27.9837],[118.0658,27.9807],[118.0666,27.9742],[118.0693,27.9709],[118.0764,27.9688],[118.0856,27.9683],[118.0921,27.971],[118.092,27.9739],[118.0868,27.985],[118.0895,27.9906],[118.0881,27.9969],[118.0888,28.0046],[118.0924,28.0105],[118.0984,28.014],[118.0995,28.0197],[118.1073,28.0165],[118.1184,28.0157],[118.1242,28.0202],[118.1227,28.0302],[118.1165,28.0357],[118.1156,28.0451],[118.121,28.0505],[118.1302,28.0572],[118.1325,28.0611],[118.1386,28.06],[118.149,28.0652],[118.1565,28.0608],[118.1663,28.0606],[118.1723,28.0587],[118.1786,28.0546],[118.1834,28.0546],[118.1876,28.0565],[118.1949,28.0533],[118.2003,28.0562],[118.2074,28.0615],[118.2108,28.0607],[118.2175,28.0699],[118.2184,28.0747],[118.2215,28.0813],[118.2202,28.0841],[118.2144,28.0846],[118.2103,28.0824],[118.2042,28.0832],[118.2016,28.0874],[118.201,28.092],[118.1967,28.0943],[118.208,28.1154],[118.2012,28.1197],[118.2039,28.1229],[118.202,28.1254],[118.1981,28.1395],[118.1887,28.1385],[118.1873,28.1415],[118.1895,28.1447],[118.191,28.1525],[118.187,28.1542],[118.1837,28.1673],[118.1775,28.1727],[118.1797,28.1766],[118.1788,28.1851],[118.1898,28.1983],[118.1947,28.2007],[118.196,28.2034],[118.1959,28.2143],[118.1978,28.2194],[118.201,28.2223],[118.199,28.2292],[118.1928,28.2364],[118.186,28.2379],[118.1871,28.2457],[118.1843,28.2544],[118.1784,28.2613],[118.176,28.2701],[118.1803,28.2795],[118.1783,28.2843],[118.1824,28.292],[118.1784,28.2998],[118.1832,28.3068],[118.1859,28.3085],[118.1865,28.3165],[118.1933,28.317],[118.1927,28.3207],[118.1952,28.326],[118.1831,28.3256],[118.178,28.3269],[118.1751,28.3252],[118.1667,28.3258],[118.1615,28.3226],[118.1645,28.3196],[118.1654,28.3144],[118.1632,28.3127],[118.1551,28.3132],[118.1414,28.3105],[118.1425,28.3057],[118.1371,28.3042],[118.1326,28.3079],[118.1272,28.3068],[118.1259,28.3019],[118.1217,28.3002],[118.1164,28.3019],[118.1136,28.306],[118.1097,28.3152],[118.1049,28.317],[118.1029,28.3206],[118.0975,28.3223],[118.0973,28.3273],[118.0915,28.3333],[118.0936,28.3381],[118.0836,28.3411],[118.0773,28.3506],[118.0696,28.3513],[118.0657,28.3565],[118.0667,28.3619],[118.0642,28.3651],[118.0595,28.3674],[118.0571,28.3625],[118.0518,28.3659],[118.0506,28.3696],[118.0441,28.3759],[118.0425,28.3793],[118.0384,28.3773],[118.0291,28.3762],[118.025,28.3808],[118.0244,28.3871],[118.0248,28.3929],[118.0234,28.3988],[118.0107,28.4008],[118.0074,28.4058],[118.0063,28.4115],[118.0028,28.4177],[117.9896,28.4154],[117.9901,28.4125],[117.9837,28.4065],[117.9768,28.4056],[117.9797,28.3999],[117.9756,28.397],[117.9739,28.3921],[117.9756,28.385],[117.9706,28.3824],[117.9681,28.3781],[117.964,28.38],[117.959,28.3786],[117.9563,28.3864],[117.9525,28.3871],[117.9482,28.3834],[117.946,28.3851],[117.9405,28.3841],[117.9335,28.3774],[117.9279,28.3779],[117.9248,28.3797],[117.9289,28.3854],[117.9306,28.3902],[117.9292,28.3944],[117.9321,28.4053],[117.9377,28.4084],[117.9402,28.4145],[117.9375,28.4234],[117.93,28.4312],[117.9313,28.435],[117.9271,28.438],[117.9246,28.4468],[117.93,28.4539],[117.9253,28.4538],[117.925,28.4572],[117.9356,28.4622],[117.9335,28.4659],[117.9409,28.4692],[117.9439,28.4721],[117.9445,28.476],[117.9485,28.4831],[117.9493,28.4901],[117.9545,28.4908],[117.9593,28.4955],[117.966,28.4942],[117.9631,28.4855],[117.9641,28.4802],[117.968,28.4751],[117.9684,28.4721],[117.9636,28.4663],[117.9682,28.4656],[117.9702,28.4705],[117.9761,28.4705],[117.9777,28.4816],[117.982,28.4942],[117.9889,28.4955],[117.9903,28.5065],[117.9941,28.5096],[118.0073,28.5123],[118.0119,28.5145],[118.0108,28.5184],[118.015,28.5229],[118.0203,28.5256],[118.0234,28.5254],[118.0297,28.5332],[118.0328,28.5347],[118.0349,28.529],[118.0401,28.5319],[118.0445,28.5376],[118.0468,28.5386],[118.0486,28.5453],[118.0524,28.5496],[118.0455,28.5544],[118.042,28.5588],[118.0363,28.5517],[118.0324,28.5537],[118.0334,28.5593],[118.0319,28.5699],[118.0266,28.5716],[118.0237,28.5803],[118.0254,28.5862],[118.0179,28.5903],[118.0146,28.6062],[118.0122,28.6094],[118.0115,28.6161],[118.0146,28.6203]]]},"properties":{"region_code":"CN-36-3611-361104","parent_region_code":"CN-36-3611","name":"广信区","level":"county","has_children":false,"full_path":"中国 / 江西省 / 上饶市 / 广信区","source_admin_code":"361104","osm_relation_id":3046782}},
{"type":"Feature","geometry":{"type":"Polygon","coordinates":[[[118.138,28.6197],[118.1396,28.617],[118.1477,28.6103],[118.1561,28.6094],[118.1594,28.612],[118.163,28.6063],[118.1711,28.6038],[118.1747,28.6065],[118.1781,28.6141],[118.1886,28.6217],[118.1921,28.6176],[118.2008,28.6214],[118.2053,28.6194],[118.2157,28.6264],[118.226,28.6262],[118.2307,28.628],[118.2337,28.623],[118.2282,28.6209],[118.2307,28.6167],[118.2304,28.6125],[118.2271,28.6083],[118.2288,28.6043],[118.2262,28.6006],[118.2284,28.5973],[118.2366,28.5929],[118.2394,28.5826],[118.2287,28.5792],[118.2317,28.5735],[118.2361,28.5737],[118.2377,28.5712],[118.2462,28.5734],[118.2519,28.5702],[118.2522,28.5656],[118.257,28.5644],[118.2627,28.5673],[118.2639,28.5607],[118.2663,28.5599],[118.2744,28.5525],[118.2759,28.5398],[118.2731,28.5343],[118.2805,28.5337],[118.283,28.5323],[118.2884,28.5339],[118.2916,28.5329],[118.2976,28.5359],[118.3044,28.5446],[118.3052,28.5646],[118.3069,28.5672],[118.3114,28.5662],[118.3176,28.5678],[118.3218,28.5619],[118.3185,28.56],[118.3244,28.5553],[118.3322,28.5538],[118.3306,28.5501],[118.3324,28.5439],[118.3357,28.5448],[118.3385,28.5404],[118.331,28.5386],[118.3297,28.5241],[118.3324,28.5155],[118.3351,28.5189],[118.3394,28.5142],[118.3441,28.5113],[118.3518,28.5044],[118.3551,28.5031],[118.359,28.5047],[118.3634,28.5033],[118.3692,28.5047],[118.3815,28.5007],[118.3868,28.5011],[118.3913,28.505],[118.3926,28.509],[118.3985,28.5156],[118.4008,28.514],[118.4084,28.5188],[118.4088,28.5205],[118.4217,28.526],[118.4193,28.5326],[118.4211,28.5352],[118.4168,28.5429],[118.417,28.5489],[118.4133,28.5559],[118.4071,28.5589],[118.4087,28.5662],[118.405,28.5697],[118.4061,28.5761],[118.4127,28.576],[118.411,28.58],[118.4123,28.5868],[118.4183,28.5881],[118.4157,28.5967],[118.4108,28.5981],[118.4084,28.604],[118.4104,28.6064],[118.4087,28.6126],[118.4138,28.6147],[118.4205,28.615],[118.4218,28.6205],[118.4243,28.6219],[118.4281,28.6278],[118.4225,28.6344],[118.4184,28.6417],[118.4172,28.649],[118.4261,28.6542],[118.4254,28.6633],[118.4274,28.6673],[118.4257,28.6693],[118.4258,28.6754],[118.4279,28.6794],[118.4229,28.6844],[118.4168,28.6825],[118.4112,28.6853],[118.4095,28.6896],[118.4103,28.6938],[118.4045,28.7017],[118.4012,28.7001],[118.3976,28.7062],[118.3917,28.7048],[118.3867,28.706],[118.3872,28.7135],[118.3969,28.7173],[118.3943,28.7304],[118.3885,28.7372],[118.3943,28.7364],[118.3941,28.7397],[118.3872,28.7413],[118.3867,28.7456],[118.3824,28.749],[118.3885,28.7516],[118.3871,28.7585],[118.382,28.7577],[118.3799,28.7628],[118.3799,28.7698],[118.3785,28.7771],[118.3761,28.7808],[118.3751,28.7879],[118.3769,28.79],[118.3673,28.804],[118.3689,28.8061],[118.3631,28.8142],[118.3529,28.818],[118.3427,28.8165],[118.3354,28.8186],[118.3287,28.8171],[118.3168,28.8222],[118.3154,28.8244],[118.3061,28.8244],[118.3008,28.8266],[118.2993,28.8304],[118.2957,28.829],[118.2941,28.8336],[118.2898,28.8382],[118.3,28.8435],[118.2921,28.851],[118.2926,28.8557],[118.2892,28.8638],[118.2834,28.8705],[118.2811,28.8794],[118.2768,28.8847],[118.2764,28.8948],[118.2729,28.8985],[118.2695,28.9055],[118.2681,28.9137],[118.2658,28.9174],[118.2665,28.9203],[118.2579,28.9233],[118.252,28.9265],[118.2492,28.9263],[118.2456,28.9223],[118.2385,28.9234],[118.2324,28.9218],[118.2283,28.9186],[118.2234,28.9177],[118.2212,28.9147],[118.2163,28.9149],[118.2121,28.9114],[118.2072,28.9106],[118.2036,28.9077],[118.1993,28.9082],[118.1948,28.9053],[118.1904,28.9065],[118.1881,28.9112],[118.1887,28.9164],[118.1917,28.9195],[118.202,28.9233],[118.2049,28.9281],[118.211,28.9342],[118.2161,28.9373],[118.2224,28.9446],[118.2228,28.9477],[118.2153,28.952],[118.2104,28.9507],[118.2068,28.952],[118.2045,28.9576],[118.1995,28.9555],[118.1936,28.9581],[118.1944,28.96],[118.191,28.9682],[118.1843,28.9738],[118.1815,28.9799],[118.1783,28.98],[118.1748,28.984],[118.1701,28.9827],[118.1625,28.9887],[118.1515,28.9883],[118.1498,28.9899],[118.1418,28.9875],[118.1394,28.9833],[118.1349,28.9831],[118.1285,28.9864],[118.1268,28.9905],[118.1204,28.9968],[118.1241,29.002],[118.1239,29.0066],[118.1272,29.0111],[118.1219,29.0188],[118.1153,29.014],[118.1108,29.0125],[118.1057,29.0057],[118.1073,29.0039],[118.1047,28.9976],[118.1049,28.9943],[118.0946,28.9931],[118.0876,28.9891],[118.085,28.9847],[118.0808,28.9836],[118.0715,28.9785],[118.0651,28.9841],[118.0598,28.9821],[118.063,28.9759],[118.061,28.9723],[118.0566,28.9707],[118.0603,28.9674],[118.0602,28.9635],[118.053,28.9561],[118.0479,28.9529],[118.0422,28.9462],[118.0426,28.9421],[118.0461,28.9367],[118.0513,28.9365],[118.0571,28.9331],[118.0533,28.9289],[118.0526,28.9214],[118.0491,28.9192],[118.0438,28.9205],[118.0328,28.9188],[118.0231,28.92],[118.0186,28.9193],[118.015,28.9214],[118.0089,28.9227],[118.0023,28.9311],[117.9949,28.9317],[117.9869,28.9306],[117.9805,28.9323],[117.9747,28.9319],[117.9726,28.9272],[117.9776,28.9225],[117.9735,28.9201],[117.9662,28.9192],[117.962,28.9133],[117.9541,28.9148],[117.9514,28.9112],[117.9468,28.9082],[117.9527,28.9028],[117.952,28.898],[117.9471,28.8966],[117.9444,28.9012],[117.9413,28.896],[117.9343,28.8997],[117.9374,28.9058],[117.9291,28.9061],[117.92,28.9162],[117.9162,28.9189],[117.9119,28.9191],[117.906,28.9158],[117.9008,28.9165],[117.9003,28.9251],[117.8949,28.9306],[117.885,28.9252],[117.8873,28.9197],[117.8811,28.9179],[117.8784,28.9219],[117.8643,28.9167],[117.8643,28.9124],[117.8581,28.9119],[117.8575,28.9095],[117.8667,28.9069],[117.8659,28.9013],[117.8705,28.9018],[117.8739,28.9093],[117.8772,28.91],[117.8783,28.8996],[117.8829,28.8951],[117.8903,28.896],[117.8928,28.8891],[117.8967,28.8888],[117.9026,28.8814],[117.8989,28.8781],[117.9069,28.872],[117.909,28.8775],[117.9139,28.8764],[117.912,28.8728],[117.9167,28.8692],[117.9196,28.8625],[117.9198,28.8571],[117.9171,28.8428],[117.9173,28.838],[117.9117,28.8337],[117.9088,28.8334],[117.9049,28.8288],[117.8967,28.8298],[117.887,28.8334],[117.8816,28.8305],[117.8778,28.8258],[117.8792,28.8174],[117.8771,28.8153],[117.8721,28.8158],[117.8759,28.8066],[117.8758,28.8005],[117.8725,28.7912],[117.8757,28.7873],[117.8736,28.7842],[117.8831,28.7738],[117.8874,28.7732],[117.8914,28.7691],[117.9024,28.7627],[117.9066,28.759],[117.909,28.7544],[117.9068,28.7443],[117.9194,28.7434],[117.9311,28.7407],[117.9317,28.7379],[117.9407,28.7359],[117.9425,28.7297],[117.9263,28.7182],[117.9261,28.714],[117.929,28.7087],[117.9319,28.7086],[117.9364,28.6991],[117.9359,28.6943],[117.9375,28.6896],[117.9341,28.6841],[117.9401,28.6823],[117.941,28.6785],[117.9391,28.6747],[117.9343,28.6705],[117.9382,28.6612],[117.9306,28.6587],[117.9267,28.6457],[117.9304,28.6422],[117.9268,28.6403],[117.9312,28.6321],[117.9379,28.6302],[117.9445,28.6329],[117.9522,28.6381],[117.9597,28.6347],[117.971,28.6373],[117.9791,28.6438],[117.9827,28.6516],[117.9893,28.6499],[117.9933,28.6536],[118.0097,28.6581],[118.0114,28.6533],[118.0153,28.6525],[118.016,28.6457],[118.0205,28.6473],[118.0242,28.6404],[118.021,28.6345],[118.0217,28.6319],[118.0186,28.6278],[118.0118,28.6264],[118.0099,28.6232],[118.0146,28.6203],[118.0221,28.6217],[118.0271,28.6143],[118.0313,28.6155],[118.032,28.602],[118.0385,28.6011],[118.0381,28.6047],[118.0446,28.6038],[118.0477,28.6066],[118.0492,28.6119],[118.0483,28.6191],[118.0582,28.6175],[118.0647,28.6076],[118.064,28.6042],[118.0663,28.5911],[118.0691,28.5897],[118.0768,28.5923],[118.0806,28.5965],[118.094,28.5969],[118.0988,28.5999],[118.101,28.6039],[118.1051,28.604],[118.1062,28.6079],[118.1123,28.612],[118.1178,28.6178],[118.1245,28.6188],[118.127,28.6211],[118.125,28.6254],[118.1261,28.6287],[118.1316,28.633],[118.1348,28.6378],[118.1405,28.635],[118.1375,28.6297],[118.1395,28.6271],[118.138,28.6197]]]},"properties":{"region_code":"CN-36-3611-361123","parent_region_code":"CN-36-3611","name":"玉山县","level":"county","has_children":false,"full_path":"中国 / 江西省 / 上饶市 / 玉山县","source_admin_code":"361123","osm_relation_id":3046789}},
{"type":"Feature","geometry":{"type":"Polygon","coordinates":[[[117.7304,28.3856],[117.7306,28.3818],[117.7272,28.3782],[117.7246,28.3805],[117.72,28.3779],[117.717,28.3828],[117.7136,28.3843],[117.71,28.3886],[117.7104,28.391],[117.7155,28.3932],[117.7152,28.4001],[117.7126,28.4032],[117.7047,28.4007],[117.7024,28.4042],[117.6916,28.3982],[117.6869,28.3982],[117.6828,28.4005],[117.6827,28.4033],[117.6681,28.4013],[117.6645,28.3899],[117.6599,28.3889],[117.6582,28.3856],[117.6464,28.3793],[117.6434,28.3768],[117.6428,28.3731],[117.6494,28.3709],[117.6482,28.3676],[117.6437,28.3663],[117.6456,28.3589],[117.6518,28.3585],[117.6499,28.3481],[117.6458,28.3428],[117.6446,28.3386],[117.6344,28.3405],[117.6327,28.3361],[117.6254,28.3357],[117.6234,28.3338],[117.6184,28.3345],[117.6145,28.3308],[117.6087,28.3291],[117.602,28.3293],[117.5976,28.3228],[117.5911,28.3233],[117.5929,28.3162],[117.5978,28.3186],[117.5986,28.3149],[117.6045,28.3077],[117.6022,28.3065],[117.6043,28.2998],[117.6036,28.296],[117.6078,28.2933],[117.603,28.2896],[117.5975,28.2888],[117.5847,28.2972],[117.5781,28.3054],[117.5736,28.3085],[117.5626,28.3129],[117.5573,28.3142],[117.5472,28.3204],[117.5427,28.3245],[117.5338,28.3276],[117.531,28.3255],[117.5323,28.3184],[117.5298,28.3116],[117.524,28.3056],[117.5215,28.3072],[117.5169,28.3041],[117.5049,28.3063],[117.5039,28.3098],[117.4992,28.311],[117.4992,28.3137],[117.4951,28.321],[117.4967,28.3253],[117.4956,28.3291],[117.4871,28.3305],[117.4822,28.3299],[117.4782,28.3342],[117.4736,28.3353],[117.4683,28.3319],[117.4654,28.327],[117.4643,28.3172],[117.4598,28.3153],[117.4578,28.3107],[117.4528,28.3131],[117.4482,28.3068],[117.4488,28.302],[117.4471,28.2954],[117.4495,28.2932],[117.4494,28.2848],[117.4515,28.2817],[117.4584,28.2823],[117.4612,28.2802],[117.4704,28.2793],[117.4729,28.2824],[117.4793,28.2801],[117.4814,28.2736],[117.4759,28.272],[117.4684,28.2673],[117.4703,28.2641],[117.468,28.2588],[117.4621,28.2548],[117.4644,28.2526],[117.4623,28.2484],[117.4673,28.2476],[117.4712,28.2438],[117.4745,28.2384],[117.4787,28.2401],[117.483,28.2385],[117.4902,28.239],[117.4949,28.2325],[117.4988,28.2297],[117.5107,28.2256],[117.5083,28.2222],[117.5082,28.2123],[117.5055,28.2087],[117.5007,28.2058],[117.4939,28.2051],[117.4895,28.2001],[117.4914,28.1979],[117.4909,28.1932],[117.4936,28.1875],[117.5005,28.1852],[117.5049,28.1803],[117.4996,28.1763],[117.4893,28.1767],[117.4868,28.1697],[117.4932,28.1627],[117.4872,28.1631],[117.4768,28.1609],[117.4743,28.1524],[117.4804,28.1539],[117.4796,28.15],[117.4821,28.1479],[117.4851,28.1411],[117.4834,28.1375],[117.4791,28.1393],[117.4735,28.1448],[117.4688,28.1419],[117.4652,28.136],[117.4655,28.1315],[117.4702,28.1168],[117.4653,28.116],[117.4698,28.1102],[117.4765,28.1119],[117.4755,28.1077],[117.4832,28.1064],[117.4834,28.1045],[117.4752,28.0957],[117.4811,28.0914],[117.4749,28.0886],[117.4682,28.0787],[117.4662,28.0689],[117.4598,28.0674],[117.4572,28.0653],[117.4583,28.0634],[117.4566,28.0564],[117.4571,28.0519],[117.4648,28.0391],[117.4639,28.033],[117.4675,28.0235],[117.4657,28.0192],[117.4611,28.0167],[117.4586,28.0088],[117.4553,28.0084],[117.4508,28.0032],[117.4477,28.0026],[117.4484,27.9963],[117.4467,27.9905],[117.4427,27.988],[117.4411,27.9822],[117.4425,27.9718],[117.4423,27.9592],[117.4376,27.9571],[117.4282,27.9486],[117.4265,27.945],[117.4287,27.9425],[117.4277,27.9386],[117.4339,27.9389],[117.4403,27.9354],[117.4467,27.9388],[117.4482,27.9432],[117.4568,27.9453],[117.4613,27.9374],[117.4652,27.9377],[117.4665,27.9345],[117.4719,27.9335],[117.478,27.9435],[117.4826,27.9449],[117.4848,27.9477],[117.4932,27.9535],[117.5,27.9572],[117.5044,27.9654],[117.5063,27.9779],[117.517,27.9859],[117.5214,27.9866],[117.5256,27.985],[117.526,27.9795],[117.5279,27.9768],[117.5385,27.9729],[117.5456,27.9723],[117.5529,27.9684],[117.5587,27.9596],[117.5554,27.9507],[117.5575,27.9445],[117.5608,27.9399],[117.5646,27.9387],[117.5686,27.9452],[117.5723,27.9477],[117.5789,27.9431],[117.5813,27.9374],[117.5811,27.9278],[117.5838,27.9218],[117.5799,27.9146],[117.5812,27.909],[117.5899,27.9047],[117.5921,27.8955],[117.5987,27.8895],[117.5972,27.8774],[117.5979,27.8727],[117.6045,27.867],[117.6147,27.8672],[117.6213,27.8629],[117.6277,27.8614],[117.6323,27.8584],[117.6452,27.8562],[117.6476,27.8516],[117.653,27.8497],[117.6605,27.8449],[117.6682,27.8315],[117.6719,27.8282],[117.6775,27.827],[117.6823,27.831],[117.6874,27.8295],[117.692,27.831],[117.696,27.8356],[117.7004,27.8364],[117.7036,27.8303],[117.7073,27.8266],[117.7126,27.8168],[117.7166,27.8157],[117.7222,27.8118],[117.7284,27.8047],[117.7367,27.8042],[117.7425,27.8105],[117.7497,27.8161],[117.7514,27.8252],[117.7548,27.8315],[117.7642,27.8381],[117.7703,27.8396],[117.7769,27.8502],[117.7826,27.8581],[117.7833,27.8605],[117.7794,27.864],[117.7776,27.87],[117.7787,27.8747],[117.784,27.8862],[117.7802,27.8942],[117.7837,27.9004],[117.788,27.901],[117.794,27.9043],[117.7972,27.9115],[117.8037,27.9147],[117.8092,27.9234],[117.8207,27.9281],[117.8272,27.9289],[117.8451,27.9408],[117.8497,27.9488],[117.8541,27.9496],[117.862,27.9411],[117.8721,27.9471],[117.8766,27.9466],[117.8782,27.9492],[117.8851,27.9511],[117.8942,27.9484],[117.899,27.954],[117.9058,27.9536],[117.9064,27.9571],[117.9117,27.96],[117.917,27.9683],[117.9241,27.9687],[117.9314,27.9728],[117.9308,27.9761],[117.9366,27.9786],[117.9488,27.9742],[117.9538,27.9683],[117.967,27.9672],[117.9732,27.9695],[117.9824,27.9786],[117.9911,27.9953],[117.9926,27.9998],[117.9869,28.0022],[117.9819,28.0061],[117.9793,28.0101],[117.98,28.0166],[117.9755,28.0274],[117.9715,28.033],[117.9643,28.0409],[117.9647,28.0521],[117.9627,28.0545],[117.9607,28.0654],[117.9528,28.0636],[117.9509,28.07],[117.9535,28.0741],[117.9511,28.0777],[117.9518,28.0864],[117.9499,28.0888],[117.9538,28.0977],[117.951,28.1006],[117.9522,28.1044],[117.9629,28.1163],[117.9644,28.1253],[117.9668,28.1313],[117.9691,28.1335],[117.9664,28.1385],[117.9638,28.1375],[117.9588,28.1431],[117.9613,28.1501],[117.961,28.1566],[117.958,28.1648],[117.9607,28.17],[117.966,28.173],[117.964,28.177],[117.9599,28.1799],[117.9581,28.1773],[117.9458,28.1782],[117.9293,28.1861],[117.9208,28.1865],[117.921,28.1829],[117.9158,28.1782],[117.9097,28.1752],[117.906,28.1794],[117.8986,28.1844],[117.8975,28.1873],[117.9018,28.195],[117.8918,28.2038],[117.8866,28.2074],[117.8839,28.2114],[117.8829,28.2179],[117.8763,28.221],[117.8772,28.2275],[117.8754,28.2299],[117.8706,28.2311],[117.8635,28.2363],[117.851,28.2395],[117.8478,28.2422],[117.8503,28.2492],[117.8457,28.2551],[117.8494,28.259],[117.8471,28.2611],[117.8438,28.2568],[117.8389,28.2542],[117.8357,28.2638],[117.8385,28.2661],[117.8472,28.2665],[117.8474,28.2722],[117.8436,28.2769],[117.8466,28.2798],[117.8546,28.2843],[117.857,28.2903],[117.8599,28.2926],[117.8638,28.2913],[117.8664,28.2871],[117.8756,28.2831],[117.875,28.287],[117.8703,28.298],[117.8731,28.3029],[117.8648,28.3127],[117.8613,28.3119],[117.8591,28.3164],[117.8599,28.3208],[117.8533,28.3197],[117.8518,28.3293],[117.8461,28.3268],[117.8463,28.3392],[117.8486,28.3427],[117.8436,28.3441],[117.837,28.3402],[117.8303,28.3393],[117.8227,28.3357],[117.8156,28.3397],[117.807,28.3418],[117.8032,28.3392],[117.7993,28.3423],[117.7945,28.3382],[117.7831,28.3398],[117.7848,28.344],[117.7841,28.3499],[117.7806,28.3533],[117.7787,28.349],[117.7752,28.346],[117.7708,28.3475],[117.7697,28.3422],[117.7647,28.3363],[117.7634,28.3308],[117.7643,28.327],[117.7678,28.3242],[117.7679,28.321],[117.7652,28.3157],[117.7585,28.3068],[117.752,28.3148],[117.7464,28.3174],[117.7401,28.3175],[117.7383,28.3211],[117.7412,28.3257],[117.7381,28.3325],[117.7416,28.3367],[117.7418,28.3427],[117.7396,28.3494],[117.7474,28.3514],[117.7424,28.3622],[117.7434,28.3676],[117.7388,28.3696],[117.7419,28.3758],[117.738,28.3796],[117.7316,28.3801],[117.733,28.3829],[117.7304,28.3856]]]},"properties":{"region_code":"CN-36-3611-361124","parent_region_code":"CN-36-3611","name":"铅山县","level":"county","has_children":false,"full_path":"中国 / 江西省 / 上饶市 / 铅山县","source_admin_code":"361124","osm_relation_id":3046786}},
{"type":"Feature","geometry":{"type":"Polygon","coordinates":[[[117.7219,28.722],[117.714,28.7189],[117.7181,28.7143],[117.7143,28.7128],[117.7138,28.7071],[117.7088,28.7097],[117.7063,28.7128],[117.7025,28.712],[117.7005,28.7081],[117.7013,28.7002],[117.7,28.6971],[117.6928,28.6917],[117.6801,28.696],[117.6736,28.6929],[117.6679,28.6949],[117.6671,28.6972],[117.6733,28.6986],[117.667,28.709],[117.6625,28.7111],[117.6569,28.7115],[117.6558,28.7161],[117.6512,28.7197],[117.6471,28.7163],[117.6471,28.7243],[117.6391,28.7244],[117.6348,28.7288],[117.6242,28.7331],[117.6204,28.7442],[117.6134,28.7416],[117.6065,28.7404],[117.6057,28.7374],[117.5998,28.7358],[117.6003,28.7331],[117.5927,28.7276],[117.5928,28.7229],[117.5983,28.719],[117.5911,28.7124],[117.5906,28.7008],[117.5846,28.6948],[117.5816,28.69],[117.5803,28.6844],[117.5817,28.6798],[117.5788,28.6775],[117.5864,28.673],[117.5875,28.6709],[117.5949,28.6701],[117.598,28.6659],[117.6026,28.6637],[117.6068,28.6596],[117.6114,28.6606],[117.6161,28.653],[117.6159,28.6497],[117.6234,28.6469],[117.6195,28.6435],[117.6174,28.6369],[117.6181,28.6306],[117.6219,28.6207],[117.6176,28.6177],[117.6111,28.6165],[117.6044,28.6032],[117.5986,28.6033],[117.5952,28.601],[117.5952,28.5979],[117.5913,28.5938],[117.5961,28.5837],[117.594,28.5781],[117.5942,28.5727],[117.5816,28.5633],[117.5763,28.5608],[117.573,28.5634],[117.5649,28.5587],[117.5602,28.5589],[117.5481,28.553],[117.5459,28.5501],[117.5468,28.5448],[117.5423,28.5395],[117.5427,28.536],[117.5392,28.5341],[117.5336,28.5355],[117.5329,28.5323],[117.5263,28.5352],[117.5217,28.5337],[117.5194,28.5309],[117.5139,28.5302],[117.5094,28.5326],[117.5076,28.5292],[117.5061,28.5193],[117.5126,28.5147],[117.5127,28.5123],[117.517,28.5091],[117.5124,28.5068],[117.5081,28.5007],[117.5085,28.4971],[117.5062,28.4872],[117.5047,28.486],[117.5136,28.4751],[117.5208,28.477],[117.5267,28.4725],[117.5257,28.4687],[117.5195,28.4637],[117.5174,28.4593],[117.5098,28.4626],[117.5056,28.4623],[117.5011,28.4572],[117.4945,28.4542],[117.4872,28.4433],[117.49,28.4397],[117.5024,28.432],[117.5066,28.4265],[117.5073,28.4219],[117.5057,28.4164],[117.5124,28.4174],[117.5147,28.4219],[117.5196,28.4205],[117.5232,28.4157],[117.5307,28.4154],[117.534,28.422],[117.5436,28.4245],[117.551,28.4303],[117.5574,28.4313],[117.5595,28.4082],[117.5559,28.4026],[117.5578,28.3986],[117.5558,28.39],[117.5627,28.3886],[117.563,28.3826],[117.5693,28.3805],[117.5673,28.3762],[117.571,28.3699],[117.5706,28.366],[117.5627,28.3609],[117.5629,28.3526],[117.568,28.3539],[117.5692,28.3488],[117.5661,28.3473],[117.5656,28.3401],[117.5602,28.3389],[117.5591,28.3359],[117.5471,28.3363],[117.5451,28.338],[117.5378,28.3363],[117.533,28.3321],[117.5338,28.3276],[117.5427,28.3245],[117.5472,28.3204],[117.5573,28.3142],[117.5626,28.3129],[117.5736,28.3085],[117.5781,28.3054],[117.5847,28.2972],[117.5975,28.2888],[117.603,28.2896],[117.6078,28.2933],[117.6036,28.296],[117.6043,28.2998],[117.6022,28.3065],[117.6045,28.3077],[117.5986,28.3149],[117.5978,28.3186],[117.5929,28.3162],[117.5911,28.3233],[117.5976,28.3228],[117.602,28.3293],[117.6087,28.3291],[117.6145,28.3308],[117.6184,28.3345],[117.6234,28.3338],[117.6254,28.3357],[117.6327,28.3361],[117.6344,28.3405],[117.6446,28.3386],[117.6458,28.3428],[117.6499,28.3481],[117.6518,28.3585],[117.6456,28.3589],[117.6437,28.3663],[117.6482,28.3676],[117.6494,28.3709],[117.6428,28.3731],[117.6434,28.3768],[117.6464,28.3793],[117.6582,28.3856],[117.6599,28.3889],[117.6645,28.3899],[117.6681,28.4013],[117.6827,28.4033],[117.6828,28.4005],[117.6869,28.3982],[117.6916,28.3982],[117.7024,28.4042],[117.7047,28.4007],[117.7126,28.4032],[117.7152,28.4001],[117.7155,28.3932],[117.7104,28.391],[117.71,28.3886],[117.7136,28.3843],[117.717,28.3828],[117.72,28.3779],[117.7246,28.3805],[117.7272,28.3782],[117.7306,28.3818],[117.7304,28.3856],[117.7319,28.393],[117.7364,28.3939],[117.7389,28.3977],[117.7379,28.4106],[117.7365,28.4207],[117.7385,28.4219],[117.7452,28.4306],[117.7466,28.4361],[117.7508,28.4404],[117.7472,28.4429],[117.7506,28.4466],[117.7532,28.4457],[117.7598,28.4474],[117.7651,28.4503],[117.7669,28.4536],[117.7721,28.4507],[117.7761,28.4527],[117.7737,28.4592],[117.774,28.4668],[117.7703,28.4694],[117.7691,28.4762],[117.7635,28.4708],[117.7569,28.4664],[117.7435,28.4629],[117.7256,28.4732],[117.7287,28.4778],[117.7267,28.4804],[117.7318,28.4862],[117.7239,28.4934],[117.7252,28.4974],[117.7282,28.4992],[117.7235,28.5034],[117.7172,28.5035],[117.7083,28.5002],[117.7049,28.4979],[117.6964,28.4991],[117.7005,28.5133],[117.7087,28.5209],[117.7151,28.5256],[117.724,28.5288],[117.7259,28.533],[117.725,28.5383],[117.7285,28.5433],[117.7139,28.547],[117.7189,28.5531],[117.7157,28.5588],[117.7128,28.5589],[117.706,28.5627],[117.7047,28.5679],[117.713,28.5728],[117.7155,28.5762],[117.7171,28.5822],[117.7167,28.5869],[117.7076,28.5963],[117.7081,28.5991],[117.7051,28.6023],[117.7062,28.6065],[117.7025,28.6085],[117.7057,28.6119],[117.7148,28.6141],[117.7227,28.6228],[117.7262,28.6338],[117.7298,28.6313],[117.7381,28.635],[117.7415,28.6448],[117.7405,28.6491],[117.7362,28.6512],[117.7231,28.6481],[117.7207,28.6527],[117.7153,28.6572],[117.7184,28.6613],[117.7175,28.6666],[117.7208,28.6686],[117.7197,28.673],[117.7207,28.6791],[117.7151,28.6849],[117.7113,28.6846],[117.7095,28.6877],[117.7146,28.6899],[117.7177,28.6887],[117.7209,28.6912],[117.7191,28.7052],[117.7231,28.7096],[117.7215,28.7131],[117.7235,28.7186],[117.7219,28.722]]]},"properties":{"region_code":"CN-36-3611-361125","parent_region_code":"CN-36-3611","name":"横峰县","level":"county","has_children":false,"full_path":"中国 / 江西省 / 上饶市 / 横峰县","source_admin_code":"361125","osm_relation_id":3046780}},
{"type":"Feature","geometry":{"type":"Polygon","coordinates":[[[117.5338,28.3276],[117.533,28.3321],[117.5378,28.3363],[117.5451,28.338],[117.5471,28.3363],[117.5591,28.3359],[117.5602,28.3389],[117.5656,28.3401],[117.5661,28.3473],[117.5692,28.3488],[117.568,28.3539],[117.5629,28.3526],[117.5627,28.3609],[117.5706,28.366],[117.571,28.3699],[117.5673,28.3762],[117.5693,28.3805],[117.563,28.3826],[117.5627,28.3886],[117.5558,28.39],[117.5578,28.3986],[117.5559,28.4026],[117.5595,28.4082],[117.5574,28.4313],[117.551,28.4303],[117.5436,28.4245],[117.534,28.422],[117.5307,28.4154],[117.5232,28.4157],[117.5196,28.4205],[117.5147,28.4219],[117.5124,28.4174],[117.5057,28.4164],[117.5073,28.4219],[117.5066,28.4265],[117.5024,28.432],[117.49,28.4397],[117.4872,28.4433],[117.4945,28.4542],[117.5011,28.4572],[117.5056,28.4623],[117.5098,28.4626],[117.5174,28.4593],[117.5195,28.4637],[117.5257,28.4687],[117.5267,28.4725],[117.5208,28.477],[117.5136,28.4751],[117.5047,28.486],[117.5062,28.4872],[117.5085,28.4971],[117.5081,28.5007],[117.5124,28.5068],[117.517,28.5091],[117.5127,28.5123],[117.5126,28.5147],[117.5061,28.5193],[117.5076,28.5292],[117.5094,28.5326],[117.5139,28.5302],[117.5194,28.5309],[117.5217,28.5337],[117.5263,28.5352],[117.5329,28.5323],[117.5336,28.5355],[117.5392,28.5341],[117.5427,28.536],[117.5423,28.5395],[117.5468,28.5448],[117.5459,28.5501],[117.5481,28.553],[117.5602,28.5589],[117.5649,28.5587],[117.573,28.5634],[117.5763,28.5608],[117.5816,28.5633],[117.5942,28.5727],[117.594,28.5781],[117.5961,28.5837],[117.5913,28.5938],[117.5952,28.5979],[117.5952,28.601],[117.5986,28.6033],[117.6044,28.6032],[117.6111,28.6165],[117.6176,28.6177],[117.6219,28.6207],[117.6181,28.6306],[117.6174,28.6369],[117.6195,28.6435],[117.6234,28.6469],[117.6159,28.6497],[117.6161,28.653],[117.6114,28.6606],[117.6068,28.6596],[117.6026,28.6637],[117.598,28.6659],[117.5949,28.6701],[117.5875,28.6709],[117.5864,28.673],[117.5788,28.6775],[117.568,28.6837],[117.5687,28.6883],[117.5614,28.6899],[117.5518,28.68],[117.5475,28.6812],[117.5418,28.6769],[117.5352,28.6741],[117.5322,28.6682],[117.5288,28.6681],[117.5238,28.6616],[117.5156,28.6592],[117.5109,28.6566],[117.5044,28.6574],[117.5001,28.66],[117.4913,28.6565],[117.4857,28.6513],[117.4822,28.6505],[117.4783,28.6466],[117.4682,28.6418],[117.4628,28.6438],[117.4549,28.6437],[117.4523,28.6417],[117.4426,28.6418],[117.4381,28.6483],[117.4377,28.651],[117.4331,28.6544],[117.4306,28.6635],[117.4315,28.6681],[117.4237,28.6708],[117.4197,28.6739],[117.4172,28.6793],[117.4111,28.6849],[117.4101,28.6915],[117.408,28.696],[117.4112,28.7001],[117.4087,28.7033],[117.4067,28.7091],[117.4042,28.7104],[117.3993,28.7168],[117.3914,28.7168],[117.3836,28.7226],[117.3835,28.7253],[117.3899,28.7341],[117.3937,28.7376],[117.395,28.7435],[117.3926,28.7522],[117.3887,28.7548],[117.3975,28.7651],[117.3982,28.7672],[117.395,28.7752],[117.3988,28.7826],[117.3968,28.7866],[117.3876,28.7877],[117.3796,28.7841],[117.3803,28.7779],[117.3754,28.775],[117.3726,28.7768],[117.3682,28.7759],[117.3686,28.7719],[117.3647,28.7687],[117.3624,28.7704],[117.3567,28.7696],[117.3507,28.7728],[117.3455,28.7785],[117.342,28.7767],[117.3326,28.7774],[117.3316,28.773],[117.3248,28.7764],[117.3209,28.7721],[117.3191,28.766],[117.3139,28.7659],[117.3107,28.7633],[117.2997,28.7613],[117.2969,28.7564],[117.2942,28.7482],[117.2827,28.7424],[117.2798,28.7427],[117.2737,28.7393],[117.2694,28.7339],[117.2687,28.7261],[117.2636,28.7266],[117.2597,28.7303],[117.2516,28.7228],[117.2452,28.7228],[117.2488,28.7212],[117.2511,28.716],[117.2548,28.7137],[117.2568,28.7055],[117.2509,28.7039],[117.25,28.7011],[117.2413,28.6996],[117.2389,28.7045],[117.2358,28.7063],[117.2261,28.7052],[117.2223,28.699],[117.2255,28.6973],[117.2237,28.6936],[117.2309,28.6879],[117.2288,28.6858],[117.2277,28.6803],[117.2241,28.6824],[117.2168,28.6779],[117.2184,28.6721],[117.2266,28.6709],[117.2346,28.6717],[117.2388,28.6679],[117.2392,28.6635],[117.2456,28.6583],[117.2413,28.6569],[117.2347,28.6589],[117.2322,28.6568],[117.2312,28.6516],[117.2317,28.6411],[117.2349,28.6275],[117.2425,28.6221],[117.2431,28.6179],[117.2548,28.6167],[117.2593,28.6133],[117.2609,28.6082],[117.2721,28.6068],[117.2711,28.6037],[117.2736,28.5932],[117.2765,28.5866],[117.2743,28.5847],[117.2772,28.5776],[117.2838,28.5764],[117.2884,28.5706],[117.2882,28.5653],[117.2912,28.5603],[117.2965,28.5569],[117.295,28.5542],[117.2997,28.5516],[117.2988,28.5484],[117.3078,28.5437],[117.3023,28.5362],[117.3036,28.5328],[117.3117,28.5259],[117.3103,28.5146],[117.3109,28.5092],[117.3152,28.5016],[117.3152,28.4957],[117.3122,28.4949],[117.3133,28.4903],[117.3163,28.4884],[117.3175,28.4835],[117.3198,28.4826],[117.3229,28.4725],[117.3206,28.4696],[117.3229,28.4649],[117.3151,28.463],[117.3179,28.4584],[117.3274,28.4534],[117.3273,28.4459],[117.3251,28.4347],[117.3192,28.4278],[117.3198,28.4232],[117.3139,28.4233],[117.3119,28.4138],[117.3099,28.4135],[117.3083,28.4058],[117.3045,28.4003],[117.3078,28.3976],[117.3147,28.3965],[117.3155,28.3943],[117.3216,28.3927],[117.3245,28.3868],[117.3208,28.3833],[117.3203,28.3728],[117.3224,28.3692],[117.3169,28.3592],[117.3213,28.3516],[117.3206,28.3492],[117.307,28.3469],[117.2999,28.3443],[117.2919,28.3382],[117.2835,28.3347],[117.2814,28.332],[117.2811,28.3146],[117.2779,28.3113],[117.2731,28.3106],[117.2645,28.3115],[117.2554,28.3135],[117.2522,28.3116],[117.2574,28.2922],[117.2581,28.2847],[117.2615,28.2795],[117.2653,28.2811],[117.2729,28.2799],[117.2775,28.2809],[117.28,28.2743],[117.2841,28.272],[117.2876,28.2676],[117.2858,28.2643],[117.2864,28.2598],[117.2904,28.2547],[117.295,28.2528],[117.2971,28.2495],[117.297,28.2426],[117.2928,28.2417],[117.291,28.2374],[117.2921,28.2326],[117.2897,28.2307],[117.2838,28.2311],[117.2798,28.2279],[117.277,28.2221],[117.2794,28.218],[117.2773,28.2155],[117.2776,28.2114],[117.2761,28.1981],[117.2725,28.1973],[117.2724,28.1903],[117.2759,28.1839],[117.2814,28.178],[117.2784,28.1739],[117.2757,28.175],[117.2707,28.1708],[117.2676,28.1701],[117.266,28.1655],[117.2687,28.1633],[117.2667,28.157],[117.2675,28.1547],[117.2783,28.1542],[117.285,28.1479],[117.2899,28.1515],[117.2974,28.1533],[117.3025,28.1491],[117.3069,28.1511],[117.3145,28.1508],[117.3208,28.1464],[117.3192,28.1414],[117.3219,28.1387],[117.3226,28.1312],[117.326,28.1315],[117.3312,28.1349],[117.3356,28.1308],[117.3449,28.1349],[117.3476,28.1388],[117.354,28.1393],[117.3564,28.1345],[117.363,28.1323],[117.3637,28.1289],[117.3694,28.1273],[117.3657,28.1209],[117.3727,28.1222],[117.3748,28.1245],[117.3797,28.1213],[117.3888,28.119],[117.3931,28.12],[117.3957,28.1176],[117.4022,28.1155],[117.4069,28.1218],[117.416,28.1191],[117.4228,28.1185],[117.4243,28.1131],[117.4369,28.1074],[117.4372,28.105],[117.4446,28.1031],[117.4456,28.0995],[117.4428,28.0966],[117.4421,28.09],[117.449,28.0773],[117.455,28.0699],[117.4572,28.0653],[117.4598,28.0674],[117.4662,28.0689],[117.4682,28.0787],[117.4749,28.0886],[117.4811,28.0914],[117.4752,28.0957],[117.4834,28.1045],[117.4832,28.1064],[117.4755,28.1077],[117.4765,28.1119],[117.4698,28.1102],[117.4653,28.116],[117.4702,28.1168],[117.4655,28.1315],[117.4652,28.136],[117.4688,28.1419],[117.4735,28.1448],[117.4791,28.1393],[117.4834,28.1375],[117.4851,28.1411],[117.4821,28.1479],[117.4796,28.15],[117.4804,28.1539],[117.4743,28.1524],[117.4768,28.1609],[117.4872,28.1631],[117.4932,28.1627],[117.4868,28.1697],[117.4893,28.1767],[117.4996,28.1763],[117.5049,28.1803],[117.5005,28.1852],[117.4936,28.1875],[117.4909,28.1932],[117.4914,28.1979],[117.4895,28.2001],[117.4939,28.2051],[117.5007,28.2058],[117.5055,28.2087],[117.5082,28.2123],[117.5083,28.2222],[117.5107,28.2256],[117.4988,28.2297],[117.4949,28.2325],[117.4902,28.239],[117.483,28.2385],[117.4787,28.2401],[117.4745,28.2384],[117.4712,28.2438],[117.4673,28.2476],[117.4623,28.2484],[117.4644,28.2526],[117.4621,28.2548],[117.468,28.2588],[117.4703,28.2641],[117.4684,28.2673],[117.4759,28.272],[117.4814,28.2736],[117.4793,28.2801],[117.4729,28.2824],[117.4704,28.2793],[117.4612,28.2802],[117.4584,28.2823],[117.4515,28.2817],[117.4494,28.2848],[117.4495,28.2932],[117.4471,28.2954],[117.4488,28.302],[117.4482,28.3068],[117.4528,28.3131],[117.4578,28.3107],[117.4598,28.3153],[117.4643,28.3172],[117.4654,28.327],[117.4683,28.3319],[117.4736,28.3353],[117.4782,28.3342],[117.4822,28.3299],[117.4871,28.3305],[117.4956,28.3291],[117.4967,28.3253],[117.4951,28.321],[117.4992,28.3137],[117.4992,28.311],[117.5039,28.3098],[117.5049,28.3063],[117.5169,28.3041],[117.5215,28.3072],[117.524,28.3056],[117.5298,28.3116],[117.5323,28.3184],[117.531,28.3255],[117.5338,28.3276]]]},"properties":{"region_code":"CN-36-3611-361126","parent_region_code":"CN-36-3611","name":"弋阳县","level":"county","has_children":false,"full_path":"中国 / 江西省 / 上饶市 / 弋阳县","source_admin_code":"361126","osm_relation_id":3046787}},
{"type":"Feature","geometry":{"type":"Polygon","coordinates":[[[116.3954,29.0557],[116.3955,29.0528],[116.3997,29.0477],[116.4045,29.0352],[116.4026,29.0284],[116.3973,29.0184],[116.4021,29.0089],[116.4031,29.0032],[116.4018,28.9996],[116.4032,28.9924],[116.4019,28.9823],[116.4022,28.9759],[116.4011,28.9636],[116.3991,28.9566],[116.3932,28.9534],[116.3756,28.9464],[116.3704,28.9418],[116.3631,28.932],[116.3536,28.9132],[116.3535,28.9051],[116.3476,28.9035],[116.3434,28.8988],[116.3393,28.8908],[116.3411,28.884],[116.3371,28.8806],[116.3318,28.8819],[116.3259,28.8808],[116.317,28.8737],[116.3081,28.8713],[116.3025,28.8726],[116.2977,28.8686],[116.2925,28.8732],[116.2807,28.8695],[116.2727,28.8725],[116.2559,28.8712],[116.2515,28.8697],[116.2442,28.8765],[116.2315,28.8661],[116.2267,28.8634],[116.2242,28.8599],[116.225,28.8554],[116.2404,28.8439],[116.2435,28.8343],[116.2415,28.8312],[116.2386,28.8225],[116.2363,28.8202],[116.2377,28.8078],[116.2456,28.8063],[116.2542,28.8026],[116.2682,28.8043],[116.2717,28.8079],[116.2751,28.7892],[116.2913,28.7915],[116.3019,28.7855],[116.3035,28.7777],[116.3132,28.7722],[116.3158,28.7677],[116.3186,28.759],[116.319,28.7444],[116.3302,28.7524],[116.3433,28.7561],[116.3475,28.7582],[116.3531,28.757],[116.3531,28.7492],[116.3587,28.7436],[116.3655,28.748],[116.368,28.7525],[116.3717,28.755],[116.3762,28.7542],[116.3738,28.748],[116.3753,28.7443],[116.3802,28.7397],[116.3829,28.734],[116.3957,28.7292],[116.411,28.7255],[116.4258,28.7202],[116.4407,28.7047],[116.4418,28.6986],[116.4378,28.6881],[116.439,28.6814],[116.4354,28.6755],[116.4363,28.6707],[116.4428,28.6681],[116.4442,28.6575],[116.4426,28.653],[116.4376,28.6453],[116.438,28.6392],[116.4444,28.6321],[116.4525,28.6276],[116.4548,28.6241],[116.4599,28.6118],[116.4598,28.6084],[116.4643,28.6011],[116.4647,28.593],[116.4675,28.5892],[116.4737,28.5752],[116.4757,28.5729],[116.4851,28.5697],[116.4981,28.561],[116.4984,28.5554],[116.5004,28.5515],[116.5047,28.5547],[116.5123,28.5488],[116.5145,28.5453],[116.5136,28.5422],[116.5174,28.5395],[116.5222,28.5333],[116.5397,28.5174],[116.5482,28.5147],[116.5505,28.5096],[116.5508,28.5037],[116.5585,28.503],[116.5575,28.5],[116.5529,28.4973],[116.556,28.4937],[116.5607,28.4968],[116.5715,28.4935],[116.5752,28.4903],[116.5796,28.4774],[116.5825,28.4754],[116.585,28.4699],[116.5832,28.4624],[116.585,28.4561],[116.5847,28.452],[116.5814,28.4486],[116.5817,28.4452],[116.585,28.4432],[116.5803,28.4387],[116.5802,28.4324],[116.5871,28.4302],[116.594,28.423],[116.5857,28.4234],[116.5821,28.4212],[116.5814,28.4169],[116.5708,28.4131],[116.5706,28.4078],[116.5669,28.4079],[116.5633,28.4036],[116.5644,28.3946],[116.567,28.3892],[116.5721,28.3885],[116.5739,28.3846],[116.578,28.3835],[116.5795,28.3862],[116.5855,28.387],[116.5941,28.3938],[116.6012,28.3961],[116.6059,28.3923],[116.6104,28.3907],[116.6193,28.3924],[116.6339,28.3856],[116.6377,28.382],[116.6395,28.3775],[116.6462,28.3768],[116.6492,28.3806],[116.6591,28.3798],[116.6631,28.3845],[116.6743,28.3872],[116.6773,28.3835],[116.6826,28.384],[116.6887,28.3822],[116.6946,28.3869],[116.6999,28.3853],[116.7073,28.3859],[116.7128,28.3895],[116.7163,28.3969],[116.7166,28.4017],[116.7203,28.4071],[116.7233,28.4077],[116.7305,28.4127],[116.7338,28.4126],[116.7391,28.4055],[116.7423,28.4034],[116.7422,28.4001],[116.7465,28.3922],[116.7506,28.3797],[116.7539,28.3738],[116.7617,28.3715],[116.7713,28.3728],[116.7738,28.371],[116.7762,28.3651],[116.776,28.3616],[116.7815,28.3496],[116.7864,28.3511],[116.789,28.3541],[116.7908,28.3616],[116.7978,28.3646],[116.8031,28.3635],[116.8066,28.37],[116.8061,28.3722],[116.8121,28.3751],[116.821,28.3829],[116.826,28.3843],[116.8317,28.3808],[116.839,28.3794],[116.8512,28.3798],[116.8579,28.3833],[116.869,28.3846],[116.8715,28.3966],[116.8713,28.4017],[116.8733,28.4046],[116.8701,28.4108],[116.8645,28.4166],[116.8575,28.4257],[116.8652,28.4355],[116.8679,28.4369],[116.876,28.4362],[116.882,28.441],[116.8851,28.4479],[116.8908,28.4541],[116.8916,28.4605],[116.8959,28.4662],[116.888,28.4732],[116.8838,28.4816],[116.882,28.4884],[116.8785,28.4965],[116.8736,28.5014],[116.8743,28.5088],[116.8812,28.5105],[116.8869,28.5087],[116.9015,28.5113],[116.902,28.519],[116.8975,28.5252],[116.8991,28.527],[116.8971,28.5344],[116.8931,28.5353],[116.8879,28.5415],[116.8885,28.5485],[116.8868,28.5524],[116.8813,28.5581],[116.8793,28.5647],[116.8753,28.571],[116.8744,28.5782],[116.876,28.5824],[116.8753,28.5937],[116.8779,28.5972],[116.875,28.5993],[116.8746,28.6071],[116.869,28.6127],[116.8631,28.6103],[116.8609,28.6129],[116.8564,28.6253],[116.8495,28.631],[116.8428,28.6321],[116.8402,28.6346],[116.8355,28.6323],[116.8255,28.6362],[116.8195,28.6461],[116.8237,28.6507],[116.8226,28.6538],[116.8301,28.6542],[116.8313,28.6574],[116.8358,28.6604],[116.833,28.6639],[116.8381,28.6655],[116.8391,28.6709],[116.8378,28.6763],[116.8391,28.683],[116.8372,28.6853],[116.8393,28.69],[116.8355,28.6931],[116.8301,28.7021],[116.8267,28.7053],[116.8251,28.7119],[116.8301,28.719],[116.8358,28.7202],[116.8399,28.7133],[116.8478,28.7156],[116.8483,28.7231],[116.8413,28.7331],[116.8421,28.7378],[116.8453,28.742],[116.8418,28.7482],[116.8382,28.7491],[116.8302,28.7482],[116.8217,28.754],[116.8193,28.7524],[116.8108,28.7531],[116.8047,28.7525],[116.8031,28.7596],[116.8054,28.7609],[116.8032,28.7674],[116.8007,28.7693],[116.7923,28.7698],[116.7922,28.7743],[116.7887,28.7745],[116.7804,28.7811],[116.7753,28.7829],[116.7682,28.7872],[116.7649,28.7879],[116.7591,28.786],[116.755,28.7866],[116.7502,28.7917],[116.7532,28.8048],[116.7504,28.8136],[116.7443,28.8191],[116.7289,28.8194],[116.7296,28.8251],[116.7245,28.8331],[116.7211,28.8363],[116.7254,28.8383],[116.7301,28.8473],[116.7257,28.8526],[116.7228,28.8536],[116.7251,28.8612],[116.7246,28.8655],[116.7193,28.8682],[116.7153,28.8686],[116.7117,28.875],[116.7016,28.878],[116.6976,28.8774],[116.6902,28.8737],[116.688,28.8786],[116.6805,28.881],[116.6768,28.8791],[116.6714,28.8855],[116.662,28.8921],[116.6577,28.8966],[116.6505,28.9002],[116.6424,28.8973],[116.6369,28.901],[116.6355,28.906],[116.6277,28.9111],[116.6224,28.9107],[116.6147,28.9041],[116.6118,28.9041],[116.6034,28.9074],[116.5916,28.9136],[116.5865,28.9145],[116.5827,28.9131],[116.5757,28.9064],[116.566,28.902],[116.5599,28.9029],[116.5399,28.91],[116.5108,28.92],[116.4953,28.9145],[116.4867,28.9165],[116.4818,28.9211],[116.4813,28.9239],[116.4886,28.9321],[116.4959,28.9438],[116.4932,28.9524],[116.4858,28.9654],[116.4835,28.9776],[116.484,28.9916],[116.4836,28.9982],[116.4862,29.0027],[116.4825,29.0057],[116.4667,28.9958],[116.4601,28.9979],[116.4579,29.0053],[116.4513,29.0098],[116.4467,29.0168],[116.4364,29.0268],[116.4236,29.0417],[116.4164,29.0455],[116.4052,29.0538],[116.3954,29.0557]],[[116.7164,28.7758],[116.7123,28.7786],[116.7102,28.7836],[116.6961,28.7857],[116.694,28.7884],[116.699,28.7943],[116.7019,28.8022],[116.7108,28.8032],[116.7158,28.8049],[116.722,28.8014],[116.723,28.7959],[116.7263,28.7972],[116.7346,28.7886],[116.7442,28.784],[116.7421,28.7776],[116.7431,28.7734],[116.7391,28.7673],[116.7349,28.7657],[116.7286,28.7656],[116.717,28.7728],[116.7164,28.7758]]]},"properties":{"region_code":"CN-36-3611-361127","parent_region_code":"CN-36-3611","name":"余干县","level":"county","has_children":false,"full_path":"中国 / 江西省 / 上饶市 / 余干县","source_admin_code":"361127","osm_relation_id":3046788}},
{"type":"Feature","geometry":{"type":"MultiPolygon","coordinates":[[[[116.7164,28.7758],[116.717,28.7728],[116.7286,28.7656],[116.7349,28.7657],[116.7391,28.7673],[116.7431,28.7734],[116.7421,28.7776],[116.7442,28.784],[116.7346,28.7886],[116.7263,28.7972],[116.723,28.7959],[116.722,28.8014],[116.7158,28.8049],[116.7108,28.8032],[116.7019,28.8022],[116.699,28.7943],[116.694,28.7884],[116.6961,28.7857],[116.7102,28.7836],[116.7123,28.7786],[116.7164,28.7758]]],[[[116.7753,28.7829],[116.7798,28.784],[116.7843,28.7914],[116.7806,28.8009],[116.7822,28.8041],[116.7756,28.8066],[116.7753,28.8112],[116.7831,28.8093],[116.7863,28.8051],[116.7843,28.8008],[116.7883,28.7991],[116.7931,28.8065],[116.8016,28.8087],[116.8055,28.807],[116.8101,28.8093],[116.8106,28.8128],[116.8186,28.8107],[116.8248,28.8121],[116.8298,28.8108],[116.8343,28.8121],[116.8327,28.8178],[116.8365,28.8191],[116.8382,28.8285],[116.8281,28.8334],[116.8248,28.8399],[116.8202,28.8419],[116.8222,28.845],[116.8193,28.8481],[116.8195,28.8579],[116.8244,28.863],[116.8204,28.868],[116.8167,28.8759],[116.809,28.8831],[116.8079,28.8909],[116.8098,28.8982],[116.8126,28.9013],[116.8177,28.8989],[116.825,28.8938],[116.832,28.8915],[116.8475,28.8931],[116.855,28.8905],[116.8589,28.8848],[116.8596,28.8796],[116.8573,28.8712],[116.8579,28.8652],[116.8613,28.8605],[116.8677,28.858],[116.8845,28.8565],[116.8906,28.8585],[116.8953,28.8695],[116.8978,28.8722],[116.9052,28.8759],[116.9128,28.8765],[116.924,28.8716],[116.9329,28.8645],[116.938,28.8583],[116.9453,28.8512],[116.9537,28.8503],[116.9652,28.8563],[116.9675,28.8627],[116.9645,28.8659],[116.9553,28.8714],[116.9517,28.8773],[116.9526,28.8813],[116.9589,28.8897],[116.9599,28.897],[116.9588,28.9017],[116.9522,28.9079],[116.9536,28.9111],[116.9658,28.9206],[116.9687,28.9325],[116.9765,28.9447],[116.978,28.9505],[116.9859,28.9508],[116.9883,28.9474],[116.9985,28.9547],[117.0016,28.9651],[117.0009,28.9702],[116.9983,28.9721],[117.0021,28.9787],[117.0061,28.9826],[117.0018,28.986],[117.0011,28.9912],[117.0022,28.9967],[117.0054,28.9993],[117.0046,29.0028],[117.0082,29.007],[117.023,29.0036],[117.0285,29.0071],[117.0322,29.006],[117.0349,29.0088],[117.033,29.0121],[117.0314,29.0212],[117.0273,29.0218],[117.0212,29.0249],[117.0214,29.0281],[117.0259,29.0332],[117.0259,29.0357],[117.0311,29.0396],[117.0355,29.0392],[117.039,29.0414],[117.0399,29.0452],[117.0453,29.0474],[117.0499,29.0466],[117.0488,29.0526],[117.0515,29.0558],[117.0482,29.0576],[117.0448,29.0634],[117.0447,29.0665],[117.0399,29.0787],[117.0394,29.0856],[117.043,29.0968],[117.0469,29.0986],[117.0531,29.0968],[117.0561,29.0987],[117.0571,29.1056],[117.0617,29.1073],[117.0675,29.1038],[117.0724,29.1072],[117.0645,29.1154],[117.0685,29.1179],[117.0747,29.125],[117.0672,29.1281],[117.064,29.1313],[117.0636,29.1394],[117.0549,29.1466],[117.0518,29.1525],[117.0441,29.1514],[117.0423,29.1548],[117.0358,29.1581],[117.0331,29.1639],[117.0232,29.1659],[117.0266,29.1781],[117.0228,29.1856],[117.021,29.1862],[117.0159,29.1931],[117.0126,29.1956],[117.0128,29.2006],[117.006,29.2071],[117.0128,29.2176],[117.0087,29.2221],[117.0069,29.228],[117.0136,29.2261],[117.0164,29.2314],[117.0134,29.2324],[117.0103,29.2397],[117.0049,29.2447],[117.0069,29.25],[117.0114,29.2521],[117.0123,29.2553],[117.0048,29.2613],[117.0063,29.267],[117.0055,29.271],[117.0022,29.2745],[117.003,29.2837],[117.0133,29.2802],[117.018,29.2763],[117.023,29.2749],[117.0217,29.2807],[117.0237,29.2861],[117.0311,29.2858],[117.0318,29.29],[117.0375,29.2968],[117.0373,29.303],[117.042,29.3041],[117.0507,29.3021],[117.054,29.3037],[117.0556,29.3085],[117.0681,29.3139],[117.0705,29.3188],[117.0678,29.3265],[117.0645,29.3309],[117.0702,29.3346],[117.0675,29.3366],[117.0665,29.3427],[117.054,29.347],[117.05,29.3517],[117.0448,29.3552],[117.0394,29.3566],[117.0342,29.3541],[117.0326,29.3617],[117.0373,29.3665],[117.0362,29.3717],[117.0411,29.3701],[117.0458,29.3703],[117.0483,29.3806],[117.0473,29.3863],[117.0527,29.3835],[117.0542,29.3866],[117.0622,29.3897],[117.0633,29.3962],[117.0604,29.4011],[117.0618,29.4075],[117.0568,29.4142],[117.0674,29.4171],[117.0648,29.4256],[117.0646,29.4305],[117.0669,29.4328],[117.0657,29.4371],[117.0494,29.4387],[117.0404,29.4441],[117.0389,29.4501],[117.0415,29.4554],[117.0395,29.4662],[117.038,29.4684],[117.0384,29.4762],[117.043,29.4844],[117.0466,29.4886],[117.0449,29.4921],[117.0411,29.4934],[117.0402,29.497],[117.0445,29.4995],[117.0465,29.5033],[117.0417,29.5111],[117.0445,29.5262],[117.0477,29.531],[117.0476,29.5394],[117.0441,29.5433],[117.0366,29.5478],[117.0404,29.5544],[117.0387,29.5592],[117.039,29.5636],[117.0359,29.5669],[117.0366,29.5705],[117.0346,29.5748],[117.0358,29.5801],[117.0335,29.5866],[117.0296,29.5887],[117.0282,29.594],[117.0239,29.5976],[117.0246,29.6007],[117.0224,29.6049],[117.0249,29.6099],[117.0303,29.6164],[117.0307,29.6211],[117.0375,29.6231],[117.0432,29.6227],[117.0437,29.6323],[117.047,29.6381],[117.0504,29.6399],[117.0532,29.647],[117.0551,29.6484],[117.0629,29.646],[117.0678,29.643],[117.0702,29.6453],[117.0752,29.6619],[117.0808,29.664],[117.083,29.6677],[117.0789,29.67],[117.0759,29.6755],[117.0757,29.6819],[117.0799,29.6838],[117.0801,29.6877],[117.0883,29.6941],[117.0842,29.6995],[117.0734,29.7018],[117.0694,29.7009],[117.0595,29.692],[117.0551,29.6928],[117.0521,29.6907],[117.046,29.6921],[117.0399,29.6882],[117.039,29.6855],[117.0328,29.6824],[117.0305,29.6828],[117.0248,29.6882],[117.0136,29.6896],[117.0032,29.6864],[116.9989,29.6872],[116.9909,29.6859],[116.9784,29.6743],[116.979,29.6709],[116.9755,29.6668],[116.9715,29.6647],[116.9721,29.6539],[116.9694,29.6504],[116.9632,29.653],[116.9613,29.6556],[116.9535,29.6527],[116.9495,29.6523],[116.9433,29.6541],[116.9344,29.6474],[116.9272,29.65],[116.9241,29.6483],[116.9191,29.6413],[116.9126,29.6397],[116.9115,29.6376],[116.9054,29.6344],[116.9042,29.6288],[116.9002,29.6254],[116.8939,29.6267],[116.8906,29.6245],[116.8827,29.623],[116.8755,29.6197],[116.8709,29.6155],[116.8678,29.61],[116.8659,29.6035],[116.8566,29.6008],[116.8536,29.5989],[116.8457,29.5878],[116.8429,29.579],[116.8303,29.5716],[116.8113,29.5679],[116.8078,29.5696],[116.8006,29.5684],[116.7944,29.5651],[116.7874,29.5729],[116.7811,29.5709],[116.7759,29.5725],[116.7744,29.5782],[116.7774,29.5867],[116.7822,29.5948],[116.7777,29.595],[116.7698,29.5981],[116.7637,29.595],[116.7656,29.6026],[116.7603,29.603],[116.7554,29.6053],[116.7536,29.6018],[116.7573,29.5992],[116.7562,29.5938],[116.752,29.5971],[116.7461,29.5977],[116.7334,29.5944],[116.7331,29.5848],[116.7295,29.581],[116.7248,29.579],[116.7243,29.5712],[116.7205,29.5661],[116.7146,29.5722],[116.7159,29.5789],[116.7147,29.5848],[116.7114,29.5933],[116.7081,29.5954],[116.6942,29.6003],[116.6859,29.6047],[116.6803,29.5995],[116.6758,29.601],[116.6733,29.606],[116.6683,29.601],[116.6536,29.6109],[116.6459,29.6092],[116.6426,29.6062],[116.6444,29.5996],[116.6411,29.5938],[116.6428,29.5875],[116.6406,29.5848],[116.6304,29.5841],[116.6231,29.5861],[116.6231,29.5834],[116.6146,29.5855],[116.6122,29.5792],[116.6125,29.5751],[116.6086,29.5741],[116.5991,29.5765],[116.5953,29.5802],[116.5912,29.5791],[116.5881,29.5815],[116.5841,29.5792],[116.5754,29.5853],[116.5769,29.5903],[116.5738,29.596],[116.5637,29.6011],[116.5558,29.5971],[116.5507,29.6006],[116.5471,29.5998],[116.5428,29.6049],[116.5394,29.6011],[116.5342,29.6033],[116.5305,29.6079],[116.5238,29.6056],[116.5176,29.6139],[116.5127,29.6141],[116.5084,29.606],[116.5009,29.5869],[116.4971,29.5833],[116.4899,29.5796],[116.4869,29.5745],[116.4895,29.5717],[116.4931,29.5718],[116.4973,29.5685],[116.4997,29.5636],[116.5046,29.5576],[116.5126,29.5641],[116.5166,29.5607],[116.5173,29.5569],[116.5247,29.5595],[116.5303,29.5588],[116.5269,29.5516],[116.526,29.5468],[116.5299,29.5423],[116.5284,29.5301],[116.5309,29.5272],[116.5238,29.5218],[116.5238,29.5169],[116.5276,29.5158],[116.5278,29.5071],[116.5181,29.5022],[116.5153,29.4949],[116.5199,29.4895],[116.5239,29.4874],[116.5307,29.4864],[116.5341,29.4815],[116.5335,29.4765],[116.5351,29.4735],[116.5329,29.4637],[116.5298,29.4618],[116.5201,29.4637],[116.5196,29.4553],[116.5158,29.4503],[116.5179,29.4437],[116.5121,29.4357],[116.5164,29.4256],[116.525,29.4263],[116.5281,29.4248],[116.5357,29.4177],[116.5332,29.4146],[116.5335,29.4088],[116.5352,29.4052],[116.54,29.4036],[116.5378,29.3997],[116.5437,29.3951],[116.5439,29.3916],[116.552,29.3857],[116.5552,29.3794],[116.5526,29.3759],[116.544,29.3705],[116.55,29.3677],[116.5497,29.3582],[116.5455,29.3584],[116.5369,29.3622],[116.5382,29.354],[116.5343,29.3505],[116.5329,29.346],[116.5373,29.3438],[116.5398,29.3367],[116.5477,29.3256],[116.5526,29.3225],[116.5568,29.3162],[116.56,29.315],[116.5578,29.3049],[116.5605,29.2985],[116.567,29.2934],[116.5708,29.2891],[116.5784,29.2847],[116.5786,29.2808],[116.5842,29.2782],[116.5854,29.2625],[116.5903,29.2612],[116.5888,29.2552],[116.5912,29.2536],[116.5989,29.2541],[116.6062,29.2517],[116.6233,29.2431],[116.6417,29.2323],[116.6226,29.2181],[116.5817,29.1873],[116.5428,29.1588],[116.468,29.1585],[116.4465,29.1268],[116.4526,29.1182],[116.4435,29.1086],[116.438,29.1108],[116.4324,29.1067],[116.4326,29.0976],[116.4231,29.0867],[116.4184,29.0796],[116.41,29.0714],[116.4064,29.0649],[116.4015,29.0589],[116.3954,29.0557],[116.4052,29.0538],[116.4164,29.0455],[116.4236,29.0417],[116.4364,29.0268],[116.4467,29.0168],[116.4513,29.0098],[116.4579,29.0053],[116.4601,28.9979],[116.4667,28.9958],[116.4825,29.0057],[116.4862,29.0027],[116.4836,28.9982],[116.484,28.9916],[116.4835,28.9776],[116.4858,28.9654],[116.4932,28.9524],[116.4959,28.9438],[116.4886,28.9321],[116.4813,28.9239],[116.4818,28.9211],[116.4867,28.9165],[116.4953,28.9145],[116.5108,28.92],[116.5399,28.91],[116.5599,28.9029],[116.566,28.902],[116.5757,28.9064],[116.5827,28.9131],[116.5865,28.9145],[116.5916,28.9136],[116.6034,28.9074],[116.6118,28.9041],[116.6147,28.9041],[116.6224,28.9107],[116.6277,28.9111],[116.6355,28.906],[116.6369,28.901],[116.6424,28.8973],[116.6505,28.9002],[116.6577,28.8966],[116.662,28.8921],[116.6714,28.8855],[116.6768,28.8791],[116.6805,28.881],[116.688,28.8786],[116.6902,28.8737],[116.6976,28.8774],[116.7016,28.878],[116.7117,28.875],[116.7153,28.8686],[116.7193,28.8682],[116.7246,28.8655],[116.7251,28.8612],[116.7228,28.8536],[116.7257,28.8526],[116.7301,28.8473],[116.7254,28.8383],[116.7211,28.8363],[116.7245,28.8331],[116.7296,28.8251],[116.7289,28.8194],[116.7443,28.8191],[116.7504,28.8136],[116.7532,28.8048],[116.7502,28.7917],[116.755,28.7866],[116.7591,28.786],[116.7649,28.7879],[116.7682,28.7872],[116.7753,28.7829]]]]},"properties":{"region_code":"CN-36-3611-361128","parent_region_code":"CN-36-3611","name":"鄱阳县","level":"county","has_children":false,"full_path":"中国 / 江西省 / 上饶市 / 鄱阳县","source_admin_code":"361128","osm_relation_id":3046781}},
{"type":"Feature","geometry":{"type":"Polygon","coordinates":[[[117.2452,28.7228],[117.2398,28.7242],[117.2356,28.7309],[117.2374,28.7332],[117.2369,28.7407],[117.2343,28.7467],[117.227,28.7461],[117.2225,28.7483],[117.2214,28.7526],[117.2113,28.7501],[117.2044,28.7474],[117.2026,28.744],[117.1968,28.7451],[117.1948,28.7495],[117.1878,28.7503],[117.1865,28.744],[117.181,28.7451],[117.1769,28.7514],[117.1718,28.7554],[117.1688,28.7548],[117.168,28.7608],[117.1661,28.7632],[117.1704,28.7738],[117.1682,28.777],[117.163,28.7778],[117.1577,28.7831],[117.1505,28.7853],[117.1474,28.7802],[117.1438,28.7833],[117.1378,28.7858],[117.1366,28.7909],[117.1384,28.7982],[117.1312,28.7995],[117.1267,28.7961],[117.1203,28.7845],[117.1169,28.7837],[117.1189,28.7977],[117.1104,28.8041],[117.106,28.8012],[117.1027,28.8032],[117.0935,28.803],[117.0921,28.8069],[117.0887,28.8069],[117.0829,28.8039],[117.08,28.8082],[117.0802,28.8143],[117.0706,28.816],[117.0649,28.8184],[117.0562,28.8121],[117.0505,28.8139],[117.0435,28.8062],[117.0408,28.8081],[117.0396,28.8134],[117.0358,28.8215],[117.0298,28.8294],[117.0293,28.8344],[117.022,28.8416],[117.0194,28.8397],[117.015,28.8426],[117.014,28.8465],[117.0081,28.8457],[117.0044,28.8534],[117.0048,28.8581],[116.9995,28.8617],[116.9936,28.8621],[116.9886,28.8715],[116.9814,28.8667],[116.9786,28.8721],[116.9744,28.8706],[116.9736,28.8749],[116.9762,28.8826],[116.9714,28.8854],[116.9706,28.8797],[116.9679,28.8789],[116.9615,28.8838],[116.9636,28.8879],[116.9589,28.8897],[116.9526,28.8813],[116.9517,28.8773],[116.9553,28.8714],[116.9645,28.8659],[116.9675,28.8627],[116.9652,28.8563],[116.9537,28.8503],[116.9453,28.8512],[116.938,28.8583],[116.9329,28.8645],[116.924,28.8716],[116.9128,28.8765],[116.9052,28.8759],[116.8978,28.8722],[116.8953,28.8695],[116.8906,28.8585],[116.8845,28.8565],[116.8677,28.858],[116.8613,28.8605],[116.8579,28.8652],[116.8573,28.8712],[116.8596,28.8796],[116.8589,28.8848],[116.855,28.8905],[116.8475,28.8931],[116.832,28.8915],[116.825,28.8938],[116.8177,28.8989],[116.8126,28.9013],[116.8098,28.8982],[116.8079,28.8909],[116.809,28.8831],[116.8167,28.8759],[116.8204,28.868],[116.8244,28.863],[116.8195,28.8579],[116.8193,28.8481],[116.8222,28.845],[116.8202,28.8419],[116.8248,28.8399],[116.8281,28.8334],[116.8382,28.8285],[116.8365,28.8191],[116.8327,28.8178],[116.8343,28.8121],[116.8298,28.8108],[116.8248,28.8121],[116.8186,28.8107],[116.8106,28.8128],[116.8101,28.8093],[116.8055,28.807],[116.8016,28.8087],[116.7931,28.8065],[116.7883,28.7991],[116.7843,28.8008],[116.7863,28.8051],[116.7831,28.8093],[116.7753,28.8112],[116.7756,28.8066],[116.7822,28.8041],[116.7806,28.8009],[116.7843,28.7914],[116.7798,28.784],[116.7753,28.7829],[116.7804,28.7811],[116.7887,28.7745],[116.7922,28.7743],[116.7923,28.7698],[116.8007,28.7693],[116.8032,28.7674],[116.8054,28.7609],[116.8031,28.7596],[116.8047,28.7525],[116.8108,28.7531],[116.8193,28.7524],[116.8217,28.754],[116.8302,28.7482],[116.8382,28.7491],[116.8418,28.7482],[116.8453,28.742],[116.8421,28.7378],[116.8413,28.7331],[116.8483,28.7231],[116.8478,28.7156],[116.8399,28.7133],[116.8358,28.7202],[116.8301,28.719],[116.8251,28.7119],[116.8267,28.7053],[116.8301,28.7021],[116.8355,28.6931],[116.8393,28.69],[116.8372,28.6853],[116.8391,28.683],[116.8378,28.6763],[116.8391,28.6709],[116.8381,28.6655],[116.833,28.6639],[116.8358,28.6604],[116.8313,28.6574],[116.8301,28.6542],[116.8226,28.6538],[116.8237,28.6507],[116.8195,28.6461],[116.8255,28.6362],[116.8355,28.6323],[116.8402,28.6346],[116.8428,28.6321],[116.8495,28.631],[116.8564,28.6253],[116.8609,28.6129],[116.8631,28.6103],[116.869,28.6127],[116.8746,28.6071],[116.875,28.5993],[116.8779,28.5972],[116.8753,28.5937],[116.876,28.5824],[116.8744,28.5782],[116.8753,28.571],[116.8793,28.5647],[116.8813,28.5581],[116.8868,28.5524],[116.8885,28.5485],[116.8879,28.5415],[116.8931,28.5353],[116.8971,28.5344],[116.8991,28.527],[116.8975,28.5252],[116.902,28.519],[116.9079,28.5171],[116.9142,28.5221],[116.9201,28.5303],[116.9282,28.5253],[116.9399,28.5305],[116.9468,28.5303],[116.9453,28.5274],[116.9529,28.5236],[116.9561,28.5288],[116.9589,28.5276],[116.9592,28.5371],[116.9666,28.538],[116.9705,28.5424],[116.9746,28.535],[116.9781,28.5315],[116.9811,28.5216],[116.9862,28.517],[116.9841,28.514],[116.9899,28.5126],[116.99,28.5097],[116.9945,28.5083],[116.9969,28.5011],[117.0031,28.5048],[117.0079,28.5124],[117.0061,28.517],[117.0137,28.5234],[117.0287,28.5296],[117.0288,28.5354],[117.0335,28.5417],[117.0369,28.5436],[117.0393,28.5485],[117.0437,28.5489],[117.0492,28.5538],[117.0496,28.5587],[117.0472,28.5658],[117.0483,28.5724],[117.0452,28.5739],[117.0423,28.5825],[117.0441,28.5844],[117.0419,28.5895],[117.0376,28.5919],[117.0358,28.598],[117.0454,28.5999],[117.0456,28.6046],[117.0524,28.6106],[117.056,28.6084],[117.0665,28.6085],[117.0697,28.6053],[117.0755,28.6029],[117.0751,28.5964],[117.0809,28.5956],[117.0839,28.5923],[117.0965,28.587],[117.1022,28.587],[117.1086,28.5821],[117.111,28.586],[117.116,28.5844],[117.1176,28.5808],[117.1212,28.5823],[117.1247,28.5811],[117.1257,28.5742],[117.1346,28.5686],[117.1418,28.5661],[117.1529,28.5678],[117.1568,28.5713],[117.1598,28.5715],[117.1692,28.5794],[117.1744,28.5799],[117.1842,28.5888],[117.1907,28.5912],[117.1959,28.5917],[117.2021,28.5968],[117.2073,28.5963],[117.2127,28.5989],[117.2171,28.6058],[117.2171,28.6103],[117.2208,28.6159],[117.2205,28.623],[117.2175,28.6279],[117.2272,28.6306],[117.2295,28.6252],[117.2349,28.6275],[117.2317,28.6411],[117.2312,28.6516],[117.2322,28.6568],[117.2347,28.6589],[117.2413,28.6569],[117.2456,28.6583],[117.2392,28.6635],[117.2388,28.6679],[117.2346,28.6717],[117.2266,28.6709],[117.2184,28.6721],[117.2168,28.6779],[117.2241,28.6824],[117.2277,28.6803],[117.2288,28.6858],[117.2309,28.6879],[117.2237,28.6936],[117.2255,28.6973],[117.2223,28.699],[117.2261,28.7052],[117.2358,28.7063],[117.2389,28.7045],[117.2413,28.6996],[117.25,28.7011],[117.2509,28.7039],[117.2568,28.7055],[117.2548,28.7137],[117.2511,28.716],[117.2488,28.7212],[117.2452,28.7228]]]},"properties":{"region_code":"CN-36-3611-361129","parent_region_code":"CN-36-3611","name":"万年县","level":"county","has_children":false,"full_path":"中国 / 江西省 / 上饶市 / 万年县","source_admin_code":"361129","osm_relation_id":3046783}},
{"type":"Feature","geometry":{"type":"MultiPolygon","coordinates":[[[[118.1845,29.2959],[118.184,29.3001],[118.1793,29.3016],[118.1794,29.2969],[118.1845,29.2959]]],[[[118.0705,29.2862],[118.0664,29.289],[118.0695,29.2933],[118.0784,29.2926],[118.0972,29.2864],[118.101,29.2875],[118.1031,29.2923],[118.1089,29.2957],[118.1155,29.2907],[118.131,29.2866],[118.1387,29.2901],[118.1435,29.2898],[118.155,29.2848],[118.1649,29.2845],[118.164,29.2952],[118.1679,29.2959],[118.167,29.301],[118.1737,29.3009],[118.1697,29.3106],[118.1619,29.3132],[118.1623,29.3174],[118.1682,29.3198],[118.171,29.3233],[118.1743,29.3241],[118.178,29.329],[118.1775,29.3337],[118.1885,29.3433],[118.1938,29.3438],[118.2039,29.3502],[118.202,29.3547],[118.2043,29.3583],[118.2033,29.3628],[118.1982,29.3704],[118.2016,29.3735],[118.2032,29.3799],[118.1943,29.3856],[118.1856,29.3933],[118.1883,29.4],[118.1861,29.408],[118.1831,29.409],[118.1775,29.4066],[118.1714,29.4068],[118.1647,29.41],[118.1557,29.4115],[118.1531,29.4137],[118.1436,29.4154],[118.1424,29.4179],[118.1343,29.4191],[118.133,29.4255],[118.1275,29.4277],[118.1295,29.4388],[118.1346,29.4418],[118.1337,29.4467],[118.1296,29.4534],[118.1322,29.4597],[118.1301,29.4663],[118.1241,29.468],[118.1213,29.4774],[118.1239,29.4819],[118.1308,29.4876],[118.1345,29.4887],[118.1383,29.493],[118.1367,29.4978],[118.1329,29.5006],[118.1323,29.5059],[118.1248,29.5152],[118.1173,29.5156],[118.1106,29.5225],[118.1028,29.5268],[118.1004,29.5319],[118.1019,29.5364],[118.0964,29.5398],[118.0849,29.537],[118.0766,29.5407],[118.0518,29.5415],[118.048,29.5463],[118.0424,29.5485],[118.0434,29.5529],[118.0424,29.5573],[118.0386,29.5595],[118.0323,29.5696],[118.0281,29.5695],[118.0221,29.5758],[118.0135,29.5771],[118.0013,29.5766],[117.9968,29.5779],[117.9915,29.5748],[117.9882,29.5679],[117.9838,29.5627],[117.9793,29.5603],[117.9728,29.5664],[117.9713,29.57],[117.9647,29.5701],[117.9626,29.5718],[117.9541,29.5715],[117.9497,29.568],[117.9441,29.5593],[117.9411,29.5588],[117.9393,29.5518],[117.9295,29.561],[117.9127,29.5581],[117.907,29.5537],[117.8997,29.5537],[117.8919,29.5466],[117.8836,29.5473],[117.8765,29.5461],[117.8718,29.5494],[117.8705,29.5525],[117.8653,29.557],[117.8591,29.558],[117.8528,29.5611],[117.8476,29.5581],[117.8377,29.5574],[117.8321,29.5648],[117.8255,29.5659],[117.8233,29.5719],[117.8145,29.5738],[117.814,29.576],[117.8068,29.5787],[117.8005,29.5739],[117.7899,29.5706],[117.7839,29.5652],[117.7822,29.5616],[117.769,29.5629],[117.7608,29.5589],[117.754,29.5599],[117.7504,29.5624],[117.7438,29.5603],[117.7413,29.5568],[117.7357,29.5534],[117.725,29.5495],[117.7215,29.5545],[117.7104,29.563],[117.7052,29.562],[117.7034,29.5564],[117.7038,29.5497],[117.6981,29.548],[117.6901,29.5417],[117.6832,29.534],[117.6786,29.5308],[117.6646,29.5297],[117.6591,29.5304],[117.6573,29.5343],[117.6507,29.538],[117.6486,29.533],[117.6421,29.5261],[117.6419,29.518],[117.637,29.516],[117.6352,29.5106],[117.6277,29.5075],[117.6238,29.5077],[117.6215,29.5132],[117.6149,29.5146],[117.6109,29.5065],[117.6065,29.5097],[117.6041,29.509],[117.6007,29.5033],[117.6089,29.5048],[117.6088,29.5004],[117.6059,29.492],[117.6023,29.4865],[117.6016,29.4812],[117.5908,29.4726],[117.5895,29.4766],[117.5839,29.476],[117.5828,29.4863],[117.5796,29.4902],[117.571,29.4874],[117.5685,29.4783],[117.5684,29.473],[117.5661,29.4709],[117.5734,29.4647],[117.5679,29.4595],[117.5623,29.4609],[117.5463,29.4555],[117.5404,29.4509],[117.5397,29.4471],[117.5323,29.4355],[117.5297,29.433],[117.5244,29.4329],[117.5173,29.4408],[117.5155,29.4441],[117.5066,29.4405],[117.5056,29.4356],[117.5027,29.4325],[117.5029,29.4275],[117.5063,29.4258],[117.5056,29.4204],[117.508,29.4165],[117.5123,29.4136],[117.5095,29.4089],[117.5018,29.4043],[117.4944,29.4033],[117.4799,29.4023],[117.481,29.3945],[117.484,29.3924],[117.4836,29.3851],[117.487,29.3801],[117.4864,29.3684],[117.4811,29.3636],[117.4818,29.3585],[117.4876,29.3495],[117.4826,29.3469],[117.4775,29.341],[117.4714,29.34],[117.4663,29.337],[117.4623,29.3381],[117.4567,29.3357],[117.4493,29.3305],[117.4457,29.3299],[117.4417,29.3257],[117.4347,29.3241],[117.4285,29.3159],[117.4262,29.3115],[117.4262,29.3071],[117.4342,29.2993],[117.4347,29.2947],[117.4388,29.2893],[117.4436,29.2864],[117.4483,29.28],[117.4434,29.2773],[117.4404,29.2688],[117.4376,29.2667],[117.4314,29.266],[117.4311,29.2636],[117.4246,29.2607],[117.4226,29.2554],[117.4196,29.2553],[117.4137,29.2514],[117.4063,29.2507],[117.4011,29.2523],[117.3971,29.2467],[117.3865,29.2385],[117.3839,29.2348],[117.3789,29.2317],[117.3807,29.2247],[117.3837,29.2203],[117.378,29.2109],[117.3787,29.209],[117.3724,29.2027],[117.3699,29.1954],[117.3723,29.194],[117.3715,29.1885],[117.3754,29.185],[117.378,29.1853],[117.3809,29.179],[117.3795,29.1751],[117.3815,29.1729],[117.3828,29.1652],[117.379,29.1615],[117.3816,29.1579],[117.3901,29.1543],[117.3917,29.1514],[117.398,29.1486],[117.4031,29.1487],[117.409,29.147],[117.4092,29.1443],[117.4153,29.1386],[117.4247,29.1395],[117.4298,29.1366],[117.4328,29.138],[117.432,29.1421],[117.4342,29.1444],[117.4367,29.1523],[117.436,29.1577],[117.44,29.159],[117.4521,29.158],[117.4584,29.1524],[117.4668,29.1603],[117.474,29.1644],[117.4788,29.164],[117.4872,29.1654],[117.4907,29.1635],[117.4923,29.1589],[117.4905,29.1545],[117.4901,29.1428],[117.4828,29.1351],[117.4821,29.1294],[117.4775,29.1255],[117.4822,29.1192],[117.4883,29.115],[117.4869,29.1124],[117.4876,29.1072],[117.4918,29.1074],[117.4958,29.1037],[117.4997,29.1029],[117.5063,29.1072],[117.51,29.0999],[117.5047,29.0951],[117.5024,29.0948],[117.5018,29.0874],[117.494,29.0844],[117.497,29.0824],[117.4962,29.0769],[117.4998,29.0712],[117.5066,29.0705],[117.5065,29.0659],[117.5113,29.0609],[117.5181,29.0576],[117.5224,29.059],[117.5241,29.0625],[117.5287,29.0616],[117.529,29.0567],[117.534,29.0536],[117.5347,29.049],[117.5374,29.0454],[117.5435,29.0412],[117.5509,29.0425],[117.5509,29.0395],[117.5563,29.0335],[117.5668,29.0297],[117.5715,29.0262],[117.5696,29.0197],[117.5768,29.0223],[117.582,29.0313],[117.5852,29.0352],[117.5834,29.0392],[117.5833,29.0459],[117.5867,29.0546],[117.5899,29.0605],[117.5927,29.0591],[117.5986,29.0526],[117.604,29.0498],[117.6075,29.0458],[117.6118,29.0374],[117.618,29.0358],[117.6228,29.0288],[117.6307,29.0309],[117.6318,29.0327],[117.6245,29.0397],[117.6307,29.0516],[117.6314,29.0606],[117.6351,29.0624],[117.6442,29.0593],[117.6489,29.0661],[117.6522,29.0689],[117.6611,29.0704],[117.6711,29.0772],[117.6815,29.0759],[117.6824,29.0708],[117.6871,29.0654],[117.6952,29.073],[117.6924,29.0753],[117.6925,29.0791],[117.6899,29.0814],[117.6909,29.0867],[117.6933,29.0889],[117.6971,29.0873],[117.7045,29.0783],[117.7111,29.0739],[117.7207,29.0719],[117.7275,29.0725],[117.7485,29.0715],[117.75,29.0682],[117.7585,29.0706],[117.7613,29.0756],[117.7652,29.0781],[117.7671,29.0823],[117.7709,29.0819],[117.7734,29.0875],[117.777,29.0885],[117.7793,29.0856],[117.784,29.0839],[117.7849,29.0885],[117.7885,29.0908],[117.7996,29.1055],[117.7965,29.1084],[117.7957,29.1138],[117.7903,29.1171],[117.7959,29.1211],[117.8004,29.1221],[117.8037,29.1205],[117.8073,29.1219],[117.8142,29.1213],[117.8192,29.1158],[117.8182,29.1121],[117.8245,29.1132],[117.8269,29.1159],[117.8242,29.1238],[117.8172,29.1298],[117.8173,29.1329],[117.8237,29.1368],[117.8276,29.1414],[117.8332,29.1454],[117.8443,29.1381],[117.8478,29.1392],[117.8519,29.1369],[117.8577,29.1371],[117.859,29.14],[117.8666,29.1409],[117.8717,29.1386],[117.8746,29.1436],[117.8789,29.1466],[117.8808,29.1513],[117.8881,29.1548],[117.8903,29.1507],[117.8958,29.1477],[117.9046,29.1492],[117.9076,29.1513],[117.9148,29.1515],[117.9142,29.1563],[117.918,29.1607],[117.9161,29.1632],[117.9167,29.1688],[117.9196,29.1769],[117.9324,29.1795],[117.9363,29.1847],[117.9431,29.1856],[117.9473,29.1834],[117.9596,29.1887],[117.962,29.1921],[117.9683,29.1921],[117.9733,29.1955],[117.9706,29.1987],[117.9704,29.2056],[117.9824,29.2074],[117.9837,29.217],[117.9858,29.221],[117.9869,29.2279],[117.985,29.2306],[117.9953,29.242],[117.9947,29.2467],[118.004,29.2512],[118.0101,29.2499],[118.0166,29.2466],[118.0209,29.2472],[118.0247,29.2532],[118.0271,29.2637],[118.029,29.267],[118.0276,29.2733],[118.031,29.2788],[118.0436,29.2811],[118.0429,29.2902],[118.0468,29.2921],[118.0497,29.2872],[118.0531,29.2854],[118.0525,29.2797],[118.0554,29.2705],[118.059,29.2773],[118.0669,29.2819],[118.0705,29.2862]]]]},"properties":{"region_code":"CN-36-3611-361130","parent_region_code":"CN-36-3611","name":"婺源县","level":"county","has_children":false,"full_path":"中国 / 江西省 / 上饶市 / 婺源县","source_admin_code":"361130","osm_relation_id":3046784}},
{"type":"Feature","geometry":{"type":"Polygon","coordinates":[[[117.8721,28.8158],[117.8771,28.8153],[117.8792,28.8174],[117.8778,28.8258],[117.8816,28.8305],[117.887,28.8334],[117.8967,28.8298],[117.9049,28.8288],[117.9088,28.8334],[117.9117,28.8337],[117.9173,28.838],[117.9171,28.8428],[117.9198,28.8571],[117.9196,28.8625],[117.9167,28.8692],[117.912,28.8728],[117.9139,28.8764],[117.909,28.8775],[117.9069,28.872],[117.8989,28.8781],[117.9026,28.8814],[117.8967,28.8888],[117.8928,28.8891],[117.8903,28.896],[117.8829,28.8951],[117.8783,28.8996],[117.8772,28.91],[117.8739,28.9093],[117.8705,28.9018],[117.8659,28.9013],[117.8667,28.9069],[117.8575,28.9095],[117.8581,28.9119],[117.8643,28.9124],[117.8643,28.9167],[117.8784,28.9219],[117.8811,28.9179],[117.8873,28.9197],[117.885,28.9252],[117.8949,28.9306],[117.9003,28.9251],[117.9008,28.9165],[117.906,28.9158],[117.9119,28.9191],[117.9162,28.9189],[117.92,28.9162],[117.9291,28.9061],[117.9374,28.9058],[117.9343,28.8997],[117.9413,28.896],[117.9444,28.9012],[117.9471,28.8966],[117.952,28.898],[117.9527,28.9028],[117.9468,28.9082],[117.9514,28.9112],[117.9541,28.9148],[117.962,28.9133],[117.9662,28.9192],[117.9735,28.9201],[117.9776,28.9225],[117.9726,28.9272],[117.9747,28.9319],[117.9805,28.9323],[117.9869,28.9306],[117.9949,28.9317],[118.0023,28.9311],[118.0089,28.9227],[118.015,28.9214],[118.0186,28.9193],[118.0231,28.92],[118.0328,28.9188],[118.0438,28.9205],[118.0491,28.9192],[118.0526,28.9214],[118.0533,28.9289],[118.0571,28.9331],[118.0513,28.9365],[118.0461,28.9367],[118.0426,28.9421],[118.0422,28.9462],[118.0479,28.9529],[118.053,28.9561],[118.0602,28.9635],[118.0603,28.9674],[118.0566,28.9707],[118.061,28.9723],[118.063,28.9759],[118.0598,28.9821],[118.0651,28.9841],[118.0715,28.9785],[118.0808,28.9836],[118.085,28.9847],[118.0876,28.9891],[118.0946,28.9931],[118.1013,29.0012],[118.102,29.006],[118.1053,29.0066],[118.1018,29.0148],[118.0983,29.0132],[118.0955,29.0049],[118.0877,29.0059],[118.0828,29.0157],[118.084,29.0184],[118.0836,29.0297],[118.0789,29.034],[118.0743,29.0403],[118.0677,29.039],[118.067,29.0456],[118.0604,29.0525],[118.06,29.0567],[118.065,29.0592],[118.0676,29.0634],[118.072,29.0654],[118.0681,29.0702],[118.0704,29.0776],[118.0639,29.0839],[118.0554,29.084],[118.0506,29.0888],[118.046,29.0911],[118.0399,29.0908],[118.0327,29.096],[118.0308,29.1015],[118.0388,29.1137],[118.0485,29.1156],[118.0481,29.1189],[118.0407,29.1249],[118.0332,29.1283],[118.0384,29.1419],[118.037,29.149],[118.0394,29.1517],[118.0378,29.1558],[118.0385,29.1603],[118.0357,29.1639],[118.0271,29.1676],[118.0224,29.171],[118.0233,29.1739],[118.0286,29.1786],[118.0276,29.1854],[118.0318,29.1938],[118.0315,29.1972],[118.036,29.203],[118.034,29.205],[118.0369,29.2089],[118.0361,29.213],[118.0427,29.2195],[118.0511,29.2173],[118.0583,29.2191],[118.0622,29.2184],[118.0787,29.222],[118.0748,29.228],[118.0742,29.233],[118.0792,29.2402],[118.0752,29.2464],[118.0703,29.2485],[118.0712,29.2536],[118.0757,29.2668],[118.0719,29.2727],[118.0727,29.2803],[118.0705,29.2862],[118.0669,29.2819],[118.059,29.2773],[118.0554,29.2705],[118.0525,29.2797],[118.0531,29.2854],[118.0497,29.2872],[118.0468,29.2921],[118.0429,29.2902],[118.0436,29.2811],[118.031,29.2788],[118.0276,29.2733],[118.029,29.267],[118.0271,29.2637],[118.0247,29.2532],[118.0209,29.2472],[118.0166,29.2466],[118.0101,29.2499],[118.004,29.2512],[117.9947,29.2467],[117.9953,29.242],[117.985,29.2306],[117.9869,29.2279],[117.9858,29.221],[117.9837,29.217],[117.9824,29.2074],[117.9704,29.2056],[117.9706,29.1987],[117.9733,29.1955],[117.9683,29.1921],[117.962,29.1921],[117.9596,29.1887],[117.9473,29.1834],[117.9431,29.1856],[117.9363,29.1847],[117.9324,29.1795],[117.9196,29.1769],[117.9167,29.1688],[117.9161,29.1632],[117.918,29.1607],[117.9142,29.1563],[117.9148,29.1515],[117.9076,29.1513],[117.9046,29.1492],[117.8958,29.1477],[117.8903,29.1507],[117.8881,29.1548],[117.8808,29.1513],[117.8789,29.1466],[117.8746,29.1436],[117.8717,29.1386],[117.8666,29.1409],[117.859,29.14],[117.8577,29.1371],[117.8519,29.1369],[117.8478,29.1392],[117.8443,29.1381],[117.8332,29.1454],[117.8276,29.1414],[117.8237,29.1368],[117.8173,29.1329],[117.8172,29.1298],[117.8242,29.1238],[117.8269,29.1159],[117.8245,29.1132],[117.8182,29.1121],[117.8192,29.1158],[117.8142,29.1213],[117.8073,29.1219],[117.8037,29.1205],[117.8004,29.1221],[117.7959,29.1211],[117.7903,29.1171],[117.7957,29.1138],[117.7965,29.1084],[117.7996,29.1055],[117.7885,29.0908],[117.7849,29.0885],[117.784,29.0839],[117.7793,29.0856],[117.777,29.0885],[117.7734,29.0875],[117.7709,29.0819],[117.7671,29.0823],[117.7652,29.0781],[117.7613,29.0756],[117.7585,29.0706],[117.75,29.0682],[117.7485,29.0715],[117.7275,29.0725],[117.7207,29.0719],[117.7111,29.0739],[117.7045,29.0783],[117.6971,29.0873],[117.6933,29.0889],[117.6909,29.0867],[117.6899,29.0814],[117.6925,29.0791],[117.6924,29.0753],[117.6952,29.073],[117.6871,29.0654],[117.6824,29.0708],[117.6815,29.0759],[117.6711,29.0772],[117.6611,29.0704],[117.6522,29.0689],[117.6489,29.0661],[117.6442,29.0593],[117.6351,29.0624],[117.6314,29.0606],[117.6307,29.0516],[117.6245,29.0397],[117.6318,29.0327],[117.6307,29.0309],[117.6228,29.0288],[117.618,29.0358],[117.6118,29.0374],[117.6075,29.0458],[117.604,29.0498],[117.5986,29.0526],[117.5927,29.0591],[117.5899,29.0605],[117.5867,29.0546],[117.5833,29.0459],[117.5834,29.0392],[117.5852,29.0352],[117.582,29.0313],[117.5768,29.0223],[117.5696,29.0197],[117.5715,29.0262],[117.5668,29.0297],[117.5563,29.0335],[117.5509,29.0395],[117.5509,29.0425],[117.5435,29.0412],[117.5374,29.0454],[117.5347,29.049],[117.534,29.0536],[117.529,29.0567],[117.5287,29.0616],[117.5241,29.0625],[117.5224,29.059],[117.5181,29.0576],[117.515,29.0531],[117.5062,29.0523],[117.5022,29.0543],[117.498,29.0517],[117.4981,29.047],[117.4894,29.0446],[117.4924,29.0389],[117.4882,29.0367],[117.485,29.0328],[117.4908,29.0285],[117.489,29.0254],[117.4822,29.0249],[117.4825,29.022],[117.4756,29.018],[117.4814,29.0084],[117.4885,29.004],[117.4857,28.9956],[117.4922,28.9921],[117.4897,28.988],[117.4859,28.9901],[117.4826,28.9844],[117.4775,28.9854],[117.4733,28.9813],[117.4723,28.9781],[117.4656,28.9794],[117.457,28.976],[117.4551,28.9716],[117.4668,28.9621],[117.477,28.9671],[117.4825,28.9656],[117.4874,28.9598],[117.4872,28.9534],[117.4888,28.9463],[117.4947,28.9454],[117.4947,28.939],[117.5026,28.9363],[117.5075,28.933],[117.507,28.9268],[117.5107,28.922],[117.5188,28.9244],[117.5222,28.9213],[117.5217,28.9178],[117.5301,28.9153],[117.5237,28.9122],[117.525,28.908],[117.5297,28.9085],[117.5336,28.9035],[117.5399,28.9007],[117.5525,28.902],[117.5558,28.8984],[117.5501,28.8949],[117.5468,28.89],[117.549,28.8879],[117.549,28.8798],[117.5469,28.8776],[117.546,28.8665],[117.542,28.8646],[117.5398,28.8578],[117.5348,28.8531],[117.5346,28.846],[117.5401,28.8421],[117.5377,28.8304],[117.5403,28.8201],[117.5451,28.8195],[117.546,28.8138],[117.5428,28.8097],[117.5386,28.8115],[117.5324,28.8161],[117.5273,28.8134],[117.5204,28.8125],[117.516,28.8141],[117.511,28.8184],[117.5099,28.8253],[117.5048,28.8285],[117.498,28.8302],[117.4919,28.8285],[117.4901,28.8314],[117.4859,28.8328],[117.479,28.8315],[117.473,28.8325],[117.4684,28.8305],[117.4639,28.8364],[117.4568,28.8376],[117.4536,28.8435],[117.4479,28.8431],[117.4405,28.8377],[117.4354,28.8366],[117.4228,28.8363],[117.4191,28.834],[117.4199,28.8309],[117.4168,28.8283],[117.4081,28.8263],[117.4001,28.8282],[117.3989,28.8306],[117.3892,28.8324],[117.3868,28.8269],[117.3885,28.823],[117.3863,28.8176],[117.3912,28.8126],[117.3998,28.808],[117.3943,28.8031],[117.3964,28.8004],[117.3949,28.7941],[117.3985,28.7891],[117.3968,28.7866],[117.3988,28.7826],[117.395,28.7752],[117.3982,28.7672],[117.3975,28.7651],[117.3887,28.7548],[117.3926,28.7522],[117.395,28.7435],[117.3937,28.7376],[117.3899,28.7341],[117.3835,28.7253],[117.3836,28.7226],[117.3914,28.7168],[117.3993,28.7168],[117.4042,28.7104],[117.4067,28.7091],[117.4087,28.7033],[117.4112,28.7001],[117.408,28.696],[117.4101,28.6915],[117.4111,28.6849],[117.4172,28.6793],[117.4197,28.6739],[117.4237,28.6708],[117.4315,28.6681],[117.4306,28.6635],[117.4331,28.6544],[117.4377,28.651],[117.4381,28.6483],[117.4426,28.6418],[117.4523,28.6417],[117.4549,28.6437],[117.4628,28.6438],[117.4682,28.6418],[117.4783,28.6466],[117.4822,28.6505],[117.4857,28.6513],[117.4913,28.6565],[117.5001,28.66],[117.5044,28.6574],[117.5109,28.6566],[117.5156,28.6592],[117.5238,28.6616],[117.5288,28.6681],[117.5322,28.6682],[117.5352,28.6741],[117.5418,28.6769],[117.5475,28.6812],[117.5518,28.68],[117.5614,28.6899],[117.5687,28.6883],[117.568,28.6837],[117.5788,28.6775],[117.5817,28.6798],[117.5803,28.6844],[117.5816,28.69],[117.5846,28.6948],[117.5906,28.7008],[117.5911,28.7124],[117.5983,28.719],[117.5928,28.7229],[117.5927,28.7276],[117.6003,28.7331],[117.5998,28.7358],[117.6057,28.7374],[117.6065,28.7404],[117.6134,28.7416],[117.6204,28.7442],[117.6242,28.7331],[117.6348,28.7288],[117.6391,28.7244],[117.6471,28.7243],[117.6471,28.7163],[117.6512,28.7197],[117.6558,28.7161],[117.6569,28.7115],[117.6625,28.7111],[117.667,28.709],[117.6733,28.6986],[117.6671,28.6972],[117.6679,28.6949],[117.6736,28.6929],[117.6801,28.696],[117.6928,28.6917],[117.7,28.6971],[117.7013,28.7002],[117.7005,28.7081],[117.7025,28.712],[117.7063,28.7128],[117.7088,28.7097],[117.7138,28.7071],[117.7143,28.7128],[117.7181,28.7143],[117.714,28.7189],[117.7219,28.722],[117.7197,28.7294],[117.7237,28.7325],[117.7286,28.7404],[117.7245,28.7489],[117.7189,28.7553],[117.723,28.7556],[117.7222,28.7619],[117.7176,28.7648],[117.7192,28.7687],[117.7157,28.7732],[117.7151,28.777],[117.7183,28.7823],[117.7149,28.7858],[117.7141,28.7926],[117.712,28.7984],[117.7179,28.7981],[117.729,28.806],[117.7219,28.8146],[117.7154,28.8156],[117.7169,28.8194],[117.7252,28.8191],[117.7292,28.8213],[117.7309,28.8246],[117.7307,28.8307],[117.744,28.8402],[117.7486,28.8383],[117.7542,28.8382],[117.7584,28.8355],[117.7638,28.8366],[117.7681,28.8339],[117.7668,28.8301],[117.771,28.8248],[117.7794,28.8285],[117.7832,28.8272],[117.792,28.8294],[117.7957,28.8348],[117.8035,28.8314],[117.8077,28.8274],[117.8168,28.829],[117.8201,28.8268],[117.8262,28.8281],[117.8309,28.8231],[117.8362,28.8257],[117.8416,28.8218],[117.8418,28.8175],[117.8517,28.8166],[117.8579,28.8128],[117.8671,28.8123],[117.8721,28.8158]]]},"properties":{"region_code":"CN-36-3611-361181","parent_region_code":"CN-36-3611","name":"德兴市","level":"county","has_children":false,"full_path":"中国 / 江西省 / 上饶市 / 德兴市","source_admin_code":"361181","osm_relation_id":3046285}}
]}