{"type":"FeatureCollection", "features": [
{"type":"Feature","geometry":{"type":"Polygon","coordinates":[[[116.3502,28.212],[116.3534,28.2255],[116.3553,28.2277],[116.3467,28.2344],[116.3378,28.2368],[116.3364,28.2422],[116.3308,28.2456],[116.3248,28.2448],[116.3197,28.2412],[116.3186,28.2499],[116.3101,28.257],[116.312,28.2477],[116.3058,28.2487],[116.3036,28.2445],[116.3092,28.2321],[116.3057,28.2263],[116.3053,28.2177],[116.302,28.2177],[116.2954,28.2265],[116.2856,28.2261],[116.2779,28.2233],[116.2765,28.2191],[116.2705,28.2135],[116.2638,28.2143],[116.2563,28.2114],[116.2508,28.2116],[116.2432,28.2062],[116.2418,28.201],[116.2377,28.1955],[116.2275,28.1901],[116.2258,28.1864],[116.2304,28.1788],[116.2233,28.1713],[116.223,28.1641],[116.2185,28.1617],[116.2136,28.1653],[116.21,28.1726],[116.2042,28.1788],[116.1974,28.1818],[116.178,28.1824],[116.1714,28.1851],[116.1636,28.1929],[116.1602,28.1995],[116.1605,28.2057],[116.1551,28.2167],[116.1506,28.2213],[116.1416,28.2265],[116.1156,28.2378],[116.1075,28.2446],[116.1073,28.2371],[116.1052,28.2313],[116.0997,28.2247],[116.0999,28.2217],[116.0947,28.2183],[116.0966,28.213],[116.0916,28.2081],[116.0906,28.2027],[116.0872,28.2013],[116.0851,28.1951],[116.0783,28.183],[116.0824,28.1773],[116.0754,28.1706],[116.0723,28.1638],[116.0766,28.1512],[116.0884,28.1488],[116.0914,28.1445],[116.0967,28.1427],[116.1022,28.1378],[116.1058,28.1397],[116.1151,28.1387],[116.1198,28.1353],[116.1325,28.139],[116.1385,28.1361],[116.1434,28.1362],[116.1477,28.1283],[116.14,28.1274],[116.1347,28.1237],[116.1331,28.1158],[116.1354,28.1144],[116.1297,28.1022],[116.1318,28.0953],[116.1391,28.0934],[116.1425,28.0886],[116.1448,28.0793],[116.1428,28.077],[116.1321,28.072],[116.139,28.0656],[116.1389,28.0589],[116.1327,28.054],[116.1327,28.0475],[116.1257,28.0451],[116.1212,28.0473],[116.116,28.0449],[116.1149,28.0391],[116.1231,28.0356],[116.1161,28.0271],[116.1143,28.0195],[116.1155,28.0135],[116.1118,28.0079],[116.1022,28.0029],[116.0986,27.9953],[116.0997,27.9899],[116.0942,27.9842],[116.0888,27.9835],[116.0838,27.9789],[116.0806,27.9719],[116.0814,27.9644],[116.0743,27.9613],[116.0756,27.9562],[116.0728,27.951],[116.064,27.9477],[116.0636,27.9422],[116.0568,27.9392],[116.0626,27.9368],[116.0701,27.938],[116.0798,27.9338],[116.086,27.9297],[116.0851,27.9262],[116.0948,27.917],[116.0947,27.9116],[116.0977,27.8985],[116.0979,27.8928],[116.0943,27.8901],[116.0878,27.8895],[116.0794,27.8942],[116.0803,27.8892],[116.0838,27.8887],[116.0892,27.8818],[116.0969,27.8763],[116.1012,27.8714],[116.0989,27.8645],[116.1047,27.8605],[116.1024,27.8574],[116.106,27.8532],[116.1129,27.8553],[116.1183,27.8629],[116.1214,27.8753],[116.1243,27.8793],[116.1229,27.8857],[116.1328,27.8874],[116.1344,27.8928],[116.1325,27.8961],[116.1393,27.9035],[116.1392,27.9077],[116.1489,27.9057],[116.1602,27.9104],[116.1586,27.9202],[116.1619,27.9222],[116.1679,27.9204],[116.1717,27.9228],[116.174,27.9281],[116.1734,27.9361],[116.1762,27.9383],[116.1821,27.9359],[116.1967,27.9346],[116.2005,27.9389],[116.2073,27.9401],[116.2145,27.9305],[116.2154,27.9199],[116.2143,27.914],[116.2158,27.9055],[116.2301,27.9],[116.24,27.8987],[116.2414,27.8952],[116.2484,27.8903],[116.2503,27.8857],[116.2484,27.8749],[116.2424,27.8721],[116.2411,27.8675],[116.2417,27.8574],[116.2465,27.8534],[116.2603,27.8494],[116.2628,27.8444],[116.2605,27.8364],[116.2612,27.8255],[116.2565,27.8194],[116.262,27.8143],[116.2724,27.8078],[116.2745,27.8049],[116.2723,27.8003],[116.2649,27.7931],[116.2515,27.7931],[116.2492,27.7988],[116.2388,27.797],[116.234,27.7917],[116.2394,27.7869],[116.2429,27.7779],[116.2404,27.7701],[116.2358,27.7659],[116.2353,27.7578],[116.2282,27.7531],[116.229,27.7442],[116.2267,27.7405],[116.2286,27.7359],[116.2257,27.7298],[116.2333,27.727],[116.2324,27.7182],[116.2454,27.7028],[116.2575,27.6994],[116.2581,27.7044],[116.2638,27.7034],[116.2679,27.7083],[116.2695,27.7169],[116.2737,27.7199],[116.2814,27.72],[116.2832,27.7162],[116.2817,27.7119],[116.2864,27.7087],[116.2896,27.7017],[116.2931,27.7039],[116.3016,27.7039],[116.3125,27.6997],[116.3175,27.699],[116.3231,27.7032],[116.3273,27.6999],[116.3284,27.6939],[116.3206,27.6923],[116.3221,27.6856],[116.3301,27.6842],[116.3308,27.6767],[116.3339,27.6772],[116.3435,27.6709],[116.351,27.6776],[116.3586,27.674],[116.3626,27.6767],[116.3753,27.6779],[116.3756,27.673],[116.3882,27.6607],[116.4012,27.6577],[116.4113,27.652],[116.4201,27.6417],[116.4233,27.6323],[116.433,27.6253],[116.4378,27.6154],[116.4456,27.6053],[116.4477,27.5993],[116.451,27.5956],[116.4563,27.6003],[116.4702,27.5937],[116.4693,27.5832],[116.4665,27.5759],[116.4626,27.5732],[116.4548,27.5739],[116.4501,27.5715],[116.4442,27.5754],[116.4405,27.5719],[116.4356,27.5618],[116.4329,27.5599],[116.4344,27.5538],[116.4408,27.5461],[116.4557,27.5411],[116.4606,27.5421],[116.4659,27.54],[116.4654,27.5326],[116.4706,27.5294],[116.4705,27.5253],[116.4662,27.5226],[116.4627,27.5156],[116.4697,27.5085],[116.4754,27.5104],[116.48,27.5075],[116.4849,27.5084],[116.4934,27.5129],[116.5001,27.5264],[116.4973,27.5302],[116.4984,27.5374],[116.4976,27.5473],[116.5009,27.5529],[116.5,27.5576],[116.5052,27.5639],[116.5062,27.5714],[116.517,27.5826],[116.5183,27.5859],[116.5159,27.5905],[116.5071,27.6005],[116.5135,27.6048],[116.5205,27.6184],[116.5286,27.6249],[116.5264,27.6321],[116.5199,27.6379],[116.514,27.6401],[116.5147,27.6451],[116.5084,27.6499],[116.4927,27.6567],[116.4937,27.6641],[116.4899,27.6683],[116.4956,27.6792],[116.4907,27.6855],[116.4976,27.6942],[116.508,27.6976],[116.5139,27.7026],[116.5209,27.7058],[116.5227,27.7108],[116.5229,27.7178],[116.5342,27.7171],[116.5359,27.7151],[116.5455,27.715],[116.5642,27.7229],[116.5775,27.7248],[116.5794,27.7194],[116.5889,27.7159],[116.604,27.7139],[116.612,27.7175],[116.611,27.7082],[116.6144,27.706],[116.6232,27.706],[116.6288,27.7081],[116.6345,27.7141],[116.6374,27.7268],[116.6377,27.7368],[116.6417,27.7412],[116.6388,27.7467],[116.6354,27.7454],[116.6326,27.7508],[116.6433,27.7539],[116.6502,27.7623],[116.6526,27.7696],[116.6515,27.7766],[116.6431,27.7879],[116.6305,27.7929],[116.6238,27.7943],[116.6177,27.8],[116.6142,27.8134],[116.6104,27.8241],[116.6116,27.8296],[116.6171,27.8394],[116.6151,27.847],[116.612,27.8514],[116.5978,27.8608],[116.5847,27.868],[116.5664,27.8756],[116.5608,27.8831],[116.5621,27.8863],[116.5606,27.8943],[116.5544,27.9022],[116.5453,27.9104],[116.5343,27.9165],[116.5218,27.9165],[116.5141,27.9155],[116.5066,27.919],[116.498,27.9183],[116.4916,27.9153],[116.48,27.9139],[116.4717,27.9167],[116.4672,27.9237],[116.4573,27.9296],[116.4625,27.9366],[116.4755,27.9431],[116.4792,27.9478],[116.4946,27.9618],[116.4958,27.9671],[116.4925,27.9694],[116.4916,27.9869],[116.4937,27.9912],[116.4925,27.9986],[116.486,28.0019],[116.4864,28.006],[116.49,28.0095],[116.4965,28.0083],[116.5034,28.0097],[116.5059,28.0175],[116.5036,28.0228],[116.4994,28.0222],[116.4926,28.0256],[116.4908,28.0308],[116.4976,28.0373],[116.5004,28.0455],[116.504,28.0507],[116.5115,28.0533],[116.5202,28.0528],[116.5239,28.0598],[116.5189,28.0581],[116.517,28.0619],[116.5126,28.0623],[116.4994,28.0684],[116.4975,28.0719],[116.5012,28.0817],[116.4876,28.0793],[116.4821,28.0796],[116.482,28.086],[116.4716,28.0942],[116.4722,28.1007],[116.4687,28.103],[116.4671,28.1126],[116.4599,28.1121],[116.4519,28.1092],[116.448,28.0959],[116.4478,28.0887],[116.4425,28.0888],[116.4374,28.0917],[116.432,28.0902],[116.4275,28.085],[116.4188,28.0896],[116.4167,28.0938],[116.4111,28.098],[116.4132,28.1032],[116.4075,28.1057],[116.4,28.104],[116.3985,28.1001],[116.3937,28.1021],[116.3861,28.0977],[116.3813,28.1005],[116.3822,28.1161],[116.3762,28.1189],[116.3835,28.1268],[116.3818,28.1349],[116.3779,28.1369],[116.3696,28.1518],[116.3764,28.1517],[116.3768,28.145],[116.3805,28.1456],[116.3809,28.1517],[116.375,28.1567],[116.3629,28.1703],[116.365,28.1723],[116.3577,28.1768],[116.3601,28.1807],[116.3591,28.1877],[116.3552,28.1917],[116.3459,28.194],[116.3468,28.1972],[116.34,28.2042],[116.3502,28.212]]]},"properties":{"region_code":"CN-36-3610-361002","parent_region_code":"CN-36-3610","name":"临川区","level":"county","has_children":false,"full_path":"中国 / 江西省 / 抚州市 / 临川区","source_admin_code":"361002","osm_relation_id":3182600}},
{"type":"Feature","geometry":{"type":"Polygon","coordinates":[[[116.5239,28.0598],[116.5305,28.0631],[116.5344,28.061],[116.5393,28.0701],[116.5373,28.078],[116.5453,28.0762],[116.55,28.0797],[116.5568,28.0788],[116.56,28.0727],[116.5659,28.0678],[116.5773,28.0625],[116.5829,28.0574],[116.5877,28.0559],[116.5881,28.0515],[116.5937,28.0491],[116.5938,28.0551],[116.5968,28.0593],[116.604,28.0595],[116.6106,28.05],[116.6159,28.0466],[116.6202,28.0526],[116.6279,28.0569],[116.6321,28.0613],[116.6408,28.0633],[116.6461,28.0604],[116.6503,28.0514],[116.6498,28.0478],[116.6651,28.0373],[116.6699,28.0426],[116.6773,28.0463],[116.6811,28.0549],[116.6812,28.0645],[116.6743,28.0662],[116.6703,28.0741],[116.673,28.0825],[116.6782,28.0787],[116.6878,28.0752],[116.6912,28.0806],[116.695,28.0778],[116.6997,28.0784],[116.7,28.0854],[116.7055,28.0886],[116.709,28.095],[116.7136,28.0971],[116.7133,28.1014],[116.7212,28.104],[116.728,28.0996],[116.7315,28.0897],[116.7366,28.0869],[116.7338,28.0773],[116.7414,28.0672],[116.7497,28.0699],[116.7539,28.0676],[116.7557,28.063],[116.7525,28.0605],[116.7563,28.0566],[116.7558,28.051],[116.7597,28.0477],[116.7565,28.0423],[116.7521,28.0394],[116.7516,28.0325],[116.7647,28.0334],[116.77,28.037],[116.7736,28.0447],[116.7819,28.0488],[116.7876,28.0469],[116.7937,28.0393],[116.8031,28.0381],[116.8051,28.0335],[116.8118,28.035],[116.816,28.0338],[116.8224,28.0405],[116.831,28.0413],[116.8327,28.0507],[116.8393,28.0534],[116.8457,28.0538],[116.8453,28.0599],[116.8483,28.0651],[116.848,28.074],[116.8526,28.075],[116.8541,28.0799],[116.8574,28.0806],[116.8553,28.0891],[116.851,28.0908],[116.8454,28.0899],[116.8471,28.0988],[116.8354,28.0998],[116.835,28.1036],[116.8289,28.1103],[116.8188,28.1105],[116.8181,28.108],[116.8117,28.1042],[116.8105,28.0972],[116.8036,28.0985],[116.799,28.1045],[116.802,28.107],[116.8001,28.1116],[116.8017,28.1153],[116.7942,28.1195],[116.7912,28.123],[116.791,28.1282],[116.7945,28.1404],[116.7937,28.1447],[116.8062,28.1584],[116.8098,28.1688],[116.8073,28.1744],[116.7998,28.1728],[116.7957,28.1766],[116.7901,28.1784],[116.788,28.1827],[116.7812,28.1857],[116.7796,28.1827],[116.7717,28.1767],[116.7551,28.1744],[116.749,28.1689],[116.7423,28.1686],[116.74,28.1731],[116.7433,28.1748],[116.7424,28.1812],[116.7369,28.184],[116.7273,28.1824],[116.7237,28.1852],[116.7223,28.1948],[116.7265,28.1962],[116.7295,28.2023],[116.7302,28.2095],[116.7226,28.2105],[116.7179,28.208],[116.7111,28.2106],[116.7019,28.212],[116.6947,28.2095],[116.6889,28.2183],[116.6893,28.2204],[116.6847,28.2308],[116.6955,28.2405],[116.6973,28.2465],[116.7055,28.2528],[116.7145,28.2548],[116.7104,28.2631],[116.7192,28.258],[116.7251,28.2641],[116.7326,28.2678],[116.7432,28.2684],[116.7476,28.2672],[116.7523,28.2592],[116.7637,28.2583],[116.7764,28.2672],[116.7819,28.2581],[116.798,28.2546],[116.8013,28.2631],[116.8055,28.2679],[116.8021,28.2726],[116.8034,28.2781],[116.8113,28.2769],[116.8107,28.2876],[116.8148,28.2923],[116.8133,28.2986],[116.8095,28.3027],[116.8114,28.3061],[116.8039,28.315],[116.7942,28.3174],[116.7957,28.3279],[116.7906,28.3388],[116.783,28.3447],[116.7823,28.3484],[116.776,28.3616],[116.7738,28.371],[116.7713,28.3728],[116.7617,28.3715],[116.7539,28.3738],[116.7506,28.3797],[116.7465,28.3922],[116.7391,28.4055],[116.7338,28.4126],[116.7305,28.4127],[116.7203,28.4071],[116.7166,28.4017],[116.7163,28.3969],[116.7128,28.3895],[116.7073,28.3859],[116.6999,28.3853],[116.6946,28.3869],[116.6887,28.3822],[116.6826,28.384],[116.6773,28.3835],[116.6743,28.3872],[116.6631,28.3845],[116.6591,28.3798],[116.6492,28.3806],[116.6462,28.3768],[116.6395,28.3775],[116.6339,28.3856],[116.6193,28.3924],[116.6104,28.3907],[116.6012,28.3961],[116.5941,28.3938],[116.5855,28.387],[116.5739,28.3846],[116.5721,28.3885],[116.567,28.3892],[116.5644,28.3946],[116.5633,28.4036],[116.5708,28.4131],[116.5814,28.4169],[116.5821,28.4212],[116.5857,28.4234],[116.594,28.423],[116.5871,28.4302],[116.5802,28.4324],[116.5803,28.4387],[116.585,28.4432],[116.5814,28.4486],[116.5847,28.452],[116.5832,28.4624],[116.585,28.4699],[116.5796,28.4774],[116.5752,28.4903],[116.5715,28.4935],[116.5607,28.4968],[116.5509,28.4921],[116.5503,28.4864],[116.5474,28.4853],[116.5522,28.4733],[116.5547,28.4602],[116.5519,28.4572],[116.5524,28.4487],[116.5607,28.4445],[116.5587,28.4419],[116.5597,28.435],[116.5583,28.4274],[116.5522,28.4193],[116.5543,28.4162],[116.5506,28.4112],[116.5464,28.4107],[116.5416,28.406],[116.5346,28.4048],[116.5316,28.3985],[116.5259,28.4015],[116.52,28.3968],[116.5227,28.3903],[116.5127,28.388],[116.5062,28.3845],[116.5051,28.3798],[116.5086,28.3743],[116.5099,28.3667],[116.5017,28.3628],[116.501,28.3569],[116.5032,28.348],[116.5003,28.3456],[116.5024,28.3338],[116.5145,28.3264],[116.5032,28.321],[116.5042,28.3099],[116.4977,28.3088],[116.4835,28.3041],[116.481,28.3003],[116.4734,28.2955],[116.476,28.2869],[116.4749,28.2789],[116.4719,28.2772],[116.4606,28.2522],[116.456,28.2483],[116.4502,28.2544],[116.4371,28.2491],[116.4297,28.249],[116.4215,28.2514],[116.4149,28.251],[116.4102,28.253],[116.4065,28.2499],[116.3958,28.2467],[116.3875,28.242],[116.3792,28.2427],[116.3785,28.2382],[116.3729,28.2375],[116.3707,28.2332],[116.3713,28.225],[116.3609,28.2215],[116.3651,28.2154],[116.3581,28.2084],[116.3534,28.2084],[116.3502,28.212],[116.34,28.2042],[116.3468,28.1972],[116.3459,28.194],[116.3552,28.1917],[116.3591,28.1877],[116.3601,28.1807],[116.3577,28.1768],[116.365,28.1723],[116.3629,28.1703],[116.375,28.1567],[116.3809,28.1517],[116.3805,28.1456],[116.3768,28.145],[116.3764,28.1517],[116.3696,28.1518],[116.3779,28.1369],[116.3818,28.1349],[116.3835,28.1268],[116.3762,28.1189],[116.3822,28.1161],[116.3813,28.1005],[116.3861,28.0977],[116.3937,28.1021],[116.3985,28.1001],[116.4,28.104],[116.4075,28.1057],[116.4132,28.1032],[116.4111,28.098],[116.4167,28.0938],[116.4188,28.0896],[116.4275,28.085],[116.432,28.0902],[116.4374,28.0917],[116.4425,28.0888],[116.4478,28.0887],[116.448,28.0959],[116.4519,28.1092],[116.4599,28.1121],[116.4671,28.1126],[116.4687,28.103],[116.4722,28.1007],[116.4716,28.0942],[116.482,28.086],[116.4821,28.0796],[116.4876,28.0793],[116.5012,28.0817],[116.4975,28.0719],[116.4994,28.0684],[116.5126,28.0623],[116.517,28.0619],[116.5189,28.0581],[116.5239,28.0598]]]},"properties":{"region_code":"CN-36-3610-361003","parent_region_code":"CN-36-3610","name":"东乡区","level":"county","has_children":false,"full_path":"中国 / 江西省 / 抚州市 / 东乡区","source_admin_code":"361003","osm_relation_id":3182595}},
{"type":"Feature","geometry":{"type":"Polygon","coordinates":[[[116.48,27.5075],[116.4765,27.5016],[116.4743,27.4899],[116.4651,27.4836],[116.4635,27.4746],[116.4577,27.4676],[116.4486,27.4661],[116.442,27.4666],[116.435,27.4627],[116.4271,27.4563],[116.426,27.4507],[116.4223,27.4479],[116.4273,27.4382],[116.421,27.4332],[116.4204,27.4273],[116.4168,27.4216],[116.4157,27.4165],[116.4124,27.4125],[116.4141,27.4044],[116.4094,27.4011],[116.4118,27.3936],[116.4171,27.3947],[116.4209,27.393],[116.4182,27.3882],[116.4193,27.3809],[116.4173,27.3709],[116.4113,27.3648],[116.4156,27.3606],[116.4099,27.3534],[116.4075,27.3464],[116.4114,27.3405],[116.4047,27.3377],[116.4003,27.3292],[116.3958,27.3252],[116.398,27.3187],[116.4044,27.3202],[116.4106,27.3181],[116.4205,27.3214],[116.4302,27.3153],[116.4322,27.3114],[116.4402,27.3099],[116.4443,27.3059],[116.4484,27.3065],[116.4574,27.3007],[116.4677,27.2991],[116.4735,27.2998],[116.474,27.2925],[116.4761,27.2863],[116.4837,27.2849],[116.4925,27.2863],[116.4961,27.2898],[116.4952,27.2953],[116.5097,27.2993],[116.5147,27.2947],[116.5175,27.2976],[116.523,27.2952],[116.53,27.3026],[116.5402,27.3005],[116.542,27.2985],[116.5489,27.3022],[116.5487,27.3068],[116.5545,27.3122],[116.5551,27.3177],[116.5434,27.3287],[116.5412,27.3341],[116.543,27.3381],[116.55,27.3423],[116.5522,27.3479],[116.5558,27.3509],[116.5612,27.3509],[116.5736,27.3339],[116.5784,27.333],[116.5889,27.3266],[116.597,27.3127],[116.6018,27.3121],[116.6052,27.3086],[116.6118,27.3078],[116.6212,27.3103],[116.6319,27.3178],[116.6312,27.3199],[116.6361,27.3282],[116.6437,27.3287],[116.6504,27.3268],[116.6592,27.3318],[116.6625,27.3403],[116.6695,27.3428],[116.6729,27.3493],[116.6796,27.3555],[116.6823,27.3544],[116.6939,27.3543],[116.7061,27.3483],[116.7063,27.3443],[116.7107,27.3432],[116.7164,27.346],[116.7206,27.3406],[116.7214,27.3366],[116.7303,27.3335],[116.7344,27.3395],[116.7388,27.3396],[116.7437,27.3449],[116.7349,27.3517],[116.7305,27.3521],[116.7259,27.3564],[116.7296,27.3602],[116.7306,27.368],[116.725,27.3678],[116.7192,27.3782],[116.72,27.3844],[116.7248,27.3846],[116.7319,27.3879],[116.7401,27.3894],[116.7415,27.3974],[116.7393,27.401],[116.7466,27.4082],[116.7508,27.4085],[116.7601,27.4049],[116.7632,27.3998],[116.7732,27.4055],[116.7726,27.4092],[116.779,27.4151],[116.7831,27.4147],[116.7862,27.4186],[116.7845,27.4235],[116.7895,27.4279],[116.7955,27.4215],[116.8001,27.4213],[116.8015,27.4251],[116.8144,27.4275],[116.8237,27.4251],[116.8297,27.4183],[116.8352,27.4187],[116.839,27.4113],[116.8463,27.4053],[116.8509,27.4037],[116.8579,27.4039],[116.8655,27.3934],[116.8726,27.3927],[116.8746,27.39],[116.8799,27.3929],[116.8787,27.3851],[116.8815,27.378],[116.8843,27.3757],[116.8835,27.3679],[116.8881,27.3651],[116.8929,27.3567],[116.907,27.3572],[116.9155,27.3607],[116.914,27.3681],[116.926,27.3764],[116.9307,27.3769],[116.9359,27.3813],[116.9375,27.3866],[116.9354,27.3899],[116.9355,27.3966],[116.9296,27.4082],[116.9181,27.4095],[116.9175,27.4135],[116.9233,27.4154],[116.9276,27.4321],[116.9276,27.441],[116.9247,27.4426],[116.9233,27.4483],[116.9241,27.4589],[116.9297,27.4686],[116.9371,27.4703],[116.9412,27.4744],[116.949,27.4752],[116.9586,27.478],[116.9526,27.4832],[116.9527,27.4863],[116.9426,27.4848],[116.9443,27.4911],[116.9367,27.4903],[116.9315,27.4945],[116.9339,27.5007],[116.9296,27.5057],[116.9309,27.5102],[116.9356,27.5138],[116.9336,27.5252],[116.9375,27.5294],[116.9331,27.532],[116.9244,27.5283],[116.9138,27.529],[116.9023,27.5259],[116.888,27.5208],[116.8677,27.5348],[116.8638,27.5428],[116.8682,27.5487],[116.864,27.5545],[116.8758,27.5629],[116.8845,27.5606],[116.8928,27.5617],[116.8931,27.5673],[116.8998,27.5701],[116.9035,27.5784],[116.904,27.5901],[116.8928,27.595],[116.889,27.5977],[116.8795,27.6009],[116.8697,27.6083],[116.8692,27.6204],[116.8639,27.6236],[116.8599,27.6227],[116.8518,27.614],[116.8376,27.6058],[116.8329,27.608],[116.8331,27.6127],[116.8376,27.6142],[116.8412,27.6186],[116.8392,27.6251],[116.8277,27.6265],[116.8287,27.6319],[116.8325,27.6339],[116.8384,27.6484],[116.8405,27.6503],[116.8303,27.6685],[116.833,27.6723],[116.8304,27.6773],[116.8346,27.6824],[116.828,27.685],[116.8346,27.6889],[116.8457,27.6869],[116.8503,27.6828],[116.8517,27.6771],[116.8555,27.6784],[116.8574,27.6846],[116.8662,27.6809],[116.8721,27.6821],[116.8746,27.6849],[116.8787,27.6946],[116.8745,27.7063],[116.8784,27.7109],[116.8802,27.7166],[116.8719,27.7204],[116.866,27.7176],[116.8575,27.7217],[116.8535,27.73],[116.8546,27.7346],[116.8522,27.7397],[116.8393,27.7417],[116.831,27.7351],[116.8226,27.7454],[116.8128,27.7447],[116.8128,27.7555],[116.8224,27.7611],[116.8215,27.7707],[116.8141,27.7736],[116.8049,27.7713],[116.8028,27.774],[116.7926,27.7708],[116.7914,27.7744],[116.7943,27.779],[116.7876,27.7854],[116.7863,27.7806],[116.7808,27.7773],[116.78,27.7726],[116.7744,27.7694],[116.7732,27.7656],[116.7679,27.7629],[116.766,27.752],[116.7619,27.7492],[116.7585,27.7398],[116.7638,27.7402],[116.7647,27.7338],[116.7569,27.723],[116.7579,27.7189],[116.7522,27.7178],[116.7482,27.7113],[116.7363,27.7008],[116.7176,27.6989],[116.7141,27.7038],[116.7179,27.7075],[116.7183,27.7129],[116.7152,27.7164],[116.7097,27.7139],[116.7032,27.7138],[116.6978,27.7157],[116.6969,27.7104],[116.6925,27.6997],[116.6871,27.7018],[116.6861,27.6952],[116.6831,27.6916],[116.6837,27.6847],[116.6803,27.6828],[116.6725,27.6934],[116.6671,27.6917],[116.6638,27.694],[116.6588,27.6926],[116.655,27.695],[116.65,27.6935],[116.6463,27.6893],[116.6422,27.6919],[116.6308,27.6912],[116.6222,27.6869],[116.6188,27.6928],[116.6122,27.6939],[116.6106,27.7025],[116.611,27.7082],[116.612,27.7175],[116.604,27.7139],[116.5889,27.7159],[116.5794,27.7194],[116.5775,27.7248],[116.5642,27.7229],[116.5455,27.715],[116.5359,27.7151],[116.5342,27.7171],[116.5229,27.7178],[116.5227,27.7108],[116.5209,27.7058],[116.5139,27.7026],[116.508,27.6976],[116.4976,27.6942],[116.4907,27.6855],[116.4956,27.6792],[116.4899,27.6683],[116.4937,27.6641],[116.4927,27.6567],[116.5084,27.6499],[116.5147,27.6451],[116.514,27.6401],[116.5199,27.6379],[116.5264,27.6321],[116.5286,27.6249],[116.5205,27.6184],[116.5135,27.6048],[116.5071,27.6005],[116.5159,27.5905],[116.5183,27.5859],[116.517,27.5826],[116.5062,27.5714],[116.5052,27.5639],[116.5,27.5576],[116.5009,27.5529],[116.4976,27.5473],[116.4984,27.5374],[116.4973,27.5302],[116.5001,27.5264],[116.4934,27.5129],[116.4849,27.5084],[116.48,27.5075]]]},"properties":{"region_code":"CN-36-3610-361021","parent_region_code":"CN-36-3610","name":"南城县","level":"county","has_children":false,"full_path":"中国 / 江西省 / 抚州市 / 南城县","source_admin_code":"361021","osm_relation_id":3182601}},
{"type":"Feature","geometry":{"type":"Polygon","coordinates":[[[116.7303,27.3335],[116.7271,27.3275],[116.721,27.3248],[116.72,27.3199],[116.7228,27.3138],[116.7282,27.3121],[116.7367,27.3121],[116.7382,27.307],[116.735,27.3002],[116.7309,27.2982],[116.7276,27.2883],[116.7322,27.2842],[116.7364,27.2763],[116.7403,27.2743],[116.7463,27.2657],[116.7418,27.2626],[116.7424,27.2543],[116.7478,27.2472],[116.745,27.2423],[116.7479,27.2313],[116.7433,27.227],[116.7379,27.225],[116.733,27.2276],[116.7262,27.2222],[116.7209,27.2207],[116.71,27.223],[116.7049,27.2193],[116.7095,27.2055],[116.7047,27.2026],[116.7029,27.198],[116.706,27.1846],[116.7115,27.1804],[116.7139,27.1758],[116.7067,27.1706],[116.7075,27.1638],[116.7135,27.1626],[116.7168,27.1555],[116.712,27.1521],[116.7082,27.1466],[116.7119,27.1452],[116.7191,27.1354],[116.7257,27.1328],[116.7255,27.1277],[116.7298,27.1272],[116.7337,27.1191],[116.7278,27.1192],[116.7262,27.1136],[116.73,27.1104],[116.7314,27.1052],[116.7275,27.0981],[116.7281,27.093],[116.726,27.0855],[116.729,27.0811],[116.7254,27.0774],[116.7151,27.0758],[116.7151,27.0673],[116.7171,27.0566],[116.7151,27.0546],[116.7195,27.0471],[116.7177,27.0431],[116.7097,27.0362],[116.7106,27.0298],[116.7154,27.0214],[116.7112,27.0117],[116.7111,27.0064],[116.7052,26.9941],[116.7201,26.9946],[116.7272,26.9994],[116.7292,26.9974],[116.7366,26.9974],[116.7416,26.9876],[116.749,26.9827],[116.7531,26.9821],[116.7565,26.9855],[116.7559,26.9951],[116.7624,27.0029],[116.777,27.0019],[116.787,27.0109],[116.8004,27.0129],[116.808,27.0122],[116.8137,27.0165],[116.8192,27.0237],[116.8278,27.0229],[116.8347,27.0165],[116.8378,27.0117],[116.8575,27.0121],[116.8628,27.019],[116.8653,27.0247],[116.872,27.0243],[116.8822,27.0337],[116.8881,27.0337],[116.8934,27.0404],[116.8984,27.0375],[116.9085,27.0355],[116.914,27.0403],[116.9173,27.0362],[116.9186,27.0287],[116.9237,27.0258],[116.9338,27.0173],[116.9373,27.0305],[116.9497,27.0425],[116.9484,27.0486],[116.959,27.0581],[116.964,27.0607],[116.9707,27.0604],[116.9766,27.0667],[116.9865,27.0728],[116.9986,27.0849],[117.0091,27.0907],[117.0253,27.0897],[117.0333,27.0944],[117.0357,27.0981],[117.0478,27.1035],[117.0445,27.1234],[117.0418,27.1271],[117.0389,27.1372],[117.0386,27.1432],[117.0408,27.1514],[117.0437,27.1556],[117.0519,27.1602],[117.054,27.1667],[117.0643,27.1784],[117.0797,27.1863],[117.0834,27.1949],[117.0922,27.2089],[117.0959,27.2111],[117.1019,27.207],[117.1126,27.2122],[117.1155,27.2194],[117.121,27.2215],[117.124,27.2261],[117.1341,27.2329],[117.1376,27.2389],[117.145,27.2448],[117.1429,27.2498],[117.1486,27.256],[117.1493,27.2644],[117.1544,27.268],[117.1613,27.2703],[117.1624,27.2817],[117.1664,27.2909],[117.1647,27.2958],[117.1597,27.2959],[117.1551,27.2985],[117.1519,27.3049],[117.1454,27.306],[117.1402,27.3045],[117.1323,27.3063],[117.1322,27.311],[117.1376,27.3194],[117.1356,27.3261],[117.1247,27.3257],[117.1098,27.3317],[117.1046,27.3301],[117.0997,27.3344],[117.0954,27.3424],[117.0978,27.353],[117.0964,27.3636],[117.0991,27.3699],[117.0985,27.3743],[117.0942,27.3825],[117.1007,27.3856],[117.101,27.3941],[117.1026,27.3969],[117.117,27.4044],[117.1225,27.4099],[117.1281,27.4282],[117.1212,27.4382],[117.1209,27.4543],[117.1136,27.4552],[117.1052,27.4621],[117.104,27.4726],[117.1067,27.4781],[117.1017,27.4832],[117.0998,27.488],[117.1017,27.4938],[117.1082,27.5012],[117.1047,27.5031],[117.1033,27.5089],[117.0982,27.5141],[117.097,27.52],[117.0983,27.5368],[117.0973,27.5434],[117.0939,27.5474],[117.0861,27.5506],[117.0838,27.5558],[117.0846,27.5606],[117.0779,27.5691],[117.071,27.5686],[117.0678,27.5617],[117.0609,27.5574],[117.0561,27.55],[117.05,27.5459],[117.0447,27.5531],[117.0374,27.5507],[117.0323,27.5472],[117.025,27.5458],[117.0315,27.5404],[117.034,27.5335],[117.0267,27.5354],[117.0212,27.53],[117.0201,27.5239],[117.0098,27.5248],[117.0096,27.5203],[117.0008,27.5198],[116.9985,27.5172],[116.996,27.5084],[116.9922,27.5016],[116.9843,27.4973],[116.9743,27.4952],[116.9718,27.4903],[116.9642,27.4855],[116.9639,27.4804],[116.9586,27.478],[116.949,27.4752],[116.9412,27.4744],[116.9371,27.4703],[116.9297,27.4686],[116.9241,27.4589],[116.9233,27.4483],[116.9247,27.4426],[116.9276,27.441],[116.9276,27.4321],[116.9233,27.4154],[116.9175,27.4135],[116.9181,27.4095],[116.9296,27.4082],[116.9355,27.3966],[116.9354,27.3899],[116.9375,27.3866],[116.9359,27.3813],[116.9307,27.3769],[116.926,27.3764],[116.914,27.3681],[116.9155,27.3607],[116.907,27.3572],[116.8929,27.3567],[116.8881,27.3651],[116.8835,27.3679],[116.8843,27.3757],[116.8815,27.378],[116.8787,27.3851],[116.8799,27.3929],[116.8746,27.39],[116.8726,27.3927],[116.8655,27.3934],[116.8579,27.4039],[116.8509,27.4037],[116.8463,27.4053],[116.839,27.4113],[116.8352,27.4187],[116.8297,27.4183],[116.8237,27.4251],[116.8144,27.4275],[116.8015,27.4251],[116.8001,27.4213],[116.7955,27.4215],[116.7895,27.4279],[116.7845,27.4235],[116.7862,27.4186],[116.7831,27.4147],[116.779,27.4151],[116.7726,27.4092],[116.7732,27.4055],[116.7632,27.3998],[116.7601,27.4049],[116.7508,27.4085],[116.7466,27.4082],[116.7393,27.401],[116.7415,27.3974],[116.7401,27.3894],[116.7319,27.3879],[116.7248,27.3846],[116.72,27.3844],[116.7192,27.3782],[116.725,27.3678],[116.7306,27.368],[116.7296,27.3602],[116.7259,27.3564],[116.7305,27.3521],[116.7349,27.3517],[116.7437,27.3449],[116.7388,27.3396],[116.7344,27.3395],[116.7303,27.3335]]]},"properties":{"region_code":"CN-36-3610-361022","parent_region_code":"CN-36-3610","name":"黎川县","level":"county","has_children":false,"full_path":"中国 / 江西省 / 抚州市 / 黎川县","source_admin_code":"361022","osm_relation_id":3182599}},
{"type":"Feature","geometry":{"type":"Polygon","coordinates":[[[116.398,27.3187],[116.3934,27.3149],[116.3928,27.3113],[116.382,27.3121],[116.3786,27.3108],[116.379,27.2984],[116.3764,27.2863],[116.3723,27.2815],[116.3733,27.2755],[116.3674,27.2705],[116.3621,27.2626],[116.3606,27.2549],[116.3559,27.2457],[116.3608,27.2383],[116.3631,27.2313],[116.3579,27.2159],[116.3488,27.2128],[116.3221,27.2115],[116.3183,27.2142],[116.3041,27.2051],[116.2993,27.2005],[116.2978,27.1934],[116.2899,27.1889],[116.2841,27.1815],[116.278,27.1816],[116.2684,27.1704],[116.26,27.1645],[116.2616,27.1611],[116.2574,27.1491],[116.2482,27.1392],[116.2541,27.1334],[116.2538,27.1269],[116.2558,27.121],[116.2497,27.1221],[116.2408,27.1193],[116.2287,27.1059],[116.2303,27.0969],[116.2255,27.0913],[116.2241,27.0799],[116.2152,27.0792],[116.2118,27.0747],[116.2028,27.07],[116.2035,27.0665],[116.198,27.0627],[116.1834,27.0562],[116.1803,27.0569],[116.1755,27.0534],[116.1815,27.0499],[116.1838,27.0449],[116.1804,27.0381],[116.1852,27.025],[116.1819,27.0139],[116.1827,27.0084],[116.1767,26.999],[116.1716,26.9964],[116.1668,26.9881],[116.1688,26.9842],[116.1656,26.9803],[116.1551,26.9757],[116.1509,26.9758],[116.1509,26.9671],[116.1478,26.9623],[116.1476,26.9547],[116.1527,26.9529],[116.1579,26.9575],[116.1603,26.953],[116.1671,26.9508],[116.1764,26.9495],[116.1798,26.9414],[116.1849,26.9454],[116.1823,26.9526],[116.1872,26.9651],[116.1905,26.9676],[116.1952,26.9664],[116.2007,26.968],[116.2063,26.9624],[116.1975,26.9568],[116.1929,26.958],[116.1937,26.9517],[116.1984,26.9521],[116.2007,26.9568],[116.21,26.9574],[116.2247,26.9637],[116.2329,26.9648],[116.2343,26.9626],[116.2467,26.9652],[116.2487,26.9593],[116.2371,26.9525],[116.234,26.9517],[116.2321,26.9406],[116.243,26.9358],[116.2419,26.9202],[116.2441,26.914],[116.2495,26.9135],[116.2526,26.9106],[116.2613,26.9124],[116.2637,26.9153],[116.2613,26.9256],[116.2664,26.9315],[116.2772,26.9344],[116.2862,26.9397],[116.2995,26.9412],[116.2985,26.9474],[116.3043,26.9505],[116.3101,26.9464],[116.3121,26.9503],[116.3201,26.9563],[116.3306,26.9627],[116.3399,26.9609],[116.3441,26.9628],[116.3458,26.9712],[116.3498,26.9781],[116.3551,26.9768],[116.3591,26.9783],[116.3631,26.9698],[116.368,26.9694],[116.3708,26.9653],[116.3734,26.9554],[116.3766,26.9534],[116.3824,26.9555],[116.391,26.9516],[116.4037,26.9564],[116.4231,26.9545],[116.4266,26.9579],[116.4313,26.9536],[116.4371,26.9549],[116.4467,26.9607],[116.4511,26.9588],[116.4577,26.9605],[116.4646,26.9694],[116.4737,26.966],[116.4799,26.9713],[116.484,26.9689],[116.4826,26.9602],[116.4852,26.9585],[116.4928,26.9614],[116.4977,26.9608],[116.4966,26.9738],[116.5034,26.9749],[116.5097,26.9731],[116.5114,26.9626],[116.5067,26.9587],[116.5023,26.9502],[116.5049,26.9407],[116.5085,26.9361],[116.5054,26.9269],[116.5102,26.9227],[116.5031,26.9125],[116.505,26.903],[116.5137,26.9002],[116.5132,26.8973],[116.5052,26.8874],[116.5206,26.8814],[116.5281,26.8772],[116.5295,26.873],[116.5357,26.8704],[116.534,26.8673],[116.5445,26.8629],[116.5522,26.861],[116.5553,26.8583],[116.563,26.8639],[116.5621,26.872],[116.5709,26.8736],[116.5758,26.8683],[116.5857,26.882],[116.5836,26.8856],[116.5865,26.8902],[116.594,26.8967],[116.6006,26.8939],[116.6043,26.8974],[116.6055,26.9064],[116.6144,26.914],[116.6174,26.9192],[116.6161,26.9269],[116.642,26.9457],[116.6467,26.9479],[116.6471,26.9523],[116.6509,26.9609],[116.6495,26.9656],[116.6651,26.969],[116.6816,26.9843],[116.6951,26.9926],[116.7052,26.9941],[116.7111,27.0064],[116.7112,27.0117],[116.7154,27.0214],[116.7106,27.0298],[116.7097,27.0362],[116.7177,27.0431],[116.7195,27.0471],[116.7151,27.0546],[116.7171,27.0566],[116.7151,27.0673],[116.7151,27.0758],[116.7254,27.0774],[116.729,27.0811],[116.726,27.0855],[116.7281,27.093],[116.7275,27.0981],[116.7314,27.1052],[116.73,27.1104],[116.7262,27.1136],[116.7278,27.1192],[116.7337,27.1191],[116.7298,27.1272],[116.7255,27.1277],[116.7257,27.1328],[116.7191,27.1354],[116.7119,27.1452],[116.7082,27.1466],[116.712,27.1521],[116.7168,27.1555],[116.7135,27.1626],[116.7075,27.1638],[116.7067,27.1706],[116.7139,27.1758],[116.7115,27.1804],[116.706,27.1846],[116.7029,27.198],[116.7047,27.2026],[116.7095,27.2055],[116.7049,27.2193],[116.71,27.223],[116.7209,27.2207],[116.7262,27.2222],[116.733,27.2276],[116.7379,27.225],[116.7433,27.227],[116.7479,27.2313],[116.745,27.2423],[116.7478,27.2472],[116.7424,27.2543],[116.7418,27.2626],[116.7463,27.2657],[116.7403,27.2743],[116.7364,27.2763],[116.7322,27.2842],[116.7276,27.2883],[116.7309,27.2982],[116.735,27.3002],[116.7382,27.307],[116.7367,27.3121],[116.7282,27.3121],[116.7228,27.3138],[116.72,27.3199],[116.721,27.3248],[116.7271,27.3275],[116.7303,27.3335],[116.7214,27.3366],[116.7206,27.3406],[116.7164,27.346],[116.7107,27.3432],[116.7063,27.3443],[116.7061,27.3483],[116.6939,27.3543],[116.6823,27.3544],[116.6796,27.3555],[116.6729,27.3493],[116.6695,27.3428],[116.6625,27.3403],[116.6592,27.3318],[116.6504,27.3268],[116.6437,27.3287],[116.6361,27.3282],[116.6312,27.3199],[116.6319,27.3178],[116.6212,27.3103],[116.6118,27.3078],[116.6052,27.3086],[116.6018,27.3121],[116.597,27.3127],[116.5889,27.3266],[116.5784,27.333],[116.5736,27.3339],[116.5612,27.3509],[116.5558,27.3509],[116.5522,27.3479],[116.55,27.3423],[116.543,27.3381],[116.5412,27.3341],[116.5434,27.3287],[116.5551,27.3177],[116.5545,27.3122],[116.5487,27.3068],[116.5489,27.3022],[116.542,27.2985],[116.5402,27.3005],[116.53,27.3026],[116.523,27.2952],[116.5175,27.2976],[116.5147,27.2947],[116.5097,27.2993],[116.4952,27.2953],[116.4961,27.2898],[116.4925,27.2863],[116.4837,27.2849],[116.4761,27.2863],[116.474,27.2925],[116.4735,27.2998],[116.4677,27.2991],[116.4574,27.3007],[116.4484,27.3065],[116.4443,27.3059],[116.4402,27.3099],[116.4322,27.3114],[116.4302,27.3153],[116.4205,27.3214],[116.4106,27.3181],[116.4044,27.3202],[116.398,27.3187]]]},"properties":{"region_code":"CN-36-3610-361023","parent_region_code":"CN-36-3610","name":"南丰县","level":"county","has_children":false,"full_path":"中国 / 江西省 / 抚州市 / 南丰县","source_admin_code":"361023","osm_relation_id":3182602}},
{"type":"Feature","geometry":{"type":"Polygon","coordinates":[[[116.0568,27.9392],[116.0533,27.938],[116.053,27.9324],[116.0444,27.9293],[116.0364,27.929],[116.0267,27.9197],[116.025,27.9142],[116.021,27.9115],[116.0187,27.9067],[116.0141,27.9065],[115.999,27.9022],[115.9939,27.9023],[115.9896,27.905],[115.9783,27.8998],[115.9609,27.8988],[115.9561,27.8953],[115.947,27.8956],[115.9418,27.8984],[115.9371,27.8973],[115.9306,27.8914],[115.9198,27.8894],[115.9122,27.8842],[115.9043,27.8883],[115.8994,27.8785],[115.8967,27.8679],[115.8878,27.8638],[115.8819,27.8587],[115.8766,27.8576],[115.8616,27.8601],[115.8585,27.8564],[115.8601,27.8518],[115.8554,27.8414],[115.8562,27.8302],[115.8596,27.8214],[115.861,27.8115],[115.8587,27.7988],[115.8543,27.7897],[115.8555,27.7862],[115.8519,27.7796],[115.8487,27.7782],[115.8477,27.7724],[115.8431,27.7682],[115.8485,27.7603],[115.8468,27.7533],[115.8436,27.7518],[115.8449,27.7438],[115.8391,27.7425],[115.8383,27.7352],[115.8297,27.7284],[115.8311,27.7265],[115.828,27.7179],[115.8215,27.7153],[115.8232,27.7101],[115.834,27.7044],[115.8367,27.6986],[115.8417,27.6819],[115.8439,27.6815],[115.8512,27.6735],[115.8603,27.6698],[115.8665,27.6733],[115.8689,27.678],[115.8737,27.681],[115.8734,27.6874],[115.879,27.6909],[115.8821,27.703],[115.8906,27.7058],[115.897,27.711],[115.9035,27.7068],[115.9068,27.7015],[115.9086,27.6923],[115.9157,27.6952],[115.9154,27.685],[115.912,27.6824],[115.9152,27.6779],[115.9162,27.6715],[115.9233,27.6625],[115.9322,27.6599],[115.9377,27.6607],[115.9436,27.6508],[115.9605,27.6485],[115.9616,27.6435],[115.9596,27.6319],[115.9602,27.6275],[115.964,27.6234],[115.9602,27.6154],[115.9602,27.6104],[115.957,27.6064],[115.9519,27.6062],[115.9491,27.6004],[115.9528,27.5818],[115.9499,27.5795],[115.9485,27.5727],[115.9524,27.5682],[115.9539,27.5608],[115.9572,27.5572],[115.9534,27.5486],[115.9535,27.541],[115.9425,27.5362],[115.9397,27.5372],[115.9291,27.5227],[115.9215,27.5178],[115.9181,27.5133],[115.9176,27.5046],[115.9234,27.4948],[115.9223,27.491],[115.9245,27.482],[115.9289,27.4801],[115.9333,27.4672],[115.9317,27.4615],[115.9408,27.4561],[115.9422,27.4527],[115.9516,27.449],[115.9575,27.4482],[115.958,27.4596],[115.9641,27.4571],[115.9707,27.45],[115.9743,27.4481],[115.9775,27.4417],[115.9877,27.4365],[115.9991,27.4324],[116.0077,27.4355],[116.0112,27.4313],[116.0174,27.434],[116.0199,27.4385],[116.0253,27.4401],[116.0329,27.4382],[116.0343,27.4316],[116.041,27.4342],[116.0512,27.4346],[116.0597,27.43],[116.0647,27.421],[116.081,27.429],[116.084,27.4321],[116.0879,27.4447],[116.0945,27.4388],[116.0999,27.4385],[116.1023,27.4425],[116.1002,27.447],[116.1018,27.4502],[116.1017,27.4622],[116.1093,27.4683],[116.1044,27.4722],[116.1016,27.4785],[116.1074,27.484],[116.1098,27.4891],[116.1176,27.4906],[116.1192,27.5005],[116.1186,27.5069],[116.1264,27.5083],[116.1289,27.5107],[116.1355,27.506],[116.1468,27.5053],[116.1514,27.5145],[116.146,27.5147],[116.137,27.526],[116.1326,27.5294],[116.1282,27.5367],[116.1182,27.5433],[116.0986,27.5453],[116.0892,27.5428],[116.0779,27.5481],[116.0801,27.5547],[116.085,27.5635],[116.0894,27.5651],[116.0931,27.5617],[116.102,27.5703],[116.1187,27.5764],[116.1343,27.585],[116.1385,27.5893],[116.1393,27.5937],[116.144,27.5939],[116.1497,27.5993],[116.152,27.606],[116.1559,27.6108],[116.1554,27.6164],[116.1652,27.6153],[116.1679,27.61],[116.1734,27.6115],[116.1785,27.6103],[116.1805,27.6044],[116.1844,27.6012],[116.201,27.5972],[116.2045,27.5949],[116.2093,27.5991],[116.2229,27.5945],[116.2286,27.596],[116.2376,27.6078],[116.2376,27.6145],[116.2454,27.6158],[116.249,27.6198],[116.2432,27.6275],[116.2432,27.6313],[116.2368,27.6341],[116.2328,27.6311],[116.2244,27.6353],[116.2254,27.6481],[116.2373,27.6499],[116.2389,27.6544],[116.2469,27.6548],[116.2479,27.6677],[116.2452,27.6716],[116.2409,27.6711],[116.2352,27.6772],[116.2344,27.6822],[116.2391,27.6923],[116.2489,27.6957],[116.2497,27.6923],[116.2575,27.6994],[116.2454,27.7028],[116.2324,27.7182],[116.2333,27.727],[116.2257,27.7298],[116.2286,27.7359],[116.2267,27.7405],[116.229,27.7442],[116.2282,27.7531],[116.2353,27.7578],[116.2358,27.7659],[116.2404,27.7701],[116.2429,27.7779],[116.2394,27.7869],[116.234,27.7917],[116.2388,27.797],[116.2492,27.7988],[116.2515,27.7931],[116.2649,27.7931],[116.2723,27.8003],[116.2745,27.8049],[116.2724,27.8078],[116.262,27.8143],[116.2565,27.8194],[116.2612,27.8255],[116.2605,27.8364],[116.2628,27.8444],[116.2603,27.8494],[116.2465,27.8534],[116.2417,27.8574],[116.2411,27.8675],[116.2424,27.8721],[116.2484,27.8749],[116.2503,27.8857],[116.2484,27.8903],[116.2414,27.8952],[116.24,27.8987],[116.2301,27.9],[116.2158,27.9055],[116.2143,27.914],[116.2154,27.9199],[116.2145,27.9305],[116.2073,27.9401],[116.2005,27.9389],[116.1967,27.9346],[116.1821,27.9359],[116.1762,27.9383],[116.1734,27.9361],[116.174,27.9281],[116.1717,27.9228],[116.1679,27.9204],[116.1619,27.9222],[116.1586,27.9202],[116.1602,27.9104],[116.1489,27.9057],[116.1392,27.9077],[116.1393,27.9035],[116.1325,27.8961],[116.1344,27.8928],[116.1328,27.8874],[116.1229,27.8857],[116.1243,27.8793],[116.1214,27.8753],[116.1183,27.8629],[116.1129,27.8553],[116.106,27.8532],[116.1024,27.8574],[116.1047,27.8605],[116.0989,27.8645],[116.1012,27.8714],[116.0969,27.8763],[116.0892,27.8818],[116.0838,27.8887],[116.0803,27.8892],[116.0794,27.8942],[116.0878,27.8895],[116.0943,27.8901],[116.0979,27.8928],[116.0977,27.8985],[116.0947,27.9116],[116.0948,27.917],[116.0851,27.9262],[116.086,27.9297],[116.0798,27.9338],[116.0701,27.938],[116.0626,27.9368],[116.0568,27.9392]]]},"properties":{"region_code":"CN-36-3610-361024","parent_region_code":"CN-36-3610","name":"崇仁县","level":"county","has_children":false,"full_path":"中国 / 江西省 / 抚州市 / 崇仁县","source_admin_code":"361024","osm_relation_id":3182594}},
{"type":"Feature","geometry":{"type":"Polygon","coordinates":[[[115.8297,27.7284],[115.8242,27.7323],[115.8236,27.7358],[115.8131,27.735],[115.8068,27.7332],[115.8028,27.7301],[115.7954,27.7333],[115.7891,27.7401],[115.7829,27.7413],[115.7831,27.7456],[115.7748,27.7437],[115.7595,27.7509],[115.7506,27.746],[115.7477,27.7402],[115.7406,27.7359],[115.7359,27.7353],[115.729,27.7312],[115.7246,27.7248],[115.7244,27.7189],[115.7188,27.71],[115.7138,27.7055],[115.7095,27.6964],[115.6959,27.6887],[115.6893,27.6803],[115.6889,27.6762],[115.6838,27.6721],[115.6793,27.6634],[115.6674,27.6542],[115.6591,27.6542],[115.6589,27.6476],[115.6407,27.6344],[115.6383,27.6284],[115.6325,27.6238],[115.627,27.6115],[115.6186,27.6016],[115.6116,27.5893],[115.6039,27.583],[115.6024,27.5799],[115.6049,27.5714],[115.6021,27.5653],[115.6007,27.5522],[115.6016,27.5461],[115.598,27.5412],[115.6,27.5365],[115.5903,27.5297],[115.5878,27.5251],[115.5901,27.5216],[115.5986,27.5162],[115.6025,27.5113],[115.6046,27.504],[115.6097,27.4991],[115.6089,27.4945],[115.6159,27.4918],[115.6153,27.4873],[115.6245,27.4818],[115.6276,27.4705],[115.6444,27.4608],[115.643,27.4573],[115.6543,27.4531],[115.6589,27.45],[115.6642,27.4496],[115.6673,27.4546],[115.6725,27.4515],[115.6785,27.4505],[115.6881,27.4555],[115.6949,27.4565],[115.6985,27.4601],[115.705,27.4588],[115.7154,27.4464],[115.7165,27.4385],[115.7159,27.4313],[115.7131,27.4273],[115.7118,27.4205],[115.7074,27.42],[115.7017,27.4152],[115.6969,27.4137],[115.6908,27.4042],[115.6934,27.3991],[115.6956,27.3902],[115.6978,27.3883],[115.696,27.3814],[115.6966,27.3731],[115.6931,27.3686],[115.6834,27.3691],[115.6838,27.3663],[115.6791,27.3619],[115.6776,27.3573],[115.679,27.3519],[115.6748,27.351],[115.6709,27.3404],[115.6738,27.3357],[115.6754,27.3266],[115.6781,27.3224],[115.677,27.3145],[115.681,27.3],[115.6791,27.2975],[115.6866,27.2923],[115.691,27.2873],[115.6889,27.2806],[115.6904,27.2749],[115.6846,27.2719],[115.6803,27.2719],[115.6726,27.2672],[115.6665,27.2698],[115.6604,27.2681],[115.6502,27.2691],[115.6462,27.2625],[115.6399,27.2651],[115.6365,27.2563],[115.6331,27.2572],[115.6267,27.2529],[115.6216,27.2533],[115.6201,27.25],[115.6213,27.2427],[115.6266,27.2358],[115.6234,27.2323],[115.6265,27.2273],[115.6253,27.2222],[115.6259,27.215],[115.6312,27.2109],[115.6307,27.2056],[115.6347,27.1982],[115.6342,27.1919],[115.6389,27.1902],[115.6482,27.1975],[115.6541,27.1946],[115.6592,27.1836],[115.6629,27.1811],[115.6604,27.1738],[115.6694,27.1652],[115.6678,27.16],[115.6734,27.1538],[115.6716,27.1501],[115.6771,27.1382],[115.6836,27.1338],[115.6925,27.1307],[115.6933,27.1238],[115.6988,27.1241],[115.7044,27.1187],[115.7077,27.1201],[115.7129,27.1096],[115.7136,27.1048],[115.7215,27.1035],[115.7354,27.1073],[115.7479,27.1131],[115.7547,27.1127],[115.7587,27.1145],[115.7664,27.1132],[115.7759,27.1148],[115.778,27.1172],[115.7893,27.1197],[115.7944,27.1164],[115.8109,27.1143],[115.8161,27.1086],[115.8164,27.099],[115.82,27.0944],[115.8216,27.0848],[115.8332,27.0803],[115.8429,27.0726],[115.8444,27.0654],[115.8414,27.0584],[115.8485,27.0612],[115.8497,27.0555],[115.8472,27.0495],[115.8502,27.0383],[115.8512,27.0301],[115.8583,27.0262],[115.8584,27.0216],[115.8532,27.0184],[115.8567,27.0144],[115.8564,27.0094],[115.8592,27.0061],[115.867,27.0033],[115.8683,27.0005],[115.8827,27.0018],[115.8789,26.9958],[115.8815,26.9912],[115.882,26.9857],[115.8886,26.9819],[115.8958,26.9865],[115.9067,26.989],[115.9108,26.9874],[115.9162,26.9816],[115.9215,26.9797],[115.929,26.9697],[115.9322,26.969],[115.9403,26.9754],[115.9408,26.9846],[115.9435,26.9884],[115.954,26.9931],[115.9561,27.0011],[115.9624,27.0038],[115.9644,27.0132],[115.9756,27.0258],[115.9776,27.0334],[115.9849,27.0353],[115.9889,27.0439],[115.9954,27.0476],[116.0006,27.062],[116.0088,27.0707],[116.0075,27.0737],[116.0006,27.0765],[115.9983,27.0802],[115.9982,27.0865],[116.0015,27.0987],[116.0046,27.1053],[116.0054,27.1175],[116.0113,27.1172],[116.0159,27.1194],[116.0162,27.1267],[116.0245,27.1323],[116.0257,27.1348],[116.0289,27.142],[116.0275,27.1491],[116.0225,27.1516],[116.0238,27.1614],[116.0274,27.169],[116.0262,27.1759],[116.0211,27.1826],[116.0174,27.1911],[116.0173,27.2015],[116.0198,27.2085],[116.0242,27.2075],[116.0315,27.2163],[116.0253,27.2212],[116.0239,27.2351],[116.027,27.2385],[116.0275,27.2461],[116.0332,27.2577],[116.0327,27.2637],[116.0298,27.2712],[116.0294,27.2896],[116.0227,27.2931],[116.0203,27.2969],[116.0236,27.3013],[116.0177,27.3131],[116.0225,27.3193],[116.03,27.3203],[116.0389,27.3299],[116.0505,27.3325],[116.0524,27.3451],[116.0506,27.3498],[116.0569,27.356],[116.0579,27.3608],[116.0573,27.3712],[116.0627,27.3779],[116.0671,27.388],[116.0734,27.3928],[116.0711,27.3952],[116.071,27.4057],[116.0664,27.4118],[116.0647,27.421],[116.0597,27.43],[116.0512,27.4346],[116.041,27.4342],[116.0343,27.4316],[116.0329,27.4382],[116.0253,27.4401],[116.0199,27.4385],[116.0174,27.434],[116.0112,27.4313],[116.0077,27.4355],[115.9991,27.4324],[115.9877,27.4365],[115.9775,27.4417],[115.9743,27.4481],[115.9707,27.45],[115.9641,27.4571],[115.958,27.4596],[115.9575,27.4482],[115.9516,27.449],[115.9422,27.4527],[115.9408,27.4561],[115.9317,27.4615],[115.9333,27.4672],[115.9289,27.4801],[115.9245,27.482],[115.9223,27.491],[115.9234,27.4948],[115.9176,27.5046],[115.9181,27.5133],[115.9215,27.5178],[115.9291,27.5227],[115.9397,27.5372],[115.9425,27.5362],[115.9535,27.541],[115.9534,27.5486],[115.9572,27.5572],[115.9539,27.5608],[115.9524,27.5682],[115.9485,27.5727],[115.9499,27.5795],[115.9528,27.5818],[115.9491,27.6004],[115.9519,27.6062],[115.957,27.6064],[115.9602,27.6104],[115.9602,27.6154],[115.964,27.6234],[115.9602,27.6275],[115.9596,27.6319],[115.9616,27.6435],[115.9605,27.6485],[115.9436,27.6508],[115.9377,27.6607],[115.9322,27.6599],[115.9233,27.6625],[115.9162,27.6715],[115.9152,27.6779],[115.912,27.6824],[115.9154,27.685],[115.9157,27.6952],[115.9086,27.6923],[115.9068,27.7015],[115.9035,27.7068],[115.897,27.711],[115.8906,27.7058],[115.8821,27.703],[115.879,27.6909],[115.8734,27.6874],[115.8737,27.681],[115.8689,27.678],[115.8665,27.6733],[115.8603,27.6698],[115.8512,27.6735],[115.8439,27.6815],[115.8417,27.6819],[115.8367,27.6986],[115.834,27.7044],[115.8232,27.7101],[115.8215,27.7153],[115.828,27.7179],[115.8311,27.7265],[115.8297,27.7284]]]},"properties":{"region_code":"CN-36-3610-361025","parent_region_code":"CN-36-3610","name":"乐安县","level":"county","has_children":false,"full_path":"中国 / 江西省 / 抚州市 / 乐安县","source_admin_code":"361025","osm_relation_id":3182598}},
{"type":"Feature","geometry":{"type":"Polygon","coordinates":[[[116.2575,27.6994],[116.2497,27.6923],[116.2489,27.6957],[116.2391,27.6923],[116.2344,27.6822],[116.2352,27.6772],[116.2409,27.6711],[116.2452,27.6716],[116.2479,27.6677],[116.2469,27.6548],[116.2389,27.6544],[116.2373,27.6499],[116.2254,27.6481],[116.2244,27.6353],[116.2328,27.6311],[116.2368,27.6341],[116.2432,27.6313],[116.2432,27.6275],[116.249,27.6198],[116.2454,27.6158],[116.2376,27.6145],[116.2376,27.6078],[116.2286,27.596],[116.2229,27.5945],[116.2093,27.5991],[116.2045,27.5949],[116.201,27.5972],[116.1844,27.6012],[116.1805,27.6044],[116.1785,27.6103],[116.1734,27.6115],[116.1679,27.61],[116.1652,27.6153],[116.1554,27.6164],[116.1559,27.6108],[116.152,27.606],[116.1497,27.5993],[116.144,27.5939],[116.1393,27.5937],[116.1385,27.5893],[116.1343,27.585],[116.1187,27.5764],[116.102,27.5703],[116.0931,27.5617],[116.0894,27.5651],[116.085,27.5635],[116.0801,27.5547],[116.0779,27.5481],[116.0892,27.5428],[116.0986,27.5453],[116.1182,27.5433],[116.1282,27.5367],[116.1326,27.5294],[116.137,27.526],[116.146,27.5147],[116.1514,27.5145],[116.1468,27.5053],[116.1355,27.506],[116.1289,27.5107],[116.1264,27.5083],[116.1186,27.5069],[116.1192,27.5005],[116.1176,27.4906],[116.1098,27.4891],[116.1074,27.484],[116.1016,27.4785],[116.1044,27.4722],[116.1093,27.4683],[116.1017,27.4622],[116.1018,27.4502],[116.1002,27.447],[116.1023,27.4425],[116.0999,27.4385],[116.0945,27.4388],[116.0879,27.4447],[116.084,27.4321],[116.081,27.429],[116.0647,27.421],[116.0664,27.4118],[116.071,27.4057],[116.0711,27.3952],[116.0734,27.3928],[116.0671,27.388],[116.0627,27.3779],[116.0573,27.3712],[116.0579,27.3608],[116.0569,27.356],[116.0506,27.3498],[116.0524,27.3451],[116.0505,27.3325],[116.0389,27.3299],[116.03,27.3203],[116.0225,27.3193],[116.0177,27.3131],[116.0236,27.3013],[116.0203,27.2969],[116.0227,27.2931],[116.0294,27.2896],[116.0298,27.2712],[116.0327,27.2637],[116.0332,27.2577],[116.0275,27.2461],[116.027,27.2385],[116.0239,27.2351],[116.0253,27.2212],[116.0315,27.2163],[116.0242,27.2075],[116.0198,27.2085],[116.0173,27.2015],[116.0174,27.1911],[116.0211,27.1826],[116.0262,27.1759],[116.0274,27.169],[116.0238,27.1614],[116.0225,27.1516],[116.0275,27.1491],[116.0289,27.142],[116.0257,27.1348],[116.0337,27.1319],[116.0451,27.1379],[116.0514,27.1338],[116.0628,27.1467],[116.0797,27.143],[116.0875,27.1452],[116.0978,27.1424],[116.1018,27.136],[116.109,27.1331],[116.1162,27.1396],[116.1198,27.1339],[116.1188,27.1253],[116.117,27.1221],[116.1241,27.115],[116.1192,27.1038],[116.1235,27.1006],[116.1286,27.0939],[116.1378,27.0936],[116.1402,27.0887],[116.1366,27.083],[116.1341,27.0708],[116.1398,27.0667],[116.1402,27.0603],[116.1436,27.0557],[116.1455,27.0496],[116.1501,27.049],[116.1528,27.0433],[116.1567,27.0423],[116.1612,27.0461],[116.1636,27.051],[116.1724,27.0565],[116.1803,27.0569],[116.1834,27.0562],[116.198,27.0627],[116.2035,27.0665],[116.2028,27.07],[116.2118,27.0747],[116.2152,27.0792],[116.2241,27.0799],[116.2255,27.0913],[116.2303,27.0969],[116.2287,27.1059],[116.2408,27.1193],[116.2497,27.1221],[116.2558,27.121],[116.2538,27.1269],[116.2541,27.1334],[116.2482,27.1392],[116.2574,27.1491],[116.2616,27.1611],[116.26,27.1645],[116.2684,27.1704],[116.278,27.1816],[116.2841,27.1815],[116.2899,27.1889],[116.2978,27.1934],[116.2993,27.2005],[116.3041,27.2051],[116.3183,27.2142],[116.3221,27.2115],[116.3488,27.2128],[116.3579,27.2159],[116.3631,27.2313],[116.3608,27.2383],[116.3559,27.2457],[116.3606,27.2549],[116.3621,27.2626],[116.3674,27.2705],[116.3733,27.2755],[116.3723,27.2815],[116.3764,27.2863],[116.379,27.2984],[116.3786,27.3108],[116.382,27.3121],[116.3928,27.3113],[116.3934,27.3149],[116.398,27.3187],[116.3958,27.3252],[116.4003,27.3292],[116.4047,27.3377],[116.4114,27.3405],[116.4075,27.3464],[116.4099,27.3534],[116.4156,27.3606],[116.4113,27.3648],[116.4173,27.3709],[116.4193,27.3809],[116.4182,27.3882],[116.4209,27.393],[116.4171,27.3947],[116.4118,27.3936],[116.4094,27.4011],[116.4141,27.4044],[116.4124,27.4125],[116.4157,27.4165],[116.4168,27.4216],[116.4204,27.4273],[116.421,27.4332],[116.4273,27.4382],[116.4223,27.4479],[116.426,27.4507],[116.4271,27.4563],[116.435,27.4627],[116.442,27.4666],[116.4486,27.4661],[116.4577,27.4676],[116.4635,27.4746],[116.4651,27.4836],[116.4743,27.4899],[116.4765,27.5016],[116.48,27.5075],[116.4754,27.5104],[116.4697,27.5085],[116.4627,27.5156],[116.4662,27.5226],[116.4705,27.5253],[116.4706,27.5294],[116.4654,27.5326],[116.4659,27.54],[116.4606,27.5421],[116.4557,27.5411],[116.4408,27.5461],[116.4344,27.5538],[116.4329,27.5599],[116.4356,27.5618],[116.4405,27.5719],[116.4442,27.5754],[116.4501,27.5715],[116.4548,27.5739],[116.4626,27.5732],[116.4665,27.5759],[116.4693,27.5832],[116.4702,27.5937],[116.4563,27.6003],[116.451,27.5956],[116.4477,27.5993],[116.4456,27.6053],[116.4378,27.6154],[116.433,27.6253],[116.4233,27.6323],[116.4201,27.6417],[116.4113,27.652],[116.4012,27.6577],[116.3882,27.6607],[116.3756,27.673],[116.3753,27.6779],[116.3626,27.6767],[116.3586,27.674],[116.351,27.6776],[116.3435,27.6709],[116.3339,27.6772],[116.3308,27.6767],[116.3301,27.6842],[116.3221,27.6856],[116.3206,27.6923],[116.3284,27.6939],[116.3273,27.6999],[116.3231,27.7032],[116.3175,27.699],[116.3125,27.6997],[116.3016,27.7039],[116.2931,27.7039],[116.2896,27.7017],[116.2864,27.7087],[116.2817,27.7119],[116.2832,27.7162],[116.2814,27.72],[116.2737,27.7199],[116.2695,27.7169],[116.2679,27.7083],[116.2638,27.7034],[116.2581,27.7044],[116.2575,27.6994]]]},"properties":{"region_code":"CN-36-3610-361026","parent_region_code":"CN-36-3610","name":"宜黄县","level":"county","has_children":false,"full_path":"中国 / 江西省 / 抚州市 / 宜黄县","source_admin_code":"361026","osm_relation_id":3182603}},
{"type":"Feature","geometry":{"type":"Polygon","coordinates":[[[116.611,27.7082],[116.6106,27.7025],[116.6122,27.6939],[116.6188,27.6928],[116.6222,27.6869],[116.6308,27.6912],[116.6422,27.6919],[116.6463,27.6893],[116.65,27.6935],[116.655,27.695],[116.6588,27.6926],[116.6638,27.694],[116.6671,27.6917],[116.6725,27.6934],[116.6803,27.6828],[116.6837,27.6847],[116.6831,27.6916],[116.6861,27.6952],[116.6871,27.7018],[116.6925,27.6997],[116.6969,27.7104],[116.6978,27.7157],[116.7032,27.7138],[116.7097,27.7139],[116.7152,27.7164],[116.7183,27.7129],[116.7179,27.7075],[116.7141,27.7038],[116.7176,27.6989],[116.7363,27.7008],[116.7482,27.7113],[116.7522,27.7178],[116.7579,27.7189],[116.7569,27.723],[116.7647,27.7338],[116.7638,27.7402],[116.7585,27.7398],[116.7619,27.7492],[116.766,27.752],[116.7679,27.7629],[116.7732,27.7656],[116.7744,27.7694],[116.78,27.7726],[116.7808,27.7773],[116.7863,27.7806],[116.7876,27.7854],[116.7787,27.7909],[116.7814,27.8005],[116.7801,27.8065],[116.7829,27.8231],[116.7865,27.8318],[116.7907,27.8304],[116.7951,27.8387],[116.8,27.8409],[116.8068,27.8518],[116.8182,27.8574],[116.8238,27.8652],[116.8313,27.8696],[116.8435,27.8688],[116.8467,27.8719],[116.8531,27.8741],[116.8609,27.8702],[116.8667,27.8689],[116.8719,27.872],[116.8787,27.872],[116.8851,27.8653],[116.8834,27.8565],[116.8856,27.8536],[116.8959,27.8573],[116.9027,27.852],[116.907,27.8594],[116.9148,27.8542],[116.9218,27.8521],[116.9288,27.8612],[116.9295,27.8681],[116.9386,27.8723],[116.9402,27.8674],[116.9489,27.8569],[116.9604,27.8492],[116.9645,27.8536],[116.9711,27.864],[116.9791,27.8677],[116.9799,27.8787],[116.9907,27.8764],[116.9967,27.8808],[117.0055,27.8822],[117.0079,27.8868],[117.0042,27.8937],[117.0045,27.8968],[117.0092,27.9021],[117.0092,27.9089],[117.015,27.9118],[117.0201,27.9167],[117.02,27.9209],[117.0242,27.9255],[117.0271,27.9346],[117.0399,27.9357],[117.0434,27.9414],[117.0421,27.9493],[117.0401,27.9509],[117.0405,27.9615],[117.0467,27.9679],[117.0439,27.9761],[117.04,27.9755],[117.0327,27.9803],[117.0216,27.9805],[117.0196,27.9852],[117.0044,27.9921],[116.9992,27.997],[117.0003,28.0013],[116.991,28.0078],[116.9843,28.0107],[116.9831,28.0151],[116.9766,28.0203],[116.9767,28.0288],[116.9721,28.0301],[116.9676,28.038],[116.9697,28.0455],[116.9599,28.0528],[116.9503,28.0501],[116.945,28.0501],[116.9369,28.0453],[116.9317,28.049],[116.9375,28.0521],[116.9397,28.059],[116.9381,28.0733],[116.9333,28.0723],[116.929,28.0866],[116.9285,28.0973],[116.9218,28.1011],[116.9169,28.0971],[116.9148,28.0917],[116.9114,28.0908],[116.9104,28.082],[116.9112,28.0752],[116.9088,28.0721],[116.9023,28.0753],[116.8954,28.0716],[116.8843,28.0717],[116.8831,28.0807],[116.8792,28.0864],[116.8701,28.0864],[116.8629,28.0898],[116.8553,28.0891],[116.8574,28.0806],[116.8541,28.0799],[116.8526,28.075],[116.848,28.074],[116.8483,28.0651],[116.8453,28.0599],[116.8457,28.0538],[116.8393,28.0534],[116.8327,28.0507],[116.831,28.0413],[116.8224,28.0405],[116.816,28.0338],[116.8118,28.035],[116.8051,28.0335],[116.8031,28.0381],[116.7937,28.0393],[116.7876,28.0469],[116.7819,28.0488],[116.7736,28.0447],[116.77,28.037],[116.7647,28.0334],[116.7516,28.0325],[116.7521,28.0394],[116.7565,28.0423],[116.7597,28.0477],[116.7558,28.051],[116.7563,28.0566],[116.7525,28.0605],[116.7557,28.063],[116.7539,28.0676],[116.7497,28.0699],[116.7414,28.0672],[116.7338,28.0773],[116.7366,28.0869],[116.7315,28.0897],[116.728,28.0996],[116.7212,28.104],[116.7133,28.1014],[116.7136,28.0971],[116.709,28.095],[116.7055,28.0886],[116.7,28.0854],[116.6997,28.0784],[116.695,28.0778],[116.6912,28.0806],[116.6878,28.0752],[116.6782,28.0787],[116.673,28.0825],[116.6703,28.0741],[116.6743,28.0662],[116.6812,28.0645],[116.6811,28.0549],[116.6773,28.0463],[116.6699,28.0426],[116.6651,28.0373],[116.6498,28.0478],[116.6503,28.0514],[116.6461,28.0604],[116.6408,28.0633],[116.6321,28.0613],[116.6279,28.0569],[116.6202,28.0526],[116.6159,28.0466],[116.6106,28.05],[116.604,28.0595],[116.5968,28.0593],[116.5938,28.0551],[116.5937,28.0491],[116.5881,28.0515],[116.5877,28.0559],[116.5829,28.0574],[116.5773,28.0625],[116.5659,28.0678],[116.56,28.0727],[116.5568,28.0788],[116.55,28.0797],[116.5453,28.0762],[116.5373,28.078],[116.5393,28.0701],[116.5344,28.061],[116.5305,28.0631],[116.5239,28.0598],[116.5202,28.0528],[116.5115,28.0533],[116.504,28.0507],[116.5004,28.0455],[116.4976,28.0373],[116.4908,28.0308],[116.4926,28.0256],[116.4994,28.0222],[116.5036,28.0228],[116.5059,28.0175],[116.5034,28.0097],[116.4965,28.0083],[116.49,28.0095],[116.4864,28.006],[116.486,28.0019],[116.4925,27.9986],[116.4937,27.9912],[116.4916,27.9869],[116.4925,27.9694],[116.4958,27.9671],[116.4946,27.9618],[116.4792,27.9478],[116.4755,27.9431],[116.4625,27.9366],[116.4573,27.9296],[116.4672,27.9237],[116.4717,27.9167],[116.48,27.9139],[116.4916,27.9153],[116.498,27.9183],[116.5066,27.919],[116.5141,27.9155],[116.5218,27.9165],[116.5343,27.9165],[116.5453,27.9104],[116.5544,27.9022],[116.5606,27.8943],[116.5621,27.8863],[116.5608,27.8831],[116.5664,27.8756],[116.5847,27.868],[116.5978,27.8608],[116.612,27.8514],[116.6151,27.847],[116.6171,27.8394],[116.6116,27.8296],[116.6104,27.8241],[116.6142,27.8134],[116.6177,27.8],[116.6238,27.7943],[116.6305,27.7929],[116.6431,27.7879],[116.6515,27.7766],[116.6526,27.7696],[116.6502,27.7623],[116.6433,27.7539],[116.6326,27.7508],[116.6354,27.7454],[116.6388,27.7467],[116.6417,27.7412],[116.6377,27.7368],[116.6374,27.7268],[116.6345,27.7141],[116.6288,27.7081],[116.6232,27.706],[116.6144,27.706],[116.611,27.7082]]]},"properties":{"region_code":"CN-36-3610-361027","parent_region_code":"CN-36-3610","name":"金溪县","level":"county","has_children":false,"full_path":"中国 / 江西省 / 抚州市 / 金溪县","source_admin_code":"361027","osm_relation_id":3182597}},
{"type":"Feature","geometry":{"type":"Polygon","coordinates":[[[116.9586,27.478],[116.9639,27.4804],[116.9642,27.4855],[116.9718,27.4903],[116.9743,27.4952],[116.9843,27.4973],[116.9922,27.5016],[116.996,27.5084],[116.9985,27.5172],[117.0008,27.5198],[117.0096,27.5203],[117.0098,27.5248],[117.0201,27.5239],[117.0212,27.53],[117.0267,27.5354],[117.034,27.5335],[117.0315,27.5404],[117.025,27.5458],[117.0323,27.5472],[117.0374,27.5507],[117.0326,27.5535],[117.0277,27.5538],[117.0189,27.5571],[117.0149,27.5602],[117.0116,27.5666],[117.0138,27.5717],[117.0193,27.5956],[117.0163,27.6031],[117.0084,27.6099],[117.011,27.6171],[117.0039,27.6215],[116.9983,27.6291],[117.0053,27.6365],[117.0086,27.6334],[117.0122,27.6362],[117.0165,27.6461],[117.0152,27.6561],[117.0209,27.6633],[117.0356,27.6735],[117.0461,27.6751],[117.0556,27.6724],[117.0601,27.6689],[117.0674,27.659],[117.0735,27.6542],[117.0734,27.6454],[117.0889,27.631],[117.0937,27.63],[117.1034,27.6341],[117.1004,27.6403],[117.1009,27.6455],[117.1067,27.6485],[117.097,27.666],[117.0912,27.6702],[117.0947,27.6803],[117.1001,27.6834],[117.1012,27.6889],[117.1059,27.6905],[117.1092,27.6952],[117.1163,27.6974],[117.1279,27.6905],[117.1379,27.692],[117.1453,27.6884],[117.1502,27.689],[117.1613,27.6847],[117.1675,27.6813],[117.1724,27.6811],[117.1811,27.6858],[117.1997,27.688],[117.1978,27.7063],[117.1985,27.7145],[117.201,27.719],[117.2099,27.7185],[117.2198,27.7221],[117.2294,27.7224],[117.2388,27.7212],[117.2434,27.7288],[117.2493,27.7324],[117.2564,27.7305],[117.2594,27.7321],[117.2604,27.7391],[117.2629,27.7435],[117.2746,27.753],[117.2711,27.7667],[117.2743,27.771],[117.2801,27.7677],[117.2896,27.7671],[117.2959,27.7751],[117.3005,27.7786],[117.3009,27.785],[117.2926,27.8016],[117.2952,27.8238],[117.2981,27.8333],[117.2971,27.8395],[117.2879,27.8478],[117.283,27.8457],[117.2782,27.8468],[117.2694,27.8527],[117.2654,27.8626],[117.2596,27.8634],[117.2563,27.8706],[117.2429,27.8737],[117.2407,27.8796],[117.2352,27.8829],[117.231,27.8913],[117.2162,27.8958],[117.213,27.8988],[117.2073,27.8976],[117.2023,27.8902],[117.188,27.8874],[117.1824,27.8925],[117.1788,27.8883],[117.1729,27.8873],[117.1718,27.891],[117.1676,27.8931],[117.1655,27.9007],[117.1576,27.9024],[117.1459,27.8918],[117.1384,27.8937],[117.1342,27.9],[117.127,27.9054],[117.1241,27.9136],[117.1187,27.9142],[117.1124,27.9112],[117.1086,27.9051],[117.1049,27.9034],[117.1053,27.8942],[117.1027,27.8839],[117.0973,27.8809],[117.093,27.8832],[117.0862,27.8918],[117.0848,27.8963],[117.0777,27.8953],[117.0777,27.8887],[117.0749,27.8839],[117.0677,27.8822],[117.0625,27.875],[117.0496,27.8632],[117.0448,27.8498],[117.0362,27.8487],[117.0312,27.8567],[117.0244,27.8568],[117.0184,27.8613],[117.0158,27.8691],[117.0166,27.8741],[117.0055,27.8822],[116.9967,27.8808],[116.9907,27.8764],[116.9799,27.8787],[116.9791,27.8677],[116.9711,27.864],[116.9645,27.8536],[116.9604,27.8492],[116.9489,27.8569],[116.9402,27.8674],[116.9386,27.8723],[116.9295,27.8681],[116.9288,27.8612],[116.9218,27.8521],[116.9148,27.8542],[116.907,27.8594],[116.9027,27.852],[116.8959,27.8573],[116.8856,27.8536],[116.8834,27.8565],[116.8851,27.8653],[116.8787,27.872],[116.8719,27.872],[116.8667,27.8689],[116.8609,27.8702],[116.8531,27.8741],[116.8467,27.8719],[116.8435,27.8688],[116.8313,27.8696],[116.8238,27.8652],[116.8182,27.8574],[116.8068,27.8518],[116.8,27.8409],[116.7951,27.8387],[116.7907,27.8304],[116.7865,27.8318],[116.7829,27.8231],[116.7801,27.8065],[116.7814,27.8005],[116.7787,27.7909],[116.7876,27.7854],[116.7943,27.779],[116.7914,27.7744],[116.7926,27.7708],[116.8028,27.774],[116.8049,27.7713],[116.8141,27.7736],[116.8215,27.7707],[116.8224,27.7611],[116.8128,27.7555],[116.8128,27.7447],[116.8226,27.7454],[116.831,27.7351],[116.8393,27.7417],[116.8522,27.7397],[116.8546,27.7346],[116.8535,27.73],[116.8575,27.7217],[116.866,27.7176],[116.8719,27.7204],[116.8802,27.7166],[116.8784,27.7109],[116.8745,27.7063],[116.8787,27.6946],[116.8746,27.6849],[116.8721,27.6821],[116.8662,27.6809],[116.8574,27.6846],[116.8555,27.6784],[116.8517,27.6771],[116.8503,27.6828],[116.8457,27.6869],[116.8346,27.6889],[116.828,27.685],[116.8346,27.6824],[116.8304,27.6773],[116.833,27.6723],[116.8303,27.6685],[116.8405,27.6503],[116.8384,27.6484],[116.8325,27.6339],[116.8287,27.6319],[116.8277,27.6265],[116.8392,27.6251],[116.8412,27.6186],[116.8376,27.6142],[116.8331,27.6127],[116.8329,27.608],[116.8376,27.6058],[116.8518,27.614],[116.8599,27.6227],[116.8639,27.6236],[116.8692,27.6204],[116.8697,27.6083],[116.8795,27.6009],[116.889,27.5977],[116.8928,27.595],[116.904,27.5901],[116.9035,27.5784],[116.8998,27.5701],[116.8931,27.5673],[116.8928,27.5617],[116.8845,27.5606],[116.8758,27.5629],[116.864,27.5545],[116.8682,27.5487],[116.8638,27.5428],[116.8677,27.5348],[116.888,27.5208],[116.9023,27.5259],[116.9138,27.529],[116.9244,27.5283],[116.9331,27.532],[116.9375,27.5294],[116.9336,27.5252],[116.9356,27.5138],[116.9309,27.5102],[116.9296,27.5057],[116.9339,27.5007],[116.9315,27.4945],[116.9367,27.4903],[116.9443,27.4911],[116.9426,27.4848],[116.9527,27.4863],[116.9526,27.4832],[116.9586,27.478]]]},"properties":{"region_code":"CN-36-3610-361028","parent_region_code":"CN-36-3610","name":"资溪县","level":"county","has_children":false,"full_path":"中国 / 江西省 / 抚州市 / 资溪县","source_admin_code":"361028","osm_relation_id":3182604}},
{"type":"Feature","geometry":{"type":"Polygon","coordinates":[[[116.1476,26.9547],[116.144,26.9519],[116.1436,26.9467],[116.1475,26.9424],[116.148,26.9341],[116.1459,26.9297],[116.1466,26.919],[116.1494,26.9156],[116.1546,26.9144],[116.1524,26.9088],[116.1541,26.9025],[116.1673,26.8988],[116.1649,26.893],[116.1596,26.8858],[116.1644,26.8763],[116.1625,26.8737],[116.153,26.8689],[116.148,26.8624],[116.1442,26.8512],[116.1387,26.8417],[116.1333,26.838],[116.1356,26.8305],[116.1353,26.8246],[116.1412,26.8235],[116.1493,26.8092],[116.1472,26.8043],[116.1391,26.796],[116.1381,26.7842],[116.1395,26.7771],[116.1342,26.7596],[116.1272,26.7545],[116.1267,26.7449],[116.12,26.7405],[116.1117,26.7333],[116.1144,26.7275],[116.1195,26.7276],[116.1196,26.7203],[116.1247,26.719],[116.131,26.7121],[116.1381,26.7174],[116.1442,26.7135],[116.15,26.701],[116.1561,26.7001],[116.1631,26.7037],[116.1695,26.7046],[116.1825,26.6988],[116.1857,26.6857],[116.192,26.6819],[116.1942,26.6749],[116.1915,26.6686],[116.1952,26.6663],[116.2004,26.6691],[116.2026,26.6663],[116.2079,26.6665],[116.2149,26.6704],[116.2173,26.6677],[116.219,26.6572],[116.2258,26.6581],[116.2295,26.6567],[116.2384,26.6584],[116.2438,26.6574],[116.2543,26.6636],[116.2567,26.6604],[116.2693,26.6614],[116.2698,26.654],[116.2722,26.6504],[116.2673,26.6427],[116.2608,26.642],[116.2514,26.6356],[116.2433,26.6276],[116.2363,26.6285],[116.2314,26.6214],[116.2443,26.6122],[116.2506,26.6105],[116.2597,26.6014],[116.2597,26.5975],[116.2647,26.5911],[116.266,26.5839],[116.2628,26.5781],[116.2628,26.5738],[116.2598,26.5702],[116.2482,26.5667],[116.2397,26.5596],[116.2354,26.551],[116.2435,26.5447],[116.2484,26.5451],[116.2544,26.5407],[116.2583,26.5404],[116.2635,26.5349],[116.2697,26.5329],[116.2686,26.5289],[116.2736,26.527],[116.2835,26.5197],[116.2852,26.5162],[116.2931,26.5113],[116.2945,26.5071],[116.3001,26.5021],[116.3079,26.5063],[116.3095,26.5089],[116.3191,26.5095],[116.3358,26.5156],[116.3492,26.5119],[116.3565,26.5139],[116.3608,26.5102],[116.3683,26.5109],[116.3721,26.5164],[116.3773,26.5189],[116.3804,26.5242],[116.377,26.5328],[116.373,26.5356],[116.3723,26.5397],[116.3782,26.5481],[116.386,26.5529],[116.3923,26.5551],[116.4075,26.5553],[116.4095,26.5585],[116.415,26.5592],[116.4202,26.5634],[116.4286,26.5637],[116.4298,26.5673],[116.4345,26.5705],[116.4404,26.5823],[116.4404,26.5901],[116.4421,26.5949],[116.4479,26.5962],[116.448,26.6022],[116.4528,26.6035],[116.461,26.6008],[116.4685,26.5941],[116.4666,26.5905],[116.4711,26.5849],[116.4772,26.5844],[116.4824,26.5794],[116.4922,26.5743],[116.4956,26.5696],[116.4957,26.5645],[116.4994,26.5512],[116.5098,26.5532],[116.5151,26.5587],[116.525,26.5605],[116.5346,26.5656],[116.5373,26.5733],[116.5414,26.5734],[116.5443,26.5821],[116.5508,26.5855],[116.5485,26.5885],[116.5528,26.5985],[116.5558,26.6003],[116.558,26.6064],[116.5579,26.6313],[116.5614,26.6397],[116.5598,26.6423],[116.5618,26.6478],[116.5665,26.6494],[116.5659,26.6559],[116.5617,26.6549],[116.5562,26.6488],[116.5516,26.647],[116.5452,26.6505],[116.546,26.6585],[116.5323,26.669],[116.5283,26.6699],[116.5266,26.6761],[116.5208,26.6804],[116.5203,26.6844],[116.5124,26.6897],[116.5097,26.6958],[116.5092,26.7028],[116.5114,26.712],[116.5047,26.7156],[116.5158,26.7294],[116.5277,26.7356],[116.5299,26.7426],[116.5386,26.7478],[116.5573,26.7609],[116.5591,26.7681],[116.5546,26.7726],[116.5487,26.7892],[116.5416,26.793],[116.5407,26.8012],[116.5382,26.8089],[116.5378,26.8157],[116.541,26.8192],[116.54,26.8263],[116.5453,26.842],[116.5534,26.8471],[116.5554,26.8521],[116.5553,26.8583],[116.5522,26.861],[116.5445,26.8629],[116.534,26.8673],[116.5357,26.8704],[116.5295,26.873],[116.5281,26.8772],[116.5206,26.8814],[116.5052,26.8874],[116.5132,26.8973],[116.5137,26.9002],[116.505,26.903],[116.5031,26.9125],[116.5102,26.9227],[116.5054,26.9269],[116.5085,26.9361],[116.5049,26.9407],[116.5023,26.9502],[116.5067,26.9587],[116.5114,26.9626],[116.5097,26.9731],[116.5034,26.9749],[116.4966,26.9738],[116.4977,26.9608],[116.4928,26.9614],[116.4852,26.9585],[116.4826,26.9602],[116.484,26.9689],[116.4799,26.9713],[116.4737,26.966],[116.4646,26.9694],[116.4577,26.9605],[116.4511,26.9588],[116.4467,26.9607],[116.4371,26.9549],[116.4313,26.9536],[116.4266,26.9579],[116.4231,26.9545],[116.4037,26.9564],[116.391,26.9516],[116.3824,26.9555],[116.3766,26.9534],[116.3734,26.9554],[116.3708,26.9653],[116.368,26.9694],[116.3631,26.9698],[116.3591,26.9783],[116.3551,26.9768],[116.3498,26.9781],[116.3458,26.9712],[116.3441,26.9628],[116.3399,26.9609],[116.3306,26.9627],[116.3201,26.9563],[116.3121,26.9503],[116.3101,26.9464],[116.3043,26.9505],[116.2985,26.9474],[116.2995,26.9412],[116.2862,26.9397],[116.2772,26.9344],[116.2664,26.9315],[116.2613,26.9256],[116.2637,26.9153],[116.2613,26.9124],[116.2526,26.9106],[116.2495,26.9135],[116.2441,26.914],[116.2419,26.9202],[116.243,26.9358],[116.2321,26.9406],[116.234,26.9517],[116.2371,26.9525],[116.2487,26.9593],[116.2467,26.9652],[116.2343,26.9626],[116.2329,26.9648],[116.2247,26.9637],[116.21,26.9574],[116.2007,26.9568],[116.1984,26.9521],[116.1937,26.9517],[116.1929,26.958],[116.1975,26.9568],[116.2063,26.9624],[116.2007,26.968],[116.1952,26.9664],[116.1905,26.9676],[116.1872,26.9651],[116.1823,26.9526],[116.1849,26.9454],[116.1798,26.9414],[116.1764,26.9495],[116.1671,26.9508],[116.1603,26.953],[116.1579,26.9575],[116.1527,26.9529],[116.1476,26.9547]]]},"properties":{"region_code":"CN-36-3610-361030","parent_region_code":"CN-36-3610","name":"广昌县","level":"county","has_children":false,"full_path":"中国 / 江西省 / 抚州市 / 广昌县","source_admin_code":"361030","osm_relation_id":3182596}}
]}