{"type":"FeatureCollection", "features": [
{"type":"Feature","geometry":{"type":"Polygon","coordinates":[[[118.4914,30.8211],[118.5073,30.822],[118.5016,30.8312],[118.5097,30.8366],[118.5142,30.8263],[118.5195,30.8242],[118.5222,30.8135],[118.519,30.8056],[118.5231,30.7975],[118.5101,30.7968],[118.5015,30.7992],[118.5022,30.7896],[118.5245,30.786],[118.5338,30.7742],[118.5423,30.757],[118.5539,30.7553],[118.5695,30.7705],[118.5893,30.757],[118.6008,30.7514],[118.6113,30.75],[118.6171,30.7455],[118.6252,30.729],[118.6293,30.7264],[118.6271,30.7157],[118.6281,30.7037],[118.6414,30.6952],[118.6529,30.6959],[118.6477,30.6856],[118.648,30.6766],[118.6428,30.6711],[118.6509,30.6637],[118.6606,30.665],[118.6696,30.6482],[118.6666,30.6403],[118.6683,30.6268],[118.6629,30.6247],[118.6498,30.6007],[118.6554,30.5955],[118.6607,30.5969],[118.6704,30.5907],[118.6697,30.5832],[118.6832,30.5679],[118.6911,30.5616],[118.7036,30.5733],[118.7159,30.5757],[118.7273,30.5732],[118.75,30.5792],[118.7449,30.5977],[118.7546,30.5964],[118.7661,30.6012],[118.7708,30.6081],[118.782,30.6139],[118.7958,30.6117],[118.8066,30.6195],[118.8117,30.6283],[118.8102,30.6367],[118.814,30.6539],[118.8232,30.6549],[118.8319,30.6742],[118.83,30.684],[118.8212,30.7073],[118.8253,30.7146],[118.841,30.7243],[118.8763,30.7291],[118.8788,30.7401],[118.8985,30.7463],[118.9189,30.7465],[118.9271,30.7555],[118.9365,30.7592],[118.9634,30.7489],[118.9751,30.7397],[118.9798,30.742],[118.9878,30.7389],[118.9944,30.7474],[119.004,30.7422],[118.9991,30.7345],[119.008,30.7333],[119.0103,30.7451],[119.0147,30.7464],[119.0196,30.7568],[119.027,30.7641],[119.0399,30.7729],[119.046,30.7721],[119.0568,30.7853],[119.0606,30.7957],[119.0689,30.7964],[119.0642,30.8119],[119.0604,30.8193],[119.0477,30.8226],[119.0315,30.8229],[119.0266,30.8336],[119.0096,30.8396],[119.0055,30.8494],[119.0049,30.8615],[118.9936,30.8687],[119.0052,30.882],[119.0092,30.8899],[119.0217,30.9056],[119.0263,30.9089],[119.0266,30.9235],[119.0404,30.9291],[119.0311,30.9347],[119.0305,30.9414],[119.0346,30.9478],[119.0288,30.9592],[119.0224,30.9612],[119.0256,30.9742],[119.042,30.9956],[119.0328,31.0065],[119.0169,31.017],[119.0168,31.0283],[119.0091,31.0313],[119.0058,31.0422],[119.0058,31.0513],[119.0024,31.0616],[118.9911,31.0847],[118.9879,31.0983],[118.9814,31.1498],[118.9974,31.1646],[119.0046,31.1667],[119.0144,31.1792],[119.0261,31.1813],[119.0297,31.1764],[119.0412,31.1747],[119.043,31.1801],[119.0384,31.1888],[119.0303,31.1981],[119.0282,31.2118],[119.0226,31.2134],[119.0294,31.2386],[119.009,31.2433],[118.9984,31.2361],[118.9816,31.2331],[118.9796,31.2398],[118.9688,31.241],[118.9487,31.2395],[118.9442,31.2369],[118.934,31.2415],[118.923,31.2423],[118.9135,31.2463],[118.8998,31.235],[118.8825,31.2323],[118.8761,31.241],[118.8651,31.2446],[118.8455,31.2417],[118.8312,31.2361],[118.8266,31.2316],[118.8192,31.2326],[118.8151,31.2379],[118.8041,31.2364],[118.7982,31.2303],[118.7902,31.2314],[118.7787,31.2393],[118.7744,31.2455],[118.7747,31.2623],[118.7581,31.2782],[118.7485,31.282],[118.7219,31.2843],[118.7207,31.2943],[118.7134,31.2971],[118.7147,31.3245],[118.7084,31.3229],[118.6992,31.31],[118.69,31.3114],[118.674,31.3065],[118.6678,31.3081],[118.6524,31.3072],[118.6562,31.2927],[118.6545,31.2716],[118.6479,31.2654],[118.6425,31.2487],[118.6581,31.2398],[118.6649,31.2259],[118.6773,31.2156],[118.684,31.2008],[118.6954,31.1857],[118.7034,31.1796],[118.7127,31.1771],[118.7265,31.1559],[118.7232,31.1474],[118.7163,31.1483],[118.7005,31.1403],[118.7003,31.1341],[118.69,31.1319],[118.6796,31.1214],[118.6857,31.1101],[118.6789,31.1018],[118.6862,31.0992],[118.6733,31.0905],[118.6723,31.0851],[118.6797,31.0772],[118.675,31.0686],[118.6518,31.0597],[118.6534,31.048],[118.6359,31.0332],[118.6315,31.0264],[118.6239,31.0229],[118.6111,31.0247],[118.6056,31.0286],[118.5991,31.0407],[118.5907,31.0466],[118.5808,31.0428],[118.5779,31.0242],[118.5677,31.0176],[118.5705,31.0025],[118.5789,30.9931],[118.5659,30.9698],[118.5479,30.9753],[118.5313,30.9677],[118.5239,30.9569],[118.5089,30.9557],[118.5093,30.9414],[118.4891,30.9427],[118.5055,30.9292],[118.5079,30.9187],[118.4848,30.9025],[118.4891,30.8914],[118.4863,30.8833],[118.4806,30.8801],[118.4672,30.8832],[118.4689,30.8748],[118.4782,30.8727],[118.4797,30.8655],[118.4937,30.8606],[118.482,30.85],[118.4852,30.844],[118.4774,30.8415],[118.473,30.8342],[118.4782,30.8255],[118.4914,30.8211]],[[118.619,30.9309],[118.6209,30.9249],[118.6277,30.9219],[118.6318,30.9121],[118.6444,30.9064],[118.6393,30.9005],[118.6339,30.8874],[118.6337,30.8754],[118.6385,30.8726],[118.6404,30.8632],[118.6269,30.874],[118.6126,30.8736],[118.6135,30.8629],[118.6081,30.8602],[118.5928,30.8621],[118.5886,30.8678],[118.573,30.8676],[118.5669,30.8804],[118.5835,30.8978],[118.5731,30.9045],[118.5756,30.915],[118.5738,30.9264],[118.5832,30.9276],[118.6052,30.9251],[118.6159,30.9335],[118.619,30.9309]]]},"properties":{"region_code":"CN-34-3418-341802","parent_region_code":"CN-34-3418","name":"宣州区","level":"county","has_children":false,"full_path":"中国 / 安徽省 / 宣城市 / 宣州区","source_admin_code":"341802","osm_relation_id":3222247}},
{"type":"Feature","geometry":{"type":"MultiPolygon","coordinates":[[[[119.3009,31.0145],[119.3227,31.0185],[119.32,31.0295],[119.3224,31.0364],[119.3193,31.0411],[119.3062,31.0323],[119.3095,31.0215],[119.3008,31.0202],[119.3009,31.0145]]],[[[119.0642,30.8119],[119.0681,30.8192],[119.0798,30.8294],[119.0827,30.8374],[119.0773,30.8458],[119.0794,30.8536],[119.0861,30.859],[119.0827,30.8642],[119.0904,30.869],[119.1036,30.8663],[119.1076,30.8774],[119.1167,30.8835],[119.1291,30.8871],[119.1331,30.8946],[119.1332,30.9159],[119.1317,30.9278],[119.1388,30.9328],[119.1438,30.9286],[119.1533,30.9279],[119.1579,30.934],[119.1663,30.9367],[119.1642,30.9499],[119.1603,30.9593],[119.183,30.9753],[119.1995,30.9687],[119.2147,30.9681],[119.2266,30.9787],[119.2289,30.9841],[119.2239,30.9917],[119.2271,30.9959],[119.2229,31.0021],[119.2251,31.0111],[119.2446,31.0252],[119.2504,31.0218],[119.2574,31.0239],[119.2753,31.0372],[119.2858,31.0302],[119.294,31.0323],[119.2991,31.0286],[119.3037,31.0421],[119.2935,31.0529],[119.2934,31.0651],[119.3089,31.0596],[119.3139,31.05],[119.3207,31.043],[119.3263,31.0524],[119.3204,31.059],[119.3249,31.0746],[119.3303,31.0775],[119.3139,31.0916],[119.3142,31.0993],[119.3071,31.106],[119.3043,31.1147],[119.2888,31.1188],[119.2821,31.1271],[119.2916,31.1386],[119.299,31.1369],[119.3005,31.1455],[119.3067,31.1507],[119.3153,31.1488],[119.3351,31.1507],[119.335,31.1551],[119.3503,31.1666],[119.3478,31.1729],[119.3527,31.1779],[119.3555,31.1908],[119.3603,31.1961],[119.3555,31.2139],[119.3613,31.2207],[119.3595,31.233],[119.3561,31.2384],[119.3695,31.2495],[119.3698,31.2603],[119.3759,31.2615],[119.3752,31.2715],[119.3647,31.2721],[119.367,31.2795],[119.3605,31.2869],[119.3562,31.3014],[119.3439,31.3031],[119.3468,31.2858],[119.3425,31.279],[119.3356,31.2772],[119.3411,31.2652],[119.3407,31.2598],[119.308,31.2696],[119.2965,31.2713],[119.2825,31.2601],[119.2776,31.2624],[119.2695,31.2565],[119.2608,31.256],[119.2505,31.2667],[119.2453,31.265],[119.2439,31.2578],[119.2339,31.2562],[119.2206,31.2689],[119.2133,31.2701],[119.2094,31.276],[119.2022,31.2748],[119.2002,31.2685],[119.1933,31.2696],[119.1917,31.2761],[119.1948,31.2976],[119.1864,31.2971],[119.1755,31.3022],[119.1702,31.2955],[119.1637,31.294],[119.1528,31.2968],[119.1455,31.2937],[119.1461,31.2852],[119.1429,31.2762],[119.1276,31.2654],[119.1152,31.2637],[119.1063,31.256],[119.0989,31.2558],[119.0981,31.2461],[119.092,31.2423],[119.0799,31.2404],[119.0725,31.2344],[119.0642,31.2395],[119.0522,31.2399],[119.0443,31.2331],[119.0355,31.2389],[119.0294,31.2386],[119.0226,31.2134],[119.0282,31.2118],[119.0303,31.1981],[119.0384,31.1888],[119.043,31.1801],[119.0412,31.1747],[119.0297,31.1764],[119.0261,31.1813],[119.0144,31.1792],[119.0046,31.1667],[118.9974,31.1646],[118.9814,31.1498],[118.9879,31.0983],[118.9911,31.0847],[119.0024,31.0616],[119.0058,31.0513],[119.0058,31.0422],[119.0091,31.0313],[119.0168,31.0283],[119.0169,31.017],[119.0328,31.0065],[119.042,30.9956],[119.0256,30.9742],[119.0224,30.9612],[119.0288,30.9592],[119.0346,30.9478],[119.0305,30.9414],[119.0311,30.9347],[119.0404,30.9291],[119.0266,30.9235],[119.0263,30.9089],[119.0217,30.9056],[119.0092,30.8899],[119.0052,30.882],[118.9936,30.8687],[119.0049,30.8615],[119.0055,30.8494],[119.0096,30.8396],[119.0266,30.8336],[119.0315,30.8229],[119.0477,30.8226],[119.0604,30.8193],[119.0642,30.8119]],[[119.2462,31.1421],[119.2522,31.1438],[119.2552,31.1365],[119.2615,31.1324],[119.2566,31.119],[119.2463,31.1258],[119.243,31.1343],[119.2462,31.1421]]]]},"properties":{"region_code":"CN-34-3418-341821","parent_region_code":"CN-34-3418","name":"郎溪县","level":"county","has_children":false,"full_path":"中国 / 安徽省 / 宣城市 / 郎溪县","source_admin_code":"341821","osm_relation_id":3222245}},
{"type":"Feature","geometry":{"type":"Polygon","coordinates":[[[118.4914,30.8211],[118.498,30.8128],[118.4985,30.8071],[118.4777,30.7909],[118.4737,30.7812],[118.4749,30.7662],[118.4651,30.7636],[118.4607,30.7701],[118.4457,30.7822],[118.4491,30.7964],[118.4477,30.8013],[118.4332,30.8006],[118.4271,30.797],[118.4169,30.806],[118.4086,30.8185],[118.4175,30.8197],[118.421,30.8411],[118.4159,30.841],[118.4046,30.8482],[118.3929,30.844],[118.3763,30.8527],[118.3455,30.8371],[118.3423,30.8266],[118.333,30.829],[118.3134,30.824],[118.3068,30.8126],[118.3025,30.8112],[118.2973,30.7961],[118.2994,30.7877],[118.2958,30.7747],[118.2887,30.7762],[118.2876,30.767],[118.2924,30.7643],[118.2903,30.7566],[118.2831,30.7562],[118.2787,30.7476],[118.2707,30.7421],[118.2732,30.733],[118.2779,30.7282],[118.287,30.7298],[118.2911,30.7178],[118.3027,30.7187],[118.3093,30.7114],[118.305,30.7021],[118.284,30.7026],[118.2756,30.7128],[118.2626,30.715],[118.2558,30.7132],[118.2466,30.7046],[118.2442,30.6991],[118.2238,30.7065],[118.2196,30.7142],[118.211,30.7169],[118.206,30.708],[118.1975,30.7029],[118.1927,30.707],[118.1778,30.6963],[118.1682,30.6936],[118.1677,30.6877],[118.156,30.6866],[118.1534,30.6724],[118.1439,30.6673],[118.137,30.6582],[118.1281,30.6526],[118.1225,30.6446],[118.1168,30.6531],[118.105,30.6486],[118.1008,30.6431],[118.0938,30.6415],[118.0807,30.628],[118.0744,30.626],[118.0709,30.6159],[118.0576,30.5982],[118.0463,30.6045],[118.0359,30.6065],[118.0364,30.5952],[118.0245,30.5867],[118.0176,30.5761],[118.0086,30.5745],[117.9836,30.5748],[117.9781,30.564],[117.9813,30.5452],[117.9772,30.5277],[117.9707,30.5262],[117.9623,30.5171],[117.9719,30.5122],[117.9835,30.4996],[117.9923,30.4976],[118.0115,30.5025],[118.0238,30.496],[118.0308,30.5027],[118.0398,30.5044],[118.0571,30.5134],[118.0627,30.5194],[118.0693,30.5142],[118.0749,30.5161],[118.0974,30.5171],[118.1206,30.5086],[118.1255,30.5022],[118.1156,30.4967],[118.1117,30.484],[118.1125,30.4751],[118.1043,30.4762],[118.0963,30.469],[118.0986,30.4606],[118.1081,30.4499],[118.1026,30.4333],[118.1072,30.4287],[118.1196,30.4253],[118.1258,30.4319],[118.1326,30.4309],[118.1394,30.4364],[118.1512,30.4356],[118.1575,30.4461],[118.1644,30.4503],[118.1675,30.4624],[118.1759,30.4653],[118.1791,30.4709],[118.1878,30.4664],[118.191,30.4709],[118.2083,30.469],[118.2086,30.4628],[118.2201,30.4575],[118.2264,30.4481],[118.2222,30.4418],[118.2102,30.4407],[118.2131,30.4308],[118.2178,30.4264],[118.2162,30.4168],[118.2326,30.4029],[118.2396,30.4025],[118.2515,30.3923],[118.2507,30.3809],[118.2605,30.3788],[118.273,30.3828],[118.2752,30.3748],[118.2855,30.3712],[118.2944,30.3724],[118.2967,30.3796],[118.292,30.3907],[118.2927,30.3955],[118.3014,30.4008],[118.3173,30.4065],[118.3239,30.4048],[118.3281,30.3981],[118.3402,30.4006],[118.3567,30.4107],[118.3577,30.4239],[118.3632,30.4243],[118.3776,30.4195],[118.3835,30.4203],[118.3879,30.4286],[118.3979,30.4332],[118.4054,30.4275],[118.4149,30.4311],[118.4189,30.4269],[118.4195,30.4175],[118.4348,30.4141],[118.4361,30.4098],[118.4476,30.4062],[118.4595,30.3928],[118.4711,30.395],[118.4747,30.3987],[118.4947,30.3973],[118.5051,30.4016],[118.5078,30.4154],[118.5197,30.4198],[118.5257,30.418],[118.544,30.4251],[118.5547,30.421],[118.5664,30.4267],[118.572,30.4395],[118.5852,30.4464],[118.5883,30.4583],[118.5946,30.465],[118.5949,30.4759],[118.602,30.4853],[118.6091,30.4859],[118.616,30.4917],[118.6294,30.5168],[118.6273,30.5261],[118.615,30.5332],[118.6173,30.5527],[118.6301,30.5569],[118.6432,30.5694],[118.6381,30.5766],[118.6554,30.5955],[118.6498,30.6007],[118.6629,30.6247],[118.6683,30.6268],[118.6666,30.6403],[118.6696,30.6482],[118.6606,30.665],[118.6509,30.6637],[118.6428,30.6711],[118.648,30.6766],[118.6477,30.6856],[118.6529,30.6959],[118.6414,30.6952],[118.6281,30.7037],[118.6271,30.7157],[118.6293,30.7264],[118.6252,30.729],[118.6171,30.7455],[118.6113,30.75],[118.6008,30.7514],[118.5893,30.757],[118.5695,30.7705],[118.5539,30.7553],[118.5423,30.757],[118.5338,30.7742],[118.5245,30.786],[118.5022,30.7896],[118.5015,30.7992],[118.5101,30.7968],[118.5231,30.7975],[118.519,30.8056],[118.5222,30.8135],[118.5195,30.8242],[118.5142,30.8263],[118.5097,30.8366],[118.5016,30.8312],[118.5073,30.822],[118.4914,30.8211]]]},"properties":{"region_code":"CN-34-3418-341823","parent_region_code":"CN-34-3418","name":"泾县","level":"county","has_children":false,"full_path":"中国 / 安徽省 / 宣城市 / 泾县","source_admin_code":"341823","osm_relation_id":3164905}},
{"type":"Feature","geometry":{"type":"Polygon","coordinates":[[[118.6907,30.3268],[118.6805,30.333],[118.6671,30.3368],[118.6573,30.3376],[118.6422,30.3345],[118.6292,30.3238],[118.6227,30.3099],[118.6261,30.3004],[118.6225,30.2976],[118.6076,30.2965],[118.6097,30.2812],[118.5961,30.2748],[118.5927,30.268],[118.5966,30.2584],[118.5897,30.2529],[118.5821,30.2521],[118.5563,30.2439],[118.5498,30.2297],[118.5431,30.2233],[118.5264,30.2169],[118.5092,30.2166],[118.4906,30.212],[118.4886,30.2183],[118.4806,30.2207],[118.472,30.2127],[118.4633,30.2196],[118.4558,30.2215],[118.4417,30.2185],[118.4402,30.214],[118.4284,30.1995],[118.432,30.1954],[118.4312,30.1849],[118.4135,30.1731],[118.4092,30.1568],[118.402,30.1499],[118.3921,30.1464],[118.3834,30.1218],[118.3629,30.1248],[118.3541,30.1208],[118.3469,30.1118],[118.362,30.1027],[118.3675,30.0973],[118.3776,30.0975],[118.3868,30.1097],[118.393,30.1085],[118.4023,30.1006],[118.4115,30.097],[118.4326,30.1069],[118.4441,30.096],[118.4587,30.0982],[118.4633,30.0876],[118.4731,30.0834],[118.4754,30.0778],[118.4841,30.0837],[118.4919,30.0822],[118.4947,30.0722],[118.4858,30.0654],[118.4961,30.0607],[118.5053,30.0506],[118.5098,30.032],[118.505,30.0256],[118.4946,30.0221],[118.5006,30.0102],[118.4965,30.0008],[118.5025,29.9874],[118.5134,29.9709],[118.5195,29.967],[118.5255,29.9713],[118.5357,29.9652],[118.541,29.9551],[118.5534,29.9646],[118.5644,29.9653],[118.5644,29.9747],[118.5744,29.9768],[118.5918,29.9832],[118.6074,29.9829],[118.6105,29.9891],[118.6097,30.006],[118.6316,30.0261],[118.6392,30.0282],[118.6532,30.0239],[118.6722,30.0277],[118.6925,30.0353],[118.6883,30.0431],[118.6915,30.0551],[118.7008,30.0658],[118.72,30.0689],[118.7319,30.0668],[118.7353,30.0735],[118.737,30.0904],[118.7406,30.0933],[118.7588,30.0731],[118.7674,30.0812],[118.7713,30.0781],[118.7908,30.0823],[118.8032,30.0904],[118.8041,30.0966],[118.8157,30.0998],[118.8253,30.1079],[118.8373,30.1091],[118.8498,30.1147],[118.8581,30.1108],[118.8606,30.1241],[118.8509,30.1212],[118.8548,30.1329],[118.8603,30.1366],[118.8768,30.127],[118.888,30.1315],[118.8948,30.1467],[118.8859,30.1524],[118.8748,30.1353],[118.8691,30.1418],[118.8604,30.1407],[118.8485,30.1562],[118.8411,30.1565],[118.8435,30.1658],[118.8706,30.1744],[118.889,30.1823],[118.8946,30.1824],[118.9108,30.2007],[118.9225,30.2039],[118.9174,30.2162],[118.8995,30.2177],[118.8996,30.2264],[118.8911,30.2311],[118.8859,30.2386],[118.8792,30.2399],[118.8772,30.2523],[118.8851,30.2543],[118.8902,30.2604],[118.8873,30.2681],[118.8782,30.2763],[118.8729,30.2857],[118.8789,30.3044],[118.8756,30.3172],[118.8643,30.3145],[118.8453,30.3064],[118.8321,30.2952],[118.8224,30.2914],[118.8194,30.2864],[118.8058,30.2867],[118.7988,30.2938],[118.7812,30.291],[118.7746,30.2956],[118.7657,30.2944],[118.7538,30.3011],[118.7385,30.2996],[118.7222,30.2918],[118.7074,30.2907],[118.6984,30.2849],[118.6856,30.2852],[118.68,30.2727],[118.6847,30.2676],[118.682,30.2556],[118.6672,30.2513],[118.6598,30.2651],[118.6609,30.2747],[118.6596,30.2961],[118.6552,30.3039],[118.6658,30.3091],[118.6744,30.3215],[118.6894,30.317],[118.6907,30.3268]]]},"properties":{"region_code":"CN-34-3418-341824","parent_region_code":"CN-34-3418","name":"绩溪县","level":"county","has_children":false,"full_path":"中国 / 安徽省 / 宣城市 / 绩溪县","source_admin_code":"341824","osm_relation_id":3222244}},
{"type":"Feature","geometry":{"type":"MultiPolygon","coordinates":[[[[118.6856,30.2852],[118.6848,30.2899],[118.6911,30.2977],[118.6883,30.304],[118.6894,30.317],[118.6744,30.3215],[118.6658,30.3091],[118.6552,30.3039],[118.6596,30.2961],[118.6609,30.2747],[118.6598,30.2651],[118.6672,30.2513],[118.682,30.2556],[118.6847,30.2676],[118.68,30.2727],[118.6856,30.2852]]],[[[118.2944,30.3724],[118.29,30.3608],[118.3004,30.3538],[118.2946,30.3432],[118.2969,30.3321],[118.305,30.323],[118.3052,30.3144],[118.2957,30.3113],[118.2974,30.3013],[118.3069,30.2954],[118.3154,30.2962],[118.3139,30.2867],[118.2885,30.2857],[118.2797,30.2819],[118.2693,30.2722],[118.2719,30.26],[118.2565,30.2536],[118.2631,30.2483],[118.2655,30.2341],[118.2781,30.2367],[118.2885,30.2304],[118.287,30.2248],[118.2906,30.2178],[118.2851,30.203],[118.2895,30.1957],[118.3084,30.198],[118.3255,30.1703],[118.334,30.1714],[118.3404,30.1636],[118.3295,30.1573],[118.3384,30.1487],[118.3378,30.1373],[118.3541,30.1208],[118.3629,30.1248],[118.3834,30.1218],[118.3921,30.1464],[118.402,30.1499],[118.4092,30.1568],[118.4135,30.1731],[118.4312,30.1849],[118.432,30.1954],[118.4284,30.1995],[118.4402,30.214],[118.4417,30.2185],[118.4558,30.2215],[118.4633,30.2196],[118.472,30.2127],[118.4806,30.2207],[118.4886,30.2183],[118.4906,30.212],[118.5092,30.2166],[118.5264,30.2169],[118.5431,30.2233],[118.5498,30.2297],[118.5563,30.2439],[118.5821,30.2521],[118.5897,30.2529],[118.5966,30.2584],[118.5927,30.268],[118.5961,30.2748],[118.6097,30.2812],[118.6076,30.2965],[118.6225,30.2976],[118.6261,30.3004],[118.6227,30.3099],[118.6292,30.3238],[118.6422,30.3345],[118.6573,30.3376],[118.6671,30.3368],[118.6805,30.333],[118.6907,30.3268],[118.6967,30.3307],[118.7059,30.3474],[118.7034,30.3554],[118.7076,30.3602],[118.7199,30.3618],[118.7247,30.377],[118.7371,30.3817],[118.7197,30.3928],[118.701,30.3927],[118.6917,30.3902],[118.6851,30.3953],[118.6853,30.401],[118.6705,30.4066],[118.668,30.414],[118.6766,30.4216],[118.6734,30.4279],[118.6784,30.4379],[118.669,30.4423],[118.6648,30.4523],[118.6682,30.4639],[118.6656,30.4679],[118.6543,30.4698],[118.6405,30.4937],[118.6251,30.4869],[118.616,30.4917],[118.6091,30.4859],[118.602,30.4853],[118.5949,30.4759],[118.5946,30.465],[118.5883,30.4583],[118.5852,30.4464],[118.572,30.4395],[118.5664,30.4267],[118.5547,30.421],[118.544,30.4251],[118.5257,30.418],[118.5197,30.4198],[118.5078,30.4154],[118.5051,30.4016],[118.4947,30.3973],[118.4747,30.3987],[118.4711,30.395],[118.4595,30.3928],[118.4476,30.4062],[118.4361,30.4098],[118.4348,30.4141],[118.4195,30.4175],[118.4189,30.4269],[118.4149,30.4311],[118.4054,30.4275],[118.3979,30.4332],[118.3879,30.4286],[118.3835,30.4203],[118.3776,30.4195],[118.3632,30.4243],[118.3577,30.4239],[118.3567,30.4107],[118.3402,30.4006],[118.3281,30.3981],[118.3239,30.4048],[118.3173,30.4065],[118.3014,30.4008],[118.2927,30.3955],[118.292,30.3907],[118.2967,30.3796],[118.2944,30.3724]]]]},"properties":{"region_code":"CN-34-3418-341825","parent_region_code":"CN-34-3418","name":"旌德县","level":"county","has_children":false,"full_path":"中国 / 安徽省 / 宣城市 / 旌德县","source_admin_code":"341825","osm_relation_id":3222243}},
{"type":"Feature","geometry":{"type":"MultiPolygon","coordinates":[[[[118.6385,30.8726],[118.6342,30.8701],[118.6162,30.8855],[118.6011,30.8826],[118.6046,30.8941],[118.6132,30.9006],[118.6122,30.9073],[118.6052,30.9134],[118.6117,30.9254],[118.619,30.9309],[118.6159,30.9335],[118.6052,30.9251],[118.5832,30.9276],[118.5738,30.9264],[118.5756,30.915],[118.5731,30.9045],[118.5835,30.8978],[118.5669,30.8804],[118.573,30.8676],[118.5886,30.8678],[118.5928,30.8621],[118.6081,30.8602],[118.6135,30.8629],[118.6126,30.8736],[118.6269,30.874],[118.6404,30.8632],[118.6385,30.8726]]],[[[118.6554,30.5955],[118.6381,30.5766],[118.6432,30.5694],[118.6301,30.5569],[118.6173,30.5527],[118.615,30.5332],[118.6273,30.5261],[118.6294,30.5168],[118.616,30.4917],[118.6251,30.4869],[118.6405,30.4937],[118.6543,30.4698],[118.6656,30.4679],[118.6682,30.4639],[118.6648,30.4523],[118.669,30.4423],[118.6784,30.4379],[118.6734,30.4279],[118.6766,30.4216],[118.668,30.414],[118.6705,30.4066],[118.6853,30.401],[118.6851,30.3953],[118.6917,30.3902],[118.701,30.3927],[118.7197,30.3928],[118.7371,30.3817],[118.7247,30.377],[118.7199,30.3618],[118.7076,30.3602],[118.7034,30.3554],[118.7059,30.3474],[118.6967,30.3307],[118.6907,30.3268],[118.6894,30.317],[118.6883,30.304],[118.6911,30.2977],[118.6848,30.2899],[118.6856,30.2852],[118.6984,30.2849],[118.7074,30.2907],[118.7222,30.2918],[118.7385,30.2996],[118.7538,30.3011],[118.7657,30.2944],[118.7746,30.2956],[118.7812,30.291],[118.7988,30.2938],[118.8058,30.2867],[118.8194,30.2864],[118.8224,30.2914],[118.8321,30.2952],[118.8453,30.3064],[118.8643,30.3145],[118.8756,30.3172],[118.8826,30.318],[118.8957,30.3238],[118.9063,30.3357],[118.9134,30.3358],[118.9154,30.3417],[118.9304,30.3452],[118.9354,30.3554],[118.9505,30.3613],[118.9553,30.3488],[118.9642,30.3547],[118.9701,30.348],[118.9814,30.3514],[118.984,30.3486],[118.9827,30.335],[119.0046,30.3291],[119.0126,30.3324],[119.0263,30.3303],[119.0269,30.32],[119.0303,30.3141],[119.0401,30.3148],[119.0497,30.3057],[119.0581,30.3051],[119.0735,30.3206],[119.0856,30.3256],[119.0911,30.3189],[119.0972,30.3202],[119.1053,30.3137],[119.1163,30.312],[119.1283,30.3055],[119.1374,30.3073],[119.1495,30.3053],[119.1561,30.2994],[119.1735,30.2988],[119.1821,30.2939],[119.212,30.2945],[119.2165,30.3021],[119.2233,30.2908],[119.235,30.3028],[119.24,30.3206],[119.2387,30.3353],[119.2445,30.3438],[119.259,30.3393],[119.2677,30.345],[119.2724,30.3431],[119.2868,30.3529],[119.2935,30.3599],[119.2953,30.3663],[119.3146,30.3724],[119.3238,30.3737],[119.3387,30.3661],[119.3391,30.3583],[119.3435,30.3534],[119.3583,30.353],[119.377,30.3604],[119.3831,30.3676],[119.3934,30.3687],[119.3989,30.3761],[119.3988,30.3839],[119.3796,30.3875],[119.3688,30.386],[119.3622,30.3883],[119.3621,30.3992],[119.3513,30.4094],[119.3523,30.4197],[119.3461,30.4253],[119.3457,30.4403],[119.3294,30.4501],[119.3332,30.4555],[119.3317,30.4729],[119.3236,30.4862],[119.3277,30.4937],[119.3277,30.5014],[119.3323,30.5067],[119.3233,30.5258],[119.3223,30.5355],[119.3072,30.5328],[119.298,30.5231],[119.2806,30.5133],[119.2672,30.5117],[119.2557,30.5214],[119.2571,30.5294],[119.2393,30.5324],[119.2363,30.5438],[119.2324,30.5487],[119.2433,30.5597],[119.2432,30.5658],[119.2595,30.5749],[119.2614,30.583],[119.2492,30.5992],[119.2455,30.5985],[119.2341,30.6085],[119.2392,30.6177],[119.2035,30.6191],[119.1954,30.6171],[119.1909,30.6217],[119.181,30.6182],[119.1765,30.6069],[119.166,30.5983],[119.1454,30.5965],[119.1403,30.6039],[119.1418,30.6083],[119.1402,30.6273],[119.1255,30.6303],[119.1235,30.6372],[119.1279,30.6415],[119.1254,30.6493],[119.1159,30.6545],[119.1148,30.6608],[119.1277,30.6686],[119.1215,30.6738],[119.1051,30.6966],[119.1064,30.7116],[119.0958,30.7266],[119.1093,30.7372],[119.1005,30.7428],[119.0928,30.7548],[119.0882,30.7546],[119.08,30.7629],[119.0816,30.771],[119.0568,30.7853],[119.046,30.7721],[119.0399,30.7729],[119.027,30.7641],[119.0196,30.7568],[119.0147,30.7464],[119.0103,30.7451],[119.008,30.7333],[118.9991,30.7345],[119.004,30.7422],[118.9944,30.7474],[118.9878,30.7389],[118.9798,30.742],[118.9751,30.7397],[118.9634,30.7489],[118.9365,30.7592],[118.9271,30.7555],[118.9189,30.7465],[118.8985,30.7463],[118.8788,30.7401],[118.8763,30.7291],[118.841,30.7243],[118.8253,30.7146],[118.8212,30.7073],[118.83,30.684],[118.8319,30.6742],[118.8232,30.6549],[118.814,30.6539],[118.8102,30.6367],[118.8117,30.6283],[118.8066,30.6195],[118.7958,30.6117],[118.782,30.6139],[118.7708,30.6081],[118.7661,30.6012],[118.7546,30.5964],[118.7449,30.5977],[118.75,30.5792],[118.7273,30.5732],[118.7159,30.5757],[118.7036,30.5733],[118.6911,30.5616],[118.6832,30.5679],[118.6697,30.5832],[118.6704,30.5907],[118.6607,30.5969],[118.6554,30.5955]]]]},"properties":{"region_code":"CN-34-3418-341881","parent_region_code":"CN-34-3418","name":"宁国市","level":"county","has_children":false,"full_path":"中国 / 安徽省 / 宣城市 / 宁国市","source_admin_code":"341881","osm_relation_id":3222246}},
{"type":"Feature","geometry":{"type":"Polygon","coordinates":[[[119.0568,30.7853],[119.0816,30.771],[119.08,30.7629],[119.0882,30.7546],[119.0928,30.7548],[119.1005,30.7428],[119.1093,30.7372],[119.0958,30.7266],[119.1064,30.7116],[119.1051,30.6966],[119.1215,30.6738],[119.1277,30.6686],[119.1148,30.6608],[119.1159,30.6545],[119.1254,30.6493],[119.1279,30.6415],[119.1235,30.6372],[119.1255,30.6303],[119.1402,30.6273],[119.1418,30.6083],[119.1403,30.6039],[119.1454,30.5965],[119.166,30.5983],[119.1765,30.6069],[119.181,30.6182],[119.1909,30.6217],[119.1954,30.6171],[119.2035,30.6191],[119.2392,30.6177],[119.2467,30.6221],[119.2525,30.6164],[119.2735,30.6208],[119.2828,30.6165],[119.2885,30.6196],[119.3073,30.623],[119.3206,30.6352],[119.3204,30.6422],[119.3286,30.6508],[119.3283,30.6554],[119.3381,30.6664],[119.3625,30.677],[119.367,30.6836],[119.3761,30.6818],[119.386,30.691],[119.3938,30.6745],[119.397,30.6551],[119.4057,30.6459],[119.4141,30.6444],[119.4396,30.6512],[119.4397,30.6685],[119.4426,30.6729],[119.4556,30.6792],[119.4643,30.6978],[119.4803,30.7035],[119.4804,30.7163],[119.4848,30.7213],[119.4748,30.7379],[119.4817,30.749],[119.475,30.7542],[119.4776,30.7775],[119.4869,30.78],[119.4993,30.7728],[119.522,30.7784],[119.5257,30.7925],[119.5364,30.8027],[119.5414,30.8155],[119.5505,30.8283],[119.5737,30.8314],[119.5742,30.8371],[119.5691,30.8471],[119.569,30.8622],[119.5565,30.8624],[119.5556,30.8721],[119.5509,30.8842],[119.5551,30.8915],[119.5482,30.9028],[119.5591,30.9097],[119.5596,30.9143],[119.5679,30.9233],[119.576,30.9356],[119.5776,30.947],[119.587,30.9491],[119.5872,30.9539],[119.5773,30.9592],[119.575,30.9657],[119.583,30.9666],[119.5897,30.9727],[119.5924,30.9876],[119.6063,30.994],[119.6134,31.005],[119.6258,31.0097],[119.6261,31.0233],[119.6329,31.0287],[119.6237,31.0322],[119.6229,31.041],[119.6283,31.0458],[119.6223,31.0592],[119.6282,31.0672],[119.6207,31.0829],[119.6404,31.1094],[119.6347,31.1096],[119.6323,31.1175],[119.6208,31.1139],[119.6157,31.1226],[119.6186,31.1323],[119.6092,31.1314],[119.5988,31.1175],[119.6014,31.1092],[119.5862,31.1131],[119.5795,31.117],[119.5705,31.1125],[119.5658,31.124],[119.5659,31.1307],[119.5515,31.1446],[119.5415,31.1486],[119.5283,31.1605],[119.5148,31.1612],[119.5118,31.1568],[119.5011,31.1587],[119.4972,31.1631],[119.4874,31.1666],[119.4821,31.1648],[119.4798,31.1546],[119.4717,31.1603],[119.455,31.1584],[119.4462,31.175],[119.4254,31.1785],[119.4094,31.1757],[119.4048,31.1841],[119.3917,31.177],[119.3865,31.1794],[119.3846,31.192],[119.3744,31.1897],[119.3657,31.1962],[119.3603,31.1961],[119.3555,31.1908],[119.3527,31.1779],[119.3478,31.1729],[119.3503,31.1666],[119.335,31.1551],[119.3351,31.1507],[119.3153,31.1488],[119.3067,31.1507],[119.3005,31.1455],[119.299,31.1369],[119.2916,31.1386],[119.2821,31.1271],[119.2888,31.1188],[119.3043,31.1147],[119.3071,31.106],[119.3142,31.0993],[119.3139,31.0916],[119.3303,31.0775],[119.3249,31.0746],[119.3204,31.059],[119.3263,31.0524],[119.3207,31.043],[119.3193,31.0411],[119.3224,31.0364],[119.32,31.0295],[119.3227,31.0185],[119.3009,31.0145],[119.2901,31.0193],[119.2849,31.018],[119.2716,31.0235],[119.2646,31.0175],[119.2504,31.0218],[119.2446,31.0252],[119.2251,31.0111],[119.2229,31.0021],[119.2271,30.9959],[119.2239,30.9917],[119.2289,30.9841],[119.2266,30.9787],[119.2147,30.9681],[119.1995,30.9687],[119.183,30.9753],[119.1603,30.9593],[119.1642,30.9499],[119.1663,30.9367],[119.1579,30.934],[119.1533,30.9279],[119.1438,30.9286],[119.1388,30.9328],[119.1317,30.9278],[119.1332,30.9159],[119.1331,30.8946],[119.1291,30.8871],[119.1167,30.8835],[119.1076,30.8774],[119.1036,30.8663],[119.0904,30.869],[119.0827,30.8642],[119.0861,30.859],[119.0794,30.8536],[119.0773,30.8458],[119.0827,30.8374],[119.0798,30.8294],[119.0681,30.8192],[119.0642,30.8119],[119.0689,30.7964],[119.0606,30.7957],[119.0568,30.7853]]]},"properties":{"region_code":"CN-34-3418-341882","parent_region_code":"CN-34-3418","name":"广德市","level":"county","has_children":false,"full_path":"中国 / 安徽省 / 宣城市 / 广德市","source_admin_code":"341882","osm_relation_id":3222242}}
]}