{"type":"FeatureCollection", "features": [
{"type":"Feature","geometry":{"type":"MultiPolygon","coordinates":[[[[120.4468,33.772],[120.4653,33.8052],[120.4503,33.8125],[120.4238,33.8104],[120.4133,33.8038],[120.4161,33.789],[120.4054,33.7574],[120.4304,33.7522],[120.4468,33.772]]],[[[120.2153,33.1674],[120.2348,33.1778],[120.2468,33.1909],[120.2939,33.2252],[120.2808,33.2359],[120.2995,33.2534],[120.3239,33.2669],[120.3966,33.2929],[120.3818,33.3073],[120.3636,33.3394],[120.378,33.3513],[120.3755,33.3714],[120.3493,33.3969],[120.3525,33.4108],[120.3763,33.4199],[120.3847,33.4302],[120.5086,33.5227],[120.5448,33.5529],[121.477,33.5538],[121.3678,33.6795],[120.6341,33.6794],[120.578,33.638],[120.5391,33.6188],[120.5136,33.6177],[120.4842,33.6229],[120.4528,33.6131],[120.4253,33.5828],[120.3978,33.5944],[120.3759,33.5913],[120.3754,33.5667],[120.3574,33.5777],[120.3394,33.5732],[120.3599,33.5108],[120.3411,33.4969],[120.3215,33.509],[120.2953,33.4954],[120.2807,33.5091],[120.2635,33.4853],[120.2739,33.4726],[120.2512,33.4531],[120.2134,33.462],[120.1945,33.4991],[120.197,33.5227],[120.1811,33.5261],[120.147,33.5215],[120.1347,33.5103],[120.1104,33.5068],[120.0655,33.5154],[120.0522,33.5095],[120.0563,33.4939],[120.0019,33.4815],[119.9763,33.4638],[119.9954,33.4238],[120.01,33.3994],[120.0409,33.3961],[120.104,33.3995],[120.0927,33.3855],[120.1103,33.3673],[120.1225,33.3668],[120.1359,33.3502],[120.1533,33.3525],[120.161,33.3627],[120.1797,33.3417],[120.2132,33.3242],[120.2006,33.3027],[120.2165,33.283],[120.1994,33.2692],[120.1868,33.2841],[120.1726,33.2622],[120.1958,33.227],[120.1684,33.222],[120.1731,33.2065],[120.198,33.1773],[120.2153,33.1674]]]]},"properties":{"region_code":"CN-32-3209-320902","parent_region_code":"CN-32-3209","name":"亭湖区","level":"county","has_children":false,"full_path":"中国 / 江苏省 / 盐城市 / 亭湖区","source_admin_code":"320902","osm_relation_id":4740168}},
{"type":"Feature","geometry":{"type":"Polygon","coordinates":[[[119.9954,33.4238],[119.9244,33.4139],[119.9132,33.4043],[119.9139,33.3848],[119.8812,33.3587],[119.8335,33.3318],[119.7732,33.3288],[119.7496,33.3246],[119.7411,33.2963],[119.7043,33.2874],[119.6995,33.2707],[119.6794,33.2396],[119.6884,33.2258],[119.7281,33.213],[119.7233,33.1763],[119.739,33.1636],[119.743,33.1327],[119.7602,33.1313],[119.8019,33.1481],[119.844,33.1562],[119.8769,33.1505],[119.9083,33.1509],[119.9314,33.1572],[119.9758,33.1498],[119.998,33.1577],[120.0428,33.1655],[120.0757,33.1833],[120.1517,33.1577],[120.213,33.139],[120.2153,33.1674],[120.198,33.1773],[120.1731,33.2065],[120.1684,33.222],[120.1958,33.227],[120.1726,33.2622],[120.1868,33.2841],[120.1994,33.2692],[120.2165,33.283],[120.2006,33.3027],[120.2132,33.3242],[120.1797,33.3417],[120.161,33.3627],[120.1533,33.3525],[120.1359,33.3502],[120.1225,33.3668],[120.1103,33.3673],[120.0927,33.3855],[120.104,33.3995],[120.0409,33.3961],[120.01,33.3994],[119.9954,33.4238]]]},"properties":{"region_code":"CN-32-3209-320903","parent_region_code":"CN-32-3209","name":"盐都区","level":"county","has_children":false,"full_path":"中国 / 江苏省 / 盐城市 / 盐都区","source_admin_code":"320903","osm_relation_id":4740045}},
{"type":"Feature","geometry":{"type":"Polygon","coordinates":[[[120.2153,33.1674],[120.213,33.139],[120.292,33.1313],[120.2846,33.1066],[120.2875,33.0827],[120.3016,33.0689],[120.3084,33.0498],[120.3041,33.0263],[120.3077,32.9941],[120.2943,32.9675],[120.2821,32.9545],[120.2864,32.9345],[120.2714,32.9271],[120.2952,32.9239],[120.3289,32.9264],[120.3493,32.9417],[120.4026,32.9405],[120.4185,32.9317],[120.4512,32.9279],[120.4881,32.9301],[120.5053,32.9397],[120.5105,32.9265],[120.5822,32.9626],[120.5888,32.9403],[120.616,32.9216],[120.6344,32.9228],[120.6614,32.9132],[120.6949,32.9329],[120.6872,32.9664],[120.6695,32.9731],[120.6691,32.9853],[120.6979,32.9852],[120.698,32.9993],[120.6808,33.015],[120.7007,33.0217],[120.7275,32.9943],[120.7523,32.9942],[120.7474,32.9756],[120.8427,32.9753],[120.8284,32.9958],[120.85,33.011],[120.8792,33.0103],[120.9024,33.0219],[121.0058,33.0464],[121.3014,33.0469],[121.8288,33.1374],[121.5407,33.4803],[121.477,33.5538],[120.5448,33.5529],[120.5086,33.5227],[120.3847,33.4302],[120.3763,33.4199],[120.3525,33.4108],[120.3493,33.3969],[120.3755,33.3714],[120.378,33.3513],[120.3636,33.3394],[120.3818,33.3073],[120.3966,33.2929],[120.3239,33.2669],[120.2995,33.2534],[120.2808,33.2359],[120.2939,33.2252],[120.2468,33.1909],[120.2348,33.1778],[120.2153,33.1674]],[[120.6448,33.2089],[120.5835,33.2056],[120.5771,33.2886],[120.5348,33.286],[120.526,33.3216],[120.5095,33.3206],[120.5019,33.3404],[120.489,33.3482],[120.4885,33.3613],[120.5166,33.3659],[120.5121,33.3813],[120.5352,33.3992],[120.5331,33.4237],[120.5656,33.4407],[120.5704,33.3809],[120.5779,33.383],[120.5997,33.41],[120.6412,33.3999],[120.6615,33.3886],[120.6641,33.3298],[120.6876,33.2834],[120.7151,33.277],[120.7319,33.2568],[120.6238,33.2466],[120.6448,33.2089]]]},"properties":{"region_code":"CN-32-3209-320904","parent_region_code":"CN-32-3209","name":"大丰区","level":"county","has_children":false,"full_path":"中国 / 江苏省 / 盐城市 / 大丰区","source_admin_code":"320904","osm_relation_id":4738920}},
{"type":"Feature","geometry":{"type":"Polygon","coordinates":[[[119.6309,33.954],[119.6635,33.9749],[119.7108,34.0237],[119.7419,34.0362],[119.7468,34.0462],[119.7709,34.0535],[119.7915,34.052],[119.8283,34.0948],[119.8327,34.1073],[119.8526,34.1307],[119.8603,34.1471],[119.8931,34.1712],[119.9272,34.2042],[120.0328,34.2938],[120.0652,34.3559],[120.0929,34.3789],[120.4251,34.7571],[119.8782,34.5321],[119.8192,34.4703],[119.8064,34.4641],[119.7829,34.4137],[119.7997,34.3833],[119.7739,34.3683],[119.7664,34.3552],[119.7506,34.3497],[119.7487,34.3274],[119.7332,34.3085],[119.6606,34.2583],[119.6328,34.2484],[119.5739,34.2116],[119.5479,34.2086],[119.5308,34.1905],[119.4974,34.1731],[119.508,34.1628],[119.5297,34.1563],[119.5154,34.1373],[119.533,34.1109],[119.5473,34.1161],[119.5552,34.1015],[119.5709,34.102],[119.5806,34.0794],[119.5498,34.0613],[119.5649,34.0352],[119.5644,34.0061],[119.5941,33.9978],[119.5981,33.9812],[119.5892,33.9732],[119.6147,33.9467],[119.6309,33.954]]]},"properties":{"region_code":"CN-32-3209-320921","parent_region_code":"CN-32-3209","name":"响水县","level":"county","has_children":false,"full_path":"中国 / 江苏省 / 盐城市 / 响水县","source_admin_code":"320921","osm_relation_id":3473563}},
{"type":"Feature","geometry":{"type":"Polygon","coordinates":[[[119.6309,33.954],[119.6413,33.9269],[119.6757,33.9135],[119.7165,33.8916],[119.754,33.9184],[119.7769,33.9293],[119.7853,33.9151],[119.8305,33.9081],[119.8369,33.9018],[119.8236,33.8718],[119.8113,33.8584],[119.8161,33.8437],[119.8411,33.836],[119.8614,33.8046],[119.8823,33.8074],[119.8924,33.8169],[119.9291,33.8303],[119.9369,33.8369],[119.9491,33.8591],[119.9707,33.8657],[119.9832,33.8612],[119.9971,33.8769],[119.9835,33.8909],[119.9977,33.8993],[120.0234,33.897],[120.0248,33.9122],[120.0003,33.9189],[120.0042,33.9355],[120.0349,33.9422],[120.0411,33.9264],[120.0537,33.9221],[120.0688,33.9487],[120.0882,33.9372],[120.0826,33.9226],[120.1073,33.9219],[120.1293,33.8989],[120.135,33.9051],[120.1642,33.9058],[120.1648,33.9223],[120.1482,33.9478],[120.1513,33.9795],[120.1476,33.991],[120.1613,34.0044],[120.1594,34.0311],[120.1438,34.0464],[120.1502,34.0622],[120.2108,34.0812],[120.2969,34.103],[120.3134,34.1102],[120.333,34.1085],[120.3514,34.119],[120.8646,34.2564],[120.4251,34.7571],[120.0929,34.3789],[120.0652,34.3559],[120.0328,34.2938],[119.9272,34.2042],[119.8931,34.1712],[119.8603,34.1471],[119.8526,34.1307],[119.8327,34.1073],[119.8283,34.0948],[119.7915,34.052],[119.7709,34.0535],[119.7468,34.0462],[119.7419,34.0362],[119.7108,34.0237],[119.6635,33.9749],[119.6309,33.954]]]},"properties":{"region_code":"CN-32-3209-320922","parent_region_code":"CN-32-3209","name":"滨海县","level":"county","has_children":false,"full_path":"中国 / 江苏省 / 盐城市 / 滨海县","source_admin_code":"320922","osm_relation_id":3473562}},
{"type":"Feature","geometry":{"type":"Polygon","coordinates":[[[119.6413,33.9269],[119.6324,33.9003],[119.6128,33.8808],[119.5935,33.876],[119.5774,33.8578],[119.5545,33.843],[119.5508,33.8299],[119.5313,33.7995],[119.5273,33.7774],[119.5194,33.7722],[119.5035,33.7409],[119.5037,33.7221],[119.4768,33.6991],[119.4738,33.6899],[119.4867,33.6745],[119.4771,33.6656],[119.4782,33.651],[119.4607,33.6368],[119.4595,33.6223],[119.4867,33.5506],[119.4925,33.5219],[119.522,33.4955],[119.5351,33.4959],[119.5541,33.474],[119.5706,33.4767],[119.5965,33.4545],[119.6121,33.4554],[119.6236,33.4701],[119.6259,33.4871],[119.6401,33.4951],[119.6428,33.514],[119.6811,33.5048],[119.7025,33.5317],[119.7204,33.6],[119.718,33.6139],[119.7312,33.6299],[119.7222,33.6415],[119.7448,33.6495],[119.7687,33.6382],[119.8119,33.6424],[119.85,33.6369],[119.869,33.6266],[119.8951,33.6232],[119.9332,33.6278],[119.9965,33.671],[119.9786,33.676],[119.9559,33.6697],[119.9244,33.6852],[119.9324,33.7024],[119.9638,33.7078],[119.9459,33.7245],[119.9425,33.7435],[119.9639,33.7453],[119.9696,33.7552],[119.9489,33.7711],[119.9546,33.7957],[119.9764,33.7983],[119.9776,33.8179],[119.9592,33.8189],[119.9369,33.8369],[119.9291,33.8303],[119.8924,33.8169],[119.8823,33.8074],[119.8614,33.8046],[119.8411,33.836],[119.8161,33.8437],[119.8113,33.8584],[119.8236,33.8718],[119.8369,33.9018],[119.8305,33.9081],[119.7853,33.9151],[119.7769,33.9293],[119.754,33.9184],[119.7165,33.8916],[119.6757,33.9135],[119.6413,33.9269]]]},"properties":{"region_code":"CN-32-3209-320923","parent_region_code":"CN-32-3209","name":"阜宁县","level":"county","has_children":false,"full_path":"中国 / 江苏省 / 盐城市 / 阜宁县","source_admin_code":"320923","osm_relation_id":4739955}},
{"type":"Feature","geometry":{"type":"Polygon","coordinates":[[[121.3678,33.6795],[120.8646,34.2564],[120.3514,34.119],[120.333,34.1085],[120.3134,34.1102],[120.2969,34.103],[120.2108,34.0812],[120.1502,34.0622],[120.1438,34.0464],[120.1594,34.0311],[120.1613,34.0044],[120.1476,33.991],[120.1513,33.9795],[120.1482,33.9478],[120.1648,33.9223],[120.1642,33.9058],[120.135,33.9051],[120.1293,33.8989],[120.1073,33.9219],[120.0826,33.9226],[120.0882,33.9372],[120.0688,33.9487],[120.0537,33.9221],[120.0411,33.9264],[120.0349,33.9422],[120.0042,33.9355],[120.0003,33.9189],[120.0248,33.9122],[120.0234,33.897],[119.9977,33.8993],[119.9835,33.8909],[119.9971,33.8769],[119.9832,33.8612],[119.9707,33.8657],[119.9491,33.8591],[119.9369,33.8369],[119.9592,33.8189],[119.9776,33.8179],[119.9764,33.7983],[119.9546,33.7957],[119.9489,33.7711],[119.9696,33.7552],[119.9639,33.7453],[119.9425,33.7435],[119.9459,33.7245],[119.9638,33.7078],[119.9324,33.7024],[119.9244,33.6852],[119.9559,33.6697],[119.9786,33.676],[119.9965,33.671],[120.0392,33.684],[120.04,33.6484],[120.0255,33.6283],[120.0317,33.6148],[120.0606,33.6281],[120.0888,33.6014],[120.0744,33.5966],[120.054,33.5806],[120.0545,33.5491],[120.0655,33.5154],[120.1104,33.5068],[120.1347,33.5103],[120.147,33.5215],[120.1811,33.5261],[120.197,33.5227],[120.1945,33.4991],[120.2134,33.462],[120.2512,33.4531],[120.2739,33.4726],[120.2635,33.4853],[120.2807,33.5091],[120.2953,33.4954],[120.3215,33.509],[120.3411,33.4969],[120.3599,33.5108],[120.3394,33.5732],[120.3574,33.5777],[120.3754,33.5667],[120.3759,33.5913],[120.3978,33.5944],[120.4253,33.5828],[120.4528,33.6131],[120.4842,33.6229],[120.5136,33.6177],[120.5391,33.6188],[120.578,33.638],[120.6341,33.6794],[121.3678,33.6795]],[[120.4468,33.772],[120.4304,33.7522],[120.4054,33.7574],[120.4161,33.789],[120.4133,33.8038],[120.4238,33.8104],[120.4503,33.8125],[120.4653,33.8052],[120.4468,33.772]]]},"properties":{"region_code":"CN-32-3209-320924","parent_region_code":"CN-32-3209","name":"射阳县","level":"county","has_children":false,"full_path":"中国 / 江苏省 / 盐城市 / 射阳县","source_admin_code":"320924","osm_relation_id":4740175}},
{"type":"Feature","geometry":{"type":"Polygon","coordinates":[[[120.0655,33.5154],[120.0545,33.5491],[120.054,33.5806],[120.0744,33.5966],[120.0888,33.6014],[120.0606,33.6281],[120.0317,33.6148],[120.0255,33.6283],[120.04,33.6484],[120.0392,33.684],[119.9965,33.671],[119.9332,33.6278],[119.8951,33.6232],[119.869,33.6266],[119.85,33.6369],[119.8119,33.6424],[119.7687,33.6382],[119.7448,33.6495],[119.7222,33.6415],[119.7312,33.6299],[119.718,33.6139],[119.7204,33.6],[119.7025,33.5317],[119.6811,33.5048],[119.6428,33.514],[119.6401,33.4951],[119.6259,33.4871],[119.6236,33.4701],[119.6121,33.4554],[119.6045,33.4279],[119.5771,33.4146],[119.5649,33.3996],[119.5654,33.3785],[119.6008,33.3813],[119.6119,33.3367],[119.6276,33.3372],[119.6364,33.3121],[119.6301,33.2971],[119.6426,33.2827],[119.6644,33.2882],[119.677,33.2992],[119.7043,33.2874],[119.7411,33.2963],[119.7496,33.3246],[119.7732,33.3288],[119.8335,33.3318],[119.8812,33.3587],[119.9139,33.3848],[119.9132,33.4043],[119.9244,33.4139],[119.9954,33.4238],[119.9763,33.4638],[120.0019,33.4815],[120.0563,33.4939],[120.0522,33.5095],[120.0655,33.5154]]]},"properties":{"region_code":"CN-32-3209-320925","parent_region_code":"CN-32-3209","name":"建湖县","level":"county","has_children":false,"full_path":"中国 / 江苏省 / 盐城市 / 建湖县","source_admin_code":"320925","osm_relation_id":4740012}},
{"type":"Feature","geometry":{"type":"Polygon","coordinates":[[[120.7474,32.9756],[120.713,32.9431],[120.6949,32.9329],[120.6614,32.9132],[120.6344,32.9228],[120.616,32.9216],[120.5888,32.9403],[120.5822,32.9626],[120.5105,32.9265],[120.5053,32.9397],[120.4881,32.9301],[120.4512,32.9279],[120.4185,32.9317],[120.4026,32.9405],[120.3493,32.9417],[120.3289,32.9264],[120.2952,32.9239],[120.2714,32.9271],[120.2346,32.9296],[120.2152,32.9155],[120.1976,32.9322],[120.1715,32.9273],[120.1853,32.8787],[120.2064,32.8552],[120.1895,32.8513],[120.1863,32.8168],[120.1652,32.8175],[120.1666,32.8],[120.1555,32.784],[120.1823,32.777],[120.1949,32.7897],[120.2142,32.7943],[120.2236,32.7805],[120.2087,32.7676],[120.198,32.7449],[120.1752,32.7436],[120.1758,32.7275],[120.1509,32.7176],[120.1489,32.7052],[120.1291,32.6992],[120.1201,32.6745],[120.1137,32.6388],[120.1061,32.6162],[120.154,32.6206],[120.17,32.6318],[120.1952,32.6187],[120.2163,32.6373],[120.2198,32.6783],[120.2736,32.6819],[120.3028,32.7024],[120.3286,32.7066],[120.3863,32.7072],[120.3841,32.6933],[120.4041,32.6907],[120.426,32.6776],[120.4319,32.65],[120.4532,32.6342],[120.4805,32.6333],[120.5018,32.6441],[120.5377,32.6338],[120.5807,32.6397],[120.596,32.6521],[120.6245,32.6177],[120.6397,32.6179],[120.6507,32.6067],[120.6443,32.5922],[120.6585,32.5756],[120.6791,32.5996],[120.7044,32.6059],[120.7153,32.5937],[120.7358,32.5901],[120.7391,32.6038],[120.7887,32.6041],[120.7877,32.5833],[120.8031,32.5859],[120.827,32.5993],[120.8335,32.6086],[120.8613,32.6095],[120.8588,32.6325],[120.8913,32.6338],[120.9369,32.647],[120.9668,32.6517],[121.01,32.666],[120.9914,32.7041],[121.1143,32.7503],[121.2297,32.7541],[121.2424,32.8433],[121.3976,32.9609],[121.4216,32.9439],[121.4191,32.8583],[121.7005,32.8583],[121.9492,32.8583],[121.8664,33.0768],[121.8529,33.1046],[121.8288,33.1374],[121.3014,33.0469],[121.0058,33.0464],[120.9024,33.0219],[120.8792,33.0103],[120.85,33.011],[120.8284,32.9958],[120.8427,32.9753],[120.7474,32.9756]]]},"properties":{"region_code":"CN-32-3209-320981","parent_region_code":"CN-32-3209","name":"东台市","level":"county","has_children":false,"full_path":"中国 / 江苏省 / 盐城市 / 东台市","source_admin_code":"320981","osm_relation_id":3473531}}
]}