{"type":"FeatureCollection", "features": [
{"type":"Feature","geometry":{"type":"Polygon","coordinates":[[[116.3377,24.2636],[116.326,24.2739],[116.298,24.2723],[116.2852,24.2875],[116.2462,24.3174],[116.2383,24.338],[116.2221,24.339],[116.1946,24.3579],[116.1765,24.3534],[116.1566,24.3547],[116.1512,24.3378],[116.1316,24.3337],[116.1154,24.3456],[116.1193,24.3735],[116.0969,24.3969],[116.0827,24.4075],[116.0649,24.4313],[116.0451,24.4338],[116.0269,24.4125],[116.0132,24.4177],[115.9966,24.3901],[116.0019,24.3662],[115.99,24.3466],[116.0044,24.3318],[116.0219,24.3261],[116.0374,24.3341],[116.0696,24.3038],[116.0832,24.2982],[116.1112,24.2987],[116.1037,24.2842],[116.0902,24.2712],[116.0852,24.2568],[116.1031,24.2412],[116.1094,24.2304],[116.0958,24.2187],[116.0951,24.2079],[116.0761,24.1984],[116.0729,24.1901],[116.0787,24.1721],[116.0967,24.1722],[116.1206,24.1535],[116.147,24.1493],[116.1674,24.1404],[116.188,24.1263],[116.198,24.1369],[116.2197,24.1279],[116.253,24.1197],[116.2585,24.142],[116.2736,24.1485],[116.2984,24.1766],[116.3053,24.1979],[116.3199,24.2076],[116.3091,24.225],[116.3118,24.2351],[116.3377,24.2636]]]},"properties":{"region_code":"CN-44-4414-441402","parent_region_code":"CN-44-4414","name":"梅江区","level":"county","has_children":false,"full_path":"中国 / 广东省 / 梅州市 / 梅江区","source_admin_code":"441402","osm_relation_id":3241974}},
{"type":"Feature","geometry":{"type":"Polygon","coordinates":[[[116.3377,24.2636],[116.3528,24.2663],[116.3561,24.2755],[116.3772,24.2846],[116.3898,24.3063],[116.4094,24.3098],[116.4228,24.3275],[116.4204,24.3429],[116.4328,24.3671],[116.4144,24.3866],[116.4195,24.3977],[116.4139,24.41],[116.4212,24.4367],[116.43,24.4462],[116.4545,24.4523],[116.4645,24.4666],[116.4819,24.4675],[116.4934,24.4791],[116.4903,24.4913],[116.5186,24.5111],[116.5345,24.5097],[116.5339,24.5271],[116.5522,24.5531],[116.537,24.5633],[116.5355,24.5722],[116.554,24.6004],[116.5488,24.616],[116.5256,24.6079],[116.5022,24.6241],[116.5129,24.6552],[116.5004,24.6699],[116.4969,24.7012],[116.4823,24.7214],[116.4408,24.7188],[116.4326,24.7363],[116.4124,24.7457],[116.4143,24.77],[116.4024,24.7805],[116.3909,24.804],[116.3808,24.8042],[116.3681,24.7924],[116.3745,24.7767],[116.3705,24.7696],[116.3491,24.766],[116.3562,24.7508],[116.3283,24.7279],[116.3187,24.7119],[116.3241,24.6961],[116.3226,24.6762],[116.31,24.6726],[116.3105,24.6596],[116.2857,24.6464],[116.2775,24.6284],[116.2971,24.6271],[116.306,24.6065],[116.3037,24.5901],[116.2856,24.5613],[116.2614,24.5631],[116.2609,24.5714],[116.2147,24.5648],[116.1948,24.5752],[116.1833,24.5726],[116.1871,24.5369],[116.1812,24.5184],[116.1653,24.5146],[116.1699,24.4971],[116.159,24.4866],[116.1684,24.4734],[116.1586,24.4654],[116.1421,24.4656],[116.1354,24.4479],[116.1387,24.4343],[116.1239,24.425],[116.1162,24.4473],[116.0996,24.4627],[116.1019,24.4721],[116.0906,24.4841],[116.0714,24.4913],[116.0394,24.4985],[116.0276,24.4839],[116.0035,24.4874],[116.0012,24.4791],[116.0142,24.4294],[115.9822,24.4387],[115.9784,24.4034],[115.964,24.4032],[115.9496,24.4264],[115.9519,24.4389],[115.93,24.4519],[115.9202,24.4808],[115.8982,24.4849],[115.8818,24.4774],[115.8717,24.4866],[115.8629,24.4765],[115.8475,24.4779],[115.8326,24.4707],[115.8104,24.4723],[115.7944,24.4492],[115.7888,24.42],[115.7811,24.4159],[115.7776,24.3942],[115.785,24.3864],[115.802,24.3538],[115.8189,24.3505],[115.8366,24.3402],[115.8502,24.3409],[115.8612,24.3187],[115.8741,24.3008],[115.8689,24.2903],[115.882,24.2762],[115.8838,24.2647],[115.9168,24.2551],[115.9287,24.2437],[115.949,24.2403],[115.9609,24.2014],[115.9558,24.1842],[115.9751,24.1763],[115.9784,24.166],[115.9684,24.1496],[115.9766,24.1328],[115.9576,24.1327],[115.9377,24.1058],[115.9381,24.0923],[115.954,24.0818],[115.9628,24.0687],[115.9459,24.066],[115.9242,24.0718],[115.9078,24.0568],[115.9207,24.0402],[115.9377,24.0463],[115.9431,24.0355],[115.9715,24.0247],[115.9796,24.0106],[115.9787,23.9899],[116.0043,23.9774],[116.0137,23.9838],[116.0283,23.9752],[116.0095,23.9625],[116.0081,23.9493],[115.9945,23.9426],[116.0075,23.9137],[116.0244,23.9217],[116.0548,23.9272],[116.0719,23.9417],[116.0841,23.9722],[116.0826,23.9934],[116.0959,23.9999],[116.135,24.0291],[116.1577,24.0423],[116.1669,24.0611],[116.1652,24.0701],[116.1727,24.0888],[116.1715,24.101],[116.1865,24.1042],[116.2005,24.1001],[116.2026,24.1151],[116.188,24.1263],[116.1674,24.1404],[116.147,24.1493],[116.1206,24.1535],[116.0967,24.1722],[116.0787,24.1721],[116.0729,24.1901],[116.0761,24.1984],[116.0951,24.2079],[116.0958,24.2187],[116.1094,24.2304],[116.1031,24.2412],[116.0852,24.2568],[116.0902,24.2712],[116.1037,24.2842],[116.1112,24.2987],[116.0832,24.2982],[116.0696,24.3038],[116.0374,24.3341],[116.0219,24.3261],[116.0044,24.3318],[115.99,24.3466],[116.0019,24.3662],[115.9966,24.3901],[116.0132,24.4177],[116.0269,24.4125],[116.0451,24.4338],[116.0649,24.4313],[116.0827,24.4075],[116.0969,24.3969],[116.1193,24.3735],[116.1154,24.3456],[116.1316,24.3337],[116.1512,24.3378],[116.1566,24.3547],[116.1765,24.3534],[116.1946,24.3579],[116.2221,24.339],[116.2383,24.338],[116.2462,24.3174],[116.2852,24.2875],[116.298,24.2723],[116.326,24.2739],[116.3377,24.2636]]]},"properties":{"region_code":"CN-44-4414-441403","parent_region_code":"CN-44-4414","name":"梅县区","level":"county","has_children":false,"full_path":"中国 / 广东省 / 梅州市 / 梅县区","source_admin_code":"441403","osm_relation_id":3233739}},
{"type":"Feature","geometry":{"type":"Polygon","coordinates":[[[116.3199,24.2076],[116.3401,24.1983],[116.3695,24.1908],[116.3809,24.2183],[116.3936,24.223],[116.4128,24.2095],[116.4295,24.2047],[116.4447,24.2083],[116.4593,24.1984],[116.4668,24.2046],[116.4829,24.2031],[116.4856,24.193],[116.5022,24.1756],[116.5151,24.1399],[116.5353,24.1247],[116.5455,24.125],[116.5521,24.1122],[116.5684,24.1052],[116.5898,24.0851],[116.635,24.0562],[116.6368,24.0419],[116.6519,24.03],[116.6709,24.0226],[116.6869,24.0089],[116.7045,24.0189],[116.7053,24.0345],[116.6956,24.0528],[116.708,24.0652],[116.73,24.0564],[116.7529,24.0849],[116.7689,24.0903],[116.7596,24.1283],[116.7825,24.1586],[116.805,24.172],[116.8256,24.1685],[116.8382,24.1838],[116.8491,24.1852],[116.8626,24.1666],[116.8741,24.1708],[116.8798,24.1966],[116.9001,24.2051],[116.8919,24.2195],[116.9126,24.2358],[116.9289,24.2293],[116.9336,24.2837],[116.9097,24.2907],[116.9085,24.3145],[116.915,24.324],[116.9048,24.3322],[116.9038,24.3448],[116.8916,24.3537],[116.8994,24.3729],[116.8824,24.3931],[116.8687,24.3941],[116.8649,24.4102],[116.8437,24.4298],[116.8344,24.4455],[116.8397,24.4573],[116.8562,24.4652],[116.8448,24.4821],[116.8277,24.4991],[116.8154,24.49],[116.7922,24.5049],[116.7747,24.5305],[116.7537,24.5495],[116.7514,24.5579],[116.7631,24.5671],[116.7565,24.5858],[116.7942,24.6269],[116.7939,24.64],[116.8073,24.6478],[116.8107,24.6575],[116.7966,24.6812],[116.7729,24.6824],[116.7492,24.6574],[116.7373,24.6694],[116.7027,24.668],[116.6959,24.6586],[116.6626,24.6616],[116.6197,24.6444],[116.5967,24.6573],[116.566,24.6248],[116.5488,24.616],[116.554,24.6004],[116.5355,24.5722],[116.537,24.5633],[116.5522,24.5531],[116.5339,24.5271],[116.5345,24.5097],[116.5186,24.5111],[116.4903,24.4913],[116.4934,24.4791],[116.4819,24.4675],[116.4645,24.4666],[116.4545,24.4523],[116.43,24.4462],[116.4212,24.4367],[116.4139,24.41],[116.4195,24.3977],[116.4144,24.3866],[116.4328,24.3671],[116.4204,24.3429],[116.4228,24.3275],[116.4094,24.3098],[116.3898,24.3063],[116.3772,24.2846],[116.3561,24.2755],[116.3528,24.2663],[116.3377,24.2636],[116.3118,24.2351],[116.3091,24.225],[116.3199,24.2076]]]},"properties":{"region_code":"CN-44-4414-441422","parent_region_code":"CN-44-4414","name":"大埔县","level":"county","has_children":false,"full_path":"中国 / 广东省 / 梅州市 / 大埔县","source_admin_code":"441422","osm_relation_id":3233736}},
{"type":"Feature","geometry":{"type":"Polygon","coordinates":[[[116.188,24.1263],[116.2026,24.1151],[116.2005,24.1001],[116.1865,24.1042],[116.1715,24.101],[116.1727,24.0888],[116.1652,24.0701],[116.1669,24.0611],[116.1577,24.0423],[116.135,24.0291],[116.0959,23.9999],[116.0826,23.9934],[116.0841,23.9722],[116.0719,23.9417],[116.0548,23.9272],[116.0244,23.9217],[116.0187,23.8944],[116.0279,23.8874],[116.0145,23.8671],[116.0095,23.8518],[116.0179,23.8401],[116.0048,23.8171],[115.9934,23.8156],[115.9859,23.7994],[115.973,23.8032],[115.947,23.7777],[115.9328,23.7716],[115.9287,23.7544],[115.9028,23.7321],[115.8986,23.7046],[115.87,23.6902],[115.8614,23.6731],[115.8458,23.6595],[115.8716,23.6367],[115.9008,23.624],[115.9191,23.6309],[115.9549,23.6521],[115.9541,23.6586],[115.9812,23.6796],[116.0019,23.6781],[116.0128,23.6645],[116.0166,23.6472],[116.0347,23.6506],[116.056,23.6476],[116.094,23.625],[116.1607,23.6185],[116.1867,23.6439],[116.173,23.6598],[116.1784,23.6769],[116.2097,23.7051],[116.2095,23.7215],[116.2231,23.7314],[116.2346,23.7263],[116.2497,23.7398],[116.267,23.749],[116.2667,23.7599],[116.2839,23.7658],[116.2944,23.7615],[116.3034,23.7727],[116.3308,23.7764],[116.334,23.7613],[116.3601,23.7371],[116.3766,23.7401],[116.4121,23.7803],[116.4315,23.7828],[116.4603,23.7577],[116.4916,23.7551],[116.5,23.7649],[116.5014,23.7962],[116.5122,23.8053],[116.5053,23.8304],[116.5214,23.8351],[116.5121,23.8487],[116.4944,23.8611],[116.5099,23.8694],[116.5167,23.8814],[116.5309,23.8844],[116.5707,23.912],[116.5861,23.9038],[116.6004,23.9136],[116.6001,23.9351],[116.6172,23.955],[116.6064,23.9713],[116.6363,23.9772],[116.6368,23.9924],[116.6685,23.9902],[116.691,23.9946],[116.6869,24.0089],[116.6709,24.0226],[116.6519,24.03],[116.6368,24.0419],[116.635,24.0562],[116.5898,24.0851],[116.5684,24.1052],[116.5521,24.1122],[116.5455,24.125],[116.5353,24.1247],[116.5151,24.1399],[116.5022,24.1756],[116.4856,24.193],[116.4829,24.2031],[116.4668,24.2046],[116.4593,24.1984],[116.4447,24.2083],[116.4295,24.2047],[116.4128,24.2095],[116.3936,24.223],[116.3809,24.2183],[116.3695,24.1908],[116.3401,24.1983],[116.3199,24.2076],[116.3053,24.1979],[116.2984,24.1766],[116.2736,24.1485],[116.2585,24.142],[116.253,24.1197],[116.2197,24.1279],[116.198,24.1369],[116.188,24.1263]]]},"properties":{"region_code":"CN-44-4414-441423","parent_region_code":"CN-44-4414","name":"丰顺县","level":"county","has_children":false,"full_path":"中国 / 广东省 / 梅州市 / 丰顺县","source_admin_code":"441423","osm_relation_id":3233737}},
{"type":"Feature","geometry":{"type":"Polygon","coordinates":[[[116.0095,23.8518],[115.9953,23.858],[115.9814,23.855],[115.9764,23.8652],[115.9394,23.8841],[115.9241,23.8755],[115.9153,23.8926],[115.9149,23.9048],[115.8986,23.914],[115.9032,23.9296],[115.8915,23.9336],[115.8795,23.9483],[115.8812,23.9576],[115.8589,23.9889],[115.8464,23.9937],[115.833,24.007],[115.8009,24.0237],[115.781,24.0064],[115.7593,24.0262],[115.7432,24.0223],[115.7235,24.0365],[115.7053,24.058],[115.6846,24.0944],[115.6597,24.0885],[115.6335,24.1117],[115.6142,24.1211],[115.6082,24.1566],[115.6134,24.1635],[115.5938,24.1806],[115.5844,24.1815],[115.5658,24.1691],[115.5493,24.1768],[115.5406,24.1731],[115.5158,24.1855],[115.5022,24.1688],[115.5161,24.1461],[115.5175,24.1316],[115.5279,24.1254],[115.5327,24.1117],[115.5248,24.1013],[115.5084,24.1018],[115.4956,24.1311],[115.4866,24.1239],[115.4685,24.1448],[115.4566,24.1304],[115.4373,24.127],[115.4437,24.1153],[115.4325,24.1066],[115.424,24.0793],[115.4127,24.0708],[115.4211,24.0565],[115.4406,24.0409],[115.4394,24.0239],[115.4449,24.0151],[115.4415,23.9962],[115.4483,23.9696],[115.4331,23.9607],[115.4035,23.9531],[115.406,23.9428],[115.3965,23.9324],[115.3958,23.9048],[115.3669,23.8677],[115.3674,23.8502],[115.3495,23.8449],[115.3544,23.8027],[115.3443,23.7851],[115.3123,23.7642],[115.3116,23.7595],[115.3642,23.7595],[115.3654,23.7677],[115.3843,23.7807],[115.3944,23.7711],[115.378,23.7506],[115.3835,23.7369],[115.3969,23.7254],[115.4075,23.7254],[115.4044,23.7032],[115.4246,23.7012],[115.4491,23.7091],[115.4521,23.6987],[115.4467,23.683],[115.4477,23.6658],[115.4369,23.6455],[115.4277,23.6401],[115.4238,23.5835],[115.4317,23.5642],[115.4454,23.5584],[115.4288,23.5324],[115.4276,23.5186],[115.4337,23.5017],[115.4093,23.4926],[115.4236,23.4819],[115.4357,23.4504],[115.4306,23.434],[115.45,23.4206],[115.4552,23.4027],[115.452,23.3863],[115.459,23.3779],[115.4872,23.3774],[115.5002,23.3813],[115.5061,23.3912],[115.5039,23.4173],[115.5311,23.438],[115.5566,23.4373],[115.5828,23.4559],[115.5904,23.4722],[115.6116,23.4778],[115.6186,23.4927],[115.6175,23.5099],[115.6325,23.5177],[115.636,23.5321],[115.6549,23.5353],[115.665,23.5511],[115.6814,23.5596],[115.69,23.5527],[115.7091,23.5217],[115.729,23.5188],[115.7317,23.5285],[115.755,23.5255],[115.7886,23.5283],[115.7837,23.5419],[115.7966,23.5457],[115.7974,23.5598],[115.8088,23.581],[115.8036,23.6093],[115.7953,23.6181],[115.8138,23.6473],[115.83,23.6635],[115.8458,23.6595],[115.8614,23.6731],[115.87,23.6902],[115.8986,23.7046],[115.9028,23.7321],[115.9287,23.7544],[115.9328,23.7716],[115.947,23.7777],[115.973,23.8032],[115.9859,23.7994],[115.9934,23.8156],[116.0048,23.8171],[116.0179,23.8401],[116.0095,23.8518]]]},"properties":{"region_code":"CN-44-4414-441424","parent_region_code":"CN-44-4414","name":"五华县","level":"county","has_children":false,"full_path":"中国 / 广东省 / 梅州市 / 五华县","source_admin_code":"441424","osm_relation_id":3233741}},
{"type":"Feature","geometry":{"type":"Polygon","coordinates":[[[116.0394,24.4985],[116.0365,24.515],[116.0197,24.5398],[116.0511,24.5559],[116.0409,24.5771],[116.0282,24.5874],[116.0223,24.6135],[116.0445,24.6364],[116.0399,24.6766],[116.0662,24.6868],[116.0721,24.7022],[116.0857,24.699],[116.1006,24.7363],[116.1178,24.7582],[116.1137,24.7702],[116.0989,24.7808],[116.0869,24.7972],[116.0845,24.8146],[116.0744,24.8226],[116.0732,24.8373],[116.0867,24.8397],[116.0797,24.8556],[116.0474,24.8642],[116.0335,24.8897],[116.0105,24.9085],[115.9983,24.8993],[115.9809,24.9026],[115.9721,24.9189],[115.9039,24.9263],[115.8927,24.9402],[115.8737,24.936],[115.8808,24.8999],[115.9005,24.8872],[115.8889,24.8728],[115.8656,24.8707],[115.8451,24.9031],[115.8195,24.911],[115.8043,24.8955],[115.8003,24.8781],[115.8025,24.8637],[115.7914,24.8612],[115.7807,24.8492],[115.7685,24.8055],[115.7593,24.7954],[115.7719,24.7771],[115.7519,24.7503],[115.752,24.7384],[115.7676,24.7246],[115.7643,24.7103],[115.7872,24.7026],[115.7978,24.6884],[115.7931,24.6783],[115.7737,24.6805],[115.7755,24.6662],[115.7908,24.6335],[115.8201,24.5999],[115.8359,24.5864],[115.8439,24.5687],[115.8176,24.5632],[115.7799,24.5694],[115.7553,24.5519],[115.7307,24.5453],[115.7502,24.5252],[115.7481,24.5169],[115.7658,24.5123],[115.7828,24.4962],[115.7966,24.4927],[115.796,24.4801],[115.8104,24.4723],[115.8326,24.4707],[115.8475,24.4779],[115.8629,24.4765],[115.8717,24.4866],[115.8818,24.4774],[115.8982,24.4849],[115.9202,24.4808],[115.93,24.4519],[115.9519,24.4389],[115.9496,24.4264],[115.964,24.4032],[115.9784,24.4034],[115.9822,24.4387],[116.0142,24.4294],[116.0012,24.4791],[116.0035,24.4874],[116.0276,24.4839],[116.0394,24.4985]]]},"properties":{"region_code":"CN-44-4414-441426","parent_region_code":"CN-44-4414","name":"平远县","level":"county","has_children":false,"full_path":"中国 / 广东省 / 梅州市 / 平远县","source_admin_code":"441426","osm_relation_id":3233740}},
{"type":"Feature","geometry":{"type":"Polygon","coordinates":[[[116.3808,24.8042],[116.3701,24.8087],[116.3725,24.8238],[116.413,24.8437],[116.4016,24.8565],[116.3891,24.8596],[116.3864,24.8756],[116.3744,24.8802],[116.357,24.8726],[116.345,24.8594],[116.3393,24.8303],[116.3135,24.821],[116.2867,24.8031],[116.2539,24.8025],[116.2448,24.7979],[116.2275,24.804],[116.2454,24.8308],[116.2265,24.8292],[116.2159,24.8455],[116.1962,24.8608],[116.1887,24.8743],[116.1522,24.859],[116.1484,24.8494],[116.1065,24.8516],[116.0797,24.8556],[116.0867,24.8397],[116.0732,24.8373],[116.0744,24.8226],[116.0845,24.8146],[116.0869,24.7972],[116.0989,24.7808],[116.1137,24.7702],[116.1178,24.7582],[116.1006,24.7363],[116.0857,24.699],[116.0721,24.7022],[116.0662,24.6868],[116.0399,24.6766],[116.0445,24.6364],[116.0223,24.6135],[116.0282,24.5874],[116.0409,24.5771],[116.0511,24.5559],[116.0197,24.5398],[116.0365,24.515],[116.0394,24.4985],[116.0714,24.4913],[116.0906,24.4841],[116.1019,24.4721],[116.0996,24.4627],[116.1162,24.4473],[116.1239,24.425],[116.1387,24.4343],[116.1354,24.4479],[116.1421,24.4656],[116.1586,24.4654],[116.1684,24.4734],[116.159,24.4866],[116.1699,24.4971],[116.1653,24.5146],[116.1812,24.5184],[116.1871,24.5369],[116.1833,24.5726],[116.1948,24.5752],[116.2147,24.5648],[116.2609,24.5714],[116.2614,24.5631],[116.2856,24.5613],[116.3037,24.5901],[116.306,24.6065],[116.2971,24.6271],[116.2775,24.6284],[116.2857,24.6464],[116.3105,24.6596],[116.31,24.6726],[116.3226,24.6762],[116.3241,24.6961],[116.3187,24.7119],[116.3283,24.7279],[116.3562,24.7508],[116.3491,24.766],[116.3705,24.7696],[116.3745,24.7767],[116.3681,24.7924],[116.3808,24.8042]]]},"properties":{"region_code":"CN-44-4414-441427","parent_region_code":"CN-44-4414","name":"蕉岭县","level":"county","has_children":false,"full_path":"中国 / 广东省 / 梅州市 / 蕉岭县","source_admin_code":"441427","osm_relation_id":3233738}},
{"type":"Feature","geometry":{"type":"Polygon","coordinates":[[[115.8104,24.4723],[115.796,24.4801],[115.7966,24.4927],[115.7828,24.4962],[115.7658,24.5123],[115.7481,24.5169],[115.7502,24.5252],[115.7307,24.5453],[115.7148,24.5418],[115.7031,24.5474],[115.6842,24.5475],[115.6733,24.563],[115.6819,24.5736],[115.681,24.5864],[115.6687,24.6046],[115.6418,24.6186],[115.6011,24.6275],[115.5902,24.6171],[115.5661,24.6207],[115.5548,24.646],[115.5242,24.6374],[115.5164,24.6222],[115.5002,24.6059],[115.5102,24.5796],[115.479,24.5652],[115.4895,24.4973],[115.5117,24.4978],[115.5338,24.4845],[115.5476,24.489],[115.568,24.4801],[115.5723,24.4617],[115.5811,24.4496],[115.5708,24.4447],[115.5693,24.4309],[115.5792,24.4143],[115.5713,24.3988],[115.5529,24.3887],[115.5462,24.3628],[115.548,24.3363],[115.5671,24.3129],[115.5631,24.2982],[115.573,24.2933],[115.5721,24.2731],[115.5876,24.2583],[115.5862,24.2458],[115.5732,24.2452],[115.5668,24.2072],[115.5369,24.1989],[115.5322,24.1882],[115.5406,24.1731],[115.5493,24.1768],[115.5658,24.1691],[115.5844,24.1815],[115.5938,24.1806],[115.6134,24.1635],[115.6082,24.1566],[115.6142,24.1211],[115.6335,24.1117],[115.6597,24.0885],[115.6846,24.0944],[115.7053,24.058],[115.7235,24.0365],[115.7432,24.0223],[115.7593,24.0262],[115.781,24.0064],[115.8009,24.0237],[115.833,24.007],[115.8464,23.9937],[115.8589,23.9889],[115.8812,23.9576],[115.8795,23.9483],[115.8915,23.9336],[115.9032,23.9296],[115.8986,23.914],[115.9149,23.9048],[115.9153,23.8926],[115.9241,23.8755],[115.9394,23.8841],[115.9764,23.8652],[115.9814,23.855],[115.9953,23.858],[116.0095,23.8518],[116.0145,23.8671],[116.0279,23.8874],[116.0187,23.8944],[116.0244,23.9217],[116.0075,23.9137],[115.9945,23.9426],[116.0081,23.9493],[116.0095,23.9625],[116.0283,23.9752],[116.0137,23.9838],[116.0043,23.9774],[115.9787,23.9899],[115.9796,24.0106],[115.9715,24.0247],[115.9431,24.0355],[115.9377,24.0463],[115.9207,24.0402],[115.9078,24.0568],[115.9242,24.0718],[115.9459,24.066],[115.9628,24.0687],[115.954,24.0818],[115.9381,24.0923],[115.9377,24.1058],[115.9576,24.1327],[115.9766,24.1328],[115.9684,24.1496],[115.9784,24.166],[115.9751,24.1763],[115.9558,24.1842],[115.9609,24.2014],[115.949,24.2403],[115.9287,24.2437],[115.9168,24.2551],[115.8838,24.2647],[115.882,24.2762],[115.8689,24.2903],[115.8741,24.3008],[115.8612,24.3187],[115.8502,24.3409],[115.8366,24.3402],[115.8189,24.3505],[115.802,24.3538],[115.785,24.3864],[115.7776,24.3942],[115.7811,24.4159],[115.7888,24.42],[115.7944,24.4492],[115.8104,24.4723]]]},"properties":{"region_code":"CN-44-4414-441481","parent_region_code":"CN-44-4414","name":"兴宁市","level":"county","has_children":false,"full_path":"中国 / 广东省 / 梅州市 / 兴宁市","source_admin_code":"441481","osm_relation_id":3233742}}
]}