{"type":"FeatureCollection", "features": [
{"type":"Feature","geometry":{"type":"Polygon","coordinates":[[[113.509,24.736],[113.5159,24.7378],[113.5223,24.7357],[113.5303,24.7371],[113.5379,24.7313],[113.5499,24.726],[113.5571,24.7209],[113.5612,24.7207],[113.5702,24.7289],[113.5717,24.7332],[113.5674,24.7434],[113.5684,24.7483],[113.5738,24.7592],[113.5771,24.7699],[113.5889,24.7946],[113.5881,24.7988],[113.5885,24.8144],[113.5834,24.8249],[113.5803,24.8273],[113.5665,24.8292],[113.5543,24.8236],[113.5417,24.8199],[113.5366,24.825],[113.5354,24.8349],[113.5407,24.8608],[113.5441,24.8687],[113.5436,24.8764],[113.5391,24.8787],[113.5255,24.8933],[113.5168,24.8723],[113.5093,24.8703],[113.4994,24.8696],[113.4935,24.8629],[113.4915,24.8644],[113.4922,24.8733],[113.4968,24.8891],[113.484,24.895],[113.4765,24.9034],[113.4707,24.9049],[113.4626,24.9013],[113.456,24.9009],[113.4538,24.9055],[113.4575,24.9084],[113.4546,24.9133],[113.4471,24.9183],[113.4421,24.9154],[113.4358,24.9091],[113.4328,24.9036],[113.4268,24.8988],[113.4203,24.8964],[113.4222,24.8918],[113.4156,24.8852],[113.4096,24.8769],[113.4074,24.8712],[113.4082,24.8671],[113.4048,24.8553],[113.3975,24.8538],[113.4022,24.8486],[113.4105,24.8366],[113.4169,24.8305],[113.4199,24.8306],[113.4296,24.8194],[113.4229,24.8078],[113.4181,24.8045],[113.4157,24.7991],[113.4187,24.7915],[113.417,24.7835],[113.4139,24.7844],[113.3991,24.7833],[113.3919,24.784],[113.3884,24.7911],[113.3843,24.7858],[113.3776,24.7868],[113.3712,24.7819],[113.371,24.7752],[113.3783,24.7761],[113.382,24.769],[113.3897,24.7709],[113.3943,24.7754],[113.3985,24.7727],[113.3943,24.7613],[113.3962,24.7574],[113.3955,24.7521],[113.3891,24.7525],[113.3871,24.747],[113.3801,24.7433],[113.3888,24.7316],[113.388,24.727],[113.3824,24.7228],[113.3775,24.723],[113.3747,24.728],[113.3699,24.7284],[113.3612,24.7208],[113.3591,24.7136],[113.3545,24.712],[113.3467,24.7125],[113.3327,24.705],[113.3344,24.7008],[113.33,24.6921],[113.3239,24.6902],[113.3212,24.685],[113.301,24.6821],[113.2974,24.6836],[113.2839,24.6855],[113.2706,24.6885],[113.2644,24.6878],[113.2602,24.6845],[113.2578,24.6758],[113.2533,24.6751],[113.2509,24.6836],[113.253,24.6868],[113.2483,24.6909],[113.2358,24.6946],[113.2299,24.694],[113.2282,24.6857],[113.2189,24.6858],[113.2175,24.6895],[113.2099,24.698],[113.2007,24.6928],[113.1921,24.6911],[113.1832,24.6823],[113.1739,24.6816],[113.1754,24.6742],[113.1671,24.6652],[113.1639,24.6654],[113.1591,24.6711],[113.152,24.6699],[113.1475,24.6595],[113.1512,24.6525],[113.1503,24.6467],[113.1539,24.6437],[113.1493,24.6373],[113.1515,24.633],[113.1466,24.6221],[113.1402,24.6165],[113.1302,24.6123],[113.1234,24.6066],[113.1228,24.6011],[113.135,24.6018],[113.14,24.6045],[113.1445,24.603],[113.1447,24.5908],[113.1492,24.5873],[113.1606,24.5876],[113.1653,24.5838],[113.1637,24.579],[113.156,24.5773],[113.1522,24.5736],[113.1452,24.5732],[113.1438,24.5667],[113.1583,24.5611],[113.1689,24.5622],[113.1769,24.5666],[113.1748,24.5734],[113.1752,24.5802],[113.182,24.579],[113.181,24.5695],[113.1868,24.5659],[113.1801,24.5585],[113.18,24.5559],[113.1888,24.556],[113.1942,24.5542],[113.1975,24.5423],[113.2008,24.5371],[113.2,24.528],[113.2014,24.5239],[113.2164,24.5285],[113.2186,24.5394],[113.2171,24.5418],[113.2177,24.5535],[113.228,24.554],[113.2357,24.5584],[113.2398,24.5635],[113.2462,24.5651],[113.2547,24.5694],[113.2574,24.5734],[113.2567,24.5875],[113.2576,24.5894],[113.2685,24.5953],[113.2878,24.5896],[113.2918,24.5826],[113.2955,24.5854],[113.3106,24.5808],[113.3214,24.5786],[113.3243,24.584],[113.3283,24.5845],[113.3283,24.5904],[113.3337,24.597],[113.3303,24.6023],[113.3357,24.604],[113.346,24.604],[113.354,24.6003],[113.3738,24.5992],[113.3768,24.6047],[113.3849,24.6043],[113.3974,24.6075],[113.3953,24.611],[113.3949,24.621],[113.4001,24.6238],[113.4078,24.6226],[113.4144,24.6253],[113.4262,24.6238],[113.4302,24.6322],[113.4282,24.6385],[113.4313,24.6441],[113.4283,24.6481],[113.4332,24.6599],[113.4402,24.6703],[113.4431,24.6781],[113.4513,24.6798],[113.4628,24.6922],[113.4614,24.6958],[113.4681,24.699],[113.466,24.7068],[113.4634,24.7101],[113.4699,24.7166],[113.4759,24.716],[113.4796,24.7206],[113.4885,24.7196],[113.4916,24.726],[113.5052,24.739],[113.509,24.736]]]},"properties":{"region_code":"CN-44-4402-440203","parent_region_code":"CN-44-4402","name":"武江区","level":"county","has_children":false,"full_path":"中国 / 广东省 / 韶关市 / 武江区","source_admin_code":"440203","osm_relation_id":3203991}},
{"type":"Feature","geometry":{"type":"Polygon","coordinates":[[[113.509,24.736],[113.506,24.732],[113.5066,24.7236],[113.5223,24.7152],[113.5246,24.7077],[113.5314,24.7081],[113.5387,24.7141],[113.5473,24.7135],[113.5523,24.7114],[113.5562,24.7136],[113.5599,24.7063],[113.5643,24.7064],[113.5698,24.7098],[113.5822,24.7111],[113.5847,24.7239],[113.5928,24.7255],[113.588,24.7336],[113.5933,24.7468],[113.5956,24.7502],[113.5962,24.7578],[113.6036,24.7576],[113.6059,24.7614],[113.6161,24.7613],[113.6208,24.7569],[113.6252,24.7558],[113.6291,24.7634],[113.6355,24.7627],[113.6367,24.7527],[113.6412,24.754],[113.6438,24.76],[113.6499,24.7635],[113.6575,24.7598],[113.6677,24.7659],[113.6778,24.7672],[113.6821,24.7695],[113.6869,24.7768],[113.6955,24.7749],[113.699,24.7822],[113.7048,24.7897],[113.7091,24.7916],[113.7104,24.7976],[113.7066,24.8124],[113.7139,24.8178],[113.7143,24.8218],[113.7185,24.8234],[113.7226,24.8285],[113.7184,24.8364],[113.7123,24.8417],[113.7032,24.8446],[113.6973,24.844],[113.6911,24.8561],[113.683,24.8594],[113.6783,24.868],[113.6733,24.8698],[113.6677,24.8793],[113.6669,24.8896],[113.6702,24.8947],[113.6798,24.8969],[113.6786,24.9002],[113.6793,24.9144],[113.6832,24.9168],[113.6796,24.9271],[113.6853,24.9293],[113.6819,24.935],[113.6853,24.9363],[113.6903,24.9337],[113.7021,24.9472],[113.7037,24.9521],[113.7119,24.9575],[113.716,24.9772],[113.707,24.9801],[113.6833,24.97],[113.6726,24.976],[113.6691,24.9748],[113.6649,24.9689],[113.6621,24.9684],[113.6607,24.961],[113.6509,24.9613],[113.6412,24.9573],[113.6497,24.9546],[113.6409,24.9499],[113.6286,24.9487],[113.6212,24.9468],[113.6192,24.9539],[113.602,24.9589],[113.6014,24.9679],[113.5978,24.9706],[113.5898,24.9711],[113.5869,24.9793],[113.5784,24.9815],[113.5744,24.9854],[113.5713,24.9927],[113.5713,25.0073],[113.5735,25.0186],[113.5714,25.023],[113.5644,25.0281],[113.5623,25.0351],[113.5543,25.0407],[113.5476,25.047],[113.5532,25.0572],[113.5456,25.0616],[113.5407,25.0604],[113.5362,25.0639],[113.5311,25.0757],[113.5279,25.0758],[113.523,25.0825],[113.5192,25.085],[113.5148,25.0961],[113.5014,25.0903],[113.4951,25.0848],[113.4905,25.0783],[113.487,25.0796],[113.4787,25.0779],[113.4682,25.0788],[113.4671,25.0763],[113.4563,25.0747],[113.455,25.0705],[113.4468,25.0656],[113.4445,25.0611],[113.4471,25.0545],[113.4425,25.0481],[113.4378,25.0453],[113.4375,25.0336],[113.431,25.0382],[113.4281,25.0323],[113.4328,25.0236],[113.4355,25.0086],[113.4397,25.0059],[113.4443,24.9999],[113.4437,24.9961],[113.4467,24.9902],[113.4411,24.9821],[113.4501,24.9784],[113.4555,24.9741],[113.4529,24.9707],[113.4592,24.9637],[113.4574,24.9565],[113.461,24.9526],[113.4522,24.9384],[113.4519,24.933],[113.4491,24.9304],[113.4536,24.9243],[113.4502,24.9186],[113.4471,24.9183],[113.4546,24.9133],[113.4575,24.9084],[113.4538,24.9055],[113.456,24.9009],[113.4626,24.9013],[113.4707,24.9049],[113.4765,24.9034],[113.484,24.895],[113.4968,24.8891],[113.4922,24.8733],[113.4915,24.8644],[113.4935,24.8629],[113.4994,24.8696],[113.5093,24.8703],[113.5168,24.8723],[113.5255,24.8933],[113.5391,24.8787],[113.5436,24.8764],[113.5441,24.8687],[113.5407,24.8608],[113.5354,24.8349],[113.5366,24.825],[113.5417,24.8199],[113.5543,24.8236],[113.5665,24.8292],[113.5803,24.8273],[113.5834,24.8249],[113.5885,24.8144],[113.5881,24.7988],[113.5889,24.7946],[113.5771,24.7699],[113.5738,24.7592],[113.5684,24.7483],[113.5674,24.7434],[113.5717,24.7332],[113.5702,24.7289],[113.5612,24.7207],[113.5571,24.7209],[113.5499,24.726],[113.5379,24.7313],[113.5303,24.7371],[113.5223,24.7357],[113.5159,24.7378],[113.509,24.736]]]},"properties":{"region_code":"CN-44-4402-440204","parent_region_code":"CN-44-4402","name":"浈江区","level":"county","has_children":false,"full_path":"中国 / 广东省 / 韶关市 / 浈江区","source_admin_code":"440204","osm_relation_id":3203993}},
{"type":"Feature","geometry":{"type":"Polygon","coordinates":[[[113.2014,24.5239],[113.2031,24.5196],[113.2023,24.5113],[113.211,24.5036],[113.2111,24.4986],[113.2176,24.5007],[113.2249,24.5004],[113.2306,24.5038],[113.2389,24.5041],[113.2417,24.5098],[113.248,24.5114],[113.2478,24.4969],[113.2516,24.496],[113.2551,24.4898],[113.2538,24.486],[113.2598,24.4812],[113.2652,24.4789],[113.2645,24.474],[113.2665,24.4684],[113.2729,24.4677],[113.2855,24.4638],[113.2908,24.4596],[113.2946,24.4606],[113.302,24.4672],[113.3115,24.4667],[113.317,24.4704],[113.3292,24.4754],[113.3361,24.4757],[113.3464,24.4736],[113.3518,24.4805],[113.3547,24.48],[113.3649,24.4885],[113.3676,24.4949],[113.3743,24.4958],[113.3725,24.4898],[113.38,24.4862],[113.3962,24.4881],[113.4025,24.4845],[113.407,24.4884],[113.4121,24.4874],[113.4118,24.4814],[113.406,24.4763],[113.4104,24.4684],[113.4102,24.4633],[113.4199,24.4613],[113.425,24.4585],[113.4348,24.4558],[113.4404,24.4602],[113.4552,24.4619],[113.4641,24.4646],[113.4677,24.473],[113.4763,24.4791],[113.4797,24.4759],[113.4863,24.4734],[113.4958,24.476],[113.4955,24.4794],[113.5014,24.4883],[113.5078,24.4837],[113.5131,24.4736],[113.5178,24.4757],[113.5191,24.4802],[113.5242,24.4837],[113.5237,24.4956],[113.5281,24.4975],[113.5332,24.5102],[113.5353,24.5129],[113.5479,24.5139],[113.554,24.5113],[113.5619,24.5103],[113.57,24.5128],[113.5792,24.5093],[113.5841,24.5185],[113.5884,24.5152],[113.5941,24.5161],[113.5965,24.5121],[113.5914,24.5033],[113.5961,24.4971],[113.6032,24.4989],[113.6052,24.4931],[113.6154,24.4924],[113.6233,24.4958],[113.6261,24.4909],[113.6324,24.4899],[113.6332,24.4826],[113.6469,24.4744],[113.649,24.471],[113.6608,24.4709],[113.6649,24.4659],[113.6681,24.4661],[113.6726,24.4692],[113.6734,24.473],[113.6602,24.4829],[113.6556,24.4895],[113.6553,24.4956],[113.6568,24.5167],[113.6615,24.5218],[113.6672,24.5311],[113.6672,24.5362],[113.6699,24.5424],[113.6668,24.5546],[113.6745,24.5519],[113.6797,24.5531],[113.6819,24.5491],[113.6896,24.5496],[113.7026,24.5578],[113.7035,24.5623],[113.7098,24.5643],[113.715,24.5596],[113.7194,24.5501],[113.725,24.5483],[113.7323,24.5498],[113.7372,24.5452],[113.7387,24.5364],[113.7449,24.5244],[113.7494,24.5238],[113.7558,24.5296],[113.764,24.531],[113.7643,24.5347],[113.7701,24.5361],[113.7671,24.5404],[113.7675,24.5447],[113.7624,24.5482],[113.7791,24.5515],[113.7812,24.5578],[113.7767,24.5601],[113.7825,24.5681],[113.779,24.5737],[113.7828,24.5793],[113.7802,24.5827],[113.7799,24.5915],[113.773,24.596],[113.7753,24.6019],[113.7837,24.6013],[113.7852,24.6045],[113.7927,24.6111],[113.7998,24.6084],[113.8053,24.6154],[113.8155,24.6256],[113.8214,24.6241],[113.8238,24.6194],[113.8279,24.6193],[113.8372,24.6228],[113.8447,24.6211],[113.8494,24.6231],[113.8548,24.6225],[113.8626,24.6253],[113.869,24.6238],[113.8761,24.6248],[113.8781,24.6317],[113.8834,24.6374],[113.8826,24.6465],[113.8906,24.6538],[113.8897,24.6579],[113.9065,24.6727],[113.9063,24.6768],[113.9018,24.6812],[113.8918,24.6827],[113.8883,24.6868],[113.8925,24.6975],[113.8957,24.7024],[113.905,24.7111],[113.9073,24.7214],[113.9181,24.7286],[113.9305,24.7286],[113.937,24.7355],[113.9438,24.7377],[113.9512,24.7471],[113.9561,24.7504],[113.9572,24.7568],[113.9612,24.763],[113.9616,24.7707],[113.9578,24.783],[113.9585,24.7863],[113.968,24.7985],[113.9676,24.8048],[113.9729,24.8128],[113.9695,24.8193],[113.9651,24.8317],[113.961,24.8369],[113.9528,24.8413],[113.9484,24.847],[113.9395,24.8514],[113.931,24.8483],[113.9242,24.8482],[113.9218,24.8452],[113.9242,24.8388],[113.9179,24.839],[113.9129,24.8361],[113.9082,24.8396],[113.9033,24.8335],[113.9023,24.8284],[113.9069,24.8238],[113.9021,24.8204],[113.8957,24.8219],[113.8931,24.8289],[113.8818,24.8361],[113.878,24.8332],[113.8726,24.834],[113.8706,24.8395],[113.8662,24.8434],[113.8566,24.8451],[113.8436,24.838],[113.8377,24.8388],[113.8366,24.8356],[113.8284,24.8293],[113.8139,24.8309],[113.8082,24.8305],[113.7997,24.8391],[113.791,24.844],[113.7842,24.8499],[113.7765,24.8485],[113.7693,24.8539],[113.759,24.8524],[113.756,24.861],[113.7519,24.863],[113.7521,24.8697],[113.7467,24.8755],[113.7353,24.8679],[113.7249,24.8655],[113.7206,24.8622],[113.7117,24.8639],[113.7057,24.8665],[113.7019,24.8639],[113.6992,24.8572],[113.6911,24.8561],[113.6973,24.844],[113.7032,24.8446],[113.7123,24.8417],[113.7184,24.8364],[113.7226,24.8285],[113.7185,24.8234],[113.7143,24.8218],[113.7139,24.8178],[113.7066,24.8124],[113.7104,24.7976],[113.7091,24.7916],[113.7048,24.7897],[113.699,24.7822],[113.6955,24.7749],[113.6869,24.7768],[113.6821,24.7695],[113.6778,24.7672],[113.6677,24.7659],[113.6575,24.7598],[113.6499,24.7635],[113.6438,24.76],[113.6412,24.754],[113.6367,24.7527],[113.6355,24.7627],[113.6291,24.7634],[113.6252,24.7558],[113.6208,24.7569],[113.6161,24.7613],[113.6059,24.7614],[113.6036,24.7576],[113.5962,24.7578],[113.5956,24.7502],[113.5933,24.7468],[113.588,24.7336],[113.5928,24.7255],[113.5847,24.7239],[113.5822,24.7111],[113.5698,24.7098],[113.5643,24.7064],[113.5599,24.7063],[113.5562,24.7136],[113.5523,24.7114],[113.5473,24.7135],[113.5387,24.7141],[113.5314,24.7081],[113.5246,24.7077],[113.5223,24.7152],[113.5066,24.7236],[113.506,24.732],[113.509,24.736],[113.5052,24.739],[113.4916,24.726],[113.4885,24.7196],[113.4796,24.7206],[113.4759,24.716],[113.4699,24.7166],[113.4634,24.7101],[113.466,24.7068],[113.4681,24.699],[113.4614,24.6958],[113.4628,24.6922],[113.4513,24.6798],[113.4431,24.6781],[113.4402,24.6703],[113.4332,24.6599],[113.4283,24.6481],[113.4313,24.6441],[113.4282,24.6385],[113.4302,24.6322],[113.4262,24.6238],[113.4144,24.6253],[113.4078,24.6226],[113.4001,24.6238],[113.3949,24.621],[113.3953,24.611],[113.3974,24.6075],[113.3849,24.6043],[113.3768,24.6047],[113.3738,24.5992],[113.354,24.6003],[113.346,24.604],[113.3357,24.604],[113.3303,24.6023],[113.3337,24.597],[113.3283,24.5904],[113.3283,24.5845],[113.3243,24.584],[113.3214,24.5786],[113.3106,24.5808],[113.2955,24.5854],[113.2918,24.5826],[113.2878,24.5896],[113.2685,24.5953],[113.2576,24.5894],[113.2567,24.5875],[113.2574,24.5734],[113.2547,24.5694],[113.2462,24.5651],[113.2398,24.5635],[113.2357,24.5584],[113.228,24.554],[113.2177,24.5535],[113.2171,24.5418],[113.2186,24.5394],[113.2164,24.5285],[113.2014,24.5239]]]},"properties":{"region_code":"CN-44-4402-440205","parent_region_code":"CN-44-4402","name":"曲江区","level":"county","has_children":false,"full_path":"中国 / 广东省 / 韶关市 / 曲江区","source_admin_code":"440205","osm_relation_id":3203987}},
{"type":"Feature","geometry":{"type":"Polygon","coordinates":[[[113.8761,24.6248],[113.8784,24.6192],[113.8885,24.6072],[113.8913,24.5984],[113.8949,24.5973],[113.8917,24.5881],[113.8885,24.586],[113.8861,24.58],[113.8882,24.5742],[113.8869,24.5699],[113.8937,24.5648],[113.9019,24.5665],[113.9012,24.5586],[113.9041,24.5577],[113.9129,24.5602],[113.9161,24.5594],[113.9257,24.5513],[113.9226,24.5446],[113.9253,24.5407],[113.9344,24.5435],[113.9418,24.5431],[113.9569,24.5371],[113.9682,24.5299],[113.9766,24.5296],[113.9846,24.5271],[113.9898,24.522],[114.0023,24.5243],[114.0051,24.5277],[114.0198,24.5287],[114.0273,24.5327],[114.034,24.5442],[114.0325,24.5533],[114.0274,24.5646],[114.028,24.5684],[114.0353,24.5801],[114.0334,24.5898],[114.0383,24.5934],[114.046,24.6078],[114.0449,24.6114],[114.0507,24.6204],[114.0663,24.6177],[114.0751,24.6066],[114.0811,24.6042],[114.0896,24.6059],[114.0941,24.6118],[114.1005,24.614],[114.1114,24.6213],[114.1203,24.6213],[114.1436,24.625],[114.15,24.63],[114.159,24.6333],[114.1694,24.6484],[114.1681,24.6589],[114.1754,24.6627],[114.1773,24.656],[114.1842,24.6579],[114.1849,24.6612],[114.1789,24.6656],[114.178,24.6719],[114.1727,24.6752],[114.1704,24.6803],[114.1644,24.687],[114.1646,24.6929],[114.1696,24.6951],[114.1866,24.6973],[114.1938,24.6947],[114.1983,24.6912],[114.2067,24.6919],[114.2261,24.7007],[114.2439,24.702],[114.2516,24.7003],[114.2582,24.7036],[114.2666,24.7033],[114.2713,24.7055],[114.2746,24.7111],[114.2745,24.7206],[114.2767,24.7267],[114.2839,24.7332],[114.2887,24.7348],[114.2977,24.7341],[114.3083,24.7383],[114.3118,24.7444],[114.3239,24.7479],[114.3319,24.7542],[114.3368,24.7668],[114.3349,24.775],[114.3288,24.7837],[114.3302,24.7886],[114.339,24.7927],[114.3399,24.8023],[114.3367,24.8141],[114.3441,24.8197],[114.3527,24.8224],[114.3513,24.832],[114.358,24.8402],[114.3581,24.8469],[114.3691,24.8552],[114.373,24.8642],[114.3824,24.8662],[114.3882,24.873],[114.3954,24.8765],[114.3984,24.8812],[114.4,24.8943],[114.3957,24.9058],[114.3863,24.9141],[114.3861,24.9161],[114.3936,24.9206],[114.397,24.9322],[114.3914,24.9382],[114.3932,24.9466],[114.3903,24.9533],[114.3864,24.959],[114.3794,24.9567],[114.364,24.9549],[114.3573,24.9566],[114.3521,24.9616],[114.3484,24.9618],[114.3448,24.9575],[114.3357,24.9571],[114.3299,24.9627],[114.3294,24.9681],[114.3218,24.9689],[114.3206,24.9614],[114.3129,24.9633],[114.3001,24.9584],[114.2932,24.961],[114.2903,24.9557],[114.2818,24.9581],[114.2743,24.9556],[114.2723,24.9505],[114.2624,24.9515],[114.2579,24.9536],[114.2595,24.9614],[114.2544,24.9622],[114.251,24.9594],[114.2437,24.958],[114.2403,24.9553],[114.2356,24.9568],[114.2421,24.9669],[114.2416,24.9732],[114.2472,24.9759],[114.2484,24.9802],[114.247,24.9919],[114.2531,24.9924],[114.2553,24.9984],[114.2515,25.0047],[114.2517,25.011],[114.2544,25.0154],[114.2551,25.0359],[114.2504,25.0426],[114.2422,25.0431],[114.2372,25.0554],[114.2297,25.0542],[114.2151,25.0606],[114.2128,25.0661],[114.2056,25.0666],[114.2015,25.0619],[114.1963,25.0616],[114.1825,25.0661],[114.1847,25.0706],[114.1826,25.0778],[114.1822,25.0868],[114.1755,25.0931],[114.178,25.1],[114.1686,25.1049],[114.1657,25.1118],[114.1563,25.1168],[114.1507,25.1288],[114.147,25.1315],[114.1481,25.1399],[114.1457,25.1432],[114.1363,25.1394],[114.136,25.1444],[114.1196,25.1465],[114.1112,25.1434],[114.1038,25.1448],[114.0993,25.1403],[114.1005,25.1347],[114.0903,25.1333],[114.0809,25.1343],[114.0675,25.1376],[114.0618,25.1353],[114.0536,25.142],[114.0485,25.1397],[114.0458,25.1353],[114.0363,25.1326],[114.0322,25.1258],[114.0227,25.1196],[114.0181,25.1133],[114.0051,25.1041],[113.9964,25.1001],[113.9893,25.0967],[113.9757,25.0993],[113.9693,25.1024],[113.9612,25.0962],[113.9584,25.0965],[113.9534,25.0883],[113.9491,25.0903],[113.9443,25.0849],[113.9327,25.0807],[113.9244,25.0726],[113.9296,25.0642],[113.9299,25.0467],[113.931,25.0435],[113.9258,25.0389],[113.9156,25.0365],[113.9065,25.0359],[113.9031,25.0285],[113.9063,25.0264],[113.9135,25.0268],[113.9166,25.0173],[113.9188,25.0041],[113.9251,24.9925],[113.9226,24.9847],[113.9233,24.9807],[113.9291,24.97],[113.9227,24.9603],[113.9238,24.9529],[113.9223,24.9385],[113.921,24.9346],[113.911,24.9441],[113.9046,24.9415],[113.9079,24.9263],[113.9065,24.9199],[113.9024,24.9174],[113.9018,24.9093],[113.8998,24.9058],[113.9062,24.8944],[113.9074,24.8832],[113.9119,24.878],[113.9157,24.8801],[113.9254,24.8765],[113.9269,24.8692],[113.9361,24.861],[113.9402,24.8545],[113.9395,24.8514],[113.9484,24.847],[113.9528,24.8413],[113.961,24.8369],[113.9651,24.8317],[113.9695,24.8193],[113.9729,24.8128],[113.9676,24.8048],[113.968,24.7985],[113.9585,24.7863],[113.9578,24.783],[113.9616,24.7707],[113.9612,24.763],[113.9572,24.7568],[113.9561,24.7504],[113.9512,24.7471],[113.9438,24.7377],[113.937,24.7355],[113.9305,24.7286],[113.9181,24.7286],[113.9073,24.7214],[113.905,24.7111],[113.8957,24.7024],[113.8925,24.6975],[113.8883,24.6868],[113.8918,24.6827],[113.9018,24.6812],[113.9063,24.6768],[113.9065,24.6727],[113.8897,24.6579],[113.8906,24.6538],[113.8826,24.6465],[113.8834,24.6374],[113.8781,24.6317],[113.8761,24.6248]]]},"properties":{"region_code":"CN-44-4402-440222","parent_region_code":"CN-44-4402","name":"始兴县","level":"county","has_children":false,"full_path":"中国 / 广东省 / 韶关市 / 始兴县","source_admin_code":"440222","osm_relation_id":3203989}},
{"type":"Feature","geometry":{"type":"Polygon","coordinates":[[[113.6911,24.8561],[113.6992,24.8572],[113.7019,24.8639],[113.7057,24.8665],[113.7117,24.8639],[113.7206,24.8622],[113.7249,24.8655],[113.7353,24.8679],[113.7467,24.8755],[113.7521,24.8697],[113.7519,24.863],[113.756,24.861],[113.759,24.8524],[113.7693,24.8539],[113.7765,24.8485],[113.7842,24.8499],[113.791,24.844],[113.7997,24.8391],[113.8082,24.8305],[113.8139,24.8309],[113.8284,24.8293],[113.8366,24.8356],[113.8377,24.8388],[113.8436,24.838],[113.8566,24.8451],[113.8662,24.8434],[113.8706,24.8395],[113.8726,24.834],[113.878,24.8332],[113.8818,24.8361],[113.8931,24.8289],[113.8957,24.8219],[113.9021,24.8204],[113.9069,24.8238],[113.9023,24.8284],[113.9033,24.8335],[113.9082,24.8396],[113.9129,24.8361],[113.9179,24.839],[113.9242,24.8388],[113.9218,24.8452],[113.9242,24.8482],[113.931,24.8483],[113.9395,24.8514],[113.9402,24.8545],[113.9361,24.861],[113.9269,24.8692],[113.9254,24.8765],[113.9157,24.8801],[113.9119,24.878],[113.9074,24.8832],[113.9062,24.8944],[113.8998,24.9058],[113.9018,24.9093],[113.9024,24.9174],[113.9065,24.9199],[113.9079,24.9263],[113.9046,24.9415],[113.911,24.9441],[113.921,24.9346],[113.9223,24.9385],[113.9238,24.9529],[113.9227,24.9603],[113.9291,24.97],[113.9233,24.9807],[113.9226,24.9847],[113.9251,24.9925],[113.9188,25.0041],[113.9166,25.0173],[113.9135,25.0268],[113.9063,25.0264],[113.9031,25.0285],[113.9065,25.0359],[113.9156,25.0365],[113.9258,25.0389],[113.931,25.0435],[113.9299,25.0467],[113.9296,25.0642],[113.9244,25.0726],[113.9327,25.0807],[113.9443,25.0849],[113.9491,25.0903],[113.9534,25.0883],[113.9584,25.0965],[113.9612,25.0962],[113.9693,25.1024],[113.9757,25.0993],[113.9893,25.0967],[113.9964,25.1001],[113.9904,25.1099],[113.9882,25.1104],[113.9887,25.1202],[113.9856,25.1221],[113.983,25.1306],[113.9768,25.1299],[113.9751,25.1343],[113.968,25.1296],[113.9581,25.133],[113.961,25.14],[113.9573,25.1422],[113.9535,25.1487],[113.9496,25.1477],[113.9465,25.1613],[113.942,25.1657],[113.9356,25.1633],[113.9321,25.1648],[113.9304,25.1709],[113.9256,25.1731],[113.9273,25.1788],[113.9321,25.1787],[113.932,25.1836],[113.938,25.1869],[113.942,25.1919],[113.9432,25.1971],[113.947,25.2009],[113.9482,25.2074],[113.957,25.2166],[113.9635,25.2176],[113.9664,25.2256],[113.9724,25.2286],[113.9756,25.2355],[113.9687,25.2387],[113.961,25.2399],[113.9589,25.2427],[113.9677,25.2447],[113.9625,25.248],[113.9636,25.2539],[113.9709,25.2605],[113.9714,25.2718],[113.9786,25.2764],[113.9913,25.2718],[113.9963,25.2723],[114.0029,25.2811],[114.0109,25.2827],[114.0177,25.2864],[114.0215,25.2929],[114.0225,25.3005],[114.0207,25.3047],[114.0292,25.3114],[114.0423,25.3104],[114.0484,25.3149],[114.0392,25.3215],[114.0285,25.3241],[114.0251,25.3293],[114.0236,25.3375],[114.0295,25.3402],[114.0312,25.346],[114.043,25.3446],[114.0463,25.3502],[114.0412,25.3561],[114.0403,25.3612],[114.0364,25.3642],[114.0459,25.3666],[114.0404,25.3712],[114.0329,25.3719],[114.0292,25.3747],[114.0202,25.3763],[114.0282,25.3835],[114.0327,25.3832],[114.04,25.3869],[114.0348,25.395],[114.0263,25.3936],[114.0171,25.3876],[114.0135,25.3903],[114.0056,25.3896],[114.0055,25.3959],[114.0026,25.4],[113.9952,25.4009],[113.9912,25.4042],[113.9866,25.4043],[113.9798,25.4093],[113.977,25.4167],[113.9807,25.4221],[113.9868,25.4262],[114.0012,25.4395],[113.9997,25.4442],[113.9942,25.4476],[113.9859,25.4458],[113.9744,25.4515],[113.9648,25.4521],[113.9564,25.4569],[113.95,25.4494],[113.939,25.4446],[113.9363,25.4409],[113.9286,25.441],[113.9226,25.4454],[113.9165,25.4444],[113.9072,25.4462],[113.9084,25.4417],[113.8978,25.4442],[113.8908,25.4413],[113.881,25.4395],[113.8795,25.4361],[113.881,25.4297],[113.8784,25.4234],[113.8852,25.421],[113.887,25.4147],[113.8785,25.4135],[113.8766,25.4108],[113.8784,25.3999],[113.8728,25.3912],[113.8724,25.3844],[113.862,25.3789],[113.8577,25.3733],[113.839,25.3695],[113.828,25.3588],[113.8276,25.3468],[113.8179,25.3348],[113.8097,25.3316],[113.7969,25.332],[113.7918,25.3334],[113.7852,25.3328],[113.7825,25.3359],[113.7763,25.3374],[113.7578,25.3323],[113.7527,25.3328],[113.7508,25.3363],[113.7591,25.3371],[113.7591,25.3418],[113.7537,25.3441],[113.7513,25.3486],[113.7528,25.3543],[113.7462,25.3669],[113.7419,25.3683],[113.738,25.366],[113.7324,25.3583],[113.7326,25.3516],[113.7276,25.3527],[113.7215,25.3574],[113.7194,25.3619],[113.7152,25.3625],[113.7019,25.3554],[113.6825,25.3559],[113.6789,25.3491],[113.6815,25.345],[113.6752,25.337],[113.6697,25.3397],[113.6615,25.3389],[113.6559,25.3364],[113.6497,25.3308],[113.6409,25.3294],[113.6352,25.3315],[113.6279,25.331],[113.626,25.3336],[113.6197,25.3295],[113.6107,25.3306],[113.5858,25.3181],[113.5811,25.3109],[113.5755,25.3095],[113.5763,25.3181],[113.5728,25.319],[113.5716,25.3163],[113.5607,25.3108],[113.5537,25.3048],[113.5531,25.2963],[113.5462,25.2897],[113.55,25.2851],[113.5497,25.2761],[113.5463,25.2666],[113.5405,25.2605],[113.5467,25.258],[113.5445,25.2535],[113.5488,25.2492],[113.5415,25.2393],[113.539,25.229],[113.5436,25.2201],[113.5391,25.2158],[113.5346,25.2148],[113.5348,25.2091],[113.533,25.1982],[113.5278,25.192],[113.5322,25.1889],[113.5308,25.1847],[113.5338,25.1777],[113.5304,25.1734],[113.5296,25.1668],[113.5268,25.1629],[113.5188,25.1623],[113.5169,25.1596],[113.5077,25.153],[113.5075,25.1457],[113.5097,25.142],[113.5124,25.1284],[113.5162,25.1241],[113.5178,25.1138],[113.5203,25.1096],[113.521,25.1028],[113.5148,25.0961],[113.5192,25.085],[113.523,25.0825],[113.5279,25.0758],[113.5311,25.0757],[113.5362,25.0639],[113.5407,25.0604],[113.5456,25.0616],[113.5532,25.0572],[113.5476,25.047],[113.5543,25.0407],[113.5623,25.0351],[113.5644,25.0281],[113.5714,25.023],[113.5735,25.0186],[113.5713,25.0073],[113.5713,24.9927],[113.5744,24.9854],[113.5784,24.9815],[113.5869,24.9793],[113.5898,24.9711],[113.5978,24.9706],[113.6014,24.9679],[113.602,24.9589],[113.6192,24.9539],[113.6212,24.9468],[113.6286,24.9487],[113.6409,24.9499],[113.6497,24.9546],[113.6412,24.9573],[113.6509,24.9613],[113.6607,24.961],[113.6621,24.9684],[113.6649,24.9689],[113.6691,24.9748],[113.6726,24.976],[113.6833,24.97],[113.707,24.9801],[113.716,24.9772],[113.7119,24.9575],[113.7037,24.9521],[113.7021,24.9472],[113.6903,24.9337],[113.6853,24.9363],[113.6819,24.935],[113.6853,24.9293],[113.6796,24.9271],[113.6832,24.9168],[113.6793,24.9144],[113.6786,24.9002],[113.6798,24.8969],[113.6702,24.8947],[113.6669,24.8896],[113.6677,24.8793],[113.6733,24.8698],[113.6783,24.868],[113.683,24.8594],[113.6911,24.8561]]]},"properties":{"region_code":"CN-44-4402-440224","parent_region_code":"CN-44-4402","name":"仁化县","level":"county","has_children":false,"full_path":"中国 / 广东省 / 韶关市 / 仁化县","source_admin_code":"440224","osm_relation_id":3203988}},
{"type":"Feature","geometry":{"type":"Polygon","coordinates":[[[113.6681,24.4661],[113.6704,24.4619],[113.6767,24.4583],[113.678,24.4443],[113.6913,24.4315],[113.6939,24.4272],[113.6979,24.4265],[113.7015,24.4193],[113.7063,24.414],[113.7119,24.4139],[113.717,24.4175],[113.7183,24.4338],[113.7217,24.4399],[113.7276,24.4411],[113.7321,24.4383],[113.7377,24.4413],[113.7481,24.4401],[113.7568,24.436],[113.7586,24.432],[113.7581,24.4196],[113.7694,24.4172],[113.773,24.4138],[113.7801,24.4143],[113.784,24.4127],[113.7865,24.408],[113.792,24.4046],[113.7987,24.4045],[113.8003,24.3876],[113.7945,24.385],[113.7947,24.3799],[113.8001,24.3729],[113.8027,24.3731],[113.808,24.3571],[113.8127,24.3519],[113.8106,24.3483],[113.8187,24.3417],[113.8283,24.3393],[113.8337,24.3413],[113.8436,24.3283],[113.8443,24.3144],[113.8397,24.3094],[113.8423,24.2826],[113.8462,24.2781],[113.8366,24.2749],[113.8355,24.2671],[113.838,24.2641],[113.8518,24.2563],[113.8581,24.2619],[113.8664,24.2587],[113.8668,24.2535],[113.8644,24.2454],[113.869,24.2422],[113.8724,24.2469],[113.8781,24.2497],[113.8876,24.2438],[113.8854,24.2328],[113.8901,24.2298],[113.8876,24.2251],[113.8912,24.2205],[113.8908,24.212],[113.8959,24.2089],[113.9061,24.2063],[113.9105,24.2029],[113.916,24.2037],[113.9213,24.2043],[113.9261,24.2015],[113.9328,24.2028],[113.9378,24.2076],[113.9416,24.2084],[113.9488,24.2064],[113.9565,24.2106],[113.9671,24.2074],[113.9638,24.2019],[113.9672,24.1888],[113.966,24.1863],[113.9719,24.1796],[113.975,24.1719],[113.9817,24.1682],[113.9812,24.1634],[113.9948,24.1598],[113.999,24.156],[113.9967,24.1486],[114.0182,24.1459],[114.0273,24.1508],[114.0294,24.1554],[114.0382,24.1499],[114.0347,24.1411],[114.0442,24.1311],[114.0428,24.1289],[114.0463,24.123],[114.05,24.1216],[114.0563,24.1258],[114.0609,24.1231],[114.0652,24.1244],[114.0779,24.1335],[114.0791,24.1379],[114.083,24.1406],[114.072,24.1437],[114.0674,24.147],[114.071,24.1578],[114.0776,24.1579],[114.0796,24.1618],[114.0797,24.1697],[114.0816,24.1731],[114.0892,24.1717],[114.0914,24.1749],[114.0855,24.1778],[114.0899,24.1847],[114.0886,24.1945],[114.0795,24.1947],[114.0806,24.2001],[114.0853,24.2072],[114.082,24.2159],[114.0783,24.2203],[114.0895,24.2306],[114.095,24.2341],[114.1046,24.2357],[114.1092,24.241],[114.1279,24.2457],[114.1306,24.2485],[114.1416,24.2424],[114.1486,24.2493],[114.1506,24.2484],[114.1593,24.2518],[114.1723,24.2607],[114.1835,24.2506],[114.1894,24.2626],[114.198,24.261],[114.2053,24.2656],[114.2058,24.2693],[114.2134,24.2732],[114.2242,24.2701],[114.2361,24.2713],[114.2442,24.2684],[114.2476,24.2729],[114.2459,24.2811],[114.2489,24.2924],[114.2533,24.294],[114.2584,24.2903],[114.2604,24.2852],[114.2641,24.2864],[114.2652,24.2914],[114.2719,24.3014],[114.2761,24.3055],[114.2756,24.3159],[114.2697,24.3203],[114.2679,24.3254],[114.2691,24.33],[114.2739,24.3379],[114.2838,24.344],[114.2887,24.3494],[114.2892,24.3539],[114.2839,24.3577],[114.2775,24.3663],[114.2576,24.3664],[114.2483,24.3635],[114.2434,24.3683],[114.2472,24.3709],[114.2447,24.3782],[114.2443,24.3847],[114.2464,24.394],[114.2511,24.4038],[114.2407,24.4142],[114.2407,24.4193],[114.2362,24.4261],[114.2448,24.4349],[114.2524,24.4368],[114.2612,24.4446],[114.2793,24.4568],[114.2776,24.4602],[114.2861,24.4663],[114.2876,24.4724],[114.2941,24.4745],[114.2985,24.4734],[114.3085,24.4818],[114.3006,24.4846],[114.2955,24.4947],[114.283,24.5012],[114.2813,24.5055],[114.2737,24.5165],[114.2769,24.5216],[114.274,24.5276],[114.2664,24.5328],[114.2687,24.5366],[114.284,24.5408],[114.2829,24.5479],[114.2883,24.5548],[114.3001,24.5577],[114.3056,24.5614],[114.3034,24.5769],[114.2963,24.5816],[114.2943,24.5917],[114.2871,24.6013],[114.2852,24.6107],[114.2847,24.6213],[114.2771,24.6243],[114.2766,24.6299],[114.2711,24.635],[114.2628,24.6336],[114.2559,24.6372],[114.2539,24.6434],[114.2421,24.6482],[114.2378,24.6482],[114.2257,24.6433],[114.2212,24.6438],[114.2159,24.6472],[114.2078,24.6492],[114.2036,24.6524],[114.2019,24.6567],[114.187,24.6555],[114.1787,24.6501],[114.1694,24.6484],[114.159,24.6333],[114.15,24.63],[114.1436,24.625],[114.1203,24.6213],[114.1114,24.6213],[114.1005,24.614],[114.0941,24.6118],[114.0896,24.6059],[114.0811,24.6042],[114.0751,24.6066],[114.0663,24.6177],[114.0507,24.6204],[114.0449,24.6114],[114.046,24.6078],[114.0383,24.5934],[114.0334,24.5898],[114.0353,24.5801],[114.028,24.5684],[114.0274,24.5646],[114.0325,24.5533],[114.034,24.5442],[114.0273,24.5327],[114.0198,24.5287],[114.0051,24.5277],[114.0023,24.5243],[113.9898,24.522],[113.9846,24.5271],[113.9766,24.5296],[113.9682,24.5299],[113.9569,24.5371],[113.9418,24.5431],[113.9344,24.5435],[113.9253,24.5407],[113.9226,24.5446],[113.9257,24.5513],[113.9161,24.5594],[113.9129,24.5602],[113.9041,24.5577],[113.9012,24.5586],[113.9019,24.5665],[113.8937,24.5648],[113.8869,24.5699],[113.8882,24.5742],[113.8861,24.58],[113.8885,24.586],[113.8917,24.5881],[113.8949,24.5973],[113.8913,24.5984],[113.8885,24.6072],[113.8784,24.6192],[113.8761,24.6248],[113.869,24.6238],[113.8626,24.6253],[113.8548,24.6225],[113.8494,24.6231],[113.8447,24.6211],[113.8372,24.6228],[113.8279,24.6193],[113.8238,24.6194],[113.8214,24.6241],[113.8155,24.6256],[113.8053,24.6154],[113.7998,24.6084],[113.7927,24.6111],[113.7852,24.6045],[113.7837,24.6013],[113.7753,24.6019],[113.773,24.596],[113.7799,24.5915],[113.7802,24.5827],[113.7828,24.5793],[113.779,24.5737],[113.7825,24.5681],[113.7767,24.5601],[113.7812,24.5578],[113.7791,24.5515],[113.7624,24.5482],[113.7675,24.5447],[113.7671,24.5404],[113.7701,24.5361],[113.7643,24.5347],[113.764,24.531],[113.7558,24.5296],[113.7494,24.5238],[113.7449,24.5244],[113.7387,24.5364],[113.7372,24.5452],[113.7323,24.5498],[113.725,24.5483],[113.7194,24.5501],[113.715,24.5596],[113.7098,24.5643],[113.7035,24.5623],[113.7026,24.5578],[113.6896,24.5496],[113.6819,24.5491],[113.6797,24.5531],[113.6745,24.5519],[113.6668,24.5546],[113.6699,24.5424],[113.6672,24.5362],[113.6672,24.5311],[113.6615,24.5218],[113.6568,24.5167],[113.6553,24.4956],[113.6556,24.4895],[113.6602,24.4829],[113.6734,24.473],[113.6726,24.4692],[113.6681,24.4661]]]},"properties":{"region_code":"CN-44-4402-440229","parent_region_code":"CN-44-4402","name":"翁源县","level":"county","has_children":false,"full_path":"中国 / 广东省 / 韶关市 / 翁源县","source_admin_code":"440229","osm_relation_id":3203990}},
{"type":"Feature","geometry":{"type":"Polygon","coordinates":[[[113.4471,24.9183],[113.4502,24.9186],[113.4536,24.9243],[113.4491,24.9304],[113.4519,24.933],[113.4522,24.9384],[113.461,24.9526],[113.4574,24.9565],[113.4592,24.9637],[113.4529,24.9707],[113.4555,24.9741],[113.4501,24.9784],[113.4411,24.9821],[113.4467,24.9902],[113.4437,24.9961],[113.4443,24.9999],[113.4397,25.0059],[113.4355,25.0086],[113.4328,25.0236],[113.4281,25.0323],[113.431,25.0382],[113.4319,25.042],[113.4272,25.0473],[113.4183,25.0482],[113.4177,25.0394],[113.4145,25.0361],[113.4025,25.0362],[113.3942,25.034],[113.394,25.0406],[113.3865,25.0431],[113.3777,25.0394],[113.3716,25.0299],[113.3622,25.0249],[113.3611,25.0205],[113.3556,25.0194],[113.3443,25.0206],[113.3381,25.0186],[113.3318,25.0224],[113.3276,25.0282],[113.3224,25.032],[113.316,25.0334],[113.307,25.0301],[113.2991,25.0315],[113.2965,25.0249],[113.2917,25.0291],[113.2851,25.0311],[113.2827,25.0362],[113.277,25.0392],[113.2789,25.0426],[113.2745,25.0479],[113.2682,25.0461],[113.269,25.0516],[113.2741,25.0543],[113.2697,25.0626],[113.27,25.07],[113.2624,25.0768],[113.2559,25.0767],[113.2466,25.0739],[113.2422,25.0626],[113.2296,25.0582],[113.2257,25.061],[113.2144,25.0598],[113.2053,25.0626],[113.2007,25.0727],[113.1955,25.0736],[113.1923,25.0818],[113.1885,25.0875],[113.2018,25.0984],[113.199,25.1043],[113.1994,25.1103],[113.1925,25.1269],[113.1926,25.1325],[113.1861,25.1329],[113.1751,25.1489],[113.1672,25.1495],[113.1627,25.1459],[113.1649,25.1384],[113.1509,25.1314],[113.1482,25.123],[113.1454,25.1212],[113.1474,25.1122],[113.1452,25.1035],[113.1395,25.0948],[113.1314,25.0921],[113.1357,25.0877],[113.1351,25.0817],[113.1226,25.0804],[113.1149,25.0875],[113.1118,25.0835],[113.1155,25.0733],[113.1077,25.0718],[113.1037,25.0773],[113.0972,25.0767],[113.0961,25.081],[113.0899,25.0801],[113.0903,25.0766],[113.0786,25.0754],[113.0753,25.0703],[113.0786,25.0576],[113.0776,25.0481],[113.0799,25.036],[113.0787,25.0336],[113.0862,25.0307],[113.0857,25.0182],[113.0894,25.0135],[113.0836,25.0093],[113.0824,25.0047],[113.0729,24.9982],[113.0723,24.9923],[113.064,24.9869],[113.0632,24.9827],[113.0578,24.9814],[113.0482,24.9823],[113.0425,24.9922],[113.0374,24.992],[113.036,24.9871],[113.037,24.9803],[113.0282,24.9751],[113.0243,24.9757],[113.0231,24.9638],[113.0187,24.961],[113.0131,24.9668],[113.0028,24.9645],[112.9977,24.9599],[112.9985,24.9569],[113.0068,24.952],[112.9993,24.9445],[112.9889,24.9435],[112.9889,24.9312],[112.993,24.9241],[112.9976,24.9217],[112.9995,24.9165],[112.9959,24.9078],[113.0061,24.8984],[113.0051,24.8874],[113.0073,24.8824],[113.0167,24.8737],[113.0141,24.8588],[113.0093,24.8544],[112.9935,24.8534],[112.9812,24.8417],[112.9764,24.8415],[112.9739,24.8356],[112.9545,24.8273],[112.9459,24.8213],[112.9553,24.8023],[112.9531,24.7954],[112.9481,24.7937],[112.9433,24.789],[112.9477,24.7831],[112.9403,24.771],[112.941,24.7684],[112.9338,24.7603],[112.9274,24.7589],[112.928,24.7498],[112.9265,24.7464],[112.9346,24.7425],[112.9311,24.7326],[112.9216,24.7265],[112.9247,24.7227],[112.9214,24.7201],[112.91,24.719],[112.9049,24.7208],[112.8929,24.7199],[112.8921,24.7142],[112.8958,24.7131],[112.9002,24.7075],[112.8979,24.7002],[112.9038,24.6853],[112.9014,24.6803],[112.9048,24.6784],[112.9108,24.67],[112.907,24.6641],[112.8939,24.6576],[112.8904,24.6546],[112.8951,24.6446],[112.893,24.6356],[112.8845,24.6246],[112.8788,24.6198],[112.8789,24.6122],[112.8818,24.5984],[112.8936,24.6042],[112.8982,24.598],[112.9077,24.6029],[112.9173,24.6022],[112.9208,24.5991],[112.9317,24.6006],[112.9399,24.5973],[112.9476,24.5985],[112.9505,24.5939],[112.9567,24.5931],[112.96,24.5834],[112.9564,24.5779],[112.9581,24.5709],[112.9623,24.5718],[112.9673,24.5622],[112.9728,24.5608],[112.9738,24.5545],[112.9714,24.5503],[112.9801,24.5449],[112.9863,24.548],[112.9933,24.5402],[112.9935,24.5318],[113.0004,24.5253],[113.0168,24.517],[113.0188,24.5061],[113.0211,24.5052],[113.0203,24.4972],[113.0347,24.4846],[113.041,24.4811],[113.0422,24.4782],[113.0487,24.4788],[113.0524,24.4734],[113.061,24.4693],[113.0654,24.4759],[113.0806,24.4755],[113.0875,24.4875],[113.0879,24.4946],[113.0914,24.5025],[113.1052,24.504],[113.1095,24.5057],[113.1166,24.4996],[113.1278,24.4856],[113.1312,24.483],[113.1393,24.4842],[113.1468,24.4798],[113.1446,24.4719],[113.1506,24.4704],[113.1541,24.4755],[113.1565,24.4861],[113.1668,24.4769],[113.1716,24.482],[113.1787,24.4834],[113.1851,24.4817],[113.1896,24.4771],[113.199,24.4772],[113.2028,24.4802],[113.2036,24.4848],[113.2077,24.4892],[113.2111,24.4986],[113.211,24.5036],[113.2023,24.5113],[113.2031,24.5196],[113.2014,24.5239],[113.2,24.528],[113.2008,24.5371],[113.1975,24.5423],[113.1942,24.5542],[113.1888,24.556],[113.18,24.5559],[113.1801,24.5585],[113.1868,24.5659],[113.181,24.5695],[113.182,24.579],[113.1752,24.5802],[113.1748,24.5734],[113.1769,24.5666],[113.1689,24.5622],[113.1583,24.5611],[113.1438,24.5667],[113.1452,24.5732],[113.1522,24.5736],[113.156,24.5773],[113.1637,24.579],[113.1653,24.5838],[113.1606,24.5876],[113.1492,24.5873],[113.1447,24.5908],[113.1445,24.603],[113.14,24.6045],[113.135,24.6018],[113.1228,24.6011],[113.1234,24.6066],[113.1302,24.6123],[113.1402,24.6165],[113.1466,24.6221],[113.1515,24.633],[113.1493,24.6373],[113.1539,24.6437],[113.1503,24.6467],[113.1512,24.6525],[113.1475,24.6595],[113.152,24.6699],[113.1591,24.6711],[113.1639,24.6654],[113.1671,24.6652],[113.1754,24.6742],[113.1739,24.6816],[113.1832,24.6823],[113.1921,24.6911],[113.2007,24.6928],[113.2099,24.698],[113.2175,24.6895],[113.2189,24.6858],[113.2282,24.6857],[113.2299,24.694],[113.2358,24.6946],[113.2483,24.6909],[113.253,24.6868],[113.2509,24.6836],[113.2533,24.6751],[113.2578,24.6758],[113.2602,24.6845],[113.2644,24.6878],[113.2706,24.6885],[113.2839,24.6855],[113.2974,24.6836],[113.301,24.6821],[113.3212,24.685],[113.3239,24.6902],[113.33,24.6921],[113.3344,24.7008],[113.3327,24.705],[113.3467,24.7125],[113.3545,24.712],[113.3591,24.7136],[113.3612,24.7208],[113.3699,24.7284],[113.3747,24.728],[113.3775,24.723],[113.3824,24.7228],[113.388,24.727],[113.3888,24.7316],[113.3801,24.7433],[113.3871,24.747],[113.3891,24.7525],[113.3955,24.7521],[113.3962,24.7574],[113.3943,24.7613],[113.3985,24.7727],[113.3943,24.7754],[113.3897,24.7709],[113.382,24.769],[113.3783,24.7761],[113.371,24.7752],[113.3712,24.7819],[113.3776,24.7868],[113.3843,24.7858],[113.3884,24.7911],[113.3919,24.784],[113.3991,24.7833],[113.4139,24.7844],[113.417,24.7835],[113.4187,24.7915],[113.4157,24.7991],[113.4181,24.8045],[113.4229,24.8078],[113.4296,24.8194],[113.4199,24.8306],[113.4169,24.8305],[113.4105,24.8366],[113.4022,24.8486],[113.3975,24.8538],[113.4048,24.8553],[113.4082,24.8671],[113.4074,24.8712],[113.4096,24.8769],[113.4156,24.8852],[113.4222,24.8918],[113.4203,24.8964],[113.4268,24.8988],[113.4328,24.9036],[113.4358,24.9091],[113.4421,24.9154],[113.4471,24.9183]]]},"properties":{"region_code":"CN-44-4402-440232","parent_region_code":"CN-44-4402","name":"乳源瑶族自治县","level":"county","has_children":false,"full_path":"中国 / 广东省 / 韶关市 / 乳源瑶族自治县","source_admin_code":"440232","osm_relation_id":3124099}},
{"type":"Feature","geometry":{"type":"Polygon","coordinates":[[[113.916,24.2037],[113.9175,24.196],[113.9247,24.199],[113.9253,24.1914],[113.9228,24.1889],[113.9134,24.1903],[113.8996,24.1859],[113.9,24.1911],[113.8938,24.193],[113.8857,24.1879],[113.8849,24.1847],[113.878,24.1792],[113.8589,24.1707],[113.8594,24.1665],[113.8534,24.1621],[113.8576,24.1501],[113.8641,24.149],[113.8638,24.1435],[113.8661,24.1398],[113.853,24.1347],[113.8488,24.136],[113.848,24.1295],[113.8319,24.1215],[113.8307,24.1167],[113.8369,24.1078],[113.8305,24.1017],[113.8342,24.0997],[113.8314,24.0948],[113.8334,24.0908],[113.8406,24.0909],[113.8413,24.0879],[113.8346,24.0844],[113.833,24.0764],[113.8243,24.0741],[113.8266,24.0644],[113.8186,24.0624],[113.81,24.0561],[113.7994,24.0572],[113.7945,24.0495],[113.7903,24.0462],[113.7842,24.0311],[113.7853,24.0276],[113.7777,24.0254],[113.7743,24.0313],[113.7635,24.0272],[113.7602,24.023],[113.7524,24.0292],[113.7436,24.0285],[113.7372,24.0228],[113.7372,24.0174],[113.7307,24.0078],[113.724,24.0053],[113.7208,23.9994],[113.7135,23.9959],[113.7207,23.9877],[113.7261,23.9852],[113.728,23.9816],[113.7265,23.975],[113.7341,23.9736],[113.7348,23.9647],[113.7398,23.9618],[113.744,23.9644],[113.7476,23.9612],[113.753,23.9649],[113.7612,23.9637],[113.7657,23.9583],[113.7691,23.9582],[113.7688,23.9457],[113.7768,23.9386],[113.7869,23.935],[113.7952,23.9257],[113.7946,23.9156],[113.7922,23.9125],[113.7956,23.9062],[113.8023,23.9032],[113.8191,23.9123],[113.8226,23.9122],[113.831,23.92],[113.8398,23.9232],[113.8496,23.9248],[113.8592,23.9321],[113.8692,23.9316],[113.8744,23.9338],[113.8761,23.9291],[113.8825,23.9267],[113.8845,23.932],[113.8979,23.9323],[113.9043,23.9265],[113.9095,23.9272],[113.9201,23.9315],[113.9283,23.9321],[113.9364,23.9262],[113.9423,23.9277],[113.9473,23.9324],[113.955,23.9331],[113.9593,23.9311],[113.9771,23.9322],[113.9817,23.93],[113.9876,23.9332],[113.9975,23.9323],[114.0033,23.9356],[114.0049,23.9324],[114.0113,23.9287],[114.024,23.9251],[114.0277,23.9228],[114.0286,23.9178],[114.0264,23.9084],[114.0314,23.9039],[114.0362,23.9096],[114.0458,23.9268],[114.046,23.9319],[114.0489,23.9362],[114.0537,23.9369],[114.0615,23.9338],[114.0692,23.9334],[114.0705,23.9276],[114.0822,23.9282],[114.0879,23.9249],[114.0916,23.929],[114.1034,23.9286],[114.1124,23.9324],[114.1221,23.9394],[114.1315,23.9433],[114.1389,23.9428],[114.1414,23.9394],[114.1493,23.9395],[114.1538,23.9435],[114.1593,23.9565],[114.1623,23.9566],[114.1687,23.9615],[114.1728,23.9616],[114.1816,23.9583],[114.1816,23.9524],[114.1864,23.9474],[114.1932,23.9467],[114.1978,23.9441],[114.2018,23.947],[114.2083,23.9485],[114.2171,23.943],[114.226,23.943],[114.2342,23.9452],[114.2396,23.9513],[114.2432,23.9506],[114.2492,23.9551],[114.2551,23.956],[114.2588,23.9631],[114.2661,23.9628],[114.268,23.9579],[114.2668,23.9509],[114.261,23.9473],[114.25,23.945],[114.2424,23.9397],[114.2471,23.9344],[114.2429,23.9326],[114.2363,23.9205],[114.2319,23.9175],[114.2318,23.9133],[114.2391,23.91],[114.2505,23.91],[114.2568,23.9138],[114.2635,23.9054],[114.273,23.905],[114.2806,23.9088],[114.2864,23.9032],[114.2944,23.8988],[114.2985,23.8941],[114.3053,23.8943],[114.3164,23.897],[114.327,23.903],[114.3335,23.8954],[114.3447,23.8903],[114.346,23.8939],[114.354,23.8971],[114.3577,23.9037],[114.3574,23.9089],[114.3642,23.917],[114.3622,23.9199],[114.3662,23.9305],[114.3758,23.9313],[114.3773,23.9356],[114.3722,23.9495],[114.3749,23.9544],[114.382,23.9596],[114.3786,23.9631],[114.3799,23.9706],[114.3842,23.9732],[114.381,23.9774],[114.3779,23.9859],[114.3811,23.9924],[114.3808,23.9974],[114.3873,23.9944],[114.3866,24.0005],[114.3809,24.0028],[114.3804,24.0084],[114.3841,24.0149],[114.3907,24.0164],[114.3937,24.0215],[114.3877,24.0254],[114.3949,24.0271],[114.4056,24.0276],[114.4105,24.0293],[114.4164,24.0232],[114.4201,24.0364],[114.4377,24.0357],[114.4354,24.0432],[114.436,24.0478],[114.4308,24.053],[114.4327,24.0575],[114.4328,24.065],[114.4385,24.0721],[114.4549,24.0789],[114.458,24.0772],[114.4731,24.0847],[114.4757,24.088],[114.4803,24.1008],[114.4905,24.1074],[114.4846,24.1142],[114.4852,24.1182],[114.4925,24.1201],[114.5004,24.1108],[114.5035,24.1089],[114.51,24.1114],[114.5116,24.1163],[114.5107,24.1224],[114.5226,24.1306],[114.5227,24.1375],[114.5286,24.1369],[114.5295,24.1285],[114.5322,24.1256],[114.5384,24.1302],[114.5408,24.1346],[114.545,24.1329],[114.5471,24.1286],[114.5525,24.1266],[114.5618,24.1381],[114.5566,24.1413],[114.5571,24.1469],[114.5546,24.1555],[114.564,24.1622],[114.5787,24.1631],[114.5839,24.1668],[114.5915,24.1674],[114.5937,24.1765],[114.5961,24.1805],[114.5917,24.1868],[114.5858,24.1888],[114.5827,24.1942],[114.5871,24.1998],[114.5876,24.2067],[114.5953,24.2141],[114.589,24.2206],[114.5875,24.2293],[114.5789,24.2321],[114.573,24.2302],[114.5634,24.2341],[114.559,24.2405],[114.5599,24.2443],[114.5544,24.2501],[114.5494,24.2456],[114.5474,24.2387],[114.5442,24.2337],[114.5375,24.2293],[114.5364,24.2257],[114.5279,24.2236],[114.521,24.2234],[114.5119,24.2155],[114.508,24.2153],[114.5045,24.2058],[114.498,24.2019],[114.4957,24.1982],[114.4854,24.1936],[114.4812,24.1841],[114.4767,24.1786],[114.4763,24.1735],[114.4714,24.1718],[114.469,24.1675],[114.4641,24.1684],[114.4643,24.1758],[114.4538,24.1709],[114.4572,24.1672],[114.4621,24.1659],[114.4651,24.159],[114.4654,24.1474],[114.4621,24.1425],[114.4696,24.1382],[114.4722,24.1318],[114.4724,24.1265],[114.479,24.1203],[114.4717,24.1147],[114.4668,24.1172],[114.4597,24.1135],[114.4553,24.1174],[114.4415,24.1241],[114.4342,24.1248],[114.4305,24.13],[114.4254,24.133],[114.4221,24.1207],[114.4169,24.1214],[114.4114,24.1275],[114.4118,24.1347],[114.4157,24.1354],[114.415,24.141],[114.4093,24.1405],[114.3959,24.1415],[114.3897,24.1445],[114.3749,24.1422],[114.3699,24.1358],[114.3664,24.1342],[114.356,24.1385],[114.3459,24.1462],[114.3406,24.1428],[114.3346,24.1341],[114.3315,24.1272],[114.3232,24.13],[114.3241,24.1381],[114.3204,24.1435],[114.3173,24.1428],[114.3157,24.1492],[114.3092,24.1512],[114.3034,24.1656],[114.2938,24.1725],[114.2908,24.1767],[114.2868,24.1774],[114.2846,24.1851],[114.2871,24.1923],[114.291,24.1941],[114.2934,24.1987],[114.2932,24.205],[114.2809,24.211],[114.2757,24.2147],[114.2693,24.214],[114.2704,24.2203],[114.2679,24.225],[114.2683,24.2315],[114.2647,24.2344],[114.2598,24.2493],[114.2514,24.2526],[114.2483,24.2595],[114.2525,24.2616],[114.2692,24.2597],[114.2678,24.2652],[114.2545,24.2632],[114.2484,24.2645],[114.2476,24.2678],[114.255,24.2734],[114.2616,24.2739],[114.2615,24.2776],[114.2578,24.2819],[114.2604,24.2852],[114.2584,24.2903],[114.2533,24.294],[114.2489,24.2924],[114.2459,24.2811],[114.2476,24.2729],[114.2442,24.2684],[114.2361,24.2713],[114.2242,24.2701],[114.2134,24.2732],[114.2058,24.2693],[114.2053,24.2656],[114.198,24.261],[114.1894,24.2626],[114.1835,24.2506],[114.1723,24.2607],[114.1593,24.2518],[114.1506,24.2484],[114.1486,24.2493],[114.1416,24.2424],[114.1306,24.2485],[114.1279,24.2457],[114.1092,24.241],[114.1046,24.2357],[114.095,24.2341],[114.0895,24.2306],[114.0783,24.2203],[114.082,24.2159],[114.0853,24.2072],[114.0806,24.2001],[114.0795,24.1947],[114.0886,24.1945],[114.0899,24.1847],[114.0855,24.1778],[114.0914,24.1749],[114.0892,24.1717],[114.0816,24.1731],[114.0797,24.1697],[114.0796,24.1618],[114.0776,24.1579],[114.071,24.1578],[114.0674,24.147],[114.072,24.1437],[114.083,24.1406],[114.0791,24.1379],[114.0779,24.1335],[114.0652,24.1244],[114.0609,24.1231],[114.0563,24.1258],[114.05,24.1216],[114.0463,24.123],[114.0428,24.1289],[114.0442,24.1311],[114.0347,24.1411],[114.0382,24.1499],[114.0294,24.1554],[114.0273,24.1508],[114.0182,24.1459],[113.9967,24.1486],[113.999,24.156],[113.9948,24.1598],[113.9812,24.1634],[113.9817,24.1682],[113.975,24.1719],[113.9719,24.1796],[113.966,24.1863],[113.9672,24.1888],[113.9638,24.2019],[113.9671,24.2074],[113.9565,24.2106],[113.9488,24.2064],[113.9416,24.2084],[113.9378,24.2076],[113.9328,24.2028],[113.9261,24.2015],[113.9213,24.2043],[113.916,24.2037]]]},"properties":{"region_code":"CN-44-4402-440233","parent_region_code":"CN-44-4402","name":"新丰县","level":"county","has_children":false,"full_path":"中国 / 广东省 / 韶关市 / 新丰县","source_admin_code":"440233","osm_relation_id":3203992}},
{"type":"Feature","geometry":{"type":"Polygon","coordinates":[[[113.5148,25.0961],[113.521,25.1028],[113.5203,25.1096],[113.5178,25.1138],[113.5162,25.1241],[113.5124,25.1284],[113.5097,25.142],[113.5075,25.1457],[113.5077,25.153],[113.5169,25.1596],[113.5188,25.1623],[113.5268,25.1629],[113.5296,25.1668],[113.5304,25.1734],[113.5338,25.1777],[113.5308,25.1847],[113.5322,25.1889],[113.5278,25.192],[113.533,25.1982],[113.5348,25.2091],[113.5346,25.2148],[113.5391,25.2158],[113.5436,25.2201],[113.539,25.229],[113.5415,25.2393],[113.5488,25.2492],[113.5445,25.2535],[113.5467,25.258],[113.5405,25.2605],[113.5463,25.2666],[113.5497,25.2761],[113.55,25.2851],[113.5462,25.2897],[113.5531,25.2963],[113.5537,25.3048],[113.5607,25.3108],[113.5716,25.3163],[113.5728,25.319],[113.5758,25.3271],[113.5751,25.3329],[113.5785,25.3381],[113.5729,25.3497],[113.5626,25.3505],[113.561,25.3526],[113.5522,25.3527],[113.5503,25.3563],[113.5407,25.3654],[113.5383,25.3706],[113.5292,25.3707],[113.5263,25.3659],[113.5196,25.3595],[113.5147,25.3572],[113.5079,25.3654],[113.5116,25.3726],[113.5004,25.3755],[113.4956,25.3748],[113.4834,25.3776],[113.4802,25.3802],[113.4726,25.3795],[113.4686,25.3704],[113.4604,25.3699],[113.4573,25.3734],[113.4448,25.3623],[113.4389,25.3631],[113.4324,25.37],[113.4224,25.3767],[113.4173,25.392],[113.4178,25.3974],[113.4095,25.4024],[113.4015,25.4043],[113.3891,25.4014],[113.3832,25.4077],[113.3697,25.4052],[113.3671,25.4064],[113.3632,25.4159],[113.3639,25.419],[113.362,25.4302],[113.3596,25.4356],[113.3539,25.4414],[113.3462,25.441],[113.3346,25.4522],[113.3245,25.4541],[113.3174,25.4533],[113.3169,25.4498],[113.3125,25.4465],[113.3077,25.4465],[113.3072,25.457],[113.3092,25.4667],[113.3089,25.4731],[113.3038,25.4827],[113.3032,25.4872],[113.3059,25.4929],[113.3026,25.4957],[113.2984,25.5045],[113.2952,25.5051],[113.2913,25.5113],[113.2931,25.5138],[113.3008,25.5149],[113.2942,25.5194],[113.2857,25.52],[113.2824,25.5129],[113.2869,25.5067],[113.2838,25.4991],[113.2765,25.4971],[113.274,25.504],[113.2645,25.5085],[113.2601,25.5083],[113.2601,25.5034],[113.2544,25.5019],[113.2481,25.5073],[113.2481,25.5112],[113.2409,25.5191],[113.2321,25.5156],[113.2217,25.5138],[113.2142,25.5089],[113.2049,25.4999],[113.2063,25.4925],[113.195,25.4806],[113.1834,25.4792],[113.176,25.473],[113.1694,25.475],[113.1638,25.4828],[113.1663,25.4893],[113.162,25.4926],[113.1501,25.4959],[113.1437,25.4936],[113.1476,25.4819],[113.1457,25.4791],[113.1391,25.4815],[113.1346,25.4764],[113.1375,25.4729],[113.1467,25.4765],[113.1472,25.471],[113.1401,25.4721],[113.1304,25.4681],[113.1233,25.4675],[113.1173,25.4612],[113.1176,25.4517],[113.1124,25.4496],[113.1159,25.4428],[113.1236,25.4427],[113.1214,25.4364],[113.1264,25.4259],[113.1272,25.4177],[113.1233,25.4159],[113.1156,25.4174],[113.1094,25.4235],[113.1048,25.422],[113.0987,25.4244],[113.0859,25.4201],[113.0872,25.415],[113.0849,25.4009],[113.0803,25.3957],[113.0733,25.3909],[113.0745,25.3853],[113.059,25.3837],[113.0529,25.3813],[113.0509,25.3768],[113.0456,25.3754],[113.0377,25.3684],[113.0342,25.3701],[113.0277,25.3639],[113.0235,25.3634],[113.0236,25.3564],[113.0196,25.3562],[113.0201,25.3496],[113.0143,25.3483],[113.0094,25.3516],[113.0087,25.3553],[113.0036,25.356],[112.9983,25.3523],[112.9947,25.3548],[112.9902,25.3505],[112.9846,25.3528],[112.9793,25.3574],[112.9704,25.352],[112.9643,25.357],[112.9591,25.3425],[112.9543,25.3426],[112.944,25.3389],[112.943,25.3314],[112.9375,25.3283],[112.9319,25.3294],[112.9271,25.3261],[112.928,25.3207],[112.9221,25.3075],[112.9225,25.3012],[112.9174,25.2994],[112.9054,25.303],[112.8997,25.3116],[112.8957,25.3124],[112.8927,25.3297],[112.8903,25.335],[112.8905,25.3409],[112.8875,25.3433],[112.882,25.3393],[112.8808,25.3358],[112.8721,25.337],[112.8718,25.3334],[112.8657,25.3299],[112.8547,25.3369],[112.8503,25.3408],[112.8467,25.339],[112.8484,25.3293],[112.8538,25.3254],[112.8542,25.3215],[112.8502,25.3181],[112.8502,25.3109],[112.854,25.2999],[112.8508,25.2953],[112.8507,25.2909],[112.8566,25.2908],[112.8614,25.2796],[112.871,25.2783],[112.8669,25.2735],[112.8611,25.2635],[112.8613,25.2552],[112.8629,25.2516],[112.869,25.2505],[112.8759,25.2523],[112.8837,25.249],[112.8872,25.2497],[112.89,25.2418],[112.8981,25.241],[112.9004,25.2455],[112.9115,25.2497],[112.919,25.247],[112.9282,25.2466],[112.9261,25.2516],[112.9293,25.2539],[112.9392,25.2523],[112.9466,25.2489],[112.9479,25.2555],[112.9534,25.2581],[112.9586,25.2528],[112.9643,25.2519],[112.9688,25.2541],[112.9724,25.2481],[112.9896,25.2505],[112.9932,25.2485],[112.9918,25.2415],[112.9941,25.2381],[113.0011,25.2351],[113.007,25.2255],[113.0101,25.2157],[113.0177,25.2101],[113.0226,25.2139],[113.0266,25.2098],[113.0295,25.2013],[113.0243,25.1943],[113.0157,25.1941],[113.0118,25.1916],[113.0034,25.1931],[112.9964,25.1867],[112.9708,25.1726],[112.9655,25.1686],[112.9666,25.1577],[112.9599,25.1474],[112.9636,25.1414],[112.9656,25.1349],[112.9714,25.133],[112.9769,25.125],[112.9816,25.1226],[112.9822,25.1163],[112.9918,25.107],[112.9994,25.0928],[113.0034,25.0894],[113.0132,25.0865],[112.9973,25.0746],[112.993,25.0613],[112.9915,25.0517],[112.986,25.05],[112.9804,25.0415],[112.9733,25.038],[112.9715,25.0298],[112.9761,25.025],[112.9866,25.0198],[112.9882,25.0166],[112.9823,25.0047],[112.9855,24.9984],[112.9898,24.9989],[112.9919,24.9947],[112.997,24.9939],[112.9984,24.9857],[113.0049,24.9822],[113.0022,24.9725],[113.0028,24.9645],[113.0131,24.9668],[113.0187,24.961],[113.0231,24.9638],[113.0243,24.9757],[113.0282,24.9751],[113.037,24.9803],[113.036,24.9871],[113.0374,24.992],[113.0425,24.9922],[113.0482,24.9823],[113.0578,24.9814],[113.0632,24.9827],[113.064,24.9869],[113.0723,24.9923],[113.0729,24.9982],[113.0824,25.0047],[113.0836,25.0093],[113.0894,25.0135],[113.0857,25.0182],[113.0862,25.0307],[113.0787,25.0336],[113.0799,25.036],[113.0776,25.0481],[113.0786,25.0576],[113.0753,25.0703],[113.0786,25.0754],[113.0903,25.0766],[113.0899,25.0801],[113.0961,25.081],[113.0972,25.0767],[113.1037,25.0773],[113.1077,25.0718],[113.1155,25.0733],[113.1118,25.0835],[113.1149,25.0875],[113.1226,25.0804],[113.1351,25.0817],[113.1357,25.0877],[113.1314,25.0921],[113.1395,25.0948],[113.1452,25.1035],[113.1474,25.1122],[113.1454,25.1212],[113.1482,25.123],[113.1509,25.1314],[113.1649,25.1384],[113.1627,25.1459],[113.1672,25.1495],[113.1751,25.1489],[113.1861,25.1329],[113.1926,25.1325],[113.1925,25.1269],[113.1994,25.1103],[113.199,25.1043],[113.2018,25.0984],[113.1885,25.0875],[113.1923,25.0818],[113.1955,25.0736],[113.2007,25.0727],[113.2053,25.0626],[113.2144,25.0598],[113.2257,25.061],[113.2296,25.0582],[113.2422,25.0626],[113.2466,25.0739],[113.2559,25.0767],[113.2624,25.0768],[113.27,25.07],[113.2697,25.0626],[113.2741,25.0543],[113.269,25.0516],[113.2682,25.0461],[113.2745,25.0479],[113.2789,25.0426],[113.277,25.0392],[113.2827,25.0362],[113.2851,25.0311],[113.2917,25.0291],[113.2965,25.0249],[113.2991,25.0315],[113.307,25.0301],[113.316,25.0334],[113.3224,25.032],[113.3276,25.0282],[113.3318,25.0224],[113.3381,25.0186],[113.3443,25.0206],[113.3556,25.0194],[113.3611,25.0205],[113.3622,25.0249],[113.3716,25.0299],[113.3777,25.0394],[113.3865,25.0431],[113.394,25.0406],[113.3942,25.034],[113.4025,25.0362],[113.4145,25.0361],[113.4177,25.0394],[113.4183,25.0482],[113.4272,25.0473],[113.4319,25.042],[113.431,25.0382],[113.4375,25.0336],[113.4378,25.0453],[113.4425,25.0481],[113.4471,25.0545],[113.4445,25.0611],[113.4468,25.0656],[113.455,25.0705],[113.4563,25.0747],[113.4671,25.0763],[113.4682,25.0788],[113.4787,25.0779],[113.487,25.0796],[113.4905,25.0783],[113.4951,25.0848],[113.5014,25.0903],[113.5148,25.0961]]]},"properties":{"region_code":"CN-44-4402-440281","parent_region_code":"CN-44-4402","name":"乐昌市","level":"county","has_children":false,"full_path":"中国 / 广东省 / 韶关市 / 乐昌市","source_admin_code":"440281","osm_relation_id":3124098}},
{"type":"Feature","geometry":{"type":"Polygon","coordinates":[[[114.3903,24.9533],[114.3981,24.9574],[114.4175,24.9592],[114.4223,24.9622],[114.4165,24.9675],[114.4145,24.9719],[114.4196,24.9754],[114.4329,24.9747],[114.4434,24.976],[114.4516,24.9803],[114.4526,24.9873],[114.4513,24.9973],[114.4618,25.0033],[114.4689,25.005],[114.4769,25.0093],[114.4853,25.005],[114.4923,25.0039],[114.5039,25.0043],[114.5092,25.0085],[114.5073,25.016],[114.5096,25.0212],[114.51,25.028],[114.5165,25.0273],[114.5215,25.0234],[114.5287,25.0245],[114.5341,25.0331],[114.5374,25.0415],[114.5356,25.0521],[114.5397,25.0542],[114.5429,25.06],[114.5515,25.0671],[114.5525,25.0741],[114.5567,25.0819],[114.5665,25.0812],[114.5744,25.084],[114.5841,25.0825],[114.5931,25.0784],[114.5984,25.0845],[114.6032,25.084],[114.6089,25.079],[114.6137,25.0797],[114.6172,25.0767],[114.6253,25.0773],[114.6386,25.0746],[114.6397,25.079],[114.6534,25.0825],[114.6544,25.0875],[114.6588,25.0911],[114.661,25.0961],[114.6594,25.1018],[114.6614,25.1063],[114.6665,25.1054],[114.6721,25.1097],[114.6786,25.1116],[114.6911,25.1064],[114.6997,25.1123],[114.7037,25.1112],[114.7115,25.1181],[114.7249,25.1204],[114.7346,25.1293],[114.7304,25.1385],[114.7304,25.1433],[114.7269,25.1471],[114.7311,25.1537],[114.7279,25.1575],[114.7211,25.16],[114.7204,25.1652],[114.7113,25.1661],[114.7051,25.1645],[114.6952,25.1695],[114.6855,25.1731],[114.6812,25.1792],[114.6869,25.1832],[114.6764,25.1911],[114.678,25.1976],[114.6819,25.1993],[114.6905,25.1985],[114.6961,25.2053],[114.6919,25.2081],[114.6891,25.2165],[114.6964,25.2191],[114.6974,25.224],[114.7079,25.2246],[114.7206,25.2364],[114.726,25.2326],[114.7263,25.2296],[114.7331,25.2284],[114.7393,25.2304],[114.7441,25.235],[114.735,25.2374],[114.732,25.2427],[114.7402,25.2431],[114.7441,25.2457],[114.7367,25.2515],[114.7413,25.2624],[114.7387,25.2697],[114.7391,25.2775],[114.727,25.2878],[114.7183,25.288],[114.7207,25.2966],[114.7152,25.3079],[114.7081,25.3082],[114.7079,25.317],[114.6984,25.3201],[114.6953,25.3236],[114.6903,25.324],[114.6749,25.3161],[114.6712,25.3181],[114.6646,25.3255],[114.6637,25.3288],[114.6534,25.3311],[114.6483,25.3287],[114.6421,25.3294],[114.6328,25.327],[114.6301,25.3303],[114.6198,25.3344],[114.6212,25.3418],[114.6128,25.3502],[114.6071,25.3615],[114.5954,25.3628],[114.5974,25.3728],[114.592,25.3716],[114.5929,25.3786],[114.5969,25.3879],[114.5913,25.3907],[114.591,25.3936],[114.5801,25.4012],[114.5752,25.4003],[114.5741,25.3946],[114.5765,25.3873],[114.5713,25.3843],[114.5674,25.3888],[114.5702,25.3997],[114.5745,25.4055],[114.5663,25.4046],[114.5517,25.4106],[114.5466,25.4159],[114.5389,25.4162],[114.5354,25.4219],[114.5257,25.4187],[114.5213,25.4127],[114.5108,25.407],[114.5084,25.4041],[114.5013,25.4033],[114.5018,25.3969],[114.506,25.392],[114.5045,25.3877],[114.4936,25.3821],[114.4908,25.3795],[114.4824,25.3797],[114.4765,25.3738],[114.4579,25.3836],[114.4604,25.3877],[114.455,25.3903],[114.4463,25.3891],[114.4345,25.3811],[114.434,25.3744],[114.4316,25.3663],[114.4267,25.3608],[114.4257,25.349],[114.4202,25.3403],[114.4109,25.3378],[114.4072,25.339],[114.3974,25.3372],[114.3946,25.3296],[114.3864,25.3262],[114.3815,25.326],[114.3756,25.3185],[114.3701,25.3219],[114.3679,25.328],[114.3639,25.3298],[114.3518,25.3299],[114.3423,25.3328],[114.3325,25.3372],[114.3208,25.3374],[114.3107,25.3423],[114.3009,25.335],[114.2984,25.3269],[114.2992,25.318],[114.3077,25.3151],[114.3088,25.3082],[114.3029,25.3093],[114.2961,25.3071],[114.2898,25.301],[114.2982,25.2934],[114.2928,25.2913],[114.2864,25.2919],[114.2837,25.2957],[114.2845,25.3009],[114.2809,25.303],[114.2638,25.3037],[114.2615,25.2965],[114.2588,25.2941],[114.2473,25.2969],[114.2391,25.3012],[114.2311,25.3035],[114.2192,25.3016],[114.1995,25.3034],[114.2001,25.3137],[114.1971,25.3169],[114.1871,25.3209],[114.1805,25.3159],[114.1746,25.3091],[114.1665,25.309],[114.1619,25.3165],[114.1504,25.3162],[114.1455,25.3123],[114.1295,25.3119],[114.1213,25.303],[114.1119,25.3063],[114.1038,25.2987],[114.0975,25.2971],[114.0889,25.291],[114.0785,25.2782],[114.0713,25.2816],[114.0628,25.2767],[114.059,25.2837],[114.0461,25.2766],[114.0354,25.2541],[114.0269,25.2549],[114.024,25.2577],[114.0259,25.2648],[114.0252,25.2695],[114.0155,25.2732],[114.0125,25.2765],[114.0109,25.2827],[114.0029,25.2811],[113.9963,25.2723],[113.9913,25.2718],[113.9786,25.2764],[113.9714,25.2718],[113.9709,25.2605],[113.9636,25.2539],[113.9625,25.248],[113.9677,25.2447],[113.9589,25.2427],[113.961,25.2399],[113.9687,25.2387],[113.9756,25.2355],[113.9724,25.2286],[113.9664,25.2256],[113.9635,25.2176],[113.957,25.2166],[113.9482,25.2074],[113.947,25.2009],[113.9432,25.1971],[113.942,25.1919],[113.938,25.1869],[113.932,25.1836],[113.9321,25.1787],[113.9273,25.1788],[113.9256,25.1731],[113.9304,25.1709],[113.9321,25.1648],[113.9356,25.1633],[113.942,25.1657],[113.9465,25.1613],[113.9496,25.1477],[113.9535,25.1487],[113.9573,25.1422],[113.961,25.14],[113.9581,25.133],[113.968,25.1296],[113.9751,25.1343],[113.9768,25.1299],[113.983,25.1306],[113.9856,25.1221],[113.9887,25.1202],[113.9882,25.1104],[113.9904,25.1099],[113.9964,25.1001],[114.0051,25.1041],[114.0181,25.1133],[114.0227,25.1196],[114.0322,25.1258],[114.0363,25.1326],[114.0458,25.1353],[114.0485,25.1397],[114.0536,25.142],[114.0618,25.1353],[114.0675,25.1376],[114.0809,25.1343],[114.0903,25.1333],[114.1005,25.1347],[114.0993,25.1403],[114.1038,25.1448],[114.1112,25.1434],[114.1196,25.1465],[114.136,25.1444],[114.1363,25.1394],[114.1457,25.1432],[114.1481,25.1399],[114.147,25.1315],[114.1507,25.1288],[114.1563,25.1168],[114.1657,25.1118],[114.1686,25.1049],[114.178,25.1],[114.1755,25.0931],[114.1822,25.0868],[114.1826,25.0778],[114.1847,25.0706],[114.1825,25.0661],[114.1963,25.0616],[114.2015,25.0619],[114.2056,25.0666],[114.2128,25.0661],[114.2151,25.0606],[114.2297,25.0542],[114.2372,25.0554],[114.2422,25.0431],[114.2504,25.0426],[114.2551,25.0359],[114.2544,25.0154],[114.2517,25.011],[114.2515,25.0047],[114.2553,24.9984],[114.2531,24.9924],[114.247,24.9919],[114.2484,24.9802],[114.2472,24.9759],[114.2416,24.9732],[114.2421,24.9669],[114.2356,24.9568],[114.2403,24.9553],[114.2437,24.958],[114.251,24.9594],[114.2544,24.9622],[114.2595,24.9614],[114.2579,24.9536],[114.2624,24.9515],[114.2723,24.9505],[114.2743,24.9556],[114.2818,24.9581],[114.2903,24.9557],[114.2932,24.961],[114.3001,24.9584],[114.3129,24.9633],[114.3206,24.9614],[114.3218,24.9689],[114.3294,24.9681],[114.3299,24.9627],[114.3357,24.9571],[114.3448,24.9575],[114.3484,24.9618],[114.3521,24.9616],[114.3573,24.9566],[114.364,24.9549],[114.3794,24.9567],[114.3864,24.959],[114.3903,24.9533]]]},"properties":{"region_code":"CN-44-4402-440282","parent_region_code":"CN-44-4402","name":"南雄市","level":"county","has_children":false,"full_path":"中国 / 广东省 / 韶关市 / 南雄市","source_admin_code":"440282","osm_relation_id":3203986}}
]}