{"type":"FeatureCollection", "features": [
{"type":"Feature","geometry":{"type":"Polygon","coordinates":[[[110.245,20.0878],[110.2012,20.0764],[110.1408,20.0748],[110.1031,20.0276],[110.1401,19.9783],[110.1594,19.9707],[110.1333,19.9201],[110.1515,19.9047],[110.1488,19.8724],[110.1708,19.862],[110.201,19.8336],[110.2016,19.7907],[110.2207,19.7736],[110.2174,19.7479],[110.2033,19.7272],[110.2213,19.7092],[110.2142,19.6845],[110.2581,19.6894],[110.2921,19.7027],[110.3051,19.6978],[110.3357,19.7227],[110.3304,19.7571],[110.2918,19.7648],[110.2487,19.7954],[110.2971,19.8646],[110.309,19.9439],[110.2787,19.9707],[110.2901,19.9924],[110.29,20.0235],[110.2804,20.0541],[110.245,20.0878]]]},"properties":{"region_code":"CN-46-4601-460105","parent_region_code":"CN-46-4601","name":"秀英区","level":"county","has_children":false,"full_path":"中国 / 海南省 / 海口市 / 秀英区","source_admin_code":"460105","osm_relation_id":5401872}},
{"type":"Feature","geometry":{"type":"Polygon","coordinates":[[[110.3357,19.7227],[110.3514,19.7166],[110.374,19.7298],[110.388,19.7642],[110.3819,19.7955],[110.4063,19.8179],[110.3741,19.877],[110.3862,19.9311],[110.3569,19.9531],[110.3376,19.9879],[110.3308,20.0195],[110.341,20.0479],[110.2983,20.0552],[110.268,20.0871],[110.245,20.0878],[110.2804,20.0541],[110.29,20.0235],[110.2901,19.9924],[110.2787,19.9707],[110.309,19.9439],[110.2971,19.8646],[110.2487,19.7954],[110.2918,19.7648],[110.3304,19.7571],[110.3357,19.7227]]]},"properties":{"region_code":"CN-46-4601-460106","parent_region_code":"CN-46-4601","name":"龙华区","level":"county","has_children":false,"full_path":"中国 / 海南省 / 海口市 / 龙华区","source_admin_code":"460106","osm_relation_id":5401982}},
{"type":"Feature","geometry":{"type":"Polygon","coordinates":[[[110.374,19.7298],[110.3893,19.7053],[110.374,19.6891],[110.3684,19.6565],[110.3909,19.6109],[110.4201,19.6087],[110.4204,19.5868],[110.4513,19.5766],[110.4843,19.596],[110.5041,19.5729],[110.5404,19.5497],[110.5659,19.5259],[110.629,19.5369],[110.6373,19.55],[110.6313,19.5953],[110.6502,19.6206],[110.6514,19.6538],[110.6295,19.6558],[110.6176,19.6858],[110.6246,19.7247],[110.6192,19.7375],[110.6361,19.7707],[110.569,19.7699],[110.5698,19.7879],[110.5534,19.8332],[110.5514,19.8563],[110.5109,19.9125],[110.4718,19.9175],[110.4297,19.9142],[110.4131,19.939],[110.4107,19.9745],[110.3737,20.0078],[110.3308,20.0195],[110.3376,19.9879],[110.3569,19.9531],[110.3862,19.9311],[110.3741,19.877],[110.4063,19.8179],[110.3819,19.7955],[110.388,19.7642],[110.374,19.7298]]]},"properties":{"region_code":"CN-46-4601-460107","parent_region_code":"CN-46-4601","name":"琼山区","level":"county","has_children":false,"full_path":"中国 / 海南省 / 海口市 / 琼山区","source_admin_code":"460107","osm_relation_id":5402022}},
{"type":"Feature","geometry":{"type":"Polygon","coordinates":[[[110.3308,20.0195],[110.3737,20.0078],[110.4107,19.9745],[110.4131,19.939],[110.4297,19.9142],[110.4718,19.9175],[110.5109,19.9125],[110.5514,19.8563],[110.5534,19.8332],[110.5698,19.7879],[110.569,19.7699],[110.6361,19.7707],[110.6349,19.7873],[110.6552,19.8094],[110.6764,19.7976],[110.701,19.8083],[110.6942,19.8631],[110.6715,19.8618],[110.6704,19.9107],[110.643,19.9402],[110.6306,19.9669],[110.5944,19.9837],[110.5954,19.9991],[110.5743,20.0163],[110.5288,20.0664],[110.5056,20.1298],[110.4283,20.128],[110.3277,20.1132],[110.268,20.0871],[110.2983,20.0552],[110.341,20.0479],[110.3308,20.0195]]]},"properties":{"region_code":"CN-46-4601-460108","parent_region_code":"CN-46-4601","name":"美兰区","level":"county","has_children":false,"full_path":"中国 / 海南省 / 海口市 / 美兰区","source_admin_code":"460108","osm_relation_id":5402054}}
]}