{"type":"FeatureCollection", "features": [
{"type":"Feature","geometry":{"type":"Polygon","coordinates":[[[109.6985,23.405],[109.6934,23.4037],[109.6851,23.4059],[109.6807,23.4109],[109.68,23.4183],[109.6767,23.419],[109.6732,23.4244],[109.6674,23.4238],[109.6618,23.4269],[109.659,23.4318],[109.6559,23.4318],[109.6478,23.4254],[109.6429,23.4245],[109.6379,23.4144],[109.6311,23.4093],[109.6298,23.4017],[109.623,23.3925],[109.6173,23.3897],[109.6076,23.3801],[109.6077,23.372],[109.5991,23.3665],[109.592,23.36],[109.5872,23.3659],[109.5753,23.3611],[109.5709,23.3575],[109.5742,23.3541],[109.5729,23.3498],[109.5676,23.3443],[109.567,23.3358],[109.5602,23.332],[109.563,23.3289],[109.561,23.3202],[109.5519,23.3175],[109.55,23.3116],[109.5384,23.3034],[109.5338,23.299],[109.5328,23.2953],[109.5237,23.2873],[109.5131,23.2802],[109.5188,23.2722],[109.5125,23.2734],[109.5074,23.2704],[109.5096,23.2675],[109.5081,23.262],[109.5111,23.2556],[109.5116,23.2487],[109.5144,23.242],[109.5058,23.2326],[109.4986,23.2344],[109.4967,23.2315],[109.4808,23.2274],[109.4743,23.2225],[109.4689,23.2231],[109.4637,23.2194],[109.4609,23.2268],[109.4456,23.2252],[109.4492,23.2219],[109.4503,23.2173],[109.4487,23.2124],[109.4425,23.2045],[109.4426,23.1988],[109.439,23.189],[109.4345,23.1843],[109.4359,23.1765],[109.4556,23.1701],[109.4566,23.1647],[109.4638,23.1649],[109.4695,23.1632],[109.478,23.1644],[109.4795,23.16],[109.4836,23.1564],[109.4881,23.1568],[109.4807,23.1465],[109.4759,23.1345],[109.4795,23.1294],[109.4809,23.1232],[109.4773,23.1185],[109.4827,23.1122],[109.4729,23.1077],[109.4742,23.1025],[109.4744,23.0926],[109.4858,23.0855],[109.4845,23.0794],[109.4794,23.0788],[109.4818,23.0725],[109.4753,23.0715],[109.4774,23.0644],[109.4707,23.0682],[109.4621,23.0666],[109.4621,23.0628],[109.4571,23.0611],[109.4585,23.0564],[109.4697,23.0413],[109.4775,23.0486],[109.4905,23.0513],[109.4929,23.0486],[109.5003,23.0452],[109.5138,23.0455],[109.5185,23.043],[109.5323,23.0398],[109.5326,23.0353],[109.5406,23.0382],[109.5506,23.0442],[109.5587,23.0432],[109.5611,23.0446],[109.5595,23.0509],[109.5612,23.055],[109.5669,23.061],[109.573,23.0547],[109.5799,23.0606],[109.5833,23.0721],[109.587,23.0773],[109.5983,23.086],[109.6065,23.089],[109.6146,23.0872],[109.6285,23.078],[109.6333,23.0779],[109.6406,23.085],[109.6547,23.088],[109.6567,23.0911],[109.6598,23.1027],[109.6645,23.1052],[109.6906,23.1049],[109.7064,23.0975],[109.7123,23.0965],[109.722,23.1092],[109.727,23.1118],[109.7341,23.1115],[109.7433,23.109],[109.7484,23.1036],[109.7531,23.0854],[109.76,23.0759],[109.7881,23.0724],[109.8081,23.0754],[109.8146,23.0807],[109.8202,23.0931],[109.8262,23.099],[109.8413,23.0987],[109.852,23.0963],[109.8574,23.0966],[109.8617,23.0974],[109.8661,23.1033],[109.8648,23.1087],[109.8564,23.1203],[109.8512,23.1201],[109.8465,23.125],[109.8384,23.127],[109.8388,23.1359],[109.8344,23.1388],[109.8286,23.1389],[109.8267,23.1422],[109.813,23.1518],[109.8084,23.1572],[109.8074,23.1608],[109.8138,23.1658],[109.8199,23.1673],[109.8257,23.1753],[109.8242,23.1782],[109.8161,23.1812],[109.8144,23.1883],[109.8152,23.1937],[109.8138,23.2005],[109.8026,23.1995],[109.8023,23.2254],[109.8083,23.2231],[109.8185,23.2265],[109.8078,23.2302],[109.8032,23.2338],[109.8042,23.2429],[109.8198,23.2441],[109.8199,23.2557],[109.8156,23.2637],[109.8218,23.2826],[109.8282,23.2877],[109.8172,23.2996],[109.8219,23.3029],[109.8205,23.3118],[109.8122,23.315],[109.7992,23.3138],[109.7948,23.3143],[109.7967,23.3222],[109.7936,23.33],[109.7896,23.3355],[109.7823,23.339],[109.7724,23.3501],[109.769,23.3599],[109.767,23.3612],[109.7553,23.3513],[109.7487,23.3563],[109.7459,23.3637],[109.7481,23.371],[109.7344,23.3744],[109.7275,23.3847],[109.7283,23.3925],[109.7262,23.3971],[109.7149,23.3995],[109.7102,23.403],[109.7064,23.4023],[109.6985,23.405]]]},"properties":{"region_code":"CN-45-4508-450802","parent_region_code":"CN-45-4508","name":"港北区","level":"county","has_children":false,"full_path":"中国 / 广西壮族自治区 / 贵港市 / 港北区","source_admin_code":"450802","osm_relation_id":2776270}},
{"type":"Feature","geometry":{"type":"Polygon","coordinates":[[[109.573,23.0547],[109.5665,23.0489],[109.567,23.0451],[109.5763,23.0376],[109.5778,23.0326],[109.5758,23.0284],[109.5622,23.0217],[109.56,23.0153],[109.5627,23.013],[109.5731,23.0115],[109.5748,23.004],[109.5687,22.9921],[109.5706,22.9884],[109.5774,22.987],[109.5976,22.9922],[109.6056,22.9901],[109.6065,22.9852],[109.5896,22.9664],[109.5872,22.9606],[109.589,22.9554],[109.5997,22.9512],[109.6269,22.944],[109.642,22.932],[109.6444,22.9266],[109.6424,22.923],[109.6317,22.9222],[109.6139,22.9188],[109.6025,22.9146],[109.5977,22.9188],[109.599,22.9249],[109.5949,22.9286],[109.589,22.9305],[109.5835,22.9352],[109.5747,22.9364],[109.571,22.9335],[109.5681,22.9213],[109.571,22.9102],[109.5716,22.9029],[109.5684,22.888],[109.569,22.8781],[109.5662,22.8744],[109.5557,22.8703],[109.5508,22.8651],[109.5453,22.853],[109.5357,22.8478],[109.5144,22.8306],[109.518,22.8302],[109.527,22.8237],[109.531,22.8175],[109.5255,22.8127],[109.5157,22.8177],[109.5112,22.8163],[109.5102,22.8127],[109.5131,22.8083],[109.5074,22.8021],[109.5069,22.7947],[109.503,22.7929],[109.5067,22.7864],[109.5063,22.7804],[109.5025,22.7794],[109.5028,22.7734],[109.5094,22.7738],[109.5103,22.7768],[109.5236,22.7742],[109.5302,22.7755],[109.5362,22.7787],[109.5444,22.7763],[109.5512,22.7777],[109.5561,22.7747],[109.5551,22.7703],[109.5595,22.7642],[109.5643,22.7634],[109.5709,22.7648],[109.5714,22.7579],[109.577,22.7515],[109.5721,22.7458],[109.574,22.7386],[109.5794,22.7346],[109.5842,22.7268],[109.5787,22.7208],[109.5814,22.7144],[109.5855,22.7137],[109.5897,22.7177],[109.5969,22.7145],[109.5994,22.7091],[109.6032,22.7061],[109.6017,22.7013],[109.607,22.6999],[109.6147,22.6901],[109.6159,22.6797],[109.6072,22.6757],[109.6105,22.6723],[109.6083,22.6671],[109.6153,22.6652],[109.6195,22.6601],[109.6202,22.6562],[109.6276,22.6606],[109.6336,22.6621],[109.6428,22.6625],[109.6418,22.6673],[109.6456,22.671],[109.6576,22.6656],[109.6647,22.6743],[109.6705,22.679],[109.6722,22.6839],[109.6766,22.6844],[109.6872,22.6925],[109.6969,22.6949],[109.7023,22.6944],[109.7096,22.6978],[109.7161,22.6956],[109.7236,22.7049],[109.7175,22.7087],[109.7149,22.7147],[109.7215,22.7232],[109.7218,22.7305],[109.7287,22.7381],[109.7335,22.7371],[109.7374,22.7399],[109.7427,22.7388],[109.7488,22.732],[109.7519,22.732],[109.7572,22.7391],[109.7666,22.7386],[109.7702,22.7409],[109.7777,22.7413],[109.7812,22.7453],[109.7831,22.7515],[109.7875,22.7575],[109.7822,22.7606],[109.7769,22.771],[109.7677,22.7717],[109.7575,22.7801],[109.7598,22.7874],[109.7627,22.7912],[109.759,22.8],[109.7581,22.8085],[109.7619,22.8134],[109.7606,22.8198],[109.7572,22.8213],[109.7559,22.8296],[109.7513,22.8375],[109.7505,22.8427],[109.7581,22.8502],[109.7624,22.8515],[109.7599,22.8583],[109.7636,22.8604],[109.7696,22.854],[109.7809,22.8577],[109.7872,22.8558],[109.7936,22.8508],[109.7943,22.8473],[109.7989,22.8465],[109.803,22.8495],[109.7983,22.8525],[109.8018,22.8596],[109.8103,22.8621],[109.8099,22.8665],[109.8128,22.8724],[109.811,22.8767],[109.8144,22.8797],[109.8121,22.8841],[109.8138,22.8879],[109.8278,22.8882],[109.8324,22.8913],[109.8381,22.8874],[109.8376,22.8824],[109.843,22.8786],[109.8526,22.8781],[109.8578,22.8739],[109.8636,22.8787],[109.859,22.8805],[109.8515,22.8865],[109.8486,22.8908],[109.8442,22.8875],[109.8499,22.8827],[109.8464,22.8802],[109.8396,22.8847],[109.8408,22.8912],[109.8301,22.8988],[109.8312,22.9062],[109.8361,22.9106],[109.8504,22.9035],[109.857,22.9053],[109.8557,22.9099],[109.8437,22.9134],[109.8396,22.9193],[109.8397,22.9243],[109.837,22.9294],[109.841,22.9311],[109.8415,22.9349],[109.834,22.9339],[109.8293,22.9441],[109.8227,22.95],[109.8244,22.9519],[109.8186,22.9573],[109.8168,22.9617],[109.8126,22.9602],[109.8044,22.9649],[109.8012,22.9639],[109.8003,22.9753],[109.8034,22.9789],[109.8131,22.9822],[109.8176,22.9783],[109.8273,22.979],[109.8388,22.9873],[109.8416,22.9922],[109.847,22.9974],[109.8531,22.9988],[109.8589,23.0057],[109.8642,23.0048],[109.8696,23.0008],[109.8748,23.0038],[109.8752,23.0065],[109.8701,23.0107],[109.8781,23.0144],[109.8811,23.0241],[109.8879,23.0267],[109.8889,23.029],[109.8822,23.0349],[109.8743,23.0474],[109.8767,23.0532],[109.8778,23.0643],[109.8817,23.0693],[109.874,23.0754],[109.8701,23.0755],[109.8638,23.0819],[109.8634,23.0847],[109.8549,23.0904],[109.8574,23.0966],[109.852,23.0963],[109.8413,23.0987],[109.8262,23.099],[109.8202,23.0931],[109.8146,23.0807],[109.8081,23.0754],[109.7881,23.0724],[109.76,23.0759],[109.7531,23.0854],[109.7484,23.1036],[109.7433,23.109],[109.7341,23.1115],[109.727,23.1118],[109.722,23.1092],[109.7123,23.0965],[109.7064,23.0975],[109.6906,23.1049],[109.6645,23.1052],[109.6598,23.1027],[109.6567,23.0911],[109.6547,23.088],[109.6406,23.085],[109.6333,23.0779],[109.6285,23.078],[109.6146,23.0872],[109.6065,23.089],[109.5983,23.086],[109.587,23.0773],[109.5833,23.0721],[109.5799,23.0606],[109.573,23.0547]]]},"properties":{"region_code":"CN-45-4508-450803","parent_region_code":"CN-45-4508","name":"港南区","level":"county","has_children":false,"full_path":"中国 / 广西壮族自治区 / 贵港市 / 港南区","source_admin_code":"450803","osm_relation_id":2776271}},
{"type":"Feature","geometry":{"type":"Polygon","coordinates":[[[109.5384,23.3034],[109.535,23.3112],[109.5306,23.3122],[109.5232,23.3191],[109.5204,23.3233],[109.5109,23.3273],[109.5097,23.3356],[109.4956,23.34],[109.4988,23.3496],[109.4913,23.3542],[109.4907,23.3601],[109.4842,23.3617],[109.4795,23.3706],[109.4822,23.3747],[109.4782,23.3863],[109.471,23.3816],[109.4678,23.3858],[109.4532,23.3856],[109.4394,23.3815],[109.4336,23.3692],[109.4294,23.3644],[109.4245,23.3622],[109.4185,23.3709],[109.4111,23.3741],[109.4075,23.3716],[109.3997,23.3802],[109.3966,23.3853],[109.3742,23.3806],[109.3731,23.3842],[109.3636,23.3897],[109.3673,23.4024],[109.3661,23.4078],[109.3514,23.4158],[109.3483,23.4195],[109.3426,23.4175],[109.3393,23.4114],[109.3312,23.4166],[109.3254,23.4185],[109.3232,23.4147],[109.3184,23.4147],[109.3147,23.4076],[109.3083,23.4039],[109.3036,23.3984],[109.2977,23.3989],[109.292,23.3919],[109.2927,23.3854],[109.2787,23.3831],[109.2711,23.3761],[109.2712,23.3693],[109.2739,23.3632],[109.2675,23.364],[109.2646,23.3526],[109.2619,23.3496],[109.2543,23.3525],[109.2457,23.3526],[109.2381,23.3473],[109.2281,23.3476],[109.2277,23.3439],[109.2189,23.3426],[109.2153,23.3381],[109.2097,23.3381],[109.2067,23.333],[109.2129,23.3295],[109.2163,23.3228],[109.203,23.313],[109.2061,23.3079],[109.2152,23.3024],[109.2132,23.2991],[109.2185,23.2911],[109.2261,23.2909],[109.2316,23.2877],[109.2293,23.2829],[109.2336,23.2802],[109.2289,23.275],[109.21,23.2727],[109.2281,23.2645],[109.2274,23.2595],[109.2336,23.2509],[109.2368,23.2505],[109.2326,23.2418],[109.2334,23.2385],[109.2433,23.2324],[109.2498,23.2318],[109.2498,23.2167],[109.2558,23.2134],[109.2524,23.2086],[109.2534,23.2052],[109.2507,23.1959],[109.2438,23.1921],[109.2419,23.1857],[109.2441,23.1809],[109.2407,23.1725],[109.2383,23.1701],[109.2382,23.1627],[109.2352,23.1515],[109.2353,23.1469],[109.2412,23.1482],[109.2423,23.142],[109.2477,23.1329],[109.2487,23.1288],[109.2431,23.1224],[109.248,23.1146],[109.2528,23.112],[109.25,23.1085],[109.2454,23.1079],[109.2503,23.0999],[109.2621,23.1003],[109.2669,23.1025],[109.2771,23.0999],[109.2832,23.1045],[109.293,23.1022],[109.3043,23.0947],[109.3131,23.0953],[109.3173,23.0993],[109.321,23.0986],[109.3236,23.0906],[109.3297,23.0885],[109.3296,23.0828],[109.3451,23.0719],[109.3456,23.0673],[109.3395,23.0576],[109.3351,23.0602],[109.3341,23.0527],[109.3381,23.0501],[109.3407,23.0454],[109.3273,23.0432],[109.332,23.0385],[109.3176,23.0303],[109.311,23.0241],[109.3072,23.0176],[109.3104,23.0092],[109.3138,23.0107],[109.3313,23.002],[109.3325,22.9984],[109.3373,22.9977],[109.3447,22.9868],[109.3517,22.9844],[109.3497,22.977],[109.3574,22.9628],[109.3637,22.9615],[109.3632,22.957],[109.3719,22.9516],[109.3749,22.9459],[109.3699,22.942],[109.3762,22.9349],[109.3826,22.9309],[109.3904,22.9304],[109.3974,22.9285],[109.4067,22.9277],[109.4058,22.9173],[109.411,22.9165],[109.4138,22.9121],[109.4262,22.917],[109.4321,22.9119],[109.4388,22.9103],[109.4455,22.905],[109.454,22.9028],[109.4789,22.8935],[109.4768,22.8858],[109.48,22.8808],[109.4723,22.8774],[109.4685,22.8787],[109.4643,22.8767],[109.4631,22.8731],[109.4519,22.8708],[109.4485,22.8681],[109.4498,22.8634],[109.4556,22.8607],[109.4513,22.852],[109.4573,22.8501],[109.4611,22.8454],[109.4674,22.8467],[109.4766,22.8254],[109.4822,22.8265],[109.4967,22.8265],[109.5017,22.8255],[109.5144,22.8306],[109.5357,22.8478],[109.5453,22.853],[109.5508,22.8651],[109.5557,22.8703],[109.5662,22.8744],[109.569,22.8781],[109.5684,22.888],[109.5716,22.9029],[109.571,22.9102],[109.5681,22.9213],[109.571,22.9335],[109.5747,22.9364],[109.5835,22.9352],[109.589,22.9305],[109.5949,22.9286],[109.599,22.9249],[109.5977,22.9188],[109.6025,22.9146],[109.6139,22.9188],[109.6317,22.9222],[109.6424,22.923],[109.6444,22.9266],[109.642,22.932],[109.6269,22.944],[109.5997,22.9512],[109.589,22.9554],[109.5872,22.9606],[109.5896,22.9664],[109.6065,22.9852],[109.6056,22.9901],[109.5976,22.9922],[109.5774,22.987],[109.5706,22.9884],[109.5687,22.9921],[109.5748,23.004],[109.5731,23.0115],[109.5627,23.013],[109.56,23.0153],[109.5622,23.0217],[109.5758,23.0284],[109.5778,23.0326],[109.5763,23.0376],[109.567,23.0451],[109.5665,23.0489],[109.573,23.0547],[109.5669,23.061],[109.5612,23.055],[109.5595,23.0509],[109.5611,23.0446],[109.5587,23.0432],[109.5506,23.0442],[109.5406,23.0382],[109.5326,23.0353],[109.5323,23.0398],[109.5185,23.043],[109.5138,23.0455],[109.5003,23.0452],[109.4929,23.0486],[109.4905,23.0513],[109.4775,23.0486],[109.4697,23.0413],[109.4585,23.0564],[109.4571,23.0611],[109.4621,23.0628],[109.4621,23.0666],[109.4707,23.0682],[109.4774,23.0644],[109.4753,23.0715],[109.4818,23.0725],[109.4794,23.0788],[109.4845,23.0794],[109.4858,23.0855],[109.4744,23.0926],[109.4742,23.1025],[109.4729,23.1077],[109.4827,23.1122],[109.4773,23.1185],[109.4809,23.1232],[109.4795,23.1294],[109.4759,23.1345],[109.4807,23.1465],[109.4881,23.1568],[109.4836,23.1564],[109.4795,23.16],[109.478,23.1644],[109.4695,23.1632],[109.4638,23.1649],[109.4566,23.1647],[109.4556,23.1701],[109.4359,23.1765],[109.4345,23.1843],[109.439,23.189],[109.4426,23.1988],[109.4425,23.2045],[109.4487,23.2124],[109.4503,23.2173],[109.4492,23.2219],[109.4456,23.2252],[109.4609,23.2268],[109.4637,23.2194],[109.4689,23.2231],[109.4743,23.2225],[109.4808,23.2274],[109.4967,23.2315],[109.4986,23.2344],[109.5058,23.2326],[109.5144,23.242],[109.5116,23.2487],[109.5111,23.2556],[109.5081,23.262],[109.5096,23.2675],[109.5074,23.2704],[109.5125,23.2734],[109.5188,23.2722],[109.5131,23.2802],[109.5237,23.2873],[109.5328,23.2953],[109.5338,23.299],[109.5384,23.3034]]]},"properties":{"region_code":"CN-45-4508-450804","parent_region_code":"CN-45-4508","name":"覃塘区","level":"county","has_children":false,"full_path":"中国 / 广西壮族自治区 / 贵港市 / 覃塘区","source_admin_code":"450804","osm_relation_id":2776274}},
{"type":"Feature","geometry":{"type":"Polygon","coordinates":[[[110.3344,23.0518],[110.3363,23.0466],[110.3448,23.0506],[110.351,23.0455],[110.3625,23.0478],[110.3662,23.0467],[110.3785,23.0524],[110.3866,23.0541],[110.39,23.062],[110.3963,23.0648],[110.4037,23.0641],[110.4105,23.0589],[110.4134,23.0549],[110.4079,23.0519],[110.4118,23.0446],[110.4167,23.046],[110.421,23.0423],[110.4253,23.053],[110.4299,23.0565],[110.4345,23.0568],[110.4407,23.0659],[110.4433,23.0632],[110.4529,23.0646],[110.4558,23.0746],[110.463,23.073],[110.4654,23.0704],[110.4788,23.067],[110.4871,23.0681],[110.4893,23.0745],[110.497,23.079],[110.5005,23.0854],[110.4976,23.0877],[110.4985,23.0955],[110.502,23.1004],[110.5059,23.1019],[110.5057,23.1081],[110.5112,23.1064],[110.514,23.1015],[110.5203,23.1043],[110.5158,23.1133],[110.524,23.1185],[110.5302,23.1186],[110.5321,23.1258],[110.5462,23.1341],[110.5512,23.1352],[110.548,23.1398],[110.5525,23.1455],[110.5501,23.1587],[110.552,23.1637],[110.5484,23.1752],[110.5432,23.1766],[110.5432,23.1819],[110.5395,23.1904],[110.5407,23.2032],[110.5424,23.2064],[110.5479,23.2077],[110.5571,23.2125],[110.5568,23.2162],[110.5661,23.2247],[110.572,23.2282],[110.5784,23.2196],[110.5883,23.2103],[110.5898,23.2141],[110.5951,23.2169],[110.6046,23.226],[110.6059,23.2304],[110.6148,23.2303],[110.6201,23.2332],[110.6178,23.2372],[110.623,23.2403],[110.6266,23.2402],[110.6347,23.2462],[110.6476,23.251],[110.6432,23.2604],[110.645,23.268],[110.652,23.2714],[110.656,23.269],[110.6584,23.2825],[110.6581,23.2876],[110.6538,23.2921],[110.6523,23.2981],[110.6589,23.3087],[110.6485,23.3116],[110.6425,23.3118],[110.6347,23.3164],[110.6317,23.3149],[110.6211,23.3259],[110.6162,23.3258],[110.6114,23.3316],[110.6052,23.3312],[110.5988,23.3267],[110.5915,23.3273],[110.5858,23.3259],[110.5845,23.3305],[110.5876,23.3368],[110.5776,23.348],[110.5832,23.3492],[110.5846,23.356],[110.576,23.3663],[110.5712,23.3643],[110.5609,23.3659],[110.5604,23.3721],[110.5709,23.3745],[110.5729,23.3776],[110.5736,23.3891],[110.5695,23.3937],[110.5724,23.4015],[110.5708,23.4064],[110.5774,23.41],[110.5788,23.4147],[110.5776,23.423],[110.5754,23.4267],[110.5806,23.434],[110.5776,23.448],[110.5927,23.4575],[110.5993,23.4585],[110.6012,23.4519],[110.6061,23.4475],[110.6147,23.4511],[110.6147,23.4571],[110.6195,23.4582],[110.624,23.4633],[110.6223,23.4679],[110.6237,23.4831],[110.6198,23.4894],[110.6134,23.4915],[110.6148,23.4981],[110.6134,23.5253],[110.6149,23.5292],[110.6077,23.5425],[110.61,23.5466],[110.6151,23.5489],[110.6146,23.5526],[110.6101,23.5598],[110.5968,23.5645],[110.5959,23.571],[110.5998,23.5734],[110.6004,23.5804],[110.5954,23.5854],[110.5918,23.5918],[110.5842,23.5927],[110.5744,23.5916],[110.5749,23.5969],[110.5779,23.5982],[110.5837,23.6045],[110.584,23.6214],[110.5802,23.6298],[110.5717,23.6329],[110.5722,23.6383],[110.5641,23.6404],[110.5606,23.6439],[110.5551,23.6428],[110.5401,23.6542],[110.5382,23.6667],[110.5398,23.6707],[110.5548,23.6704],[110.5614,23.6757],[110.5672,23.678],[110.5615,23.6859],[110.5647,23.6902],[110.5651,23.697],[110.5676,23.6996],[110.5674,23.7092],[110.5605,23.7103],[110.5551,23.7046],[110.5473,23.7067],[110.5473,23.7156],[110.5424,23.7211],[110.5456,23.7268],[110.5461,23.7376],[110.5504,23.7416],[110.5508,23.7501],[110.5559,23.7518],[110.5605,23.7562],[110.5629,23.7726],[110.5672,23.7723],[110.5772,23.7798],[110.5753,23.7831],[110.5792,23.7907],[110.5689,23.7918],[110.57,23.7971],[110.5676,23.8037],[110.5683,23.8075],[110.5552,23.815],[110.5556,23.8194],[110.5464,23.8252],[110.5408,23.8226],[110.5404,23.8144],[110.5346,23.8113],[110.5339,23.8075],[110.5288,23.8037],[110.5181,23.8],[110.5151,23.8014],[110.5092,23.7987],[110.5068,23.8051],[110.504,23.8067],[110.4979,23.8029],[110.4891,23.811],[110.4901,23.8136],[110.4838,23.8215],[110.477,23.8245],[110.4749,23.8296],[110.4787,23.8389],[110.4831,23.8458],[110.4723,23.8549],[110.4696,23.8504],[110.46,23.8533],[110.4576,23.8503],[110.4557,23.8429],[110.4528,23.8433],[110.4496,23.8489],[110.4473,23.8577],[110.4432,23.8589],[110.4381,23.8678],[110.4333,23.8657],[110.4252,23.8658],[110.4149,23.8633],[110.4053,23.8592],[110.4019,23.8637],[110.4053,23.8669],[110.4053,23.8752],[110.3984,23.8744],[110.3891,23.8795],[110.3811,23.8823],[110.3787,23.8803],[110.3686,23.88],[110.3696,23.885],[110.3635,23.886],[110.3572,23.8817],[110.3523,23.8876],[110.3532,23.8982],[110.3506,23.9049],[110.3529,23.9059],[110.3556,23.914],[110.3518,23.9297],[110.3547,23.9347],[110.3576,23.934],[110.3662,23.9363],[110.372,23.9429],[110.3836,23.9489],[110.3843,23.9542],[110.3895,23.9595],[110.3946,23.962],[110.3928,23.9663],[110.3921,23.9806],[110.3941,23.9852],[110.3917,23.9957],[110.3923,24.0033],[110.3983,24.0122],[110.3983,24.0228],[110.3927,24.0296],[110.3954,24.0357],[110.3941,24.04],[110.3897,24.0396],[110.3869,24.0439],[110.3811,24.0418],[110.3736,24.0427],[110.3696,24.0412],[110.3667,24.0362],[110.3583,24.0355],[110.3505,24.0388],[110.3454,24.0359],[110.3394,24.0373],[110.3288,24.0323],[110.325,24.0324],[110.3168,24.0259],[110.3115,24.027],[110.3052,24.0192],[110.3059,24.0153],[110.3031,24.0088],[110.3037,23.9972],[110.3,23.9919],[110.3008,23.979],[110.2954,23.9782],[110.2846,23.965],[110.2908,23.9577],[110.2932,23.9503],[110.2965,23.9446],[110.2946,23.9423],[110.298,23.9369],[110.2932,23.931],[110.2988,23.9235],[110.3044,23.9231],[110.3108,23.9111],[110.3068,23.898],[110.3041,23.8952],[110.2976,23.893],[110.2945,23.8874],[110.2908,23.8848],[110.2902,23.8789],[110.2952,23.8691],[110.2886,23.8634],[110.289,23.8569],[110.2819,23.8552],[110.2813,23.8598],[110.2775,23.8676],[110.2737,23.8703],[110.2687,23.8769],[110.2585,23.8981],[110.2507,23.8945],[110.2394,23.8908],[110.2284,23.9019],[110.2196,23.9052],[110.2116,23.9106],[110.2097,23.9142],[110.201,23.9112],[110.1981,23.9029],[110.2001,23.9004],[110.1975,23.8898],[110.2015,23.8807],[110.1958,23.8696],[110.1895,23.8652],[110.1886,23.8603],[110.1771,23.8602],[110.1732,23.8633],[110.1659,23.8764],[110.156,23.8754],[110.1481,23.8799],[110.1412,23.8863],[110.1386,23.8837],[110.1334,23.8703],[110.1294,23.8652],[110.1195,23.8618],[110.1172,23.8581],[110.1107,23.8534],[110.1072,23.8532],[110.097,23.8396],[110.0916,23.8369],[110.0844,23.8251],[110.0799,23.8253],[110.078,23.8185],[110.0735,23.8102],[110.068,23.8098],[110.0643,23.8018],[110.0672,23.7931],[110.0664,23.7893],[110.0724,23.7804],[110.0761,23.7717],[110.0868,23.7643],[110.0914,23.7572],[110.0918,23.75],[110.1074,23.7452],[110.1119,23.742],[110.118,23.7413],[110.1224,23.7369],[110.1284,23.736],[110.1316,23.7378],[110.1354,23.7305],[110.1498,23.7309],[110.1541,23.7354],[110.1588,23.7343],[110.1636,23.7297],[110.1642,23.7241],[110.1613,23.7203],[110.1639,23.716],[110.1654,23.7079],[110.1686,23.7011],[110.1734,23.7006],[110.1739,23.691],[110.1702,23.6837],[110.166,23.6812],[110.1633,23.6751],[110.1702,23.6702],[110.1821,23.6695],[110.1918,23.676],[110.192,23.6857],[110.197,23.6895],[110.2056,23.6869],[110.2108,23.6894],[110.2126,23.6945],[110.2076,23.6991],[110.209,23.7109],[110.2133,23.7155],[110.2224,23.7164],[110.229,23.72],[110.2343,23.7187],[110.2415,23.711],[110.2402,23.7057],[110.2359,23.6996],[110.2384,23.6967],[110.2364,23.6902],[110.2327,23.6858],[110.237,23.6796],[110.237,23.6681],[110.2338,23.666],[110.2285,23.6545],[110.2275,23.647],[110.225,23.6416],[110.2255,23.6368],[110.2285,23.6351],[110.2393,23.6353],[110.2423,23.6331],[110.2476,23.6207],[110.2513,23.6201],[110.2554,23.6147],[110.2596,23.6057],[110.2638,23.5939],[110.2586,23.5924],[110.2597,23.5886],[110.2524,23.5849],[110.2584,23.5813],[110.2799,23.5804],[110.2911,23.5779],[110.2947,23.5656],[110.2923,23.5523],[110.2983,23.5449],[110.3086,23.5424],[110.3256,23.543],[110.3265,23.54],[110.3238,23.5285],[110.3208,23.5248],[110.3201,23.5192],[110.3279,23.5125],[110.3357,23.5155],[110.3356,23.5049],[110.3426,23.5001],[110.3396,23.4924],[110.3474,23.4835],[110.3463,23.4793],[110.3475,23.4726],[110.3529,23.4671],[110.3665,23.4662],[110.368,23.4583],[110.3669,23.4537],[110.3698,23.4483],[110.3688,23.4393],[110.3706,23.4339],[110.3634,23.4261],[110.3621,23.4217],[110.3555,23.4181],[110.3505,23.4122],[110.3514,23.4049],[110.35,23.4022],[110.3426,23.4013],[110.34,23.3937],[110.3425,23.3913],[110.3421,23.3816],[110.3387,23.3793],[110.344,23.3677],[110.342,23.3631],[110.3349,23.354],[110.3304,23.3528],[110.332,23.3474],[110.3301,23.343],[110.3214,23.3419],[110.3163,23.3332],[110.3188,23.3312],[110.3225,23.3205],[110.3287,23.3165],[110.3308,23.3102],[110.3346,23.3052],[110.3301,23.2979],[110.334,23.2942],[110.3318,23.2876],[110.3221,23.2894],[110.3068,23.2851],[110.3048,23.282],[110.3106,23.2709],[110.3077,23.2654],[110.3102,23.2623],[110.305,23.2521],[110.3011,23.2484],[110.2942,23.2462],[110.2922,23.2411],[110.2939,23.2329],[110.2925,23.2255],[110.2975,23.2198],[110.2984,23.2149],[110.296,23.2097],[110.2876,23.2077],[110.2779,23.1885],[110.2772,23.1822],[110.2798,23.1785],[110.2741,23.1773],[110.2718,23.1727],[110.2683,23.1713],[110.2623,23.163],[110.2677,23.1513],[110.2667,23.1484],[110.2756,23.1343],[110.2839,23.1332],[110.2849,23.1291],[110.2889,23.1292],[110.2946,23.1263],[110.3002,23.1272],[110.2994,23.1199],[110.3106,23.1174],[110.3195,23.1189],[110.3251,23.1185],[110.3309,23.1151],[110.3362,23.1158],[110.3338,23.108],[110.3392,23.1072],[110.3414,23.1011],[110.345,23.1006],[110.3465,23.0963],[110.3438,23.0933],[110.3462,23.0887],[110.3398,23.0769],[110.3352,23.0749],[110.3299,23.0687],[110.3287,23.0636],[110.3324,23.0583],[110.3344,23.0518]]]},"properties":{"region_code":"CN-45-4508-450821","parent_region_code":"CN-45-4508","name":"平南县","level":"county","has_children":false,"full_path":"中国 / 广西壮族自治区 / 贵港市 / 平南县","source_admin_code":"450821","osm_relation_id":2776273}},
{"type":"Feature","geometry":{"type":"Polygon","coordinates":[[[109.8574,23.0966],[109.8549,23.0904],[109.8634,23.0847],[109.8638,23.0819],[109.8701,23.0755],[109.874,23.0754],[109.8817,23.0693],[109.8778,23.0643],[109.8767,23.0532],[109.8743,23.0474],[109.8822,23.0349],[109.8889,23.029],[109.8943,23.0294],[109.8948,23.0258],[109.9027,23.025],[109.9104,23.026],[109.9157,23.0225],[109.9352,23.0267],[109.9418,23.0254],[109.9451,23.0222],[109.9496,23.0243],[109.9519,23.0198],[109.9573,23.0184],[109.9638,23.0129],[109.9684,23.013],[109.9753,23.0104],[109.9772,23.0063],[109.9829,23.0029],[109.9905,23.0041],[109.9902,22.9984],[109.9956,22.9926],[110.0041,22.9863],[110.0038,22.9824],[110.0071,22.9782],[110.0126,22.9773],[110.0135,22.9702],[110.0104,22.9647],[110.0186,22.9622],[110.0223,22.9587],[110.0249,22.9627],[110.038,22.9582],[110.0452,22.9493],[110.0488,22.9506],[110.0576,22.9482],[110.0667,22.9521],[110.0732,22.9619],[110.0737,22.9655],[110.083,22.9637],[110.0815,22.9604],[110.0841,22.9522],[110.0827,22.9497],[110.0858,22.9452],[110.0883,22.9362],[110.0943,22.9301],[110.0908,22.9242],[110.0942,22.9205],[110.1085,22.9155],[110.103,22.904],[110.1032,22.8986],[110.1084,22.8992],[110.115,22.8908],[110.1177,22.8902],[110.1306,22.8976],[110.1326,22.901],[110.1394,22.9013],[110.1402,22.9042],[110.1519,22.908],[110.1563,22.9058],[110.161,22.9069],[110.1657,22.9106],[110.1752,22.9073],[110.1852,22.9089],[110.1908,22.9079],[110.1928,22.9045],[110.1986,22.901],[110.2146,22.9014],[110.2205,22.8943],[110.2265,22.8811],[110.2178,22.875],[110.2166,22.8687],[110.2193,22.8673],[110.238,22.8758],[110.2461,22.8746],[110.2499,22.8721],[110.2575,22.8703],[110.2632,22.8742],[110.2645,22.8784],[110.2546,22.8957],[110.2537,22.8995],[110.2592,22.901],[110.2623,22.9083],[110.2636,22.9156],[110.2616,22.919],[110.2502,22.9235],[110.2502,22.9293],[110.2524,22.9355],[110.2573,22.9337],[110.2565,22.9402],[110.2654,22.9479],[110.2734,22.9491],[110.2786,22.9541],[110.2807,22.9636],[110.2782,22.9669],[110.2862,22.9705],[110.294,22.9798],[110.296,22.9859],[110.2939,22.9909],[110.2953,23],[110.2855,23.0009],[110.2879,23.0082],[110.288,23.0156],[110.2956,23.0213],[110.295,23.0248],[110.2975,23.0297],[110.301,23.0297],[110.3045,23.0231],[110.3053,23.0157],[110.3122,23.0184],[110.319,23.0179],[110.314,23.0264],[110.3195,23.0306],[110.3191,23.0385],[110.325,23.0425],[110.3258,23.048],[110.3237,23.0505],[110.3326,23.0531],[110.3344,23.0518],[110.3324,23.0583],[110.3287,23.0636],[110.3299,23.0687],[110.3352,23.0749],[110.3398,23.0769],[110.3462,23.0887],[110.3438,23.0933],[110.3465,23.0963],[110.345,23.1006],[110.3414,23.1011],[110.3392,23.1072],[110.3338,23.108],[110.3362,23.1158],[110.3309,23.1151],[110.3251,23.1185],[110.3195,23.1189],[110.3106,23.1174],[110.2994,23.1199],[110.3002,23.1272],[110.2946,23.1263],[110.2889,23.1292],[110.2849,23.1291],[110.2839,23.1332],[110.2756,23.1343],[110.2667,23.1484],[110.2677,23.1513],[110.2623,23.163],[110.2683,23.1713],[110.2718,23.1727],[110.2741,23.1773],[110.2798,23.1785],[110.2772,23.1822],[110.2779,23.1885],[110.2876,23.2077],[110.296,23.2097],[110.2984,23.2149],[110.2975,23.2198],[110.2925,23.2255],[110.2939,23.2329],[110.2922,23.2411],[110.2942,23.2462],[110.3011,23.2484],[110.305,23.2521],[110.3102,23.2623],[110.3077,23.2654],[110.3106,23.2709],[110.3048,23.282],[110.3068,23.2851],[110.3221,23.2894],[110.3318,23.2876],[110.334,23.2942],[110.3301,23.2979],[110.3346,23.3052],[110.3308,23.3102],[110.3287,23.3165],[110.3225,23.3205],[110.3188,23.3312],[110.3163,23.3332],[110.3214,23.3419],[110.3301,23.343],[110.332,23.3474],[110.3304,23.3528],[110.3349,23.354],[110.342,23.3631],[110.344,23.3677],[110.3387,23.3793],[110.3421,23.3816],[110.3425,23.3913],[110.34,23.3937],[110.3426,23.4013],[110.35,23.4022],[110.3514,23.4049],[110.3505,23.4122],[110.3555,23.4181],[110.3621,23.4217],[110.3634,23.4261],[110.3706,23.4339],[110.3688,23.4393],[110.3698,23.4483],[110.3669,23.4537],[110.368,23.4583],[110.3665,23.4662],[110.3529,23.4671],[110.3475,23.4726],[110.3463,23.4793],[110.3474,23.4835],[110.3396,23.4924],[110.3426,23.5001],[110.3356,23.5049],[110.3357,23.5155],[110.3279,23.5125],[110.3201,23.5192],[110.3208,23.5248],[110.3238,23.5285],[110.3265,23.54],[110.3256,23.543],[110.3086,23.5424],[110.2983,23.5449],[110.2923,23.5523],[110.2947,23.5656],[110.2911,23.5779],[110.2799,23.5804],[110.2584,23.5813],[110.2524,23.5849],[110.2597,23.5886],[110.2586,23.5924],[110.2638,23.5939],[110.2596,23.6057],[110.2554,23.6147],[110.2513,23.6201],[110.2476,23.6207],[110.2423,23.6331],[110.2393,23.6353],[110.2285,23.6351],[110.2255,23.6368],[110.225,23.6416],[110.2275,23.647],[110.2285,23.6545],[110.2338,23.666],[110.237,23.6681],[110.237,23.6796],[110.2327,23.6858],[110.2364,23.6902],[110.2384,23.6967],[110.2359,23.6996],[110.2402,23.7057],[110.2415,23.711],[110.2343,23.7187],[110.229,23.72],[110.2224,23.7164],[110.2133,23.7155],[110.209,23.7109],[110.2076,23.6991],[110.2126,23.6945],[110.2108,23.6894],[110.2056,23.6869],[110.197,23.6895],[110.192,23.6857],[110.1918,23.676],[110.1821,23.6695],[110.1702,23.6702],[110.1633,23.6751],[110.166,23.6812],[110.1702,23.6837],[110.1739,23.691],[110.1734,23.7006],[110.1686,23.7011],[110.1654,23.7079],[110.1639,23.716],[110.1613,23.7203],[110.1642,23.7241],[110.1636,23.7297],[110.1588,23.7343],[110.1541,23.7354],[110.1498,23.7309],[110.1354,23.7305],[110.1316,23.7378],[110.1284,23.736],[110.1224,23.7369],[110.118,23.7413],[110.1119,23.742],[110.1074,23.7452],[110.0918,23.75],[110.0914,23.7572],[110.0868,23.7643],[110.0761,23.7717],[110.0724,23.7804],[110.0664,23.7893],[110.0672,23.7931],[110.0643,23.8018],[110.0561,23.7977],[110.0475,23.7979],[110.0391,23.7963],[110.0334,23.7923],[110.0264,23.7905],[110.0219,23.7799],[110.0143,23.7797],[110.0111,23.7829],[110.0009,23.7792],[109.9908,23.7816],[109.9902,23.7724],[109.9887,23.7665],[109.9837,23.7623],[109.9818,23.7542],[109.9739,23.7397],[109.9668,23.736],[109.9598,23.7369],[109.9539,23.7294],[109.9476,23.7248],[109.9459,23.7213],[109.9538,23.7175],[109.9519,23.708],[109.9525,23.7025],[109.9501,23.7003],[109.9482,23.6911],[109.9411,23.6907],[109.9384,23.6924],[109.9335,23.6904],[109.9263,23.69],[109.9226,23.6835],[109.9224,23.6784],[109.9192,23.6684],[109.9213,23.6644],[109.9189,23.6597],[109.9203,23.6492],[109.9232,23.643],[109.9256,23.6325],[109.918,23.6202],[109.914,23.6163],[109.9141,23.6028],[109.917,23.6011],[109.9153,23.5902],[109.9106,23.5876],[109.9051,23.5792],[109.8951,23.5682],[109.8954,23.5648],[109.8896,23.5599],[109.8922,23.5563],[109.8882,23.5415],[109.8969,23.5387],[109.8949,23.5342],[109.8969,23.5304],[109.8941,23.5265],[109.8972,23.5223],[109.894,23.5152],[109.8929,23.5059],[109.8879,23.4985],[109.8898,23.4922],[109.8871,23.4891],[109.8878,23.4837],[109.8908,23.4778],[109.8835,23.4745],[109.8806,23.4695],[109.875,23.4662],[109.8736,23.4618],[109.8696,23.4599],[109.8609,23.4508],[109.8575,23.4415],[109.8478,23.4504],[109.8464,23.4612],[109.8423,23.4745],[109.8315,23.4818],[109.8223,23.4829],[109.7943,23.4881],[109.7886,23.4861],[109.7803,23.4852],[109.7754,23.4682],[109.7686,23.4627],[109.7581,23.4615],[109.749,23.4642],[109.7477,23.4578],[109.7393,23.4624],[109.7388,23.4688],[109.735,23.4683],[109.7332,23.4631],[109.7284,23.4602],[109.7245,23.4497],[109.7243,23.4415],[109.7223,23.4379],[109.7269,23.4341],[109.7244,23.4269],[109.7263,23.4221],[109.722,23.4155],[109.7131,23.4136],[109.7024,23.4141],[109.6946,23.413],[109.6985,23.405],[109.7064,23.4023],[109.7102,23.403],[109.7149,23.3995],[109.7262,23.3971],[109.7283,23.3925],[109.7275,23.3847],[109.7344,23.3744],[109.7481,23.371],[109.7459,23.3637],[109.7487,23.3563],[109.7553,23.3513],[109.767,23.3612],[109.769,23.3599],[109.7724,23.3501],[109.7823,23.339],[109.7896,23.3355],[109.7936,23.33],[109.7967,23.3222],[109.7948,23.3143],[109.7992,23.3138],[109.8122,23.315],[109.8205,23.3118],[109.8219,23.3029],[109.8172,23.2996],[109.8282,23.2877],[109.8218,23.2826],[109.8156,23.2637],[109.8199,23.2557],[109.8198,23.2441],[109.8042,23.2429],[109.8032,23.2338],[109.8078,23.2302],[109.8185,23.2265],[109.8083,23.2231],[109.8023,23.2254],[109.8026,23.1995],[109.8138,23.2005],[109.8152,23.1937],[109.8144,23.1883],[109.8161,23.1812],[109.8242,23.1782],[109.8257,23.1753],[109.8199,23.1673],[109.8138,23.1658],[109.8074,23.1608],[109.8084,23.1572],[109.813,23.1518],[109.8267,23.1422],[109.8286,23.1389],[109.8344,23.1388],[109.8388,23.1359],[109.8384,23.127],[109.8465,23.125],[109.8512,23.1201],[109.8564,23.1203],[109.8648,23.1087],[109.8661,23.1033],[109.8617,23.0974],[109.8574,23.0966]]]},"properties":{"region_code":"CN-45-4508-450881","parent_region_code":"CN-45-4508","name":"桂平市","level":"county","has_children":false,"full_path":"中国 / 广西壮族自治区 / 贵港市 / 桂平市","source_admin_code":"450881","osm_relation_id":2776272}}
]}