{"type":"FeatureCollection", "features": [
{"type":"Feature","geometry":{"type":"Polygon","coordinates":[[[114.1003,22.5346],[114.1079,22.5335],[114.1115,22.5296],[114.1174,22.5344],[114.1302,22.5417],[114.1375,22.5435],[114.1483,22.5418],[114.152,22.5547],[114.1569,22.5554],[114.1603,22.5613],[114.1651,22.5592],[114.1773,22.5597],[114.1777,22.5557],[114.1905,22.5544],[114.1986,22.5567],[114.2029,22.5627],[114.1987,22.5712],[114.2054,22.5763],[114.2125,22.5776],[114.2145,22.5839],[114.2146,22.591],[114.2095,22.5986],[114.2018,22.6041],[114.1942,22.6055],[114.1956,22.6112],[114.1876,22.6187],[114.1728,22.6178],[114.1687,22.6128],[114.1627,22.6118],[114.1565,22.6077],[114.1551,22.6037],[114.1454,22.6021],[114.1401,22.5936],[114.1345,22.5911],[114.1196,22.5911],[114.1104,22.5936],[114.1013,22.5905],[114.0882,22.603],[114.0845,22.6015],[114.0761,22.6034],[114.0665,22.5954],[114.0612,22.5882],[114.0726,22.5718],[114.0832,22.5716],[114.0869,22.5665],[114.0991,22.5701],[114.0997,22.5372],[114.1003,22.5346]]]},"properties":{"region_code":"CN-44-4403-440303","parent_region_code":"CN-44-4403","name":"罗湖区","level":"county","has_children":false,"full_path":"中国 / 广东省 / 深圳市 / 罗湖区","source_admin_code":"440303","osm_relation_id":5664194}},
{"type":"Feature","geometry":{"type":"Polygon","coordinates":[[[114.0612,22.5882],[114.0544,22.5898],[114.0474,22.5842],[114.0402,22.5866],[114.0269,22.584],[114.0184,22.585],[114.0139,22.5826],[114.0048,22.5825],[114.0007,22.5789],[113.9983,22.5661],[114.0004,22.5591],[113.9946,22.5583],[113.9914,22.5438],[113.9928,22.535],[113.9883,22.5307],[113.9893,22.5253],[113.9939,22.523],[113.9995,22.5257],[114.0088,22.5202],[114,22.5114],[114.0077,22.5028],[114.0119,22.5006],[114.0245,22.5066],[114.0408,22.5051],[114.0495,22.5025],[114.0548,22.5035],[114.0595,22.5133],[114.0637,22.5162],[114.0739,22.5192],[114.0776,22.5289],[114.0852,22.5324],[114.089,22.5365],[114.1003,22.5346],[114.0997,22.5372],[114.0991,22.5701],[114.0869,22.5665],[114.0832,22.5716],[114.0726,22.5718],[114.0612,22.5882]]]},"properties":{"region_code":"CN-44-4403-440304","parent_region_code":"CN-44-4403","name":"福田区","level":"county","has_children":false,"full_path":"中国 / 广东省 / 深圳市 / 福田区","source_admin_code":"440304","osm_relation_id":5664191}},
{"type":"Feature","geometry":{"type":"Polygon","coordinates":[[[114.0184,22.585],[114.0213,22.593],[114.0166,22.6052],[114.0114,22.6057],[114.0043,22.6137],[114.0021,22.6216],[113.9974,22.628],[113.9885,22.629],[113.9845,22.6373],[113.9715,22.6407],[113.9684,22.6392],[113.9615,22.6448],[113.9621,22.6535],[113.9547,22.6553],[113.9494,22.6523],[113.9444,22.655],[113.939,22.6534],[113.9325,22.6479],[113.9316,22.6417],[113.9246,22.6365],[113.9261,22.627],[113.9227,22.6188],[113.9249,22.6105],[113.9188,22.6032],[113.9217,22.5955],[113.9197,22.5881],[113.9244,22.583],[113.9221,22.5777],[113.9114,22.5691],[113.9112,22.5603],[113.8914,22.5441],[113.8873,22.5442],[113.869,22.5252],[113.8599,22.5205],[113.8369,22.5322],[113.7321,22.5326],[113.7497,22.4834],[113.7502,22.4477],[113.7265,22.4196],[113.7154,22.4045],[113.7059,22.3869],[113.7016,22.3748],[113.6992,22.3633],[113.7054,22.3185],[113.7727,22.2719],[113.7782,22.2721],[113.807,22.2773],[113.8346,22.2576],[113.839,22.2677],[113.8474,22.2731],[113.8691,22.3333],[113.8691,22.4288],[113.9478,22.4724],[113.9951,22.5101],[114.0017,22.508],[114.0076,22.5024],[114.0119,22.5006],[114.0077,22.5028],[114,22.5114],[114.0088,22.5202],[113.9995,22.5257],[113.9939,22.523],[113.9893,22.5253],[113.9883,22.5307],[113.9928,22.535],[113.9914,22.5438],[113.9946,22.5583],[114.0004,22.5591],[113.9983,22.5661],[114.0007,22.5789],[114.0048,22.5825],[114.0139,22.5826],[114.0184,22.585]]]},"properties":{"region_code":"CN-44-4403-440305","parent_region_code":"CN-44-4403","name":"南山区","level":"county","has_children":false,"full_path":"中国 / 广东省 / 深圳市 / 南山区","source_admin_code":"440305","osm_relation_id":5664195}},
{"type":"Feature","geometry":{"type":"Polygon","coordinates":[[[113.9621,22.6535],[113.9681,22.66],[113.9685,22.6674],[113.9629,22.6756],[113.9712,22.6873],[113.9736,22.6967],[113.9711,22.7061],[113.9728,22.7153],[113.966,22.7124],[113.9557,22.7167],[113.9522,22.7213],[113.948,22.7204],[113.9423,22.7136],[113.9383,22.7136],[113.9357,22.7069],[113.9286,22.7103],[113.9133,22.7127],[113.9086,22.7085],[113.9016,22.7079],[113.9002,22.7026],[113.9008,22.6925],[113.8947,22.6952],[113.8895,22.6911],[113.8793,22.6925],[113.8777,22.69],[113.8679,22.696],[113.8707,22.7002],[113.8672,22.706],[113.8679,22.7148],[113.8733,22.719],[113.8731,22.723],[113.8681,22.7308],[113.8748,22.7372],[113.8761,22.741],[113.8663,22.7608],[113.8597,22.7655],[113.8555,22.7771],[113.8565,22.7812],[113.854,22.7903],[113.8746,22.7994],[113.8771,22.8083],[113.8832,22.8188],[113.8811,22.8227],[113.8882,22.8246],[113.8911,22.829],[113.8995,22.8353],[113.8968,22.8436],[113.8985,22.8465],[113.8876,22.8506],[113.8838,22.8582],[113.8775,22.8533],[113.8733,22.8553],[113.8634,22.84],[113.8521,22.8355],[113.8467,22.8402],[113.836,22.8363],[113.8315,22.8295],[113.835,22.811],[113.8322,22.8038],[113.8272,22.8018],[113.8219,22.7954],[113.8111,22.7951],[113.8093,22.7891],[113.8052,22.7851],[113.7989,22.7876],[113.7951,22.7857],[113.7958,22.7786],[113.7891,22.7753],[113.7869,22.7707],[113.7888,22.7616],[113.7822,22.7532],[113.7687,22.7475],[113.7562,22.7382],[113.7499,22.7295],[113.7102,22.7269],[113.6805,22.7181],[113.7154,22.676],[113.7351,22.6091],[113.7468,22.5978],[113.7241,22.5549],[113.7321,22.5326],[113.8369,22.5322],[113.8599,22.5205],[113.869,22.5252],[113.8873,22.5442],[113.8914,22.5441],[113.9112,22.5603],[113.9114,22.5691],[113.9221,22.5777],[113.9244,22.583],[113.9197,22.5881],[113.9217,22.5955],[113.9188,22.6032],[113.9249,22.6105],[113.9227,22.6188],[113.9261,22.627],[113.9246,22.6365],[113.9316,22.6417],[113.9325,22.6479],[113.939,22.6534],[113.9444,22.655],[113.9494,22.6523],[113.9547,22.6553],[113.9621,22.6535]]]},"properties":{"region_code":"CN-44-4403-440306","parent_region_code":"CN-44-4403","name":"宝安区","level":"county","has_children":false,"full_path":"中国 / 广东省 / 深圳市 / 宝安区","source_admin_code":"440306","osm_relation_id":5664101}},
{"type":"Feature","geometry":{"type":"MultiPolygon","coordinates":[[[[114.2145,22.5839],[114.2246,22.5929],[114.2262,22.6008],[114.2309,22.6059],[114.23,22.6118],[114.2363,22.6183],[114.2449,22.623],[114.2554,22.6218],[114.2605,22.6246],[114.2612,22.6312],[114.2541,22.6371],[114.2535,22.6431],[114.2564,22.6509],[114.2652,22.6566],[114.2625,22.6654],[114.2683,22.6718],[114.269,22.676],[114.2843,22.6791],[114.29,22.6838],[114.2953,22.6852],[114.3008,22.6825],[114.3035,22.6883],[114.3119,22.6894],[114.3172,22.6981],[114.319,22.7069],[114.3234,22.7073],[114.3272,22.714],[114.3212,22.7203],[114.3352,22.7366],[114.3375,22.7465],[114.3341,22.7485],[114.3404,22.758],[114.3395,22.7615],[114.3483,22.7705],[114.3515,22.7702],[114.3528,22.7743],[114.3495,22.7808],[114.3406,22.7816],[114.3381,22.7866],[114.3405,22.7907],[114.3467,22.7927],[114.3451,22.8018],[114.3487,22.8093],[114.3433,22.8118],[114.3261,22.812],[114.3221,22.8079],[114.3142,22.8098],[114.3115,22.8038],[114.3042,22.8064],[114.3011,22.8042],[114.2931,22.8049],[114.2871,22.8112],[114.2803,22.8109],[114.2782,22.8051],[114.2714,22.8003],[114.2701,22.7968],[114.2569,22.7846],[114.2496,22.7857],[114.2418,22.7905],[114.2409,22.7937],[114.2296,22.796],[114.2273,22.8096],[114.2245,22.8152],[114.2198,22.8157],[114.2159,22.8111],[114.2109,22.8106],[114.206,22.7958],[114.2027,22.7925],[114.1849,22.7885],[114.1788,22.7825],[114.1744,22.7818],[114.1829,22.7727],[114.182,22.7664],[114.1938,22.7686],[114.1949,22.7632],[114.2018,22.7599],[114.2049,22.7539],[114.204,22.7472],[114.2078,22.7456],[114.2109,22.7384],[114.2038,22.7321],[114.2033,22.7174],[114.1984,22.7184],[114.1916,22.714],[114.1941,22.7092],[114.1945,22.6974],[114.1868,22.6917],[114.1878,22.6864],[114.1923,22.6851],[114.1802,22.6738],[114.1735,22.6565],[114.1595,22.6642],[114.1597,22.6705],[114.1627,22.677],[114.1607,22.6835],[114.1468,22.6928],[114.1445,22.7024],[114.14,22.7038],[114.141,22.7089],[114.1384,22.7159],[114.1323,22.7191],[114.1302,22.7147],[114.1246,22.7194],[114.1168,22.7188],[114.1085,22.7236],[114.1047,22.7165],[114.0978,22.7085],[114.0936,22.7075],[114.0884,22.7018],[114.0897,22.6968],[114.0961,22.6903],[114.0912,22.6852],[114.0956,22.6775],[114.095,22.6713],[114.0839,22.6612],[114.0789,22.6669],[114.0761,22.674],[114.0718,22.6778],[114.0651,22.6767],[114.0547,22.6673],[114.0498,22.6686],[114.0499,22.6478],[114.0457,22.6313],[114.0537,22.6197],[114.0553,22.6095],[114.0536,22.6056],[114.0665,22.5954],[114.0761,22.6034],[114.0845,22.6015],[114.0882,22.603],[114.1013,22.5905],[114.1104,22.5936],[114.1196,22.5911],[114.1345,22.5911],[114.1401,22.5936],[114.1454,22.6021],[114.1551,22.6037],[114.1565,22.6077],[114.1627,22.6118],[114.1687,22.6128],[114.1728,22.6178],[114.1876,22.6187],[114.1956,22.6112],[114.1942,22.6055],[114.2018,22.6041],[114.2095,22.5986],[114.2146,22.591],[114.2145,22.5839]]],[[[114.3513,22.5672],[114.434,22.562],[114.4551,22.545],[114.4549,22.4687],[114.5025,22.3651],[114.5025,22.2573],[114.5024,22.1485],[114.5024,21.8214],[114.557,21.8452],[114.7967,21.95],[114.5575,22.416],[114.5562,22.4277],[114.5782,22.4621],[114.6025,22.4817],[114.6358,22.4974],[114.645,22.5119],[114.6457,22.5259],[114.6416,22.5364],[114.6192,22.5558],[114.6071,22.5793],[114.6052,22.6242],[114.6024,22.6463],[114.5982,22.6557],[114.5908,22.6635],[114.5748,22.6718],[114.5575,22.6697],[114.5374,22.6644],[114.5148,22.6615],[114.5019,22.671],[114.4876,22.6726],[114.4772,22.6711],[114.4728,22.6655],[114.4577,22.6707],[114.448,22.6725],[114.4451,22.6677],[114.4396,22.6675],[114.4269,22.6631],[114.4233,22.6624],[114.3983,22.6495],[114.3846,22.6442],[114.3841,22.639],[114.3762,22.6409],[114.3703,22.6465],[114.3663,22.6434],[114.3696,22.6339],[114.3625,22.635],[114.3613,22.6267],[114.3549,22.6257],[114.3453,22.6344],[114.3391,22.6342],[114.3346,22.626],[114.3378,22.6169],[114.333,22.6084],[114.3343,22.6051],[114.3455,22.6054],[114.3456,22.5999],[114.3513,22.5672]]]]},"properties":{"region_code":"CN-44-4403-440307","parent_region_code":"CN-44-4403","name":"龙岗区","level":"county","has_children":false,"full_path":"中国 / 广东省 / 深圳市 / 龙岗区","source_admin_code":"440307","osm_relation_id":5664102}},
{"type":"Feature","geometry":{"type":"Polygon","coordinates":[[[114.1986,22.5567],[114.2179,22.556],[114.227,22.548],[114.2263,22.5437],[114.2336,22.5437],[114.2371,22.5507],[114.2487,22.5557],[114.276,22.5655],[114.3091,22.5667],[114.333,22.5683],[114.3513,22.5672],[114.3456,22.5999],[114.3455,22.6054],[114.3343,22.6051],[114.333,22.6084],[114.3378,22.6169],[114.3346,22.626],[114.327,22.6288],[114.3233,22.6257],[114.3159,22.6285],[114.3083,22.6271],[114.3014,22.6324],[114.2924,22.6366],[114.2903,22.6425],[114.281,22.643],[114.2709,22.649],[114.2697,22.6538],[114.2652,22.6566],[114.2564,22.6509],[114.2535,22.6431],[114.2541,22.6371],[114.2612,22.6312],[114.2605,22.6246],[114.2554,22.6218],[114.2449,22.623],[114.2363,22.6183],[114.23,22.6118],[114.2309,22.6059],[114.2262,22.6008],[114.2246,22.5929],[114.2145,22.5839],[114.2125,22.5776],[114.2054,22.5763],[114.1987,22.5712],[114.2029,22.5627],[114.1986,22.5567]]]},"properties":{"region_code":"CN-44-4403-440308","parent_region_code":"CN-44-4403","name":"盐田区","level":"county","has_children":false,"full_path":"中国 / 广东省 / 深圳市 / 盐田区","source_admin_code":"440308","osm_relation_id":5663273}},
{"type":"Feature","geometry":{"type":"Polygon","coordinates":[[[114.0665,22.5954],[114.0536,22.6056],[114.0553,22.6095],[114.0537,22.6197],[114.0457,22.6313],[114.0499,22.6478],[114.0498,22.6686],[114.0547,22.6673],[114.0651,22.6767],[114.0718,22.6778],[114.0761,22.674],[114.0789,22.6669],[114.0839,22.6612],[114.095,22.6713],[114.0956,22.6775],[114.0912,22.6852],[114.0961,22.6903],[114.0897,22.6968],[114.0884,22.7018],[114.0936,22.7075],[114.0978,22.7085],[114.1047,22.7165],[114.1085,22.7236],[114.1022,22.7257],[114.1,22.7344],[114.0972,22.7342],[114.0935,22.7497],[114.087,22.7489],[114.0793,22.7533],[114.0764,22.7479],[114.0697,22.743],[114.0587,22.7589],[114.0522,22.7574],[114.0446,22.759],[114.0473,22.7657],[114.0394,22.7702],[114.0347,22.7669],[114.0223,22.7693],[114.0209,22.7663],[114.0128,22.763],[114.0015,22.7667],[113.9979,22.7662],[113.9962,22.7569],[114.004,22.7488],[114.0002,22.7389],[113.9837,22.7261],[113.9728,22.7153],[113.9711,22.7061],[113.9736,22.6967],[113.9712,22.6873],[113.9629,22.6756],[113.9685,22.6674],[113.9681,22.66],[113.9621,22.6535],[113.9615,22.6448],[113.9684,22.6392],[113.9715,22.6407],[113.9845,22.6373],[113.9885,22.629],[113.9974,22.628],[114.0021,22.6216],[114.0043,22.6137],[114.0114,22.6057],[114.0166,22.6052],[114.0213,22.593],[114.0184,22.585],[114.0269,22.584],[114.0402,22.5866],[114.0474,22.5842],[114.0544,22.5898],[114.0612,22.5882],[114.0665,22.5954]]]},"properties":{"region_code":"CN-44-4403-440309","parent_region_code":"CN-44-4403","name":"龙华区","level":"county","has_children":false,"full_path":"中国 / 广东省 / 深圳市 / 龙华区","source_admin_code":"440309","osm_relation_id":5664193}},
{"type":"Feature","geometry":{"type":"Polygon","coordinates":[[[114.2652,22.6566],[114.2697,22.6538],[114.2709,22.649],[114.281,22.643],[114.2903,22.6425],[114.2924,22.6366],[114.3014,22.6324],[114.3083,22.6271],[114.3159,22.6285],[114.3233,22.6257],[114.327,22.6288],[114.3346,22.626],[114.3391,22.6342],[114.3453,22.6344],[114.3549,22.6257],[114.3613,22.6267],[114.3625,22.635],[114.3696,22.6339],[114.3663,22.6434],[114.3703,22.6465],[114.3762,22.6409],[114.3841,22.639],[114.3846,22.6442],[114.3983,22.6495],[114.4233,22.6624],[114.4269,22.6631],[114.4232,22.6788],[114.4365,22.6842],[114.4397,22.6897],[114.44,22.6953],[114.4367,22.7005],[114.4247,22.7021],[114.4188,22.7054],[114.4155,22.7166],[114.4055,22.7131],[114.3984,22.7265],[114.4012,22.7328],[114.4099,22.7394],[114.4113,22.7489],[114.41,22.7554],[114.4161,22.7569],[114.4183,22.763],[114.4096,22.7728],[114.4061,22.7805],[114.4007,22.7837],[114.3949,22.7818],[114.3905,22.774],[114.3905,22.7638],[114.3775,22.7623],[114.363,22.7696],[114.3556,22.7666],[114.3515,22.7702],[114.3483,22.7705],[114.3395,22.7615],[114.3404,22.758],[114.3341,22.7485],[114.3375,22.7465],[114.3352,22.7366],[114.3212,22.7203],[114.3272,22.714],[114.3234,22.7073],[114.319,22.7069],[114.3172,22.6981],[114.3119,22.6894],[114.3035,22.6883],[114.3008,22.6825],[114.2953,22.6852],[114.29,22.6838],[114.2843,22.6791],[114.269,22.676],[114.2683,22.6718],[114.2625,22.6654],[114.2652,22.6566]]]},"properties":{"region_code":"CN-44-4403-440310","parent_region_code":"CN-44-4403","name":"坪山区","level":"county","has_children":false,"full_path":"中国 / 广东省 / 深圳市 / 坪山区","source_admin_code":"440310","osm_relation_id":4590423}},
{"type":"Feature","geometry":{"type":"Polygon","coordinates":[[[113.9728,22.7153],[113.9837,22.7261],[114.0002,22.7389],[114.004,22.7488],[113.9962,22.7569],[113.9979,22.7662],[113.9904,22.7732],[113.9939,22.7774],[113.9891,22.7851],[113.986,22.7968],[113.9858,22.8029],[113.9697,22.8014],[113.9672,22.805],[113.9722,22.8101],[113.9679,22.815],[113.9611,22.8151],[113.9504,22.8181],[113.9508,22.8238],[113.9425,22.8299],[113.9347,22.8318],[113.933,22.8355],[113.9188,22.8335],[113.9058,22.8329],[113.8995,22.8353],[113.8911,22.829],[113.8882,22.8246],[113.8811,22.8227],[113.8832,22.8188],[113.8771,22.8083],[113.8746,22.7994],[113.854,22.7903],[113.8565,22.7812],[113.8555,22.7771],[113.8597,22.7655],[113.8663,22.7608],[113.8761,22.741],[113.8748,22.7372],[113.8681,22.7308],[113.8731,22.723],[113.8733,22.719],[113.8679,22.7148],[113.8672,22.706],[113.8707,22.7002],[113.8679,22.696],[113.8777,22.69],[113.8793,22.6925],[113.8895,22.6911],[113.8947,22.6952],[113.9008,22.6925],[113.9002,22.7026],[113.9016,22.7079],[113.9086,22.7085],[113.9133,22.7127],[113.9286,22.7103],[113.9357,22.7069],[113.9383,22.7136],[113.9423,22.7136],[113.948,22.7204],[113.9522,22.7213],[113.9557,22.7167],[113.966,22.7124],[113.9728,22.7153]]]},"properties":{"region_code":"CN-44-4403-440311","parent_region_code":"CN-44-4403","name":"光明区","level":"county","has_children":false,"full_path":"中国 / 广东省 / 深圳市 / 光明区","source_admin_code":"440311","osm_relation_id":5664192}}
]}