{"type":"FeatureCollection", "features": [
{"type":"Feature","geometry":{"type":"Polygon","coordinates":[[[112.3031,21.4806],[112.0541,21.7259],[112.0292,21.7679],[112.0208,21.7768],[112.0277,21.7874],[112.0169,21.7917],[112.0194,21.8161],[111.9997,21.8305],[111.9939,21.8476],[111.9986,21.865],[111.9934,21.872],[112.007,21.8836],[112.0015,21.8972],[112.0131,21.9042],[112.0117,21.9136],[112.0225,21.9201],[112.0209,21.9347],[112.0295,21.9576],[112.0138,21.9611],[111.9946,21.9338],[111.9772,21.9226],[111.9584,21.9158],[111.9433,21.9053],[111.9349,21.9103],[111.9219,21.9035],[111.9166,21.9154],[111.8872,21.9233],[111.8725,21.9387],[111.8095,21.9548],[111.799,21.9628],[111.7783,21.9476],[111.7654,21.9502],[111.7499,21.9431],[111.7371,21.9443],[111.7243,21.936],[111.713,21.9043],[111.7297,21.9025],[111.7369,21.8864],[111.7541,21.8652],[111.7687,21.8517],[111.7802,21.854],[111.7905,21.8394],[111.8054,21.8288],[111.8015,21.8184],[111.813,21.8125],[111.7882,21.7675],[111.7873,21.7438],[111.7951,21.7228],[111.8119,21.6966],[111.8133,21.6845],[111.8054,21.6073],[111.8012,21.5958],[111.8011,21.5681],[111.7981,20.3415],[112.0515,20.6886],[112.3031,21.0323],[112.3031,21.4806]]]},"properties":{"region_code":"CN-44-4417-441702","parent_region_code":"CN-44-4417","name":"江城区","level":"county","has_children":false,"full_path":"中国 / 广东省 / 阳江市 / 江城区","source_admin_code":"441702","osm_relation_id":3032033}},
{"type":"Feature","geometry":{"type":"Polygon","coordinates":[[[112.3031,21.4806],[112.3032,21.7072],[112.2985,21.717],[112.3049,21.7352],[112.3031,21.7515],[112.3272,21.7709],[112.3231,21.8016],[112.3407,21.8136],[112.3372,21.8208],[112.3536,21.8358],[112.3461,21.8508],[112.3649,21.8651],[112.338,21.8785],[112.3435,21.8905],[112.3449,21.917],[112.3359,21.9218],[112.3353,21.9454],[112.3133,21.979],[112.2961,21.988],[112.2719,21.9853],[112.2685,21.9963],[112.2587,22.0042],[112.2343,22.009],[112.2165,22.0206],[112.2116,22.0423],[112.2261,22.0555],[112.2209,22.0694],[112.2072,22.072],[112.1939,22.0674],[112.1799,22.0695],[112.1686,22.0879],[112.1513,22.0984],[112.1205,22.0999],[112.12,22.1137],[112.1014,22.1281],[112.1012,22.1373],[112.0846,22.14],[112.0671,22.1273],[112.0309,22.1168],[112.022,22.1298],[112.0336,22.1341],[112.0459,22.1495],[112.0315,22.1707],[112.0364,22.1902],[112.0469,22.1975],[112.0463,22.2103],[112.0327,22.2178],[112.0327,22.2349],[112.0189,22.238],[112.0162,22.2456],[111.9991,22.2512],[111.9868,22.2577],[111.9687,22.253],[111.9506,22.258],[111.9403,22.2539],[111.945,22.2217],[111.9396,22.2073],[111.9476,22.1956],[111.9479,22.1833],[111.9373,22.1678],[111.9264,22.1715],[111.9152,22.1565],[111.8719,22.1187],[111.8772,22.0973],[111.84,22.051],[111.8143,22.0354],[111.8102,22.0292],[111.7914,22.0254],[111.7713,21.9996],[111.7777,21.9903],[111.7919,21.9835],[111.799,21.9628],[111.8095,21.9548],[111.8725,21.9387],[111.8872,21.9233],[111.9166,21.9154],[111.9219,21.9035],[111.9349,21.9103],[111.9433,21.9053],[111.9584,21.9158],[111.9772,21.9226],[111.9946,21.9338],[112.0138,21.9611],[112.0295,21.9576],[112.0209,21.9347],[112.0225,21.9201],[112.0117,21.9136],[112.0131,21.9042],[112.0015,21.8972],[112.007,21.8836],[111.9934,21.872],[111.9986,21.865],[111.9939,21.8476],[111.9997,21.8305],[112.0194,21.8161],[112.0169,21.7917],[112.0277,21.7874],[112.0208,21.7768],[112.0292,21.7679],[112.0541,21.7259],[112.3031,21.4806]]]},"properties":{"region_code":"CN-44-4417-441704","parent_region_code":"CN-44-4417","name":"阳东区","level":"county","has_children":false,"full_path":"中国 / 广东省 / 阳江市 / 阳东区","source_admin_code":"441704","osm_relation_id":3032035}},
{"type":"Feature","geometry":{"type":"Polygon","coordinates":[[[111.713,21.9043],[111.6991,21.8987],[111.6919,21.9042],[111.6635,21.8885],[111.6097,21.9099],[111.5869,21.9056],[111.5698,21.8929],[111.5695,21.8803],[111.5531,21.8744],[111.5198,21.8746],[111.5129,21.8798],[111.4974,21.8705],[111.4716,21.8631],[111.4454,21.8485],[111.4258,21.8531],[111.4142,21.843],[111.4153,21.8128],[111.3962,21.8008],[111.3817,21.7827],[111.3715,21.7769],[111.3833,21.7595],[111.3765,21.7372],[111.4018,21.7244],[111.4268,21.7202],[111.4356,21.696],[111.4233,21.6787],[111.4174,21.6533],[111.4093,21.6418],[111.413,21.6225],[111.4212,21.6151],[111.4099,21.5986],[111.4175,21.591],[111.413,21.5797],[111.4354,21.5721],[111.4449,21.5553],[111.4441,21.5451],[111.4543,21.5312],[111.4282,21.456],[111.428,21.0339],[111.4274,20.1834],[111.663,20.1562],[111.7981,20.3415],[111.8011,21.5681],[111.8012,21.5958],[111.8054,21.6073],[111.8133,21.6845],[111.8119,21.6966],[111.7951,21.7228],[111.7873,21.7438],[111.7882,21.7675],[111.813,21.8125],[111.8015,21.8184],[111.8054,21.8288],[111.7905,21.8394],[111.7802,21.854],[111.7687,21.8517],[111.7541,21.8652],[111.7369,21.8864],[111.7297,21.9025],[111.713,21.9043]]]},"properties":{"region_code":"CN-44-4417-441721","parent_region_code":"CN-44-4417","name":"阳西县","level":"county","has_children":false,"full_path":"中国 / 广东省 / 阳江市 / 阳西县","source_admin_code":"441721","osm_relation_id":3032036}},
{"type":"Feature","geometry":{"type":"Polygon","coordinates":[[[111.799,21.9628],[111.7919,21.9835],[111.7777,21.9903],[111.7713,21.9996],[111.7914,22.0254],[111.8102,22.0292],[111.8143,22.0354],[111.84,22.051],[111.8772,22.0973],[111.8719,22.1187],[111.9152,22.1565],[111.9264,22.1715],[111.9373,22.1678],[111.9479,22.1833],[111.9476,22.1956],[111.9396,22.2073],[111.945,22.2217],[111.9403,22.2539],[111.9506,22.258],[111.9687,22.253],[111.9868,22.2577],[111.9991,22.2512],[112.0054,22.269],[112.0148,22.2711],[112.0313,22.2656],[112.0442,22.2735],[112.063,22.2987],[112.0569,22.3072],[112.0636,22.3212],[112.0597,22.3271],[112.0765,22.3538],[112.1026,22.3501],[112.1146,22.359],[112.1294,22.3519],[112.1292,22.3399],[112.142,22.3418],[112.148,22.3712],[112.1565,22.3904],[112.1563,22.4034],[112.1357,22.4181],[112.1275,22.4086],[112.072,22.4236],[112.068,22.4354],[112.0535,22.454],[112.0402,22.4558],[112.0293,22.4691],[112.007,22.4769],[112.0037,22.494],[111.9902,22.4953],[111.9786,22.5084],[111.9789,22.5183],[111.9645,22.5495],[111.9713,22.5659],[111.9848,22.568],[111.9934,22.5784],[111.9932,22.5922],[111.98,22.5968],[111.9609,22.6305],[111.9515,22.6368],[111.9341,22.6239],[111.9262,22.6091],[111.8972,22.5845],[111.8962,22.5774],[111.8572,22.5785],[111.8544,22.5846],[111.8306,22.5889],[111.8307,22.5964],[111.8166,22.6006],[111.8268,22.6119],[111.8419,22.6152],[111.854,22.6084],[111.8524,22.6357],[111.8657,22.6357],[111.8658,22.6628],[111.8516,22.6663],[111.8456,22.6793],[111.8283,22.6837],[111.815,22.6794],[111.8157,22.6707],[111.8047,22.6595],[111.8019,22.6483],[111.8094,22.6362],[111.7792,22.6105],[111.7751,22.5989],[111.7588,22.5855],[111.7328,22.5734],[111.7145,22.5432],[111.7162,22.5289],[111.7082,22.5076],[111.6861,22.4851],[111.674,22.4831],[111.6783,22.4717],[111.674,22.4598],[111.6507,22.4363],[111.6259,22.4059],[111.6118,22.3936],[111.6023,22.3963],[111.5957,22.3786],[111.5853,22.3728],[111.562,22.3778],[111.5476,22.3677],[111.5377,22.371],[111.526,22.3613],[111.5119,22.3682],[111.5061,22.3525],[111.487,22.3364],[111.4652,22.3353],[111.4541,22.3125],[111.4595,22.3049],[111.4482,22.273],[111.4277,22.279],[111.3915,22.2537],[111.3833,22.254],[111.3553,22.2367],[111.3409,22.2142],[111.3489,22.196],[111.3455,22.1862],[111.3231,22.1761],[111.3303,22.1542],[111.3262,22.1449],[111.3361,22.127],[111.3192,22.1077],[111.2834,22.0611],[111.2803,22.0502],[111.2908,22.0341],[111.2995,22.0327],[111.3009,22.0146],[111.2826,22.0028],[111.278,21.9895],[111.2826,21.9803],[111.2781,21.9587],[111.2895,21.9388],[111.2822,21.9268],[111.2851,21.9107],[111.302,21.9017],[111.315,21.9005],[111.3201,21.8896],[111.3349,21.877],[111.3573,21.8796],[111.3693,21.863],[111.398,21.8647],[111.3976,21.8574],[111.4119,21.8526],[111.4142,21.843],[111.4258,21.8531],[111.4454,21.8485],[111.4716,21.8631],[111.4974,21.8705],[111.5129,21.8798],[111.5198,21.8746],[111.5531,21.8744],[111.5695,21.8803],[111.5698,21.8929],[111.5869,21.9056],[111.6097,21.9099],[111.6635,21.8885],[111.6919,21.9042],[111.6991,21.8987],[111.713,21.9043],[111.7243,21.936],[111.7371,21.9443],[111.7499,21.9431],[111.7654,21.9502],[111.7783,21.9476],[111.799,21.9628]]]},"properties":{"region_code":"CN-44-4417-441781","parent_region_code":"CN-44-4417","name":"阳春市","level":"county","has_children":false,"full_path":"中国 / 广东省 / 阳江市 / 阳春市","source_admin_code":"441781","osm_relation_id":3032034}}
]}