{"type":"FeatureCollection", "features": [
{"type":"Feature","geometry":{"type":"Polygon","coordinates":[[[114.5236,23.6715],[114.5338,23.6538],[114.5349,23.6442],[114.5499,23.626],[114.5527,23.6192],[114.5458,23.608],[114.55,23.5942],[114.5629,23.5823],[114.5631,23.5735],[114.596,23.558],[114.6068,23.5469],[114.6021,23.5396],[114.6149,23.5311],[114.6186,23.5354],[114.6205,23.5522],[114.6264,23.5504],[114.6387,23.5621],[114.651,23.5655],[114.6515,23.5829],[114.6688,23.5897],[114.6744,23.5964],[114.6733,23.6151],[114.6765,23.6303],[114.6734,23.6496],[114.6759,23.6579],[114.6932,23.6822],[114.6956,23.6982],[114.7085,23.712],[114.7177,23.7074],[114.7407,23.7171],[114.7622,23.7396],[114.7275,23.7611],[114.7339,23.7764],[114.7286,23.7794],[114.7218,23.8008],[114.7287,23.8058],[114.7302,23.8175],[114.7069,23.8391],[114.7083,23.8478],[114.6859,23.8491],[114.6789,23.8211],[114.664,23.8038],[114.651,23.8021],[114.6529,23.7885],[114.6377,23.7706],[114.6168,23.7759],[114.6146,23.7685],[114.6026,23.7575],[114.6102,23.751],[114.6124,23.7419],[114.5999,23.7377],[114.5908,23.7266],[114.5969,23.7106],[114.5928,23.7019],[114.5582,23.694],[114.5512,23.6901],[114.5401,23.6752],[114.5236,23.6715]]]},"properties":{"region_code":"CN-44-4416-441602","parent_region_code":"CN-44-4416","name":"源城区","level":"county","has_children":false,"full_path":"中国 / 广东省 / 河源市 / 源城区","source_admin_code":"441602","osm_relation_id":3241968}},
{"type":"Feature","geometry":{"type":"Polygon","coordinates":[[[114.651,23.5655],[114.6551,23.5422],[114.6694,23.5314],[114.6851,23.5351],[114.6929,23.5315],[114.6926,23.523],[114.6809,23.5117],[114.6783,23.4972],[114.6856,23.48],[114.6931,23.475],[114.6906,23.4627],[114.6669,23.4543],[114.6595,23.4475],[114.6469,23.4289],[114.6282,23.4106],[114.6441,23.4062],[114.6483,23.4146],[114.661,23.4124],[114.6814,23.4162],[114.6914,23.4099],[114.6886,23.3962],[114.6955,23.3919],[114.6991,23.3702],[114.7152,23.3612],[114.7142,23.348],[114.722,23.3356],[114.7322,23.331],[114.7419,23.3331],[114.7546,23.3262],[114.757,23.3172],[114.7709,23.3141],[114.7749,23.2975],[114.7639,23.282],[114.7872,23.2533],[114.7886,23.2424],[114.7813,23.2368],[114.7783,23.2272],[114.7817,23.2098],[114.7978,23.2082],[114.7996,23.2025],[114.8186,23.1911],[114.8298,23.1746],[114.8458,23.168],[114.8524,23.1803],[114.8643,23.1927],[114.8573,23.2027],[114.8554,23.2138],[114.8714,23.2257],[114.8751,23.244],[114.8944,23.2495],[114.8904,23.2577],[114.9094,23.2826],[114.9072,23.2987],[114.9145,23.3176],[114.9107,23.321],[114.9141,23.3407],[114.9363,23.3526],[114.9493,23.3464],[114.9435,23.3324],[114.9568,23.329],[114.9663,23.3164],[114.9664,23.3052],[114.9734,23.297],[114.9874,23.2994],[114.9922,23.3164],[115.0089,23.3325],[115.0319,23.3305],[115.0428,23.3236],[115.0513,23.3236],[115.0564,23.3338],[115.0667,23.3356],[115.0733,23.3473],[115.0826,23.3463],[115.0966,23.3589],[115.1085,23.362],[115.1174,23.3706],[115.1364,23.3632],[115.1526,23.3648],[115.1715,23.3835],[115.1859,23.379],[115.2003,23.38],[115.2162,23.3858],[115.236,23.3793],[115.2602,23.387],[115.2728,23.3785],[115.302,23.3469],[115.2988,23.3272],[115.306,23.3105],[115.33,23.3249],[115.3467,23.3119],[115.3681,23.3029],[115.3795,23.2923],[115.3899,23.2907],[115.3964,23.2789],[115.3991,23.2569],[115.4089,23.2472],[115.4132,23.2577],[115.4259,23.2731],[115.4189,23.2796],[115.433,23.2844],[115.4407,23.2822],[115.452,23.2878],[115.4474,23.2957],[115.4553,23.3031],[115.4535,23.3149],[115.4635,23.3139],[115.4809,23.3178],[115.4727,23.3264],[115.466,23.3589],[115.4688,23.3771],[115.459,23.3779],[115.452,23.3863],[115.4552,23.4027],[115.4495,23.4074],[115.45,23.4206],[115.4444,23.4273],[115.4306,23.434],[115.4357,23.4504],[115.4236,23.4819],[115.4118,23.4865],[115.4093,23.4926],[115.4337,23.5017],[115.4276,23.5186],[115.4288,23.5324],[115.4359,23.5395],[115.4454,23.5584],[115.4317,23.5642],[115.4328,23.5741],[115.4238,23.5835],[115.4264,23.6026],[115.426,23.6297],[115.4277,23.6401],[115.4369,23.6455],[115.4477,23.6658],[115.4467,23.683],[115.4521,23.6987],[115.4491,23.7091],[115.4246,23.7012],[115.4236,23.6965],[115.4044,23.7032],[115.4075,23.7254],[115.3969,23.7254],[115.3835,23.7369],[115.378,23.7506],[115.3944,23.7711],[115.3843,23.7807],[115.3654,23.7677],[115.3642,23.7595],[115.3418,23.7587],[115.312,23.76],[115.2935,23.7667],[115.2778,23.7526],[115.2646,23.751],[115.2542,23.7617],[115.2238,23.7615],[115.2036,23.7456],[115.1867,23.7423],[115.1933,23.7275],[115.1804,23.7169],[115.1679,23.7165],[115.1576,23.707],[115.1443,23.7065],[115.1276,23.6894],[115.1152,23.6931],[115.1062,23.6886],[115.0843,23.6954],[115.0833,23.7044],[115.0759,23.7155],[115.0485,23.7233],[115.0355,23.731],[115.0328,23.7466],[115.024,23.7455],[115.0088,23.7601],[114.9962,23.7524],[114.9766,23.746],[114.9742,23.7308],[114.9617,23.7233],[114.9481,23.7397],[114.9319,23.7508],[114.9216,23.747],[114.9094,23.7539],[114.8931,23.7483],[114.8513,23.7441],[114.8428,23.7543],[114.8352,23.7507],[114.8236,23.755],[114.7937,23.7425],[114.7678,23.7461],[114.7622,23.7396],[114.7407,23.7171],[114.7177,23.7074],[114.7085,23.712],[114.6956,23.6982],[114.6932,23.6822],[114.6759,23.6579],[114.6734,23.6496],[114.6765,23.6303],[114.6733,23.6151],[114.6744,23.5964],[114.6688,23.5897],[114.6515,23.5829],[114.651,23.5655]]]},"properties":{"region_code":"CN-44-4416-441621","parent_region_code":"CN-44-4416","name":"紫金县","level":"county","has_children":false,"full_path":"中国 / 广东省 / 河源市 / 紫金县","source_admin_code":"441621","osm_relation_id":3241969}},
{"type":"Feature","geometry":{"type":"Polygon","coordinates":[[[115.3552,23.8491],[115.3674,23.8502],[115.3669,23.8677],[115.3738,23.8701],[115.3768,23.8828],[115.3868,23.8844],[115.3856,23.8933],[115.3958,23.9048],[115.3982,23.9146],[115.3965,23.9324],[115.406,23.9428],[115.4035,23.9531],[115.4331,23.9607],[115.4483,23.9696],[115.4475,23.9865],[115.4415,23.9962],[115.4449,24.0151],[115.4394,24.0239],[115.4406,24.0409],[115.4211,24.0565],[115.4127,24.0708],[115.424,24.0793],[115.4325,24.1066],[115.4437,24.1153],[115.4373,24.127],[115.4566,24.1304],[115.4685,24.1448],[115.4793,24.1403],[115.4752,24.1334],[115.4866,24.1239],[115.4956,24.1311],[115.5035,24.1079],[115.5084,24.1018],[115.5248,24.1013],[115.5327,24.1117],[115.5279,24.1254],[115.5175,24.1316],[115.5161,24.1461],[115.5056,24.1596],[115.5022,24.1688],[115.5055,24.1783],[115.4988,24.1903],[115.5104,24.1935],[115.5267,24.1786],[115.5341,24.1825],[115.5334,24.1956],[115.5668,24.2072],[115.5686,24.2301],[115.5662,24.2387],[115.5732,24.2452],[115.5862,24.2458],[115.5876,24.2583],[115.5721,24.2731],[115.5762,24.2805],[115.573,24.2933],[115.5631,24.2982],[115.5671,24.3129],[115.548,24.3363],[115.5462,24.3628],[115.5529,24.3887],[115.5713,24.3988],[115.5792,24.4143],[115.5775,24.4259],[115.5693,24.4309],[115.5708,24.4447],[115.5811,24.4496],[115.5848,24.4662],[115.5723,24.4617],[115.568,24.4801],[115.5574,24.4799],[115.5464,24.4722],[115.5476,24.489],[115.5338,24.4845],[115.5256,24.493],[115.5117,24.4978],[115.4895,24.4973],[115.4878,24.5113],[115.4819,24.5186],[115.4855,24.5254],[115.4802,24.5383],[115.4827,24.5461],[115.479,24.5652],[115.5102,24.5796],[115.5002,24.6059],[115.5164,24.6222],[115.5159,24.6314],[115.5242,24.6374],[115.5415,24.6409],[115.5544,24.6468],[115.5549,24.6639],[115.5505,24.6748],[115.5515,24.6857],[115.5294,24.6949],[115.5183,24.7059],[115.5231,24.7155],[115.5188,24.7204],[115.503,24.7194],[115.4956,24.7408],[115.4779,24.7525],[115.4738,24.7639],[115.4607,24.77],[115.4459,24.769],[115.4079,24.7955],[115.3962,24.793],[115.3844,24.7771],[115.3675,24.7771],[115.3578,24.7602],[115.3587,24.7421],[115.3535,24.7379],[115.334,24.7518],[115.317,24.7515],[115.3017,24.7615],[115.2736,24.757],[115.265,24.7523],[115.2635,24.7446],[115.2541,24.7317],[115.2427,24.7345],[115.2311,24.7273],[115.2197,24.7292],[115.1953,24.7165],[115.1794,24.7142],[115.1832,24.7],[115.1902,24.6947],[115.1914,24.6851],[115.2035,24.6656],[115.2145,24.6645],[115.2224,24.6528],[115.243,24.6348],[115.2567,24.6307],[115.2707,24.617],[115.2532,24.6077],[115.24,24.5902],[115.24,24.5712],[115.2197,24.5664],[115.2134,24.5569],[115.216,24.5365],[115.238,24.5262],[115.2275,24.5231],[115.2254,24.5129],[115.2176,24.5061],[115.2347,24.4956],[115.231,24.483],[115.2172,24.4743],[115.2279,24.4562],[115.2264,24.4413],[115.2381,24.4239],[115.2206,24.4148],[115.2112,24.4051],[115.2141,24.3843],[115.2102,24.3654],[115.1977,24.3492],[115.1821,24.3459],[115.1727,24.3364],[115.1835,24.3008],[115.1919,24.2976],[115.1906,24.2764],[115.2081,24.2747],[115.2179,24.2669],[115.2311,24.2634],[115.234,24.2397],[115.2275,24.2364],[115.2084,24.2078],[115.1839,24.2061],[115.167,24.188],[115.1553,24.1817],[115.1297,24.1873],[115.1134,24.1842],[115.1053,24.176],[115.0986,24.1791],[115.0791,24.1663],[115.0754,24.1413],[115.0642,24.1336],[115.0603,24.1199],[115.0536,24.1138],[115.061,24.1008],[115.0677,24.0993],[115.0837,24.1046],[115.1081,24.1058],[115.1175,24.0964],[115.1096,24.0836],[115.1173,24.0788],[115.116,24.0668],[115.1231,24.0662],[115.127,24.0542],[115.1422,24.0522],[115.1448,24.0408],[115.156,24.0257],[115.1648,24.0205],[115.1728,24.0087],[115.1682,24.0026],[115.1582,24.0034],[115.1491,24.0144],[115.1398,24.007],[115.1516,23.9887],[115.1622,23.9794],[115.1726,23.9816],[115.1776,23.9755],[115.1648,23.9603],[115.1858,23.9413],[115.1996,23.9383],[115.2194,23.947],[115.2294,23.9445],[115.2411,23.9537],[115.2467,23.9454],[115.2593,23.9449],[115.2674,23.9252],[115.2763,23.9211],[115.2824,23.9096],[115.2953,23.9104],[115.296,23.9003],[115.3042,23.8963],[115.3307,23.86],[115.3552,23.8491]]]},"properties":{"region_code":"CN-44-4416-441622","parent_region_code":"CN-44-4416","name":"龙川县","level":"county","has_children":false,"full_path":"中国 / 广东省 / 河源市 / 龙川县","source_admin_code":"441622","osm_relation_id":3241967}},
{"type":"Feature","geometry":{"type":"Polygon","coordinates":[[[114.7004,24.529],[114.6954,24.5401],[114.6814,24.5424],[114.66,24.5866],[114.6317,24.573],[114.6221,24.5798],[114.6065,24.5688],[114.5957,24.5565],[114.586,24.5398],[114.5681,24.5452],[114.558,24.5404],[114.5422,24.5458],[114.5338,24.5587],[114.5224,24.5549],[114.5069,24.545],[114.4992,24.5441],[114.4741,24.5312],[114.4648,24.5134],[114.4464,24.5031],[114.4374,24.5013],[114.4236,24.4888],[114.4172,24.4996],[114.3976,24.5067],[114.4012,24.5206],[114.3984,24.5314],[114.3843,24.5371],[114.3823,24.5507],[114.3862,24.5654],[114.3763,24.5658],[114.3708,24.5765],[114.3583,24.5859],[114.3343,24.5867],[114.3264,24.5799],[114.3185,24.5822],[114.3034,24.5769],[114.3056,24.5614],[114.2883,24.5548],[114.284,24.5408],[114.2687,24.5366],[114.2769,24.5216],[114.2737,24.5165],[114.283,24.5012],[114.2955,24.4947],[114.3006,24.4846],[114.2985,24.4734],[114.2876,24.4724],[114.2793,24.4568],[114.2362,24.4261],[114.2407,24.4142],[114.2511,24.4038],[114.2443,24.3847],[114.2483,24.3635],[114.2576,24.3664],[114.2775,24.3663],[114.2892,24.3539],[114.2838,24.344],[114.2739,24.3379],[114.2679,24.3254],[114.2756,24.3159],[114.2761,24.3055],[114.2578,24.2819],[114.2514,24.2526],[114.2598,24.2493],[114.2704,24.2203],[114.2932,24.205],[114.2934,24.1987],[114.2846,24.1851],[114.2868,24.1774],[114.3034,24.1656],[114.3092,24.1512],[114.3157,24.1492],[114.3315,24.1272],[114.3406,24.1428],[114.3459,24.1462],[114.3664,24.1342],[114.3749,24.1422],[114.3897,24.1445],[114.3959,24.1415],[114.415,24.141],[114.4114,24.1275],[114.4221,24.1207],[114.4254,24.133],[114.4597,24.1135],[114.4717,24.1147],[114.4724,24.1265],[114.4654,24.1474],[114.4621,24.1659],[114.469,24.1675],[114.4854,24.1936],[114.5045,24.2058],[114.508,24.2153],[114.521,24.2234],[114.5364,24.2257],[114.5442,24.2337],[114.5494,24.2456],[114.5599,24.2443],[114.5634,24.2341],[114.5875,24.2293],[114.5953,24.2141],[114.5876,24.2067],[114.5827,24.1942],[114.5961,24.1805],[114.5915,24.1674],[114.5787,24.1631],[114.564,24.1622],[114.5546,24.1555],[114.5566,24.1413],[114.5618,24.1381],[114.5787,24.1285],[114.5774,24.1209],[114.5861,24.1127],[114.5884,24.0985],[114.5961,24.098],[114.6102,24.1147],[114.6227,24.1185],[114.637,24.1143],[114.64,24.1349],[114.6171,24.1558],[114.6202,24.1694],[114.6347,24.1681],[114.6437,24.1597],[114.6433,24.1527],[114.6605,24.1392],[114.6597,24.127],[114.6638,24.1154],[114.6751,24.1142],[114.6915,24.1185],[114.7003,24.1149],[114.7126,24.1214],[114.7207,24.118],[114.7329,24.1339],[114.7304,24.1419],[114.76,24.1523],[114.7708,24.16],[114.7873,24.1522],[114.7924,24.1618],[114.8034,24.1641],[114.8172,24.1781],[114.8313,24.1807],[114.8256,24.1936],[114.8271,24.2023],[114.8406,24.2078],[114.8525,24.2074],[114.861,24.1909],[114.8658,24.1921],[114.8833,24.2217],[114.8841,24.2426],[114.8884,24.2461],[114.9136,24.2497],[114.9321,24.2591],[114.9268,24.2764],[114.9168,24.2816],[114.9155,24.2931],[114.9092,24.299],[114.8765,24.2821],[114.8727,24.2961],[114.8624,24.2985],[114.8578,24.3109],[114.8481,24.3169],[114.8346,24.315],[114.8333,24.299],[114.8279,24.2938],[114.8136,24.3057],[114.8168,24.3099],[114.8115,24.3269],[114.8015,24.3274],[114.7935,24.3115],[114.7929,24.3013],[114.7996,24.2879],[114.7947,24.2783],[114.7828,24.2791],[114.7733,24.2881],[114.7521,24.2839],[114.7442,24.2872],[114.7494,24.3031],[114.7497,24.3222],[114.756,24.3375],[114.7435,24.3433],[114.7409,24.3491],[114.7505,24.3558],[114.7503,24.3619],[114.7362,24.3715],[114.744,24.3844],[114.7324,24.408],[114.7502,24.4213],[114.7366,24.437],[114.7367,24.4439],[114.7181,24.4541],[114.7069,24.4544],[114.6939,24.4811],[114.7021,24.4908],[114.7028,24.5069],[114.7088,24.5146],[114.7004,24.529]]]},"properties":{"region_code":"CN-44-4416-441623","parent_region_code":"CN-44-4416","name":"连平县","level":"county","has_children":false,"full_path":"中国 / 广东省 / 河源市 / 连平县","source_admin_code":"441623","osm_relation_id":3241966}},
{"type":"Feature","geometry":{"type":"Polygon","coordinates":[[[115.1902,24.6947],[115.1686,24.6983],[115.1348,24.6847],[115.1204,24.6837],[115.1191,24.6698],[115.0986,24.677],[115.0909,24.6768],[115.0817,24.69],[115.0832,24.6944],[115.0688,24.7071],[115.0516,24.7064],[115.0406,24.7007],[115.0417,24.6915],[115.026,24.6809],[115.0199,24.6719],[115.003,24.6753],[114.999,24.682],[114.9864,24.6762],[114.9741,24.6762],[114.9576,24.6681],[114.9505,24.6584],[114.9328,24.6549],[114.9321,24.6685],[114.915,24.6702],[114.905,24.6646],[114.9012,24.6356],[114.8939,24.626],[114.8973,24.611],[114.882,24.5833],[114.8783,24.5722],[114.8644,24.5654],[114.857,24.5703],[114.8496,24.5855],[114.8545,24.6003],[114.842,24.6054],[114.8281,24.5993],[114.8216,24.5912],[114.7994,24.6083],[114.7946,24.605],[114.7764,24.6158],[114.7642,24.6086],[114.7479,24.6191],[114.7278,24.6153],[114.7256,24.5953],[114.7312,24.5866],[114.7281,24.5655],[114.7219,24.5527],[114.7139,24.557],[114.7004,24.529],[114.7088,24.5146],[114.7028,24.5069],[114.7021,24.4908],[114.6939,24.4811],[114.7069,24.4544],[114.7181,24.4541],[114.7367,24.4439],[114.7366,24.437],[114.7502,24.4213],[114.7324,24.408],[114.744,24.3844],[114.7362,24.3715],[114.7503,24.3619],[114.7505,24.3558],[114.7409,24.3491],[114.7435,24.3433],[114.756,24.3375],[114.7497,24.3222],[114.7494,24.3031],[114.7442,24.2872],[114.7521,24.2839],[114.7733,24.2881],[114.7828,24.2791],[114.7947,24.2783],[114.7996,24.2879],[114.7929,24.3013],[114.7935,24.3115],[114.8015,24.3274],[114.8115,24.3269],[114.8168,24.3099],[114.8136,24.3057],[114.8279,24.2938],[114.8333,24.299],[114.8346,24.315],[114.8481,24.3169],[114.8578,24.3109],[114.8624,24.2985],[114.8727,24.2961],[114.8765,24.2821],[114.9092,24.299],[114.9155,24.2931],[114.9168,24.2816],[114.9268,24.2764],[114.9321,24.2591],[114.9394,24.2589],[114.9479,24.2475],[114.9629,24.2439],[114.969,24.2284],[114.9721,24.21],[114.988,24.2024],[115.0052,24.2105],[115.0181,24.1994],[115.0248,24.1857],[115.0419,24.1806],[115.056,24.1809],[115.0604,24.1635],[115.0791,24.1663],[115.0986,24.1791],[115.1053,24.176],[115.1134,24.1842],[115.1297,24.1873],[115.1553,24.1817],[115.167,24.188],[115.1839,24.2061],[115.2084,24.2078],[115.2275,24.2364],[115.234,24.2397],[115.2311,24.2634],[115.2179,24.2669],[115.2081,24.2747],[115.1906,24.2764],[115.1919,24.2976],[115.1835,24.3008],[115.1727,24.3364],[115.1821,24.3459],[115.1977,24.3492],[115.2102,24.3654],[115.2141,24.3843],[115.2112,24.4051],[115.2206,24.4148],[115.2381,24.4239],[115.2264,24.4413],[115.2279,24.4562],[115.2172,24.4743],[115.231,24.483],[115.2347,24.4956],[115.2176,24.5061],[115.2254,24.5129],[115.2275,24.5231],[115.238,24.5262],[115.216,24.5365],[115.2134,24.5569],[115.2197,24.5664],[115.24,24.5712],[115.24,24.5902],[115.2532,24.6077],[115.2707,24.617],[115.2567,24.6307],[115.243,24.6348],[115.2224,24.6528],[115.2145,24.6645],[115.2035,24.6656],[115.1914,24.6851],[115.1902,24.6947]]]},"properties":{"region_code":"CN-44-4416-441624","parent_region_code":"CN-44-4416","name":"和平县","level":"county","has_children":false,"full_path":"中国 / 广东省 / 河源市 / 和平县","source_admin_code":"441624","osm_relation_id":3241965}},
{"type":"Feature","geometry":{"type":"Polygon","coordinates":[[[114.7622,23.7396],[114.7678,23.7461],[114.7937,23.7425],[114.8236,23.755],[114.8352,23.7507],[114.8428,23.7543],[114.8513,23.7441],[114.8931,23.7483],[114.9094,23.7539],[114.9216,23.747],[114.9319,23.7508],[114.9481,23.7397],[114.9617,23.7233],[114.9742,23.7308],[114.9766,23.746],[114.9962,23.7524],[115.0088,23.7601],[115.024,23.7455],[115.0328,23.7466],[115.0355,23.731],[115.0485,23.7233],[115.0759,23.7155],[115.0833,23.7044],[115.0843,23.6954],[115.1062,23.6886],[115.1152,23.6931],[115.1276,23.6894],[115.1443,23.7065],[115.1576,23.707],[115.1679,23.7165],[115.1804,23.7169],[115.1933,23.7275],[115.1867,23.7423],[115.2036,23.7456],[115.2238,23.7615],[115.2542,23.7617],[115.2646,23.751],[115.2778,23.7526],[115.2935,23.7667],[115.312,23.76],[115.3262,23.7749],[115.3443,23.7851],[115.3544,23.8027],[115.3526,23.8175],[115.3448,23.821],[115.3513,23.8315],[115.3495,23.8449],[115.3552,23.8491],[115.3307,23.86],[115.3042,23.8963],[115.296,23.9003],[115.2953,23.9104],[115.2824,23.9096],[115.2763,23.9211],[115.2674,23.9252],[115.2593,23.9449],[115.2467,23.9454],[115.2411,23.9537],[115.2294,23.9445],[115.2194,23.947],[115.1996,23.9383],[115.1858,23.9413],[115.1648,23.9603],[115.1776,23.9755],[115.1726,23.9816],[115.1622,23.9794],[115.1516,23.9887],[115.1398,24.007],[115.1491,24.0144],[115.1582,24.0034],[115.1682,24.0026],[115.1728,24.0087],[115.1648,24.0205],[115.156,24.0257],[115.1448,24.0408],[115.1422,24.0522],[115.127,24.0542],[115.1231,24.0662],[115.116,24.0668],[115.1173,24.0788],[115.1096,24.0836],[115.1175,24.0964],[115.1081,24.1058],[115.0837,24.1046],[115.0677,24.0993],[115.061,24.1008],[115.0536,24.1138],[115.0603,24.1199],[115.0642,24.1336],[115.0754,24.1413],[115.0791,24.1663],[115.0604,24.1635],[115.056,24.1809],[115.0419,24.1806],[115.0248,24.1857],[115.0181,24.1994],[115.0052,24.2105],[114.988,24.2024],[114.9721,24.21],[114.969,24.2284],[114.9629,24.2439],[114.9479,24.2475],[114.9394,24.2589],[114.9321,24.2591],[114.9136,24.2497],[114.8884,24.2461],[114.8841,24.2426],[114.8833,24.2217],[114.8658,24.1921],[114.861,24.1909],[114.8525,24.2074],[114.8406,24.2078],[114.8271,24.2023],[114.8256,24.1936],[114.8313,24.1807],[114.8172,24.1781],[114.8034,24.1641],[114.7924,24.1618],[114.7873,24.1522],[114.7708,24.16],[114.76,24.1523],[114.7304,24.1419],[114.7329,24.1339],[114.7207,24.118],[114.7126,24.1214],[114.7003,24.1149],[114.6915,24.1185],[114.6751,24.1142],[114.6638,24.1154],[114.6597,24.127],[114.6605,24.1392],[114.6433,24.1527],[114.6437,24.1597],[114.6347,24.1681],[114.6202,24.1694],[114.6171,24.1558],[114.64,24.1349],[114.637,24.1143],[114.6227,24.1185],[114.6102,24.1147],[114.5961,24.098],[114.5884,24.0985],[114.5861,24.1127],[114.5774,24.1209],[114.5787,24.1285],[114.5618,24.1381],[114.5525,24.1266],[114.5408,24.1346],[114.5286,24.1369],[114.5107,24.1224],[114.51,24.1114],[114.5035,24.1089],[114.4925,24.1201],[114.4846,24.1142],[114.4905,24.1074],[114.4803,24.1008],[114.4731,24.0847],[114.4385,24.0721],[114.4328,24.065],[114.4308,24.053],[114.436,24.0478],[114.4377,24.0357],[114.4201,24.0364],[114.4105,24.0293],[114.3949,24.0271],[114.3907,24.0164],[114.3841,24.0149],[114.3809,24.0028],[114.3873,23.9944],[114.3779,23.9859],[114.3842,23.9732],[114.382,23.9596],[114.3722,23.9495],[114.3773,23.9356],[114.3662,23.9305],[114.354,23.8971],[114.3483,23.8957],[114.3411,23.8809],[114.3513,23.8721],[114.3389,23.8691],[114.3253,23.8555],[114.3221,23.8251],[114.3277,23.8112],[114.336,23.8104],[114.3435,23.7955],[114.3418,23.7861],[114.333,23.7732],[114.3366,23.7541],[114.3523,23.7501],[114.3504,23.7385],[114.3556,23.7311],[114.3656,23.7352],[114.3736,23.7471],[114.3836,23.7417],[114.4004,23.7106],[114.4164,23.7124],[114.4193,23.6996],[114.4351,23.69],[114.445,23.6963],[114.4683,23.7058],[114.4887,23.7018],[114.5079,23.6911],[114.5157,23.6711],[114.5236,23.6715],[114.5401,23.6752],[114.5512,23.6901],[114.5582,23.694],[114.5928,23.7019],[114.5969,23.7106],[114.5908,23.7266],[114.5999,23.7377],[114.6124,23.7419],[114.6102,23.751],[114.6026,23.7575],[114.6146,23.7685],[114.6168,23.7759],[114.6377,23.7706],[114.6529,23.7885],[114.651,23.8021],[114.664,23.8038],[114.6789,23.8211],[114.6859,23.8491],[114.7083,23.8478],[114.7069,23.8391],[114.7302,23.8175],[114.7287,23.8058],[114.7218,23.8008],[114.7286,23.7794],[114.7339,23.7764],[114.7275,23.7611],[114.7622,23.7396]]]},"properties":{"region_code":"CN-44-4416-441625","parent_region_code":"CN-44-4416","name":"东源县","level":"county","has_children":false,"full_path":"中国 / 广东省 / 河源市 / 东源县","source_admin_code":"441625","osm_relation_id":3241964}}
]}