{"type":"FeatureCollection", "features": [
{"type":"Feature","geometry":{"type":"Polygon","coordinates":[[[113.2357,23.1603],[113.2317,23.1514],[113.2223,23.1406],[113.2113,23.1523],[113.2083,23.1438],[113.2058,23.1252],[113.1998,23.1247],[113.1992,23.1131],[113.2081,23.1023],[113.2069,23.0909],[113.2037,23.0862],[113.1883,23.0864],[113.1736,23.0773],[113.1723,23.0716],[113.1808,23.0616],[113.191,23.0585],[113.207,23.0458],[113.2208,23.0441],[113.2283,23.0459],[113.2504,23.0475],[113.2599,23.0538],[113.2716,23.0566],[113.254,23.0736],[113.2465,23.0861],[113.243,23.0969],[113.2366,23.106],[113.2489,23.11],[113.2479,23.1316],[113.2392,23.1403],[113.2481,23.1423],[113.246,23.1513],[113.2399,23.1518],[113.2357,23.1603]]]},"properties":{"region_code":"CN-44-4401-440103","parent_region_code":"CN-44-4401","name":"荔湾区","level":"county","has_children":false,"full_path":"中国 / 广东省 / 广州市 / 荔湾区","source_admin_code":"440103","osm_relation_id":3287617}},
{"type":"Feature","geometry":{"type":"Polygon","coordinates":[[[113.2489,23.11],[113.2632,23.1158],[113.2695,23.1165],[113.2949,23.1078],[113.3168,23.1116],[113.3099,23.1153],[113.309,23.146],[113.3024,23.1429],[113.2951,23.152],[113.3008,23.1621],[113.2883,23.1573],[113.2793,23.1582],[113.2655,23.1524],[113.2544,23.1522],[113.248,23.1683],[113.2387,23.1718],[113.2357,23.1603],[113.2399,23.1518],[113.246,23.1513],[113.2481,23.1423],[113.2392,23.1403],[113.2479,23.1316],[113.2489,23.11]]]},"properties":{"region_code":"CN-44-4401-440104","parent_region_code":"CN-44-4401","name":"越秀区","level":"county","has_children":false,"full_path":"中国 / 广东省 / 广州市 / 越秀区","source_admin_code":"440104","osm_relation_id":3987394}},
{"type":"Feature","geometry":{"type":"Polygon","coordinates":[[[113.2716,23.0566],[113.2818,23.0568],[113.2959,23.0531],[113.32,23.0518],[113.3415,23.0461],[113.3581,23.0479],[113.3638,23.0565],[113.376,23.0666],[113.3792,23.0724],[113.3944,23.0828],[113.4147,23.091],[113.4078,23.0941],[113.4092,23.1004],[113.3936,23.1065],[113.3803,23.1097],[113.3507,23.1093],[113.3336,23.1125],[113.3168,23.1116],[113.2949,23.1078],[113.2695,23.1165],[113.2632,23.1158],[113.2489,23.11],[113.2366,23.106],[113.243,23.0969],[113.2465,23.0861],[113.254,23.0736],[113.2716,23.0566]]]},"properties":{"region_code":"CN-44-4401-440105","parent_region_code":"CN-44-4401","name":"海珠区","level":"county","has_children":false,"full_path":"中国 / 广东省 / 广州市 / 海珠区","source_admin_code":"440105","osm_relation_id":3287615}},
{"type":"Feature","geometry":{"type":"Polygon","coordinates":[[[113.3168,23.1116],[113.3336,23.1125],[113.3507,23.1093],[113.3803,23.1097],[113.3936,23.1065],[113.4092,23.1004],[113.4116,23.1056],[113.419,23.1084],[113.4259,23.1246],[113.4339,23.1238],[113.4424,23.1442],[113.4316,23.1459],[113.4328,23.1573],[113.4248,23.162],[113.4139,23.1646],[113.4185,23.1813],[113.4134,23.1891],[113.4182,23.1953],[113.4025,23.2067],[113.393,23.2159],[113.3968,23.2304],[113.4002,23.234],[113.3994,23.2439],[113.3925,23.248],[113.3814,23.2416],[113.3727,23.2314],[113.3541,23.2327],[113.3449,23.2224],[113.345,23.2066],[113.3423,23.1973],[113.3339,23.1874],[113.3283,23.1762],[113.313,23.1784],[113.3008,23.1621],[113.2951,23.152],[113.3024,23.1429],[113.309,23.146],[113.3099,23.1153],[113.3168,23.1116]]]},"properties":{"region_code":"CN-44-4401-440106","parent_region_code":"CN-44-4401","name":"天河区","level":"county","has_children":false,"full_path":"中国 / 广东省 / 广州市 / 天河区","source_admin_code":"440106","osm_relation_id":3987435}},
{"type":"Feature","geometry":{"type":"Polygon","coordinates":[[[113.2357,23.1603],[113.2387,23.1718],[113.248,23.1683],[113.2544,23.1522],[113.2655,23.1524],[113.2793,23.1582],[113.2883,23.1573],[113.3008,23.1621],[113.313,23.1784],[113.3283,23.1762],[113.3339,23.1874],[113.3423,23.1973],[113.345,23.2066],[113.3449,23.2224],[113.3541,23.2327],[113.3727,23.2314],[113.3814,23.2416],[113.3925,23.248],[113.3994,23.2439],[113.4002,23.234],[113.4058,23.2397],[113.4044,23.2473],[113.4101,23.2494],[113.4223,23.2416],[113.4233,23.2486],[113.4294,23.2543],[113.4221,23.2679],[113.4332,23.2703],[113.4422,23.2636],[113.443,23.2558],[113.437,23.2521],[113.4448,23.2467],[113.4719,23.2492],[113.4755,23.2552],[113.4861,23.255],[113.4901,23.2656],[113.5015,23.2715],[113.4975,23.2805],[113.4995,23.2851],[113.4898,23.2892],[113.4955,23.2992],[113.5051,23.3071],[113.5011,23.3197],[113.4815,23.3303],[113.4749,23.327],[113.4665,23.3291],[113.4643,23.3499],[113.4717,23.3581],[113.4621,23.3676],[113.4607,23.3777],[113.4627,23.3864],[113.4595,23.3931],[113.4618,23.4003],[113.4735,23.4037],[113.4773,23.4085],[113.4922,23.4145],[113.4883,23.4215],[113.4675,23.4312],[113.452,23.4221],[113.4413,23.4212],[113.4386,23.4111],[113.4278,23.4076],[113.4228,23.4022],[113.4128,23.4053],[113.3951,23.3936],[113.39,23.4002],[113.3901,23.4149],[113.3849,23.4154],[113.3774,23.4218],[113.3723,23.4134],[113.357,23.4152],[113.349,23.4046],[113.3348,23.3999],[113.3317,23.3889],[113.3121,23.3968],[113.3037,23.3963],[113.2982,23.3838],[113.2897,23.3869],[113.2848,23.3836],[113.2826,23.3746],[113.2679,23.3683],[113.2611,23.3587],[113.2516,23.3583],[113.2545,23.3466],[113.2335,23.3421],[113.2257,23.3355],[113.2167,23.3324],[113.2079,23.3393],[113.2101,23.3512],[113.2026,23.3639],[113.197,23.361],[113.1756,23.3595],[113.1679,23.3629],[113.1605,23.3587],[113.1468,23.3357],[113.1527,23.3249],[113.1501,23.3149],[113.1518,23.3046],[113.1463,23.303],[113.1437,23.2938],[113.1474,23.2876],[113.156,23.2888],[113.1601,23.2802],[113.1685,23.2795],[113.1734,23.2752],[113.1764,23.2503],[113.1718,23.2245],[113.1762,23.2173],[113.1828,23.2175],[113.199,23.2045],[113.2038,23.1956],[113.203,23.1849],[113.2058,23.1793],[113.1934,23.1727],[113.1819,23.1608],[113.1832,23.1478],[113.189,23.1494],[113.2083,23.1438],[113.2113,23.1523],[113.2223,23.1406],[113.2317,23.1514],[113.2357,23.1603]]]},"properties":{"region_code":"CN-44-4401-440111","parent_region_code":"CN-44-4401","name":"白云区","level":"county","has_children":false,"full_path":"中国 / 广东省 / 广州市 / 白云区","source_admin_code":"440111","osm_relation_id":3987393}},
{"type":"Feature","geometry":{"type":"Polygon","coordinates":[[[113.3944,23.0828],[113.3959,23.0683],[113.4015,23.0656],[113.4209,23.0667],[113.4385,23.078],[113.4494,23.0786],[113.4718,23.0735],[113.4902,23.0628],[113.5065,23.044],[113.5166,23.034],[113.5184,23.0418],[113.5269,23.0536],[113.5386,23.065],[113.5448,23.0806],[113.5528,23.0846],[113.5654,23.087],[113.559,23.1003],[113.5444,23.1103],[113.5444,23.115],[113.5534,23.1218],[113.5502,23.1364],[113.5446,23.138],[113.5498,23.1465],[113.542,23.1646],[113.5461,23.1742],[113.5582,23.1704],[113.5658,23.1736],[113.5764,23.1857],[113.5716,23.1997],[113.5776,23.2032],[113.5824,23.2152],[113.573,23.2339],[113.5829,23.2366],[113.5959,23.243],[113.5948,23.2574],[113.5965,23.2624],[113.5916,23.2684],[113.5997,23.2789],[113.5921,23.2867],[113.5863,23.3011],[113.5922,23.3168],[113.5985,23.3096],[113.6041,23.3137],[113.5855,23.3226],[113.5837,23.3341],[113.5778,23.339],[113.5862,23.3466],[113.5684,23.3678],[113.5586,23.3737],[113.5507,23.3702],[113.5338,23.3871],[113.51,23.398],[113.51,23.4088],[113.4922,23.4145],[113.4773,23.4085],[113.4735,23.4037],[113.4618,23.4003],[113.4595,23.3931],[113.4627,23.3864],[113.4607,23.3777],[113.4621,23.3676],[113.4717,23.3581],[113.4643,23.3499],[113.4665,23.3291],[113.4749,23.327],[113.4815,23.3303],[113.5011,23.3197],[113.5051,23.3071],[113.4955,23.2992],[113.4898,23.2892],[113.4995,23.2851],[113.4975,23.2805],[113.5015,23.2715],[113.4901,23.2656],[113.4861,23.255],[113.4755,23.2552],[113.4719,23.2492],[113.4448,23.2467],[113.437,23.2521],[113.443,23.2558],[113.4422,23.2636],[113.4332,23.2703],[113.4221,23.2679],[113.4294,23.2543],[113.4233,23.2486],[113.4223,23.2416],[113.4101,23.2494],[113.4044,23.2473],[113.4058,23.2397],[113.4002,23.234],[113.3968,23.2304],[113.393,23.2159],[113.4025,23.2067],[113.4182,23.1953],[113.4134,23.1891],[113.4185,23.1813],[113.4139,23.1646],[113.4248,23.162],[113.4328,23.1573],[113.4316,23.1459],[113.4424,23.1442],[113.4339,23.1238],[113.4259,23.1246],[113.419,23.1084],[113.4116,23.1056],[113.4092,23.1004],[113.4078,23.0941],[113.4147,23.091],[113.3944,23.0828]]]},"properties":{"region_code":"CN-44-4401-440112","parent_region_code":"CN-44-4401","name":"黄埔区","level":"county","has_children":false,"full_path":"中国 / 广东省 / 广州市 / 黄埔区","source_admin_code":"440112","osm_relation_id":3987437}},
{"type":"Feature","geometry":{"type":"Polygon","coordinates":[[[113.2504,23.0475],[113.2492,23.0398],[113.2551,23.02],[113.2447,23.0112],[113.2452,23.0019],[113.2522,22.9971],[113.2459,22.991],[113.245,22.9751],[113.2648,22.9597],[113.2825,22.9533],[113.2931,22.9371],[113.2769,22.9303],[113.2781,22.9144],[113.2811,22.9055],[113.2722,22.9035],[113.271,22.8963],[113.2951,22.8797],[113.3223,22.8861],[113.3462,22.8952],[113.3563,22.8963],[113.3758,22.9055],[113.3996,22.9044],[113.4109,22.9105],[113.4417,22.9099],[113.4624,22.9079],[113.4766,22.9009],[113.4934,22.8953],[113.5171,22.8841],[113.5395,22.8714],[113.5539,22.8659],[113.5668,22.8585],[113.5662,22.8751],[113.5698,22.8931],[113.56,22.907],[113.5463,22.9401],[113.5384,22.9521],[113.5353,22.9633],[113.5272,22.9745],[113.5217,22.9864],[113.5168,23.0069],[113.5166,23.034],[113.5065,23.044],[113.4902,23.0628],[113.4718,23.0735],[113.4494,23.0786],[113.4385,23.078],[113.4209,23.0667],[113.4015,23.0656],[113.3959,23.0683],[113.3944,23.0828],[113.3792,23.0724],[113.376,23.0666],[113.3638,23.0565],[113.3581,23.0479],[113.3415,23.0461],[113.32,23.0518],[113.2959,23.0531],[113.2818,23.0568],[113.2716,23.0566],[113.2599,23.0538],[113.2504,23.0475]]]},"properties":{"region_code":"CN-44-4401-440113","parent_region_code":"CN-44-4401","name":"番禺区","level":"county","has_children":false,"full_path":"中国 / 广东省 / 广州市 / 番禺区","source_admin_code":"440113","osm_relation_id":3287618}},
{"type":"Feature","geometry":{"type":"Polygon","coordinates":[[[113.4675,23.4312],[113.4697,23.4376],[113.4617,23.4463],[113.4515,23.45],[113.4515,23.4566],[113.4611,23.4658],[113.4551,23.4741],[113.4534,23.4833],[113.435,23.4842],[113.431,23.4865],[113.4294,23.4961],[113.4408,23.5095],[113.4339,23.5177],[113.4414,23.5261],[113.43,23.5312],[113.4231,23.5442],[113.4114,23.5491],[113.4031,23.545],[113.3891,23.5471],[113.3756,23.5438],[113.3614,23.5469],[113.3572,23.5431],[113.3477,23.5431],[113.3456,23.5535],[113.3368,23.5653],[113.3255,23.5715],[113.3257,23.5774],[113.3363,23.5827],[113.3348,23.5882],[113.316,23.5926],[113.3104,23.6],[113.2934,23.6021],[113.2849,23.6109],[113.2762,23.6121],[113.2729,23.6167],[113.2524,23.6103],[113.2431,23.6042],[113.2405,23.5908],[113.2225,23.597],[113.2216,23.5883],[113.2091,23.5868],[113.1968,23.5791],[113.1954,23.5644],[113.2048,23.5556],[113.2053,23.5397],[113.1988,23.5404],[113.1865,23.5189],[113.1522,23.5104],[113.1381,23.5137],[113.1225,23.5092],[113.1134,23.5093],[113.1099,23.5039],[113.0958,23.4978],[113.0876,23.4993],[113.0782,23.4969],[113.0709,23.4919],[113.0658,23.4838],[113.0569,23.4828],[113.0549,23.4762],[113.0488,23.473],[113.0343,23.4774],[113.0249,23.4726],[113.0203,23.4744],[113.0095,23.4676],[112.9999,23.4645],[112.9881,23.4695],[112.9754,23.4679],[112.9706,23.462],[112.9662,23.4507],[112.9582,23.4473],[112.953,23.437],[112.9575,23.4277],[112.9634,23.4359],[112.9699,23.437],[112.9734,23.4443],[112.9834,23.4225],[112.9875,23.42],[112.9906,23.4081],[112.9816,23.4018],[112.9831,23.3928],[112.9783,23.3903],[112.9752,23.3765],[112.9805,23.3717],[112.9813,23.3603],[112.9846,23.3574],[113.0049,23.3568],[113.01,23.3448],[113.0183,23.349],[113.0294,23.3599],[113.038,23.3536],[113.024,23.3384],[113.0181,23.3275],[113.0277,23.3209],[113.03,23.3164],[113.0271,23.3034],[113.0371,23.286],[113.046,23.2809],[113.0474,23.2657],[113.0395,23.2547],[113.0475,23.2554],[113.0637,23.2503],[113.0754,23.2541],[113.0737,23.2702],[113.0664,23.2813],[113.0692,23.2876],[113.0935,23.2944],[113.0991,23.2925],[113.1055,23.2989],[113.1042,23.3069],[113.1316,23.312],[113.1463,23.303],[113.1518,23.3046],[113.1501,23.3149],[113.1527,23.3249],[113.1468,23.3357],[113.1605,23.3587],[113.1679,23.3629],[113.1756,23.3595],[113.197,23.361],[113.2026,23.3639],[113.2101,23.3512],[113.2079,23.3393],[113.2167,23.3324],[113.2257,23.3355],[113.2335,23.3421],[113.2545,23.3466],[113.2516,23.3583],[113.2611,23.3587],[113.2679,23.3683],[113.2826,23.3746],[113.2848,23.3836],[113.2897,23.3869],[113.2982,23.3838],[113.3037,23.3963],[113.3121,23.3968],[113.3317,23.3889],[113.3348,23.3999],[113.349,23.4046],[113.357,23.4152],[113.3723,23.4134],[113.3774,23.4218],[113.3849,23.4154],[113.3901,23.4149],[113.39,23.4002],[113.3951,23.3936],[113.4128,23.4053],[113.4228,23.4022],[113.4278,23.4076],[113.4386,23.4111],[113.4413,23.4212],[113.452,23.4221],[113.4675,23.4312]]]},"properties":{"region_code":"CN-44-4401-440114","parent_region_code":"CN-44-4401","name":"花都区","level":"county","has_children":false,"full_path":"中国 / 广东省 / 广州市 / 花都区","source_admin_code":"440114","osm_relation_id":3287616}},
{"type":"Feature","geometry":{"type":"Polygon","coordinates":[[[113.2951,22.8797],[113.2961,22.869],[113.2916,22.8607],[113.3041,22.8542],[113.3046,22.8402],[113.3077,22.832],[113.3256,22.8255],[113.3302,22.8213],[113.3578,22.8261],[113.3742,22.8225],[113.388,22.8125],[113.3761,22.801],[113.3513,22.7964],[113.3561,22.7807],[113.3598,22.7761],[113.4058,22.7465],[113.4206,22.7416],[113.4417,22.7396],[113.4627,22.732],[113.4593,22.7244],[113.4661,22.7182],[113.4966,22.6959],[113.5083,22.6891],[113.5346,22.6693],[113.5325,22.6603],[113.5277,22.6582],[113.5327,22.6479],[113.5564,22.611],[113.567,22.6057],[113.5697,22.609],[113.5802,22.6018],[113.5971,22.5988],[113.61,22.5887],[113.6127,22.5825],[113.6295,22.5608],[113.7272,22.5608],[113.7468,22.5978],[113.7351,22.6091],[113.7154,22.676],[113.6805,22.7181],[113.6709,22.726],[113.6504,22.7523],[113.6223,22.79],[113.6024,22.8132],[113.5761,22.8381],[113.5668,22.8585],[113.5539,22.8659],[113.5395,22.8714],[113.5171,22.8841],[113.4934,22.8953],[113.4766,22.9009],[113.4624,22.9079],[113.4417,22.9099],[113.4109,22.9105],[113.3996,22.9044],[113.3758,22.9055],[113.3563,22.8963],[113.3462,22.8952],[113.3223,22.8861],[113.2951,22.8797]]]},"properties":{"region_code":"CN-44-4401-440115","parent_region_code":"CN-44-4401","name":"南沙区","level":"county","has_children":false,"full_path":"中国 / 广东省 / 广州市 / 南沙区","source_admin_code":"440115","osm_relation_id":3287345}},
{"type":"Feature","geometry":{"type":"Polygon","coordinates":[[[113.4922,23.4145],[113.51,23.4088],[113.51,23.398],[113.5338,23.3871],[113.5507,23.3702],[113.5586,23.3737],[113.5623,23.3899],[113.5726,23.3931],[113.5712,23.4062],[113.5819,23.4154],[113.5802,23.42],[113.5928,23.4275],[113.599,23.4378],[113.6042,23.4369],[113.618,23.4542],[113.6253,23.4542],[113.638,23.4677],[113.6499,23.4651],[113.6595,23.4657],[113.6687,23.4763],[113.6699,23.4886],[113.6757,23.4888],[113.6787,23.4959],[113.7003,23.5093],[113.7012,23.5124],[113.7141,23.5205],[113.7095,23.528],[113.7151,23.533],[113.7177,23.5432],[113.7287,23.5526],[113.7262,23.5699],[113.737,23.5799],[113.7446,23.5963],[113.7443,23.6041],[113.7692,23.6173],[113.7958,23.6132],[113.8187,23.6173],[113.8275,23.6226],[113.82,23.6274],[113.8133,23.6257],[113.8081,23.6308],[113.8116,23.6385],[113.8202,23.6427],[113.822,23.6485],[113.8152,23.6528],[113.8136,23.6586],[113.8339,23.6574],[113.8372,23.6623],[113.8413,23.681],[113.8668,23.6846],[113.8835,23.6909],[113.8947,23.704],[113.896,23.7183],[113.907,23.7187],[113.9142,23.7333],[113.9313,23.7349],[113.936,23.7416],[113.9502,23.7347],[113.9569,23.7425],[113.9676,23.7415],[113.9703,23.7465],[113.9696,23.7581],[113.9766,23.7627],[113.9953,23.7664],[114.0042,23.7757],[114.005,23.7657],[114.0225,23.762],[114.0305,23.7676],[114.0336,23.7739],[114.0434,23.7781],[114.0545,23.778],[114.0496,23.7887],[114.0405,23.7903],[114.0319,23.7951],[114.0332,23.8013],[114.0426,23.8062],[114.0325,23.8105],[114.0302,23.8162],[114.0344,23.8264],[114.0463,23.8362],[114.0497,23.8476],[114.0455,23.8567],[114.0423,23.8706],[114.0366,23.8742],[114.0376,23.8924],[114.0312,23.898],[114.0264,23.9084],[114.0286,23.9178],[114.024,23.9251],[114.0049,23.9324],[113.9876,23.9332],[113.9593,23.9311],[113.9473,23.9324],[113.9364,23.9262],[113.9283,23.9321],[113.9201,23.9315],[113.9043,23.9265],[113.8979,23.9323],[113.8845,23.932],[113.8825,23.9267],[113.8692,23.9316],[113.8592,23.9321],[113.8496,23.9248],[113.831,23.92],[113.8023,23.9032],[113.7992,23.9065],[113.7822,23.9049],[113.7766,23.8995],[113.7696,23.8791],[113.7624,23.8751],[113.7506,23.8605],[113.7433,23.8565],[113.7369,23.8621],[113.7284,23.8577],[113.7083,23.8652],[113.7041,23.8591],[113.7127,23.8472],[113.7097,23.8376],[113.713,23.8237],[113.702,23.8182],[113.6825,23.8283],[113.679,23.8154],[113.6615,23.8169],[113.6577,23.8205],[113.6468,23.823],[113.6347,23.8174],[113.6283,23.7995],[113.6132,23.7888],[113.6101,23.783],[113.6149,23.7736],[113.6246,23.7659],[113.6269,23.7554],[113.6312,23.753],[113.6261,23.7409],[113.6275,23.7224],[113.6236,23.7131],[113.6333,23.7076],[113.6175,23.702],[113.6185,23.6978],[113.6068,23.6898],[113.6105,23.6826],[113.6005,23.676],[113.5943,23.6686],[113.5821,23.6718],[113.5822,23.678],[113.5741,23.6792],[113.5584,23.6941],[113.553,23.7038],[113.5394,23.7055],[113.5399,23.6986],[113.5206,23.6876],[113.5131,23.6889],[113.5072,23.6843],[113.4898,23.6848],[113.4868,23.6874],[113.4753,23.6863],[113.4631,23.6937],[113.4642,23.699],[113.4588,23.7105],[113.4493,23.7124],[113.4383,23.7184],[113.4389,23.726],[113.4329,23.7296],[113.4248,23.7255],[113.4182,23.7292],[113.4046,23.7236],[113.395,23.7261],[113.3898,23.7323],[113.3728,23.734],[113.3695,23.7256],[113.3698,23.7153],[113.3582,23.7096],[113.3552,23.6988],[113.3451,23.6779],[113.3436,23.6705],[113.333,23.6682],[113.3294,23.6589],[113.3225,23.658],[113.3229,23.6479],[113.307,23.6457],[113.2975,23.6486],[113.2847,23.6471],[113.2926,23.6408],[113.2877,23.6231],[113.2762,23.6121],[113.2849,23.6109],[113.2934,23.6021],[113.3104,23.6],[113.316,23.5926],[113.3348,23.5882],[113.3363,23.5827],[113.3257,23.5774],[113.3255,23.5715],[113.3368,23.5653],[113.3456,23.5535],[113.3477,23.5431],[113.3572,23.5431],[113.3614,23.5469],[113.3756,23.5438],[113.3891,23.5471],[113.4031,23.545],[113.4114,23.5491],[113.4231,23.5442],[113.43,23.5312],[113.4414,23.5261],[113.4339,23.5177],[113.4408,23.5095],[113.4294,23.4961],[113.431,23.4865],[113.435,23.4842],[113.4534,23.4833],[113.4551,23.4741],[113.4611,23.4658],[113.4515,23.4566],[113.4515,23.45],[113.4617,23.4463],[113.4697,23.4376],[113.4675,23.4312],[113.4883,23.4215],[113.4922,23.4145]]]},"properties":{"region_code":"CN-44-4401-440117","parent_region_code":"CN-44-4401","name":"从化区","level":"county","has_children":false,"full_path":"中国 / 广东省 / 广州市 / 从化区","source_admin_code":"440117","osm_relation_id":3287298}},
{"type":"Feature","geometry":{"type":"Polygon","coordinates":[[[113.5654,23.087],[113.5814,23.0905],[113.5963,23.0981],[113.6059,23.1063],[113.6352,23.1065],[113.6371,23.1154],[113.6456,23.1227],[113.6568,23.1141],[113.6663,23.1194],[113.6848,23.1244],[113.711,23.1416],[113.7193,23.1449],[113.7337,23.1441],[113.7497,23.1329],[113.7734,23.1338],[113.7862,23.1305],[113.8076,23.1307],[113.8345,23.12],[113.8431,23.1333],[113.8404,23.1376],[113.8441,23.1507],[113.8504,23.1539],[113.8535,23.1602],[113.8651,23.163],[113.8719,23.1686],[113.8845,23.1658],[113.8956,23.172],[113.8982,23.1799],[113.8841,23.1807],[113.8811,23.1865],[113.8807,23.1976],[113.8833,23.2072],[113.8875,23.207],[113.8949,23.2249],[113.8882,23.2418],[113.8847,23.2457],[113.8906,23.2531],[113.8868,23.2602],[113.8804,23.2605],[113.8791,23.2743],[113.8861,23.2878],[113.8858,23.3026],[113.8903,23.3129],[113.892,23.3239],[113.884,23.3311],[113.8886,23.3451],[113.8928,23.3481],[113.9196,23.3441],[113.9357,23.3455],[113.9422,23.3387],[113.952,23.3377],[113.9563,23.3266],[113.9545,23.3161],[113.9706,23.3091],[113.9735,23.3031],[113.9899,23.3013],[113.9913,23.3117],[113.9834,23.3244],[113.985,23.3364],[113.9895,23.3361],[113.9954,23.3511],[113.9877,23.3541],[113.9762,23.3803],[113.9824,23.3868],[113.9954,23.3919],[113.9947,23.3989],[113.98,23.4093],[113.9783,23.4239],[113.9838,23.4322],[113.9724,23.4316],[113.9596,23.4346],[113.9491,23.4407],[113.9507,23.4523],[113.9478,23.4569],[113.9492,23.4684],[113.9588,23.4671],[113.9769,23.4754],[113.9715,23.4799],[113.9561,23.4831],[113.9508,23.4806],[113.9398,23.4809],[113.936,23.4863],[113.9417,23.4956],[113.9239,23.4972],[113.9212,23.5049],[113.9096,23.5071],[113.9,23.5162],[113.8879,23.5231],[113.8842,23.5314],[113.8859,23.5362],[113.8663,23.5426],[113.863,23.5585],[113.8575,23.569],[113.8478,23.5733],[113.853,23.5858],[113.859,23.5901],[113.8533,23.5962],[113.8568,23.6066],[113.8546,23.6127],[113.8385,23.6206],[113.8275,23.6226],[113.8187,23.6173],[113.7958,23.6132],[113.7692,23.6173],[113.7443,23.6041],[113.7446,23.5963],[113.737,23.5799],[113.7262,23.5699],[113.7287,23.5526],[113.7177,23.5432],[113.7151,23.533],[113.7095,23.528],[113.7141,23.5205],[113.7012,23.5124],[113.7003,23.5093],[113.6787,23.4959],[113.6757,23.4888],[113.6699,23.4886],[113.6687,23.4763],[113.6595,23.4657],[113.6499,23.4651],[113.638,23.4677],[113.6253,23.4542],[113.618,23.4542],[113.6042,23.4369],[113.599,23.4378],[113.5928,23.4275],[113.5802,23.42],[113.5819,23.4154],[113.5712,23.4062],[113.5726,23.3931],[113.5623,23.3899],[113.5586,23.3737],[113.5684,23.3678],[113.5862,23.3466],[113.5778,23.339],[113.5837,23.3341],[113.5855,23.3226],[113.6041,23.3137],[113.5985,23.3096],[113.5922,23.3168],[113.5863,23.3011],[113.5921,23.2867],[113.5997,23.2789],[113.5916,23.2684],[113.5965,23.2624],[113.5948,23.2574],[113.5959,23.243],[113.5829,23.2366],[113.573,23.2339],[113.5824,23.2152],[113.5776,23.2032],[113.5716,23.1997],[113.5764,23.1857],[113.5658,23.1736],[113.5582,23.1704],[113.5461,23.1742],[113.542,23.1646],[113.5498,23.1465],[113.5446,23.138],[113.5502,23.1364],[113.5534,23.1218],[113.5444,23.115],[113.5444,23.1103],[113.559,23.1003],[113.5654,23.087]]]},"properties":{"region_code":"CN-44-4401-440118","parent_region_code":"CN-44-4401","name":"增城区","level":"county","has_children":false,"full_path":"中国 / 广东省 / 广州市 / 增城区","source_admin_code":"440118","osm_relation_id":3287299}}
]}