{"type":"FeatureCollection", "features": [
{"type":"Feature","geometry":{"type":"Polygon","coordinates":[[[114.25,34.7088],[114.2499,34.718],[114.2456,34.7217],[114.2513,34.7314],[114.2519,34.7463],[114.2681,34.7503],[114.272,34.7553],[114.2708,34.7645],[114.2727,34.7747],[114.2818,34.7778],[114.2864,34.7716],[114.3053,34.7689],[114.3126,34.7725],[114.3142,34.7836],[114.3257,34.7864],[114.3279,34.8015],[114.3458,34.8007],[114.35,34.7976],[114.3547,34.7973],[114.3561,34.8184],[114.368,34.8179],[114.3686,34.8126],[114.3768,34.8103],[114.3776,34.8025],[114.3858,34.803],[114.4001,34.8074],[114.4055,34.813],[114.4033,34.8287],[114.3916,34.8335],[114.3995,34.8401],[114.4068,34.8397],[114.4058,34.857],[114.4112,34.8622],[114.4092,34.8695],[114.3965,34.871],[114.3924,34.8763],[114.4149,34.8872],[114.4205,34.9016],[114.4267,34.9229],[114.409,34.9349],[114.3954,34.9401],[114.3797,34.9359],[114.3677,34.9192],[114.3507,34.908],[114.3343,34.9038],[114.328,34.9057],[114.3086,34.9202],[114.3001,34.9239],[114.2928,34.9236],[114.2841,34.9191],[114.275,34.9065],[114.26,34.8962],[114.2484,34.8975],[114.2332,34.9043],[114.2226,34.9188],[114.2082,34.9235],[114.1937,34.9305],[114.2055,34.9123],[114.2033,34.9024],[114.2,34.871],[114.2044,34.8712],[114.202,34.8591],[114.1962,34.8509],[114.1983,34.8466],[114.1955,34.8318],[114.1882,34.8197],[114.1637,34.8208],[114.1586,34.8298],[114.1517,34.827],[114.1264,34.8274],[114.121,34.8215],[114.1139,34.8244],[114.1105,34.8189],[114.1146,34.8116],[114.1134,34.8029],[114.1207,34.8003],[114.1301,34.8016],[114.1389,34.7964],[114.1398,34.7899],[114.1466,34.7907],[114.1461,34.7833],[114.1643,34.7769],[114.1674,34.7694],[114.1598,34.76],[114.1474,34.7622],[114.1456,34.7573],[114.1486,34.7476],[114.143,34.7468],[114.1327,34.7283],[114.1387,34.7215],[114.1363,34.7155],[114.1423,34.7087],[114.1501,34.7188],[114.1587,34.7169],[114.1663,34.7155],[114.1809,34.7166],[114.1992,34.7136],[114.2117,34.7101],[114.2175,34.7063],[114.231,34.7066],[114.2379,34.7098],[114.25,34.7088]]]},"properties":{"region_code":"CN-41-4102-410202","parent_region_code":"CN-41-4102","name":"龙亭区","level":"county","has_children":false,"full_path":"中国 / 河南省 / 开封市 / 龙亭区","source_admin_code":"410202","osm_relation_id":4568453}},
{"type":"Feature","geometry":{"type":"Polygon","coordinates":[[[114.35,34.7976],[114.3543,34.7926],[114.3627,34.7915],[114.358,34.7813],[114.3675,34.7797],[114.3856,34.7795],[114.3953,34.7764],[114.3673,34.7735],[114.3725,34.7678],[114.3934,34.7583],[114.3984,34.766],[114.4069,34.7617],[114.4223,34.7694],[114.4234,34.776],[114.4368,34.7742],[114.4407,34.7801],[114.4465,34.7801],[114.4496,34.7876],[114.4606,34.7947],[114.4609,34.799],[114.4777,34.8014],[114.4858,34.8135],[114.4981,34.8187],[114.4995,34.8288],[114.4953,34.8351],[114.4857,34.8363],[114.4794,34.8288],[114.4673,34.8361],[114.457,34.8389],[114.4435,34.8492],[114.4416,34.8584],[114.4214,34.8563],[114.4219,34.8452],[114.4185,34.8411],[114.4111,34.8445],[114.4068,34.8397],[114.3995,34.8401],[114.3916,34.8335],[114.4033,34.8287],[114.4055,34.813],[114.4001,34.8074],[114.3858,34.803],[114.3776,34.8025],[114.3768,34.8103],[114.3686,34.8126],[114.368,34.8179],[114.3561,34.8184],[114.3547,34.7973],[114.35,34.7976]]]},"properties":{"region_code":"CN-41-4102-410203","parent_region_code":"CN-41-4102","name":"顺河回族区","level":"county","has_children":false,"full_path":"中国 / 河南省 / 开封市 / 顺河回族区","source_admin_code":"410203","osm_relation_id":4568528}},
{"type":"Feature","geometry":{"type":"Polygon","coordinates":[[[114.25,34.7088],[114.2532,34.7022],[114.2479,34.6931],[114.2501,34.6872],[114.2617,34.6849],[114.2764,34.677],[114.2903,34.6771],[114.2942,34.6854],[114.3022,34.6937],[114.3065,34.6938],[114.3118,34.7189],[114.317,34.7274],[114.3148,34.7284],[114.3241,34.7505],[114.3302,34.7596],[114.3338,34.7845],[114.358,34.7813],[114.3627,34.7915],[114.3543,34.7926],[114.35,34.7976],[114.3458,34.8007],[114.3279,34.8015],[114.3257,34.7864],[114.3142,34.7836],[114.3126,34.7725],[114.3053,34.7689],[114.2864,34.7716],[114.2818,34.7778],[114.2727,34.7747],[114.2708,34.7645],[114.272,34.7553],[114.2681,34.7503],[114.2519,34.7463],[114.2513,34.7314],[114.2456,34.7217],[114.2499,34.718],[114.25,34.7088]]]},"properties":{"region_code":"CN-41-4102-410204","parent_region_code":"CN-41-4102","name":"鼓楼区","level":"county","has_children":false,"full_path":"中国 / 河南省 / 开封市 / 鼓楼区","source_admin_code":"410204","osm_relation_id":4568527}},
{"type":"Feature","geometry":{"type":"Polygon","coordinates":[[[114.358,34.7813],[114.3338,34.7845],[114.3302,34.7596],[114.3241,34.7505],[114.3148,34.7284],[114.317,34.7274],[114.3312,34.737],[114.3459,34.7332],[114.3455,34.7264],[114.3616,34.7169],[114.3635,34.7079],[114.3708,34.7083],[114.3779,34.7142],[114.3865,34.7059],[114.3988,34.7054],[114.4145,34.7017],[114.4262,34.7072],[114.435,34.7065],[114.4368,34.7124],[114.4427,34.7161],[114.4402,34.7247],[114.422,34.7503],[114.4144,34.7516],[114.4069,34.7617],[114.3984,34.766],[114.3934,34.7583],[114.3725,34.7678],[114.3673,34.7735],[114.3953,34.7764],[114.3856,34.7795],[114.3675,34.7797],[114.358,34.7813]]]},"properties":{"region_code":"CN-41-4102-410205","parent_region_code":"CN-41-4102","name":"禹王台区","level":"county","has_children":false,"full_path":"中国 / 河南省 / 开封市 / 禹王台区","source_admin_code":"410205","osm_relation_id":4568529}},
{"type":"Feature","geometry":{"type":"Polygon","coordinates":[[[114.1587,34.7169],[114.1641,34.7108],[114.1572,34.706],[114.1511,34.6846],[114.1546,34.6836],[114.1522,34.6712],[114.1541,34.6663],[114.1391,34.6562],[114.1458,34.6506],[114.1513,34.6409],[114.1464,34.6316],[114.1461,34.6099],[114.1495,34.6089],[114.1564,34.5979],[114.1688,34.5938],[114.1733,34.5975],[114.1854,34.5944],[114.187,34.5875],[114.2053,34.5793],[114.2109,34.5733],[114.2173,34.5783],[114.2254,34.5733],[114.2323,34.5766],[114.2333,34.5679],[114.2458,34.5662],[114.2444,34.5588],[114.2597,34.5594],[114.2601,34.5631],[114.272,34.5616],[114.2716,34.5575],[114.2822,34.5566],[114.2806,34.5351],[114.2862,34.5277],[114.2945,34.522],[114.2942,34.5182],[114.3076,34.5094],[114.3165,34.5128],[114.3165,34.5228],[114.3329,34.5303],[114.334,34.5157],[114.3493,34.5158],[114.3569,34.5236],[114.3567,34.5349],[114.3621,34.5442],[114.3591,34.5484],[114.3623,34.557],[114.3751,34.5575],[114.3879,34.5543],[114.3861,34.5433],[114.3892,34.5388],[114.3989,34.5402],[114.4184,34.5322],[114.4286,34.5362],[114.4422,34.5377],[114.4401,34.5454],[114.4407,34.565],[114.4325,34.5648],[114.4315,34.5755],[114.4443,34.5759],[114.45,34.5844],[114.458,34.5895],[114.4655,34.5892],[114.4662,34.58],[114.4728,34.5814],[114.4863,34.58],[114.4905,34.5817],[114.5188,34.5834],[114.5222,34.5862],[114.5343,34.5867],[114.5345,34.5794],[114.5577,34.5767],[114.5576,34.5677],[114.5741,34.5697],[114.5827,34.5679],[114.5898,34.571],[114.6059,34.5703],[114.6126,34.5891],[114.6168,34.597],[114.6254,34.5948],[114.6327,34.5987],[114.6353,34.6085],[114.6319,34.6123],[114.6331,34.6194],[114.646,34.6294],[114.6465,34.6364],[114.652,34.6417],[114.6462,34.6532],[114.6485,34.667],[114.6366,34.6674],[114.6328,34.6822],[114.6334,34.6892],[114.6375,34.6957],[114.6306,34.7018],[114.6327,34.7098],[114.6381,34.715],[114.6498,34.7162],[114.6516,34.7192],[114.6841,34.7192],[114.6962,34.7276],[114.6978,34.7367],[114.7084,34.7454],[114.694,34.7495],[114.6917,34.7596],[114.7008,34.762],[114.7071,34.7681],[114.7098,34.7787],[114.7239,34.7792],[114.7263,34.7877],[114.714,34.79],[114.7183,34.8177],[114.7216,34.8252],[114.7236,34.8393],[114.727,34.8413],[114.7229,34.8583],[114.7111,34.8615],[114.7126,34.8676],[114.7001,34.8759],[114.6883,34.8787],[114.686,34.882],[114.6926,34.9079],[114.6761,34.9118],[114.6455,34.8992],[114.6222,34.9043],[114.5912,34.9195],[114.5753,34.9254],[114.5664,34.9228],[114.5537,34.9099],[114.5461,34.9052],[114.5331,34.9054],[114.5113,34.9088],[114.4923,34.9222],[114.4799,34.9266],[114.4597,34.9098],[114.4402,34.9154],[114.4267,34.9229],[114.4205,34.9016],[114.4149,34.8872],[114.3924,34.8763],[114.3965,34.871],[114.4092,34.8695],[114.4112,34.8622],[114.4058,34.857],[114.4068,34.8397],[114.4111,34.8445],[114.4185,34.8411],[114.4219,34.8452],[114.4214,34.8563],[114.4416,34.8584],[114.4435,34.8492],[114.457,34.8389],[114.4673,34.8361],[114.4794,34.8288],[114.4857,34.8363],[114.4953,34.8351],[114.4995,34.8288],[114.4981,34.8187],[114.4858,34.8135],[114.4777,34.8014],[114.4609,34.799],[114.4606,34.7947],[114.4496,34.7876],[114.4465,34.7801],[114.4407,34.7801],[114.4368,34.7742],[114.4234,34.776],[114.4223,34.7694],[114.4069,34.7617],[114.4144,34.7516],[114.422,34.7503],[114.4402,34.7247],[114.4427,34.7161],[114.4368,34.7124],[114.435,34.7065],[114.4262,34.7072],[114.4145,34.7017],[114.3988,34.7054],[114.3865,34.7059],[114.3779,34.7142],[114.3708,34.7083],[114.3635,34.7079],[114.3616,34.7169],[114.3455,34.7264],[114.3459,34.7332],[114.3312,34.737],[114.317,34.7274],[114.3118,34.7189],[114.3065,34.6938],[114.3022,34.6937],[114.2942,34.6854],[114.2903,34.6771],[114.2764,34.677],[114.2617,34.6849],[114.2501,34.6872],[114.2479,34.6931],[114.2532,34.7022],[114.25,34.7088],[114.2379,34.7098],[114.231,34.7066],[114.2175,34.7063],[114.2117,34.7101],[114.1992,34.7136],[114.1809,34.7166],[114.1663,34.7155],[114.1587,34.7169]]]},"properties":{"region_code":"CN-41-4102-410212","parent_region_code":"CN-41-4102","name":"祥符区","level":"county","has_children":false,"full_path":"中国 / 河南省 / 开封市 / 祥符区","source_admin_code":"410212","osm_relation_id":4568336}},
{"type":"Feature","geometry":{"type":"Polygon","coordinates":[[[114.6059,34.5703],[114.6162,34.5699],[114.6182,34.5593],[114.6131,34.5439],[114.609,34.5409],[114.6083,34.5285],[114.6028,34.5249],[114.6036,34.5026],[114.6003,34.4959],[114.6114,34.4925],[114.6138,34.4824],[114.6333,34.4838],[114.6373,34.4667],[114.626,34.4537],[114.6328,34.4498],[114.6321,34.4431],[114.6234,34.4365],[114.625,34.4225],[114.6354,34.4216],[114.6439,34.4148],[114.6437,34.4002],[114.6374,34.396],[114.6371,34.3899],[114.645,34.3821],[114.6402,34.3783],[114.6401,34.3654],[114.6207,34.3654],[114.6211,34.355],[114.6283,34.3495],[114.6233,34.3297],[114.6278,34.3225],[114.6209,34.3132],[114.6234,34.2976],[114.6129,34.2796],[114.6197,34.2763],[114.6197,34.2629],[114.6302,34.2626],[114.6383,34.2509],[114.6454,34.2483],[114.6574,34.2529],[114.6656,34.2527],[114.666,34.246],[114.6787,34.2476],[114.6928,34.2464],[114.7109,34.2407],[114.7111,34.2361],[114.7046,34.2326],[114.7073,34.2262],[114.7225,34.2247],[114.7254,34.2324],[114.7527,34.2369],[114.7563,34.24],[114.752,34.2495],[114.7549,34.2553],[114.7756,34.257],[114.7827,34.2625],[114.8067,34.2601],[114.8181,34.2646],[114.8275,34.2711],[114.8239,34.2776],[114.8278,34.2887],[114.8377,34.286],[114.8431,34.2807],[114.8584,34.2711],[114.8739,34.2715],[114.8797,34.2653],[114.8939,34.2659],[114.8944,34.2741],[114.8881,34.2904],[114.8809,34.2934],[114.8769,34.2986],[114.8639,34.3008],[114.8633,34.309],[114.872,34.3097],[114.8719,34.321],[114.857,34.3198],[114.8494,34.3361],[114.856,34.3552],[114.8535,34.3656],[114.8563,34.3685],[114.8736,34.3721],[114.8773,34.3793],[114.8831,34.3797],[114.8696,34.3921],[114.869,34.3979],[114.8462,34.4009],[114.8431,34.4113],[114.8485,34.4121],[114.8469,34.4302],[114.8534,34.4308],[114.8502,34.4454],[114.8553,34.4445],[114.856,34.4567],[114.8644,34.4574],[114.874,34.4531],[114.8809,34.4627],[114.8911,34.4624],[114.8986,34.469],[114.9069,34.485],[114.9131,34.4876],[114.917,34.4996],[114.9061,34.5016],[114.9123,34.513],[114.9094,34.5214],[114.913,34.5293],[114.9057,34.5361],[114.9096,34.55],[114.903,34.555],[114.9005,34.5671],[114.9019,34.5776],[114.9057,34.5881],[114.8985,34.5888],[114.8956,34.6183],[114.8929,34.6328],[114.8965,34.6454],[114.89,34.6507],[114.8828,34.6507],[114.8865,34.6598],[114.8971,34.6642],[114.9015,34.6741],[114.9297,34.6668],[114.9302,34.6798],[114.923,34.6908],[114.9095,34.6918],[114.8967,34.6968],[114.8945,34.7013],[114.874,34.7029],[114.8735,34.689],[114.8568,34.6852],[114.8522,34.6908],[114.8516,34.7014],[114.8543,34.7113],[114.8508,34.7149],[114.8423,34.7129],[114.8393,34.7273],[114.8511,34.7345],[114.8553,34.7402],[114.8511,34.7481],[114.8416,34.7491],[114.8349,34.7441],[114.8307,34.7467],[114.8274,34.7448],[114.8078,34.7484],[114.8017,34.7462],[114.7891,34.7502],[114.7883,34.7614],[114.7688,34.7638],[114.7624,34.762],[114.7486,34.7511],[114.722,34.7452],[114.7139,34.7487],[114.7084,34.7454],[114.6978,34.7367],[114.6962,34.7276],[114.6841,34.7192],[114.6516,34.7192],[114.6498,34.7162],[114.6381,34.715],[114.6327,34.7098],[114.6306,34.7018],[114.6375,34.6957],[114.6334,34.6892],[114.6328,34.6822],[114.6366,34.6674],[114.6485,34.667],[114.6462,34.6532],[114.652,34.6417],[114.6465,34.6364],[114.646,34.6294],[114.6331,34.6194],[114.6319,34.6123],[114.6353,34.6085],[114.6327,34.5987],[114.6254,34.5948],[114.6168,34.597],[114.6126,34.5891],[114.6059,34.5703]]]},"properties":{"region_code":"CN-41-4102-410221","parent_region_code":"CN-41-4102","name":"杞县","level":"county","has_children":false,"full_path":"中国 / 河南省 / 开封市 / 杞县","source_admin_code":"410221","osm_relation_id":4568305}},
{"type":"Feature","geometry":{"type":"Polygon","coordinates":[[[114.3076,34.5094],[114.3095,34.5009],[114.3024,34.4877],[114.3118,34.4781],[114.3048,34.4636],[114.3032,34.4435],[114.3242,34.4431],[114.3264,34.43],[114.3342,34.418],[114.3492,34.4128],[114.3468,34.4041],[114.3521,34.4026],[114.3485,34.3908],[114.3561,34.3886],[114.359,34.3801],[114.3423,34.3747],[114.3319,34.3553],[114.3511,34.35],[114.3523,34.3407],[114.3625,34.3408],[114.3695,34.3467],[114.378,34.3445],[114.3946,34.3455],[114.3986,34.3424],[114.4018,34.3291],[114.3957,34.3274],[114.3927,34.32],[114.4009,34.3091],[114.408,34.3097],[114.415,34.3091],[114.4286,34.3151],[114.4267,34.3196],[114.4302,34.3314],[114.4394,34.3281],[114.447,34.3212],[114.456,34.3212],[114.4563,34.3314],[114.471,34.3329],[114.4797,34.3218],[114.4881,34.3218],[114.49,34.3114],[114.5073,34.3099],[114.5075,34.316],[114.5224,34.3114],[114.5195,34.3042],[114.5225,34.2979],[114.523,34.2861],[114.5298,34.2838],[114.5462,34.2864],[114.5482,34.271],[114.5869,34.2746],[114.5972,34.2698],[114.6096,34.2603],[114.6197,34.2629],[114.6197,34.2763],[114.6129,34.2796],[114.6234,34.2976],[114.6209,34.3132],[114.6278,34.3225],[114.6233,34.3297],[114.6283,34.3495],[114.6211,34.355],[114.6207,34.3654],[114.6401,34.3654],[114.6402,34.3783],[114.645,34.3821],[114.6371,34.3899],[114.6374,34.396],[114.6437,34.4002],[114.6439,34.4148],[114.6354,34.4216],[114.625,34.4225],[114.6234,34.4365],[114.6321,34.4431],[114.6328,34.4498],[114.626,34.4537],[114.6373,34.4667],[114.6333,34.4838],[114.6138,34.4824],[114.6114,34.4925],[114.6003,34.4959],[114.6036,34.5026],[114.6028,34.5249],[114.6083,34.5285],[114.609,34.5409],[114.6131,34.5439],[114.6182,34.5593],[114.6162,34.5699],[114.6059,34.5703],[114.5898,34.571],[114.5827,34.5679],[114.5741,34.5697],[114.5576,34.5677],[114.5577,34.5767],[114.5345,34.5794],[114.5343,34.5867],[114.5222,34.5862],[114.5188,34.5834],[114.4905,34.5817],[114.4863,34.58],[114.4728,34.5814],[114.4662,34.58],[114.4655,34.5892],[114.458,34.5895],[114.45,34.5844],[114.4443,34.5759],[114.4315,34.5755],[114.4325,34.5648],[114.4407,34.565],[114.4401,34.5454],[114.4422,34.5377],[114.4286,34.5362],[114.4184,34.5322],[114.3989,34.5402],[114.3892,34.5388],[114.3861,34.5433],[114.3879,34.5543],[114.3751,34.5575],[114.3623,34.557],[114.3591,34.5484],[114.3621,34.5442],[114.3567,34.5349],[114.3569,34.5236],[114.3493,34.5158],[114.334,34.5157],[114.3329,34.5303],[114.3165,34.5228],[114.3165,34.5128],[114.3076,34.5094]]]},"properties":{"region_code":"CN-41-4102-410222","parent_region_code":"CN-41-4102","name":"通许县","level":"county","has_children":false,"full_path":"中国 / 河南省 / 开封市 / 通许县","source_admin_code":"410222","osm_relation_id":4568292}},
{"type":"Feature","geometry":{"type":"Polygon","coordinates":[[[114.1495,34.6089],[114.1464,34.6056],[114.1374,34.6141],[114.1264,34.6182],[114.121,34.6161],[114.1198,34.609],[114.1312,34.6068],[114.1274,34.5954],[114.1216,34.5901],[114.1265,34.5831],[114.1242,34.5765],[114.1119,34.5684],[114.1021,34.5661],[114.0969,34.551],[114.0989,34.5255],[114.0923,34.523],[114.0891,34.5145],[114.0835,34.5144],[114.0851,34.5019],[114.0909,34.4999],[114.0935,34.4815],[114.0873,34.4762],[114.0674,34.4799],[114.0654,34.4898],[114.0431,34.505],[114.0341,34.5039],[114.0189,34.5051],[114.0157,34.4912],[114.0091,34.4839],[113.9938,34.4844],[113.9891,34.4785],[113.9922,34.4641],[113.9987,34.4639],[113.9993,34.4704],[114.012,34.4675],[114.015,34.4592],[114.014,34.4465],[113.9996,34.4422],[113.9985,34.4367],[113.9847,34.4415],[113.9809,34.4308],[113.9863,34.4251],[113.9888,34.4114],[113.9831,34.411],[113.9797,34.4023],[113.9949,34.4027],[113.9974,34.4101],[114.007,34.4027],[114.0244,34.3978],[114.0219,34.4076],[114.0398,34.4051],[114.0359,34.3897],[114.0423,34.3855],[114.0543,34.3834],[114.0591,34.3668],[114.0567,34.3548],[114.0639,34.3461],[114.0572,34.3284],[114.0579,34.3176],[114.0476,34.3173],[114.0404,34.3147],[114.0265,34.3184],[114.0157,34.3187],[114.0038,34.3238],[113.9998,34.3301],[113.994,34.3234],[113.975,34.3257],[113.9637,34.3203],[113.9538,34.3206],[113.9508,34.3336],[113.9411,34.3338],[113.9329,34.3383],[113.9191,34.3363],[113.9164,34.3332],[113.9157,34.3226],[113.9107,34.3199],[113.8942,34.3244],[113.8894,34.3063],[113.9053,34.2968],[113.9082,34.3027],[113.926,34.3045],[113.9318,34.3007],[113.949,34.2967],[113.959,34.2874],[113.9686,34.2837],[113.9711,34.2765],[113.9832,34.277],[113.9831,34.2651],[113.9871,34.2608],[113.996,34.2609],[113.9958,34.2551],[114.0044,34.2478],[114.004,34.2438],[114.021,34.2421],[114.0321,34.2385],[114.0418,34.2393],[114.0409,34.248],[114.0555,34.2445],[114.0628,34.2519],[114.0714,34.2426],[114.0759,34.251],[114.0814,34.244],[114.0927,34.2423],[114.0946,34.2344],[114.1028,34.2306],[114.0967,34.2225],[114.1027,34.2203],[114.1014,34.2131],[114.1039,34.2055],[114.1102,34.2069],[114.1237,34.1996],[114.134,34.1974],[114.1421,34.2061],[114.1523,34.2067],[114.1484,34.2139],[114.1532,34.2167],[114.1747,34.2201],[114.1768,34.2233],[114.1915,34.2203],[114.1972,34.2327],[114.1966,34.2418],[114.2072,34.2429],[114.2097,34.2314],[114.2159,34.2307],[114.2258,34.2417],[114.2393,34.2377],[114.2449,34.2488],[114.2654,34.2608],[114.2735,34.2736],[114.281,34.2749],[114.3034,34.2701],[114.3092,34.2652],[114.323,34.2639],[114.3472,34.2516],[114.3608,34.2475],[114.3786,34.2444],[114.3872,34.2449],[114.3913,34.2483],[114.4007,34.247],[114.4056,34.2544],[114.409,34.2679],[114.4241,34.2665],[114.4353,34.2766],[114.4359,34.2931],[114.4226,34.3008],[114.4216,34.3047],[114.408,34.3097],[114.4009,34.3091],[114.3927,34.32],[114.3957,34.3274],[114.4018,34.3291],[114.3986,34.3424],[114.3946,34.3455],[114.378,34.3445],[114.3695,34.3467],[114.3625,34.3408],[114.3523,34.3407],[114.3511,34.35],[114.3319,34.3553],[114.3423,34.3747],[114.359,34.3801],[114.3561,34.3886],[114.3485,34.3908],[114.3521,34.4026],[114.3468,34.4041],[114.3492,34.4128],[114.3342,34.418],[114.3264,34.43],[114.3242,34.4431],[114.3032,34.4435],[114.3048,34.4636],[114.3118,34.4781],[114.3024,34.4877],[114.3095,34.5009],[114.3076,34.5094],[114.2942,34.5182],[114.2945,34.522],[114.2862,34.5277],[114.2806,34.5351],[114.2822,34.5566],[114.2716,34.5575],[114.272,34.5616],[114.2601,34.5631],[114.2597,34.5594],[114.2444,34.5588],[114.2458,34.5662],[114.2333,34.5679],[114.2323,34.5766],[114.2254,34.5733],[114.2173,34.5783],[114.2109,34.5733],[114.2053,34.5793],[114.187,34.5875],[114.1854,34.5944],[114.1733,34.5975],[114.1688,34.5938],[114.1564,34.5979],[114.1495,34.6089]]]},"properties":{"region_code":"CN-41-4102-410223","parent_region_code":"CN-41-4102","name":"尉氏县","level":"county","has_children":false,"full_path":"中国 / 河南省 / 开封市 / 尉氏县","source_admin_code":"410223","osm_relation_id":4568279}},
{"type":"Feature","geometry":{"type":"Polygon","coordinates":[[[114.7084,34.7454],[114.7139,34.7487],[114.722,34.7452],[114.7486,34.7511],[114.7624,34.762],[114.7688,34.7638],[114.7883,34.7614],[114.7891,34.7502],[114.8017,34.7462],[114.8078,34.7484],[114.8274,34.7448],[114.8307,34.7467],[114.8307,34.7533],[114.8233,34.7561],[114.8263,34.7686],[114.8366,34.7665],[114.837,34.7713],[114.8519,34.7673],[114.8606,34.7682],[114.8621,34.7767],[114.8702,34.7788],[114.8874,34.7776],[114.8878,34.7635],[114.8927,34.7588],[114.9069,34.7576],[114.917,34.7479],[114.9266,34.7495],[114.9426,34.7482],[114.9439,34.7563],[114.9567,34.7562],[114.9581,34.7596],[114.9713,34.7594],[114.9814,34.757],[114.9943,34.7583],[114.9973,34.7623],[114.9991,34.7735],[115.0133,34.7758],[115.0231,34.7711],[115.0275,34.7752],[115.0405,34.7693],[115.0483,34.7701],[115.0559,34.7674],[115.0606,34.7725],[115.0896,34.7724],[115.1046,34.7748],[115.1092,34.7775],[115.1106,34.79],[115.1208,34.791],[115.1387,34.79],[115.1418,34.7783],[115.1567,34.7801],[115.164,34.7916],[115.1697,34.7913],[115.1732,34.8011],[115.1864,34.7998],[115.1926,34.7962],[115.1971,34.8065],[115.2426,34.799],[115.2419,34.8105],[115.2508,34.8128],[115.258,34.8204],[115.2615,34.8322],[115.2546,34.8384],[115.2389,34.8444],[115.2365,34.8492],[115.2343,34.8675],[115.2305,34.8676],[115.2289,34.8926],[115.2398,34.8925],[115.2432,34.8998],[115.251,34.9062],[115.2398,34.9108],[115.2369,34.9154],[115.2237,34.9163],[115.2209,34.9125],[115.2126,34.913],[115.2103,34.9048],[115.1994,34.9066],[115.2006,34.9113],[115.1834,34.9155],[115.1865,34.9262],[115.197,34.9264],[115.2063,34.9441],[115.2143,34.9433],[115.2194,34.9541],[115.2047,34.9599],[115.1978,34.9594],[115.1966,34.9541],[115.1863,34.9531],[115.1837,34.9604],[115.1684,34.9626],[115.1568,34.9588],[115.1427,34.9714],[115.1381,34.9791],[115.1257,34.9822],[115.1236,34.9851],[115.1263,35.0011],[115.12,35.0073],[115.1098,35.0077],[115.1077,34.9986],[115.0959,34.9949],[115.0951,34.9993],[115.0869,35.0004],[115.083,34.9966],[115.0542,34.9956],[115.0473,34.9855],[115.0407,34.9827],[115.0328,34.9833],[115.025,34.9724],[115.0162,34.9711],[115.0024,34.9873],[114.9957,34.991],[114.9813,34.9913],[114.9746,34.9891],[114.9684,34.9947],[114.9555,34.9963],[114.952,34.99],[114.9383,34.9894],[114.9357,34.984],[114.9286,34.9809],[114.9226,34.9702],[114.9013,34.9777],[114.9022,34.9901],[114.8822,34.9938],[114.8767,34.9982],[114.8749,35.0044],[114.8797,35.0184],[114.879,35.0228],[114.8645,35.0253],[114.8538,35.0035],[114.8321,35.0081],[114.8293,34.993],[114.8178,34.9863],[114.8105,34.9794],[114.8012,34.9742],[114.777,34.9753],[114.7559,34.971],[114.7429,34.9579],[114.7409,34.9487],[114.7481,34.9399],[114.7738,34.9224],[114.7774,34.9188],[114.7759,34.9098],[114.7651,34.8923],[114.757,34.8883],[114.7306,34.8911],[114.7216,34.8947],[114.7128,34.9041],[114.6926,34.9079],[114.686,34.882],[114.6883,34.8787],[114.7001,34.8759],[114.7126,34.8676],[114.7111,34.8615],[114.7229,34.8583],[114.727,34.8413],[114.7236,34.8393],[114.7216,34.8252],[114.7183,34.8177],[114.714,34.79],[114.7263,34.7877],[114.7239,34.7792],[114.7098,34.7787],[114.7071,34.7681],[114.7008,34.762],[114.6917,34.7596],[114.694,34.7495],[114.7084,34.7454]]]},"properties":{"region_code":"CN-41-4102-410225","parent_region_code":"CN-41-4102","name":"兰考县","level":"county","has_children":false,"full_path":"中国 / 河南省 / 开封市 / 兰考县","source_admin_code":"410225","osm_relation_id":3283912}}
]}