{"type":"FeatureCollection", "features": [
{"type":"Feature","geometry":{"type":"Polygon","coordinates":[[[113.5897,31.4229],[113.5663,31.4438],[113.5795,31.4891],[113.5709,31.5293],[113.5314,31.563],[113.5444,31.5793],[113.5335,31.613],[113.5463,31.6381],[113.5462,31.6958],[113.5567,31.6997],[113.5516,31.7454],[113.5298,31.7578],[113.5424,31.8145],[113.6019,31.8463],[113.6259,31.8782],[113.607,31.9133],[113.5635,31.9132],[113.5361,31.9395],[113.5105,31.925],[113.4838,31.9326],[113.4252,31.8964],[113.435,31.8701],[113.4197,31.8339],[113.3638,31.8493],[113.3432,31.827],[113.3058,31.8239],[113.3053,31.7927],[113.3217,31.7791],[113.2951,31.7495],[113.2708,31.7356],[113.267,31.6426],[113.2748,31.6067],[113.2581,31.5644],[113.2706,31.5208],[113.2489,31.5088],[113.2661,31.4798],[113.2852,31.4743],[113.2687,31.4328],[113.2844,31.3976],[113.2729,31.3871],[113.2847,31.3491],[113.2982,31.3352],[113.3344,31.3633],[113.3271,31.4191],[113.3519,31.4284],[113.3738,31.4135],[113.4279,31.4263],[113.4805,31.4199],[113.513,31.3989],[113.5404,31.4009],[113.5897,31.4229]]]},"properties":{"region_code":"CN-42-4213-421303","parent_region_code":"CN-42-4213","name":"曾都区","level":"county","has_children":false,"full_path":"中国 / 湖北省 / 随州市 / 曾都区","source_admin_code":"421303","osm_relation_id":3216519}},
{"type":"Feature","geometry":{"type":"Polygon","coordinates":[[[113.607,31.9133],[113.6007,31.9358],[113.6071,31.97],[113.6508,31.9883],[113.6882,32.0327],[113.6985,32.0729],[113.7191,32.0887],[113.7165,32.1264],[113.7444,32.1185],[113.7603,32.1405],[113.7578,32.1638],[113.7774,32.1918],[113.7467,32.2183],[113.7334,32.2597],[113.7426,32.2941],[113.7677,32.3082],[113.748,32.3327],[113.7346,32.3947],[113.7176,32.419],[113.6762,32.4225],[113.6399,32.4086],[113.6184,32.3638],[113.5735,32.3531],[113.5457,32.331],[113.5295,32.333],[113.4618,32.3001],[113.4156,32.2712],[113.3714,32.3018],[113.3412,32.3013],[113.3128,32.3293],[113.3262,32.3469],[113.291,32.3563],[113.2894,32.372],[113.2287,32.4091],[113.2054,32.4338],[113.1659,32.424],[113.1496,32.3849],[113.099,32.3694],[113.0644,32.3665],[113.0516,32.3537],[113.0906,32.3153],[113.0615,32.2832],[113.0215,32.2745],[113.0296,32.2372],[113.0279,32.2012],[113.0139,32.1763],[113.0211,32.1442],[113.0435,32.1174],[112.9841,32.0522],[112.9858,31.98],[113.029,31.9607],[112.9941,31.9436],[112.9821,31.9033],[112.956,31.8827],[112.9727,31.8476],[112.9578,31.8315],[112.9193,31.8396],[112.8799,31.7997],[112.8486,31.8035],[112.823,31.759],[112.7795,31.7399],[112.7413,31.7464],[112.7426,31.7143],[112.7277,31.7039],[112.724,31.6377],[112.7319,31.6191],[112.7767,31.6024],[112.8268,31.5917],[112.8422,31.5654],[112.8816,31.5481],[112.8986,31.5087],[112.8977,31.478],[112.9434,31.4755],[112.9585,31.4466],[112.9809,31.4339],[113.0224,31.4481],[113.0453,31.4362],[113.0798,31.4461],[113.1055,31.4308],[113.1374,31.4383],[113.2148,31.3728],[113.2847,31.3491],[113.2729,31.3871],[113.2844,31.3976],[113.2687,31.4328],[113.2852,31.4743],[113.2661,31.4798],[113.2489,31.5088],[113.2706,31.5208],[113.2581,31.5644],[113.2748,31.6067],[113.267,31.6426],[113.2708,31.7356],[113.2951,31.7495],[113.3217,31.7791],[113.3053,31.7927],[113.3058,31.8239],[113.3432,31.827],[113.3638,31.8493],[113.4197,31.8339],[113.435,31.8701],[113.4252,31.8964],[113.4838,31.9326],[113.5105,31.925],[113.5361,31.9395],[113.5635,31.9132],[113.607,31.9133]]]},"properties":{"region_code":"CN-42-4213-421321","parent_region_code":"CN-42-4213","name":"随县","level":"county","has_children":false,"full_path":"中国 / 湖北省 / 随州市 / 随县","source_admin_code":"421321","osm_relation_id":3216518}},
{"type":"Feature","geometry":{"type":"Polygon","coordinates":[[[113.5897,31.4229],[113.6179,31.3898],[113.6441,31.3973],[113.6793,31.4251],[113.6934,31.4473],[113.7224,31.4674],[113.7689,31.4558],[113.7921,31.4403],[113.8231,31.4397],[113.851,31.4549],[113.8686,31.4384],[113.9132,31.4363],[113.9236,31.4189],[113.9728,31.4029],[114.0305,31.4442],[114.0575,31.4417],[114.0654,31.4649],[114.0578,31.4896],[114.1011,31.53],[114.0827,31.5584],[114.1041,31.6006],[114.1044,31.6299],[114.1219,31.6778],[114.0914,31.7056],[114.1076,31.7338],[114.0948,31.7487],[114.1142,31.7765],[114.1033,31.7871],[114.0653,31.7882],[114.0509,31.7725],[114.0124,31.7739],[113.9817,31.7514],[113.9635,31.7847],[113.9474,31.7934],[113.9525,31.8588],[113.9116,31.8807],[113.8919,31.8517],[113.8542,31.8432],[113.826,31.8756],[113.8329,31.9102],[113.8001,31.9346],[113.807,31.9681],[113.7504,31.9912],[113.7521,32.0034],[113.7864,32.0367],[113.7191,32.0887],[113.6985,32.0729],[113.6882,32.0327],[113.6508,31.9883],[113.6071,31.97],[113.6007,31.9358],[113.607,31.9133],[113.6259,31.8782],[113.6019,31.8463],[113.5424,31.8145],[113.5298,31.7578],[113.5516,31.7454],[113.5567,31.6997],[113.5462,31.6958],[113.5463,31.6381],[113.5335,31.613],[113.5444,31.5793],[113.5314,31.563],[113.5709,31.5293],[113.5795,31.4891],[113.5663,31.4438],[113.5897,31.4229]]]},"properties":{"region_code":"CN-42-4213-421381","parent_region_code":"CN-42-4213","name":"广水市","level":"county","has_children":false,"full_path":"中国 / 湖北省 / 随州市 / 广水市","source_admin_code":"421381","osm_relation_id":3216517}}
]}