{"type":"FeatureCollection", "features": [
{"type":"Feature","geometry":{"type":"Polygon","coordinates":[[[108.7666,22.9997],[108.767,23.0065],[108.7738,23.009],[108.77,23.0174],[108.7647,23.017],[108.7628,23.0287],[108.7491,23.0371],[108.742,23.0373],[108.7321,23.0508],[108.7202,23.0571],[108.717,23.0676],[108.7207,23.0745],[108.7198,23.0839],[108.7109,23.0864],[108.7052,23.0932],[108.6998,23.0928],[108.6964,23.1024],[108.6902,23.0997],[108.6891,23.0941],[108.6758,23.0921],[108.6672,23.1002],[108.6521,23.0986],[108.6443,23.1046],[108.6198,23.1068],[108.6125,23.1093],[108.6146,23.1],[108.6077,23.0815],[108.6072,23.0712],[108.6111,23.0585],[108.6107,23.0482],[108.5966,23.0392],[108.5836,23.039],[108.5768,23.0415],[108.5712,23.0322],[108.5724,23.0271],[108.5634,23.0162],[108.5535,23.012],[108.5337,23.0202],[108.5181,23.029],[108.5141,23.0381],[108.5072,23.0365],[108.4922,23.0476],[108.4731,23.0371],[108.4708,23.0328],[108.4621,23.0287],[108.4495,23.0291],[108.4474,23.0257],[108.4517,23.0117],[108.4392,23.0006],[108.4143,23.0006],[108.4117,22.9958],[108.3993,22.9964],[108.3898,23.0018],[108.3876,22.9981],[108.3684,22.9941],[108.366,22.9817],[108.3511,22.9774],[108.3493,22.9706],[108.3503,22.9589],[108.3546,22.9481],[108.3504,22.9353],[108.3518,22.9146],[108.348,22.9046],[108.3404,22.8952],[108.3385,22.8811],[108.3269,22.8768],[108.3324,22.8659],[108.3242,22.8595],[108.3285,22.8425],[108.3249,22.8375],[108.315,22.8325],[108.3085,22.8267],[108.3104,22.819],[108.3154,22.8158],[108.321,22.8229],[108.3278,22.8245],[108.3362,22.8308],[108.3663,22.8439],[108.3707,22.8498],[108.378,22.8528],[108.383,22.8598],[108.391,22.8666],[108.4012,22.8711],[108.4028,22.8666],[108.412,22.8675],[108.4206,22.861],[108.438,22.8589],[108.4466,22.8519],[108.454,22.8513],[108.4616,22.8571],[108.4657,22.8528],[108.4812,22.8453],[108.4874,22.8466],[108.4923,22.8571],[108.5008,22.8604],[108.5135,22.8565],[108.5281,22.8616],[108.5366,22.8571],[108.542,22.8604],[108.5558,22.8643],[108.5605,22.8574],[108.5712,22.8621],[108.5762,22.8765],[108.5889,22.8799],[108.5972,22.8896],[108.6083,22.8863],[108.6159,22.8873],[108.6195,22.8938],[108.6288,22.8913],[108.6334,22.8957],[108.6453,22.896],[108.6491,22.9082],[108.6581,22.9136],[108.6629,22.9135],[108.6679,22.9211],[108.6649,22.9315],[108.6711,22.9328],[108.6758,22.9275],[108.6825,22.9316],[108.6842,22.9392],[108.6943,22.9393],[108.6929,22.9499],[108.6979,22.957],[108.696,22.9655],[108.7116,22.9775],[108.7124,22.9947],[108.7216,22.9947],[108.7273,22.9979],[108.7358,22.9906],[108.7476,22.9966],[108.7498,23.0011],[108.7609,22.9951],[108.7666,22.9997]]]},"properties":{"region_code":"CN-45-4501-450102","parent_region_code":"CN-45-4501","name":"兴宁区","level":"county","has_children":false,"full_path":"中国 / 广西壮族自治区 / 南宁市 / 兴宁区","source_admin_code":"450102","osm_relation_id":2775770}},
{"type":"Feature","geometry":{"type":"Polygon","coordinates":[[[108.3154,22.8158],[108.3137,22.8136],[108.3171,22.8105],[108.3201,22.7959],[108.3253,22.793],[108.3351,22.7956],[108.3404,22.7944],[108.3414,22.7877],[108.327,22.78],[108.3264,22.7739],[108.3341,22.7684],[108.345,22.7711],[108.3649,22.7844],[108.3731,22.7861],[108.3826,22.7794],[108.3959,22.7735],[108.4095,22.7599],[108.4179,22.7607],[108.4227,22.7682],[108.4222,22.7726],[108.4262,22.785],[108.4353,22.7883],[108.4445,22.7869],[108.4559,22.7936],[108.4629,22.8061],[108.4689,22.8098],[108.4745,22.8059],[108.4779,22.7962],[108.4866,22.7884],[108.4884,22.784],[108.4849,22.7675],[108.4859,22.7608],[108.4959,22.7586],[108.4992,22.7657],[108.496,22.7848],[108.497,22.791],[108.5029,22.7955],[108.5137,22.7954],[108.5121,22.7805],[108.5173,22.7792],[108.5238,22.7888],[108.5315,22.7911],[108.5487,22.8026],[108.5611,22.8073],[108.5677,22.8136],[108.5708,22.8056],[108.5762,22.7996],[108.5857,22.7963],[108.5859,22.7917],[108.5937,22.7886],[108.5932,22.7746],[108.5946,22.7611],[108.5993,22.7512],[108.5925,22.7445],[108.5958,22.7407],[108.5986,22.7222],[108.6043,22.7219],[108.6132,22.7298],[108.6139,22.7223],[108.6181,22.7181],[108.6147,22.7104],[108.6222,22.6962],[108.6256,22.6845],[108.6344,22.6801],[108.6464,22.6834],[108.6525,22.6783],[108.6615,22.6769],[108.6646,22.6704],[108.6617,22.6666],[108.6683,22.6615],[108.6734,22.6633],[108.677,22.6696],[108.6853,22.6754],[108.6983,22.6631],[108.712,22.6676],[108.7276,22.6756],[108.7266,22.6793],[108.7315,22.6902],[108.7357,22.6939],[108.7329,22.7003],[108.7431,22.7003],[108.7533,22.7142],[108.7514,22.7205],[108.7586,22.7268],[108.7621,22.7242],[108.7707,22.7267],[108.7751,22.7121],[108.7846,22.7125],[108.7912,22.7086],[108.7969,22.7091],[108.7972,22.6957],[108.8025,22.6921],[108.8066,22.6762],[108.8129,22.6899],[108.818,22.7122],[108.8281,22.7193],[108.8302,22.7324],[108.8408,22.7412],[108.8403,22.754],[108.8335,22.7596],[108.8236,22.7642],[108.8172,22.7713],[108.8156,22.781],[108.8157,22.7956],[108.8206,22.8056],[108.8063,22.8241],[108.8116,22.8321],[108.8058,22.8402],[108.8127,22.8441],[108.8155,22.8591],[108.8109,22.8596],[108.8025,22.8733],[108.7993,22.8824],[108.8001,22.8979],[108.8196,22.8956],[108.8187,22.912],[108.8137,22.9248],[108.815,22.9333],[108.8137,22.9459],[108.82,22.9603],[108.8149,22.9683],[108.8179,22.9739],[108.8089,22.9815],[108.8063,22.9754],[108.7956,22.9739],[108.7896,22.9658],[108.7778,22.97],[108.7764,22.9764],[108.7696,22.9829],[108.7735,22.9997],[108.7666,22.9997],[108.7609,22.9951],[108.7498,23.0011],[108.7476,22.9966],[108.7358,22.9906],[108.7273,22.9979],[108.7216,22.9947],[108.7124,22.9947],[108.7116,22.9775],[108.696,22.9655],[108.6979,22.957],[108.6929,22.9499],[108.6943,22.9393],[108.6842,22.9392],[108.6825,22.9316],[108.6758,22.9275],[108.6711,22.9328],[108.6649,22.9315],[108.6679,22.9211],[108.6629,22.9135],[108.6581,22.9136],[108.6491,22.9082],[108.6453,22.896],[108.6334,22.8957],[108.6288,22.8913],[108.6195,22.8938],[108.6159,22.8873],[108.6083,22.8863],[108.5972,22.8896],[108.5889,22.8799],[108.5762,22.8765],[108.5712,22.8621],[108.5605,22.8574],[108.5558,22.8643],[108.542,22.8604],[108.5366,22.8571],[108.5281,22.8616],[108.5135,22.8565],[108.5008,22.8604],[108.4923,22.8571],[108.4874,22.8466],[108.4812,22.8453],[108.4657,22.8528],[108.4616,22.8571],[108.454,22.8513],[108.4466,22.8519],[108.438,22.8589],[108.4206,22.861],[108.412,22.8675],[108.4028,22.8666],[108.4012,22.8711],[108.391,22.8666],[108.383,22.8598],[108.378,22.8528],[108.3707,22.8498],[108.3663,22.8439],[108.3362,22.8308],[108.3278,22.8245],[108.321,22.8229],[108.3154,22.8158]]]},"properties":{"region_code":"CN-45-4501-450103","parent_region_code":"CN-45-4501","name":"青秀区","level":"county","has_children":false,"full_path":"中国 / 广西壮族自治区 / 南宁市 / 青秀区","source_admin_code":"450103","osm_relation_id":2775767}},
{"type":"Feature","geometry":{"type":"Polygon","coordinates":[[[108.3137,22.8136],[108.307,22.8125],[108.2977,22.8048],[108.2919,22.8035],[108.2801,22.8097],[108.2654,22.8234],[108.2565,22.8285],[108.2394,22.8302],[108.2008,22.822],[108.192,22.8222],[108.1882,22.8182],[108.2004,22.7973],[108.2011,22.7828],[108.1915,22.7703],[108.1804,22.7661],[108.1694,22.7598],[108.1551,22.763],[108.137,22.775],[108.126,22.7836],[108.1179,22.7931],[108.1087,22.8006],[108.1057,22.8057],[108.1101,22.8177],[108.1176,22.8247],[108.1253,22.8383],[108.1188,22.8421],[108.1023,22.8305],[108.0935,22.8301],[108.0867,22.8357],[108.0769,22.8333],[108.0727,22.8377],[108.0709,22.8478],[108.0654,22.8622],[108.0586,22.8617],[108.0505,22.8516],[108.037,22.842],[108.0455,22.8394],[108.0497,22.8457],[108.0576,22.8394],[108.0541,22.834],[108.0374,22.8319],[108.0308,22.8265],[108.0328,22.8073],[108.0245,22.8029],[108.0279,22.7928],[108.026,22.7883],[108.0291,22.7806],[108.0255,22.7728],[108.0151,22.7731],[108.0183,22.7643],[108.0194,22.7512],[108.0156,22.7442],[108.0143,22.7348],[108.0102,22.7332],[108.0084,22.7238],[107.994,22.721],[107.9958,22.7027],[107.9943,22.6936],[108.0055,22.6824],[108.0165,22.6818],[108.0214,22.6744],[108.0216,22.6686],[108.0287,22.6672],[108.0376,22.6587],[108.0564,22.6685],[108.0681,22.6728],[108.0714,22.6838],[108.0688,22.6917],[108.0711,22.6989],[108.0821,22.7056],[108.0851,22.6897],[108.089,22.6828],[108.0853,22.6797],[108.0862,22.6726],[108.095,22.6633],[108.102,22.6601],[108.098,22.6517],[108.0997,22.6471],[108.0924,22.6398],[108.082,22.6239],[108.0691,22.6274],[108.0553,22.6216],[108.0545,22.6261],[108.0447,22.6241],[108.0372,22.6183],[108.0243,22.6139],[108.0207,22.6085],[108.0107,22.614],[108.0008,22.6102],[107.9979,22.6001],[107.9922,22.5908],[107.9905,22.5801],[107.9982,22.5758],[107.9999,22.5665],[108.0073,22.5635],[108.0146,22.5497],[108.01,22.5446],[108.0095,22.5355],[107.9952,22.5219],[107.99,22.5114],[107.9822,22.509],[107.9834,22.5022],[107.9925,22.4951],[108.0033,22.4985],[108.0099,22.4833],[108.0205,22.4797],[108.0366,22.4771],[108.0552,22.4718],[108.0543,22.4641],[108.0658,22.4588],[108.0713,22.4631],[108.0844,22.4615],[108.085,22.4485],[108.0809,22.4473],[108.0776,22.4372],[108.0805,22.42],[108.0788,22.4135],[108.0827,22.4075],[108.0962,22.4118],[108.0994,22.4066],[108.1096,22.4009],[108.1109,22.3951],[108.1044,22.392],[108.1035,22.3846],[108.0948,22.378],[108.0964,22.3683],[108.0943,22.365],[108.0987,22.3572],[108.1093,22.3591],[108.1188,22.349],[108.131,22.3448],[108.1294,22.3382],[108.1334,22.336],[108.144,22.3395],[108.1544,22.3389],[108.1621,22.3483],[108.1589,22.3584],[108.1677,22.3621],[108.1732,22.375],[108.1802,22.3802],[108.1671,22.4015],[108.1699,22.4059],[108.1657,22.4138],[108.155,22.4205],[108.1667,22.4294],[108.1714,22.4456],[108.1762,22.4533],[108.1861,22.4561],[108.1873,22.4628],[108.1997,22.4674],[108.199,22.4766],[108.21,22.4822],[108.2111,22.4895],[108.2212,22.4941],[108.2084,22.5036],[108.2124,22.5071],[108.2267,22.496],[108.2347,22.4993],[108.2343,22.5046],[108.2483,22.5025],[108.2515,22.4975],[108.2603,22.5005],[108.2653,22.5083],[108.2741,22.5153],[108.2825,22.5138],[108.2804,22.5235],[108.2863,22.5379],[108.2821,22.5424],[108.2831,22.5588],[108.2916,22.5554],[108.2951,22.5576],[108.2997,22.5674],[108.2908,22.5794],[108.2865,22.5785],[108.274,22.5842],[108.2745,22.592],[108.2871,22.5915],[108.2888,22.604],[108.299,22.6152],[108.3079,22.6215],[108.3078,22.6339],[108.3124,22.6389],[108.3109,22.6492],[108.319,22.6611],[108.3138,22.6758],[108.3223,22.684],[108.3242,22.6899],[108.3327,22.6909],[108.3153,22.7073],[108.3178,22.7118],[108.3193,22.7243],[108.3105,22.733],[108.309,22.7469],[108.3131,22.758],[108.3094,22.7664],[108.314,22.7737],[108.3264,22.7739],[108.327,22.78],[108.3414,22.7877],[108.3404,22.7944],[108.3351,22.7956],[108.3253,22.793],[108.3201,22.7959],[108.3171,22.8105],[108.3137,22.8136]]]},"properties":{"region_code":"CN-45-4501-450105","parent_region_code":"CN-45-4501","name":"江南区","level":"county","has_children":false,"full_path":"中国 / 广西壮族自治区 / 南宁市 / 江南区","source_admin_code":"450105","osm_relation_id":2775763}},
{"type":"Feature","geometry":{"type":"MultiPolygon","coordinates":[[[[107.9683,23.0958],[107.9636,23.088],[107.9654,23.0731],[107.9711,23.0772],[107.9778,23.0681],[107.9844,23.0672],[107.986,23.0756],[107.994,23.0784],[107.9992,23.0752],[108.0064,23.0808],[108.0092,23.0996],[107.9959,23.1028],[107.9873,23.1092],[107.9804,23.108],[107.9751,23.0999],[107.9683,23.0958]]],[[[108.3511,22.9774],[108.3425,22.9787],[108.3399,22.9827],[108.3306,22.9788],[108.3251,22.9792],[108.289,22.9677],[108.2844,22.9625],[108.2706,22.9586],[108.2679,22.9522],[108.259,22.9451],[108.2557,22.9345],[108.2431,22.9353],[108.2384,22.9393],[108.2267,22.9334],[108.2193,22.9378],[108.2072,22.9355],[108.198,22.9308],[108.193,22.9249],[108.1954,22.9188],[108.1833,22.9123],[108.1678,22.9101],[108.1575,22.9148],[108.1737,22.9252],[108.1674,22.9324],[108.1653,22.9387],[108.1741,22.9444],[108.1652,22.954],[108.1691,22.976],[108.1669,22.9885],[108.1743,22.9944],[108.1722,22.9998],[108.1838,23.004],[108.173,23.0127],[108.173,23.0236],[108.1643,23.0267],[108.1661,23.0373],[108.1624,23.0384],[108.1575,23.0479],[108.1665,23.0511],[108.1663,23.0547],[108.1467,23.0602],[108.1341,23.0584],[108.1282,23.0526],[108.1161,23.0522],[108.1106,23.0557],[108.1088,23.0619],[108.099,23.0632],[108.0966,23.0709],[108.0889,23.0754],[108.0793,23.0769],[108.0872,23.0943],[108.0825,23.0916],[108.0736,23.0948],[108.0654,23.0923],[108.0645,23.0867],[108.049,23.0868],[108.0505,23.0816],[108.0427,23.0769],[108.0442,23.0712],[108.0357,23.071],[108.0238,23.0672],[108.0174,23.0678],[108.0118,23.0558],[107.9905,23.0435],[107.9829,23.0265],[107.9746,23.0268],[107.9638,23.0209],[107.953,23.0063],[107.9416,23.0039],[107.9373,22.9975],[107.9326,22.9819],[107.9243,22.9821],[107.9226,22.9777],[107.9139,22.9767],[107.9106,22.97],[107.8971,22.9636],[107.8958,22.9601],[107.8824,22.9558],[107.8806,22.9473],[107.8763,22.9471],[107.8748,22.9391],[107.8676,22.9405],[107.8589,22.9496],[107.8566,22.9586],[107.8476,22.9521],[107.8356,22.9577],[107.8291,22.9634],[107.8221,22.9554],[107.822,22.9427],[107.8114,22.9434],[107.8081,22.9392],[107.7945,22.9384],[107.7746,22.9286],[107.7716,22.9242],[107.7597,22.9187],[107.7622,22.9116],[107.7685,22.91],[107.7697,22.9047],[107.7856,22.8863],[107.7929,22.8817],[107.8011,22.88],[107.8072,22.8822],[107.8111,22.8784],[107.8245,22.8763],[107.8296,22.8731],[107.8483,22.8787],[107.8608,22.8688],[107.8689,22.8676],[107.8721,22.8558],[107.8791,22.8494],[107.914,22.8518],[107.9288,22.8482],[107.9368,22.8509],[107.9426,22.8463],[107.9583,22.846],[107.9685,22.8381],[107.9676,22.8299],[107.9734,22.8293],[107.9761,22.8215],[107.9749,22.813],[107.9688,22.7969],[107.9728,22.792],[107.9853,22.7939],[107.9968,22.7924],[108.0003,22.7876],[108.0072,22.7887],[108.0189,22.7852],[108.026,22.7883],[108.0279,22.7928],[108.0245,22.8029],[108.0328,22.8073],[108.0308,22.8265],[108.0374,22.8319],[108.0541,22.834],[108.0576,22.8394],[108.0497,22.8457],[108.0455,22.8394],[108.037,22.842],[108.0505,22.8516],[108.0586,22.8617],[108.0654,22.8622],[108.0709,22.8478],[108.0727,22.8377],[108.0769,22.8333],[108.0867,22.8357],[108.0935,22.8301],[108.1023,22.8305],[108.1188,22.8421],[108.1253,22.8383],[108.1176,22.8247],[108.1101,22.8177],[108.1057,22.8057],[108.1087,22.8006],[108.1179,22.7931],[108.126,22.7836],[108.137,22.775],[108.1551,22.763],[108.1694,22.7598],[108.1804,22.7661],[108.1915,22.7703],[108.2011,22.7828],[108.2004,22.7973],[108.1882,22.8182],[108.192,22.8222],[108.2008,22.822],[108.2394,22.8302],[108.2565,22.8285],[108.2654,22.8234],[108.2801,22.8097],[108.2919,22.8035],[108.2977,22.8048],[108.307,22.8125],[108.3137,22.8136],[108.3154,22.8158],[108.3104,22.819],[108.3085,22.8267],[108.315,22.8325],[108.3249,22.8375],[108.3285,22.8425],[108.3242,22.8595],[108.3324,22.8659],[108.3269,22.8768],[108.3385,22.8811],[108.3404,22.8952],[108.348,22.9046],[108.3518,22.9146],[108.3504,22.9353],[108.3546,22.9481],[108.3503,22.9589],[108.3493,22.9706],[108.3511,22.9774]]]]},"properties":{"region_code":"CN-45-4501-450107","parent_region_code":"CN-45-4501","name":"西乡塘区","level":"county","has_children":false,"full_path":"中国 / 广西壮族自治区 / 南宁市 / 西乡塘区","source_admin_code":"450107","osm_relation_id":2775771}},
{"type":"Feature","geometry":{"type":"Polygon","coordinates":[[[108.3264,22.7739],[108.314,22.7737],[108.3094,22.7664],[108.3131,22.758],[108.309,22.7469],[108.3105,22.733],[108.3193,22.7243],[108.3178,22.7118],[108.3153,22.7073],[108.3327,22.6909],[108.3242,22.6899],[108.3223,22.684],[108.3138,22.6758],[108.319,22.6611],[108.3109,22.6492],[108.3124,22.6389],[108.3078,22.6339],[108.3079,22.6215],[108.299,22.6152],[108.2888,22.604],[108.2871,22.5915],[108.2745,22.592],[108.274,22.5842],[108.2865,22.5785],[108.2908,22.5794],[108.2997,22.5674],[108.2951,22.5576],[108.2916,22.5554],[108.2831,22.5588],[108.2821,22.5424],[108.2863,22.5379],[108.2804,22.5235],[108.2825,22.5138],[108.2741,22.5153],[108.2653,22.5083],[108.2603,22.5005],[108.2515,22.4975],[108.2483,22.5025],[108.2343,22.5046],[108.2347,22.4993],[108.2267,22.496],[108.2124,22.5071],[108.2084,22.5036],[108.2212,22.4941],[108.2111,22.4895],[108.21,22.4822],[108.199,22.4766],[108.1997,22.4674],[108.1873,22.4628],[108.1861,22.4561],[108.1762,22.4533],[108.1714,22.4456],[108.1667,22.4294],[108.155,22.4205],[108.1657,22.4138],[108.1699,22.4059],[108.1671,22.4015],[108.1802,22.3802],[108.1732,22.375],[108.1677,22.3621],[108.1589,22.3584],[108.1621,22.3483],[108.1544,22.3389],[108.144,22.3395],[108.1334,22.336],[108.1294,22.3382],[108.1319,22.3282],[108.1333,22.3077],[108.1392,22.3073],[108.1457,22.2938],[108.1596,22.2925],[108.1682,22.2876],[108.1739,22.2801],[108.1824,22.2801],[108.1857,22.276],[108.2025,22.2947],[108.2087,22.2893],[108.2168,22.2948],[108.2239,22.2922],[108.2318,22.285],[108.2282,22.2771],[108.2311,22.263],[108.2372,22.2623],[108.2407,22.2437],[108.2467,22.2394],[108.263,22.2325],[108.2707,22.2266],[108.2768,22.2251],[108.2778,22.2096],[108.2954,22.2149],[108.2989,22.2239],[108.3048,22.2271],[108.3094,22.2337],[108.3186,22.2406],[108.3362,22.2465],[108.3492,22.2475],[108.3692,22.2458],[108.3709,22.2495],[108.3829,22.2582],[108.394,22.264],[108.403,22.2615],[108.4054,22.2683],[108.4105,22.272],[108.4202,22.2703],[108.42,22.2652],[108.4273,22.2549],[108.4319,22.2518],[108.4385,22.254],[108.4434,22.2491],[108.4575,22.242],[108.4687,22.2397],[108.472,22.2426],[108.4815,22.2429],[108.4912,22.2403],[108.4959,22.2472],[108.4941,22.2548],[108.4967,22.2647],[108.5022,22.2688],[108.5038,22.2787],[108.5157,22.2749],[108.5251,22.2782],[108.5234,22.2837],[108.5346,22.2996],[108.5356,22.3052],[108.5431,22.3111],[108.5399,22.317],[108.5476,22.3301],[108.5386,22.335],[108.5398,22.3421],[108.5468,22.3591],[108.5445,22.3626],[108.5542,22.3713],[108.5624,22.3703],[108.5644,22.3771],[108.5599,22.3811],[108.5577,22.3908],[108.5525,22.3908],[108.543,22.3978],[108.5558,22.4129],[108.5547,22.4231],[108.5657,22.4261],[108.5563,22.4319],[108.5429,22.4371],[108.5352,22.4439],[108.527,22.4387],[108.5274,22.432],[108.4981,22.4299],[108.4958,22.4368],[108.4798,22.444],[108.4681,22.4393],[108.4674,22.4305],[108.4721,22.4271],[108.4673,22.4181],[108.4573,22.4212],[108.4472,22.4174],[108.4375,22.4169],[108.4375,22.4296],[108.4322,22.433],[108.4361,22.4469],[108.4417,22.452],[108.4349,22.4552],[108.4344,22.4607],[108.4292,22.4678],[108.4325,22.4714],[108.4361,22.491],[108.4283,22.498],[108.4278,22.5033],[108.4381,22.5106],[108.4374,22.5151],[108.4307,22.5182],[108.4253,22.5282],[108.4267,22.5397],[108.4173,22.5495],[108.4167,22.5587],[108.4196,22.5702],[108.4272,22.574],[108.4273,22.5831],[108.4337,22.5842],[108.4401,22.5899],[108.428,22.6095],[108.4387,22.6182],[108.4383,22.6391],[108.4437,22.6512],[108.4374,22.6536],[108.4337,22.6646],[108.4268,22.6664],[108.4266,22.6764],[108.4296,22.6798],[108.4392,22.6821],[108.4387,22.6867],[108.4309,22.6929],[108.4286,22.7099],[108.4298,22.7217],[108.4406,22.7273],[108.4336,22.7342],[108.4311,22.745],[108.4259,22.7496],[108.4227,22.7682],[108.4179,22.7607],[108.4095,22.7599],[108.3959,22.7735],[108.3826,22.7794],[108.3731,22.7861],[108.3649,22.7844],[108.345,22.7711],[108.3341,22.7684],[108.3264,22.7739]]]},"properties":{"region_code":"CN-45-4501-450108","parent_region_code":"CN-45-4501","name":"良庆区","level":"county","has_children":false,"full_path":"中国 / 广西壮族自治区 / 南宁市 / 良庆区","source_admin_code":"450108","osm_relation_id":2775764}},
{"type":"Feature","geometry":{"type":"Polygon","coordinates":[[[108.4227,22.7682],[108.4259,22.7496],[108.4311,22.745],[108.4336,22.7342],[108.4406,22.7273],[108.4298,22.7217],[108.4286,22.7099],[108.4309,22.6929],[108.4387,22.6867],[108.4392,22.6821],[108.4296,22.6798],[108.4266,22.6764],[108.4268,22.6664],[108.4337,22.6646],[108.4374,22.6536],[108.4437,22.6512],[108.4383,22.6391],[108.4387,22.6182],[108.428,22.6095],[108.4401,22.5899],[108.4337,22.5842],[108.4273,22.5831],[108.4272,22.574],[108.4196,22.5702],[108.4167,22.5587],[108.4173,22.5495],[108.4267,22.5397],[108.4253,22.5282],[108.4307,22.5182],[108.4374,22.5151],[108.4381,22.5106],[108.4278,22.5033],[108.4283,22.498],[108.4361,22.491],[108.4325,22.4714],[108.4292,22.4678],[108.4344,22.4607],[108.4349,22.4552],[108.4417,22.452],[108.4361,22.4469],[108.4322,22.433],[108.4375,22.4296],[108.4375,22.4169],[108.4472,22.4174],[108.4573,22.4212],[108.4673,22.4181],[108.4721,22.4271],[108.4674,22.4305],[108.4681,22.4393],[108.4798,22.444],[108.4958,22.4368],[108.4981,22.4299],[108.5274,22.432],[108.527,22.4387],[108.5352,22.4439],[108.5429,22.4371],[108.5563,22.4319],[108.5657,22.4261],[108.5801,22.4338],[108.5898,22.4233],[108.59,22.4185],[108.596,22.4152],[108.605,22.4215],[108.6116,22.432],[108.6128,22.4397],[108.6201,22.441],[108.6294,22.4485],[108.6251,22.4542],[108.6316,22.4606],[108.6425,22.4517],[108.6495,22.4495],[108.6556,22.4334],[108.6707,22.4343],[108.6734,22.4437],[108.6807,22.4517],[108.6784,22.4572],[108.6845,22.4648],[108.6948,22.4636],[108.6955,22.4529],[108.7031,22.4557],[108.7115,22.4543],[108.7174,22.4596],[108.7104,22.4638],[108.712,22.4686],[108.7078,22.4804],[108.711,22.4839],[108.7095,22.4913],[108.7295,22.4877],[108.7384,22.4954],[108.7427,22.4965],[108.7445,22.5101],[108.7521,22.5078],[108.7633,22.5095],[108.7769,22.5202],[108.7786,22.5283],[108.7845,22.527],[108.7933,22.5296],[108.8048,22.5271],[108.8138,22.5348],[108.8259,22.5381],[108.8377,22.5442],[108.8436,22.5481],[108.8561,22.5622],[108.8569,22.5685],[108.8496,22.5813],[108.8457,22.5789],[108.8338,22.5892],[108.8402,22.591],[108.8399,22.5969],[108.8307,22.6002],[108.8216,22.5981],[108.8203,22.6046],[108.8144,22.6097],[108.8111,22.6178],[108.8137,22.635],[108.809,22.6431],[108.8021,22.6409],[108.7943,22.6442],[108.7938,22.6513],[108.7968,22.6603],[108.8066,22.6762],[108.8025,22.6921],[108.7972,22.6957],[108.7969,22.7091],[108.7912,22.7086],[108.7846,22.7125],[108.7751,22.7121],[108.7707,22.7267],[108.7621,22.7242],[108.7586,22.7268],[108.7514,22.7205],[108.7533,22.7142],[108.7431,22.7003],[108.7329,22.7003],[108.7357,22.6939],[108.7315,22.6902],[108.7266,22.6793],[108.7276,22.6756],[108.712,22.6676],[108.6983,22.6631],[108.6853,22.6754],[108.677,22.6696],[108.6734,22.6633],[108.6683,22.6615],[108.6617,22.6666],[108.6646,22.6704],[108.6615,22.6769],[108.6525,22.6783],[108.6464,22.6834],[108.6344,22.6801],[108.6256,22.6845],[108.6222,22.6962],[108.6147,22.7104],[108.6181,22.7181],[108.6139,22.7223],[108.6132,22.7298],[108.6043,22.7219],[108.5986,22.7222],[108.5958,22.7407],[108.5925,22.7445],[108.5993,22.7512],[108.5946,22.7611],[108.5932,22.7746],[108.5937,22.7886],[108.5859,22.7917],[108.5857,22.7963],[108.5762,22.7996],[108.5708,22.8056],[108.5677,22.8136],[108.5611,22.8073],[108.5487,22.8026],[108.5315,22.7911],[108.5238,22.7888],[108.5173,22.7792],[108.5121,22.7805],[108.5137,22.7954],[108.5029,22.7955],[108.497,22.791],[108.496,22.7848],[108.4992,22.7657],[108.4959,22.7586],[108.4859,22.7608],[108.4849,22.7675],[108.4884,22.784],[108.4866,22.7884],[108.4779,22.7962],[108.4745,22.8059],[108.4689,22.8098],[108.4629,22.8061],[108.4559,22.7936],[108.4445,22.7869],[108.4353,22.7883],[108.4262,22.785],[108.4222,22.7726],[108.4227,22.7682]]]},"properties":{"region_code":"CN-45-4501-450109","parent_region_code":"CN-45-4501","name":"邕宁区","level":"county","has_children":false,"full_path":"中国 / 广西壮族自治区 / 南宁市 / 邕宁区","source_admin_code":"450109","osm_relation_id":2775772}},
{"type":"Feature","geometry":{"type":"Polygon","coordinates":[[[108.6125,23.1093],[108.607,23.116],[108.602,23.1113],[108.5863,23.1251],[108.5743,23.1204],[108.5682,23.1269],[108.5619,23.1263],[108.5503,23.133],[108.5346,23.1357],[108.5346,23.1386],[108.5443,23.1467],[108.5467,23.1536],[108.5556,23.169],[108.564,23.1781],[108.564,23.1821],[108.5732,23.1905],[108.5815,23.192],[108.581,23.197],[108.5906,23.2017],[108.5886,23.2058],[108.5888,23.2109],[108.5808,23.2198],[108.5781,23.2393],[108.5844,23.2425],[108.5915,23.2565],[108.5916,23.2635],[108.6007,23.2759],[108.5942,23.2795],[108.5943,23.2852],[108.5823,23.2966],[108.5849,23.3063],[108.5819,23.3184],[108.5779,23.3257],[108.5661,23.3262],[108.5576,23.3211],[108.5507,23.3294],[108.5485,23.3536],[108.5401,23.3562],[108.5343,23.3665],[108.5317,23.3771],[108.5335,23.3828],[108.5114,23.3799],[108.5028,23.3863],[108.4921,23.3869],[108.492,23.3925],[108.4861,23.3977],[108.4857,23.4135],[108.4911,23.4215],[108.4995,23.4264],[108.4963,23.4321],[108.4806,23.4387],[108.4767,23.4457],[108.4678,23.453],[108.4695,23.4599],[108.4649,23.4651],[108.4704,23.4739],[108.463,23.481],[108.4483,23.4801],[108.4426,23.4776],[108.4366,23.481],[108.4311,23.4784],[108.4216,23.4893],[108.4208,23.5],[108.4053,23.5114],[108.4047,23.5193],[108.4002,23.5228],[108.402,23.5289],[108.3869,23.5399],[108.3697,23.5465],[108.3647,23.5416],[108.3502,23.5402],[108.3425,23.5452],[108.3293,23.5467],[108.3234,23.5393],[108.3178,23.5397],[108.3054,23.5356],[108.3016,23.5285],[108.292,23.5275],[108.2906,23.5178],[108.2798,23.5146],[108.2723,23.5062],[108.2621,23.4993],[108.2504,23.5012],[108.2509,23.5062],[108.2424,23.5102],[108.2272,23.4986],[108.2221,23.5018],[108.2119,23.5001],[108.2005,23.5005],[108.1992,23.4954],[108.2031,23.4901],[108.1907,23.4774],[108.1805,23.4782],[108.1637,23.4818],[108.1589,23.4736],[108.1518,23.4681],[108.1364,23.4656],[108.1282,23.4565],[108.1112,23.4571],[108.1001,23.4605],[108.095,23.4563],[108.0813,23.4634],[108.0725,23.4706],[108.0659,23.471],[108.0682,23.4567],[108.068,23.4464],[108.0738,23.4407],[108.0753,23.4326],[108.0728,23.4279],[108.0749,23.421],[108.0674,23.4176],[108.0629,23.4092],[108.0548,23.4093],[108.0491,23.4055],[108.0354,23.4116],[108.0301,23.416],[108.0188,23.4202],[108.016,23.4239],[108.0053,23.4184],[107.9978,23.424],[107.9981,23.4344],[108.008,23.4381],[108.0096,23.4527],[107.9982,23.4529],[107.986,23.4617],[107.9809,23.4605],[107.9716,23.4646],[107.9641,23.4647],[107.9597,23.4697],[107.9528,23.4715],[107.9458,23.4661],[107.9396,23.4666],[107.9333,23.4742],[107.9282,23.4741],[107.9185,23.4818],[107.9142,23.4877],[107.9021,23.4806],[107.8925,23.4707],[107.8685,23.4518],[107.8678,23.4484],[107.8723,23.4455],[107.8785,23.4477],[107.8819,23.4435],[107.8766,23.4383],[107.8746,23.4278],[107.8612,23.4206],[107.8595,23.4146],[107.863,23.4051],[107.8535,23.3962],[107.8538,23.3899],[107.8474,23.3844],[107.8292,23.3763],[107.8243,23.372],[107.8244,23.3651],[107.8289,23.3529],[107.8169,23.3511],[107.8217,23.3444],[107.833,23.3478],[107.8302,23.337],[107.8322,23.3324],[107.8453,23.3348],[107.8529,23.3318],[107.8583,23.3231],[107.8454,23.3085],[107.8554,23.302],[107.8488,23.2955],[107.859,23.2916],[107.8625,23.2861],[107.8559,23.2766],[107.8479,23.2728],[107.8467,23.2602],[107.856,23.2596],[107.862,23.256],[107.8626,23.2497],[107.8509,23.2445],[107.8448,23.226],[107.8608,23.2213],[107.8702,23.2273],[107.8725,23.2188],[107.8711,23.2113],[107.8789,23.2079],[107.8956,23.2245],[107.9022,23.2292],[107.9088,23.2279],[107.913,23.2326],[107.9299,23.2221],[107.9215,23.2182],[107.9297,23.2122],[107.9372,23.197],[107.9482,23.2005],[107.9535,23.196],[107.9756,23.1868],[107.9829,23.1911],[107.9862,23.182],[107.9935,23.1773],[107.9957,23.1602],[108.0005,23.1491],[108.0081,23.1479],[108.013,23.1549],[108.027,23.1552],[108.0363,23.1647],[108.0402,23.1562],[108.0572,23.151],[108.0573,23.1283],[108.0618,23.1173],[108.0685,23.1067],[108.077,23.1034],[108.0872,23.0943],[108.0793,23.0769],[108.0889,23.0754],[108.0966,23.0709],[108.099,23.0632],[108.1088,23.0619],[108.1106,23.0557],[108.1161,23.0522],[108.1282,23.0526],[108.1341,23.0584],[108.1467,23.0602],[108.1663,23.0547],[108.1665,23.0511],[108.1575,23.0479],[108.1624,23.0384],[108.1661,23.0373],[108.1643,23.0267],[108.173,23.0236],[108.173,23.0127],[108.1838,23.004],[108.1722,22.9998],[108.1743,22.9944],[108.1669,22.9885],[108.1691,22.976],[108.1652,22.954],[108.1741,22.9444],[108.1653,22.9387],[108.1674,22.9324],[108.1737,22.9252],[108.1575,22.9148],[108.1678,22.9101],[108.1833,22.9123],[108.1954,22.9188],[108.193,22.9249],[108.198,22.9308],[108.2072,22.9355],[108.2193,22.9378],[108.2267,22.9334],[108.2384,22.9393],[108.2431,22.9353],[108.2557,22.9345],[108.259,22.9451],[108.2679,22.9522],[108.2706,22.9586],[108.2844,22.9625],[108.289,22.9677],[108.3251,22.9792],[108.3306,22.9788],[108.3399,22.9827],[108.3425,22.9787],[108.3511,22.9774],[108.366,22.9817],[108.3684,22.9941],[108.3876,22.9981],[108.3898,23.0018],[108.3993,22.9964],[108.4117,22.9958],[108.4143,23.0006],[108.4392,23.0006],[108.4517,23.0117],[108.4474,23.0257],[108.4495,23.0291],[108.4621,23.0287],[108.4708,23.0328],[108.4731,23.0371],[108.4922,23.0476],[108.5072,23.0365],[108.5141,23.0381],[108.5181,23.029],[108.5337,23.0202],[108.5535,23.012],[108.5634,23.0162],[108.5724,23.0271],[108.5712,23.0322],[108.5768,23.0415],[108.5836,23.039],[108.5966,23.0392],[108.6107,23.0482],[108.6111,23.0585],[108.6072,23.0712],[108.6077,23.0815],[108.6146,23.1],[108.6125,23.1093]]]},"properties":{"region_code":"CN-45-4501-450110","parent_region_code":"CN-45-4501","name":"武鸣区","level":"county","has_children":false,"full_path":"中国 / 广西壮族自治区 / 南宁市 / 武鸣区","source_admin_code":"450110","osm_relation_id":2775769}},
{"type":"Feature","geometry":{"type":"Polygon","coordinates":[[[108.0872,23.0943],[108.077,23.1034],[108.0685,23.1067],[108.0618,23.1173],[108.0573,23.1283],[108.0572,23.151],[108.0402,23.1562],[108.0363,23.1647],[108.027,23.1552],[108.013,23.1549],[108.0081,23.1479],[108.0005,23.1491],[107.9957,23.1602],[107.9935,23.1773],[107.9862,23.182],[107.9829,23.1911],[107.9756,23.1868],[107.9535,23.196],[107.9482,23.2005],[107.9372,23.197],[107.9297,23.2122],[107.9215,23.2182],[107.9299,23.2221],[107.913,23.2326],[107.9088,23.2279],[107.9022,23.2292],[107.8956,23.2245],[107.8789,23.2079],[107.8711,23.2113],[107.8725,23.2188],[107.8702,23.2273],[107.8608,23.2213],[107.8448,23.226],[107.8509,23.2445],[107.8626,23.2497],[107.862,23.256],[107.856,23.2596],[107.8467,23.2602],[107.8479,23.2728],[107.8559,23.2766],[107.8625,23.2861],[107.859,23.2916],[107.8488,23.2955],[107.8554,23.302],[107.8454,23.3085],[107.8583,23.3231],[107.8529,23.3318],[107.8453,23.3348],[107.8322,23.3324],[107.8302,23.337],[107.8134,23.3379],[107.8147,23.3467],[107.7977,23.3435],[107.7937,23.3477],[107.7846,23.3495],[107.7732,23.3471],[107.7697,23.3524],[107.7561,23.3426],[107.7443,23.3392],[107.7428,23.3349],[107.7467,23.3251],[107.7465,23.3151],[107.7298,23.3045],[107.7248,23.3053],[107.7092,23.302],[107.7081,23.2884],[107.7005,23.2885],[107.6982,23.2816],[107.6872,23.2839],[107.6774,23.283],[107.6672,23.2851],[107.6517,23.2775],[107.6445,23.2781],[107.6458,23.2847],[107.6189,23.2915],[107.6126,23.2943],[107.5924,23.2962],[107.5867,23.2937],[107.5802,23.2977],[107.5759,23.2928],[107.5776,23.2876],[107.569,23.2849],[107.5747,23.2787],[107.5749,23.2671],[107.5706,23.2611],[107.5826,23.25],[107.5779,23.2404],[107.5795,23.2309],[107.5726,23.2284],[107.5649,23.2326],[107.5574,23.2282],[107.5656,23.2219],[107.5597,23.2067],[107.5508,23.2116],[107.5481,23.2094],[107.5363,23.2093],[107.528,23.2112],[107.5175,23.2205],[107.5086,23.2248],[107.5006,23.2251],[107.4881,23.229],[107.4633,23.2276],[107.4689,23.2444],[107.4749,23.2466],[107.4755,23.2522],[107.4675,23.2551],[107.4572,23.2511],[107.4515,23.2547],[107.4354,23.2606],[107.4204,23.2608],[107.4183,23.2571],[107.4092,23.2559],[107.3992,23.2486],[107.3914,23.2466],[107.3821,23.2486],[107.3804,23.2418],[107.3723,23.2389],[107.3718,23.218],[107.3618,23.2086],[107.3652,23.201],[107.3623,23.197],[107.3549,23.2018],[107.3486,23.2002],[107.3424,23.1947],[107.347,23.1879],[107.3419,23.1758],[107.3501,23.1662],[107.351,23.15],[107.3393,23.1522],[107.3323,23.1498],[107.3302,23.1408],[107.3247,23.1345],[107.3335,23.13],[107.3355,23.1257],[107.3456,23.1247],[107.3464,23.1188],[107.358,23.1122],[107.3618,23.1047],[107.3716,23.101],[107.3878,23.099],[107.3722,23.0857],[107.3665,23.0868],[107.35,23.0839],[107.35,23.0776],[107.343,23.062],[107.3384,23.0633],[107.332,23.0514],[107.3397,23.048],[107.3485,23.0401],[107.3565,23.0396],[107.3592,23.0355],[107.3712,23.0405],[107.3823,23.0509],[107.391,23.0504],[107.3948,23.0443],[107.4053,23.053],[107.4279,23.0468],[107.4329,23.0526],[107.44,23.0547],[107.4467,23.0468],[107.4542,23.0474],[107.4662,23.0341],[107.4728,23.0354],[107.477,23.0226],[107.4709,23.0151],[107.4835,23.0016],[107.4898,22.9879],[107.4949,22.9855],[107.4956,22.9762],[107.4916,22.9711],[107.4952,22.9667],[107.4906,22.9525],[107.4959,22.9433],[107.4957,22.937],[107.4883,22.935],[107.4818,22.929],[107.4719,22.9271],[107.4755,22.9156],[107.4819,22.9081],[107.4835,22.8944],[107.4829,22.8732],[107.4895,22.8717],[107.4934,22.8539],[107.5001,22.8493],[107.5111,22.8477],[107.5283,22.8568],[107.5367,22.8571],[107.5412,22.8625],[107.5491,22.8605],[107.5715,22.8635],[107.5736,22.8693],[107.5692,22.8845],[107.5727,22.894],[107.5824,22.8926],[107.5941,22.9001],[107.6063,22.902],[107.6089,22.9072],[107.6219,22.9064],[107.6316,22.9039],[107.6428,22.906],[107.6471,22.9029],[107.6463,22.8954],[107.6512,22.8905],[107.6553,22.8816],[107.6568,22.8693],[107.6623,22.868],[107.6662,22.8585],[107.6758,22.8596],[107.6825,22.8652],[107.6877,22.8646],[107.69,22.8724],[107.6942,22.8735],[107.695,22.8819],[107.6914,22.8888],[107.686,22.8922],[107.6783,22.904],[107.6706,22.9049],[107.6648,22.9211],[107.6458,22.926],[107.6399,22.9361],[107.6304,22.9387],[107.6351,22.9481],[107.6398,22.9497],[107.6557,22.9445],[107.6811,22.9476],[107.6874,22.9413],[107.6936,22.9409],[107.7046,22.9478],[107.708,22.9537],[107.7145,22.952],[107.7236,22.9425],[107.7395,22.9485],[107.7447,22.9437],[107.7495,22.9341],[107.7506,22.9235],[107.7597,22.9187],[107.7716,22.9242],[107.7746,22.9286],[107.7945,22.9384],[107.8081,22.9392],[107.8114,22.9434],[107.822,22.9427],[107.8221,22.9554],[107.8291,22.9634],[107.8356,22.9577],[107.8476,22.9521],[107.8566,22.9586],[107.8589,22.9496],[107.8676,22.9405],[107.8748,22.9391],[107.8763,22.9471],[107.8806,22.9473],[107.8824,22.9558],[107.8958,22.9601],[107.8971,22.9636],[107.9106,22.97],[107.9139,22.9767],[107.9226,22.9777],[107.9243,22.9821],[107.9326,22.9819],[107.9373,22.9975],[107.9416,23.0039],[107.953,23.0063],[107.9638,23.0209],[107.9746,23.0268],[107.9829,23.0265],[107.9905,23.0435],[108.0118,23.0558],[108.0174,23.0678],[108.0238,23.0672],[108.0357,23.071],[108.0442,23.0712],[108.0427,23.0769],[108.0505,23.0816],[108.049,23.0868],[108.0645,23.0867],[108.0654,23.0923],[108.0736,23.0948],[108.0825,23.0916],[108.0872,23.0943]],[[107.9683,23.0958],[107.9751,23.0999],[107.9804,23.108],[107.9873,23.1092],[107.9959,23.1028],[108.0092,23.0996],[108.0064,23.0808],[107.9992,23.0752],[107.994,23.0784],[107.986,23.0756],[107.9844,23.0672],[107.9778,23.0681],[107.9711,23.0772],[107.9654,23.0731],[107.9636,23.088],[107.9683,23.0958]]]},"properties":{"region_code":"CN-45-4501-450123","parent_region_code":"CN-45-4501","name":"隆安县","level":"county","has_children":false,"full_path":"中国 / 广西壮族自治区 / 南宁市 / 隆安县","source_admin_code":"450123","osm_relation_id":2775765}},
{"type":"Feature","geometry":{"type":"Polygon","coordinates":[[[108.402,23.5289],[108.404,23.5375],[108.3991,23.5461],[108.3834,23.5502],[108.3795,23.5573],[108.3765,23.5695],[108.3844,23.582],[108.3841,23.5873],[108.3954,23.5999],[108.4023,23.6021],[108.3982,23.6156],[108.3844,23.6211],[108.3818,23.6296],[108.3921,23.6407],[108.3908,23.6484],[108.4034,23.6664],[108.4135,23.6621],[108.4192,23.6645],[108.4315,23.6636],[108.4592,23.6589],[108.4637,23.6612],[108.4639,23.6704],[108.4774,23.6839],[108.4838,23.6864],[108.4872,23.6918],[108.494,23.6934],[108.4987,23.696],[108.4998,23.7069],[108.4954,23.7079],[108.4944,23.7161],[108.4838,23.7165],[108.4822,23.7235],[108.4686,23.7389],[108.4702,23.7432],[108.481,23.7432],[108.4801,23.7503],[108.4845,23.7622],[108.4697,23.7673],[108.4654,23.7761],[108.4705,23.7804],[108.4599,23.7887],[108.4533,23.7895],[108.435,23.7877],[108.4302,23.7898],[108.4372,23.8029],[108.4377,23.8076],[108.427,23.8083],[108.4251,23.7998],[108.4159,23.8005],[108.4218,23.8122],[108.4143,23.8181],[108.414,23.8272],[108.4237,23.8338],[108.434,23.8363],[108.4406,23.8417],[108.4474,23.8404],[108.4538,23.8463],[108.4459,23.8515],[108.4542,23.8676],[108.4519,23.8756],[108.4577,23.8772],[108.4599,23.8844],[108.4578,23.8911],[108.469,23.8915],[108.4708,23.8981],[108.4628,23.9007],[108.4416,23.9001],[108.4458,23.9093],[108.4513,23.914],[108.4381,23.9221],[108.4275,23.9186],[108.4211,23.9194],[108.4188,23.9269],[108.4248,23.9284],[108.4258,23.9353],[108.433,23.9408],[108.437,23.9539],[108.4311,23.9587],[108.4301,23.9673],[108.4374,23.97],[108.4438,23.9794],[108.4567,23.9895],[108.4739,23.9808],[108.4845,23.9928],[108.4948,23.9941],[108.4753,24.0219],[108.465,24.0202],[108.4543,24.0122],[108.4485,24.0164],[108.4496,24.0218],[108.443,24.0309],[108.4297,24.0348],[108.4019,24.0326],[108.3885,24.0229],[108.3703,24.0154],[108.3592,24.0052],[108.3688,23.9994],[108.3662,23.9861],[108.3544,23.9844],[108.3505,23.9715],[108.3532,23.9659],[108.3622,23.9636],[108.3651,23.9439],[108.3613,23.9347],[108.3644,23.93],[108.3639,23.9203],[108.3546,23.9197],[108.3443,23.9135],[108.3376,23.9159],[108.3254,23.9148],[108.3266,23.9082],[108.3128,23.902],[108.3137,23.8929],[108.3097,23.8826],[108.3017,23.8716],[108.2927,23.8715],[108.294,23.8661],[108.289,23.8596],[108.2929,23.856],[108.2867,23.8511],[108.2934,23.8457],[108.3056,23.8422],[108.2995,23.8321],[108.2872,23.8264],[108.2818,23.8217],[108.2784,23.8067],[108.2746,23.8007],[108.2647,23.8185],[108.2574,23.8166],[108.2527,23.8107],[108.2483,23.817],[108.2422,23.8166],[108.239,23.8077],[108.2272,23.812],[108.2304,23.8215],[108.2194,23.8278],[108.2184,23.8364],[108.2212,23.8453],[108.2175,23.8575],[108.2133,23.8541],[108.2047,23.8582],[108.199,23.8743],[108.1833,23.8636],[108.1759,23.8551],[108.1722,23.8419],[108.1794,23.8337],[108.1771,23.8264],[108.1677,23.824],[108.1624,23.8256],[108.1561,23.832],[108.147,23.8465],[108.1308,23.8564],[108.1117,23.8342],[108.1101,23.8185],[108.1004,23.8131],[108.0902,23.7976],[108.08,23.7958],[108.0642,23.8],[108.0547,23.804],[108.0477,23.8004],[108.0356,23.7894],[108.0227,23.7854],[108.0183,23.7787],[108.0182,23.7709],[108.0117,23.7619],[108.0177,23.7556],[108.0207,23.7436],[108.0195,23.7361],[108.0231,23.731],[108.0395,23.7227],[108.0323,23.7091],[108.0172,23.6941],[108.0142,23.679],[107.9961,23.675],[107.9885,23.6491],[107.9929,23.6413],[107.9791,23.63],[107.9655,23.6286],[107.9591,23.6339],[107.9558,23.6462],[107.9349,23.6632],[107.9285,23.6514],[107.9209,23.6485],[107.924,23.6424],[107.9148,23.6413],[107.9071,23.6435],[107.8992,23.638],[107.9044,23.6312],[107.8965,23.6211],[107.8861,23.6251],[107.8846,23.6115],[107.8676,23.6032],[107.8444,23.6061],[107.8415,23.6111],[107.8342,23.6125],[107.8204,23.6029],[107.8173,23.6095],[107.8076,23.6086],[107.8021,23.5939],[107.7972,23.5936],[107.7881,23.582],[107.7896,23.5692],[107.7705,23.5739],[107.7571,23.5751],[107.7378,23.5637],[107.7321,23.573],[107.7153,23.5521],[107.7177,23.5438],[107.73,23.5377],[107.7351,23.5268],[107.734,23.517],[107.7284,23.515],[107.7263,23.5051],[107.7299,23.5024],[107.7325,23.4934],[107.7265,23.4836],[107.7326,23.4781],[107.7375,23.4637],[107.7343,23.4604],[107.7355,23.4528],[107.742,23.4458],[107.7471,23.4446],[107.76,23.4497],[107.7616,23.446],[107.7719,23.4423],[107.7832,23.4413],[107.7923,23.4316],[107.8015,23.439],[107.8148,23.4321],[107.8265,23.434],[107.8314,23.4311],[107.8387,23.439],[107.8488,23.4351],[107.8634,23.4438],[107.8678,23.4484],[107.8685,23.4518],[107.8925,23.4707],[107.9021,23.4806],[107.9142,23.4877],[107.9185,23.4818],[107.9282,23.4741],[107.9333,23.4742],[107.9396,23.4666],[107.9458,23.4661],[107.9528,23.4715],[107.9597,23.4697],[107.9641,23.4647],[107.9716,23.4646],[107.9809,23.4605],[107.986,23.4617],[107.9982,23.4529],[108.0096,23.4527],[108.008,23.4381],[107.9981,23.4344],[107.9978,23.424],[108.0053,23.4184],[108.016,23.4239],[108.0188,23.4202],[108.0301,23.416],[108.0354,23.4116],[108.0491,23.4055],[108.0548,23.4093],[108.0629,23.4092],[108.0674,23.4176],[108.0749,23.421],[108.0728,23.4279],[108.0753,23.4326],[108.0738,23.4407],[108.068,23.4464],[108.0682,23.4567],[108.0659,23.471],[108.0725,23.4706],[108.0813,23.4634],[108.095,23.4563],[108.1001,23.4605],[108.1112,23.4571],[108.1282,23.4565],[108.1364,23.4656],[108.1518,23.4681],[108.1589,23.4736],[108.1637,23.4818],[108.1805,23.4782],[108.1907,23.4774],[108.2031,23.4901],[108.1992,23.4954],[108.2005,23.5005],[108.2119,23.5001],[108.2221,23.5018],[108.2272,23.4986],[108.2424,23.5102],[108.2509,23.5062],[108.2504,23.5012],[108.2621,23.4993],[108.2723,23.5062],[108.2798,23.5146],[108.2906,23.5178],[108.292,23.5275],[108.3016,23.5285],[108.3054,23.5356],[108.3178,23.5397],[108.3234,23.5393],[108.3293,23.5467],[108.3425,23.5452],[108.3502,23.5402],[108.3647,23.5416],[108.3697,23.5465],[108.3869,23.5399],[108.402,23.5289]]]},"properties":{"region_code":"CN-45-4501-450124","parent_region_code":"CN-45-4501","name":"马山县","level":"county","has_children":false,"full_path":"中国 / 广西壮族自治区 / 南宁市 / 马山县","source_admin_code":"450124","osm_relation_id":2775766}},
{"type":"Feature","geometry":{"type":"Polygon","coordinates":[[[108.5886,23.2058],[108.5968,23.2055],[108.6035,23.2005],[108.6132,23.1987],[108.6294,23.2144],[108.6346,23.2166],[108.6412,23.2132],[108.6436,23.2065],[108.65,23.2014],[108.6621,23.2001],[108.6647,23.2024],[108.6766,23.2003],[108.6828,23.2133],[108.6884,23.2156],[108.6919,23.2225],[108.6871,23.2251],[108.6863,23.2349],[108.708,23.2493],[108.7079,23.2554],[108.714,23.2616],[108.7257,23.2665],[108.7235,23.285],[108.7166,23.2893],[108.7158,23.296],[108.7243,23.2999],[108.7222,23.3101],[108.7243,23.3175],[108.7315,23.322],[108.7419,23.3196],[108.7395,23.3326],[108.7427,23.3388],[108.7513,23.3397],[108.7579,23.345],[108.7677,23.3478],[108.7727,23.3432],[108.7866,23.3489],[108.7974,23.3476],[108.7972,23.3579],[108.8023,23.3564],[108.8197,23.3668],[108.8328,23.3766],[108.8314,23.3894],[108.8357,23.3945],[108.8462,23.4014],[108.8507,23.3978],[108.8601,23.4042],[108.8507,23.4154],[108.8483,23.4244],[108.8608,23.4395],[108.8649,23.4487],[108.866,23.4603],[108.861,23.4726],[108.8517,23.4701],[108.8444,23.4726],[108.8312,23.4828],[108.8332,23.4887],[108.8184,23.4965],[108.8173,23.5064],[108.8225,23.5123],[108.8223,23.5215],[108.8164,23.5267],[108.8157,23.5342],[108.8096,23.5381],[108.8096,23.5493],[108.8073,23.5587],[108.8078,23.5689],[108.8018,23.5748],[108.7997,23.5915],[108.7928,23.5956],[108.7914,23.6043],[108.7849,23.6089],[108.7787,23.6177],[108.7859,23.6287],[108.7919,23.6307],[108.7929,23.6369],[108.7762,23.6475],[108.7762,23.6578],[108.7798,23.6668],[108.7718,23.6719],[108.7728,23.6822],[108.7691,23.6885],[108.7748,23.6923],[108.785,23.6936],[108.7937,23.7102],[108.8,23.7167],[108.7836,23.7301],[108.7752,23.729],[108.7736,23.7355],[108.7833,23.7421],[108.7794,23.7451],[108.7776,23.7592],[108.7793,23.771],[108.7687,23.7809],[108.7572,23.7788],[108.744,23.7831],[108.7397,23.7987],[108.7314,23.7954],[108.7247,23.8011],[108.7104,23.7899],[108.7075,23.7853],[108.6968,23.7877],[108.6859,23.7855],[108.6838,23.7911],[108.669,23.7877],[108.6669,23.7749],[108.6608,23.772],[108.6541,23.773],[108.6485,23.7685],[108.6317,23.7708],[108.6257,23.769],[108.6245,23.7588],[108.6076,23.7539],[108.6055,23.7487],[108.5956,23.7453],[108.5915,23.7392],[108.5804,23.74],[108.5754,23.7345],[108.563,23.7262],[108.5597,23.7165],[108.562,23.7102],[108.5545,23.7065],[108.5455,23.7102],[108.5385,23.7029],[108.5373,23.6888],[108.5252,23.6829],[108.5253,23.6747],[108.5206,23.6743],[108.5157,23.6665],[108.5007,23.6723],[108.4989,23.6789],[108.4929,23.68],[108.494,23.6934],[108.4872,23.6918],[108.4838,23.6864],[108.4774,23.6839],[108.4639,23.6704],[108.4637,23.6612],[108.4592,23.6589],[108.4315,23.6636],[108.4192,23.6645],[108.4135,23.6621],[108.4034,23.6664],[108.3908,23.6484],[108.3921,23.6407],[108.3818,23.6296],[108.3844,23.6211],[108.3982,23.6156],[108.4023,23.6021],[108.3954,23.5999],[108.3841,23.5873],[108.3844,23.582],[108.3765,23.5695],[108.3795,23.5573],[108.3834,23.5502],[108.3991,23.5461],[108.404,23.5375],[108.402,23.5289],[108.4002,23.5228],[108.4047,23.5193],[108.4053,23.5114],[108.4208,23.5],[108.4216,23.4893],[108.4311,23.4784],[108.4366,23.481],[108.4426,23.4776],[108.4483,23.4801],[108.463,23.481],[108.4704,23.4739],[108.4649,23.4651],[108.4695,23.4599],[108.4678,23.453],[108.4767,23.4457],[108.4806,23.4387],[108.4963,23.4321],[108.4995,23.4264],[108.4911,23.4215],[108.4857,23.4135],[108.4861,23.3977],[108.492,23.3925],[108.4921,23.3869],[108.5028,23.3863],[108.5114,23.3799],[108.5335,23.3828],[108.5317,23.3771],[108.5343,23.3665],[108.5401,23.3562],[108.5485,23.3536],[108.5507,23.3294],[108.5576,23.3211],[108.5661,23.3262],[108.5779,23.3257],[108.5819,23.3184],[108.5849,23.3063],[108.5823,23.2966],[108.5943,23.2852],[108.5942,23.2795],[108.6007,23.2759],[108.5916,23.2635],[108.5915,23.2565],[108.5844,23.2425],[108.5781,23.2393],[108.5808,23.2198],[108.5888,23.2109],[108.5886,23.2058]]]},"properties":{"region_code":"CN-45-4501-450125","parent_region_code":"CN-45-4501","name":"上林县","level":"county","has_children":false,"full_path":"中国 / 广西壮族自治区 / 南宁市 / 上林县","source_admin_code":"450125","osm_relation_id":2775768}},
{"type":"Feature","geometry":{"type":"Polygon","coordinates":[[[108.7666,22.9997],[108.7735,22.9997],[108.7696,22.9829],[108.7764,22.9764],[108.7778,22.97],[108.7896,22.9658],[108.7956,22.9739],[108.8063,22.9754],[108.8089,22.9815],[108.8179,22.9739],[108.823,22.975],[108.8318,22.9711],[108.8306,22.9599],[108.8384,22.9575],[108.8452,22.9594],[108.8534,22.958],[108.8664,22.9758],[108.8718,22.9742],[108.8838,22.9584],[108.8798,22.9536],[108.8828,22.9473],[108.8937,22.9461],[108.8942,22.9308],[108.889,22.9297],[108.8966,22.9109],[108.9017,22.9116],[108.9088,22.9067],[108.9116,22.9107],[108.9192,22.9106],[108.9265,22.9061],[108.9334,22.9108],[108.9342,22.9152],[108.9587,22.9141],[108.952,22.9247],[108.957,22.9267],[108.9643,22.9358],[108.9638,22.9442],[108.9731,22.9419],[108.9805,22.9431],[108.9808,22.9482],[108.9897,22.9478],[108.9904,22.939],[109.0056,22.9237],[109.0193,22.9205],[109.0342,22.9316],[109.0432,22.9304],[109.0472,22.9338],[109.0608,22.9321],[109.0734,22.9326],[109.0781,22.9404],[109.0733,22.9451],[109.0737,22.9546],[109.0699,22.958],[109.074,22.9679],[109.0716,22.9732],[109.0703,22.988],[109.0778,22.9928],[109.0911,22.9868],[109.0986,22.9921],[109.1097,22.994],[109.1222,23.012],[109.1238,23.0217],[109.1315,23.0232],[109.1398,23.0352],[109.1335,23.0375],[109.1253,23.0471],[109.126,23.0542],[109.1602,23.0763],[109.1702,23.0724],[109.1847,23.0699],[109.1891,23.0827],[109.1937,23.0902],[109.1867,23.0975],[109.192,23.1088],[109.1989,23.1093],[109.2066,23.1146],[109.2178,23.1137],[109.2237,23.1224],[109.2368,23.1275],[109.245,23.137],[109.2412,23.1482],[109.2352,23.1515],[109.2383,23.1701],[109.2441,23.1809],[109.2438,23.1921],[109.2507,23.1959],[109.2558,23.2134],[109.2498,23.2167],[109.2498,23.2318],[109.2433,23.2324],[109.2334,23.2385],[109.2336,23.2509],[109.2274,23.2595],[109.2281,23.2645],[109.21,23.2727],[109.2289,23.275],[109.2336,23.2802],[109.2316,23.2877],[109.2185,23.2911],[109.2098,23.3017],[109.203,23.3021],[109.1959,23.2952],[109.1952,23.2877],[109.188,23.2853],[109.1988,23.278],[109.2011,23.2733],[109.1922,23.2693],[109.1784,23.2784],[109.1753,23.2748],[109.1613,23.286],[109.1626,23.2902],[109.1457,23.2922],[109.1388,23.2952],[109.1388,23.3037],[109.1204,23.2937],[109.1051,23.2934],[109.0921,23.3066],[109.0812,23.3204],[109.0825,23.331],[109.0889,23.3332],[109.0886,23.34],[109.0969,23.3471],[109.0795,23.3495],[109.0783,23.3437],[109.0827,23.338],[109.0738,23.3326],[109.0737,23.3291],[109.0517,23.3239],[109.0473,23.3407],[109.0497,23.348],[109.0456,23.3556],[109.0281,23.3573],[109.0216,23.3627],[109.0068,23.3693],[108.9988,23.3704],[108.9932,23.3744],[108.9742,23.3716],[108.9601,23.3649],[108.9468,23.3658],[108.9428,23.3628],[108.9341,23.3627],[108.9258,23.3726],[108.9254,23.377],[108.9172,23.3919],[108.9081,23.3975],[108.9161,23.4109],[108.9121,23.4156],[108.9156,23.4206],[108.9053,23.4342],[108.888,23.4366],[108.8878,23.4429],[108.8649,23.4487],[108.8608,23.4395],[108.8483,23.4244],[108.8507,23.4154],[108.8601,23.4042],[108.8507,23.3978],[108.8462,23.4014],[108.8357,23.3945],[108.8314,23.3894],[108.8328,23.3766],[108.8197,23.3668],[108.8023,23.3564],[108.7972,23.3579],[108.7974,23.3476],[108.7866,23.3489],[108.7727,23.3432],[108.7677,23.3478],[108.7579,23.345],[108.7513,23.3397],[108.7427,23.3388],[108.7395,23.3326],[108.7419,23.3196],[108.7315,23.322],[108.7243,23.3175],[108.7222,23.3101],[108.7243,23.2999],[108.7158,23.296],[108.7166,23.2893],[108.7235,23.285],[108.7257,23.2665],[108.714,23.2616],[108.7079,23.2554],[108.708,23.2493],[108.6863,23.2349],[108.6871,23.2251],[108.6919,23.2225],[108.6884,23.2156],[108.6828,23.2133],[108.6766,23.2003],[108.6647,23.2024],[108.6621,23.2001],[108.65,23.2014],[108.6436,23.2065],[108.6412,23.2132],[108.6346,23.2166],[108.6294,23.2144],[108.6132,23.1987],[108.6035,23.2005],[108.5968,23.2055],[108.5886,23.2058],[108.5906,23.2017],[108.581,23.197],[108.5815,23.192],[108.5732,23.1905],[108.564,23.1821],[108.564,23.1781],[108.5556,23.169],[108.5467,23.1536],[108.5443,23.1467],[108.5346,23.1386],[108.5346,23.1357],[108.5503,23.133],[108.5619,23.1263],[108.5682,23.1269],[108.5743,23.1204],[108.5863,23.1251],[108.602,23.1113],[108.607,23.116],[108.6125,23.1093],[108.6198,23.1068],[108.6443,23.1046],[108.6521,23.0986],[108.6672,23.1002],[108.6758,23.0921],[108.6891,23.0941],[108.6902,23.0997],[108.6964,23.1024],[108.6998,23.0928],[108.7052,23.0932],[108.7109,23.0864],[108.7198,23.0839],[108.7207,23.0745],[108.717,23.0676],[108.7202,23.0571],[108.7321,23.0508],[108.742,23.0373],[108.7491,23.0371],[108.7628,23.0287],[108.7647,23.017],[108.77,23.0174],[108.7738,23.009],[108.767,23.0065],[108.7666,22.9997]]]},"properties":{"region_code":"CN-45-4501-450126","parent_region_code":"CN-45-4501","name":"宾阳县","level":"county","has_children":false,"full_path":"中国 / 广西壮族自治区 / 南宁市 / 宾阳县","source_admin_code":"450126","osm_relation_id":2775761}},
{"type":"Feature","geometry":{"type":"Polygon","coordinates":[[[108.8066,22.6762],[108.7968,22.6603],[108.7938,22.6513],[108.7943,22.6442],[108.8021,22.6409],[108.809,22.6431],[108.8137,22.635],[108.8111,22.6178],[108.8144,22.6097],[108.8203,22.6046],[108.8216,22.5981],[108.8307,22.6002],[108.8399,22.5969],[108.8402,22.591],[108.8338,22.5892],[108.8457,22.5789],[108.8496,22.5813],[108.8569,22.5685],[108.8561,22.5622],[108.8436,22.5481],[108.8377,22.5442],[108.8518,22.5329],[108.8521,22.5272],[108.8687,22.5201],[108.8681,22.5142],[108.8893,22.5123],[108.9102,22.5184],[108.915,22.5149],[108.9273,22.5274],[108.9346,22.5258],[108.9411,22.5281],[108.9533,22.521],[108.9594,22.5225],[108.9639,22.534],[108.9713,22.5355],[108.9719,22.5445],[108.9765,22.5468],[108.982,22.5408],[108.9919,22.5404],[108.9926,22.534],[109.0048,22.5298],[109.0041,22.5141],[109.0188,22.5128],[109.0261,22.5091],[109.0386,22.5104],[109.0418,22.5214],[109.0638,22.5233],[109.0711,22.52],[109.0766,22.5245],[109.0805,22.518],[109.087,22.5135],[109.1182,22.5158],[109.1213,22.5197],[109.1295,22.5195],[109.1316,22.5152],[109.1429,22.5128],[109.1479,22.5189],[109.1696,22.5216],[109.169,22.5301],[109.1628,22.5298],[109.1583,22.5405],[109.1489,22.5424],[109.1513,22.5502],[109.1587,22.5565],[109.1629,22.5456],[109.1689,22.5477],[109.1767,22.5442],[109.1823,22.5488],[109.1922,22.5411],[109.1929,22.5349],[109.1871,22.5275],[109.1791,22.5235],[109.1838,22.5157],[109.2024,22.5204],[109.2238,22.518],[109.2239,22.5098],[109.2448,22.5127],[109.2592,22.4968],[109.2607,22.4871],[109.2813,22.5027],[109.2926,22.5139],[109.3,22.5108],[109.3126,22.5136],[109.3165,22.5253],[109.3088,22.5324],[109.3016,22.5347],[109.299,22.5399],[109.2886,22.544],[109.2887,22.5575],[109.2843,22.5627],[109.2877,22.5721],[109.2992,22.5761],[109.3024,22.5881],[109.3128,22.5963],[109.3173,22.5957],[109.3213,22.6112],[109.3279,22.611],[109.3464,22.6295],[109.3583,22.6296],[109.3674,22.6325],[109.3749,22.641],[109.384,22.6413],[109.3853,22.6354],[109.3921,22.6341],[109.3986,22.6285],[109.4037,22.6365],[109.4128,22.6327],[109.4229,22.6366],[109.4247,22.6337],[109.4359,22.633],[109.4319,22.6213],[109.4369,22.6128],[109.443,22.6141],[109.4444,22.6299],[109.4466,22.6337],[109.4594,22.632],[109.4714,22.6387],[109.4787,22.6471],[109.4906,22.6531],[109.5073,22.6416],[109.5131,22.6405],[109.519,22.6455],[109.5331,22.6521],[109.5442,22.6524],[109.5521,22.6592],[109.5641,22.6601],[109.5645,22.6682],[109.5732,22.6753],[109.5776,22.6827],[109.5958,22.6808],[109.5995,22.6768],[109.6072,22.6757],[109.6159,22.6797],[109.6147,22.6901],[109.5969,22.7145],[109.5897,22.7177],[109.5814,22.7144],[109.5787,22.7208],[109.5842,22.7268],[109.574,22.7386],[109.5721,22.7458],[109.577,22.7515],[109.5714,22.7579],[109.5709,22.7648],[109.5595,22.7642],[109.5512,22.7777],[109.5444,22.7763],[109.5362,22.7787],[109.5236,22.7742],[109.5103,22.7768],[109.5063,22.7804],[109.5074,22.8021],[109.5131,22.8083],[109.5102,22.8127],[109.5157,22.8177],[109.5255,22.8127],[109.531,22.8175],[109.527,22.8237],[109.5144,22.8306],[109.5017,22.8255],[109.4967,22.8265],[109.4766,22.8254],[109.4674,22.8467],[109.4611,22.8454],[109.4513,22.852],[109.4556,22.8607],[109.4498,22.8634],[109.4519,22.8708],[109.4631,22.8731],[109.4685,22.8787],[109.48,22.8808],[109.4768,22.8858],[109.4789,22.8935],[109.4455,22.905],[109.4262,22.917],[109.4138,22.9121],[109.4058,22.9173],[109.4067,22.9277],[109.3826,22.9309],[109.3699,22.942],[109.3749,22.9459],[109.3719,22.9516],[109.3574,22.9628],[109.3497,22.977],[109.3517,22.9844],[109.3447,22.9868],[109.3373,22.9977],[109.3313,23.002],[109.3138,23.0107],[109.3072,23.0176],[109.3176,23.0303],[109.332,23.0385],[109.3273,23.0432],[109.3407,23.0454],[109.3341,23.0527],[109.3395,23.0576],[109.3456,23.0673],[109.3451,23.0719],[109.3296,23.0828],[109.3297,23.0885],[109.3236,23.0906],[109.321,23.0986],[109.3131,23.0953],[109.3043,23.0947],[109.293,23.1022],[109.2832,23.1045],[109.2771,23.0999],[109.2669,23.1025],[109.2503,23.0999],[109.2454,23.1079],[109.248,23.1146],[109.2431,23.1224],[109.2487,23.1288],[109.245,23.137],[109.2368,23.1275],[109.2237,23.1224],[109.2178,23.1137],[109.2066,23.1146],[109.1989,23.1093],[109.192,23.1088],[109.1867,23.0975],[109.1937,23.0902],[109.1891,23.0827],[109.1847,23.0699],[109.1702,23.0724],[109.1602,23.0763],[109.126,23.0542],[109.1253,23.0471],[109.1335,23.0375],[109.1398,23.0352],[109.1315,23.0232],[109.1238,23.0217],[109.1222,23.012],[109.1097,22.994],[109.0986,22.9921],[109.0911,22.9868],[109.0778,22.9928],[109.0703,22.988],[109.0716,22.9732],[109.074,22.9679],[109.0699,22.958],[109.0737,22.9546],[109.0733,22.9451],[109.0781,22.9404],[109.0734,22.9326],[109.0608,22.9321],[109.0472,22.9338],[109.0432,22.9304],[109.0342,22.9316],[109.0193,22.9205],[109.0056,22.9237],[108.9904,22.939],[108.9897,22.9478],[108.9808,22.9482],[108.9805,22.9431],[108.9731,22.9419],[108.9638,22.9442],[108.9643,22.9358],[108.957,22.9267],[108.952,22.9247],[108.9587,22.9141],[108.9342,22.9152],[108.9334,22.9108],[108.9265,22.9061],[108.9192,22.9106],[108.9116,22.9107],[108.9088,22.9067],[108.9017,22.9116],[108.8966,22.9109],[108.889,22.9297],[108.8942,22.9308],[108.8937,22.9461],[108.8828,22.9473],[108.8798,22.9536],[108.8838,22.9584],[108.8718,22.9742],[108.8664,22.9758],[108.8534,22.958],[108.8452,22.9594],[108.8384,22.9575],[108.8306,22.9599],[108.8318,22.9711],[108.823,22.975],[108.8179,22.9739],[108.8149,22.9683],[108.82,22.9603],[108.8137,22.9459],[108.815,22.9333],[108.8137,22.9248],[108.8187,22.912],[108.8196,22.8956],[108.8001,22.8979],[108.7993,22.8824],[108.8025,22.8733],[108.8109,22.8596],[108.8155,22.8591],[108.8127,22.8441],[108.8058,22.8402],[108.8116,22.8321],[108.8063,22.8241],[108.8206,22.8056],[108.8157,22.7956],[108.8156,22.781],[108.8172,22.7713],[108.8236,22.7642],[108.8335,22.7596],[108.8403,22.754],[108.8408,22.7412],[108.8302,22.7324],[108.8281,22.7193],[108.818,22.7122],[108.8129,22.6899],[108.8066,22.6762]]]},"properties":{"region_code":"CN-45-4501-450181","parent_region_code":"CN-45-4501","name":"横州市","level":"county","has_children":false,"full_path":"中国 / 广西壮族自治区 / 南宁市 / 横州市","source_admin_code":"450181","osm_relation_id":2775762}}
]}