{"type":"FeatureCollection", "features": [
{"type":"Feature","geometry":{"type":"Polygon","coordinates":[[[111.5656,24.6477],[111.5763,24.6345],[111.5846,24.6321],[111.5861,24.609],[111.5825,24.6077],[111.5796,24.5926],[111.5935,24.5886],[111.5911,24.5762],[111.5972,24.5714],[111.61,24.5653],[111.6133,24.5571],[111.6225,24.5613],[111.6381,24.5637],[111.647,24.5549],[111.6427,24.5449],[111.643,24.5374],[111.6513,24.5332],[111.6582,24.5342],[111.6638,24.5288],[111.6783,24.5211],[111.6781,24.5134],[111.6704,24.5022],[111.6656,24.4988],[111.6661,24.4844],[111.6582,24.4695],[111.6529,24.474],[111.6421,24.4743],[111.6324,24.4778],[111.6215,24.4762],[111.6084,24.4817],[111.5956,24.4797],[111.5816,24.4592],[111.5742,24.4564],[111.57,24.4464],[111.5804,24.4365],[111.571,24.4253],[111.5657,24.428],[111.5608,24.4227],[111.5495,24.4218],[111.5481,24.4276],[111.5313,24.4329],[111.5286,24.4297],[111.5284,24.4167],[111.5072,24.4178],[111.5025,24.4269],[111.4933,24.4313],[111.4961,24.4164],[111.5043,24.4085],[111.5129,24.4056],[111.5212,24.4096],[111.5277,24.3975],[111.5435,24.3954],[111.5493,24.3905],[111.559,24.3911],[111.5641,24.3986],[111.5779,24.3912],[111.5924,24.3967],[111.5931,24.3879],[111.5892,24.3802],[111.5825,24.3734],[111.5887,24.3632],[111.5888,24.3563],[111.5951,24.3521],[111.6082,24.3593],[111.6165,24.3567],[111.6083,24.3462],[111.6025,24.3356],[111.6087,24.3315],[111.6104,24.3207],[111.6035,24.3159],[111.5899,24.316],[111.5927,24.308],[111.5856,24.3017],[111.5846,24.2913],[111.5804,24.2823],[111.5844,24.2758],[111.5813,24.2684],[111.5874,24.2615],[111.5916,24.2516],[111.5817,24.2338],[111.5917,24.2281],[111.5997,24.2108],[111.5907,24.2073],[111.5829,24.1977],[111.5731,24.1997],[111.5694,24.2058],[111.5544,24.1919],[111.5535,24.1853],[111.5444,24.1866],[111.5375,24.1786],[111.5276,24.1885],[111.5195,24.1845],[111.509,24.1719],[111.5146,24.1627],[111.5217,24.1628],[111.5247,24.1548],[111.535,24.1528],[111.5425,24.1438],[111.555,24.142],[111.5649,24.1476],[111.5711,24.1446],[111.573,24.1355],[111.5665,24.1268],[111.5739,24.1168],[111.568,24.1133],[111.567,24.1073],[111.5836,24.0973],[111.5735,24.0878],[111.5658,24.077],[111.5614,24.0758],[111.5502,24.0635],[111.5392,24.0605],[111.5364,24.0525],[111.5309,24.0503],[111.5292,24.0443],[111.5375,24.0308],[111.54,24.0221],[111.5388,24.0144],[111.5433,24.0076],[111.5399,24.002],[111.556,23.9963],[111.5598,24.0017],[111.5719,24.0036],[111.5819,23.9949],[111.597,23.9877],[111.5989,23.9832],[111.5928,23.9775],[111.6191,23.9716],[111.6303,23.9632],[111.6476,23.9387],[111.6505,23.9281],[111.6426,23.9127],[111.6453,23.9081],[111.6484,23.8928],[111.6559,23.8782],[111.6461,23.8639],[111.6499,23.8539],[111.6505,23.8388],[111.6593,23.8377],[111.6713,23.8274],[111.6883,23.82],[111.691,23.8274],[111.6918,23.8386],[111.6996,23.841],[111.7093,23.8399],[111.7097,23.8357],[111.7187,23.8265],[111.7362,23.8224],[111.7407,23.8234],[111.7471,23.8154],[111.7606,23.8176],[111.7697,23.8108],[111.7798,23.8105],[111.791,23.8184],[111.7984,23.8168],[111.8039,23.812],[111.8102,23.8322],[111.8196,23.8351],[111.8194,23.8516],[111.8146,23.854],[111.8186,23.8745],[111.8117,23.8778],[111.8074,23.8903],[111.8174,23.9064],[111.8177,23.914],[111.8337,23.9141],[111.8407,23.9072],[111.8525,23.9211],[111.8519,23.9301],[111.8459,23.9405],[111.8516,23.9512],[111.861,23.9492],[111.864,23.9432],[111.8742,23.9406],[111.8816,23.9472],[111.8924,23.9495],[111.9069,23.9468],[111.9051,23.9551],[111.9125,23.9552],[111.9298,23.9819],[111.9371,23.9855],[111.9353,23.9907],[111.9279,23.997],[111.9267,24.0019],[111.9164,24.0149],[111.9172,24.0233],[111.9159,24.0403],[111.9134,24.0449],[111.9007,24.0498],[111.8922,24.0683],[111.8919,24.0725],[111.8824,24.0835],[111.8852,24.0896],[111.8784,24.0985],[111.8736,24.113],[111.8737,24.1298],[111.8773,24.1387],[111.8842,24.1655],[111.8806,24.1668],[111.8664,24.1784],[111.8702,24.1938],[111.8694,24.2029],[111.8728,24.2319],[111.8774,24.233],[111.8884,24.2272],[111.9008,24.225],[111.9108,24.2257],[111.9157,24.2365],[111.9274,24.2387],[111.9342,24.2335],[111.9376,24.2378],[111.9356,24.2482],[111.9423,24.2494],[111.9475,24.2545],[111.9509,24.2633],[111.9572,24.2676],[111.9638,24.2666],[111.9689,24.2594],[111.9739,24.258],[111.9828,24.2619],[111.9856,24.2724],[111.9845,24.281],[111.9978,24.2845],[112.0106,24.2968],[112.0208,24.2979],[112.0254,24.3043],[112.024,24.3091],[112.0279,24.3161],[112.0398,24.3235],[112.0451,24.3353],[112.0542,24.3438],[112.0564,24.3709],[112.0523,24.3898],[112.0382,24.3955],[112.0347,24.4022],[112.0367,24.413],[112.0251,24.4328],[112.0192,24.4369],[112.0178,24.4444],[112.0052,24.4506],[111.9945,24.4534],[111.9913,24.4622],[111.9814,24.4674],[111.9835,24.4754],[111.9823,24.4852],[111.9911,24.4978],[111.9968,24.4987],[112.0044,24.5057],[111.9999,24.515],[112.0021,24.5252],[112.0021,24.5374],[111.9925,24.5541],[111.9835,24.556],[111.973,24.5643],[111.9741,24.5687],[111.9668,24.5816],[111.9582,24.5839],[111.9491,24.5898],[111.9467,24.5945],[111.932,24.5989],[111.9333,24.6126],[111.9223,24.6325],[111.9294,24.6455],[111.9379,24.6455],[111.9478,24.6502],[111.9421,24.6629],[111.9416,24.6692],[111.935,24.6706],[111.9394,24.6799],[111.935,24.6855],[111.937,24.6928],[111.9459,24.6972],[111.9529,24.7164],[111.9571,24.7247],[111.9677,24.731],[111.9788,24.731],[111.9942,24.7366],[112.005,24.7333],[112.0179,24.7434],[112.0104,24.7478],[111.9999,24.7589],[111.98,24.7673],[111.9721,24.7657],[111.9628,24.7683],[111.9592,24.7754],[111.9432,24.7754],[111.9408,24.7666],[111.9248,24.7634],[111.9155,24.7704],[111.8908,24.7717],[111.8774,24.7603],[111.869,24.7672],[111.863,24.7816],[111.8539,24.7785],[111.8421,24.7831],[111.8328,24.7842],[111.818,24.7795],[111.8036,24.7782],[111.795,24.783],[111.7777,24.7897],[111.765,24.7892],[111.7591,24.7832],[111.7448,24.7774],[111.7322,24.7761],[111.706,24.7823],[111.6998,24.7863],[111.6964,24.7798],[111.6835,24.7824],[111.6769,24.7782],[111.6603,24.7637],[111.6468,24.7429],[111.6366,24.7327],[111.6324,24.7195],[111.6387,24.6995],[111.6351,24.6898],[111.6247,24.6909],[111.6128,24.6866],[111.5941,24.6969],[111.5832,24.6937],[111.5767,24.6831],[111.5684,24.6602],[111.5656,24.6477]]]},"properties":{"region_code":"CN-45-4511-451102","parent_region_code":"CN-45-4511","name":"八步区","level":"county","has_children":false,"full_path":"中国 / 广西壮族自治区 / 贺州市 / 八步区","source_admin_code":"451102","osm_relation_id":2096529}},
{"type":"Feature","geometry":{"type":"Polygon","coordinates":[[[111.5656,24.6477],[111.5545,24.6429],[111.549,24.6502],[111.542,24.6528],[111.5331,24.6472],[111.5308,24.6406],[111.5229,24.6402],[111.5134,24.6488],[111.5084,24.6595],[111.5,24.6652],[111.4986,24.6693],[111.4896,24.6668],[111.4841,24.6686],[111.4716,24.6663],[111.4679,24.6574],[111.4528,24.6504],[111.441,24.6398],[111.4307,24.639],[111.419,24.6455],[111.414,24.6301],[111.3958,24.6257],[111.3834,24.6288],[111.3793,24.6269],[111.3713,24.6314],[111.3607,24.6537],[111.3498,24.6573],[111.3415,24.6524],[111.331,24.6563],[111.3305,24.6473],[111.3288,24.6358],[111.3315,24.6181],[111.3286,24.6101],[111.3314,24.6015],[111.342,24.5966],[111.347,24.5828],[111.3409,24.5735],[111.3277,24.5667],[111.3271,24.5581],[111.3326,24.5497],[111.3378,24.5371],[111.3496,24.5325],[111.3549,24.535],[111.3626,24.5249],[111.3563,24.5123],[111.3517,24.5103],[111.343,24.5144],[111.3373,24.509],[111.3402,24.4968],[111.327,24.4905],[111.3245,24.4759],[111.3283,24.468],[111.345,24.4644],[111.3467,24.4584],[111.3572,24.4582],[111.358,24.4542],[111.3511,24.4428],[111.361,24.4365],[111.3923,24.4237],[111.4029,24.4178],[111.4113,24.4178],[111.4212,24.4099],[111.4281,24.4085],[111.4307,24.4031],[111.4264,24.3935],[111.4287,24.3891],[111.4219,24.375],[111.4237,24.3605],[111.421,24.3548],[111.4126,24.3481],[111.4107,24.3389],[111.4116,24.3259],[111.4046,24.3267],[111.4054,24.3194],[111.3966,24.313],[111.3947,24.3024],[111.3847,24.2968],[111.3776,24.2961],[111.3726,24.2911],[111.3548,24.2885],[111.35,24.2904],[111.3461,24.3023],[111.338,24.2983],[111.3308,24.2987],[111.3247,24.3082],[111.324,24.319],[111.3157,24.3233],[111.3083,24.3179],[111.3119,24.3076],[111.3059,24.2976],[111.3062,24.2879],[111.312,24.2828],[111.3221,24.2675],[111.3167,24.2649],[111.3103,24.2488],[111.3119,24.2352],[111.2909,24.2134],[111.2785,24.2058],[111.2777,24.199],[111.2894,24.1808],[111.294,24.1818],[111.305,24.177],[111.3049,24.1652],[111.309,24.1552],[111.3033,24.1328],[111.304,24.1278],[111.2981,24.1141],[111.3013,24.1069],[111.2994,24.1023],[111.2896,24.0975],[111.269,24.1012],[111.2629,24.0831],[111.2649,24.0788],[111.2589,24.066],[111.25,24.058],[111.2484,24.0508],[111.251,24.0462],[111.2464,24.0373],[111.2407,24.0329],[111.2357,24.023],[111.2309,24.0087],[111.231,24.0027],[111.2379,23.9971],[111.2376,23.9797],[111.2295,23.9732],[111.2273,23.9674],[111.2202,23.9631],[111.212,23.9628],[111.2025,23.9461],[111.2109,23.9315],[111.2227,23.9214],[111.2214,23.9114],[111.2304,23.9056],[111.2291,23.9003],[111.2387,23.8913],[111.2487,23.8891],[111.2571,23.8932],[111.2683,23.8866],[111.2838,23.8874],[111.2887,23.8809],[111.295,23.88],[111.2955,23.8707],[111.3034,23.8714],[111.3081,23.8675],[111.3238,23.8657],[111.3338,23.8711],[111.3364,23.8755],[111.3615,23.8733],[111.3557,23.8878],[111.3559,23.8918],[111.3654,23.8979],[111.3736,23.8989],[111.3834,23.9052],[111.3986,23.9265],[111.4015,23.9356],[111.4106,23.9436],[111.4106,23.9549],[111.4054,23.9572],[111.4085,23.9682],[111.4021,23.976],[111.3996,23.9855],[111.3948,23.9904],[111.3978,23.9979],[111.3944,24.0086],[111.3907,24.0128],[111.3892,24.023],[111.3969,24.0316],[111.4012,24.045],[111.4059,24.052],[111.3997,24.0558],[111.3971,24.0769],[111.4033,24.08],[111.4152,24.0778],[111.4254,24.0817],[111.4317,24.0883],[111.4398,24.0876],[111.4411,24.0937],[111.453,24.0876],[111.4629,24.0878],[111.4698,24.0918],[111.48,24.104],[111.4721,24.1171],[111.4762,24.1218],[111.4804,24.1331],[111.495,24.1322],[111.4949,24.1411],[111.4866,24.142],[111.4864,24.1558],[111.4942,24.1661],[111.509,24.1719],[111.5195,24.1845],[111.5276,24.1885],[111.5375,24.1786],[111.5444,24.1866],[111.5535,24.1853],[111.5544,24.1919],[111.5694,24.2058],[111.5731,24.1997],[111.5829,24.1977],[111.5907,24.2073],[111.5997,24.2108],[111.5917,24.2281],[111.5817,24.2338],[111.5916,24.2516],[111.5874,24.2615],[111.5813,24.2684],[111.5844,24.2758],[111.5804,24.2823],[111.5846,24.2913],[111.5856,24.3017],[111.5927,24.308],[111.5899,24.316],[111.6035,24.3159],[111.6104,24.3207],[111.6087,24.3315],[111.6025,24.3356],[111.6083,24.3462],[111.6165,24.3567],[111.6082,24.3593],[111.5951,24.3521],[111.5888,24.3563],[111.5887,24.3632],[111.5825,24.3734],[111.5892,24.3802],[111.5931,24.3879],[111.5924,24.3967],[111.5779,24.3912],[111.5641,24.3986],[111.559,24.3911],[111.5493,24.3905],[111.5435,24.3954],[111.5277,24.3975],[111.5212,24.4096],[111.5129,24.4056],[111.5043,24.4085],[111.4961,24.4164],[111.4933,24.4313],[111.5025,24.4269],[111.5072,24.4178],[111.5284,24.4167],[111.5286,24.4297],[111.5313,24.4329],[111.5481,24.4276],[111.5495,24.4218],[111.5608,24.4227],[111.5657,24.428],[111.571,24.4253],[111.5804,24.4365],[111.57,24.4464],[111.5742,24.4564],[111.5816,24.4592],[111.5956,24.4797],[111.6084,24.4817],[111.6215,24.4762],[111.6324,24.4778],[111.6421,24.4743],[111.6529,24.474],[111.6582,24.4695],[111.6661,24.4844],[111.6656,24.4988],[111.6704,24.5022],[111.6781,24.5134],[111.6783,24.5211],[111.6638,24.5288],[111.6582,24.5342],[111.6513,24.5332],[111.643,24.5374],[111.6427,24.5449],[111.647,24.5549],[111.6381,24.5637],[111.6225,24.5613],[111.6133,24.5571],[111.61,24.5653],[111.5972,24.5714],[111.5911,24.5762],[111.5935,24.5886],[111.5796,24.5926],[111.5825,24.6077],[111.5861,24.609],[111.5846,24.6321],[111.5763,24.6345],[111.5656,24.6477]]]},"properties":{"region_code":"CN-45-4511-451103","parent_region_code":"CN-45-4511","name":"平桂区","level":"county","has_children":false,"full_path":"中国 / 广西壮族自治区 / 贺州市 / 平桂区","source_admin_code":"451103","osm_relation_id":11578047}},
{"type":"Feature","geometry":{"type":"Polygon","coordinates":[[[111.3083,24.3179],[111.2989,24.312],[111.2839,24.3091],[111.279,24.3155],[111.2804,24.3197],[111.2738,24.3251],[111.2577,24.3217],[111.2556,24.3316],[111.2491,24.3295],[111.2256,24.3294],[111.2228,24.3265],[111.213,24.3416],[111.2057,24.348],[111.1865,24.3448],[111.1767,24.3471],[111.1704,24.3416],[111.1582,24.3442],[111.1419,24.3291],[111.1247,24.3295],[111.1253,24.3098],[111.1012,24.3078],[111.096,24.311],[111.096,24.3263],[111.0939,24.3343],[111.0971,24.3414],[111.0775,24.3398],[111.0594,24.3408],[111.0579,24.3337],[111.0506,24.3292],[111.0345,24.334],[111.0261,24.3327],[111.0195,24.3348],[111.0073,24.3321],[111.0029,24.3174],[110.9961,24.3126],[110.9882,24.312],[110.982,24.3082],[110.9723,24.2973],[110.9552,24.3017],[110.9523,24.3116],[110.9549,24.3185],[110.9473,24.3332],[110.9388,24.3395],[110.9264,24.3224],[110.9287,24.3127],[110.9144,24.3123],[110.9145,24.3013],[110.9065,24.3007],[110.9049,24.2895],[110.9008,24.2862],[110.8939,24.2743],[110.8818,24.2628],[110.8775,24.268],[110.875,24.2781],[110.8768,24.2945],[110.8708,24.2991],[110.8702,24.3105],[110.8734,24.3162],[110.8658,24.3224],[110.8564,24.3262],[110.8528,24.3312],[110.856,24.3368],[110.8566,24.3493],[110.8528,24.3541],[110.8551,24.3655],[110.8527,24.3714],[110.8516,24.3856],[110.845,24.394],[110.8366,24.3974],[110.8315,24.3934],[110.8238,24.3932],[110.8124,24.3869],[110.8082,24.3872],[110.7931,24.3636],[110.7853,24.3579],[110.7853,24.3486],[110.7908,24.3398],[110.7897,24.3347],[110.7945,24.3251],[110.7798,24.3172],[110.7674,24.3194],[110.7606,24.3256],[110.7581,24.3327],[110.7389,24.3318],[110.7345,24.3262],[110.7228,24.3299],[110.7121,24.3378],[110.6985,24.3442],[110.68,24.3451],[110.6706,24.3548],[110.6531,24.3596],[110.6447,24.3671],[110.6381,24.3764],[110.6348,24.3882],[110.6289,24.3935],[110.6111,24.401],[110.6062,24.3974],[110.5888,24.4003],[110.5824,24.3818],[110.5834,24.3762],[110.5771,24.3669],[110.5673,24.3631],[110.5695,24.3555],[110.5763,24.3508],[110.5762,24.3412],[110.5731,24.3373],[110.5725,24.325],[110.5864,24.3232],[110.5979,24.3275],[110.6152,24.323],[110.62,24.3136],[110.6099,24.3069],[110.6094,24.2968],[110.6056,24.2903],[110.597,24.2644],[110.6092,24.2522],[110.6141,24.2536],[110.6219,24.249],[110.6167,24.2447],[110.6197,24.2373],[110.6252,24.2338],[110.6257,24.2254],[110.6341,24.2258],[110.6445,24.2206],[110.6502,24.2213],[110.6711,24.2167],[110.6749,24.2049],[110.6881,24.1881],[110.7016,24.1888],[110.7043,24.1834],[110.715,24.1795],[110.7195,24.1724],[110.7117,24.1655],[110.7124,24.1602],[110.704,24.1449],[110.6903,24.135],[110.6931,24.1283],[110.6854,24.1259],[110.6825,24.1202],[110.6906,24.1043],[110.6821,24.0854],[110.6836,24.0783],[110.6787,24.0711],[110.6697,24.0638],[110.6758,24.0558],[110.6812,24.0532],[110.691,24.0408],[110.6983,24.0341],[110.7159,24.0287],[110.7211,24.0248],[110.7405,24.0228],[110.7471,24.0153],[110.7313,24.006],[110.7236,23.9914],[110.7248,23.9865],[110.7207,23.9788],[110.7138,23.9576],[110.7209,23.9483],[110.7291,23.9541],[110.7531,23.9503],[110.759,23.9524],[110.7675,23.9502],[110.7757,23.9515],[110.7832,23.9476],[110.7887,23.9364],[110.8096,23.9204],[110.8179,23.908],[110.8252,23.905],[110.8297,23.8984],[110.8367,23.896],[110.8529,23.8968],[110.8554,23.8849],[110.8626,23.8804],[110.8684,23.8677],[110.8575,23.8539],[110.8458,23.8462],[110.8331,23.84],[110.8319,23.836],[110.8455,23.832],[110.8443,23.8212],[110.8534,23.8079],[110.8636,23.8108],[110.8665,23.8145],[110.8773,23.8179],[110.8852,23.8169],[110.8892,23.8091],[110.8906,23.792],[110.8855,23.7802],[110.8729,23.7737],[110.8711,23.7663],[110.8765,23.7609],[110.8859,23.7562],[110.8945,23.7471],[110.8939,23.7355],[110.8889,23.7311],[110.887,23.72],[110.8886,23.705],[110.9007,23.6873],[110.9094,23.688],[110.9173,23.6755],[110.9176,23.6664],[110.9261,23.6624],[110.9294,23.6677],[110.9439,23.6719],[110.9486,23.6674],[110.947,23.6567],[110.9577,23.6561],[110.9616,23.661],[110.9637,23.6736],[110.9579,23.6866],[110.9521,23.6951],[110.9551,23.702],[110.9497,23.7129],[110.9535,23.7266],[110.9784,23.7312],[110.9713,23.736],[110.9763,23.7549],[110.9744,23.766],[110.9815,23.7726],[110.9924,23.7665],[110.9966,23.7616],[111.0038,23.7597],[111.011,23.7629],[111.015,23.7739],[111.02,23.7781],[111.0222,23.7855],[111.0121,23.7892],[111.0094,23.7997],[111.0126,23.8076],[111.0106,23.8178],[111.021,23.8167],[111.0235,23.8122],[111.0316,23.8085],[111.0494,23.8182],[111.0538,23.8316],[111.0778,23.8304],[111.0851,23.8379],[111.092,23.8501],[111.0952,23.8662],[111.1007,23.8697],[111.1002,23.8841],[111.1084,23.8885],[111.1212,23.8911],[111.141,23.9171],[111.1418,23.9214],[111.1498,23.9312],[111.153,23.9451],[111.1645,23.9509],[111.1753,23.9467],[111.1879,23.9481],[111.2025,23.9461],[111.212,23.9628],[111.2202,23.9631],[111.2273,23.9674],[111.2295,23.9732],[111.2376,23.9797],[111.2379,23.9971],[111.231,24.0027],[111.2309,24.0087],[111.2357,24.023],[111.2407,24.0329],[111.2464,24.0373],[111.251,24.0462],[111.2484,24.0508],[111.25,24.058],[111.2589,24.066],[111.2649,24.0788],[111.2629,24.0831],[111.269,24.1012],[111.2896,24.0975],[111.2994,24.1023],[111.3013,24.1069],[111.2981,24.1141],[111.304,24.1278],[111.3033,24.1328],[111.309,24.1552],[111.3049,24.1652],[111.305,24.177],[111.294,24.1818],[111.2894,24.1808],[111.2777,24.199],[111.2785,24.2058],[111.2909,24.2134],[111.3119,24.2352],[111.3103,24.2488],[111.3167,24.2649],[111.3221,24.2675],[111.312,24.2828],[111.3062,24.2879],[111.3059,24.2976],[111.3119,24.3076],[111.3083,24.3179]]]},"properties":{"region_code":"CN-45-4511-451121","parent_region_code":"CN-45-4511","name":"昭平县","level":"county","has_children":false,"full_path":"中国 / 广西壮族自治区 / 贺州市 / 昭平县","source_admin_code":"451121","osm_relation_id":2773739}},
{"type":"Feature","geometry":{"type":"Polygon","coordinates":[[[111.3305,24.6473],[111.323,24.6506],[111.317,24.6464],[111.3096,24.6507],[111.3022,24.6514],[111.2965,24.6596],[111.2893,24.6587],[111.282,24.6472],[111.2697,24.6462],[111.2638,24.65],[111.2557,24.6502],[111.2435,24.654],[111.2363,24.6594],[111.2407,24.6723],[111.2351,24.6781],[111.2287,24.6793],[111.2234,24.6864],[111.2217,24.6955],[111.2116,24.6941],[111.2113,24.7026],[111.2054,24.7087],[111.2024,24.7168],[111.1861,24.7181],[111.1782,24.7287],[111.1772,24.7409],[111.1718,24.7509],[111.1757,24.7563],[111.1771,24.77],[111.1709,24.7732],[111.1654,24.7724],[111.1515,24.7771],[111.1463,24.7647],[111.1342,24.7492],[111.1314,24.7405],[111.126,24.7329],[111.109,24.7351],[111.099,24.7319],[111.099,24.7238],[111.1035,24.7122],[111.102,24.7089],[111.0903,24.7078],[111.0851,24.7106],[111.0782,24.6974],[111.0726,24.6956],[111.0702,24.6876],[111.0597,24.6789],[111.0481,24.6752],[111.0389,24.6801],[111.0233,24.676],[111.0187,24.669],[111.0201,24.6584],[111.0146,24.6573],[111.0118,24.6447],[110.9992,24.6331],[110.9866,24.6322],[110.9879,24.6172],[111.0031,24.6134],[111.0055,24.6104],[110.9978,24.6011],[110.9921,24.5998],[110.9862,24.5915],[110.9789,24.5869],[110.9793,24.5814],[110.9891,24.5666],[110.9899,24.5604],[111.007,24.5561],[111.0136,24.5515],[111.0111,24.5418],[111.0145,24.5272],[111.0266,24.52],[111.0372,24.5086],[111.0443,24.4954],[111.0344,24.4927],[111.0241,24.4861],[111.0331,24.479],[111.0356,24.47],[111.0339,24.4632],[111.037,24.4546],[111.0299,24.4547],[111.0228,24.4509],[111.0191,24.4536],[111.0126,24.4482],[111.0194,24.4261],[111.0007,24.4043],[110.9947,24.4024],[110.988,24.3789],[110.9776,24.3737],[110.9636,24.3795],[110.957,24.3756],[110.9675,24.3644],[110.98,24.3628],[110.9839,24.3587],[111.0011,24.3561],[111.0122,24.3567],[111.021,24.3491],[111.0187,24.3447],[111.0195,24.3348],[111.0261,24.3327],[111.0345,24.334],[111.0506,24.3292],[111.0579,24.3337],[111.0594,24.3408],[111.0775,24.3398],[111.0971,24.3414],[111.0939,24.3343],[111.096,24.3263],[111.096,24.311],[111.1012,24.3078],[111.1253,24.3098],[111.1247,24.3295],[111.1419,24.3291],[111.1582,24.3442],[111.1704,24.3416],[111.1767,24.3471],[111.1865,24.3448],[111.2057,24.348],[111.213,24.3416],[111.2228,24.3265],[111.2256,24.3294],[111.2491,24.3295],[111.2556,24.3316],[111.2577,24.3217],[111.2738,24.3251],[111.2804,24.3197],[111.279,24.3155],[111.2839,24.3091],[111.2989,24.312],[111.3083,24.3179],[111.3157,24.3233],[111.324,24.319],[111.3247,24.3082],[111.3308,24.2987],[111.338,24.2983],[111.3461,24.3023],[111.35,24.2904],[111.3548,24.2885],[111.3726,24.2911],[111.3776,24.2961],[111.3847,24.2968],[111.3947,24.3024],[111.3966,24.313],[111.4054,24.3194],[111.4046,24.3267],[111.4116,24.3259],[111.4107,24.3389],[111.4126,24.3481],[111.421,24.3548],[111.4237,24.3605],[111.4219,24.375],[111.4287,24.3891],[111.4264,24.3935],[111.4307,24.4031],[111.4281,24.4085],[111.4212,24.4099],[111.4113,24.4178],[111.4029,24.4178],[111.3923,24.4237],[111.361,24.4365],[111.3511,24.4428],[111.358,24.4542],[111.3572,24.4582],[111.3467,24.4584],[111.345,24.4644],[111.3283,24.468],[111.3245,24.4759],[111.327,24.4905],[111.3402,24.4968],[111.3373,24.509],[111.343,24.5144],[111.3517,24.5103],[111.3563,24.5123],[111.3626,24.5249],[111.3549,24.535],[111.3496,24.5325],[111.3378,24.5371],[111.3326,24.5497],[111.3271,24.5581],[111.3277,24.5667],[111.3409,24.5735],[111.347,24.5828],[111.342,24.5966],[111.3314,24.6015],[111.3286,24.6101],[111.3315,24.6181],[111.3288,24.6358],[111.3305,24.6473]]]},"properties":{"region_code":"CN-45-4511-451122","parent_region_code":"CN-45-4511","name":"钟山县","level":"county","has_children":false,"full_path":"中国 / 广西壮族自治区 / 贺州市 / 钟山县","source_admin_code":"451122","osm_relation_id":2773740}},
{"type":"Feature","geometry":{"type":"Polygon","coordinates":[[[111.4986,24.6693],[111.4812,24.6756],[111.4663,24.6779],[111.4621,24.6693],[111.4468,24.6682],[111.4477,24.6758],[111.4419,24.6864],[111.4324,24.6839],[111.4271,24.6869],[111.4286,24.6965],[111.4445,24.7165],[111.4485,24.7293],[111.4566,24.7326],[111.4595,24.7392],[111.4555,24.7527],[111.4668,24.7704],[111.4809,24.8026],[111.4723,24.8275],[111.45,24.8522],[111.4499,24.8649],[111.4543,24.8752],[111.4517,24.8801],[111.4606,24.889],[111.4535,24.894],[111.446,24.9033],[111.4537,24.9089],[111.45,24.9165],[111.4556,24.9211],[111.4558,24.9294],[111.4614,24.9349],[111.4561,24.9462],[111.4411,24.9538],[111.4287,24.97],[111.4334,24.983],[111.4425,24.9968],[111.4551,24.9964],[111.4683,25.0211],[111.4633,25.0248],[111.4643,25.0329],[111.4584,25.0376],[111.4457,25.0339],[111.4308,25.0344],[111.4246,25.0397],[111.4192,25.0387],[111.413,25.0435],[111.4144,25.0527],[111.4188,25.0608],[111.4199,25.0765],[111.4184,25.0875],[111.423,25.0926],[111.4241,25.1067],[111.4131,25.105],[111.3997,25.1125],[111.398,25.1221],[111.3999,25.1298],[111.3817,25.1319],[111.3802,25.1256],[111.3682,25.121],[111.3685,25.1142],[111.3583,25.1095],[111.354,25.1044],[111.3439,25.1058],[111.3343,25.1025],[111.3167,25.107],[111.3029,25.1197],[111.2941,25.122],[111.2886,25.1263],[111.2818,25.1412],[111.2836,25.1468],[111.274,25.1505],[111.2617,25.1488],[111.2614,25.1447],[111.2531,25.1307],[111.2411,25.1292],[111.2249,25.1202],[111.2212,25.1087],[111.2091,25.0978],[111.2013,25.088],[111.1975,25.0742],[111.1692,25.0665],[111.1595,25.0597],[111.1446,25.053],[111.1388,25.0449],[111.1277,25.0441],[111.1112,25.0457],[111.0976,25.0324],[111.1047,25.0147],[111.0996,25.0089],[111.1039,24.9886],[111.0956,24.9848],[111.0916,24.9797],[111.0939,24.9684],[111.0948,24.949],[111.0904,24.9423],[111.1019,24.9189],[111.1094,24.9127],[111.1122,24.9019],[111.1215,24.8972],[111.1361,24.8998],[111.146,24.9077],[111.1631,24.9017],[111.1719,24.8818],[111.1686,24.8647],[111.1648,24.8526],[111.1613,24.8511],[111.1563,24.8308],[111.1582,24.824],[111.1665,24.817],[111.17,24.8005],[111.1676,24.7878],[111.1719,24.7771],[111.1709,24.7732],[111.1771,24.77],[111.1757,24.7563],[111.1718,24.7509],[111.1772,24.7409],[111.1782,24.7287],[111.1861,24.7181],[111.2024,24.7168],[111.2054,24.7087],[111.2113,24.7026],[111.2116,24.6941],[111.2217,24.6955],[111.2234,24.6864],[111.2287,24.6793],[111.2351,24.6781],[111.2407,24.6723],[111.2363,24.6594],[111.2435,24.654],[111.2557,24.6502],[111.2638,24.65],[111.2697,24.6462],[111.282,24.6472],[111.2893,24.6587],[111.2965,24.6596],[111.3022,24.6514],[111.3096,24.6507],[111.317,24.6464],[111.323,24.6506],[111.3305,24.6473],[111.331,24.6563],[111.3415,24.6524],[111.3498,24.6573],[111.3607,24.6537],[111.3713,24.6314],[111.3793,24.6269],[111.3834,24.6288],[111.3958,24.6257],[111.414,24.6301],[111.419,24.6455],[111.4307,24.639],[111.441,24.6398],[111.4528,24.6504],[111.4679,24.6574],[111.4716,24.6663],[111.4841,24.6686],[111.4896,24.6668],[111.4986,24.6693]]]},"properties":{"region_code":"CN-45-4511-451123","parent_region_code":"CN-45-4511","name":"富川瑶族自治县","level":"county","has_children":false,"full_path":"中国 / 广西壮族自治区 / 贺州市 / 富川瑶族自治县","source_admin_code":"451123","osm_relation_id":2773738}}
]}