{"type":"FeatureCollection", "features": [
{"type":"Feature","geometry":{"type":"Polygon","coordinates":[[[109.9959,22.6365],[109.9936,22.6329],[109.998,22.62],[110.003,22.6238],[110.0105,22.6238],[110.0135,22.6202],[110.0227,22.6229],[110.0448,22.6225],[110.0527,22.6259],[110.0581,22.6202],[110.0643,22.6175],[110.0794,22.62],[110.0858,22.6236],[110.0907,22.6144],[110.0917,22.6037],[110.0996,22.5956],[110.095,22.5883],[110.0982,22.5794],[110.1065,22.5725],[110.1095,22.5634],[110.1134,22.5615],[110.119,22.5693],[110.1281,22.5683],[110.1325,22.5744],[110.1386,22.5716],[110.1482,22.5579],[110.1531,22.543],[110.1563,22.5433],[110.1657,22.5358],[110.1694,22.5361],[110.1787,22.5432],[110.1848,22.5452],[110.1828,22.5503],[110.1763,22.5491],[110.1714,22.5616],[110.175,22.5671],[110.1857,22.574],[110.1872,22.5792],[110.1861,22.5886],[110.1897,22.5907],[110.202,22.5896],[110.2073,22.5919],[110.2069,22.5968],[110.2136,22.5963],[110.2173,22.5912],[110.2279,22.5897],[110.2292,22.5848],[110.2364,22.5912],[110.232,22.5989],[110.2365,22.6043],[110.2437,22.6022],[110.2514,22.6027],[110.2502,22.6082],[110.2535,22.6127],[110.2524,22.6218],[110.2577,22.6239],[110.2518,22.6309],[110.2569,22.6331],[110.2731,22.6251],[110.2752,22.6197],[110.2797,22.617],[110.2843,22.6189],[110.2922,22.6267],[110.2938,22.6329],[110.2975,22.6363],[110.3024,22.6343],[110.304,22.6475],[110.3066,22.651],[110.3045,22.6557],[110.2985,22.6566],[110.3004,22.6641],[110.3054,22.6702],[110.3106,22.6715],[110.3155,22.6796],[110.3057,22.6835],[110.3022,22.6816],[110.2937,22.689],[110.2964,22.6982],[110.2891,22.7042],[110.2835,22.7011],[110.2762,22.7065],[110.2716,22.7017],[110.2684,22.691],[110.2612,22.6917],[110.2521,22.686],[110.2482,22.689],[110.2517,22.6931],[110.2495,22.6981],[110.2423,22.6982],[110.2396,22.7067],[110.2347,22.7065],[110.2291,22.7126],[110.2223,22.7124],[110.222,22.7184],[110.2182,22.7206],[110.2097,22.7189],[110.2011,22.7211],[110.1895,22.7161],[110.1832,22.7201],[110.1696,22.7146],[110.1637,22.7065],[110.1681,22.7021],[110.1602,22.7004],[110.156,22.7075],[110.1494,22.7104],[110.1488,22.7169],[110.1512,22.7225],[110.144,22.7337],[110.1381,22.7375],[110.1384,22.7417],[110.1319,22.7447],[110.1343,22.7498],[110.1317,22.7548],[110.1376,22.761],[110.1392,22.7703],[110.1458,22.7744],[110.1493,22.7867],[110.1473,22.792],[110.1403,22.7971],[110.1429,22.8021],[110.1356,22.8131],[110.1384,22.8137],[110.1425,22.8063],[110.1455,22.8088],[110.1453,22.8187],[110.14,22.8198],[110.1317,22.8174],[110.1227,22.8175],[110.1253,22.8131],[110.113,22.8084],[110.1146,22.8042],[110.1116,22.7943],[110.1063,22.7874],[110.1078,22.7711],[110.1061,22.7672],[110.1074,22.7551],[110.1016,22.7601],[110.0898,22.7558],[110.0867,22.7516],[110.0798,22.7493],[110.0702,22.7505],[110.0737,22.7427],[110.073,22.7382],[110.0678,22.7345],[110.0625,22.7338],[110.0568,22.7382],[110.0475,22.7339],[110.0466,22.73],[110.0368,22.7264],[110.0323,22.7194],[110.0267,22.7163],[110.0294,22.7058],[110.0247,22.7036],[110.028,22.699],[110.0362,22.6968],[110.0377,22.6913],[110.0371,22.6825],[110.0335,22.6822],[110.0276,22.6739],[110.0196,22.6714],[110.0116,22.6652],[110.0045,22.654],[109.9942,22.6516],[109.9895,22.6486],[109.9971,22.6397],[109.9959,22.6365]]]},"properties":{"region_code":"CN-45-4509-450902","parent_region_code":"CN-45-4509","name":"玉州区","level":"county","has_children":false,"full_path":"中国 / 广西壮族自治区 / 玉林市 / 玉州区","source_admin_code":"450902","osm_relation_id":2776352}},
{"type":"Feature","geometry":{"type":"Polygon","coordinates":[[[109.9959,22.6365],[109.98,22.6393],[109.9726,22.6387],[109.9651,22.6422],[109.9591,22.6365],[109.9565,22.6272],[109.9489,22.627],[109.9412,22.6216],[109.9319,22.6248],[109.9198,22.6246],[109.9114,22.6296],[109.9067,22.6249],[109.8997,22.6265],[109.8922,22.6239],[109.886,22.63],[109.8798,22.6256],[109.865,22.6231],[109.8629,22.631],[109.8587,22.6324],[109.8402,22.6322],[109.8381,22.6271],[109.832,22.62],[109.8264,22.6231],[109.8167,22.6207],[109.8112,22.6133],[109.8123,22.6084],[109.8101,22.6021],[109.8299,22.5897],[109.8329,22.5899],[109.8411,22.5845],[109.842,22.5804],[109.8379,22.574],[109.8407,22.5663],[109.8501,22.5628],[109.8534,22.5591],[109.8495,22.5496],[109.8549,22.5359],[109.86,22.5302],[109.8566,22.5258],[109.8593,22.5203],[109.8649,22.5171],[109.8621,22.509],[109.8533,22.5094],[109.8531,22.5007],[109.8491,22.495],[109.8448,22.4936],[109.8395,22.4816],[109.8319,22.4807],[109.8308,22.4744],[109.8367,22.4724],[109.8363,22.464],[109.8428,22.4617],[109.8473,22.455],[109.8554,22.4561],[109.8639,22.4525],[109.8849,22.4602],[109.8895,22.4645],[109.8948,22.462],[109.8904,22.4567],[109.8896,22.4501],[109.9015,22.4425],[109.9143,22.4414],[109.9232,22.4385],[109.9306,22.4335],[109.9242,22.4231],[109.9156,22.4167],[109.915,22.4133],[109.9218,22.4101],[109.9196,22.4028],[109.9235,22.3975],[109.925,22.3893],[109.9183,22.3854],[109.9274,22.3773],[109.9444,22.3731],[109.9509,22.3729],[109.9585,22.3685],[109.9615,22.3756],[109.9674,22.3796],[109.9758,22.3747],[109.983,22.378],[109.994,22.3751],[109.9959,22.3698],[110.0093,22.3663],[110.0113,22.3514],[110.018,22.3527],[110.0265,22.3517],[110.0371,22.3487],[110.0413,22.3492],[110.0468,22.3451],[110.0468,22.3377],[110.053,22.3416],[110.0522,22.3504],[110.0663,22.343],[110.0716,22.3389],[110.0757,22.3406],[110.0824,22.3394],[110.0881,22.3333],[110.0943,22.3334],[110.095,22.326],[110.1001,22.3254],[110.1066,22.328],[110.1117,22.3349],[110.1154,22.3362],[110.117,22.3439],[110.1219,22.3513],[110.1212,22.3582],[110.1471,22.3568],[110.1499,22.3622],[110.1566,22.3667],[110.166,22.378],[110.1738,22.3981],[110.1696,22.4056],[110.1605,22.4128],[110.1637,22.4179],[110.1579,22.4253],[110.1607,22.4291],[110.1513,22.4354],[110.15,22.4425],[110.1454,22.4492],[110.1289,22.4627],[110.1341,22.4726],[110.1372,22.474],[110.1411,22.4827],[110.1459,22.486],[110.1519,22.486],[110.1539,22.4956],[110.1486,22.5129],[110.143,22.5153],[110.1426,22.5189],[110.1316,22.5263],[110.1251,22.5276],[110.1278,22.5355],[110.14,22.5347],[110.1474,22.5375],[110.1531,22.543],[110.1482,22.5579],[110.1386,22.5716],[110.1325,22.5744],[110.1281,22.5683],[110.119,22.5693],[110.1134,22.5615],[110.1095,22.5634],[110.1065,22.5725],[110.0982,22.5794],[110.095,22.5883],[110.0996,22.5956],[110.0917,22.6037],[110.0907,22.6144],[110.0858,22.6236],[110.0794,22.62],[110.0643,22.6175],[110.0581,22.6202],[110.0527,22.6259],[110.0448,22.6225],[110.0227,22.6229],[110.0135,22.6202],[110.0105,22.6238],[110.003,22.6238],[109.998,22.62],[109.9936,22.6329],[109.9959,22.6365]]]},"properties":{"region_code":"CN-45-4509-450903","parent_region_code":"CN-45-4509","name":"福绵区","level":"county","has_children":false,"full_path":"中国 / 广西壮族自治区 / 玉林市 / 福绵区","source_admin_code":"450903","osm_relation_id":7617847}},
{"type":"Feature","geometry":{"type":"Polygon","coordinates":[[[110.6782,22.477],[110.6845,22.4825],[110.6958,22.4771],[110.6972,22.4721],[110.7161,22.4642],[110.7345,22.4673],[110.739,22.4697],[110.7445,22.4801],[110.7368,22.4867],[110.7363,22.4963],[110.7338,22.4998],[110.7404,22.5073],[110.7396,22.514],[110.7467,22.5222],[110.7554,22.5202],[110.7531,22.5354],[110.7478,22.5395],[110.7551,22.5493],[110.7442,22.558],[110.7478,22.5648],[110.7538,22.5615],[110.7592,22.5656],[110.7599,22.5716],[110.7559,22.5853],[110.7638,22.5865],[110.7664,22.5919],[110.7735,22.5901],[110.7764,22.584],[110.7867,22.5765],[110.7866,22.5741],[110.7948,22.5602],[110.8009,22.5623],[110.804,22.5773],[110.8088,22.5805],[110.8251,22.587],[110.8297,22.5905],[110.8493,22.5866],[110.8545,22.5912],[110.8659,22.5903],[110.8762,22.5854],[110.8841,22.5883],[110.8946,22.599],[110.8939,22.6086],[110.8905,22.6102],[110.8925,22.6171],[110.879,22.6252],[110.877,22.6312],[110.8827,22.6401],[110.8835,22.6463],[110.879,22.6512],[110.8684,22.6719],[110.865,22.6718],[110.8576,22.6839],[110.8574,22.6877],[110.8497,22.6919],[110.8451,22.6972],[110.8457,22.7009],[110.8419,22.7078],[110.8276,22.707],[110.8091,22.7193],[110.7975,22.719],[110.7877,22.7154],[110.7887,22.7199],[110.7847,22.7275],[110.7803,22.7277],[110.7866,22.7426],[110.7812,22.75],[110.7769,22.75],[110.7717,22.7546],[110.7688,22.7676],[110.7732,22.7723],[110.7731,22.7783],[110.7758,22.7864],[110.7784,22.7875],[110.7794,22.7958],[110.7823,22.8017],[110.7797,22.8046],[110.7863,22.8102],[110.7894,22.8165],[110.7884,22.8201],[110.7938,22.8251],[110.7917,22.831],[110.7928,22.8425],[110.7972,22.8482],[110.7925,22.8532],[110.7921,22.8592],[110.7867,22.862],[110.7739,22.8609],[110.7629,22.8466],[110.75,22.8521],[110.7468,22.8604],[110.7375,22.8626],[110.7386,22.8681],[110.7311,22.8705],[110.7334,22.8764],[110.7278,22.8883],[110.7227,22.8896],[110.725,22.8983],[110.7244,22.9045],[110.7212,22.9106],[110.7278,22.9117],[110.729,22.9158],[110.7275,22.9238],[110.7209,22.9251],[110.7232,22.9349],[110.7288,22.9377],[110.7335,22.945],[110.7362,22.9525],[110.7462,22.9571],[110.7518,22.9552],[110.7561,22.9577],[110.7616,22.9565],[110.7622,22.9669],[110.7513,22.9719],[110.7466,22.9762],[110.749,22.982],[110.7441,22.9882],[110.7452,22.9933],[110.7518,23.0018],[110.7477,23.0102],[110.7535,23.018],[110.7537,23.0262],[110.7412,23.0367],[110.7397,23.0418],[110.7458,23.0482],[110.7416,23.0498],[110.7414,23.0549],[110.7362,23.0586],[110.7281,23.0534],[110.7212,23.0448],[110.7168,23.0428],[110.7062,23.0451],[110.7081,23.0528],[110.7061,23.0617],[110.6934,23.0616],[110.6811,23.0665],[110.674,23.0755],[110.675,23.0801],[110.6802,23.0875],[110.676,23.0908],[110.6697,23.0881],[110.6637,23.0923],[110.6644,23.0973],[110.6598,23.1034],[110.6592,23.1168],[110.6465,23.1167],[110.6426,23.1207],[110.6351,23.1191],[110.6303,23.1246],[110.6202,23.1237],[110.6107,23.1186],[110.6035,23.119],[110.6016,23.1032],[110.5903,23.0927],[110.586,23.0998],[110.5729,23.1124],[110.5685,23.1106],[110.5497,23.1134],[110.5487,23.1207],[110.5507,23.1244],[110.5422,23.131],[110.5321,23.1258],[110.5302,23.1186],[110.524,23.1185],[110.5158,23.1133],[110.5203,23.1043],[110.514,23.1015],[110.5112,23.1064],[110.5057,23.1081],[110.5059,23.1019],[110.4985,23.0955],[110.4976,23.0877],[110.5005,23.0854],[110.497,23.079],[110.4893,23.0745],[110.4871,23.0681],[110.4788,23.067],[110.4654,23.0704],[110.4558,23.0746],[110.4529,23.0646],[110.4433,23.0632],[110.4407,23.0659],[110.4345,23.0568],[110.4253,23.053],[110.421,23.0423],[110.4167,23.046],[110.4118,23.0446],[110.4079,23.0519],[110.4134,23.0549],[110.4037,23.0641],[110.3963,23.0648],[110.39,23.062],[110.3866,23.0541],[110.3785,23.0524],[110.3662,23.0467],[110.3625,23.0478],[110.351,23.0455],[110.3448,23.0506],[110.3363,23.0466],[110.3326,23.0531],[110.3237,23.0505],[110.325,23.0425],[110.3191,23.0385],[110.3195,23.0306],[110.314,23.0264],[110.319,23.0179],[110.3122,23.0184],[110.3053,23.0157],[110.3045,23.0231],[110.301,23.0297],[110.2975,23.0297],[110.2956,23.0213],[110.288,23.0156],[110.2879,23.0082],[110.2855,23.0009],[110.2953,23],[110.2939,22.9909],[110.296,22.9859],[110.294,22.9798],[110.2862,22.9705],[110.2782,22.9669],[110.2807,22.9636],[110.2786,22.9541],[110.2734,22.9491],[110.2654,22.9479],[110.2524,22.9355],[110.2502,22.9235],[110.2616,22.919],[110.2636,22.9156],[110.2592,22.901],[110.2546,22.8957],[110.2634,22.8809],[110.2642,22.8764],[110.2711,22.8759],[110.2781,22.8832],[110.2866,22.8832],[110.2908,22.8804],[110.299,22.88],[110.3039,22.8764],[110.3234,22.8731],[110.3307,22.8802],[110.3347,22.8786],[110.3395,22.8838],[110.3427,22.8945],[110.3534,22.8906],[110.3642,22.895],[110.375,22.8932],[110.3887,22.9025],[110.3884,22.9078],[110.3958,22.9096],[110.3971,22.9181],[110.3994,22.9208],[110.4102,22.9191],[110.4189,22.9116],[110.4232,22.9111],[110.426,22.9051],[110.4305,22.905],[110.436,22.8931],[110.4408,22.8927],[110.4448,22.886],[110.4577,22.8842],[110.458,22.8776],[110.4612,22.8751],[110.4642,22.8662],[110.4685,22.862],[110.471,22.8558],[110.4703,22.8502],[110.4553,22.8403],[110.4495,22.8278],[110.4388,22.8126],[110.4427,22.8096],[110.4416,22.7963],[110.4461,22.7857],[110.4554,22.7715],[110.4645,22.7633],[110.472,22.7638],[110.4818,22.7613],[110.4802,22.745],[110.4852,22.7425],[110.4878,22.7333],[110.5025,22.731],[110.5037,22.7247],[110.5094,22.7216],[110.5206,22.7189],[110.5147,22.7092],[110.5229,22.7011],[110.5262,22.6903],[110.5164,22.6841],[110.5117,22.6759],[110.513,22.6704],[110.509,22.6664],[110.509,22.6603],[110.5145,22.6531],[110.5143,22.6494],[110.5272,22.6485],[110.5264,22.6424],[110.5289,22.6391],[110.5285,22.6319],[110.5335,22.6234],[110.5334,22.6175],[110.5419,22.6179],[110.5434,22.6157],[110.5608,22.6124],[110.5613,22.605],[110.5664,22.5979],[110.5726,22.5929],[110.5829,22.5916],[110.5943,22.5845],[110.5968,22.5796],[110.596,22.5715],[110.6054,22.5663],[110.6177,22.5671],[110.6162,22.5551],[110.6217,22.5535],[110.6293,22.5555],[110.6331,22.545],[110.6307,22.5403],[110.6328,22.5354],[110.6314,22.5228],[110.6332,22.5187],[110.6297,22.5129],[110.6248,22.5108],[110.6229,22.5059],[110.6256,22.4943],[110.6245,22.4916],[110.6333,22.488],[110.6296,22.4798],[110.6318,22.4711],[110.6413,22.4696],[110.6454,22.4623],[110.6565,22.469],[110.6635,22.4767],[110.6782,22.477]]]},"properties":{"region_code":"CN-45-4509-450921","parent_region_code":"CN-45-4509","name":"容县","level":"county","has_children":false,"full_path":"中国 / 广西壮族自治区 / 玉林市 / 容县","source_admin_code":"450921","osm_relation_id":2776347}},
{"type":"Feature","geometry":{"type":"Polygon","coordinates":[[[110.1531,22.543],[110.1474,22.5375],[110.14,22.5347],[110.1278,22.5355],[110.1251,22.5276],[110.1316,22.5263],[110.1426,22.5189],[110.143,22.5153],[110.1486,22.5129],[110.1539,22.4956],[110.1519,22.486],[110.1459,22.486],[110.1411,22.4827],[110.1372,22.474],[110.1341,22.4726],[110.1289,22.4627],[110.1454,22.4492],[110.15,22.4425],[110.1513,22.4354],[110.1607,22.4291],[110.1579,22.4253],[110.1637,22.4179],[110.1605,22.4128],[110.1696,22.4056],[110.1738,22.3981],[110.166,22.378],[110.1566,22.3667],[110.1499,22.3622],[110.1566,22.3551],[110.155,22.3488],[110.1585,22.341],[110.1552,22.3357],[110.1661,22.3292],[110.1721,22.3304],[110.183,22.324],[110.1885,22.3162],[110.1935,22.3158],[110.1994,22.3063],[110.1925,22.3009],[110.1878,22.2927],[110.1799,22.2892],[110.1742,22.284],[110.167,22.2846],[110.1602,22.2793],[110.1552,22.2802],[110.1501,22.275],[110.1428,22.2711],[110.1411,22.2607],[110.1304,22.2591],[110.126,22.2611],[110.1202,22.2507],[110.1103,22.2466],[110.1102,22.2389],[110.0996,22.2362],[110.0956,22.2403],[110.0864,22.2357],[110.08,22.2297],[110.0843,22.2224],[110.0905,22.2229],[110.0923,22.2285],[110.0983,22.2289],[110.1035,22.2217],[110.1009,22.2136],[110.1038,22.2112],[110.1054,22.2039],[110.1108,22.1997],[110.1207,22.1994],[110.1225,22.1891],[110.1159,22.1743],[110.1261,22.1651],[110.1251,22.1609],[110.1316,22.1551],[110.1298,22.1506],[110.13,22.142],[110.1431,22.1416],[110.145,22.146],[110.1549,22.146],[110.1545,22.1398],[110.1563,22.1306],[110.1546,22.1257],[110.1587,22.1175],[110.159,22.1108],[110.1497,22.105],[110.1467,22.0965],[110.1539,22.0919],[110.1522,22.0841],[110.1492,22.0821],[110.1505,22.0762],[110.1581,22.0729],[110.1679,22.0727],[110.1771,22.0675],[110.1777,22.0619],[110.1817,22.0612],[110.1851,22.0541],[110.1776,22.0382],[110.1722,22.0379],[110.1729,22.0283],[110.179,22.0232],[110.1841,22.0162],[110.1856,22.0088],[110.181,21.9976],[110.1861,21.9959],[110.1905,21.9909],[110.1876,21.9852],[110.1917,21.9774],[110.1922,21.9621],[110.1971,21.9558],[110.2038,21.9508],[110.2077,21.945],[110.2193,21.946],[110.2235,21.9423],[110.2316,21.9428],[110.2388,21.938],[110.2472,21.9375],[110.2558,21.9336],[110.2702,21.9205],[110.2751,21.9197],[110.2799,21.9223],[110.286,21.9207],[110.2998,21.9116],[110.3096,21.9089],[110.313,21.9021],[110.3195,21.8955],[110.3289,21.893],[110.3311,21.8907],[110.3442,21.8938],[110.3493,21.8899],[110.3539,21.8926],[110.3634,21.8915],[110.3739,21.8931],[110.3765,21.8955],[110.3856,21.8944],[110.3915,21.9159],[110.3856,21.9196],[110.3853,21.9252],[110.3813,21.9324],[110.3741,21.9316],[110.3684,21.9361],[110.3778,21.9466],[110.3866,21.9528],[110.3814,21.9607],[110.3745,21.9647],[110.3722,21.9705],[110.3614,21.9745],[110.3517,21.9763],[110.3486,21.9792],[110.3545,21.989],[110.3543,22.0005],[110.3518,22.0102],[110.3594,22.0079],[110.3619,22.0125],[110.3568,22.0148],[110.3454,22.0338],[110.3467,22.0383],[110.3434,22.0423],[110.3488,22.0466],[110.3494,22.0564],[110.3462,22.0635],[110.3519,22.0692],[110.3459,22.0778],[110.3542,22.0782],[110.3538,22.0878],[110.3458,22.0918],[110.3473,22.1002],[110.3575,22.0996],[110.3572,22.1038],[110.362,22.1063],[110.3585,22.1122],[110.3609,22.1255],[110.3552,22.137],[110.349,22.1349],[110.3416,22.1377],[110.3356,22.1467],[110.3296,22.1458],[110.3262,22.1521],[110.3222,22.1548],[110.3211,22.1623],[110.3264,22.1715],[110.3315,22.1742],[110.3302,22.1824],[110.3466,22.1987],[110.3554,22.1875],[110.3544,22.1835],[110.3653,22.1759],[110.3714,22.1682],[110.3757,22.1668],[110.3892,22.1735],[110.3897,22.1816],[110.3948,22.19],[110.3993,22.1877],[110.4036,22.1914],[110.4075,22.2017],[110.4052,22.2059],[110.408,22.2097],[110.4137,22.2118],[110.409,22.2157],[110.4095,22.2207],[110.404,22.2212],[110.391,22.2264],[110.3796,22.2224],[110.3754,22.2259],[110.3768,22.2349],[110.3917,22.2378],[110.3975,22.2411],[110.3956,22.252],[110.3963,22.2595],[110.4012,22.2646],[110.4015,22.2706],[110.4074,22.2826],[110.4007,22.2993],[110.4034,22.3023],[110.4165,22.302],[110.4236,22.3108],[110.4177,22.3116],[110.4182,22.3199],[110.4231,22.3242],[110.4262,22.3352],[110.4213,22.3446],[110.4167,22.348],[110.4013,22.3461],[110.3963,22.3431],[110.3892,22.3422],[110.3825,22.3551],[110.3602,22.3643],[110.3527,22.3635],[110.3455,22.3542],[110.3408,22.3627],[110.3483,22.3691],[110.3439,22.3716],[110.3477,22.3789],[110.3461,22.385],[110.3505,22.3883],[110.357,22.3868],[110.3551,22.3996],[110.3615,22.4142],[110.3645,22.4108],[110.3695,22.4147],[110.3656,22.4192],[110.3639,22.4263],[110.3601,22.4301],[110.3605,22.4371],[110.3566,22.438],[110.351,22.4348],[110.346,22.4355],[110.3345,22.4309],[110.3276,22.4414],[110.3284,22.4505],[110.3343,22.4532],[110.3346,22.4569],[110.3299,22.4635],[110.3197,22.4636],[110.3197,22.4674],[110.3252,22.4775],[110.3377,22.4857],[110.337,22.4909],[110.3443,22.4924],[110.3417,22.5006],[110.3455,22.507],[110.3418,22.5127],[110.3382,22.5131],[110.3333,22.5227],[110.333,22.5281],[110.3288,22.5315],[110.3292,22.5362],[110.3183,22.5376],[110.3091,22.544],[110.3154,22.5528],[110.3148,22.5571],[110.3191,22.5597],[110.3144,22.5639],[110.3094,22.5639],[110.3072,22.5689],[110.2933,22.5775],[110.2896,22.5815],[110.2852,22.5752],[110.2742,22.5743],[110.2692,22.5841],[110.2533,22.5846],[110.2516,22.5916],[110.2476,22.5931],[110.2426,22.5992],[110.2437,22.6022],[110.2365,22.6043],[110.232,22.5989],[110.2364,22.5912],[110.2292,22.5848],[110.2279,22.5897],[110.2173,22.5912],[110.2136,22.5963],[110.2069,22.5968],[110.2073,22.5919],[110.202,22.5896],[110.1897,22.5907],[110.1861,22.5886],[110.1872,22.5792],[110.1857,22.574],[110.175,22.5671],[110.1714,22.5616],[110.1763,22.5491],[110.1828,22.5503],[110.1848,22.5452],[110.1787,22.5432],[110.1694,22.5361],[110.1657,22.5358],[110.1563,22.5433],[110.1531,22.543]]]},"properties":{"region_code":"CN-45-4509-450922","parent_region_code":"CN-45-4509","name":"陆川县","level":"county","has_children":false,"full_path":"中国 / 广西壮族自治区 / 玉林市 / 陆川县","source_admin_code":"450922","osm_relation_id":2776350}},
{"type":"Feature","geometry":{"type":"Polygon","coordinates":[[[109.8308,22.4744],[109.8221,22.466],[109.8224,22.4548],[109.8142,22.4562],[109.8112,22.4459],[109.8048,22.4393],[109.8077,22.4293],[109.8202,22.4248],[109.8246,22.4179],[109.8388,22.4158],[109.8462,22.4119],[109.8522,22.4047],[109.8481,22.4029],[109.8492,22.3972],[109.861,22.3827],[109.8547,22.3767],[109.854,22.3675],[109.8399,22.3616],[109.835,22.357],[109.8361,22.35],[109.8435,22.3501],[109.8497,22.3464],[109.8479,22.3393],[109.8428,22.3385],[109.8386,22.3331],[109.8433,22.3218],[109.8417,22.3185],[109.8355,22.3203],[109.8255,22.3175],[109.8223,22.3122],[109.8138,22.3126],[109.8078,22.3102],[109.7995,22.316],[109.7931,22.3165],[109.7931,22.3238],[109.7834,22.3296],[109.7753,22.3255],[109.7739,22.3323],[109.7645,22.3386],[109.7585,22.3399],[109.7556,22.3471],[109.7521,22.3502],[109.7394,22.3547],[109.7382,22.3603],[109.7442,22.3662],[109.7362,22.3716],[109.729,22.3833],[109.726,22.3818],[109.7246,22.3693],[109.7216,22.3639],[109.7241,22.3605],[109.7194,22.3565],[109.7124,22.3581],[109.7036,22.3643],[109.6993,22.3601],[109.6979,22.3497],[109.6809,22.3472],[109.6825,22.3433],[109.6778,22.3359],[109.6722,22.3399],[109.6666,22.3386],[109.6601,22.3302],[109.6586,22.3205],[109.6643,22.3174],[109.671,22.3075],[109.6758,22.3031],[109.6705,22.2995],[109.6619,22.3056],[109.6586,22.3108],[109.6393,22.3201],[109.6292,22.3172],[109.6217,22.3109],[109.6158,22.3124],[109.6107,22.3078],[109.5997,22.3035],[109.5896,22.3069],[109.5882,22.2946],[109.5808,22.2861],[109.5888,22.2813],[109.5816,22.2789],[109.5822,22.2671],[109.5767,22.2609],[109.5825,22.2573],[109.5854,22.2507],[109.5798,22.2435],[109.5771,22.2373],[109.5849,22.2279],[109.5746,22.2263],[109.5801,22.2142],[109.5801,22.2097],[109.5753,22.2053],[109.5774,22.2018],[109.5739,22.1917],[109.5671,22.1862],[109.5596,22.189],[109.5527,22.1854],[109.556,22.1792],[109.5529,22.1742],[109.5545,22.1694],[109.5521,22.1608],[109.5477,22.1563],[109.5531,22.1461],[109.5484,22.146],[109.5441,22.136],[109.5481,22.1299],[109.5541,22.1252],[109.5486,22.1165],[109.5425,22.1126],[109.5398,22.1077],[109.5411,22.0953],[109.5549,22.0882],[109.5535,22.0814],[109.5615,22.0765],[109.5653,22.0718],[109.5768,22.0686],[109.5665,22.0501],[109.5837,22.0301],[109.5869,22.0069],[109.5912,22.0011],[109.5907,21.9849],[109.5923,21.9733],[109.5845,21.9715],[109.5807,21.9774],[109.5747,21.9771],[109.571,21.9731],[109.5775,21.9602],[109.5777,21.9561],[109.5831,21.9531],[109.5927,21.9512],[109.5971,21.9447],[109.5922,21.9368],[109.5909,21.9231],[109.5979,21.926],[109.6043,21.9242],[109.6039,21.912],[109.6064,21.9071],[109.6111,21.9058],[109.6159,21.8989],[109.621,21.8993],[109.6215,21.905],[109.6315,21.9108],[109.6345,21.9074],[109.6415,21.9065],[109.6489,21.9082],[109.6495,21.9029],[109.6545,21.896],[109.6678,21.9006],[109.6754,21.8984],[109.6928,21.9045],[109.6935,21.8994],[109.7006,21.8958],[109.6985,21.8818],[109.7008,21.8765],[109.6917,21.8629],[109.7029,21.8499],[109.7038,21.8402],[109.6971,21.8337],[109.6988,21.8238],[109.6928,21.821],[109.6942,21.8167],[109.6937,21.8071],[109.7011,21.8066],[109.7037,21.8029],[109.6959,21.7893],[109.6905,21.7852],[109.6851,21.7767],[109.6872,21.7701],[109.6863,21.7614],[109.6904,21.7572],[109.6906,21.7504],[109.686,21.7318],[109.692,21.7307],[109.6916,21.7238],[109.6938,21.7186],[109.6909,21.7123],[109.6918,21.7064],[109.6852,21.6971],[109.6837,21.6909],[109.6908,21.68],[109.6906,21.6724],[109.694,21.6683],[109.7013,21.6646],[109.7096,21.6674],[109.7113,21.6728],[109.7198,21.67],[109.7285,21.6654],[109.7394,21.6624],[109.7446,21.6578],[109.7521,21.6734],[109.7609,21.6697],[109.7648,21.6747],[109.7696,21.676],[109.7736,21.6729],[109.7755,21.6629],[109.7816,21.6501],[109.7799,21.6413],[109.7854,21.6405],[109.7908,21.6332],[109.7965,21.6303],[109.8027,21.6318],[109.8014,21.6391],[109.8057,21.6474],[109.8153,21.6405],[109.823,21.6425],[109.8329,21.6395],[109.8401,21.6411],[109.8405,21.647],[109.8488,21.6491],[109.8499,21.6537],[109.8601,21.6495],[109.8639,21.651],[109.8699,21.6609],[109.877,21.656],[109.8942,21.6524],[109.899,21.6556],[109.9023,21.6622],[109.9071,21.664],[109.91,21.6695],[109.905,21.6786],[109.9094,21.6789],[109.91,21.6863],[109.9011,21.688],[109.9014,21.6965],[109.9105,21.7063],[109.9211,21.7084],[109.9185,21.7303],[109.9247,21.7363],[109.9321,21.736],[109.9376,21.7389],[109.931,21.7445],[109.9311,21.7502],[109.9271,21.7545],[109.9311,21.7575],[109.9313,21.7632],[109.9286,21.7668],[109.9358,21.771],[109.9338,21.7764],[109.9344,21.79],[109.9314,21.8015],[109.9345,21.805],[109.935,21.811],[109.9321,21.8157],[109.9401,21.8263],[109.9413,21.8338],[109.9449,21.8412],[109.9492,21.8451],[109.9412,21.8471],[109.9548,21.8583],[109.9631,21.8626],[109.9696,21.869],[109.974,21.8687],[109.9772,21.8741],[109.9828,21.8762],[109.9825,21.8823],[109.9916,21.8817],[109.9954,21.8846],[110.0007,21.8829],[110.0022,21.8778],[110.0156,21.8756],[110.0178,21.8723],[110.0264,21.8744],[110.0339,21.8725],[110.0468,21.8598],[110.0585,21.8632],[110.0644,21.8623],[110.0755,21.8674],[110.0823,21.872],[110.0824,21.8771],[110.0871,21.8834],[110.095,21.8839],[110.0972,21.8727],[110.1033,21.8733],[110.1026,21.8851],[110.113,21.8939],[110.1153,21.9042],[110.1277,21.9038],[110.1259,21.8972],[110.1304,21.8958],[110.1378,21.8844],[110.1392,21.8926],[110.1464,21.8997],[110.1599,21.8967],[110.1706,21.9013],[110.1863,21.8999],[110.1979,21.9004],[110.199,21.8971],[110.2076,21.8958],[110.2058,21.8897],[110.2171,21.8842],[110.225,21.8848],[110.228,21.8815],[110.2448,21.8838],[110.2538,21.8831],[110.2562,21.8891],[110.2656,21.8966],[110.2725,21.8943],[110.2793,21.8949],[110.2831,21.9046],[110.2813,21.9069],[110.2859,21.9135],[110.286,21.9207],[110.2799,21.9223],[110.2751,21.9197],[110.2702,21.9205],[110.2558,21.9336],[110.2472,21.9375],[110.2388,21.938],[110.2316,21.9428],[110.2235,21.9423],[110.2193,21.946],[110.2077,21.945],[110.2038,21.9508],[110.1971,21.9558],[110.1922,21.9621],[110.1917,21.9774],[110.1876,21.9852],[110.1905,21.9909],[110.1861,21.9959],[110.181,21.9976],[110.1856,22.0088],[110.1841,22.0162],[110.179,22.0232],[110.1729,22.0283],[110.1722,22.0379],[110.1776,22.0382],[110.1851,22.0541],[110.1817,22.0612],[110.1777,22.0619],[110.1771,22.0675],[110.1679,22.0727],[110.1581,22.0729],[110.1505,22.0762],[110.1492,22.0821],[110.1522,22.0841],[110.1539,22.0919],[110.1467,22.0965],[110.1497,22.105],[110.159,22.1108],[110.1587,22.1175],[110.1546,22.1257],[110.1563,22.1306],[110.1545,22.1398],[110.1549,22.146],[110.145,22.146],[110.1431,22.1416],[110.13,22.142],[110.1298,22.1506],[110.1316,22.1551],[110.1251,22.1609],[110.1261,22.1651],[110.1159,22.1743],[110.1225,22.1891],[110.1207,22.1994],[110.1108,22.1997],[110.1054,22.2039],[110.1038,22.2112],[110.1009,22.2136],[110.1035,22.2217],[110.0983,22.2289],[110.0923,22.2285],[110.0905,22.2229],[110.0843,22.2224],[110.08,22.2297],[110.0864,22.2357],[110.0956,22.2403],[110.0996,22.2362],[110.1102,22.2389],[110.1103,22.2466],[110.1202,22.2507],[110.126,22.2611],[110.1304,22.2591],[110.1411,22.2607],[110.1428,22.2711],[110.1501,22.275],[110.1552,22.2802],[110.1602,22.2793],[110.167,22.2846],[110.1742,22.284],[110.1799,22.2892],[110.1878,22.2927],[110.1925,22.3009],[110.1994,22.3063],[110.1935,22.3158],[110.1885,22.3162],[110.183,22.324],[110.1721,22.3304],[110.1661,22.3292],[110.1552,22.3357],[110.1585,22.341],[110.155,22.3488],[110.1566,22.3551],[110.1499,22.3622],[110.1471,22.3568],[110.1212,22.3582],[110.1219,22.3513],[110.117,22.3439],[110.1154,22.3362],[110.1117,22.3349],[110.1066,22.328],[110.1001,22.3254],[110.095,22.326],[110.0943,22.3334],[110.0881,22.3333],[110.0824,22.3394],[110.0757,22.3406],[110.0716,22.3389],[110.0663,22.343],[110.0522,22.3504],[110.053,22.3416],[110.0468,22.3377],[110.0468,22.3451],[110.0413,22.3492],[110.0371,22.3487],[110.0265,22.3517],[110.018,22.3527],[110.0113,22.3514],[110.0093,22.3663],[109.9959,22.3698],[109.994,22.3751],[109.983,22.378],[109.9758,22.3747],[109.9674,22.3796],[109.9615,22.3756],[109.9585,22.3685],[109.9509,22.3729],[109.9444,22.3731],[109.9274,22.3773],[109.9183,22.3854],[109.925,22.3893],[109.9235,22.3975],[109.9196,22.4028],[109.9218,22.4101],[109.915,22.4133],[109.9156,22.4167],[109.9242,22.4231],[109.9306,22.4335],[109.9232,22.4385],[109.9143,22.4414],[109.9015,22.4425],[109.8896,22.4501],[109.8904,22.4567],[109.8948,22.462],[109.8895,22.4645],[109.8849,22.4602],[109.8639,22.4525],[109.8554,22.4561],[109.8473,22.455],[109.8428,22.4617],[109.8363,22.464],[109.8367,22.4724],[109.8308,22.4744]]]},"properties":{"region_code":"CN-45-4509-450923","parent_region_code":"CN-45-4509","name":"博白县","level":"county","has_children":false,"full_path":"中国 / 广西壮族自治区 / 玉林市 / 博白县","source_admin_code":"450923","osm_relation_id":2776349}},
{"type":"Feature","geometry":{"type":"Polygon","coordinates":[[[110.1453,22.8187],[110.1519,22.8212],[110.157,22.8291],[110.1613,22.8306],[110.1624,22.836],[110.1713,22.8395],[110.1686,22.8455],[110.1842,22.856],[110.1902,22.8541],[110.198,22.8562],[110.2059,22.861],[110.2089,22.8653],[110.2166,22.8688],[110.2178,22.875],[110.2265,22.8811],[110.2205,22.8943],[110.2146,22.9014],[110.1986,22.901],[110.1908,22.9079],[110.1852,22.9089],[110.1752,22.9073],[110.1657,22.9106],[110.1563,22.9058],[110.1519,22.908],[110.1326,22.901],[110.1306,22.8976],[110.1177,22.8902],[110.115,22.8908],[110.1084,22.8992],[110.1032,22.8986],[110.103,22.904],[110.1085,22.9155],[110.0942,22.9205],[110.0908,22.9242],[110.0943,22.9301],[110.0883,22.9362],[110.0815,22.9604],[110.083,22.9637],[110.0737,22.9655],[110.0732,22.9619],[110.0667,22.9521],[110.0576,22.9482],[110.0488,22.9506],[110.0452,22.9493],[110.038,22.9582],[110.0249,22.9627],[110.0186,22.9622],[110.0104,22.9647],[110.0135,22.9702],[110.0126,22.9773],[110.0071,22.9782],[110.0041,22.9863],[109.9956,22.9926],[109.9902,22.9984],[109.9905,23.0041],[109.9829,23.0029],[109.9772,23.0063],[109.9753,23.0104],[109.9638,23.0129],[109.9573,23.0184],[109.9451,23.0222],[109.9418,23.0254],[109.9352,23.0267],[109.9157,23.0225],[109.9104,23.026],[109.8948,23.0258],[109.8943,23.0294],[109.8811,23.0241],[109.8781,23.0144],[109.8701,23.0107],[109.8752,23.0065],[109.8696,23.0008],[109.8642,23.0048],[109.8589,23.0057],[109.8531,22.9988],[109.847,22.9974],[109.8388,22.9873],[109.8273,22.979],[109.8176,22.9783],[109.8131,22.9822],[109.8034,22.9789],[109.8003,22.9753],[109.8012,22.9639],[109.8044,22.9649],[109.8186,22.9573],[109.8227,22.95],[109.8293,22.9441],[109.8397,22.9243],[109.8396,22.9193],[109.8437,22.9134],[109.8557,22.9099],[109.857,22.9053],[109.8504,22.9035],[109.8361,22.9106],[109.8312,22.9062],[109.8301,22.8988],[109.8408,22.8912],[109.8396,22.8847],[109.8464,22.8802],[109.8499,22.8827],[109.8442,22.8875],[109.8486,22.8908],[109.8515,22.8865],[109.8636,22.8787],[109.8578,22.8739],[109.8526,22.8781],[109.843,22.8786],[109.8376,22.8824],[109.8381,22.8874],[109.8324,22.8913],[109.8278,22.8882],[109.8138,22.8879],[109.8144,22.8797],[109.811,22.8767],[109.8128,22.8724],[109.8103,22.8621],[109.8018,22.8596],[109.7983,22.8525],[109.7989,22.8465],[109.7872,22.8558],[109.7809,22.8577],[109.7696,22.854],[109.7636,22.8604],[109.7599,22.8583],[109.7624,22.8515],[109.7581,22.8502],[109.7505,22.8427],[109.7513,22.8375],[109.7559,22.8296],[109.7572,22.8213],[109.7606,22.8198],[109.7619,22.8134],[109.7581,22.8085],[109.759,22.8],[109.7627,22.7912],[109.7575,22.7801],[109.7677,22.7717],[109.7769,22.771],[109.7822,22.7606],[109.7875,22.7575],[109.7777,22.7413],[109.7666,22.7386],[109.7572,22.7391],[109.7519,22.732],[109.7488,22.732],[109.7427,22.7388],[109.7374,22.7399],[109.7287,22.7381],[109.7218,22.7305],[109.7215,22.7232],[109.7149,22.7147],[109.7175,22.7087],[109.7236,22.7049],[109.7161,22.6956],[109.7096,22.6978],[109.7023,22.6944],[109.6969,22.6949],[109.6872,22.6925],[109.6766,22.6844],[109.6722,22.6839],[109.6705,22.679],[109.6647,22.6743],[109.6615,22.6691],[109.6548,22.663],[109.6542,22.6551],[109.6595,22.654],[109.663,22.65],[109.6556,22.6479],[109.6525,22.6415],[109.6545,22.6378],[109.6624,22.6367],[109.6597,22.6268],[109.6571,22.6232],[109.6604,22.6186],[109.6596,22.6101],[109.6746,22.6023],[109.6796,22.6037],[109.6843,22.5971],[109.6899,22.594],[109.6964,22.5956],[109.7028,22.5892],[109.7058,22.5822],[109.7107,22.5849],[109.7163,22.5811],[109.7176,22.5707],[109.7136,22.5637],[109.7195,22.5615],[109.722,22.5643],[109.7299,22.5585],[109.7403,22.5595],[109.7484,22.5675],[109.7529,22.5617],[109.7575,22.5601],[109.7584,22.5701],[109.7605,22.5751],[109.7584,22.5869],[109.7652,22.5857],[109.771,22.5902],[109.7896,22.5878],[109.7934,22.5852],[109.8009,22.585],[109.8065,22.5825],[109.8139,22.5834],[109.8166,22.5785],[109.8379,22.574],[109.842,22.5804],[109.8411,22.5845],[109.8329,22.5899],[109.8299,22.5897],[109.8101,22.6021],[109.8123,22.6084],[109.8112,22.6133],[109.8167,22.6207],[109.8264,22.6231],[109.832,22.62],[109.8381,22.6271],[109.8402,22.6322],[109.8587,22.6324],[109.8629,22.631],[109.865,22.6231],[109.8798,22.6256],[109.886,22.63],[109.8922,22.6239],[109.8997,22.6265],[109.9067,22.6249],[109.9114,22.6296],[109.9198,22.6246],[109.9319,22.6248],[109.9412,22.6216],[109.9489,22.627],[109.9565,22.6272],[109.9591,22.6365],[109.9651,22.6422],[109.9726,22.6387],[109.98,22.6393],[109.9959,22.6365],[109.9971,22.6397],[109.9895,22.6486],[109.9942,22.6516],[110.0045,22.654],[110.0116,22.6652],[110.0196,22.6714],[110.0276,22.6739],[110.0335,22.6822],[110.0371,22.6825],[110.0377,22.6913],[110.0362,22.6968],[110.028,22.699],[110.0247,22.7036],[110.0294,22.7058],[110.0267,22.7163],[110.0323,22.7194],[110.0368,22.7264],[110.0466,22.73],[110.0475,22.7339],[110.0568,22.7382],[110.0625,22.7338],[110.0678,22.7345],[110.073,22.7382],[110.0737,22.7427],[110.0702,22.7505],[110.0798,22.7493],[110.0867,22.7516],[110.0898,22.7558],[110.1016,22.7601],[110.1074,22.7551],[110.1061,22.7672],[110.1078,22.7711],[110.1063,22.7874],[110.1116,22.7943],[110.1146,22.8042],[110.113,22.8084],[110.1253,22.8131],[110.1227,22.8175],[110.1317,22.8174],[110.14,22.8198],[110.1453,22.8187]]]},"properties":{"region_code":"CN-45-4509-450924","parent_region_code":"CN-45-4509","name":"兴业县","level":"county","has_children":false,"full_path":"中国 / 广西壮族自治区 / 玉林市 / 兴业县","source_admin_code":"450924","osm_relation_id":2776351}},
{"type":"Feature","geometry":{"type":"Polygon","coordinates":[[[110.2437,22.6022],[110.2426,22.5992],[110.2476,22.5931],[110.2516,22.5916],[110.2533,22.5846],[110.2692,22.5841],[110.2742,22.5743],[110.2852,22.5752],[110.2896,22.5815],[110.2933,22.5775],[110.3072,22.5689],[110.3094,22.5639],[110.3144,22.5639],[110.3191,22.5597],[110.3148,22.5571],[110.3154,22.5528],[110.3091,22.544],[110.3183,22.5376],[110.3292,22.5362],[110.3288,22.5315],[110.333,22.5281],[110.3333,22.5227],[110.3382,22.5131],[110.3418,22.5127],[110.3455,22.507],[110.3417,22.5006],[110.3443,22.4924],[110.337,22.4909],[110.3377,22.4857],[110.3252,22.4775],[110.3197,22.4674],[110.3197,22.4636],[110.3299,22.4635],[110.3346,22.4569],[110.3343,22.4532],[110.3284,22.4505],[110.3276,22.4414],[110.3345,22.4309],[110.346,22.4355],[110.351,22.4348],[110.3566,22.438],[110.3605,22.4371],[110.3601,22.4301],[110.3639,22.4263],[110.3656,22.4192],[110.3695,22.4147],[110.3645,22.4108],[110.3615,22.4142],[110.3551,22.3996],[110.357,22.3868],[110.3505,22.3883],[110.3461,22.385],[110.3477,22.3789],[110.3439,22.3716],[110.3483,22.3691],[110.3408,22.3627],[110.3455,22.3542],[110.3527,22.3635],[110.3602,22.3643],[110.3825,22.3551],[110.3892,22.3422],[110.3963,22.3431],[110.4013,22.3461],[110.4167,22.348],[110.4213,22.3446],[110.4262,22.3352],[110.4231,22.3242],[110.4182,22.3199],[110.4177,22.3116],[110.4236,22.3108],[110.4165,22.302],[110.4034,22.3023],[110.4007,22.2993],[110.4074,22.2826],[110.4015,22.2706],[110.4012,22.2646],[110.3963,22.2595],[110.3956,22.252],[110.3975,22.2411],[110.3917,22.2378],[110.3768,22.2349],[110.3754,22.2259],[110.3796,22.2224],[110.391,22.2264],[110.404,22.2212],[110.4095,22.2207],[110.409,22.2157],[110.4137,22.2118],[110.4235,22.2091],[110.4253,22.2106],[110.4352,22.2018],[110.4407,22.2006],[110.4412,22.1959],[110.4481,22.1949],[110.4522,22.1916],[110.453,22.1837],[110.4591,22.1785],[110.4675,22.1739],[110.4776,22.1628],[110.4858,22.1576],[110.4804,22.1506],[110.4881,22.1476],[110.497,22.1477],[110.5001,22.1427],[110.5123,22.1519],[110.5189,22.1536],[110.5273,22.1593],[110.5239,22.1648],[110.5261,22.1709],[110.5345,22.1753],[110.5394,22.1874],[110.5467,22.1966],[110.556,22.1994],[110.5708,22.1937],[110.5808,22.1882],[110.5914,22.1897],[110.5997,22.1855],[110.5954,22.1766],[110.5988,22.1712],[110.5944,22.1657],[110.6008,22.1588],[110.6068,22.1582],[110.6139,22.1628],[110.622,22.1578],[110.625,22.152],[110.6376,22.1558],[110.6415,22.1625],[110.6518,22.1709],[110.6611,22.1681],[110.665,22.1738],[110.6727,22.1754],[110.6707,22.182],[110.6714,22.1921],[110.6673,22.1934],[110.6667,22.1997],[110.6625,22.2057],[110.655,22.2055],[110.6505,22.2081],[110.6448,22.2164],[110.6428,22.2236],[110.645,22.2337],[110.6519,22.2427],[110.6604,22.248],[110.6674,22.2483],[110.6821,22.2517],[110.6902,22.2616],[110.6864,22.2677],[110.6913,22.2751],[110.7029,22.2771],[110.707,22.2801],[110.7132,22.2893],[110.7161,22.2962],[110.7229,22.3018],[110.7242,22.2968],[110.735,22.2847],[110.7431,22.2836],[110.7491,22.2849],[110.7546,22.278],[110.7646,22.2789],[110.7759,22.2822],[110.7822,22.2856],[110.7855,22.2933],[110.7812,22.2972],[110.768,22.2987],[110.7686,22.3108],[110.7644,22.3194],[110.7573,22.3272],[110.7478,22.3305],[110.7446,22.3339],[110.7429,22.3407],[110.7449,22.3464],[110.7444,22.3546],[110.7393,22.358],[110.736,22.3654],[110.7265,22.3691],[110.7206,22.364],[110.7159,22.3633],[110.7139,22.3683],[110.7054,22.3733],[110.7043,22.3827],[110.7087,22.3892],[110.7084,22.3953],[110.7041,22.4],[110.7017,22.4079],[110.7084,22.4171],[110.7082,22.4302],[110.7101,22.4338],[110.7057,22.4471],[110.6998,22.4508],[110.6914,22.4493],[110.6887,22.453],[110.6891,22.459],[110.6862,22.4638],[110.6804,22.4677],[110.6817,22.4713],[110.6782,22.477],[110.6635,22.4767],[110.6565,22.469],[110.6454,22.4623],[110.6413,22.4696],[110.6318,22.4711],[110.6296,22.4798],[110.6333,22.488],[110.6245,22.4916],[110.6256,22.4943],[110.6229,22.5059],[110.6248,22.5108],[110.6297,22.5129],[110.6332,22.5187],[110.6314,22.5228],[110.6328,22.5354],[110.6307,22.5403],[110.6331,22.545],[110.6293,22.5555],[110.6217,22.5535],[110.6162,22.5551],[110.6177,22.5671],[110.6054,22.5663],[110.596,22.5715],[110.5968,22.5796],[110.5943,22.5845],[110.5829,22.5916],[110.5726,22.5929],[110.5664,22.5979],[110.5613,22.605],[110.5608,22.6124],[110.5434,22.6157],[110.5419,22.6179],[110.5334,22.6175],[110.5335,22.6234],[110.5285,22.6319],[110.5289,22.6391],[110.5264,22.6424],[110.5272,22.6485],[110.5143,22.6494],[110.5145,22.6531],[110.509,22.6603],[110.509,22.6664],[110.513,22.6704],[110.5117,22.6759],[110.5164,22.6841],[110.5262,22.6903],[110.5229,22.7011],[110.5147,22.7092],[110.5206,22.7189],[110.5094,22.7216],[110.5037,22.7247],[110.5025,22.731],[110.4878,22.7333],[110.4852,22.7425],[110.4802,22.745],[110.4818,22.7613],[110.472,22.7638],[110.4645,22.7633],[110.4554,22.7715],[110.4461,22.7857],[110.4416,22.7963],[110.4427,22.8096],[110.4388,22.8126],[110.4495,22.8278],[110.4553,22.8403],[110.4703,22.8502],[110.471,22.8558],[110.4685,22.862],[110.4642,22.8662],[110.4612,22.8751],[110.458,22.8776],[110.4577,22.8842],[110.4448,22.886],[110.4408,22.8927],[110.436,22.8931],[110.4305,22.905],[110.426,22.9051],[110.4232,22.9111],[110.4189,22.9116],[110.4102,22.9191],[110.3994,22.9208],[110.3971,22.9181],[110.3958,22.9096],[110.3884,22.9078],[110.3887,22.9025],[110.375,22.8932],[110.3642,22.895],[110.3534,22.8906],[110.3427,22.8945],[110.3395,22.8838],[110.3347,22.8786],[110.3307,22.8802],[110.3234,22.8731],[110.3039,22.8764],[110.299,22.88],[110.2908,22.8804],[110.2866,22.8832],[110.2781,22.8832],[110.2711,22.8759],[110.2642,22.8764],[110.2575,22.8703],[110.2461,22.8746],[110.238,22.8758],[110.2193,22.8673],[110.2166,22.8688],[110.2089,22.8653],[110.2059,22.861],[110.198,22.8562],[110.1902,22.8541],[110.1842,22.856],[110.1686,22.8455],[110.1713,22.8395],[110.1624,22.836],[110.1613,22.8306],[110.157,22.8291],[110.1519,22.8212],[110.1453,22.8187],[110.1455,22.8088],[110.1425,22.8063],[110.1384,22.8137],[110.1356,22.8131],[110.1429,22.8021],[110.1403,22.7971],[110.1473,22.792],[110.1493,22.7867],[110.1458,22.7744],[110.1392,22.7703],[110.1376,22.761],[110.1317,22.7548],[110.1343,22.7498],[110.1319,22.7447],[110.1384,22.7417],[110.1381,22.7375],[110.144,22.7337],[110.1512,22.7225],[110.1488,22.7169],[110.1494,22.7104],[110.156,22.7075],[110.1602,22.7004],[110.1681,22.7021],[110.1637,22.7065],[110.1696,22.7146],[110.1832,22.7201],[110.1895,22.7161],[110.2011,22.7211],[110.2097,22.7189],[110.2182,22.7206],[110.222,22.7184],[110.2223,22.7124],[110.2291,22.7126],[110.2347,22.7065],[110.2396,22.7067],[110.2423,22.6982],[110.2495,22.6981],[110.2517,22.6931],[110.2482,22.689],[110.2521,22.686],[110.2612,22.6917],[110.2684,22.691],[110.2716,22.7017],[110.2762,22.7065],[110.2835,22.7011],[110.2891,22.7042],[110.2964,22.6982],[110.2937,22.689],[110.3022,22.6816],[110.3057,22.6835],[110.3155,22.6796],[110.3106,22.6715],[110.3054,22.6702],[110.3004,22.6641],[110.2985,22.6566],[110.3045,22.6557],[110.3066,22.651],[110.304,22.6475],[110.3024,22.6343],[110.2975,22.6363],[110.2938,22.6329],[110.2922,22.6267],[110.2843,22.6189],[110.2797,22.617],[110.2752,22.6197],[110.2731,22.6251],[110.2569,22.6331],[110.2518,22.6309],[110.2577,22.6239],[110.2524,22.6218],[110.2535,22.6127],[110.2502,22.6082],[110.2514,22.6027],[110.2437,22.6022]]]},"properties":{"region_code":"CN-45-4509-450981","parent_region_code":"CN-45-4509","name":"北流市","level":"county","has_children":false,"full_path":"中国 / 广西壮族自治区 / 玉林市 / 北流市","source_admin_code":"450981","osm_relation_id":2776348}}
]}