{"type":"FeatureCollection", "features": [
{"type":"Feature","geometry":{"type":"Polygon","coordinates":[[[108.7271,23.7999],[108.7314,23.7954],[108.7397,23.7987],[108.744,23.7831],[108.7487,23.7797],[108.7572,23.7788],[108.7687,23.7809],[108.7793,23.771],[108.7776,23.7592],[108.7794,23.7451],[108.7833,23.7421],[108.7736,23.7355],[108.7752,23.729],[108.7836,23.7301],[108.7921,23.7221],[108.7965,23.723],[108.8,23.7167],[108.7937,23.7102],[108.785,23.6936],[108.7748,23.6923],[108.7691,23.6885],[108.7728,23.6822],[108.7704,23.6776],[108.7718,23.6719],[108.7798,23.6668],[108.7762,23.6578],[108.7762,23.6475],[108.7929,23.6369],[108.7919,23.6307],[108.7859,23.6287],[108.7787,23.6177],[108.7849,23.6089],[108.7914,23.6043],[108.7928,23.5956],[108.7997,23.5915],[108.8018,23.5748],[108.8078,23.5689],[108.8073,23.5587],[108.8096,23.5493],[108.8096,23.5381],[108.8157,23.5342],[108.8164,23.5267],[108.8223,23.5215],[108.8225,23.5123],[108.8173,23.5064],[108.8184,23.4965],[108.8332,23.4887],[108.8312,23.4828],[108.8383,23.4787],[108.8444,23.4726],[108.8517,23.4701],[108.861,23.4726],[108.866,23.4603],[108.8637,23.4555],[108.8659,23.447],[108.8801,23.4456],[108.8878,23.4429],[108.888,23.4366],[108.9053,23.4342],[108.9156,23.4206],[108.9121,23.4156],[108.9161,23.4109],[108.9081,23.3975],[108.9172,23.3919],[108.9254,23.377],[108.9258,23.3726],[108.9341,23.3627],[108.9428,23.3628],[108.9468,23.3658],[108.9601,23.3649],[108.965,23.3687],[108.964,23.3731],[108.9742,23.3716],[108.9844,23.3734],[108.9868,23.3695],[108.9932,23.3744],[108.9988,23.3704],[109.0068,23.3693],[109.0216,23.3627],[109.0281,23.3573],[109.0456,23.3556],[109.0497,23.348],[109.0473,23.3407],[109.0517,23.3239],[109.0608,23.3252],[109.0737,23.3291],[109.0738,23.3326],[109.0827,23.338],[109.0783,23.3437],[109.0795,23.3495],[109.0969,23.3471],[109.0886,23.34],[109.0889,23.3332],[109.0825,23.331],[109.0812,23.3204],[109.0921,23.3066],[109.1051,23.2934],[109.1109,23.2921],[109.1204,23.2937],[109.127,23.2885],[109.1282,23.2969],[109.1388,23.3037],[109.1388,23.2952],[109.1457,23.2922],[109.1626,23.2902],[109.1613,23.286],[109.1753,23.2748],[109.1784,23.2784],[109.1901,23.2721],[109.1922,23.2693],[109.2011,23.2733],[109.1988,23.278],[109.188,23.2853],[109.1952,23.2877],[109.1959,23.2952],[109.203,23.3021],[109.2152,23.3024],[109.2061,23.3079],[109.203,23.313],[109.2163,23.3228],[109.2129,23.3295],[109.2067,23.333],[109.2097,23.3381],[109.2153,23.3381],[109.2189,23.3426],[109.2277,23.3439],[109.2281,23.3476],[109.2381,23.3473],[109.2457,23.3526],[109.2543,23.3525],[109.2619,23.3496],[109.2646,23.3526],[109.2675,23.364],[109.2712,23.3693],[109.2711,23.3761],[109.2787,23.3831],[109.2927,23.3854],[109.292,23.3919],[109.2977,23.3989],[109.3036,23.3984],[109.3147,23.4076],[109.3184,23.4147],[109.3254,23.4185],[109.3393,23.4114],[109.3426,23.4175],[109.3483,23.4195],[109.3514,23.4158],[109.3661,23.4078],[109.3673,23.4024],[109.3636,23.3897],[109.3731,23.3842],[109.3742,23.3806],[109.3966,23.3853],[109.4075,23.3716],[109.4111,23.3741],[109.4185,23.3709],[109.4245,23.3622],[109.4336,23.3692],[109.4394,23.3815],[109.4532,23.3856],[109.4678,23.3858],[109.471,23.3816],[109.4782,23.3863],[109.4824,23.3941],[109.4728,23.4028],[109.4609,23.4112],[109.4575,23.4202],[109.4472,23.4196],[109.4551,23.4325],[109.4776,23.4583],[109.4765,23.4617],[109.4683,23.464],[109.4633,23.4789],[109.4643,23.4873],[109.4712,23.4878],[109.4693,23.495],[109.4729,23.5001],[109.4749,23.5137],[109.4742,23.5294],[109.4684,23.5332],[109.4695,23.5407],[109.4757,23.5487],[109.4874,23.5371],[109.4982,23.5384],[109.5041,23.5468],[109.5084,23.5625],[109.5162,23.566],[109.522,23.5786],[109.5368,23.5827],[109.5401,23.5888],[109.5483,23.5877],[109.553,23.5993],[109.558,23.6022],[109.5598,23.6103],[109.5675,23.6148],[109.5727,23.6295],[109.5762,23.6314],[109.5923,23.6484],[109.5952,23.6545],[109.5889,23.6603],[109.5811,23.6644],[109.5809,23.6819],[109.5852,23.692],[109.5836,23.6991],[109.5543,23.6936],[109.5478,23.695],[109.5409,23.7024],[109.5445,23.712],[109.5512,23.7182],[109.5702,23.7475],[109.5818,23.7441],[109.5869,23.7514],[109.5796,23.7782],[109.5724,23.789],[109.562,23.7971],[109.5442,23.801],[109.5345,23.8009],[109.5269,23.7944],[109.5228,23.7879],[109.5156,23.781],[109.5018,23.7818],[109.4882,23.7913],[109.4806,23.7928],[109.4765,23.8079],[109.4794,23.8173],[109.4849,23.8283],[109.4843,23.8395],[109.481,23.853],[109.4738,23.8577],[109.4684,23.8571],[109.4578,23.8628],[109.4535,23.8754],[109.4545,23.8821],[109.4526,23.8882],[109.445,23.8908],[109.4387,23.8981],[109.4274,23.9046],[109.4239,23.9106],[109.4098,23.9082],[109.3937,23.9102],[109.3909,23.9153],[109.3802,23.9171],[109.3702,23.9149],[109.3713,23.9108],[109.3591,23.9096],[109.3547,23.9148],[109.3616,23.9207],[109.3534,23.924],[109.3492,23.9373],[109.34,23.9401],[109.3443,23.9447],[109.3419,23.9515],[109.3353,23.9611],[109.3245,23.9636],[109.3256,23.9699],[109.3204,23.9904],[109.3145,23.9942],[109.3076,23.9952],[109.2912,24.0028],[109.2899,24.0135],[109.2934,24.0292],[109.2974,24.0347],[109.2935,24.0409],[109.2861,24.0452],[109.2789,24.0447],[109.2752,24.0489],[109.2692,24.0466],[109.2586,24.0487],[109.2527,24.0532],[109.2417,24.0569],[109.2213,24.0593],[109.2122,24.0519],[109.2165,24.0473],[109.2158,24.0349],[109.2167,24.0229],[109.2099,24.0252],[109.2013,24.0209],[109.1955,24.0222],[109.1879,24.018],[109.1801,24.0177],[109.169,24.0279],[109.1571,24.0299],[109.1509,24.0244],[109.1426,24.0253],[109.1431,24.0319],[109.1383,24.034],[109.138,24.0494],[109.1302,24.062],[109.1169,24.0632],[109.1105,24.06],[109.1029,24.0614],[109.0927,24.0667],[109.0744,24.066],[109.0556,24.0535],[109.0512,24.0465],[109.0565,24.0314],[109.0509,24.0257],[109.0404,24.0228],[109.0274,24.0116],[109.0306,24.0067],[109.0355,24.0072],[109.0412,23.9996],[109.0364,23.9909],[109.038,23.9872],[109.0323,23.9823],[109.0314,23.9677],[109.0282,23.958],[109.0379,23.9454],[109.0289,23.9398],[109.0191,23.9386],[109.0205,23.9343],[109.0196,23.92],[109.0149,23.9149],[109.0066,23.9108],[109.001,23.901],[109.0086,23.8999],[109.0081,23.8882],[109.0205,23.8795],[109.0211,23.8645],[109.0252,23.8629],[109.02,23.8534],[109.0194,23.8465],[109.0152,23.8385],[109.0054,23.8415],[108.998,23.8417],[108.9951,23.8355],[108.9981,23.83],[108.9922,23.8202],[108.9969,23.8164],[108.9922,23.8036],[108.9957,23.7994],[108.9976,23.7872],[109.0025,23.7866],[108.9992,23.7725],[109.0088,23.7672],[109.0162,23.7664],[109.0222,23.7696],[109.0407,23.7629],[109.0445,23.7562],[109.0417,23.7494],[109.0429,23.7373],[109.0359,23.7328],[109.0342,23.7253],[109.0291,23.7273],[109.0124,23.7245],[109.004,23.7215],[109.0004,23.7151],[108.9915,23.7216],[108.9795,23.7165],[108.9697,23.7187],[108.9679,23.7126],[108.9615,23.7072],[108.955,23.7077],[108.9429,23.6967],[108.9429,23.6923],[108.9288,23.6808],[108.9258,23.6801],[108.9212,23.6718],[108.9047,23.6643],[108.8973,23.6732],[108.8917,23.676],[108.8891,23.6813],[108.8945,23.6942],[108.8921,23.6994],[108.8824,23.7054],[108.8699,23.7092],[108.8568,23.7163],[108.8536,23.7208],[108.8526,23.7403],[108.8574,23.754],[108.8616,23.7553],[108.8766,23.752],[108.8834,23.7543],[108.8832,23.7621],[108.8783,23.7664],[108.8699,23.7698],[108.8588,23.7708],[108.8492,23.7779],[108.8457,23.7885],[108.8468,23.7947],[108.8522,23.8013],[108.8641,23.807],[108.8687,23.8153],[108.8642,23.8197],[108.8498,23.822],[108.8379,23.8213],[108.8173,23.8219],[108.8107,23.8243],[108.8021,23.8216],[108.7941,23.8214],[108.7684,23.8248],[108.7582,23.8336],[108.7544,23.8473],[108.7524,23.8606],[108.7407,23.8614],[108.7326,23.8558],[108.7317,23.8462],[108.7366,23.8427],[108.7355,23.8306],[108.7371,23.8196],[108.7354,23.8046],[108.7271,23.7999]]]},"properties":{"region_code":"CN-45-4513-451302","parent_region_code":"CN-45-4513","name":"兴宾区","level":"county","has_children":false,"full_path":"中国 / 广西壮族自治区 / 来宾市 / 兴宾区","source_admin_code":"451302","osm_relation_id":2775864}},
{"type":"Feature","geometry":{"type":"Polygon","coordinates":[[[108.8379,23.8213],[108.8395,23.827],[108.8327,23.8302],[108.8289,23.8372],[108.836,23.8368],[108.8404,23.8454],[108.8431,23.8549],[108.8549,23.8675],[108.853,23.8737],[108.868,23.8753],[108.8727,23.8833],[108.8695,23.8934],[108.8658,23.895],[108.8635,23.9059],[108.8709,23.9065],[108.8834,23.9121],[108.8894,23.9273],[108.893,23.9285],[108.9032,23.9256],[108.9004,23.92],[108.9042,23.9115],[108.9093,23.9052],[108.9212,23.9026],[108.9322,23.9052],[108.9401,23.9041],[108.9482,23.8948],[108.952,23.8878],[108.9621,23.9005],[108.972,23.8956],[108.9888,23.9002],[108.992,23.8979],[109.001,23.901],[109.0066,23.9108],[109.0149,23.9149],[109.0196,23.92],[109.0205,23.9343],[109.0191,23.9386],[109.0289,23.9398],[109.0379,23.9454],[109.0282,23.958],[109.0314,23.9677],[109.0323,23.9823],[109.038,23.9872],[109.0364,23.9909],[109.0412,23.9996],[109.0355,24.0072],[109.0306,24.0067],[109.0274,24.0116],[109.0404,24.0228],[109.0509,24.0257],[109.0565,24.0314],[109.0512,24.0465],[109.0556,24.0535],[109.0744,24.066],[109.0927,24.0667],[109.1024,24.0805],[109.1023,24.0853],[109.0938,24.0932],[109.0878,24.0905],[109.0745,24.0964],[109.062,24.0923],[109.0525,24.0948],[109.0505,24.1086],[109.0375,24.1149],[109.0297,24.1264],[109.0261,24.1283],[109.0097,24.1281],[109.0012,24.1311],[108.998,24.1348],[108.9917,24.1305],[108.9833,24.1281],[108.9799,24.1229],[108.9742,24.1238],[108.9652,24.1334],[108.9567,24.1559],[108.9604,24.1661],[108.9533,24.1746],[108.9385,24.1728],[108.9306,24.1809],[108.9287,24.1881],[108.9334,24.1914],[108.9336,24.2084],[108.9294,24.2207],[108.929,24.228],[108.9349,24.2308],[108.9367,24.2441],[108.9312,24.2463],[108.9229,24.2554],[108.9254,24.2616],[108.9225,24.264],[108.9066,24.2622],[108.902,24.2593],[108.893,24.2669],[108.8785,24.2724],[108.8755,24.2757],[108.8659,24.2724],[108.8587,24.2753],[108.8553,24.2862],[108.8569,24.2963],[108.85,24.2987],[108.8493,24.3038],[108.8443,24.3107],[108.8529,24.3135],[108.8519,24.3215],[108.8545,24.326],[108.8437,24.333],[108.8398,24.3412],[108.8359,24.357],[108.827,24.3547],[108.8278,24.3621],[108.8117,24.3723],[108.8012,24.3762],[108.7935,24.3631],[108.784,24.3637],[108.7734,24.3715],[108.7681,24.3666],[108.7623,24.3667],[108.7559,24.3746],[108.7574,24.3817],[108.7502,24.3832],[108.7495,24.377],[108.7432,24.3746],[108.7355,24.367],[108.7309,24.3565],[108.7336,24.3518],[108.7284,24.3471],[108.7229,24.337],[108.7271,24.3327],[108.7371,24.327],[108.7368,24.3154],[108.7279,24.3126],[108.7273,24.3074],[108.717,24.299],[108.6999,24.2933],[108.6942,24.2957],[108.6868,24.2934],[108.6826,24.2988],[108.6755,24.2919],[108.6678,24.2918],[108.6697,24.2801],[108.6756,24.2769],[108.6771,24.2726],[108.6843,24.2724],[108.686,24.2644],[108.6832,24.2606],[108.6777,24.2455],[108.6848,24.2383],[108.6982,24.2344],[108.6899,24.226],[108.6781,24.1934],[108.68,24.1852],[108.6735,24.1799],[108.6807,24.1701],[108.6833,24.1639],[108.6815,24.159],[108.6759,24.159],[108.672,24.1492],[108.6619,24.1526],[108.6556,24.1486],[108.6582,24.1428],[108.6534,24.1379],[108.6451,24.1423],[108.639,24.1398],[108.6339,24.1447],[108.6259,24.1429],[108.6143,24.1369],[108.6106,24.1438],[108.6001,24.144],[108.5972,24.1497],[108.5871,24.139],[108.5902,24.1304],[108.5951,24.123],[108.589,24.1209],[108.5845,24.1139],[108.5853,24.1071],[108.581,24.0965],[108.5861,24.0845],[108.5838,24.0778],[108.5855,24.0737],[108.5924,24.0696],[108.5906,24.0662],[108.594,24.0483],[108.5878,24.0468],[108.583,24.0383],[108.5698,24.0379],[108.5667,24.0437],[108.562,24.0431],[108.5552,24.0474],[108.5549,24.0397],[108.5597,24.0366],[108.5579,24.0311],[108.563,24.0272],[108.5641,24.0135],[108.5528,24.0047],[108.5424,24.005],[108.5338,24.002],[108.5309,24.0056],[108.5132,24.0052],[108.5124,24.0084],[108.5025,24.0137],[108.5001,24.0241],[108.4919,24.0346],[108.4811,24.0303],[108.4757,24.0219],[108.4812,24.0128],[108.4908,24.0021],[108.4948,23.9941],[108.4845,23.9928],[108.4739,23.9808],[108.4567,23.9895],[108.4438,23.9794],[108.4374,23.97],[108.4301,23.9673],[108.4311,23.9587],[108.437,23.9539],[108.433,23.9408],[108.4258,23.9353],[108.4248,23.9284],[108.4188,23.9269],[108.4211,23.9194],[108.4275,23.9186],[108.4381,23.9221],[108.4513,23.914],[108.4458,23.9093],[108.4416,23.9001],[108.4628,23.9007],[108.4708,23.8981],[108.469,23.8915],[108.4578,23.8911],[108.4599,23.8844],[108.4577,23.8772],[108.4519,23.8756],[108.4542,23.8676],[108.4486,23.8592],[108.4424,23.8572],[108.4459,23.8515],[108.4538,23.8463],[108.4474,23.8404],[108.4406,23.8417],[108.434,23.8363],[108.4237,23.8338],[108.414,23.8272],[108.4143,23.8181],[108.4188,23.8175],[108.4218,23.8122],[108.4159,23.8005],[108.4251,23.7998],[108.427,23.8083],[108.4318,23.8099],[108.4377,23.8076],[108.4372,23.8029],[108.4302,23.7898],[108.435,23.7877],[108.4403,23.79],[108.4467,23.7892],[108.4467,23.7844],[108.4528,23.7834],[108.4533,23.7895],[108.4599,23.7887],[108.4705,23.7804],[108.4654,23.7761],[108.4697,23.7673],[108.4845,23.7622],[108.4801,23.7503],[108.481,23.7432],[108.4702,23.7432],[108.4686,23.7389],[108.4742,23.734],[108.4822,23.7235],[108.4838,23.7165],[108.4944,23.7161],[108.4954,23.7079],[108.4998,23.7069],[108.4917,23.6856],[108.4929,23.68],[108.4989,23.6789],[108.5007,23.6723],[108.4992,23.6656],[108.5036,23.6643],[108.5077,23.6692],[108.5157,23.6665],[108.5206,23.6743],[108.5253,23.6747],[108.5252,23.6829],[108.5373,23.6888],[108.5385,23.7029],[108.5455,23.7102],[108.5545,23.7065],[108.562,23.7102],[108.5597,23.7165],[108.563,23.7262],[108.5754,23.7345],[108.5804,23.74],[108.5854,23.7378],[108.5915,23.7392],[108.5956,23.7453],[108.6055,23.7487],[108.6076,23.7539],[108.6245,23.7588],[108.627,23.7626],[108.6257,23.769],[108.6317,23.7708],[108.6485,23.7685],[108.6541,23.773],[108.6608,23.772],[108.6669,23.7749],[108.669,23.7877],[108.6767,23.791],[108.6838,23.7911],[108.6859,23.7855],[108.6968,23.7877],[108.7075,23.7853],[108.7104,23.7899],[108.7271,23.7999],[108.7354,23.8046],[108.7371,23.8196],[108.7355,23.8306],[108.7366,23.8427],[108.7317,23.8462],[108.7326,23.8558],[108.7407,23.8614],[108.7524,23.8606],[108.7544,23.8473],[108.7582,23.8336],[108.7684,23.8248],[108.7941,23.8214],[108.8021,23.8216],[108.8107,23.8243],[108.8173,23.8219],[108.8379,23.8213]]]},"properties":{"region_code":"CN-45-4513-451321","parent_region_code":"CN-45-4513","name":"忻城县","level":"county","has_children":false,"full_path":"中国 / 广西壮族自治区 / 来宾市 / 忻城县","source_admin_code":"451321","osm_relation_id":2775863}},
{"type":"Feature","geometry":{"type":"Polygon","coordinates":[[[109.5345,23.8009],[109.5222,23.8129],[109.5192,23.8221],[109.5214,23.8322],[109.5378,23.8563],[109.5432,23.876],[109.5528,23.8851],[109.5594,23.8947],[109.5741,23.9021],[109.5936,23.9027],[109.6218,23.9157],[109.64,23.9261],[109.653,23.929],[109.6643,23.9211],[109.6673,23.9207],[109.6651,23.9099],[109.6682,23.9019],[109.6846,23.8947],[109.6909,23.8934],[109.6938,23.8841],[109.6894,23.8827],[109.6701,23.8877],[109.6534,23.8885],[109.6517,23.8806],[109.6623,23.8768],[109.6681,23.8718],[109.6682,23.8668],[109.6781,23.8594],[109.6856,23.8619],[109.6883,23.856],[109.6821,23.8536],[109.6886,23.8379],[109.6941,23.8377],[109.6944,23.8315],[109.6979,23.8243],[109.7058,23.8205],[109.7071,23.8055],[109.7011,23.7999],[109.6999,23.7937],[109.7031,23.7841],[109.7118,23.7849],[109.7289,23.7845],[109.7345,23.7876],[109.741,23.7849],[109.756,23.7878],[109.7746,23.7802],[109.78,23.775],[109.7845,23.7646],[109.7828,23.7582],[109.786,23.7545],[109.7865,23.7437],[109.7897,23.7413],[109.803,23.743],[109.8129,23.7327],[109.823,23.7338],[109.8176,23.7393],[109.8221,23.7447],[109.8296,23.743],[109.8304,23.754],[109.8261,23.7632],[109.8293,23.7675],[109.8299,23.7815],[109.8328,23.7916],[109.8309,23.8033],[109.8346,23.8104],[109.8316,23.817],[109.8401,23.8259],[109.8399,23.8361],[109.8288,23.8401],[109.8298,23.8531],[109.8317,23.8547],[109.8302,23.8698],[109.8326,23.873],[109.8302,23.8888],[109.833,23.8943],[109.8434,23.9015],[109.8499,23.902],[109.8547,23.896],[109.87,23.8981],[109.8757,23.8898],[109.9,23.8877],[109.908,23.8955],[109.9127,23.9054],[109.9233,23.9068],[109.9325,23.9012],[109.9376,23.8952],[109.9439,23.8934],[109.9467,23.8981],[109.9445,23.9048],[109.9457,23.9123],[109.9368,23.9143],[109.9438,23.9215],[109.9541,23.9234],[109.9608,23.9281],[109.9721,23.9232],[109.9776,23.9311],[109.9743,23.9392],[109.975,23.9468],[109.9797,23.9494],[109.9886,23.9472],[109.9895,23.9512],[109.998,23.9526],[109.9953,23.9633],[109.9925,23.9664],[109.9996,23.9748],[109.9978,23.9856],[110.0011,23.9899],[109.9999,23.9975],[110.0054,24.0049],[110.0015,24.0123],[110.0131,24.009],[110.0147,24.0175],[110.0128,24.025],[110.0213,24.0354],[110.0261,24.0368],[110.0381,24.0301],[110.0454,24.0432],[110.0533,24.0449],[110.0589,24.0433],[110.0612,24.0555],[110.0722,24.0542],[110.0693,24.065],[110.0479,24.077],[110.045,24.0842],[110.0507,24.0885],[110.0484,24.0935],[110.0499,24.104],[110.0417,24.1177],[110.0475,24.1252],[110.038,24.1353],[110.0267,24.1375],[110.0227,24.1438],[110.0136,24.1395],[110.0032,24.138],[109.995,24.1415],[109.9904,24.1482],[109.9835,24.1488],[109.9637,24.1471],[109.9555,24.1498],[109.9451,24.1478],[109.9406,24.1445],[109.9232,24.1482],[109.9126,24.1632],[109.9121,24.1686],[109.9047,24.1703],[109.8927,24.1686],[109.8997,24.1771],[109.8962,24.1806],[109.9122,24.1876],[109.9136,24.1937],[109.9117,24.2041],[109.917,24.2155],[109.9195,24.2043],[109.9232,24.2034],[109.9232,24.215],[109.9202,24.2161],[109.9185,24.2287],[109.919,24.2354],[109.9158,24.2406],[109.9083,24.2409],[109.9031,24.244],[109.9042,24.2541],[109.9009,24.2613],[109.9033,24.2718],[109.902,24.275],[109.921,24.2719],[109.9304,24.2745],[109.9217,24.2917],[109.9218,24.2971],[109.9131,24.2988],[109.9074,24.304],[109.9036,24.3008],[109.89,24.2975],[109.8831,24.2917],[109.8804,24.2859],[109.8796,24.2771],[109.8674,24.2801],[109.8447,24.2764],[109.8487,24.2649],[109.8451,24.262],[109.8338,24.2584],[109.8232,24.26],[109.8147,24.2515],[109.8047,24.2613],[109.7957,24.2595],[109.7987,24.2508],[109.7956,24.246],[109.7954,24.2388],[109.7824,24.2358],[109.7766,24.2322],[109.7755,24.2212],[109.7736,24.2188],[109.7615,24.2168],[109.7517,24.2173],[109.743,24.2218],[109.7335,24.208],[109.7133,24.1937],[109.7086,24.1878],[109.7078,24.1586],[109.7032,24.1534],[109.69,24.1587],[109.6777,24.1562],[109.6731,24.1571],[109.6637,24.1489],[109.6591,24.1517],[109.6533,24.1478],[109.6482,24.1504],[109.6365,24.1463],[109.6234,24.1485],[109.6136,24.1459],[109.6079,24.1396],[109.6103,24.1355],[109.608,24.1278],[109.6118,24.1236],[109.6101,24.1156],[109.5984,24.1094],[109.5953,24.1007],[109.5954,24.0934],[109.587,24.0834],[109.5855,24.0751],[109.5693,24.0673],[109.5687,24.0624],[109.5601,24.0628],[109.5441,24.0684],[109.537,24.0621],[109.5283,24.0625],[109.5228,24.0578],[109.5108,24.0577],[109.4957,24.0475],[109.496,24.0438],[109.4907,24.0386],[109.489,24.0329],[109.488,24.0187],[109.4833,24.0155],[109.4873,24.0052],[109.4923,24.0017],[109.4933,23.9962],[109.4999,23.9921],[109.4897,23.9812],[109.4919,23.9764],[109.4794,23.9629],[109.4717,23.9697],[109.4664,23.9703],[109.4619,23.9638],[109.4671,23.9609],[109.4663,23.9555],[109.4509,23.9456],[109.4417,23.9437],[109.4433,23.9342],[109.4393,23.9235],[109.4259,23.9203],[109.4239,23.9106],[109.4274,23.9046],[109.4387,23.8981],[109.445,23.8908],[109.4526,23.8882],[109.4545,23.8821],[109.4535,23.8754],[109.4578,23.8628],[109.4684,23.8571],[109.4738,23.8577],[109.481,23.853],[109.4843,23.8395],[109.4849,23.8283],[109.4794,23.8173],[109.4765,23.8079],[109.4806,23.7928],[109.4882,23.7913],[109.5018,23.7818],[109.5156,23.781],[109.5228,23.7879],[109.5269,23.7944],[109.5345,23.8009]]]},"properties":{"region_code":"CN-45-4513-451322","parent_region_code":"CN-45-4513","name":"象州县","level":"county","has_children":false,"full_path":"中国 / 广西壮族自治区 / 来宾市 / 象州县","source_admin_code":"451322","osm_relation_id":2775862}},
{"type":"Feature","geometry":{"type":"Polygon","coordinates":[[[109.4782,23.3863],[109.4822,23.3747],[109.4795,23.3706],[109.4842,23.3617],[109.4907,23.3601],[109.4913,23.3542],[109.4988,23.3496],[109.4956,23.34],[109.5097,23.3356],[109.5109,23.3273],[109.5204,23.3233],[109.5306,23.3122],[109.535,23.3112],[109.5367,23.3032],[109.55,23.3116],[109.5519,23.3175],[109.561,23.3202],[109.563,23.3289],[109.567,23.3358],[109.5676,23.3443],[109.5742,23.3541],[109.5753,23.3611],[109.5872,23.3659],[109.592,23.36],[109.6077,23.372],[109.6076,23.3801],[109.6173,23.3897],[109.623,23.3925],[109.6298,23.4017],[109.6311,23.4093],[109.6379,23.4144],[109.6429,23.4245],[109.6478,23.4254],[109.6559,23.4318],[109.6674,23.4238],[109.6732,23.4244],[109.68,23.4183],[109.6807,23.4109],[109.6851,23.4059],[109.6934,23.4037],[109.697,23.4052],[109.6946,23.413],[109.7131,23.4136],[109.722,23.4155],[109.7263,23.4221],[109.7244,23.4269],[109.7269,23.4341],[109.7223,23.4379],[109.7245,23.4497],[109.7284,23.4602],[109.7332,23.4631],[109.7393,23.4624],[109.7477,23.4578],[109.749,23.4642],[109.7581,23.4615],[109.7686,23.4627],[109.7754,23.4682],[109.7803,23.4852],[109.7943,23.4881],[109.8315,23.4818],[109.8423,23.4745],[109.8464,23.4612],[109.8478,23.4504],[109.8575,23.4415],[109.8609,23.4508],[109.875,23.4662],[109.8806,23.4695],[109.8835,23.4745],[109.8908,23.4778],[109.8871,23.4891],[109.8898,23.4922],[109.8879,23.4985],[109.8929,23.5059],[109.894,23.5152],[109.8972,23.5223],[109.8941,23.5265],[109.8969,23.5304],[109.8969,23.5387],[109.8882,23.5415],[109.8922,23.5563],[109.8896,23.5599],[109.8954,23.5648],[109.8951,23.5682],[109.9051,23.5792],[109.9106,23.5876],[109.9153,23.5902],[109.917,23.6011],[109.9141,23.6028],[109.914,23.6163],[109.918,23.6202],[109.9256,23.6325],[109.9203,23.6492],[109.9192,23.6684],[109.9226,23.6835],[109.9258,23.6892],[109.9233,23.6986],[109.9136,23.7107],[109.9136,23.7216],[109.9095,23.728],[109.9025,23.731],[109.8934,23.727],[109.8919,23.7174],[109.88,23.7159],[109.871,23.7205],[109.8661,23.7204],[109.863,23.7152],[109.8645,23.7099],[109.8627,23.6945],[109.8494,23.6922],[109.8452,23.6989],[109.8341,23.6972],[109.8308,23.699],[109.8275,23.7098],[109.8291,23.7131],[109.8372,23.715],[109.8404,23.7226],[109.8372,23.7299],[109.832,23.7299],[109.823,23.7338],[109.8129,23.7327],[109.803,23.743],[109.7897,23.7413],[109.7865,23.7437],[109.786,23.7545],[109.7828,23.7582],[109.7845,23.7646],[109.78,23.775],[109.7746,23.7802],[109.756,23.7878],[109.741,23.7849],[109.7345,23.7876],[109.7289,23.7845],[109.7118,23.7849],[109.7031,23.7841],[109.6999,23.7937],[109.7011,23.7999],[109.7071,23.8055],[109.7058,23.8205],[109.6979,23.8243],[109.6944,23.8315],[109.6941,23.8377],[109.6886,23.8379],[109.6821,23.8536],[109.6883,23.856],[109.6856,23.8619],[109.6781,23.8594],[109.6682,23.8668],[109.6681,23.8718],[109.6623,23.8768],[109.6517,23.8806],[109.6534,23.8885],[109.6701,23.8877],[109.6894,23.8827],[109.6938,23.8841],[109.6909,23.8934],[109.6846,23.8947],[109.6682,23.9019],[109.6651,23.9099],[109.6673,23.9207],[109.6643,23.9211],[109.653,23.929],[109.64,23.9261],[109.6218,23.9157],[109.5936,23.9027],[109.5741,23.9021],[109.5594,23.8947],[109.5528,23.8851],[109.5432,23.876],[109.5378,23.8563],[109.5214,23.8322],[109.5192,23.8221],[109.5222,23.8129],[109.5345,23.8009],[109.5442,23.801],[109.562,23.7971],[109.5724,23.789],[109.5796,23.7782],[109.5869,23.7514],[109.5818,23.7441],[109.5702,23.7475],[109.5512,23.7182],[109.5445,23.712],[109.5409,23.7024],[109.5478,23.695],[109.5543,23.6936],[109.5836,23.6991],[109.5852,23.692],[109.5809,23.6819],[109.5811,23.6644],[109.5889,23.6603],[109.5952,23.6545],[109.5923,23.6484],[109.5762,23.6314],[109.5727,23.6295],[109.5675,23.6148],[109.5598,23.6103],[109.558,23.6022],[109.553,23.5993],[109.5483,23.5877],[109.5401,23.5888],[109.5368,23.5827],[109.522,23.5786],[109.5162,23.566],[109.5084,23.5625],[109.5041,23.5468],[109.4982,23.5384],[109.4874,23.5371],[109.4757,23.5487],[109.4695,23.5407],[109.4684,23.5332],[109.4742,23.5294],[109.4749,23.5137],[109.4729,23.5001],[109.4693,23.495],[109.4712,23.4878],[109.4643,23.4873],[109.4633,23.4789],[109.4683,23.464],[109.4765,23.4617],[109.4776,23.4583],[109.4551,23.4325],[109.4472,23.4196],[109.4575,23.4202],[109.4609,23.4112],[109.4728,23.4028],[109.4824,23.3941],[109.4782,23.3863]]]},"properties":{"region_code":"CN-45-4513-451323","parent_region_code":"CN-45-4513","name":"武宣县","level":"county","has_children":false,"full_path":"中国 / 广西壮族自治区 / 来宾市 / 武宣县","source_admin_code":"451323","osm_relation_id":2775861}},
{"type":"Feature","geometry":{"type":"Polygon","coordinates":[[[109.823,23.7338],[109.832,23.7299],[109.8372,23.7299],[109.8404,23.7226],[109.8372,23.715],[109.8291,23.7131],[109.8275,23.7098],[109.8308,23.699],[109.8341,23.6972],[109.8452,23.6989],[109.8494,23.6922],[109.8627,23.6945],[109.8645,23.7099],[109.863,23.7152],[109.8661,23.7204],[109.871,23.7205],[109.88,23.7159],[109.8919,23.7174],[109.8934,23.727],[109.9025,23.731],[109.9095,23.728],[109.9136,23.7216],[109.9136,23.7107],[109.9233,23.6986],[109.9258,23.6892],[109.9384,23.6924],[109.9482,23.6911],[109.9538,23.7175],[109.9459,23.7213],[109.9598,23.7369],[109.9668,23.736],[109.9739,23.7397],[109.9818,23.7542],[109.9837,23.7623],[109.9887,23.7665],[109.9908,23.7816],[110.0009,23.7792],[110.0111,23.7829],[110.0143,23.7797],[110.0219,23.7799],[110.0264,23.7905],[110.0391,23.7963],[110.0561,23.7977],[110.064,23.8026],[110.068,23.8098],[110.0735,23.8102],[110.0799,23.8253],[110.0844,23.8251],[110.0916,23.8369],[110.097,23.8396],[110.1072,23.8532],[110.1107,23.8534],[110.1195,23.8618],[110.1294,23.8652],[110.1334,23.8703],[110.1386,23.8837],[110.1412,23.8863],[110.1481,23.8799],[110.156,23.8754],[110.1659,23.8764],[110.1732,23.8633],[110.1771,23.8602],[110.1886,23.8603],[110.1895,23.8652],[110.1958,23.8696],[110.2015,23.8807],[110.1975,23.8898],[110.2001,23.9004],[110.1981,23.9029],[110.201,23.9112],[110.2097,23.9142],[110.2196,23.9052],[110.2284,23.9019],[110.2394,23.8908],[110.2585,23.8981],[110.2687,23.8769],[110.2775,23.8676],[110.2819,23.8552],[110.289,23.8569],[110.2886,23.8634],[110.2952,23.8691],[110.2902,23.8789],[110.2908,23.8848],[110.2976,23.893],[110.3068,23.898],[110.3108,23.9111],[110.3044,23.9231],[110.2988,23.9235],[110.2932,23.931],[110.298,23.9369],[110.2965,23.9446],[110.2908,23.9577],[110.2846,23.965],[110.2954,23.9782],[110.3008,23.979],[110.3,23.9919],[110.3037,23.9972],[110.3031,24.0088],[110.3052,24.0192],[110.3115,24.027],[110.3168,24.0259],[110.325,24.0324],[110.3288,24.0323],[110.3394,24.0373],[110.3454,24.0359],[110.3505,24.0388],[110.3583,24.0355],[110.3667,24.0362],[110.3696,24.0412],[110.3811,24.0418],[110.3948,24.0491],[110.3969,24.0575],[110.3905,24.0607],[110.3796,24.0593],[110.3742,24.0568],[110.3773,24.0503],[110.3701,24.0423],[110.363,24.0534],[110.3548,24.0557],[110.3568,24.0657],[110.3454,24.0642],[110.3396,24.0676],[110.3523,24.0811],[110.3613,24.0841],[110.3662,24.0823],[110.3713,24.0865],[110.3647,24.0964],[110.3575,24.0973],[110.3566,24.1051],[110.3619,24.1089],[110.3664,24.1191],[110.375,24.1203],[110.3781,24.1267],[110.3843,24.1293],[110.3928,24.1186],[110.3931,24.1113],[110.3989,24.1119],[110.3965,24.1029],[110.3984,24.1],[110.4076,24.1065],[110.4106,24.1217],[110.417,24.1195],[110.4271,24.1213],[110.433,24.1184],[110.4507,24.1207],[110.4559,24.1298],[110.4508,24.1352],[110.4458,24.1453],[110.4343,24.1413],[110.4055,24.1484],[110.412,24.1572],[110.422,24.1588],[110.4231,24.1651],[110.4272,24.1707],[110.4348,24.1658],[110.439,24.1692],[110.4395,24.1761],[110.4466,24.1805],[110.4519,24.1866],[110.4323,24.2003],[110.4258,24.1994],[110.4213,24.2026],[110.4144,24.2029],[110.4122,24.2123],[110.3996,24.2248],[110.3887,24.2232],[110.3777,24.2164],[110.3704,24.227],[110.3646,24.2268],[110.3539,24.2319],[110.3569,24.2353],[110.354,24.2403],[110.3596,24.244],[110.3614,24.2604],[110.3582,24.2665],[110.3687,24.2679],[110.367,24.2775],[110.3534,24.2854],[110.3478,24.2834],[110.3438,24.2858],[110.327,24.2802],[110.3184,24.2799],[110.3131,24.2908],[110.3141,24.2982],[110.3051,24.3021],[110.2943,24.304],[110.2841,24.3019],[110.2739,24.3064],[110.2728,24.3108],[110.2655,24.3118],[110.266,24.3213],[110.2583,24.3257],[110.2538,24.3319],[110.2545,24.3415],[110.2605,24.3433],[110.2635,24.3504],[110.2608,24.3545],[110.2629,24.3608],[110.2553,24.3631],[110.2504,24.3617],[110.2432,24.3557],[110.2296,24.3559],[110.2269,24.3605],[110.2206,24.3612],[110.2137,24.348],[110.2058,24.3544],[110.1953,24.3497],[110.1928,24.3567],[110.1976,24.3711],[110.1892,24.3751],[110.1856,24.3743],[110.1852,24.3855],[110.1896,24.3855],[110.2029,24.4002],[110.2021,24.4066],[110.1931,24.4053],[110.1862,24.41],[110.199,24.4169],[110.1918,24.4268],[110.1944,24.4437],[110.1995,24.4457],[110.1996,24.4531],[110.1863,24.4493],[110.1819,24.4507],[110.1676,24.4409],[110.1592,24.4414],[110.1556,24.4473],[110.1487,24.4457],[110.1456,24.442],[110.1346,24.4443],[110.1289,24.4505],[110.1169,24.452],[110.1121,24.46],[110.0967,24.4662],[110.0922,24.4658],[110.0867,24.46],[110.0766,24.4704],[110.0691,24.4692],[110.0644,24.4627],[110.068,24.4525],[110.0685,24.4431],[110.0668,24.4373],[110.0578,24.432],[110.0551,24.425],[110.0487,24.4153],[110.041,24.3929],[110.045,24.381],[110.0444,24.37],[110.0357,24.3635],[110.0307,24.3578],[110.031,24.352],[110.0214,24.3408],[110.0157,24.3395],[110.0135,24.3315],[110.0158,24.3287],[110.0198,24.3078],[110.0242,24.3091],[110.0283,24.3047],[110.0275,24.3005],[110.0342,24.295],[110.0382,24.2852],[110.0294,24.2829],[110.0243,24.2743],[110.0158,24.264],[110.0078,24.2585],[110.0023,24.2617],[109.9962,24.2549],[109.9878,24.2635],[109.9597,24.2635],[109.9546,24.2614],[109.9541,24.252],[109.9478,24.2498],[109.9486,24.2428],[109.9317,24.2376],[109.924,24.2366],[109.9158,24.2406],[109.919,24.2354],[109.9185,24.2287],[109.9202,24.2161],[109.9232,24.215],[109.9232,24.2034],[109.9195,24.2043],[109.917,24.2155],[109.9117,24.2041],[109.9136,24.1937],[109.9122,24.1876],[109.8962,24.1806],[109.8997,24.1771],[109.8927,24.1686],[109.9047,24.1703],[109.9121,24.1686],[109.9126,24.1632],[109.9232,24.1482],[109.9406,24.1445],[109.9451,24.1478],[109.9555,24.1498],[109.9637,24.1471],[109.9835,24.1488],[109.9904,24.1482],[109.995,24.1415],[110.0032,24.138],[110.0136,24.1395],[110.0227,24.1438],[110.0267,24.1375],[110.038,24.1353],[110.0475,24.1252],[110.0417,24.1177],[110.0499,24.104],[110.0484,24.0935],[110.0507,24.0885],[110.045,24.0842],[110.0479,24.077],[110.0693,24.065],[110.0722,24.0542],[110.0612,24.0555],[110.0589,24.0433],[110.0533,24.0449],[110.0454,24.0432],[110.0381,24.0301],[110.0261,24.0368],[110.0213,24.0354],[110.0128,24.025],[110.0147,24.0175],[110.0131,24.009],[110.0015,24.0123],[110.0054,24.0049],[109.9999,23.9975],[110.0011,23.9899],[109.9978,23.9856],[109.9996,23.9748],[109.9925,23.9664],[109.9953,23.9633],[109.998,23.9526],[109.9895,23.9512],[109.9886,23.9472],[109.9797,23.9494],[109.975,23.9468],[109.9743,23.9392],[109.9776,23.9311],[109.9721,23.9232],[109.9608,23.9281],[109.9541,23.9234],[109.9438,23.9215],[109.9368,23.9143],[109.9457,23.9123],[109.9445,23.9048],[109.9467,23.8981],[109.9439,23.8934],[109.9376,23.8952],[109.9325,23.9012],[109.9233,23.9068],[109.9127,23.9054],[109.908,23.8955],[109.9,23.8877],[109.8757,23.8898],[109.87,23.8981],[109.8547,23.896],[109.8499,23.902],[109.8434,23.9015],[109.833,23.8943],[109.8302,23.8888],[109.8326,23.873],[109.8302,23.8698],[109.8317,23.8547],[109.8298,23.8531],[109.8288,23.8401],[109.8399,23.8361],[109.8401,23.8259],[109.8316,23.817],[109.8346,23.8104],[109.8309,23.8033],[109.8328,23.7916],[109.8299,23.7815],[109.8293,23.7675],[109.8261,23.7632],[109.8304,23.754],[109.8296,23.743],[109.8221,23.7447],[109.8176,23.7393],[109.823,23.7338]]]},"properties":{"region_code":"CN-45-4513-451324","parent_region_code":"CN-45-4513","name":"金秀瑶族自治县","level":"county","has_children":false,"full_path":"中国 / 广西壮族自治区 / 来宾市 / 金秀瑶族自治县","source_admin_code":"451324","osm_relation_id":2775860}},
{"type":"Feature","geometry":{"type":"Polygon","coordinates":[[[109.001,23.901],[108.992,23.8979],[108.9888,23.9002],[108.972,23.8956],[108.9621,23.9005],[108.952,23.8878],[108.9482,23.8948],[108.9401,23.9041],[108.9322,23.9052],[108.9212,23.9026],[108.9093,23.9052],[108.9042,23.9115],[108.9004,23.92],[108.9032,23.9256],[108.893,23.9285],[108.8894,23.9273],[108.8834,23.9121],[108.8709,23.9065],[108.8635,23.9059],[108.8658,23.895],[108.8695,23.8934],[108.8727,23.8833],[108.868,23.8753],[108.853,23.8737],[108.8549,23.8675],[108.8431,23.8549],[108.8404,23.8454],[108.836,23.8368],[108.8289,23.8372],[108.8327,23.8302],[108.8395,23.827],[108.8379,23.8213],[108.8498,23.822],[108.8642,23.8197],[108.8687,23.8153],[108.8641,23.807],[108.8522,23.8013],[108.8468,23.7947],[108.8457,23.7885],[108.8492,23.7779],[108.8588,23.7708],[108.8699,23.7698],[108.8783,23.7664],[108.8832,23.7621],[108.8834,23.7543],[108.8766,23.752],[108.8616,23.7553],[108.8574,23.754],[108.8526,23.7403],[108.8536,23.7208],[108.8568,23.7163],[108.8699,23.7092],[108.8824,23.7054],[108.8921,23.6994],[108.8945,23.6942],[108.8891,23.6813],[108.8917,23.676],[108.8973,23.6732],[108.9047,23.6643],[108.9212,23.6718],[108.9258,23.6801],[108.9288,23.6808],[108.9429,23.6923],[108.9429,23.6967],[108.955,23.7077],[108.9615,23.7072],[108.9679,23.7126],[108.9697,23.7187],[108.9795,23.7165],[108.9915,23.7216],[109.0004,23.7151],[109.004,23.7215],[109.0124,23.7245],[109.0291,23.7273],[109.0342,23.7253],[109.0359,23.7328],[109.0429,23.7373],[109.0417,23.7494],[109.0445,23.7562],[109.0407,23.7629],[109.0222,23.7696],[109.0162,23.7664],[109.0088,23.7672],[108.9992,23.7725],[109.0025,23.7866],[108.9976,23.7872],[108.9957,23.7994],[108.9922,23.8036],[108.9969,23.8164],[108.9922,23.8202],[108.9981,23.83],[108.9951,23.8355],[108.998,23.8417],[109.0054,23.8415],[109.0152,23.8385],[109.0194,23.8465],[109.02,23.8534],[109.0252,23.8629],[109.0211,23.8645],[109.0205,23.8795],[109.0081,23.8882],[109.0086,23.8999],[109.001,23.901]]]},"properties":{"region_code":"CN-45-4513-451381","parent_region_code":"CN-45-4513","name":"合山市","level":"county","has_children":false,"full_path":"中国 / 广西壮族自治区 / 来宾市 / 合山市","source_admin_code":"451381","osm_relation_id":2775859}}
]}