{"type":"FeatureCollection", "features": [
{"type":"Feature","geometry":{"type":"MultiPolygon","coordinates":[[[[115.1422,30.2362],[115.1483,30.2347],[115.1475,30.2319],[115.162,30.2326],[115.1644,30.2378],[115.1553,30.2413],[115.1529,30.2469],[115.1494,30.245],[115.1428,30.2481],[115.1407,30.2461],[115.1294,30.2497],[115.1309,30.2466],[115.1283,30.2441],[115.1344,30.24],[115.1354,30.2409],[115.1422,30.2362]]],[[[115.13,30.2264],[115.126,30.219],[115.1275,30.2184],[115.1311,30.2245],[115.13,30.2264]]],[[[115.0031,30.2345],[115.01,30.2319],[115.0128,30.2332],[115.0163,30.2305],[115.0243,30.2318],[115.0275,30.2304],[115.0267,30.222],[115.0276,30.2181],[115.0345,30.2165],[115.0533,30.2157],[115.0588,30.214],[115.0632,30.21],[115.0642,30.2096],[115.0789,30.2109],[115.0822,30.2126],[115.0855,30.2078],[115.0937,30.2106],[115.0934,30.2135],[115.0901,30.2153],[115.0971,30.2218],[115.0819,30.2321],[115.077,30.2374],[115.0741,30.2425],[115.0731,30.2496],[115.074,30.2615],[115.0636,30.263],[115.0598,30.2643],[115.0528,30.262],[115.0523,30.2577],[115.0453,30.2575],[115.0418,30.2594],[115.0389,30.2572],[115.0243,30.2556],[115.0198,30.2565],[115.0183,30.2536],[115.0178,30.2484],[115.0154,30.2479],[115.0137,30.2403],[115.0074,30.2393],[115.0031,30.2345]]]]},"properties":{"region_code":"CN-42-4202-420202","parent_region_code":"CN-42-4202","name":"黄石港区","level":"county","has_children":false,"full_path":"中国 / 湖北省 / 黄石市 / 黄石港区","source_admin_code":"420202","osm_relation_id":3216464}},
{"type":"Feature","geometry":{"type":"Polygon","coordinates":[[[115.0632,30.21],[115.0594,30.2067],[115.0487,30.2019],[115.0431,30.1957],[115.0416,30.1923],[115.0372,30.1869],[115.0272,30.1828],[115.0215,30.1838],[115.0167,30.1861],[115.011,30.1859],[115.0113,30.1809],[115.0138,30.1772],[115.0184,30.1776],[115.0228,30.1741],[115.0329,30.1717],[115.0386,30.1734],[115.0463,30.1738],[115.048,30.1719],[115.0546,30.1724],[115.0551,30.1653],[115.0614,30.1638],[115.0657,30.1672],[115.0709,30.1731],[115.0713,30.1785],[115.0741,30.1824],[115.0831,30.182],[115.0886,30.1804],[115.0944,30.1805],[115.0965,30.1847],[115.1023,30.186],[115.1099,30.1866],[115.1123,30.189],[115.1171,30.1905],[115.1224,30.1865],[115.126,30.1852],[115.1277,30.187],[115.132,30.1874],[115.1369,30.1901],[115.143,30.1891],[115.147,30.1906],[115.1497,30.1893],[115.1493,30.1863],[115.1549,30.1817],[115.1534,30.1781],[115.1534,30.1676],[115.1549,30.1649],[115.1542,30.1617],[115.1558,30.1543],[115.153,30.1486],[115.1502,30.1462],[115.1533,30.1394],[115.1632,30.1389],[115.1681,30.1399],[115.1689,30.135],[115.1735,30.1343],[115.1775,30.1321],[115.1891,30.1327],[115.1973,30.1295],[115.2046,30.1344],[115.2127,30.1361],[115.2141,30.1354],[115.2171,30.126],[115.2212,30.126],[115.2218,30.1292],[115.2253,30.1344],[115.2295,30.1372],[115.2337,30.1441],[115.2366,30.1453],[115.2407,30.1436],[115.2435,30.1444],[115.2487,30.143],[115.2485,30.1457],[115.245,30.1475],[115.2504,30.1581],[115.2613,30.1543],[115.2668,30.1541],[115.2617,30.1601],[115.2535,30.1679],[115.2453,30.1747],[115.2367,30.1811],[115.2262,30.1945],[115.2213,30.1994],[115.2064,30.2112],[115.2021,30.2141],[115.1913,30.2187],[115.1816,30.2202],[115.1631,30.2184],[115.1557,30.2164],[115.151,30.2123],[115.1459,30.2106],[115.1351,30.2108],[115.1243,30.2123],[115.1108,30.2151],[115.1031,30.2178],[115.0971,30.2218],[115.0901,30.2153],[115.0934,30.2135],[115.0937,30.2106],[115.0855,30.2078],[115.0822,30.2126],[115.0789,30.2109],[115.0642,30.2096],[115.0632,30.21]],[[115.22,30.1499],[115.222,30.148],[115.2172,30.1452],[115.2155,30.1475],[115.22,30.1499]]]},"properties":{"region_code":"CN-42-4202-420203","parent_region_code":"CN-42-4202","name":"西塞山区","level":"county","has_children":false,"full_path":"中国 / 湖北省 / 黄石市 / 西塞山区","source_admin_code":"420203","osm_relation_id":3216463}},
{"type":"Feature","geometry":{"type":"Polygon","coordinates":[[[115.0031,30.2345],[115.0051,30.231],[115.0055,30.2251],[115.0026,30.2232],[114.9949,30.2218],[114.9903,30.2157],[114.9818,30.2224],[114.9779,30.2201],[114.9781,30.2163],[114.9707,30.2186],[114.9663,30.2182],[114.9664,30.2154],[114.9601,30.2145],[114.9619,30.2091],[114.958,30.2064],[114.9545,30.2082],[114.9521,30.2063],[114.9471,30.208],[114.943,30.2133],[114.9392,30.2151],[114.9354,30.2147],[114.9311,30.2113],[114.9323,30.21],[114.9277,30.2064],[114.927,30.1966],[114.9193,30.1902],[114.9181,30.1869],[114.9116,30.1891],[114.907,30.1876],[114.9036,30.1847],[114.9046,30.178],[114.9082,30.1747],[114.9118,30.1746],[114.9124,30.1716],[114.918,30.1724],[114.921,30.1701],[114.9193,30.1667],[114.9223,30.1629],[114.929,30.1644],[114.9302,30.1621],[114.9341,30.1642],[114.9382,30.1682],[114.9439,30.1634],[114.9466,30.1652],[114.9555,30.1611],[114.9581,30.1628],[114.9616,30.1623],[114.9623,30.1666],[114.9671,30.1672],[114.9676,30.1645],[114.974,30.1666],[114.9787,30.1714],[114.9755,30.1755],[114.981,30.1781],[114.9929,30.178],[114.9951,30.1791],[115.0072,30.1792],[115.0138,30.1772],[115.0113,30.1809],[115.011,30.1859],[115.0167,30.1861],[115.0215,30.1838],[115.0272,30.1828],[115.0372,30.1869],[115.0416,30.1923],[115.0431,30.1957],[115.0487,30.2019],[115.0594,30.2067],[115.0632,30.21],[115.0588,30.214],[115.0533,30.2157],[115.0345,30.2165],[115.0276,30.2181],[115.0267,30.222],[115.0275,30.2304],[115.0243,30.2318],[115.0163,30.2305],[115.0128,30.2332],[115.01,30.2319],[115.0031,30.2345]]]},"properties":{"region_code":"CN-42-4202-420204","parent_region_code":"CN-42-4202","name":"下陆区","level":"county","has_children":false,"full_path":"中国 / 湖北省 / 黄石市 / 下陆区","source_admin_code":"420204","osm_relation_id":3216462}},
{"type":"Feature","geometry":{"type":"Polygon","coordinates":[[[114.9354,30.2147],[114.9356,30.2167],[114.93,30.2188],[114.9303,30.2222],[114.927,30.2248],[114.9184,30.2228],[114.9084,30.227],[114.9003,30.2311],[114.8958,30.2327],[114.8902,30.2325],[114.883,30.2372],[114.8783,30.2368],[114.875,30.2382],[114.8717,30.236],[114.8677,30.2362],[114.8628,30.2409],[114.8629,30.2435],[114.8575,30.2427],[114.8527,30.2396],[114.8532,30.2343],[114.8512,30.2308],[114.8559,30.2284],[114.8541,30.2248],[114.8559,30.2228],[114.8534,30.2196],[114.8598,30.2187],[114.8624,30.2163],[114.8734,30.2125],[114.8762,30.2096],[114.8701,30.2039],[114.8724,30.2007],[114.8836,30.1961],[114.8895,30.1949],[114.8914,30.1895],[114.8962,30.1891],[114.8979,30.185],[114.9036,30.1847],[114.907,30.1876],[114.9116,30.1891],[114.9181,30.1869],[114.9193,30.1902],[114.927,30.1966],[114.9277,30.2064],[114.9323,30.21],[114.9311,30.2113],[114.9354,30.2147]]]},"properties":{"region_code":"CN-42-4202-420205","parent_region_code":"CN-42-4202","name":"铁山区","level":"county","has_children":false,"full_path":"中国 / 湖北省 / 黄石市 / 铁山区","source_admin_code":"420205","osm_relation_id":3086572}},
{"type":"Feature","geometry":{"type":"Polygon","coordinates":[[[115.1775,30.1321],[115.1772,30.13],[115.1701,30.1297],[115.1672,30.1241],[115.1675,30.1187],[115.1689,30.1168],[115.1548,30.1025],[115.1441,30.0912],[115.1361,30.0862],[115.1286,30.085],[115.1161,30.087],[115.103,30.0917],[115.0845,30.103],[115.0814,30.1041],[115.0619,30.1076],[115.0572,30.107],[115.0556,30.1042],[115.0448,30.1009],[115.0411,30.0989],[115.0373,30.0901],[115.0372,30.0849],[115.0399,30.0781],[115.0395,30.0749],[115.0418,30.0685],[115.0396,30.0629],[115.0421,30.062],[115.0453,30.0571],[115.0464,30.0523],[115.0507,30.0513],[115.0524,30.0448],[115.0557,30.0437],[115.0571,30.041],[115.0607,30.0385],[115.0631,30.0387],[115.0647,30.0315],[115.067,30.0281],[115.072,30.0236],[115.0725,30.0197],[115.0718,30.0068],[115.0696,30.0032],[115.0667,30.0021],[115.0626,30.0033],[115.0567,30.0013],[115.0563,29.997],[115.0521,29.9984],[115.0504,29.9947],[115.047,29.994],[115.0418,29.995],[115.0327,29.9979],[115.0278,29.9974],[115.0264,29.9855],[115.0292,29.9795],[115.0258,29.975],[115.0197,29.9709],[115.011,29.9737],[115.0047,29.9707],[114.9998,29.9711],[114.9951,29.9673],[114.9916,29.9691],[114.9866,29.9687],[114.9831,29.9671],[114.972,29.9699],[114.9683,29.9669],[114.97,29.9636],[114.9705,29.9587],[114.9687,29.957],[114.9711,29.9514],[114.9743,29.9498],[114.9757,29.9454],[114.9754,29.9413],[114.9726,29.9393],[114.9682,29.9389],[114.9574,29.9338],[114.9521,29.9284],[114.9466,29.9293],[114.9351,29.9252],[114.9374,29.9222],[114.938,29.917],[114.9374,29.9063],[114.9389,29.9005],[114.942,29.8947],[114.9375,29.892],[114.9353,29.8877],[114.9361,29.885],[114.9341,29.8784],[114.9344,29.8739],[114.9363,29.8689],[114.9359,29.8664],[114.9256,29.8597],[114.9125,29.8578],[114.9073,29.8547],[114.9029,29.8538],[114.8981,29.8549],[114.8841,29.8551],[114.8731,29.8558],[114.8673,29.8582],[114.861,29.8553],[114.8581,29.8558],[114.854,29.865],[114.8468,29.8666],[114.8436,29.8693],[114.8446,29.8725],[114.8389,29.8733],[114.836,29.8691],[114.8328,29.8673],[114.8287,29.8673],[114.8263,29.8621],[114.8235,29.8611],[114.8159,29.8626],[114.8137,29.8684],[114.8119,29.8776],[114.8078,29.8766],[114.8036,29.8771],[114.8015,29.882],[114.7927,29.883],[114.7836,29.886],[114.779,29.8893],[114.7767,29.8853],[114.7707,29.8868],[114.7623,29.8878],[114.7613,29.8816],[114.7559,29.8836],[114.7546,29.889],[114.7506,29.8913],[114.7503,29.895],[114.747,29.8978],[114.7436,29.8967],[114.7362,29.8981],[114.7373,29.9032],[114.7291,29.9062],[114.7207,29.9073],[114.7202,29.8961],[114.7204,29.8893],[114.722,29.8873],[114.7208,29.8816],[114.7178,29.8817],[114.7155,29.8755],[114.7157,29.8727],[114.7117,29.8684],[114.7107,29.8585],[114.7077,29.8494],[114.7108,29.8452],[114.7142,29.8423],[114.7187,29.8413],[114.7225,29.842],[114.7286,29.8405],[114.7315,29.8386],[114.7299,29.8275],[114.7281,29.8243],[114.7306,29.8206],[114.7293,29.8174],[114.7299,29.812],[114.7284,29.8013],[114.7326,29.7942],[114.7268,29.7892],[114.7259,29.7822],[114.7238,29.7776],[114.7243,29.7736],[114.7212,29.7727],[114.719,29.7698],[114.7182,29.7643],[114.7106,29.7542],[114.7142,29.753],[114.7156,29.7505],[114.7216,29.7522],[114.7241,29.7552],[114.7307,29.751],[114.7285,29.7487],[114.7336,29.7462],[114.7362,29.7467],[114.7416,29.7425],[114.7461,29.746],[114.7516,29.7445],[114.7541,29.7456],[114.7601,29.742],[114.7597,29.7383],[114.7645,29.737],[114.7681,29.74],[114.7764,29.7373],[114.7826,29.7391],[114.7858,29.7418],[114.7892,29.7424],[114.7929,29.7404],[114.8049,29.7418],[114.811,29.7411],[114.8159,29.7384],[114.8188,29.7391],[114.8295,29.7376],[114.83,29.7348],[114.835,29.734],[114.8368,29.7242],[114.8392,29.7215],[114.8351,29.7186],[114.8352,29.714],[114.8409,29.7047],[114.8448,29.706],[114.8492,29.7002],[114.8523,29.7015],[114.8552,29.7002],[114.8621,29.7007],[114.864,29.699],[114.8656,29.6931],[114.8692,29.6901],[114.8708,29.6861],[114.8742,29.6828],[114.8779,29.6772],[114.8818,29.6749],[114.8767,29.6696],[114.8773,29.663],[114.8805,29.6504],[114.8845,29.6428],[114.8885,29.6385],[114.8889,29.6354],[114.8855,29.6285],[114.886,29.6218],[114.8888,29.6204],[114.8887,29.6177],[114.8964,29.6132],[114.8969,29.608],[114.9013,29.6039],[114.9006,29.6019],[114.9034,29.5955],[114.9005,29.5924],[114.9001,29.5886],[114.9084,29.5841],[114.9105,29.5882],[114.9148,29.59],[114.9179,29.5875],[114.9207,29.5905],[114.9256,29.587],[114.9313,29.5873],[114.9344,29.5844],[114.9288,29.5795],[114.9282,29.5751],[114.9313,29.573],[114.9303,29.5682],[114.9353,29.5632],[114.9384,29.5632],[114.9401,29.5583],[114.945,29.5573],[114.9506,29.5525],[114.9619,29.5549],[114.9654,29.555],[114.9695,29.5576],[114.9714,29.5624],[114.9763,29.5671],[114.9799,29.5646],[114.9885,29.5654],[114.9921,29.568],[114.993,29.5739],[114.9963,29.5744],[114.9985,29.5704],[115.002,29.5684],[115.0077,29.5672],[115.0099,29.5624],[115.0139,29.5576],[115.0189,29.5582],[115.0217,29.5548],[115.0242,29.5546],[115.0281,29.5493],[115.0362,29.5525],[115.0394,29.5514],[115.0415,29.5547],[115.0502,29.5536],[115.0563,29.5566],[115.0636,29.5577],[115.0669,29.5605],[115.0716,29.5586],[115.0764,29.559],[115.0794,29.5621],[115.0825,29.5627],[115.091,29.557],[115.0945,29.5529],[115.0913,29.5457],[115.0925,29.5402],[115.0882,29.5402],[115.0852,29.533],[115.0816,29.5298],[115.0814,29.5258],[115.0852,29.5216],[115.0893,29.5228],[115.0955,29.5229],[115.1086,29.5177],[115.1193,29.5121],[115.1243,29.5114],[115.1298,29.5143],[115.1351,29.5126],[115.1534,29.5086],[115.155,29.5122],[115.1524,29.5168],[115.1533,29.5185],[115.1499,29.522],[115.1508,29.5249],[115.149,29.5297],[115.1409,29.5353],[115.146,29.5378],[115.1485,29.5442],[115.146,29.5498],[115.1508,29.5546],[115.1475,29.5597],[115.152,29.5664],[115.1517,29.5718],[115.1494,29.5738],[115.1482,29.5787],[115.1523,29.5801],[115.1513,29.5858],[115.1522,29.5875],[115.1629,29.5903],[115.1658,29.5919],[115.1707,29.5923],[115.1727,29.5951],[115.1704,29.5979],[115.1701,29.6008],[115.1582,29.6043],[115.1518,29.6051],[115.1502,29.6016],[115.1366,29.5984],[115.1317,29.5941],[115.128,29.5928],[115.1193,29.597],[115.1117,29.5976],[115.1115,29.5999],[115.124,29.603],[115.1233,29.6088],[115.1252,29.6134],[115.1304,29.6176],[115.1307,29.6201],[115.1272,29.6213],[115.1269,29.6259],[115.1281,29.6284],[115.1266,29.6333],[115.1302,29.6393],[115.1372,29.639],[115.1389,29.6456],[115.1346,29.6538],[115.123,29.6517],[115.1211,29.6545],[115.1178,29.6536],[115.1089,29.659],[115.1035,29.6614],[115.1015,29.6668],[115.1052,29.6707],[115.1054,29.6782],[115.1082,29.6801],[115.1084,29.6837],[115.1111,29.6855],[115.1161,29.6832],[115.12,29.6827],[115.124,29.6844],[115.1295,29.6831],[115.1296,29.6785],[115.1385,29.6662],[115.1457,29.6607],[115.1524,29.6605],[115.1589,29.6584],[115.1668,29.6596],[115.1991,29.657],[115.2057,29.655],[115.2157,29.6556],[115.2264,29.654],[115.2319,29.6569],[115.243,29.6583],[115.248,29.6611],[115.2586,29.6604],[115.2655,29.6567],[115.2692,29.6524],[115.269,29.6503],[115.2528,29.6443],[115.252,29.6396],[115.2569,29.6383],[115.2658,29.6258],[115.2735,29.6256],[115.283,29.6225],[115.2851,29.6267],[115.2927,29.6314],[115.2974,29.6365],[115.3021,29.64],[115.3094,29.638],[115.315,29.64],[115.3226,29.6495],[115.3292,29.6498],[115.3316,29.6527],[115.3346,29.6529],[115.34,29.6508],[115.3418,29.6538],[115.3457,29.6518],[115.3504,29.652],[115.3537,29.6494],[115.358,29.6532],[115.3571,29.6568],[115.3611,29.659],[115.3753,29.6708],[115.3865,29.6776],[115.3905,29.6768],[115.3955,29.6841],[115.4004,29.6815],[115.4071,29.6802],[115.41,29.6825],[115.4098,29.6856],[115.4135,29.6893],[115.4124,29.6919],[115.413,29.7],[115.42,29.7054],[115.4186,29.711],[115.4229,29.7141],[115.4257,29.7124],[115.4326,29.7164],[115.434,29.7197],[115.4389,29.7267],[115.4407,29.7279],[115.4456,29.7248],[115.4484,29.7251],[115.4495,29.7308],[115.4519,29.7351],[115.4608,29.7354],[115.4669,29.7421],[115.4696,29.7469],[115.4683,29.7495],[115.4705,29.7514],[115.4713,29.7565],[115.4662,29.7617],[115.4601,29.7561],[115.4601,29.762],[115.4587,29.772],[115.4601,29.7742],[115.4669,29.7755],[115.4704,29.7821],[115.4669,29.7855],[115.4669,29.79],[115.4712,29.792],[115.47,29.796],[115.4702,29.8034],[115.464,29.8082],[115.465,29.8101],[115.4724,29.8124],[115.4793,29.82],[115.4855,29.821],[115.4938,29.824],[115.4988,29.8248],[115.5013,29.8266],[115.5052,29.8418],[115.4798,29.8462],[115.465,29.8514],[115.4529,29.8589],[115.4407,29.8766],[115.4348,29.8894],[115.427,29.8992],[115.4213,29.9044],[115.4136,29.9058],[115.4093,29.9101],[115.4036,29.9236],[115.4029,29.9316],[115.4071,29.9421],[115.4067,29.9443],[115.3853,29.9638],[115.3761,29.9729],[115.3675,29.9882],[115.3499,30.0086],[115.3349,30.0215],[115.3251,30.0313],[115.3207,30.0403],[115.3204,30.051],[115.3219,30.0602],[115.3221,30.072],[115.3189,30.0785],[115.315,30.0879],[115.3121,30.0922],[115.3012,30.1112],[115.2961,30.1191],[115.2818,30.1376],[115.2707,30.1502],[115.2668,30.1541],[115.2613,30.1543],[115.2504,30.1581],[115.245,30.1475],[115.2485,30.1457],[115.2487,30.143],[115.2435,30.1444],[115.2407,30.1436],[115.2366,30.1453],[115.2337,30.1441],[115.2295,30.1372],[115.2253,30.1344],[115.2218,30.1292],[115.2212,30.126],[115.2171,30.126],[115.2141,30.1354],[115.2127,30.1361],[115.2046,30.1344],[115.1973,30.1295],[115.1891,30.1327],[115.1775,30.1321]]]},"properties":{"region_code":"CN-42-4202-420222","parent_region_code":"CN-42-4202","name":"阳新县","level":"county","has_children":false,"full_path":"中国 / 湖北省 / 黄石市 / 阳新县","source_admin_code":"420222","osm_relation_id":3086394}},
{"type":"Feature","geometry":{"type":"MultiPolygon","coordinates":[[[[115.22,30.1499],[115.2155,30.1475],[115.2172,30.1452],[115.222,30.148],[115.22,30.1499]]],[[[115.0138,30.1772],[115.0072,30.1792],[114.9951,30.1791],[114.9929,30.178],[114.981,30.1781],[114.9755,30.1755],[114.9787,30.1714],[114.974,30.1666],[114.9676,30.1645],[114.9671,30.1672],[114.9623,30.1666],[114.9616,30.1623],[114.9581,30.1628],[114.9555,30.1611],[114.9466,30.1652],[114.9439,30.1634],[114.9382,30.1682],[114.9341,30.1642],[114.9302,30.1621],[114.929,30.1644],[114.9223,30.1629],[114.9193,30.1667],[114.921,30.1701],[114.918,30.1724],[114.9124,30.1716],[114.9118,30.1746],[114.9082,30.1747],[114.9046,30.178],[114.9036,30.1847],[114.8979,30.185],[114.8962,30.1891],[114.8914,30.1895],[114.8895,30.1949],[114.8836,30.1961],[114.8724,30.2007],[114.8701,30.2039],[114.8762,30.2096],[114.8734,30.2125],[114.8624,30.2163],[114.8598,30.2187],[114.8534,30.2196],[114.8559,30.2228],[114.8541,30.2248],[114.8559,30.2284],[114.8512,30.2308],[114.8532,30.2343],[114.8527,30.2396],[114.8575,30.2427],[114.8629,30.2435],[114.8599,30.2464],[114.8604,30.2546],[114.8531,30.2624],[114.8583,30.2659],[114.8556,30.2719],[114.8645,30.269],[114.8658,30.2748],[114.8637,30.2761],[114.8633,30.2811],[114.8593,30.2831],[114.8537,30.2828],[114.8365,30.2879],[114.8319,30.2905],[114.8308,30.2954],[114.8307,30.308],[114.8272,30.3139],[114.8159,30.3166],[114.8083,30.3136],[114.8068,30.311],[114.8091,30.3081],[114.8066,30.3043],[114.8056,30.2995],[114.8066,30.2948],[114.7986,30.2938],[114.7986,30.3029],[114.7973,30.3066],[114.7929,30.3076],[114.7904,30.3057],[114.7882,30.3102],[114.7855,30.3097],[114.787,30.3056],[114.7818,30.3028],[114.7871,30.2969],[114.7884,30.2935],[114.7829,30.287],[114.7755,30.2891],[114.7666,30.2887],[114.7591,30.2924],[114.7571,30.2949],[114.7515,30.2947],[114.7445,30.3024],[114.7309,30.3038],[114.7281,30.3053],[114.7277,30.3101],[114.7292,30.3135],[114.7269,30.3162],[114.7223,30.317],[114.7216,30.3232],[114.7226,30.3265],[114.7148,30.3283],[114.7133,30.3261],[114.7038,30.3223],[114.699,30.3168],[114.6955,30.3147],[114.6926,30.3109],[114.6873,30.3098],[114.6862,30.3019],[114.687,30.2942],[114.6858,30.2877],[114.6888,30.2868],[114.6885,30.2836],[114.68,30.2804],[114.6825,30.2765],[114.672,30.2725],[114.6645,30.2735],[114.6628,30.272],[114.6659,30.2684],[114.6655,30.2608],[114.6573,30.2578],[114.6564,30.252],[114.6538,30.2481],[114.6582,30.2445],[114.6604,30.2409],[114.6587,30.2379],[114.6596,30.2333],[114.6556,30.2252],[114.6578,30.2216],[114.6687,30.2186],[114.6717,30.219],[114.6706,30.2128],[114.6749,30.2034],[114.6798,30.2009],[114.6876,30.1987],[114.6943,30.193],[114.6986,30.1876],[114.7015,30.1882],[114.7047,30.1864],[114.7115,30.1875],[114.7189,30.183],[114.7191,30.1786],[114.7106,30.1748],[114.7065,30.1756],[114.7064,30.1707],[114.7102,30.1653],[114.7031,30.1644],[114.7012,30.1605],[114.6963,30.1595],[114.6966,30.1562],[114.6947,30.1522],[114.6942,30.1478],[114.7,30.1425],[114.7043,30.1425],[114.7059,30.1391],[114.7056,30.1303],[114.7093,30.1289],[114.7081,30.1259],[114.716,30.1256],[114.7237,30.1208],[114.7237,30.1158],[114.7213,30.1117],[114.726,30.1117],[114.7256,30.1077],[114.7295,30.1057],[114.7293,30.101],[114.7307,30.0984],[114.7365,30.095],[114.7377,30.0918],[114.733,30.0905],[114.7266,30.0919],[114.7196,30.0824],[114.7147,30.0824],[114.7099,30.0794],[114.7099,30.0737],[114.7145,30.0721],[114.7176,30.0671],[114.7213,30.0654],[114.723,30.067],[114.7278,30.06],[114.7246,30.057],[114.7206,30.0576],[114.7175,30.054],[114.7136,30.0516],[114.7144,30.0468],[114.7108,30.045],[114.7031,30.0445],[114.6994,30.042],[114.6953,30.0443],[114.6965,30.0528],[114.6908,30.0542],[114.6864,30.0522],[114.6834,30.0479],[114.6804,30.0479],[114.683,30.0421],[114.6854,30.0405],[114.6846,30.0328],[114.682,30.0329],[114.6812,30.0265],[114.677,30.0241],[114.67,30.026],[114.666,30.0243],[114.6644,30.019],[114.6581,30.0199],[114.6536,30.0224],[114.6488,30.0218],[114.6418,30.0173],[114.6344,30.0185],[114.6351,30.0232],[114.6314,30.0255],[114.6326,30.0285],[114.6357,30.0303],[114.6358,30.0403],[114.6263,30.048],[114.6245,30.0506],[114.6204,30.0462],[114.613,30.0493],[114.6072,30.0499],[114.6019,30.0524],[114.5977,30.0533],[114.5943,30.0506],[114.5875,30.0516],[114.5856,30.0475],[114.581,30.0446],[114.5784,30.0393],[114.5727,30.0399],[114.5697,30.0375],[114.5632,30.0383],[114.5608,30.0428],[114.5613,30.0468],[114.5633,30.0484],[114.5616,30.0523],[114.5576,30.0554],[114.5582,30.0584],[114.5556,30.0621],[114.5514,30.0613],[114.5485,30.0624],[114.5451,30.0672],[114.5408,30.0664],[114.5414,30.0602],[114.5401,30.0554],[114.5424,30.0507],[114.5458,30.0479],[114.5473,30.042],[114.5556,30.0354],[114.5588,30.034],[114.5615,30.0299],[114.5539,30.0304],[114.554,30.0327],[114.5439,30.035],[114.5425,30.0316],[114.5451,30.028],[114.5441,30.0247],[114.5407,30.024],[114.5358,30.026],[114.5307,30.0309],[114.5284,30.0267],[114.5299,30.0237],[114.5334,30.023],[114.5318,30.0183],[114.5354,30.0142],[114.5351,30.0101],[114.5378,30.0065],[114.5343,30.0054],[114.5316,30.0008],[114.5316,29.9951],[114.5334,29.993],[114.5314,29.9882],[114.5284,29.9862],[114.5335,29.9835],[114.536,29.9807],[114.5352,29.9777],[114.5285,29.9723],[114.5273,29.9678],[114.5402,29.9668],[114.544,29.9616],[114.5467,29.9595],[114.5468,29.9551],[114.5431,29.9546],[114.5392,29.9513],[114.5338,29.9494],[114.5332,29.9431],[114.5347,29.9418],[114.5396,29.9435],[114.541,29.946],[114.5506,29.9474],[114.5557,29.9465],[114.5536,29.9417],[114.5569,29.9416],[114.5589,29.9376],[114.5632,29.9366],[114.5748,29.9397],[114.5799,29.9445],[114.5846,29.9442],[114.5895,29.9457],[114.5946,29.9423],[114.5971,29.9389],[114.6018,29.9363],[114.6026,29.9333],[114.6015,29.928],[114.6233,29.9216],[114.6256,29.9182],[114.6318,29.9172],[114.6385,29.9146],[114.6446,29.9108],[114.6472,29.9109],[114.6551,29.9081],[114.6593,29.9144],[114.6667,29.9114],[114.664,29.9083],[114.6671,29.9069],[114.6737,29.9079],[114.6784,29.9047],[114.6817,29.9041],[114.6882,29.9004],[114.7026,29.8968],[114.7048,29.9011],[114.7102,29.9005],[114.714,29.898],[114.7202,29.8961],[114.7207,29.9073],[114.7291,29.9062],[114.7373,29.9032],[114.7362,29.8981],[114.7436,29.8967],[114.747,29.8978],[114.7503,29.895],[114.7506,29.8913],[114.7546,29.889],[114.7559,29.8836],[114.7613,29.8816],[114.7623,29.8878],[114.7707,29.8868],[114.7767,29.8853],[114.779,29.8893],[114.7836,29.886],[114.7927,29.883],[114.8015,29.882],[114.8036,29.8771],[114.8078,29.8766],[114.8119,29.8776],[114.8137,29.8684],[114.8159,29.8626],[114.8235,29.8611],[114.8263,29.8621],[114.8287,29.8673],[114.8328,29.8673],[114.836,29.8691],[114.8389,29.8733],[114.8446,29.8725],[114.8436,29.8693],[114.8468,29.8666],[114.854,29.865],[114.8581,29.8558],[114.861,29.8553],[114.8673,29.8582],[114.8731,29.8558],[114.8841,29.8551],[114.8981,29.8549],[114.9029,29.8538],[114.9073,29.8547],[114.9125,29.8578],[114.9256,29.8597],[114.9359,29.8664],[114.9363,29.8689],[114.9344,29.8739],[114.9341,29.8784],[114.9361,29.885],[114.9353,29.8877],[114.9375,29.892],[114.942,29.8947],[114.9389,29.9005],[114.9374,29.9063],[114.938,29.917],[114.9374,29.9222],[114.9351,29.9252],[114.9466,29.9293],[114.9521,29.9284],[114.9574,29.9338],[114.9682,29.9389],[114.9726,29.9393],[114.9754,29.9413],[114.9757,29.9454],[114.9743,29.9498],[114.9711,29.9514],[114.9687,29.957],[114.9705,29.9587],[114.97,29.9636],[114.9683,29.9669],[114.972,29.9699],[114.9831,29.9671],[114.9866,29.9687],[114.9916,29.9691],[114.9951,29.9673],[114.9998,29.9711],[115.0047,29.9707],[115.011,29.9737],[115.0197,29.9709],[115.0258,29.975],[115.0292,29.9795],[115.0264,29.9855],[115.0278,29.9974],[115.0327,29.9979],[115.0418,29.995],[115.047,29.994],[115.0504,29.9947],[115.0521,29.9984],[115.0563,29.997],[115.0567,30.0013],[115.0626,30.0033],[115.0667,30.0021],[115.0696,30.0032],[115.0718,30.0068],[115.0725,30.0197],[115.072,30.0236],[115.067,30.0281],[115.0647,30.0315],[115.0631,30.0387],[115.0607,30.0385],[115.0571,30.041],[115.0557,30.0437],[115.0524,30.0448],[115.0507,30.0513],[115.0464,30.0523],[115.0453,30.0571],[115.0421,30.062],[115.0396,30.0629],[115.0418,30.0685],[115.0395,30.0749],[115.0399,30.0781],[115.0372,30.0849],[115.0373,30.0901],[115.0411,30.0989],[115.0448,30.1009],[115.0556,30.1042],[115.0572,30.107],[115.0619,30.1076],[115.0814,30.1041],[115.0845,30.103],[115.103,30.0917],[115.1161,30.087],[115.1286,30.085],[115.1361,30.0862],[115.1441,30.0912],[115.1548,30.1025],[115.1689,30.1168],[115.1675,30.1187],[115.1672,30.1241],[115.1701,30.1297],[115.1772,30.13],[115.1775,30.1321],[115.1735,30.1343],[115.1689,30.135],[115.1681,30.1399],[115.1632,30.1389],[115.1533,30.1394],[115.1502,30.1462],[115.153,30.1486],[115.1558,30.1543],[115.1542,30.1617],[115.1549,30.1649],[115.1534,30.1676],[115.1534,30.1781],[115.1549,30.1817],[115.1493,30.1863],[115.1497,30.1893],[115.147,30.1906],[115.143,30.1891],[115.1369,30.1901],[115.132,30.1874],[115.1277,30.187],[115.126,30.1852],[115.1224,30.1865],[115.1171,30.1905],[115.1123,30.189],[115.1099,30.1866],[115.1023,30.186],[115.0965,30.1847],[115.0944,30.1805],[115.0886,30.1804],[115.0831,30.182],[115.0741,30.1824],[115.0713,30.1785],[115.0709,30.1731],[115.0657,30.1672],[115.0614,30.1638],[115.0551,30.1653],[115.0546,30.1724],[115.048,30.1719],[115.0463,30.1738],[115.0386,30.1734],[115.0329,30.1717],[115.0228,30.1741],[115.0184,30.1776],[115.0138,30.1772]]]]},"properties":{"region_code":"CN-42-4202-420281","parent_region_code":"CN-42-4202","name":"大冶市","level":"county","has_children":false,"full_path":"中国 / 湖北省 / 黄石市 / 大冶市","source_admin_code":"420281","osm_relation_id":3086512}}
]}