{"type":"FeatureCollection", "features": [
{"type":"Feature","geometry":{"type":"Polygon","coordinates":[[[113.5124,34.7184],[113.5285,34.7159],[113.5361,34.7061],[113.5497,34.7069],[113.555,34.7138],[113.5553,34.7199],[113.5659,34.7204],[113.5808,34.7161],[113.5833,34.7111],[113.5934,34.7057],[113.6008,34.7053],[113.6191,34.7217],[113.6217,34.73],[113.6222,34.7558],[113.6268,34.7686],[113.6097,34.797],[113.5927,34.8061],[113.5904,34.813],[113.5981,34.822],[113.5965,34.836],[113.592,34.838],[113.5808,34.8507],[113.5691,34.8544],[113.5641,34.8606],[113.5567,34.8608],[113.5492,34.8567],[113.5411,34.8598],[113.5215,34.858],[113.5151,34.8527],[113.5057,34.8564],[113.4989,34.8511],[113.498,34.8404],[113.4799,34.8373],[113.4651,34.8386],[113.4499,34.8349],[113.4469,34.8169],[113.4532,34.8118],[113.4541,34.8036],[113.4478,34.7966],[113.4681,34.7931],[113.4697,34.7968],[113.4808,34.7975],[113.4815,34.7781],[113.4894,34.7717],[113.4858,34.7682],[113.4746,34.7682],[113.4692,34.7733],[113.4623,34.7748],[113.4566,34.76],[113.4618,34.7565],[113.4722,34.755],[113.4758,34.7434],[113.482,34.7429],[113.474,34.7316],[113.4722,34.7259],[113.4858,34.7222],[113.489,34.7259],[113.5015,34.7255],[113.5054,34.7204],[113.5124,34.7184]]]},"properties":{"region_code":"CN-41-4101-410102","parent_region_code":"CN-41-4101","name":"中原区","level":"county","has_children":false,"full_path":"中国 / 河南省 / 郑州市 / 中原区","source_admin_code":"410102","osm_relation_id":4566388}},
{"type":"Feature","geometry":{"type":"Polygon","coordinates":[[[113.5124,34.7184],[113.5023,34.7108],[113.5019,34.7002],[113.499,34.6909],[113.5025,34.6847],[113.499,34.6735],[113.5007,34.6669],[113.5067,34.6621],[113.5045,34.6504],[113.5125,34.6364],[113.522,34.6362],[113.5213,34.6283],[113.5305,34.6269],[113.5328,34.6147],[113.5393,34.6198],[113.5473,34.6344],[113.555,34.636],[113.5663,34.6255],[113.5671,34.6173],[113.5635,34.6148],[113.5728,34.6077],[113.5793,34.6125],[113.584,34.6048],[113.5952,34.6058],[113.5922,34.6119],[113.5969,34.6296],[113.6129,34.6279],[113.6176,34.6367],[113.6223,34.6399],[113.6419,34.6426],[113.6496,34.6406],[113.6573,34.6449],[113.6611,34.6555],[113.6536,34.6685],[113.6678,34.6849],[113.6764,34.6848],[113.6763,34.6972],[113.6635,34.7017],[113.6697,34.7087],[113.6706,34.716],[113.6589,34.7377],[113.6622,34.7569],[113.6591,34.7644],[113.652,34.7651],[113.6448,34.7592],[113.6375,34.761],[113.6317,34.7703],[113.6268,34.7686],[113.6222,34.7558],[113.6217,34.73],[113.6191,34.7217],[113.6008,34.7053],[113.5934,34.7057],[113.5833,34.7111],[113.5808,34.7161],[113.5659,34.7204],[113.5553,34.7199],[113.555,34.7138],[113.5497,34.7069],[113.5361,34.7061],[113.5285,34.7159],[113.5124,34.7184]]]},"properties":{"region_code":"CN-41-4101-410103","parent_region_code":"CN-41-4101","name":"二七区","level":"county","has_children":false,"full_path":"中国 / 河南省 / 郑州市 / 二七区","source_admin_code":"410103","osm_relation_id":4566386}},
{"type":"Feature","geometry":{"type":"Polygon","coordinates":[[[113.6573,34.6449],[113.6685,34.6409],[113.6779,34.635],[113.6843,34.6371],[113.6851,34.6463],[113.6892,34.65],[113.6996,34.6507],[113.7156,34.643],[113.7183,34.6286],[113.7242,34.6254],[113.7347,34.627],[113.7407,34.6232],[113.7437,34.6141],[113.7531,34.6139],[113.7604,34.6236],[113.7699,34.6232],[113.7836,34.6199],[113.787,34.623],[113.7834,34.6243],[113.7828,34.6385],[113.7853,34.6486],[113.7901,34.6552],[113.8008,34.6444],[113.8161,34.6551],[113.8182,34.649],[113.8307,34.6514],[113.8326,34.6824],[113.8362,34.6912],[113.8293,34.6955],[113.83,34.7028],[113.8538,34.7025],[113.8602,34.7156],[113.8648,34.7326],[113.8426,34.736],[113.8388,34.7386],[113.8358,34.7484],[113.8013,34.767],[113.7942,34.757],[113.7894,34.7563],[113.745,34.7559],[113.7372,34.7514],[113.7302,34.7434],[113.7297,34.7384],[113.7144,34.7331],[113.7118,34.7408],[113.7022,34.7428],[113.7049,34.7545],[113.697,34.7585],[113.6854,34.7548],[113.662,34.7594],[113.6622,34.7569],[113.6589,34.7377],[113.6706,34.716],[113.6697,34.7087],[113.6635,34.7017],[113.6763,34.6972],[113.6764,34.6848],[113.6678,34.6849],[113.6536,34.6685],[113.6611,34.6555],[113.6573,34.6449]]]},"properties":{"region_code":"CN-41-4101-410104","parent_region_code":"CN-41-4101","name":"管城回族区","level":"county","has_children":false,"full_path":"中国 / 河南省 / 郑州市 / 管城回族区","source_admin_code":"410104","osm_relation_id":4566254}},
{"type":"Feature","geometry":{"type":"Polygon","coordinates":[[[113.6268,34.7686],[113.6317,34.7703],[113.6375,34.761],[113.6448,34.7592],[113.652,34.7651],[113.6591,34.7644],[113.6622,34.7569],[113.662,34.7594],[113.6854,34.7548],[113.697,34.7585],[113.7049,34.7545],[113.7022,34.7428],[113.7118,34.7408],[113.7144,34.7331],[113.7297,34.7384],[113.7302,34.7434],[113.7372,34.7514],[113.745,34.7559],[113.7894,34.7563],[113.7942,34.757],[113.8013,34.767],[113.8358,34.7484],[113.8403,34.758],[113.8423,34.7762],[113.8356,34.7784],[113.8401,34.7941],[113.8383,34.8017],[113.8303,34.8112],[113.8353,34.8193],[113.8433,34.8213],[113.8434,34.8272],[113.8319,34.829],[113.8311,34.8357],[113.8412,34.8561],[113.8509,34.8654],[113.8503,34.883],[113.8487,34.8861],[113.8297,34.8793],[113.8022,34.8792],[113.7915,34.8849],[113.7924,34.8706],[113.7803,34.8592],[113.7679,34.8642],[113.7611,34.8589],[113.7518,34.867],[113.7086,34.8707],[113.7,34.8662],[113.7004,34.8599],[113.6899,34.8585],[113.6892,34.8544],[113.6741,34.8559],[113.6699,34.8524],[113.6485,34.8528],[113.6488,34.8579],[113.6403,34.8584],[113.6336,34.8521],[113.6312,34.8283],[113.6252,34.8271],[113.6243,34.8007],[113.6174,34.7971],[113.6097,34.797],[113.6268,34.7686]]]},"properties":{"region_code":"CN-41-4101-410105","parent_region_code":"CN-41-4101","name":"金水区","level":"county","has_children":false,"full_path":"中国 / 河南省 / 郑州市 / 金水区","source_admin_code":"410105","osm_relation_id":4566400}},
{"type":"Feature","geometry":{"type":"Polygon","coordinates":[[[113.2621,34.7205],[113.2701,34.7206],[113.2774,34.7166],[113.2976,34.7222],[113.3051,34.7311],[113.3003,34.7439],[113.2884,34.7545],[113.2842,34.7623],[113.293,34.7624],[113.3,34.7672],[113.3043,34.779],[113.3115,34.7867],[113.3118,34.803],[113.3188,34.8066],[113.3182,34.8123],[113.3094,34.8149],[113.3095,34.8251],[113.3067,34.8298],[113.2927,34.8319],[113.2757,34.8375],[113.2765,34.8447],[113.2622,34.8462],[113.2571,34.8417],[113.2437,34.8402],[113.2491,34.835],[113.2405,34.8283],[113.2394,34.8069],[113.2432,34.7998],[113.244,34.7859],[113.2529,34.7841],[113.2471,34.7756],[113.2505,34.7627],[113.2492,34.7588],[113.2572,34.7669],[113.2628,34.7654],[113.2661,34.7539],[113.2713,34.7445],[113.2667,34.7413],[113.2635,34.7329],[113.2587,34.7285],[113.2621,34.7205]]]},"properties":{"region_code":"CN-41-4101-410106","parent_region_code":"CN-41-4101","name":"上街区","level":"county","has_children":false,"full_path":"中国 / 河南省 / 郑州市 / 上街区","source_admin_code":"410106","osm_relation_id":4566389}},
{"type":"Feature","geometry":{"type":"Polygon","coordinates":[[[113.6097,34.797],[113.6174,34.7971],[113.6243,34.8007],[113.6252,34.8271],[113.6312,34.8283],[113.6336,34.8521],[113.6403,34.8584],[113.6488,34.8579],[113.6485,34.8528],[113.6699,34.8524],[113.6741,34.8559],[113.6892,34.8544],[113.6899,34.8585],[113.7004,34.8599],[113.7,34.8662],[113.7086,34.8707],[113.7518,34.867],[113.7611,34.8589],[113.7679,34.8642],[113.7803,34.8592],[113.7924,34.8706],[113.7915,34.8849],[113.7806,34.8942],[113.7708,34.907],[113.7606,34.9159],[113.7533,34.9196],[113.7379,34.919],[113.7218,34.9108],[113.7059,34.912],[113.6795,34.9204],[113.6453,34.9209],[113.6344,34.9234],[113.6105,34.9317],[113.5978,34.9311],[113.5874,34.9405],[113.5833,34.9486],[113.5755,34.953],[113.5602,34.958],[113.542,34.9657],[113.5152,34.9699],[113.5036,34.973],[113.501,34.9449],[113.4963,34.932],[113.495,34.9218],[113.5009,34.9188],[113.5015,34.9086],[113.5057,34.9021],[113.5044,34.8931],[113.4953,34.8894],[113.4919,34.881],[113.4914,34.8705],[113.5009,34.8692],[113.5057,34.8564],[113.5151,34.8527],[113.5215,34.858],[113.5411,34.8598],[113.5492,34.8567],[113.5567,34.8608],[113.5641,34.8606],[113.5691,34.8544],[113.5808,34.8507],[113.592,34.838],[113.5965,34.836],[113.5981,34.822],[113.5904,34.813],[113.5927,34.8061],[113.6097,34.797]]]},"properties":{"region_code":"CN-41-4101-410108","parent_region_code":"CN-41-4101","name":"惠济区","level":"county","has_children":false,"full_path":"中国 / 河南省 / 郑州市 / 惠济区","source_admin_code":"410108","osm_relation_id":4566399}},
{"type":"Feature","geometry":{"type":"Polygon","coordinates":[[[113.787,34.623],[113.7921,34.6195],[113.8015,34.6208],[113.8087,34.6131],[113.8203,34.6083],[113.8231,34.6049],[113.8363,34.6045],[113.8357,34.5991],[113.8429,34.5873],[113.8573,34.583],[113.8563,34.5686],[113.8468,34.5701],[113.8428,34.5624],[113.843,34.5491],[113.852,34.5434],[113.85,34.5336],[113.8545,34.5287],[113.862,34.5346],[113.8719,34.5287],[113.8811,34.5308],[113.8865,34.5265],[113.8847,34.5027],[113.8817,34.4877],[113.8753,34.4802],[113.8788,34.4676],[113.8853,34.4639],[113.8996,34.4617],[113.9074,34.4537],[113.9068,34.4458],[113.9111,34.4405],[113.922,34.4384],[113.9276,34.4561],[113.9441,34.4529],[113.94,34.437],[113.9531,34.4404],[113.9607,34.4402],[113.9662,34.4454],[113.973,34.4432],[113.9753,34.4346],[113.9813,34.433],[113.9847,34.4415],[113.9985,34.4367],[113.9996,34.4422],[114.014,34.4465],[114.015,34.4592],[114.012,34.4675],[113.9993,34.4704],[113.9987,34.4639],[113.9922,34.4641],[113.9891,34.4785],[113.9938,34.4844],[114.0091,34.4839],[114.0157,34.4912],[114.0189,34.5051],[114.0341,34.5039],[114.0431,34.505],[114.0654,34.4898],[114.0674,34.4799],[114.0873,34.4762],[114.0935,34.4815],[114.0909,34.4999],[114.0851,34.5019],[114.0835,34.5144],[114.0891,34.5145],[114.0923,34.523],[114.0989,34.5255],[114.0969,34.551],[114.1021,34.5661],[114.1119,34.5684],[114.1242,34.5765],[114.1265,34.5831],[114.1216,34.5901],[114.1274,34.5954],[114.1312,34.6068],[114.1198,34.609],[114.121,34.6161],[114.1264,34.6182],[114.1374,34.6141],[114.1464,34.6056],[114.1464,34.6316],[114.1513,34.6409],[114.1458,34.6506],[114.1391,34.6562],[114.1541,34.6663],[114.1522,34.6712],[114.1546,34.6836],[114.1511,34.6846],[114.1572,34.706],[114.1641,34.7108],[114.1623,34.7159],[114.1464,34.716],[114.1423,34.7087],[114.1363,34.7155],[114.1387,34.7215],[114.1327,34.7283],[114.143,34.7468],[114.1486,34.7476],[114.1456,34.7573],[114.1474,34.7622],[114.1598,34.76],[114.1674,34.7694],[114.1643,34.7769],[114.1461,34.7833],[114.1466,34.7907],[114.1398,34.7899],[114.1389,34.7964],[114.1301,34.8016],[114.1207,34.8003],[114.1134,34.8029],[114.1146,34.8116],[114.1105,34.8189],[114.1139,34.8244],[114.121,34.8215],[114.1264,34.8274],[114.1517,34.827],[114.1586,34.8298],[114.1637,34.8208],[114.1882,34.8197],[114.1955,34.8318],[114.1983,34.8466],[114.1962,34.8509],[114.202,34.8591],[114.2044,34.8712],[114.2,34.871],[114.2033,34.9024],[114.2055,34.9123],[114.1937,34.9305],[114.1778,34.9337],[114.1652,34.9383],[114.162,34.9421],[114.134,34.9599],[114.1218,34.9605],[114.1106,34.9528],[114.0875,34.9493],[114.0725,34.953],[114.0601,34.9544],[114.05,34.9501],[114.0402,34.9416],[114.0256,34.9401],[114.0093,34.9405],[113.9993,34.9459],[113.9839,34.948],[113.9762,34.9445],[113.9682,34.9111],[113.958,34.8942],[113.9502,34.889],[113.9399,34.8893],[113.9305,34.8936],[113.9215,34.9012],[113.9036,34.9057],[113.8826,34.9069],[113.8609,34.8902],[113.8487,34.8861],[113.8503,34.883],[113.8509,34.8654],[113.8412,34.8561],[113.8311,34.8357],[113.8319,34.829],[113.8434,34.8272],[113.8433,34.8213],[113.8353,34.8193],[113.8303,34.8112],[113.8383,34.8017],[113.8401,34.7941],[113.8356,34.7784],[113.8423,34.7762],[113.8403,34.758],[113.8358,34.7484],[113.8388,34.7386],[113.8426,34.736],[113.8648,34.7326],[113.8602,34.7156],[113.8538,34.7025],[113.83,34.7028],[113.8293,34.6955],[113.8362,34.6912],[113.8326,34.6824],[113.8307,34.6514],[113.8182,34.649],[113.8161,34.6551],[113.8008,34.6444],[113.7901,34.6552],[113.7853,34.6486],[113.7828,34.6385],[113.7834,34.6243],[113.787,34.623]]]},"properties":{"region_code":"CN-41-4101-410122","parent_region_code":"CN-41-4101","name":"中牟县","level":"county","has_children":false,"full_path":"中国 / 河南省 / 郑州市 / 中牟县","source_admin_code":"410122","osm_relation_id":4566253}},
{"type":"Feature","geometry":{"type":"Polygon","coordinates":[[[113.2492,34.7588],[113.24,34.7534],[113.2344,34.755],[113.2279,34.7514],[113.2118,34.7512],[113.1915,34.7598],[113.1814,34.7609],[113.1638,34.7552],[113.1647,34.7655],[113.1529,34.7745],[113.1457,34.7739],[113.1441,34.7803],[113.1548,34.79],[113.1538,34.7944],[113.1451,34.8007],[113.1502,34.8068],[113.1522,34.8158],[113.1607,34.8153],[113.1511,34.8309],[113.1393,34.845],[113.1408,34.8479],[113.0996,34.8491],[113.0836,34.8529],[113.0765,34.8515],[113.0626,34.8407],[113.0477,34.845],[113.0268,34.8491],[113.0176,34.8564],[113.0009,34.8639],[112.9881,34.8599],[112.9577,34.8434],[112.9442,34.8343],[112.9357,34.8337],[112.8935,34.854],[112.8811,34.8547],[112.8778,34.8493],[112.8507,34.8161],[112.8433,34.8134],[112.8346,34.8172],[112.8072,34.8327],[112.8085,34.8101],[112.8043,34.8099],[112.804,34.789],[112.8057,34.7822],[112.8134,34.7766],[112.8213,34.7768],[112.8245,34.7714],[112.8337,34.7726],[112.8397,34.777],[112.8443,34.7856],[112.8608,34.7816],[112.8667,34.7837],[112.876,34.7781],[112.8804,34.7854],[112.8897,34.784],[112.894,34.7791],[112.8946,34.7722],[112.9065,34.771],[112.9061,34.7622],[112.902,34.7545],[112.9046,34.738],[112.9217,34.7286],[112.9327,34.7245],[112.9256,34.7134],[112.9106,34.713],[112.9058,34.7039],[112.8961,34.6949],[112.8875,34.6963],[112.8737,34.7062],[112.8646,34.7092],[112.8546,34.7081],[112.8403,34.7006],[112.824,34.6965],[112.8198,34.6937],[112.8191,34.6823],[112.8207,34.6738],[112.8293,34.669],[112.8268,34.654],[112.8351,34.6476],[112.8386,34.6403],[112.8375,34.6304],[112.8294,34.6317],[112.8189,34.6299],[112.8187,34.6264],[112.8392,34.6247],[112.8472,34.6171],[112.8448,34.6108],[112.8329,34.605],[112.8335,34.5946],[112.8423,34.5876],[112.8462,34.5917],[112.8529,34.5899],[112.8638,34.5742],[112.8682,34.5722],[112.87,34.5604],[112.8775,34.557],[112.886,34.5496],[112.9007,34.5466],[112.9174,34.5471],[112.9254,34.5503],[112.9342,34.5451],[112.9511,34.5471],[112.9629,34.5461],[112.9741,34.5356],[112.979,34.5348],[112.9861,34.5239],[112.998,34.5236],[113.0001,34.5191],[113.013,34.52],[113.014,34.5278],[113.024,34.5445],[113.0349,34.5512],[113.0378,34.5605],[113.0354,34.5649],[113.0445,34.5675],[113.0592,34.5571],[113.0674,34.5613],[113.0725,34.5703],[113.0848,34.5642],[113.0919,34.5693],[113.1043,34.5649],[113.1254,34.574],[113.134,34.5762],[113.1361,34.5828],[113.1422,34.5895],[113.1493,34.5899],[113.1566,34.5952],[113.1672,34.6029],[113.1841,34.6034],[113.1835,34.6236],[113.1946,34.6141],[113.1962,34.6225],[113.1916,34.6274],[113.1992,34.6392],[113.2227,34.6367],[113.225,34.6409],[113.2359,34.6401],[113.2389,34.6501],[113.2471,34.6514],[113.2571,34.6654],[113.2482,34.6769],[113.2584,34.6864],[113.2523,34.6925],[113.252,34.6991],[113.2629,34.7169],[113.2621,34.7205],[113.2587,34.7285],[113.2635,34.7329],[113.2667,34.7413],[113.2713,34.7445],[113.2661,34.7539],[113.2628,34.7654],[113.2572,34.7669],[113.2492,34.7588]]]},"properties":{"region_code":"CN-41-4101-410181","parent_region_code":"CN-41-4101","name":"巩义市","level":"county","has_children":false,"full_path":"中国 / 河南省 / 郑州市 / 巩义市","source_admin_code":"410181","osm_relation_id":4566214}},
{"type":"Feature","geometry":{"type":"Polygon","coordinates":[[[113.5057,34.8564],[113.5009,34.8692],[113.4914,34.8705],[113.4919,34.881],[113.4953,34.8894],[113.5044,34.8931],[113.5057,34.9021],[113.5015,34.9086],[113.5009,34.9188],[113.495,34.9218],[113.4963,34.932],[113.501,34.9449],[113.5036,34.973],[113.4743,34.9837],[113.4359,34.9877],[113.3683,34.9843],[113.3519,34.9778],[113.3326,34.9686],[113.2754,34.955],[113.2487,34.9459],[113.24,34.9382],[113.2234,34.908],[113.1685,34.8927],[113.1339,34.8854],[113.1413,34.8566],[113.1408,34.8479],[113.1393,34.845],[113.1511,34.8309],[113.1607,34.8153],[113.1522,34.8158],[113.1502,34.8068],[113.1451,34.8007],[113.1538,34.7944],[113.1548,34.79],[113.1441,34.7803],[113.1457,34.7739],[113.1529,34.7745],[113.1647,34.7655],[113.1638,34.7552],[113.1814,34.7609],[113.1915,34.7598],[113.2118,34.7512],[113.2279,34.7514],[113.2344,34.755],[113.24,34.7534],[113.2492,34.7588],[113.2505,34.7627],[113.2471,34.7756],[113.2529,34.7841],[113.244,34.7859],[113.2432,34.7998],[113.2394,34.8069],[113.2405,34.8283],[113.2491,34.835],[113.2437,34.8402],[113.2571,34.8417],[113.2622,34.8462],[113.2765,34.8447],[113.2757,34.8375],[113.2927,34.8319],[113.3067,34.8298],[113.3095,34.8251],[113.3094,34.8149],[113.3182,34.8123],[113.3188,34.8066],[113.3118,34.803],[113.3115,34.7867],[113.3043,34.779],[113.3,34.7672],[113.293,34.7624],[113.2842,34.7623],[113.2884,34.7545],[113.3003,34.7439],[113.3051,34.7311],[113.2976,34.7222],[113.2774,34.7166],[113.2701,34.7206],[113.2621,34.7205],[113.2629,34.7169],[113.252,34.6991],[113.2523,34.6925],[113.2584,34.6864],[113.2482,34.6769],[113.2571,34.6654],[113.2471,34.6514],[113.2389,34.6501],[113.2359,34.6401],[113.225,34.6409],[113.2227,34.6367],[113.1992,34.6392],[113.1916,34.6274],[113.1962,34.6225],[113.1946,34.6141],[113.2212,34.6093],[113.2262,34.6097],[113.2276,34.6173],[113.2339,34.6176],[113.2376,34.6229],[113.2508,34.6228],[113.2703,34.6276],[113.2863,34.6217],[113.292,34.6236],[113.3107,34.6218],[113.3245,34.6302],[113.3449,34.6225],[113.3456,34.6166],[113.3598,34.612],[113.3668,34.6158],[113.3711,34.6273],[113.3774,34.6302],[113.385,34.6242],[113.3891,34.6147],[113.3868,34.6095],[113.3984,34.6074],[113.4279,34.6134],[113.4359,34.6133],[113.4415,34.621],[113.4517,34.6205],[113.4574,34.6342],[113.4526,34.6417],[113.4601,34.6473],[113.4697,34.6478],[113.4665,34.655],[113.4698,34.6584],[113.5007,34.6669],[113.499,34.6735],[113.5025,34.6847],[113.499,34.6909],[113.5019,34.7002],[113.5023,34.7108],[113.5124,34.7184],[113.5054,34.7204],[113.5015,34.7255],[113.489,34.7259],[113.4858,34.7222],[113.4722,34.7259],[113.474,34.7316],[113.482,34.7429],[113.4758,34.7434],[113.4722,34.755],[113.4618,34.7565],[113.4566,34.76],[113.4623,34.7748],[113.4692,34.7733],[113.4746,34.7682],[113.4858,34.7682],[113.4894,34.7717],[113.4815,34.7781],[113.4808,34.7975],[113.4697,34.7968],[113.4681,34.7931],[113.4478,34.7966],[113.4541,34.8036],[113.4532,34.8118],[113.4469,34.8169],[113.4499,34.8349],[113.4651,34.8386],[113.4799,34.8373],[113.498,34.8404],[113.4989,34.8511],[113.5057,34.8564]]]},"properties":{"region_code":"CN-41-4101-410182","parent_region_code":"CN-41-4101","name":"荥阳市","level":"county","has_children":false,"full_path":"中国 / 河南省 / 郑州市 / 荥阳市","source_admin_code":"410182","osm_relation_id":4566390}},
{"type":"Feature","geometry":{"type":"Polygon","coordinates":[[[113.5007,34.6669],[113.4698,34.6584],[113.4665,34.655],[113.4697,34.6478],[113.4601,34.6473],[113.4526,34.6417],[113.4574,34.6342],[113.4517,34.6205],[113.4415,34.621],[113.4359,34.6133],[113.4279,34.6134],[113.3984,34.6074],[113.3868,34.6095],[113.3891,34.6147],[113.385,34.6242],[113.3774,34.6302],[113.3711,34.6273],[113.3668,34.6158],[113.3598,34.612],[113.3456,34.6166],[113.3449,34.6225],[113.3245,34.6302],[113.3107,34.6218],[113.292,34.6236],[113.2863,34.6217],[113.2703,34.6276],[113.2508,34.6228],[113.2376,34.6229],[113.2339,34.6176],[113.2276,34.6173],[113.2262,34.6097],[113.2212,34.6093],[113.1946,34.6141],[113.1835,34.6236],[113.1841,34.6034],[113.1672,34.6029],[113.1566,34.5952],[113.1616,34.5893],[113.1726,34.591],[113.1716,34.5827],[113.176,34.5754],[113.1722,34.5628],[113.1745,34.5542],[113.1719,34.5498],[113.1775,34.5398],[113.1747,34.534],[113.1793,34.5302],[113.1773,34.5248],[113.1799,34.5142],[113.1745,34.4985],[113.1786,34.4917],[113.1889,34.4848],[113.1953,34.4984],[113.2057,34.4992],[113.2314,34.4979],[113.2378,34.4915],[113.2488,34.491],[113.2548,34.485],[113.2637,34.4878],[113.2616,34.4764],[113.2719,34.4794],[113.2851,34.4729],[113.2816,34.4677],[113.2863,34.4589],[113.2859,34.451],[113.2933,34.4489],[113.2946,34.4405],[113.2985,34.4382],[113.3027,34.4257],[113.3176,34.4199],[113.3209,34.4079],[113.3238,34.4067],[113.3371,34.4078],[113.3659,34.3896],[113.3612,34.381],[113.3698,34.3774],[113.3752,34.3818],[113.3821,34.3765],[113.3941,34.3788],[113.408,34.3747],[113.4012,34.3625],[113.4,34.3567],[113.4064,34.3511],[113.4167,34.3492],[113.4236,34.3514],[113.4392,34.341],[113.4671,34.3323],[113.47,34.3387],[113.477,34.3439],[113.4833,34.3441],[113.4952,34.3394],[113.5047,34.3445],[113.5071,34.3539],[113.5236,34.3717],[113.534,34.3716],[113.546,34.3762],[113.545,34.3812],[113.5526,34.3836],[113.5534,34.392],[113.5609,34.394],[113.5701,34.4051],[113.5611,34.4105],[113.5609,34.4167],[113.5663,34.4215],[113.5766,34.4137],[113.5827,34.4151],[113.5921,34.4076],[113.5949,34.4117],[113.5888,34.4278],[113.597,34.4317],[113.6094,34.4408],[113.6167,34.442],[113.6351,34.4509],[113.642,34.4593],[113.6519,34.4618],[113.6474,34.4714],[113.6484,34.483],[113.6626,34.4846],[113.6686,34.5],[113.6668,34.5149],[113.6577,34.5206],[113.664,34.5261],[113.6636,34.5393],[113.6574,34.5397],[113.6557,34.5462],[113.6613,34.5507],[113.6453,34.556],[113.637,34.5624],[113.6296,34.5634],[113.615,34.561],[113.5981,34.5652],[113.5959,34.5796],[113.5755,34.5858],[113.5798,34.5969],[113.5789,34.6032],[113.5728,34.6077],[113.5635,34.6148],[113.5671,34.6173],[113.5663,34.6255],[113.555,34.636],[113.5473,34.6344],[113.5393,34.6198],[113.5328,34.6147],[113.5305,34.6269],[113.5213,34.6283],[113.522,34.6362],[113.5125,34.6364],[113.5045,34.6504],[113.5067,34.6621],[113.5007,34.6669]]]},"properties":{"region_code":"CN-41-4101-410183","parent_region_code":"CN-41-4101","name":"新密市","level":"county","has_children":false,"full_path":"中国 / 河南省 / 郑州市 / 新密市","source_admin_code":"410183","osm_relation_id":4566223}},
{"type":"Feature","geometry":{"type":"Polygon","coordinates":[[[113.5728,34.6077],[113.5789,34.6032],[113.5798,34.5969],[113.5755,34.5858],[113.5959,34.5796],[113.5981,34.5652],[113.615,34.561],[113.6296,34.5634],[113.637,34.5624],[113.6453,34.556],[113.6613,34.5507],[113.6557,34.5462],[113.6574,34.5397],[113.6636,34.5393],[113.664,34.5261],[113.6577,34.5206],[113.6668,34.5149],[113.6686,34.5],[113.6626,34.4846],[113.6484,34.483],[113.6474,34.4714],[113.6519,34.4618],[113.642,34.4593],[113.6351,34.4509],[113.6167,34.442],[113.6094,34.4408],[113.597,34.4317],[113.5888,34.4278],[113.5949,34.4117],[113.5921,34.4076],[113.5827,34.4151],[113.5766,34.4137],[113.5663,34.4215],[113.5609,34.4167],[113.5611,34.4105],[113.5701,34.4051],[113.5609,34.394],[113.5534,34.392],[113.5526,34.3836],[113.545,34.3812],[113.546,34.3762],[113.534,34.3716],[113.5236,34.3717],[113.5071,34.3539],[113.5047,34.3445],[113.513,34.3358],[113.5139,34.3273],[113.5231,34.319],[113.535,34.3151],[113.5501,34.3123],[113.5537,34.3179],[113.5711,34.3222],[113.5809,34.3209],[113.5973,34.3144],[113.6034,34.3143],[113.6188,34.3049],[113.6204,34.2983],[113.6363,34.2901],[113.6405,34.2839],[113.6543,34.276],[113.6633,34.2764],[113.6784,34.2843],[113.6833,34.279],[113.6933,34.2777],[113.6986,34.2852],[113.6956,34.2915],[113.7083,34.2908],[113.7081,34.3003],[113.7115,34.3058],[113.7273,34.3135],[113.7283,34.32],[113.7378,34.3207],[113.7398,34.3166],[113.7519,34.3146],[113.7707,34.3157],[113.7791,34.3234],[113.7856,34.3241],[113.7843,34.3317],[113.79,34.3368],[113.8078,34.3377],[113.8104,34.3313],[113.8252,34.3263],[113.835,34.3255],[113.8433,34.328],[113.8526,34.3267],[113.8576,34.3308],[113.8828,34.3316],[113.8942,34.3244],[113.9107,34.3199],[113.9157,34.3226],[113.9191,34.3363],[113.9329,34.3383],[113.9411,34.3338],[113.9508,34.3336],[113.9538,34.3206],[113.9637,34.3203],[113.975,34.3257],[113.994,34.3234],[113.9998,34.3301],[114.0038,34.3238],[114.0157,34.3187],[114.0265,34.3184],[114.0404,34.3147],[114.0579,34.3176],[114.0572,34.3284],[114.0639,34.3461],[114.0567,34.3548],[114.0591,34.3668],[114.0543,34.3834],[114.0423,34.3855],[114.0359,34.3897],[114.0398,34.4051],[114.0219,34.4076],[114.0244,34.3978],[114.007,34.4027],[113.9974,34.4101],[113.9949,34.4027],[113.9797,34.4023],[113.9831,34.411],[113.9921,34.4164],[113.9826,34.4257],[113.9813,34.433],[113.9753,34.4346],[113.973,34.4432],[113.9662,34.4454],[113.9607,34.4402],[113.9531,34.4404],[113.94,34.437],[113.9441,34.4529],[113.9276,34.4561],[113.922,34.4384],[113.9111,34.4405],[113.9068,34.4458],[113.9074,34.4537],[113.8996,34.4617],[113.8853,34.4639],[113.8788,34.4676],[113.8753,34.4802],[113.8817,34.4877],[113.8847,34.5027],[113.8865,34.5265],[113.8811,34.5308],[113.8719,34.5287],[113.862,34.5346],[113.8545,34.5287],[113.85,34.5336],[113.852,34.5434],[113.843,34.5491],[113.8428,34.5624],[113.8468,34.5701],[113.8563,34.5686],[113.8573,34.583],[113.8429,34.5873],[113.8357,34.5991],[113.8363,34.6045],[113.8231,34.6049],[113.8203,34.6083],[113.8087,34.6131],[113.8015,34.6208],[113.7921,34.6195],[113.787,34.623],[113.7836,34.6199],[113.7699,34.6232],[113.7604,34.6236],[113.7531,34.6139],[113.7437,34.6141],[113.7407,34.6232],[113.7347,34.627],[113.7242,34.6254],[113.7183,34.6286],[113.7156,34.643],[113.6996,34.6507],[113.6892,34.65],[113.6851,34.6463],[113.6843,34.6371],[113.6779,34.635],[113.6685,34.6409],[113.6573,34.6449],[113.6496,34.6406],[113.6419,34.6426],[113.6223,34.6399],[113.6176,34.6367],[113.6129,34.6279],[113.5969,34.6296],[113.5922,34.6119],[113.5952,34.6058],[113.584,34.6048],[113.5793,34.6125],[113.5728,34.6077]]]},"properties":{"region_code":"CN-41-4101-410184","parent_region_code":"CN-41-4101","name":"新郑市","level":"county","has_children":false,"full_path":"中国 / 河南省 / 郑州市 / 新郑市","source_admin_code":"410184","osm_relation_id":4566225}},
{"type":"Feature","geometry":{"type":"Polygon","coordinates":[[[112.9741,34.5356],[112.9706,34.5327],[112.9519,34.5305],[112.9457,34.5335],[112.9223,34.5275],[112.9216,34.5164],[112.9187,34.5108],[112.9208,34.5026],[112.916,34.4953],[112.9133,34.4823],[112.9163,34.4792],[112.8991,34.469],[112.8864,34.4777],[112.8592,34.4746],[112.85,34.4804],[112.8337,34.4788],[112.8021,34.4808],[112.7904,34.4899],[112.785,34.4916],[112.7681,34.5021],[112.7625,34.4965],[112.743,34.4947],[112.7324,34.4902],[112.7324,34.4793],[112.7372,34.4717],[112.7335,34.456],[112.7364,34.4487],[112.7345,34.4364],[112.73,34.4251],[112.7207,34.4135],[112.7282,34.4065],[112.7252,34.3934],[112.7156,34.389],[112.7142,34.383],[112.7239,34.3779],[112.723,34.3651],[112.726,34.3522],[112.7504,34.3586],[112.7524,34.3491],[112.7689,34.3458],[112.7779,34.3466],[112.7821,34.3334],[112.7961,34.3361],[112.7989,34.3399],[112.8083,34.34],[112.8197,34.3335],[112.8364,34.3368],[112.836,34.326],[112.8468,34.3177],[112.8334,34.3122],[112.8313,34.3045],[112.8406,34.3026],[112.8514,34.304],[112.8653,34.2993],[112.8836,34.304],[112.8907,34.2983],[112.9054,34.2949],[112.9174,34.2983],[112.9292,34.2971],[112.9449,34.3028],[112.9681,34.2975],[112.9851,34.2972],[113,34.3018],[113.0077,34.3014],[113.0107,34.2946],[113.0174,34.2886],[113.0328,34.2805],[113.0408,34.2801],[113.0625,34.2843],[113.0634,34.2781],[113.0691,34.2772],[113.0759,34.2674],[113.1038,34.2639],[113.1079,34.2677],[113.1292,34.2743],[113.1358,34.274],[113.147,34.2672],[113.1676,34.2815],[113.1781,34.2933],[113.1792,34.3037],[113.1891,34.3131],[113.2031,34.3122],[113.2165,34.3261],[113.216,34.3343],[113.2255,34.3398],[113.2403,34.3381],[113.2626,34.3387],[113.2731,34.3452],[113.2698,34.3495],[113.2782,34.3544],[113.2936,34.3515],[113.3099,34.3543],[113.3056,34.3606],[113.3057,34.3736],[113.314,34.3856],[113.3092,34.3954],[113.316,34.3991],[113.3189,34.4069],[113.3238,34.4067],[113.3209,34.4079],[113.3176,34.4199],[113.3027,34.4257],[113.2985,34.4382],[113.2946,34.4405],[113.2933,34.4489],[113.2859,34.451],[113.2863,34.4589],[113.2816,34.4677],[113.2851,34.4729],[113.2719,34.4794],[113.2616,34.4764],[113.2637,34.4878],[113.2548,34.485],[113.2488,34.491],[113.2378,34.4915],[113.2314,34.4979],[113.2057,34.4992],[113.1953,34.4984],[113.1889,34.4848],[113.1786,34.4917],[113.1745,34.4985],[113.1799,34.5142],[113.1773,34.5248],[113.1793,34.5302],[113.1747,34.534],[113.1775,34.5398],[113.1719,34.5498],[113.1745,34.5542],[113.1722,34.5628],[113.176,34.5754],[113.1716,34.5827],[113.1726,34.591],[113.1616,34.5893],[113.1566,34.5952],[113.1493,34.5899],[113.1422,34.5895],[113.1361,34.5828],[113.134,34.5762],[113.1254,34.574],[113.1043,34.5649],[113.0919,34.5693],[113.0848,34.5642],[113.0725,34.5703],[113.0674,34.5613],[113.0592,34.5571],[113.0445,34.5675],[113.0354,34.5649],[113.0378,34.5605],[113.0349,34.5512],[113.024,34.5445],[113.014,34.5278],[113.013,34.52],[113.0001,34.5191],[112.998,34.5236],[112.9861,34.5239],[112.979,34.5348],[112.9741,34.5356]]]},"properties":{"region_code":"CN-41-4101-410185","parent_region_code":"CN-41-4101","name":"登封市","level":"county","has_children":false,"full_path":"中国 / 河南省 / 郑州市 / 登封市","source_admin_code":"410185","osm_relation_id":3283763}}
]}