{"type":"FeatureCollection", "features": [
{"type":"Feature","geometry":{"type":"Polygon","coordinates":[[[113.8513,33.613],[113.8513,33.6048],[113.846,33.5959],[113.8475,33.5896],[113.8543,33.5825],[113.8513,33.5708],[113.8433,33.5633],[113.8509,33.5529],[113.8603,33.5464],[113.8624,33.5406],[113.8532,33.535],[113.8507,33.5199],[113.8342,33.5123],[113.8325,33.5077],[113.8211,33.5024],[113.8107,33.502],[113.7936,33.505],[113.7868,33.4966],[113.7845,33.4824],[113.7795,33.4764],[113.7842,33.4663],[113.7854,33.4541],[113.7888,33.4484],[113.797,33.444],[113.7988,33.4479],[113.8145,33.4519],[113.8162,33.4581],[113.8321,33.4665],[113.84,33.4656],[113.8433,33.4759],[113.8515,33.4794],[113.8923,33.4784],[113.8983,33.4852],[113.9097,33.484],[113.9126,33.4701],[113.924,33.466],[113.942,33.4665],[113.9448,33.4739],[113.9585,33.4742],[113.9653,33.4855],[113.9743,33.4838],[113.9874,33.4906],[113.9868,33.5014],[113.9993,33.5055],[114.0054,33.5112],[114.0066,33.5244],[114.0098,33.5282],[114.0308,33.5238],[114.0327,33.5311],[114.0393,33.5817],[114.0292,33.5825],[114.0161,33.579],[114.0034,33.5793],[113.992,33.5822],[113.9838,33.5806],[113.9782,33.5871],[113.9666,33.5885],[113.9618,33.596],[113.9557,33.5952],[113.9473,33.5834],[113.937,33.5981],[113.9201,33.5992],[113.9091,33.6065],[113.9014,33.6021],[113.9066,33.5893],[113.8984,33.5865],[113.8929,33.5976],[113.8716,33.6022],[113.8586,33.6115],[113.8513,33.613]]]},"properties":{"region_code":"CN-41-4111-411102","parent_region_code":"CN-41-4111","name":"源汇区","level":"county","has_children":false,"full_path":"中国 / 河南省 / 漯河市 / 源汇区","source_admin_code":"411102","osm_relation_id":4567450}},
{"type":"Feature","geometry":{"type":"Polygon","coordinates":[[[114.0393,33.5817],[114.058,33.5773],[114.062,33.5893],[114.0702,33.5966],[114.0768,33.6246],[114.0841,33.6367],[114.0934,33.642],[114.1006,33.6544],[114.1115,33.6534],[114.1098,33.6681],[114.1127,33.6723],[114.1031,33.6866],[114.0912,33.6843],[114.0913,33.6944],[114.0842,33.7203],[114.061,33.7196],[114.0508,33.7279],[114.0478,33.7223],[114.0333,33.7224],[114.0304,33.7375],[114.0038,33.7353],[113.9945,33.7272],[113.9545,33.719],[113.9387,33.7174],[113.9236,33.7209],[113.9065,33.7417],[113.8994,33.7468],[113.884,33.7492],[113.854,33.7348],[113.8496,33.7466],[113.8425,33.752],[113.842,33.7576],[113.8288,33.7601],[113.8204,33.7583],[113.8108,33.7519],[113.8123,33.7397],[113.8085,33.7319],[113.7828,33.7332],[113.7777,33.7378],[113.7565,33.7286],[113.7558,33.7237],[113.7465,33.7163],[113.7574,33.705],[113.7546,33.6953],[113.7579,33.6915],[113.7506,33.6827],[113.7524,33.677],[113.7595,33.6745],[113.7626,33.6603],[113.7848,33.6513],[113.7902,33.6416],[113.7878,33.6228],[113.8066,33.6141],[113.8179,33.6013],[113.825,33.6109],[113.8513,33.613],[113.8586,33.6115],[113.8716,33.6022],[113.8929,33.5976],[113.8984,33.5865],[113.9066,33.5893],[113.9014,33.6021],[113.9091,33.6065],[113.9201,33.5992],[113.937,33.5981],[113.9473,33.5834],[113.9557,33.5952],[113.9618,33.596],[113.9666,33.5885],[113.9782,33.5871],[113.9838,33.5806],[113.992,33.5822],[114.0034,33.5793],[114.0161,33.579],[114.0292,33.5825],[114.0393,33.5817]]]},"properties":{"region_code":"CN-41-4111-411103","parent_region_code":"CN-41-4111","name":"郾城区","level":"county","has_children":false,"full_path":"中国 / 河南省 / 漯河市 / 郾城区","source_admin_code":"411103","osm_relation_id":4567449}},
{"type":"Feature","geometry":{"type":"Polygon","coordinates":[[[114.0327,33.5311],[114.0467,33.5256],[114.0525,33.5256],[114.0612,33.516],[114.0672,33.5213],[114.0821,33.5164],[114.0957,33.5052],[114.1,33.4905],[114.1093,33.49],[114.1181,33.4951],[114.1231,33.4912],[114.1229,33.4762],[114.1411,33.4711],[114.1404,33.4635],[114.165,33.4588],[114.1798,33.4618],[114.184,33.457],[114.1812,33.4471],[114.1676,33.4463],[114.1693,33.4391],[114.1877,33.4362],[114.1888,33.4522],[114.2175,33.4511],[114.2392,33.4526],[114.2414,33.462],[114.2585,33.4624],[114.2771,33.4741],[114.2789,33.4819],[114.2732,33.4894],[114.2764,33.501],[114.2726,33.504],[114.2704,33.5156],[114.2856,33.5231],[114.2881,33.5279],[114.2894,33.5601],[114.2776,33.5607],[114.271,33.5656],[114.2737,33.575],[114.2598,33.5816],[114.2544,33.5985],[114.2594,33.6012],[114.272,33.6013],[114.2721,33.6078],[114.279,33.6143],[114.2786,33.6209],[114.2626,33.6264],[114.2559,33.6308],[114.2535,33.6371],[114.2574,33.6491],[114.258,33.6589],[114.2515,33.6651],[114.2632,33.6799],[114.2611,33.6858],[114.2497,33.6858],[114.2463,33.6973],[114.2466,33.7053],[114.2217,33.6986],[114.2149,33.6984],[114.2065,33.6927],[114.1936,33.6931],[114.1807,33.6841],[114.1812,33.6754],[114.1726,33.6727],[114.1652,33.6662],[114.1566,33.6713],[114.1477,33.6645],[114.1477,33.6545],[114.1441,33.6519],[114.1201,33.6541],[114.1115,33.6534],[114.1006,33.6544],[114.0934,33.642],[114.0841,33.6367],[114.0768,33.6246],[114.0702,33.5966],[114.062,33.5893],[114.058,33.5773],[114.0393,33.5817],[114.0327,33.5311]]]},"properties":{"region_code":"CN-41-4111-411104","parent_region_code":"CN-41-4111","name":"召陵区","level":"county","has_children":false,"full_path":"中国 / 河南省 / 漯河市 / 召陵区","source_admin_code":"411104","osm_relation_id":4567448}},
{"type":"Feature","geometry":{"type":"Polygon","coordinates":[[[113.8513,33.613],[113.825,33.6109],[113.8179,33.6013],[113.8066,33.6141],[113.7878,33.6228],[113.7902,33.6416],[113.7848,33.6513],[113.7626,33.6603],[113.7595,33.6745],[113.7524,33.677],[113.7506,33.6827],[113.7579,33.6915],[113.7546,33.6953],[113.7574,33.705],[113.7465,33.7163],[113.7341,33.7145],[113.7288,33.6974],[113.7181,33.6969],[113.7131,33.7002],[113.7124,33.708],[113.7021,33.7125],[113.6979,33.6943],[113.6786,33.691],[113.6792,33.6956],[113.6612,33.6968],[113.6498,33.7018],[113.6292,33.6927],[113.6133,33.6956],[113.6033,33.6954],[113.6017,33.7087],[113.5765,33.7131],[113.573,33.7066],[113.5789,33.702],[113.576,33.6909],[113.5722,33.6882],[113.5761,33.6708],[113.58,33.6665],[113.5813,33.6563],[113.5955,33.6531],[113.5975,33.6458],[113.6048,33.6454],[113.6072,33.6377],[113.6199,33.6245],[113.6172,33.6172],[113.6043,33.6197],[113.6023,33.611],[113.588,33.6065],[113.5799,33.6081],[113.566,33.5913],[113.5624,33.5927],[113.5457,33.5882],[113.547,33.5737],[113.5566,33.5721],[113.5561,33.5658],[113.5498,33.5544],[113.5402,33.5515],[113.5353,33.5411],[113.5311,33.5178],[113.5271,33.5112],[113.5309,33.5001],[113.5254,33.4989],[113.5176,33.507],[113.5041,33.5065],[113.496,33.5017],[113.4795,33.5014],[113.4761,33.4931],[113.4764,33.4839],[113.465,33.4625],[113.467,33.4558],[113.4645,33.4416],[113.4537,33.4394],[113.4522,33.4269],[113.4584,33.423],[113.4767,33.4229],[113.5148,33.4099],[113.5157,33.4215],[113.5319,33.422],[113.5391,33.4152],[113.5418,33.4081],[113.5629,33.4096],[113.5771,33.403],[113.5864,33.4089],[113.5867,33.4129],[113.5978,33.4156],[113.6084,33.4126],[113.6211,33.4167],[113.6297,33.426],[113.6358,33.4261],[113.6466,33.4201],[113.6534,33.4253],[113.6654,33.4213],[113.7032,33.4174],[113.7041,33.4263],[113.7135,33.4352],[113.7308,33.4315],[113.7404,33.4349],[113.7572,33.4337],[113.7659,33.436],[113.7845,33.437],[113.7961,33.4345],[113.797,33.444],[113.7888,33.4484],[113.7854,33.4541],[113.7842,33.4663],[113.7795,33.4764],[113.7845,33.4824],[113.7868,33.4966],[113.7936,33.505],[113.8107,33.502],[113.8211,33.5024],[113.8325,33.5077],[113.8342,33.5123],[113.8507,33.5199],[113.8532,33.535],[113.8624,33.5406],[113.8603,33.5464],[113.8509,33.5529],[113.8433,33.5633],[113.8513,33.5708],[113.8543,33.5825],[113.8475,33.5896],[113.846,33.5959],[113.8513,33.6048],[113.8513,33.613]]]},"properties":{"region_code":"CN-41-4111-411121","parent_region_code":"CN-41-4111","name":"舞阳县","level":"county","has_children":false,"full_path":"中国 / 河南省 / 漯河市 / 舞阳县","source_admin_code":"411121","osm_relation_id":4434404}},
{"type":"Feature","geometry":{"type":"Polygon","coordinates":[[[114.0842,33.7203],[114.0872,33.7333],[114.101,33.7333],[114.1036,33.7429],[114.0924,33.7577],[114.0911,33.766],[114.1137,33.7673],[114.1352,33.7668],[114.1322,33.7793],[114.134,33.7886],[114.1278,33.7989],[114.133,33.8047],[114.1518,33.806],[114.1539,33.8262],[114.145,33.8329],[114.1377,33.8457],[114.1318,33.8486],[114.1242,33.8577],[114.11,33.8612],[114.1089,33.8732],[114.1164,33.8791],[114.1285,33.8805],[114.1286,33.8863],[114.122,33.8898],[114.1167,33.9026],[114.1195,33.916],[114.1158,33.923],[114.1079,33.9292],[114.1001,33.9285],[114.0976,33.9357],[114.0812,33.9354],[114.0747,33.9511],[114.0603,33.9513],[114.051,33.9536],[114.0521,33.9674],[114.0469,33.9816],[114.0341,33.9852],[114.0094,33.9844],[113.9908,33.9824],[113.9865,33.9762],[113.9744,33.9759],[113.9679,33.9846],[113.9567,33.9833],[113.9444,33.978],[113.9399,33.9716],[113.9301,33.97],[113.9234,33.9593],[113.9168,33.9591],[113.9138,33.9453],[113.8949,33.9498],[113.8867,33.9442],[113.8777,33.9505],[113.8652,33.9479],[113.8533,33.95],[113.8513,33.941],[113.8654,33.9111],[113.8532,33.9084],[113.855,33.8835],[113.85,33.8751],[113.8413,33.873],[113.8187,33.877],[113.8008,33.883],[113.7896,33.8824],[113.7714,33.8865],[113.7595,33.885],[113.7673,33.8764],[113.7562,33.8736],[113.7538,33.8697],[113.736,33.8707],[113.7269,33.8653],[113.7263,33.8581],[113.7188,33.8577],[113.7178,33.8517],[113.7215,33.8413],[113.7286,33.8327],[113.7344,33.8329],[113.751,33.8258],[113.7535,33.8131],[113.748,33.7978],[113.7412,33.7909],[113.7471,33.7752],[113.7423,33.7676],[113.7313,33.761],[113.7279,33.7534],[113.7305,33.7436],[113.7438,33.7411],[113.7557,33.7333],[113.7565,33.7286],[113.7777,33.7378],[113.7828,33.7332],[113.8085,33.7319],[113.8123,33.7397],[113.8108,33.7519],[113.8204,33.7583],[113.8288,33.7601],[113.842,33.7576],[113.8425,33.752],[113.8496,33.7466],[113.854,33.7348],[113.884,33.7492],[113.8994,33.7468],[113.9065,33.7417],[113.9236,33.7209],[113.9387,33.7174],[113.9545,33.719],[113.9945,33.7272],[114.0038,33.7353],[114.0304,33.7375],[114.0333,33.7224],[114.0478,33.7223],[114.0508,33.7279],[114.061,33.7196],[114.0842,33.7203]]]},"properties":{"region_code":"CN-41-4111-411122","parent_region_code":"CN-41-4111","name":"临颍县","level":"county","has_children":false,"full_path":"中国 / 河南省 / 漯河市 / 临颍县","source_admin_code":"411122","osm_relation_id":4567430}}
]}