{"type":"FeatureCollection", "features": [
{"type":"Feature","geometry":{"type":"Polygon","coordinates":[[[109.4725,28.2714],[109.5102,28.3007],[109.5153,28.2682],[109.5358,28.2468],[109.5167,28.2352],[109.5387,28.2154],[109.521,28.2035],[109.5277,28.1914],[109.5677,28.1943],[109.5913,28.2016],[109.6109,28.2149],[109.6461,28.2116],[109.6899,28.1885],[109.6822,28.1658],[109.6923,28.158],[109.7239,28.1545],[109.742,28.1448],[109.7856,28.1577],[109.8118,28.1494],[109.8389,28.1791],[109.8297,28.1954],[109.851,28.2125],[109.839,28.2373],[109.8474,28.2559],[109.8719,28.2778],[109.9005,28.2854],[109.914,28.2797],[109.9448,28.3004],[109.9811,28.2938],[110.0095,28.315],[110.0151,28.359],[110.006,28.3689],[110.0082,28.4074],[110.0378,28.4143],[110.0566,28.4259],[110.0602,28.4445],[109.9855,28.4341],[109.9645,28.4101],[109.9145,28.398],[109.8873,28.407],[109.8793,28.4194],[109.8948,28.4483],[109.8672,28.4528],[109.8552,28.4716],[109.8359,28.4633],[109.8197,28.4763],[109.8034,28.4679],[109.8031,28.4514],[109.7797,28.4366],[109.744,28.4377],[109.7012,28.4311],[109.6695,28.411],[109.6452,28.4042],[109.6227,28.3918],[109.6314,28.3737],[109.609,28.3481],[109.5845,28.3477],[109.536,28.3716],[109.5012,28.3642],[109.5069,28.3535],[109.4825,28.3177],[109.4675,28.2863],[109.4725,28.2714]]]},"properties":{"region_code":"CN-43-4331-433101","parent_region_code":"CN-43-4331","name":"吉首市","level":"county","has_children":false,"full_path":"中国 / 湖南省 / 湘西土家族苗族自治州 / 吉首市","source_admin_code":"433101","osm_relation_id":2972164}},
{"type":"Feature","geometry":{"type":"Polygon","coordinates":[[[109.6822,28.1658],[109.6645,28.1427],[109.6608,28.1269],[109.6685,28.0981],[109.7231,28.1072],[109.7632,28.0952],[109.7836,28.0791],[109.8011,28.0506],[109.7916,28.0344],[109.7796,28.0197],[109.7765,27.9972],[109.7865,27.9758],[109.8168,27.9895],[109.8896,27.945],[109.9336,27.9667],[109.9706,27.9421],[109.9827,27.9501],[109.998,27.937],[109.995,27.9239],[110.0114,27.9119],[110.0496,27.9274],[110.0422,27.9567],[110.0536,27.973],[110.0914,27.9791],[110.1244,28.0268],[110.1351,28.0609],[110.1098,28.0767],[110.1066,28.0952],[110.1489,28.0963],[110.1632,28.1068],[110.1472,28.1327],[110.1786,28.1408],[110.164,28.16],[110.1944,28.1794],[110.1943,28.2064],[110.2312,28.2003],[110.2384,28.2106],[110.2326,28.2377],[110.2039,28.2477],[110.1837,28.2606],[110.1705,28.2863],[110.181,28.2909],[110.1734,28.3184],[110.1829,28.333],[110.2072,28.3482],[110.1776,28.3773],[110.1538,28.3896],[110.1346,28.3893],[110.1067,28.4184],[110.1026,28.4557],[110.0602,28.4445],[110.0566,28.4259],[110.0378,28.4143],[110.0082,28.4074],[110.006,28.3689],[110.0151,28.359],[110.0095,28.315],[109.9811,28.2938],[109.9448,28.3004],[109.914,28.2797],[109.9005,28.2854],[109.8719,28.2778],[109.8474,28.2559],[109.839,28.2373],[109.851,28.2125],[109.8297,28.1954],[109.8389,28.1791],[109.8118,28.1494],[109.7856,28.1577],[109.742,28.1448],[109.7239,28.1545],[109.6923,28.158],[109.6822,28.1658]]]},"properties":{"region_code":"CN-43-4331-433122","parent_region_code":"CN-43-4331","name":"泸溪县","level":"county","has_children":false,"full_path":"中国 / 湖南省 / 湘西土家族苗族自治州 / 泸溪县","source_admin_code":"433122","osm_relation_id":2972166}},
{"type":"Feature","geometry":{"type":"Polygon","coordinates":[[[109.4725,28.2714],[109.4547,28.2434],[109.4242,28.2263],[109.4175,28.1894],[109.4016,28.1917],[109.3374,28.1822],[109.3428,28.1678],[109.3236,28.1186],[109.3087,28.1047],[109.2942,28.0518],[109.3186,28.0438],[109.332,28.0669],[109.3552,28.0563],[109.3735,28.0387],[109.3573,28.0097],[109.3401,28.0105],[109.3138,27.9905],[109.3095,27.9698],[109.2959,27.9597],[109.3089,27.9361],[109.3043,27.9128],[109.3143,27.9001],[109.3139,27.88],[109.3228,27.8606],[109.341,27.8407],[109.3387,27.8154],[109.3274,27.7949],[109.3586,27.7637],[109.3581,27.7477],[109.3699,27.7295],[109.4143,27.7239],[109.4202,27.7402],[109.4364,27.7514],[109.4706,27.7907],[109.5139,27.8104],[109.5303,27.8088],[109.5345,27.7898],[109.5704,27.8122],[109.6012,27.8031],[109.6176,27.8269],[109.6423,27.8383],[109.6327,27.8802],[109.6167,27.8835],[109.6231,27.9116],[109.645,27.9078],[109.6786,27.9406],[109.6924,27.9411],[109.7148,27.9569],[109.7109,27.9794],[109.7296,27.9898],[109.7254,28.0208],[109.7916,28.0344],[109.8011,28.0506],[109.7836,28.0791],[109.7632,28.0952],[109.7231,28.1072],[109.6685,28.0981],[109.6608,28.1269],[109.6645,28.1427],[109.6822,28.1658],[109.6899,28.1885],[109.6461,28.2116],[109.6109,28.2149],[109.5913,28.2016],[109.5677,28.1943],[109.5277,28.1914],[109.521,28.2035],[109.5387,28.2154],[109.5167,28.2352],[109.5358,28.2468],[109.5153,28.2682],[109.5102,28.3007],[109.4725,28.2714]]]},"properties":{"region_code":"CN-43-4331-433123","parent_region_code":"CN-43-4331","name":"凤凰县","level":"county","has_children":false,"full_path":"中国 / 湖南省 / 湘西土家族苗族自治州 / 凤凰县","source_admin_code":"433123","osm_relation_id":2972161}},
{"type":"Feature","geometry":{"type":"Polygon","coordinates":[[[109.6452,28.4042],[109.6191,28.4111],[109.6462,28.425],[109.6317,28.4416],[109.5961,28.4416],[109.5696,28.4536],[109.5422,28.4818],[109.5659,28.5213],[109.5551,28.558],[109.5906,28.5749],[109.6065,28.573],[109.6094,28.5916],[109.5995,28.6102],[109.5837,28.6201],[109.5675,28.6164],[109.5428,28.6248],[109.4883,28.596],[109.4562,28.591],[109.4108,28.6038],[109.3802,28.5984],[109.3637,28.5823],[109.3577,28.5657],[109.3376,28.5591],[109.3161,28.5826],[109.3008,28.5823],[109.2841,28.5487],[109.2694,28.5417],[109.269,28.4928],[109.2562,28.4678],[109.2522,28.4403],[109.2629,28.3895],[109.2842,28.3762],[109.2639,28.3412],[109.2704,28.3159],[109.2953,28.2929],[109.3018,28.2767],[109.3299,28.2967],[109.3928,28.2712],[109.3736,28.2647],[109.3542,28.2359],[109.3566,28.2254],[109.3363,28.2013],[109.3374,28.1822],[109.4016,28.1917],[109.4175,28.1894],[109.4242,28.2263],[109.4547,28.2434],[109.4725,28.2714],[109.4675,28.2863],[109.4825,28.3177],[109.5069,28.3535],[109.5012,28.3642],[109.536,28.3716],[109.5845,28.3477],[109.609,28.3481],[109.6314,28.3737],[109.6227,28.3918],[109.6452,28.4042]]]},"properties":{"region_code":"CN-43-4331-433124","parent_region_code":"CN-43-4331","name":"花垣县","level":"county","has_children":false,"full_path":"中国 / 湖南省 / 湘西土家族苗族自治州 / 花垣县","source_admin_code":"433124","osm_relation_id":2972163}},
{"type":"Feature","geometry":{"type":"Polygon","coordinates":[[[109.8197,28.4763],[109.8239,28.4988],[109.7847,28.5131],[109.7872,28.5402],[109.8024,28.5534],[109.8205,28.5868],[109.8304,28.6217],[109.8177,28.6458],[109.7902,28.6544],[109.7603,28.6432],[109.7518,28.6525],[109.7581,28.6733],[109.7503,28.6829],[109.7618,28.7043],[109.7814,28.7222],[109.7712,28.7313],[109.7409,28.7272],[109.7082,28.7563],[109.733,28.7846],[109.7217,28.7919],[109.6991,28.8428],[109.6741,28.8642],[109.6809,28.883],[109.6666,28.8926],[109.6191,28.8986],[109.5873,28.9157],[109.5703,28.8921],[109.5414,28.8272],[109.5286,28.8284],[109.5031,28.8534],[109.4491,28.8565],[109.442,28.8691],[109.4036,28.8483],[109.3618,28.7841],[109.321,28.7863],[109.3031,28.7974],[109.2927,28.7804],[109.257,28.7773],[109.2739,28.7547],[109.2949,28.7496],[109.2905,28.7259],[109.2674,28.7033],[109.2482,28.695],[109.2665,28.6743],[109.1917,28.6414],[109.1764,28.6247],[109.2015,28.6058],[109.2295,28.6242],[109.2534,28.6097],[109.2827,28.6328],[109.3021,28.6237],[109.2995,28.6051],[109.3161,28.5826],[109.3376,28.5591],[109.3577,28.5657],[109.3637,28.5823],[109.3802,28.5984],[109.4108,28.6038],[109.4562,28.591],[109.4883,28.596],[109.5428,28.6248],[109.5675,28.6164],[109.5837,28.6201],[109.5995,28.6102],[109.6094,28.5916],[109.6065,28.573],[109.5906,28.5749],[109.5551,28.558],[109.5659,28.5213],[109.5422,28.4818],[109.5696,28.4536],[109.5961,28.4416],[109.6317,28.4416],[109.6462,28.425],[109.6191,28.4111],[109.6452,28.4042],[109.6695,28.411],[109.7012,28.4311],[109.744,28.4377],[109.7797,28.4366],[109.8031,28.4514],[109.8034,28.4679],[109.8197,28.4763]]]},"properties":{"region_code":"CN-43-4331-433125","parent_region_code":"CN-43-4331","name":"保靖县","level":"county","has_children":false,"full_path":"中国 / 湖南省 / 湘西土家族苗族自治州 / 保靖县","source_admin_code":"433125","osm_relation_id":2972160}},
{"type":"Feature","geometry":{"type":"Polygon","coordinates":[[[110.0602,28.4445],[110.1026,28.4557],[110.1235,28.4614],[110.1385,28.4532],[110.1558,28.4703],[110.15,28.4908],[110.1503,28.5249],[110.1624,28.5384],[110.1601,28.5735],[110.1691,28.5856],[110.2304,28.5666],[110.2303,28.5861],[110.2196,28.6066],[110.2133,28.6362],[110.2325,28.6457],[110.2654,28.6767],[110.273,28.6904],[110.2742,28.7184],[110.2357,28.7067],[110.2195,28.709],[110.1956,28.7239],[110.1611,28.7203],[110.1368,28.7236],[110.0988,28.7501],[110.0694,28.7602],[110.0195,28.7409],[110.0139,28.7173],[109.9834,28.7114],[109.9241,28.7513],[109.8966,28.7421],[109.8759,28.7647],[109.8343,28.7669],[109.794,28.7483],[109.7712,28.7313],[109.7814,28.7222],[109.7618,28.7043],[109.7503,28.6829],[109.7581,28.6733],[109.7518,28.6525],[109.7603,28.6432],[109.7902,28.6544],[109.8177,28.6458],[109.8304,28.6217],[109.8205,28.5868],[109.8024,28.5534],[109.7872,28.5402],[109.7847,28.5131],[109.8239,28.4988],[109.8197,28.4763],[109.8359,28.4633],[109.8552,28.4716],[109.8672,28.4528],[109.8948,28.4483],[109.8793,28.4194],[109.8873,28.407],[109.9145,28.398],[109.9645,28.4101],[109.9855,28.4341],[110.0602,28.4445]]]},"properties":{"region_code":"CN-43-4331-433126","parent_region_code":"CN-43-4331","name":"古丈县","level":"county","has_children":false,"full_path":"中国 / 湖南省 / 湘西土家族苗族自治州 / 古丈县","source_admin_code":"433126","osm_relation_id":2972162}},
{"type":"Feature","geometry":{"type":"Polygon","coordinates":[[[109.7712,28.7313],[109.794,28.7483],[109.8343,28.7669],[109.8759,28.7647],[109.8966,28.7421],[109.9241,28.7513],[109.9834,28.7114],[110.0139,28.7173],[110.0195,28.7409],[110.0694,28.7602],[110.0988,28.7501],[110.1368,28.7236],[110.1611,28.7203],[110.1956,28.7239],[110.2195,28.709],[110.2357,28.7067],[110.2742,28.7184],[110.285,28.7669],[110.3053,28.7557],[110.3355,28.7729],[110.3356,28.8048],[110.3415,28.8201],[110.3801,28.8675],[110.383,28.885],[110.3582,28.8909],[110.3632,28.9104],[110.3562,28.9302],[110.3272,28.9454],[110.3111,28.9401],[110.3018,28.9606],[110.3287,28.9808],[110.3437,29.0223],[110.3392,29.0392],[110.3014,29.0412],[110.2952,29.0664],[110.2821,29.0875],[110.2559,29.0691],[110.2436,29.0834],[110.2593,29.1144],[110.2389,29.1255],[110.2204,29.1177],[110.214,29.1402],[110.1857,29.1664],[110.1782,29.1542],[110.1573,29.1724],[110.1446,29.1545],[110.1142,29.1446],[110.0893,29.1428],[110.066,29.2266],[110.1007,29.2611],[110.1108,29.2896],[110.0664,29.3239],[110.0443,29.314],[110.0142,29.2903],[109.9632,29.3041],[109.9337,29.3271],[109.9556,29.3401],[109.9406,29.3695],[109.9472,29.3803],[109.9393,29.4209],[109.9172,29.4446],[109.9025,29.4399],[109.8568,29.3976],[109.8264,29.3737],[109.7717,29.3365],[109.7853,29.305],[109.7625,29.2904],[109.7467,29.2716],[109.6789,29.2471],[109.6666,29.24],[109.6602,29.2159],[109.6459,29.1295],[109.6288,29.0926],[109.632,29.0527],[109.6216,28.9904],[109.6121,28.9785],[109.6018,28.9374],[109.5873,28.9157],[109.6191,28.8986],[109.6666,28.8926],[109.6809,28.883],[109.6741,28.8642],[109.6991,28.8428],[109.7217,28.7919],[109.733,28.7846],[109.7082,28.7563],[109.7409,28.7272],[109.7712,28.7313]]]},"properties":{"region_code":"CN-43-4331-433127","parent_region_code":"CN-43-4331","name":"永顺县","level":"county","has_children":false,"full_path":"中国 / 湖南省 / 湘西土家族苗族自治州 / 永顺县","source_admin_code":"433127","osm_relation_id":2972167}},
{"type":"Feature","geometry":{"type":"Polygon","coordinates":[[[109.5873,28.9157],[109.6018,28.9374],[109.6121,28.9785],[109.6216,28.9904],[109.632,29.0527],[109.6288,29.0926],[109.6459,29.1295],[109.6602,29.2159],[109.6666,29.24],[109.6789,29.2471],[109.7467,29.2716],[109.7625,29.2904],[109.7853,29.305],[109.7717,29.3365],[109.8264,29.3737],[109.8124,29.3953],[109.791,29.4151],[109.8037,29.4311],[109.7941,29.4564],[109.78,29.4667],[109.7709,29.4959],[109.7367,29.5308],[109.7372,29.545],[109.7755,29.575],[109.7566,29.612],[109.7163,29.6027],[109.7026,29.611],[109.6739,29.6113],[109.6569,29.6021],[109.6362,29.6256],[109.6069,29.637],[109.5726,29.6324],[109.5539,29.6086],[109.5281,29.6242],[109.4985,29.6087],[109.4998,29.5898],[109.4846,29.5558],[109.4657,29.5623],[109.4539,29.5359],[109.4282,29.5332],[109.4285,29.4921],[109.4053,29.4928],[109.4006,29.4701],[109.4127,29.4568],[109.3951,29.4408],[109.3679,29.4268],[109.3644,29.4153],[109.3811,29.3966],[109.387,29.3729],[109.362,29.384],[109.3395,29.3762],[109.3348,29.3382],[109.3467,29.3071],[109.3457,29.2871],[109.3207,29.2609],[109.2814,29.2452],[109.2576,29.2306],[109.2534,29.2202],[109.2687,29.2033],[109.2554,29.1529],[109.2713,29.1359],[109.2254,29.1157],[109.2279,29.0963],[109.2516,29.091],[109.2889,29.0719],[109.3077,29.0682],[109.3157,29.0473],[109.2914,29.0195],[109.2837,28.9767],[109.2586,28.9632],[109.2496,28.9306],[109.2503,28.9113],[109.2311,28.8856],[109.2416,28.8254],[109.2377,28.7801],[109.257,28.7773],[109.2927,28.7804],[109.3031,28.7974],[109.321,28.7863],[109.3618,28.7841],[109.4036,28.8483],[109.442,28.8691],[109.4491,28.8565],[109.5031,28.8534],[109.5286,28.8284],[109.5414,28.8272],[109.5703,28.8921],[109.5873,28.9157]]]},"properties":{"region_code":"CN-43-4331-433130","parent_region_code":"CN-43-4331","name":"龙山县","level":"county","has_children":false,"full_path":"中国 / 湖南省 / 湘西土家族苗族自治州 / 龙山县","source_admin_code":"433130","osm_relation_id":2972165}}
]}