{"type":"FeatureCollection", "features": [
{"type":"Feature","geometry":{"type":"MultiPolygon","coordinates":[[[[114.6803,30.2045],[114.6831,30.2042],[114.6837,30.2087],[114.6814,30.21],[114.6777,30.2069],[114.6803,30.2045]]],[[[114.6862,30.3019],[114.6788,30.305],[114.6803,30.3087],[114.6746,30.3089],[114.6742,30.304],[114.6775,30.3008],[114.671,30.2934],[114.6674,30.2955],[114.6553,30.2986],[114.6558,30.3074],[114.6585,30.3101],[114.6617,30.3096],[114.6683,30.3057],[114.6688,30.3111],[114.6745,30.3124],[114.6748,30.3226],[114.6773,30.3263],[114.6735,30.3277],[114.6743,30.3311],[114.6671,30.3326],[114.6619,30.3362],[114.6623,30.3388],[114.6671,30.3444],[114.6609,30.3508],[114.6549,30.3582],[114.6489,30.3657],[114.6454,30.366],[114.6444,30.3598],[114.6347,30.3621],[114.6342,30.3648],[114.6293,30.3636],[114.6193,30.3591],[114.6127,30.3508],[114.6003,30.3502],[114.5925,30.345],[114.5965,30.3384],[114.5955,30.3327],[114.5958,30.3234],[114.5982,30.3104],[114.5963,30.3041],[114.5924,30.2998],[114.5917,30.2941],[114.584,30.2825],[114.5807,30.2809],[114.5798,30.2775],[114.569,30.2708],[114.5632,30.2654],[114.5611,30.2582],[114.5578,30.2541],[114.5546,30.2454],[114.5484,30.2346],[114.5467,30.2305],[114.5471,30.2211],[114.5538,30.2174],[114.5522,30.2149],[114.5469,30.2156],[114.5443,30.214],[114.5426,30.2091],[114.5388,30.2026],[114.5362,30.2005],[114.5321,30.1999],[114.5302,30.1972],[114.523,30.1908],[114.5191,30.1762],[114.5138,30.1732],[114.5115,30.1675],[114.5127,30.1628],[114.5057,30.1542],[114.5072,30.1435],[114.5105,30.1361],[114.5072,30.133],[114.5083,30.1298],[114.51,30.1174],[114.5131,30.1088],[114.5112,30.1064],[114.5127,30.1028],[114.5232,30.0963],[114.5259,30.0846],[114.5318,30.0783],[114.5359,30.0762],[114.5345,30.0715],[114.5406,30.0669],[114.5451,30.0672],[114.5485,30.0624],[114.5514,30.0613],[114.5556,30.0621],[114.5582,30.0584],[114.5576,30.0554],[114.5616,30.0523],[114.5633,30.0484],[114.5613,30.0468],[114.5608,30.0428],[114.5632,30.0383],[114.5697,30.0375],[114.5727,30.0399],[114.5784,30.0393],[114.581,30.0446],[114.5856,30.0475],[114.5875,30.0516],[114.5943,30.0506],[114.5977,30.0533],[114.6072,30.0499],[114.613,30.0493],[114.6204,30.0462],[114.6245,30.0506],[114.6263,30.048],[114.6358,30.0403],[114.6357,30.0303],[114.6326,30.0285],[114.6314,30.0255],[114.6351,30.0232],[114.6344,30.0185],[114.6418,30.0173],[114.6488,30.0218],[114.6536,30.0224],[114.6581,30.0199],[114.6644,30.019],[114.666,30.0243],[114.67,30.026],[114.677,30.0241],[114.6812,30.0265],[114.682,30.0329],[114.6846,30.0328],[114.6854,30.0405],[114.683,30.0421],[114.6804,30.0479],[114.6834,30.0479],[114.6864,30.0522],[114.6908,30.0542],[114.6965,30.0528],[114.6953,30.0443],[114.6994,30.042],[114.7031,30.0445],[114.7108,30.045],[114.7144,30.0468],[114.7136,30.0516],[114.7175,30.054],[114.7206,30.0576],[114.7246,30.057],[114.7278,30.06],[114.723,30.067],[114.7176,30.0671],[114.7145,30.0721],[114.7099,30.0737],[114.7099,30.0794],[114.7147,30.0824],[114.7196,30.0824],[114.7266,30.0919],[114.733,30.0905],[114.7377,30.0918],[114.7365,30.095],[114.7307,30.0984],[114.7293,30.101],[114.7295,30.1057],[114.7256,30.1077],[114.726,30.1117],[114.7213,30.1117],[114.7237,30.1158],[114.7237,30.1208],[114.716,30.1256],[114.7081,30.1259],[114.7093,30.1289],[114.7056,30.1303],[114.7059,30.1391],[114.7043,30.1425],[114.7,30.1425],[114.6942,30.1478],[114.6966,30.1562],[114.6963,30.1595],[114.7012,30.1605],[114.7031,30.1644],[114.7102,30.1653],[114.7064,30.1707],[114.7065,30.1756],[114.7106,30.1748],[114.7191,30.1786],[114.7189,30.183],[114.7115,30.1875],[114.7047,30.1864],[114.7015,30.1882],[114.6986,30.1876],[114.6943,30.193],[114.6876,30.1987],[114.6798,30.2009],[114.6749,30.2034],[114.6706,30.2128],[114.6717,30.219],[114.6687,30.2186],[114.6578,30.2216],[114.6556,30.2252],[114.6596,30.2333],[114.6587,30.2379],[114.6604,30.2409],[114.6582,30.2445],[114.6538,30.2481],[114.6564,30.252],[114.6573,30.2578],[114.6655,30.2608],[114.6659,30.2684],[114.6628,30.272],[114.6645,30.2735],[114.672,30.2725],[114.6825,30.2765],[114.68,30.2804],[114.6885,30.2836],[114.6888,30.2868],[114.6858,30.2877],[114.687,30.2942],[114.6862,30.3019]],[[114.6312,30.2798],[114.6284,30.2755],[114.6255,30.2771],[114.6225,30.2751],[114.6166,30.2752],[114.6164,30.2726],[114.6127,30.272],[114.6138,30.2797],[114.6224,30.2799],[114.6264,30.2789],[114.6288,30.2823],[114.6312,30.2798]],[[114.6512,30.3004],[114.6513,30.2959],[114.6469,30.2951],[114.6466,30.2926],[114.641,30.2889],[114.6371,30.291],[114.638,30.2956],[114.6445,30.2966],[114.6437,30.2986],[114.6512,30.3004]]]]},"properties":{"region_code":"CN-42-4207-420702","parent_region_code":"CN-42-4207","name":"梁子湖区","level":"county","has_children":false,"full_path":"中国 / 湖北省 / 鄂州市 / 梁子湖区","source_admin_code":"420702","osm_relation_id":4570745}},
{"type":"Feature","geometry":{"type":"MultiPolygon","coordinates":[[[[114.6147,30.5767],[114.6148,30.5739],[114.6316,30.5668],[114.6338,30.5667],[114.6406,30.5715],[114.6323,30.5727],[114.621,30.5759],[114.6147,30.5767]]],[[[114.6549,30.3582],[114.6583,30.3598],[114.6608,30.3664],[114.6599,30.3797],[114.6568,30.3828],[114.6559,30.3865],[114.653,30.3876],[114.6675,30.3932],[114.6765,30.3914],[114.6764,30.3878],[114.6786,30.3843],[114.677,30.3824],[114.6799,30.3798],[114.6883,30.3767],[114.6907,30.3817],[114.6975,30.3789],[114.6969,30.3764],[114.7063,30.3728],[114.7114,30.3724],[114.7122,30.3769],[114.7117,30.3881],[114.7192,30.3898],[114.7237,30.3883],[114.7263,30.3911],[114.7303,30.392],[114.7398,30.3879],[114.7399,30.3843],[114.7434,30.3827],[114.7446,30.3861],[114.7529,30.3869],[114.7554,30.3885],[114.7551,30.3954],[114.7578,30.4003],[114.7613,30.3972],[114.7647,30.3983],[114.7687,30.3946],[114.7746,30.3939],[114.7792,30.3967],[114.7872,30.3973],[114.79,30.3957],[114.7938,30.3965],[114.7909,30.4037],[114.7959,30.4065],[114.7982,30.4049],[114.8052,30.4115],[114.8052,30.4164],[114.8174,30.4177],[114.822,30.4203],[114.828,30.4208],[114.8372,30.4204],[114.8403,30.4264],[114.8527,30.4345],[114.8464,30.4413],[114.8361,30.4581],[114.8333,30.4639],[114.8288,30.4802],[114.8291,30.4967],[114.8308,30.5172],[114.8331,30.5308],[114.8353,30.558],[114.8349,30.5643],[114.831,30.584],[114.826,30.594],[114.8192,30.6024],[114.8092,30.6096],[114.7976,30.614],[114.7858,30.6162],[114.7671,30.6164],[114.758,30.6132],[114.7509,30.6097],[114.7279,30.5937],[114.7167,30.5881],[114.7006,30.582],[114.6859,30.5788],[114.6665,30.5755],[114.6528,30.5716],[114.6492,30.57],[114.6237,30.5568],[114.6212,30.5489],[114.6207,30.5445],[114.6239,30.5416],[114.6271,30.5421],[114.6275,30.5377],[114.6217,30.5368],[114.6206,30.5344],[114.6243,30.5317],[114.6279,30.5341],[114.6311,30.5254],[114.6308,30.5203],[114.6338,30.5164],[114.6312,30.513],[114.6331,30.5091],[114.6299,30.5062],[114.6283,30.5023],[114.6334,30.4912],[114.6282,30.4911],[114.6358,30.4799],[114.6317,30.4719],[114.6227,30.4726],[114.6177,30.4613],[114.6216,30.4567],[114.6196,30.454],[114.6165,30.4536],[114.6075,30.4553],[114.6044,30.4571],[114.5888,30.4602],[114.585,30.4596],[114.5845,30.4557],[114.5817,30.4521],[114.5833,30.4499],[114.5779,30.4411],[114.5785,30.4363],[114.5829,30.4368],[114.5837,30.4318],[114.5828,30.427],[114.5864,30.4274],[114.5875,30.4243],[114.5851,30.4198],[114.5849,30.414],[114.5881,30.4116],[114.5885,30.4085],[114.5831,30.3585],[114.5925,30.345],[114.6003,30.3502],[114.6127,30.3508],[114.6193,30.3591],[114.6293,30.3636],[114.6342,30.3648],[114.6347,30.3621],[114.6444,30.3598],[114.6454,30.366],[114.6489,30.3657],[114.6549,30.3582]],[[114.8127,30.5861],[114.8095,30.5931],[114.8045,30.5993],[114.809,30.5993],[114.817,30.5882],[114.8209,30.5811],[114.8178,30.5809],[114.8127,30.5861]]]]},"properties":{"region_code":"CN-42-4207-420703","parent_region_code":"CN-42-4207","name":"华容区","level":"county","has_children":false,"full_path":"中国 / 湖北省 / 鄂州市 / 华容区","source_admin_code":"420703","osm_relation_id":4570744}},
{"type":"Feature","geometry":{"type":"MultiPolygon","coordinates":[[[[115.0039,30.4218],[115.004,30.4161],[115.0061,30.4161],[115.0067,30.4215],[115.0039,30.4218]]],[[[114.6312,30.2798],[114.6288,30.2823],[114.6264,30.2789],[114.6224,30.2799],[114.6138,30.2797],[114.6127,30.272],[114.6164,30.2726],[114.6166,30.2752],[114.6225,30.2751],[114.6255,30.2771],[114.6284,30.2755],[114.6312,30.2798]]],[[[114.6512,30.3004],[114.6437,30.2986],[114.6445,30.2966],[114.638,30.2956],[114.6371,30.291],[114.641,30.2889],[114.6466,30.2926],[114.6469,30.2951],[114.6513,30.2959],[114.6512,30.3004]]],[[[114.6862,30.3019],[114.6873,30.3098],[114.6926,30.3109],[114.6955,30.3147],[114.699,30.3168],[114.7038,30.3223],[114.7133,30.3261],[114.7148,30.3283],[114.7226,30.3265],[114.7216,30.3232],[114.7223,30.317],[114.7269,30.3162],[114.7292,30.3135],[114.7277,30.3101],[114.7281,30.3053],[114.7309,30.3038],[114.7445,30.3024],[114.7515,30.2947],[114.7571,30.2949],[114.7591,30.2924],[114.7666,30.2887],[114.7755,30.2891],[114.7829,30.287],[114.7884,30.2935],[114.7871,30.2969],[114.7818,30.3028],[114.787,30.3056],[114.7855,30.3097],[114.7882,30.3102],[114.7904,30.3057],[114.7929,30.3076],[114.7973,30.3066],[114.7986,30.3029],[114.7986,30.2938],[114.8066,30.2948],[114.8056,30.2995],[114.8066,30.3043],[114.8091,30.3081],[114.8068,30.311],[114.8083,30.3136],[114.8159,30.3166],[114.8272,30.3139],[114.8307,30.308],[114.8308,30.2954],[114.8319,30.2905],[114.8365,30.2879],[114.8537,30.2828],[114.8593,30.2831],[114.8633,30.2811],[114.8637,30.2761],[114.8658,30.2748],[114.8645,30.269],[114.8556,30.2719],[114.8583,30.2659],[114.8531,30.2624],[114.8604,30.2546],[114.8595,30.2488],[114.8628,30.2409],[114.8677,30.2362],[114.8717,30.236],[114.875,30.2382],[114.8783,30.2368],[114.883,30.2372],[114.8902,30.2325],[114.8958,30.2327],[114.9003,30.2311],[114.9084,30.227],[114.9184,30.2228],[114.927,30.2248],[114.9303,30.2222],[114.93,30.2188],[114.943,30.2133],[114.9471,30.208],[114.9521,30.2063],[114.9545,30.2082],[114.958,30.2064],[114.9619,30.2091],[114.9601,30.2145],[114.9664,30.2154],[114.9663,30.2182],[114.9707,30.2186],[114.9781,30.2163],[114.9779,30.2201],[114.9818,30.2224],[114.9903,30.2157],[114.9949,30.2218],[115.0026,30.2232],[115.0055,30.2251],[115.0051,30.231],[115.0001,30.2321],[115.0044,30.2351],[115.0074,30.2393],[115.0137,30.2403],[115.0154,30.2479],[115.0178,30.2484],[115.0183,30.2536],[115.0198,30.2565],[115.0243,30.2556],[115.0389,30.2572],[115.0418,30.2594],[115.0453,30.2575],[115.0523,30.2577],[115.0528,30.262],[115.0598,30.2643],[115.0636,30.263],[115.074,30.2615],[115.0854,30.2913],[115.0861,30.3004],[115.0818,30.3369],[115.0754,30.3525],[115.0708,30.3626],[115.0641,30.3748],[115.0515,30.3925],[115.0442,30.4004],[115.0367,30.4036],[115.0304,30.405],[115.0125,30.4074],[114.9985,30.4071],[114.9625,30.4054],[114.955,30.4058],[114.9128,30.4106],[114.8951,30.4144],[114.8794,30.4197],[114.8745,30.4219],[114.859,30.4301],[114.8527,30.4345],[114.8403,30.4264],[114.8372,30.4204],[114.828,30.4208],[114.822,30.4203],[114.8174,30.4177],[114.8052,30.4164],[114.8052,30.4115],[114.7982,30.4049],[114.7959,30.4065],[114.7909,30.4037],[114.7938,30.3965],[114.79,30.3957],[114.7872,30.3973],[114.7792,30.3967],[114.7746,30.3939],[114.7687,30.3946],[114.7647,30.3983],[114.7613,30.3972],[114.7578,30.4003],[114.7551,30.3954],[114.7554,30.3885],[114.7529,30.3869],[114.7446,30.3861],[114.7434,30.3827],[114.7399,30.3843],[114.7398,30.3879],[114.7303,30.392],[114.7263,30.3911],[114.7237,30.3883],[114.7192,30.3898],[114.7117,30.3881],[114.7122,30.3769],[114.7114,30.3724],[114.7063,30.3728],[114.6969,30.3764],[114.6975,30.3789],[114.6907,30.3817],[114.6883,30.3767],[114.6799,30.3798],[114.677,30.3824],[114.6786,30.3843],[114.6764,30.3878],[114.6765,30.3914],[114.6675,30.3932],[114.653,30.3876],[114.6559,30.3865],[114.6568,30.3828],[114.6599,30.3797],[114.6608,30.3664],[114.6583,30.3598],[114.6549,30.3582],[114.6609,30.3508],[114.6671,30.3444],[114.6623,30.3388],[114.6619,30.3362],[114.6671,30.3326],[114.6743,30.3311],[114.6735,30.3277],[114.6773,30.3263],[114.6748,30.3226],[114.6745,30.3124],[114.6688,30.3111],[114.6683,30.3057],[114.6617,30.3096],[114.6585,30.3101],[114.6558,30.3074],[114.6553,30.2986],[114.6674,30.2955],[114.671,30.2934],[114.6775,30.3008],[114.6742,30.304],[114.6746,30.3089],[114.6803,30.3087],[114.6788,30.305],[114.6862,30.3019]]]]},"properties":{"region_code":"CN-42-4207-420704","parent_region_code":"CN-42-4207","name":"鄂城区","level":"county","has_children":false,"full_path":"中国 / 湖北省 / 鄂州市 / 鄂城区","source_admin_code":"420704","osm_relation_id":4570743}}
]}