{"type":"FeatureCollection", "features": [
{"type":"Feature","geometry":{"type":"Polygon","coordinates":[[[112.5208,30.2803],[112.5123,30.305],[112.5167,30.3465],[112.5029,30.3628],[112.5016,30.3992],[112.4771,30.427],[112.4433,30.4407],[112.4279,30.4248],[112.3752,30.4258],[112.3401,30.4049],[112.324,30.3827],[112.3044,30.3812],[112.2752,30.3994],[112.2436,30.3802],[112.241,30.3599],[112.2142,30.333],[112.215,30.3156],[112.2593,30.2907],[112.2824,30.2608],[112.2787,30.231],[112.3577,30.2144],[112.3905,30.2235],[112.4549,30.2226],[112.4999,30.2378],[112.4963,30.2533],[112.5208,30.2803]]]},"properties":{"region_code":"CN-42-4210-421002","parent_region_code":"CN-42-4210","name":"沙市区","level":"county","has_children":false,"full_path":"中国 / 湖北省 / 荆州市 / 沙市区","source_admin_code":"421002","osm_relation_id":2709810}},
{"type":"Feature","geometry":{"type":"Polygon","coordinates":[[[112.3401,30.4049],[112.3167,30.4129],[112.297,30.4399],[112.3057,30.4643],[112.2956,30.4846],[112.2574,30.505],[112.1955,30.5003],[112.1772,30.5223],[112.1303,30.5353],[112.1277,30.5732],[112.104,30.6088],[112.1119,30.6282],[112.0734,30.6596],[112.0155,30.6475],[112.0085,30.6204],[111.9812,30.6033],[111.9694,30.5786],[111.9961,30.5539],[111.969,30.5063],[111.9195,30.5087],[111.9041,30.4627],[111.9153,30.4482],[111.9665,30.4396],[111.9751,30.4127],[111.971,30.3655],[112.0213,30.3117],[112.044,30.3013],[112.038,30.2798],[112.0402,30.2365],[112.0228,30.2278],[111.9838,30.1746],[111.9995,30.1548],[112.0494,30.1751],[112.0812,30.1626],[112.0754,30.1419],[112.1095,30.1313],[112.1496,30.1506],[112.1236,30.1626],[112.1285,30.1966],[112.1224,30.2193],[112.1289,30.2783],[112.1194,30.2972],[112.1794,30.3134],[112.215,30.3156],[112.2142,30.333],[112.241,30.3599],[112.2436,30.3802],[112.2752,30.3994],[112.3044,30.3812],[112.324,30.3827],[112.3401,30.4049]]]},"properties":{"region_code":"CN-42-4210-421003","parent_region_code":"CN-42-4210","name":"荆州区","level":"county","has_children":false,"full_path":"中国 / 湖北省 / 荆州市 / 荆州区","source_admin_code":"421003","osm_relation_id":2709809}},
{"type":"Feature","geometry":{"type":"Polygon","coordinates":[[[112.215,30.3156],[112.1794,30.3134],[112.1194,30.2972],[112.1289,30.2783],[112.1224,30.2193],[112.1285,30.1966],[112.1236,30.1626],[112.1496,30.1506],[112.1095,30.1313],[112.0754,30.1419],[112.0812,30.1626],[112.0494,30.1751],[111.9995,30.1548],[111.9838,30.1746],[111.9596,30.1853],[111.9282,30.1619],[111.9033,30.1163],[111.9229,30.0963],[111.9314,30.0468],[111.8993,30.007],[111.9039,29.9434],[111.8778,29.9081],[111.8307,29.9111],[111.8049,29.9039],[111.856,29.8593],[111.9085,29.8556],[111.9206,29.8389],[111.9524,29.841],[111.9494,29.8102],[111.987,29.7828],[112.0261,29.7641],[112.0601,29.7572],[112.0709,29.7459],[112.0608,29.6831],[112.0868,29.6879],[112.1047,29.6645],[112.1724,29.6591],[112.1851,29.628],[112.2209,29.6576],[112.2388,29.6629],[112.2474,29.6943],[112.2665,29.7084],[112.2839,29.7426],[112.3243,29.742],[112.3154,29.7818],[112.3217,29.806],[112.3454,29.8182],[112.3805,29.8508],[112.424,29.9303],[112.4167,29.9989],[112.383,30.0484],[112.3263,30.0709],[112.2881,30.073],[112.2519,30.0644],[112.217,30.0803],[112.1887,30.1321],[112.1974,30.1632],[112.2363,30.1874],[112.2787,30.231],[112.2824,30.2608],[112.2593,30.2907],[112.215,30.3156]]]},"properties":{"region_code":"CN-42-4210-421022","parent_region_code":"CN-42-4210","name":"公安县","level":"county","has_children":false,"full_path":"中国 / 湖北省 / 荆州市 / 公安县","source_admin_code":"421022","osm_relation_id":2709805}},
{"type":"Feature","geometry":{"type":"Polygon","coordinates":[[[112.2787,30.231],[112.2363,30.1874],[112.1974,30.1632],[112.1887,30.1321],[112.217,30.0803],[112.2519,30.0644],[112.2881,30.073],[112.3263,30.0709],[112.383,30.0484],[112.4167,29.9989],[112.424,29.9303],[112.4435,29.923],[112.4803,29.928],[112.5424,29.9464],[112.5668,29.9393],[112.5948,29.9121],[112.616,29.9401],[112.6119,29.9565],[112.6549,30.0091],[112.7314,30.0667],[112.7407,30.0813],[112.7366,30.0923],[112.6772,30.0969],[112.6436,30.1208],[112.5893,30.1223],[112.5732,30.1322],[112.5874,30.1576],[112.5647,30.1808],[112.5642,30.2346],[112.5208,30.2803],[112.4963,30.2533],[112.4999,30.2378],[112.4549,30.2226],[112.3905,30.2235],[112.3577,30.2144],[112.2787,30.231]]]},"properties":{"region_code":"CN-42-4210-421024","parent_region_code":"CN-42-4210","name":"江陵县","level":"county","has_children":false,"full_path":"中国 / 湖北省 / 荆州市 / 江陵县","source_admin_code":"421024","osm_relation_id":2709807}},
{"type":"Feature","geometry":{"type":"Polygon","coordinates":[[[112.2388,29.6629],[112.2224,29.631],[112.2973,29.5892],[112.2977,29.5702],[112.2738,29.5339],[112.2808,29.5116],[112.31,29.5267],[112.3143,29.543],[112.3623,29.5429],[112.421,29.6034],[112.4334,29.6358],[112.4956,29.6307],[112.5004,29.6132],[112.5351,29.6035],[112.5675,29.6269],[112.5986,29.6143],[112.6227,29.6196],[112.648,29.5957],[112.6775,29.5931],[112.7104,29.6456],[112.7564,29.6628],[112.7808,29.6865],[112.7892,29.7376],[112.7353,29.7324],[112.7312,29.7624],[112.7585,29.7671],[112.7696,29.7991],[112.7601,29.8281],[112.7058,29.8307],[112.6316,29.8238],[112.5935,29.8525],[112.6053,29.8713],[112.6066,29.9008],[112.5948,29.9121],[112.5668,29.9393],[112.5424,29.9464],[112.4803,29.928],[112.4435,29.923],[112.424,29.9303],[112.3805,29.8508],[112.3454,29.8182],[112.3217,29.806],[112.3154,29.7818],[112.3243,29.742],[112.2839,29.7426],[112.2665,29.7084],[112.2474,29.6943],[112.2388,29.6629]]]},"properties":{"region_code":"CN-42-4210-421081","parent_region_code":"CN-42-4210","name":"石首市","level":"county","has_children":false,"full_path":"中国 / 湖北省 / 荆州市 / 石首市","source_admin_code":"421081","osm_relation_id":2709811}},
{"type":"Feature","geometry":{"type":"Polygon","coordinates":[[[113.3142,29.643],[113.4162,29.7476],[113.4519,29.763],[113.4892,29.791],[113.5258,29.829],[113.599,29.8691],[113.6358,29.9064],[113.6867,29.9249],[113.7879,29.9252],[113.8318,29.9454],[113.878,30.0066],[113.9064,30.0304],[114.0517,30.0792],[114.0758,30.0913],[114.0789,30.1273],[114.0202,30.1598],[113.9538,30.2034],[113.931,30.2038],[113.8909,30.1847],[113.8607,30.1923],[113.8159,30.1819],[113.8187,30.1627],[113.7566,30.1222],[113.7326,30.1367],[113.7009,30.0971],[113.6609,30.0827],[113.6409,30.0925],[113.5918,30.0842],[113.5554,30.0722],[113.5238,30.0709],[113.4573,30.1512],[113.4139,30.1682],[113.3692,30.1969],[113.3409,30.1957],[113.3205,30.1672],[113.2756,30.1547],[113.2323,30.1526],[113.2076,30.1594],[113.146,30.1437],[113.1271,30.1475],[113.1228,30.1335],[113.1471,30.1114],[113.1716,30.0676],[113.1763,29.995],[113.1939,29.9163],[113.2273,29.9255],[113.2585,29.8983],[113.2903,29.8614],[113.2895,29.851],[113.3133,29.7665],[113.2838,29.7376],[113.2915,29.7132],[113.2614,29.6733],[113.3142,29.643]]]},"properties":{"region_code":"CN-42-4210-421083","parent_region_code":"CN-42-4210","name":"洪湖市","level":"county","has_children":false,"full_path":"中国 / 湖北省 / 荆州市 / 洪湖市","source_admin_code":"421083","osm_relation_id":2709806}},
{"type":"Feature","geometry":{"type":"Polygon","coordinates":[[[112.038,30.2798],[111.9874,30.285],[111.9551,30.3178],[111.9276,30.3551],[111.9122,30.3525],[111.8902,30.2809],[111.8421,30.2908],[111.8195,30.2875],[111.784,30.324],[111.7699,30.3631],[111.7282,30.3718],[111.6746,30.3387],[111.627,30.3218],[111.5964,30.275],[111.5744,30.2648],[111.597,30.2466],[111.6012,30.2238],[111.575,30.1772],[111.5819,30.1652],[111.578,30.1262],[111.5211,30.0992],[111.4978,30.1122],[111.4785,30.1028],[111.3824,30.1262],[111.3708,30.1087],[111.3257,30.0869],[111.3115,30.0532],[111.2411,30.0453],[111.2589,30.0111],[111.2926,30.0068],[111.2967,29.9863],[111.3186,29.9806],[111.346,29.9538],[111.37,29.9562],[111.3856,29.917],[111.4124,29.9174],[111.4313,29.9322],[111.4777,29.9207],[111.5206,29.9301],[111.5299,29.91],[111.5914,29.8918],[111.6401,29.8975],[111.6787,29.8889],[111.6988,29.8943],[111.719,29.9189],[111.7564,29.9209],[111.8049,29.9039],[111.8307,29.9111],[111.8778,29.9081],[111.9039,29.9434],[111.8993,30.007],[111.9314,30.0468],[111.9229,30.0963],[111.9033,30.1163],[111.9282,30.1619],[111.9596,30.1853],[111.9838,30.1746],[112.0228,30.2278],[112.0402,30.2365],[112.038,30.2798]]]},"properties":{"region_code":"CN-42-4210-421087","parent_region_code":"CN-42-4210","name":"松滋市","level":"county","has_children":false,"full_path":"中国 / 湖北省 / 荆州市 / 松滋市","source_admin_code":"421087","osm_relation_id":2709812}},
{"type":"Feature","geometry":{"type":"Polygon","coordinates":[[[112.5948,29.9121],[112.6066,29.9008],[112.6053,29.8713],[112.5935,29.8525],[112.6316,29.8238],[112.7058,29.8307],[112.7601,29.8281],[112.7696,29.7991],[112.7585,29.7671],[112.7312,29.7624],[112.7353,29.7324],[112.7892,29.7376],[112.8492,29.7805],[112.8836,29.7884],[112.9197,29.768],[112.9266,29.7422],[112.9219,29.6945],[112.9549,29.6991],[112.9696,29.7352],[113.0067,29.7702],[113.0257,29.7649],[113.0003,29.6969],[112.955,29.6573],[112.9328,29.6461],[112.9068,29.6089],[112.9324,29.5291],[112.9447,29.4755],[112.9637,29.471],[112.9853,29.5008],[113.032,29.5269],[113.0521,29.5251],[113.0677,29.4849],[113.0714,29.4486],[113.1593,29.4685],[113.2171,29.5461],[113.2663,29.5834],[113.2713,29.5975],[113.3142,29.643],[113.2614,29.6733],[113.2915,29.7132],[113.2838,29.7376],[113.3133,29.7665],[113.2895,29.851],[113.2903,29.8614],[113.2585,29.8983],[113.2273,29.9255],[113.1939,29.9163],[113.1763,29.995],[113.1716,30.0676],[113.1471,30.1114],[113.1228,30.1335],[113.1271,30.1475],[113.085,30.1498],[113.0405,30.193],[113.021,30.1887],[113.0127,30.1474],[112.9853,30.1347],[112.9563,30.1365],[112.9403,30.1619],[112.8985,30.1664],[112.8732,30.1872],[112.8449,30.1836],[112.8317,30.1644],[112.8015,30.1591],[112.809,30.1234],[112.8026,30.0946],[112.811,30.0819],[112.7407,30.0813],[112.7314,30.0667],[112.6549,30.0091],[112.6119,29.9565],[112.616,29.9401],[112.5948,29.9121]]]},"properties":{"region_code":"CN-42-4210-421088","parent_region_code":"CN-42-4210","name":"监利市","level":"county","has_children":false,"full_path":"中国 / 湖北省 / 荆州市 / 监利市","source_admin_code":"421088","osm_relation_id":2709808}}
]}