{"type":"FeatureCollection", "features": [
{"type":"Feature","geometry":{"type":"Polygon","coordinates":[[[110.3214,21.3005],[110.3207,21.2986],[110.3361,21.2931],[110.3331,21.2886],[110.3333,21.2814],[110.3309,21.2785],[110.3343,21.2726],[110.3403,21.2706],[110.3446,21.2632],[110.343,21.2554],[110.3353,21.2439],[110.3347,21.2385],[110.3432,21.239],[110.347,21.2358],[110.3604,21.2369],[110.3693,21.2448],[110.3736,21.2391],[110.3857,21.2344],[110.3795,21.2502],[110.3879,21.2544],[110.3973,21.2532],[110.4144,21.2644],[110.4156,21.2738],[110.4186,21.2793],[110.4215,21.2906],[110.4203,21.3013],[110.4158,21.317],[110.4031,21.3133],[110.3926,21.3136],[110.385,21.3047],[110.3738,21.3157],[110.3671,21.3201],[110.359,21.3203],[110.3516,21.3168],[110.3514,21.311],[110.342,21.308],[110.3324,21.3088],[110.3214,21.3005]]]},"properties":{"region_code":"CN-44-4408-440802","parent_region_code":"CN-44-4408","name":"赤坎区","level":"county","has_children":false,"full_path":"中国 / 广东省 / 湛江市 / 赤坎区","source_admin_code":"440802","osm_relation_id":4583749}},
{"type":"Feature","geometry":{"type":"Polygon","coordinates":[[[110.347,21.2358],[110.3371,21.2273],[110.3314,21.2199],[110.3316,21.2129],[110.3254,21.2099],[110.3216,21.2039],[110.313,21.1856],[110.3156,21.1751],[110.3338,21.1639],[110.3365,21.1605],[110.3349,21.1534],[110.3512,21.1336],[110.3511,21.1248],[110.3881,21.1122],[110.401,21.1243],[110.4062,21.127],[110.4144,21.1271],[110.4207,21.1253],[110.4306,21.1156],[110.438,21.1066],[110.5005,21.0853],[110.5115,21.0859],[110.528,21.0841],[110.5258,21.0967],[110.5195,21.106],[110.5104,21.1142],[110.4794,21.1246],[110.4731,21.1298],[110.4539,21.1417],[110.4514,21.1514],[110.4437,21.1665],[110.4305,21.1675],[110.4249,21.1699],[110.4221,21.176],[110.4211,21.1838],[110.4214,21.1993],[110.4277,21.2131],[110.4313,21.2252],[110.4302,21.2367],[110.427,21.2422],[110.4171,21.2494],[110.4144,21.2644],[110.3973,21.2532],[110.3879,21.2544],[110.3795,21.2502],[110.3857,21.2344],[110.3736,21.2391],[110.3693,21.2448],[110.3604,21.2369],[110.347,21.2358]]]},"properties":{"region_code":"CN-44-4408-440803","parent_region_code":"CN-44-4408","name":"霞山区","level":"county","has_children":false,"full_path":"中国 / 广东省 / 湛江市 / 霞山区","source_admin_code":"440803","osm_relation_id":4583751}},
{"type":"Feature","geometry":{"type":"Polygon","coordinates":[[[110.4144,21.2644],[110.4171,21.2494],[110.427,21.2422],[110.4302,21.2367],[110.4313,21.2252],[110.4277,21.2131],[110.4214,21.1993],[110.4211,21.1838],[110.4221,21.176],[110.4249,21.1699],[110.4305,21.1675],[110.4437,21.1665],[110.4514,21.1514],[110.4539,21.1417],[110.4731,21.1298],[110.4794,21.1246],[110.5104,21.1142],[110.5195,21.106],[110.5258,21.0967],[110.528,21.0841],[110.6007,21.0608],[110.7084,21.0224],[111.704,20.2125],[110.6756,21.1902],[110.6631,21.1937],[110.6572,21.2086],[110.653,21.2162],[110.6432,21.2245],[110.6408,21.2311],[110.6414,21.2494],[110.6382,21.2719],[110.6356,21.2791],[110.6342,21.2915],[110.6186,21.2938],[110.616,21.2892],[110.6073,21.2886],[110.6063,21.284],[110.598,21.2761],[110.5988,21.2716],[110.5879,21.2681],[110.5759,21.2761],[110.571,21.2812],[110.5586,21.2891],[110.5513,21.2896],[110.5308,21.301],[110.5273,21.2997],[110.5178,21.3078],[110.5187,21.3192],[110.5277,21.323],[110.5293,21.3307],[110.5373,21.3323],[110.5387,21.3279],[110.5455,21.3282],[110.5449,21.3376],[110.5558,21.34],[110.5527,21.3471],[110.558,21.351],[110.5642,21.3641],[110.5586,21.3707],[110.554,21.3735],[110.5545,21.3788],[110.5438,21.3744],[110.5347,21.3796],[110.529,21.3926],[110.527,21.4013],[110.5287,21.4142],[110.5255,21.4186],[110.5187,21.4166],[110.5162,21.4205],[110.5081,21.4247],[110.5041,21.4296],[110.5032,21.4396],[110.4899,21.4457],[110.4884,21.4414],[110.4783,21.4461],[110.4715,21.4448],[110.4679,21.4481],[110.4595,21.449],[110.4582,21.4389],[110.4492,21.4421],[110.4503,21.4542],[110.4433,21.4548],[110.443,21.4495],[110.4393,21.4436],[110.4425,21.4397],[110.4396,21.4339],[110.4276,21.4299],[110.4265,21.4363],[110.4192,21.4389],[110.4146,21.4432],[110.412,21.4369],[110.4186,21.4253],[110.4175,21.4216],[110.4108,21.4235],[110.4068,21.4178],[110.3946,21.4192],[110.3896,21.4143],[110.3886,21.4061],[110.3827,21.4047],[110.3891,21.3866],[110.4062,21.3686],[110.416,21.3506],[110.4158,21.317],[110.4203,21.3013],[110.4215,21.2906],[110.4186,21.2793],[110.4156,21.2738],[110.4144,21.2644]]]},"properties":{"region_code":"CN-44-4408-440804","parent_region_code":"CN-44-4408","name":"坡头区","level":"county","has_children":false,"full_path":"中国 / 广东省 / 湛江市 / 坡头区","source_admin_code":"440804","osm_relation_id":4582405}},
{"type":"Feature","geometry":{"type":"Polygon","coordinates":[[[110.3214,21.3005],[110.3123,21.3092],[110.3045,21.3091],[110.2998,21.3173],[110.2871,21.3227],[110.2892,21.3126],[110.2845,21.3102],[110.2805,21.3047],[110.2731,21.3038],[110.2696,21.2952],[110.261,21.2958],[110.2576,21.2901],[110.2519,21.2935],[110.2524,21.2979],[110.2406,21.3008],[110.2276,21.2987],[110.2233,21.2842],[110.2243,21.2775],[110.2133,21.2716],[110.2062,21.2792],[110.2005,21.2784],[110.2016,21.2691],[110.2071,21.2664],[110.2171,21.265],[110.2226,21.2673],[110.218,21.2546],[110.2142,21.2506],[110.2051,21.2484],[110.2004,21.2505],[110.1956,21.2389],[110.1878,21.232],[110.1837,21.2241],[110.191,21.2123],[110.1962,21.2078],[110.1893,21.2022],[110.1867,21.1951],[110.1822,21.1938],[110.1761,21.1884],[110.1769,21.1817],[110.1835,21.1845],[110.1987,21.1822],[110.2007,21.1759],[110.2107,21.1716],[110.2173,21.1711],[110.2219,21.1816],[110.227,21.1791],[110.2267,21.1725],[110.2321,21.1683],[110.2302,21.1604],[110.2234,21.1692],[110.2122,21.1639],[110.2138,21.1559],[110.2194,21.1532],[110.2149,21.1469],[110.2244,21.1459],[110.2285,21.1388],[110.2359,21.1345],[110.233,21.1264],[110.2288,21.129],[110.2298,21.134],[110.2202,21.1393],[110.2229,21.1254],[110.2053,21.1235],[110.2028,21.1205],[110.2097,21.1139],[110.2087,21.1033],[110.1968,21.1114],[110.1888,21.1082],[110.1834,21.1093],[110.1822,21.1144],[110.1732,21.1255],[110.163,21.13],[110.1588,21.1258],[110.1579,21.1207],[110.1505,21.1169],[110.1456,21.1184],[110.1368,21.1177],[110.1359,21.1146],[110.1288,21.1127],[110.1256,21.1037],[110.1277,21.0996],[110.1224,21.0961],[110.1252,21.0847],[110.1317,21.081],[110.1294,21.071],[110.1335,21.0644],[110.1314,21.0597],[110.1396,21.0546],[110.1364,21.052],[110.1314,21.0415],[110.1242,21.0342],[110.1172,21.0171],[110.1289,21.0153],[110.1316,21.0086],[110.1354,21.0054],[110.1461,21.0075],[110.152,21.0022],[110.1569,20.9947],[110.1545,20.9887],[110.1574,20.9848],[110.1627,20.9854],[110.1665,20.9799],[110.1764,20.9745],[110.1875,20.9727],[110.191,20.9679],[110.1953,20.9469],[110.2014,20.9339],[110.215,20.9225],[110.2441,20.9127],[110.257,20.9106],[110.3275,20.9118],[110.3849,20.927],[110.4253,20.9188],[110.4646,20.8936],[110.5808,20.8411],[110.6763,20.8107],[110.8095,20.7632],[110.955,20.6948],[111.6765,20.1748],[110.7084,21.0224],[110.6007,21.0608],[110.528,21.0841],[110.5115,21.0859],[110.5005,21.0853],[110.438,21.1066],[110.4306,21.1156],[110.4207,21.1253],[110.4144,21.1271],[110.4062,21.127],[110.401,21.1243],[110.3881,21.1122],[110.3511,21.1248],[110.3512,21.1336],[110.3349,21.1534],[110.3365,21.1605],[110.3338,21.1639],[110.3156,21.1751],[110.313,21.1856],[110.3216,21.2039],[110.3254,21.2099],[110.3316,21.2129],[110.3314,21.2199],[110.3371,21.2273],[110.347,21.2358],[110.3432,21.239],[110.3347,21.2385],[110.3353,21.2439],[110.343,21.2554],[110.3446,21.2632],[110.3403,21.2706],[110.3343,21.2726],[110.3309,21.2785],[110.3333,21.2814],[110.3331,21.2886],[110.3361,21.2931],[110.3207,21.2986],[110.3214,21.3005]]]},"properties":{"region_code":"CN-44-4408-440811","parent_region_code":"CN-44-4408","name":"麻章区","level":"county","has_children":false,"full_path":"中国 / 广东省 / 湛江市 / 麻章区","source_admin_code":"440811","osm_relation_id":4583581}},
{"type":"Feature","geometry":{"type":"Polygon","coordinates":[[[110.4158,21.317],[110.416,21.3506],[110.4062,21.3686],[110.3891,21.3866],[110.3827,21.4047],[110.3739,21.4115],[110.3721,21.4154],[110.3687,21.4339],[110.3576,21.4364],[110.3498,21.4332],[110.3286,21.4303],[110.3258,21.434],[110.3179,21.4386],[110.3095,21.4411],[110.312,21.4454],[110.3109,21.4505],[110.3025,21.4526],[110.304,21.4607],[110.2947,21.4632],[110.2881,21.4708],[110.282,21.4651],[110.279,21.4701],[110.2786,21.4765],[110.2709,21.4767],[110.2748,21.4824],[110.2763,21.4904],[110.2747,21.4967],[110.2714,21.4976],[110.256,21.4941],[110.256,21.4992],[110.2493,21.4975],[110.2437,21.5002],[110.2419,21.5063],[110.2306,21.5048],[110.2281,21.5001],[110.2181,21.5031],[110.2019,21.5047],[110.1912,21.5097],[110.179,21.5025],[110.1859,21.4982],[110.1815,21.4886],[110.1836,21.478],[110.1795,21.471],[110.1901,21.4656],[110.1987,21.4585],[110.2014,21.438],[110.2066,21.4252],[110.1985,21.4265],[110.1982,21.4339],[110.1764,21.4418],[110.177,21.4554],[110.1676,21.4557],[110.1608,21.4472],[110.1538,21.4489],[110.1487,21.4326],[110.1442,21.4313],[110.1456,21.423],[110.1365,21.4166],[110.1319,21.4199],[110.1314,21.4292],[110.1265,21.4296],[110.1244,21.4227],[110.1197,21.421],[110.1175,21.4328],[110.1129,21.4338],[110.1043,21.4434],[110.0975,21.4456],[110.0913,21.4395],[110.0757,21.435],[110.0721,21.4387],[110.0676,21.4373],[110.0607,21.4409],[110.056,21.4356],[110.0462,21.4403],[110.0425,21.4379],[110.04,21.4291],[110.0328,21.4325],[110.0155,21.428],[110.0082,21.4245],[110.0044,21.426],[109.9938,21.4231],[109.9836,21.4255],[109.9748,21.4203],[109.9679,21.4221],[109.9493,21.4214],[109.9443,21.4286],[109.936,21.4361],[109.9294,21.4323],[109.9268,21.4271],[109.9214,21.4231],[109.9088,21.4186],[109.7831,21.4185],[109.7829,21.4136],[109.7344,21.3848],[109.5729,21.3397],[109.5066,21.2671],[109.4637,21.2193],[109.3917,21.064],[109.4063,21.0149],[109.6879,21.0142],[109.6955,20.9986],[109.7019,21.0008],[109.7052,21.0071],[109.7124,21.0084],[109.7212,21.0138],[109.7262,21.0094],[109.7481,21.0108],[109.7538,21.007],[109.7579,20.9996],[109.7648,20.9982],[109.7692,21.0024],[109.7801,21.0038],[109.7797,21.0087],[109.7911,21.0124],[109.7984,21.0303],[109.8052,21.0373],[109.8134,21.0407],[109.8195,21.0479],[109.8228,21.0479],[109.8256,21.0573],[109.8418,21.0562],[109.8399,21.0498],[109.8528,21.0355],[109.8617,21.0343],[109.8572,21.0289],[109.862,21.0234],[109.8666,21.023],[109.8728,21.0268],[109.876,21.0343],[109.8677,21.0458],[109.8658,21.0536],[109.8611,21.054],[109.8632,21.0629],[109.8601,21.0685],[109.8671,21.0762],[109.8695,21.0753],[109.8791,21.0848],[109.8711,21.088],[109.868,21.0921],[109.8676,21.103],[109.8718,21.1082],[109.8678,21.1143],[109.8829,21.1129],[109.8858,21.1201],[109.883,21.1276],[109.8878,21.1283],[109.8894,21.1351],[109.8968,21.1463],[109.8954,21.1519],[109.8969,21.1592],[109.9047,21.1597],[109.9123,21.167],[109.9109,21.1762],[109.9251,21.1778],[109.935,21.1816],[109.9459,21.176],[109.9495,21.1764],[109.9533,21.1707],[109.9596,21.1674],[109.9644,21.1696],[109.9722,21.1696],[109.9728,21.1756],[109.9848,21.1757],[109.9897,21.1794],[110.005,21.1817],[110.0073,21.1776],[110.0016,21.1732],[110.0064,21.1699],[110.0184,21.1682],[110.0306,21.1704],[110.0339,21.1668],[110.0345,21.1607],[110.039,21.161],[110.0431,21.1539],[110.0487,21.1499],[110.0495,21.1456],[110.0565,21.1441],[110.0557,21.1348],[110.0456,21.1351],[110.0524,21.1264],[110.0598,21.1289],[110.0684,21.1253],[110.0651,21.1171],[110.071,21.1013],[110.0685,21.0952],[110.0622,21.0907],[110.0559,21.0797],[110.0565,21.073],[110.0494,21.0734],[110.0497,21.0594],[110.0535,21.0549],[110.0526,21.0502],[110.0465,21.0488],[110.0486,21.0381],[110.0578,21.033],[110.0622,21.0331],[110.077,21.0399],[110.1024,21.0414],[110.1131,21.0355],[110.1097,21.0277],[110.1121,21.0218],[110.1172,21.0171],[110.1242,21.0342],[110.1314,21.0415],[110.1364,21.052],[110.1396,21.0546],[110.1314,21.0597],[110.1335,21.0644],[110.1294,21.071],[110.1317,21.081],[110.1252,21.0847],[110.1224,21.0961],[110.1277,21.0996],[110.1256,21.1037],[110.1288,21.1127],[110.1359,21.1146],[110.1368,21.1177],[110.1456,21.1184],[110.1505,21.1169],[110.1579,21.1207],[110.1588,21.1258],[110.163,21.13],[110.1732,21.1255],[110.1822,21.1144],[110.1834,21.1093],[110.1888,21.1082],[110.1968,21.1114],[110.2087,21.1033],[110.2097,21.1139],[110.2028,21.1205],[110.2053,21.1235],[110.2229,21.1254],[110.2202,21.1393],[110.2298,21.134],[110.2288,21.129],[110.233,21.1264],[110.2359,21.1345],[110.2285,21.1388],[110.2244,21.1459],[110.2149,21.1469],[110.2194,21.1532],[110.2138,21.1559],[110.2122,21.1639],[110.2234,21.1692],[110.2302,21.1604],[110.2321,21.1683],[110.2267,21.1725],[110.227,21.1791],[110.2219,21.1816],[110.2173,21.1711],[110.2107,21.1716],[110.2007,21.1759],[110.1987,21.1822],[110.1835,21.1845],[110.1769,21.1817],[110.1761,21.1884],[110.1822,21.1938],[110.1867,21.1951],[110.1893,21.2022],[110.1962,21.2078],[110.191,21.2123],[110.1837,21.2241],[110.1878,21.232],[110.1956,21.2389],[110.2004,21.2505],[110.2051,21.2484],[110.2142,21.2506],[110.218,21.2546],[110.2226,21.2673],[110.2171,21.265],[110.2071,21.2664],[110.2016,21.2691],[110.2005,21.2784],[110.2062,21.2792],[110.2133,21.2716],[110.2243,21.2775],[110.2233,21.2842],[110.2276,21.2987],[110.2406,21.3008],[110.2524,21.2979],[110.2519,21.2935],[110.2576,21.2901],[110.261,21.2958],[110.2696,21.2952],[110.2731,21.3038],[110.2805,21.3047],[110.2845,21.3102],[110.2892,21.3126],[110.2871,21.3227],[110.2998,21.3173],[110.3045,21.3091],[110.3123,21.3092],[110.3214,21.3005],[110.3324,21.3088],[110.342,21.308],[110.3514,21.311],[110.3516,21.3168],[110.359,21.3203],[110.3671,21.3201],[110.3738,21.3157],[110.385,21.3047],[110.3926,21.3136],[110.4031,21.3133],[110.4158,21.317]]]},"properties":{"region_code":"CN-44-4408-440823","parent_region_code":"CN-44-4408","name":"遂溪县","level":"county","has_children":false,"full_path":"中国 / 广东省 / 湛江市 / 遂溪县","source_admin_code":"440823","osm_relation_id":4583535}},
{"type":"Feature","geometry":{"type":"Polygon","coordinates":[[[109.4158,20.4585],[109.4049,20.2466],[109.8629,20.1198],[110.0904,20.1406],[110.2509,20.1549],[110.531,20.2638],[110.6014,20.288],[111.0972,20.2216],[111.4274,20.1834],[111.663,20.1562],[110.9121,20.6167],[110.5747,20.7573],[110.5185,20.7715],[110.4757,20.758],[110.445,20.7466],[110.4323,20.7334],[110.4017,20.7076],[110.3869,20.7022],[110.3691,20.7037],[110.3537,20.701],[110.3464,20.6912],[110.3397,20.6672],[110.3323,20.6501],[110.3336,20.6392],[110.3326,20.6322],[110.3235,20.6198],[110.3179,20.6172],[110.3128,20.6101],[110.304,20.6048],[110.2989,20.6068],[110.2945,20.6043],[110.2888,20.6049],[110.2856,20.602],[110.2788,20.6024],[110.2721,20.5926],[110.2664,20.5879],[110.2673,20.5815],[110.2609,20.5706],[110.2581,20.5782],[110.248,20.5758],[110.2446,20.5691],[110.2401,20.5735],[110.2283,20.5674],[110.22,20.5659],[110.2048,20.5678],[110.1966,20.5518],[110.1943,20.5428],[110.1871,20.5468],[110.1775,20.5455],[110.1768,20.5355],[110.1693,20.5308],[110.168,20.5349],[110.1491,20.5383],[110.1479,20.5344],[110.1365,20.5361],[110.131,20.5348],[110.128,20.5384],[110.1308,20.5459],[110.1282,20.5541],[110.1229,20.5629],[110.117,20.5646],[110.1089,20.5583],[110.1041,20.5572],[110.0964,20.551],[110.1001,20.544],[110.099,20.5395],[110.1057,20.5394],[110.1165,20.537],[110.1151,20.5297],[110.0984,20.5157],[110.0956,20.5207],[110.0905,20.5187],[110.0803,20.5216],[110.0791,20.5161],[110.0728,20.5096],[110.0787,20.506],[110.0889,20.5048],[110.0839,20.4997],[110.0829,20.4937],[110.0885,20.4916],[110.0865,20.4791],[110.0809,20.4731],[110.0926,20.4693],[110.0933,20.4651],[110.0907,20.4551],[110.0932,20.4501],[110.0775,20.4448],[110.0716,20.4399],[110.073,20.4358],[110.0658,20.4326],[110.0626,20.4279],[110.0584,20.4297],[110.0587,20.4358],[110.0521,20.4386],[110.0484,20.4375],[110.043,20.4412],[110.035,20.4437],[110.0326,20.4416],[110.0184,20.4417],[110.0142,20.4379],[110.0103,20.4265],[110.0068,20.4276],[109.9998,20.4357],[109.984,20.4307],[109.9721,20.4217],[109.9532,20.4164],[109.9434,20.4166],[109.9254,20.4261],[109.9126,20.436],[109.8924,20.4574],[109.4158,20.4585]]]},"properties":{"region_code":"CN-44-4408-440825","parent_region_code":"CN-44-4408","name":"徐闻县","level":"county","has_children":false,"full_path":"中国 / 广东省 / 湛江市 / 徐闻县","source_admin_code":"440825","osm_relation_id":3484449}},
{"type":"Feature","geometry":{"type":"MultiPolygon","coordinates":[[[[110.3795,21.7855],[110.3742,21.7781],[110.3737,21.7682],[110.3765,21.7615],[110.3845,21.7646],[110.3828,21.7697],[110.3863,21.774],[110.3859,21.7808],[110.3795,21.7855]]],[[[110.3918,21.9086],[110.4083,21.9115],[110.4048,21.9167],[110.4069,21.9272],[110.4121,21.9267],[110.4127,21.9333],[110.4167,21.9383],[110.4228,21.9394],[110.4305,21.9364],[110.4376,21.9417],[110.4236,21.9466],[110.4121,21.9494],[110.4086,21.9565],[110.3971,21.956],[110.3778,21.9466],[110.3684,21.9361],[110.3741,21.9316],[110.3813,21.9324],[110.3853,21.9252],[110.3856,21.9196],[110.3915,21.9159],[110.3918,21.9086]]],[[[110.4783,21.4461],[110.4777,21.4549],[110.4799,21.4565],[110.4821,21.4678],[110.486,21.467],[110.4902,21.4741],[110.486,21.4811],[110.4918,21.4845],[110.5017,21.4813],[110.4997,21.4901],[110.504,21.4935],[110.5049,21.5066],[110.5015,21.5124],[110.4941,21.5196],[110.4871,21.5169],[110.4803,21.5165],[110.4739,21.531],[110.4788,21.536],[110.4779,21.546],[110.4735,21.5536],[110.4674,21.5547],[110.4659,21.55],[110.4581,21.5529],[110.4529,21.5568],[110.4415,21.5572],[110.4392,21.5588],[110.4298,21.5563],[110.4209,21.5602],[110.4181,21.5646],[110.4222,21.5688],[110.424,21.5766],[110.4233,21.5831],[110.4364,21.5837],[110.4336,21.5959],[110.4274,21.5997],[110.4145,21.6012],[110.4156,21.5937],[110.4134,21.5878],[110.4061,21.5906],[110.4053,21.6003],[110.402,21.6042],[110.4063,21.6087],[110.4073,21.6193],[110.401,21.6205],[110.4016,21.6261],[110.3985,21.6326],[110.3936,21.6299],[110.3889,21.6345],[110.3993,21.641],[110.3998,21.6507],[110.3923,21.6531],[110.3822,21.6523],[110.3839,21.6604],[110.3794,21.664],[110.3779,21.6699],[110.383,21.6725],[110.3885,21.6715],[110.3935,21.6759],[110.4034,21.6761],[110.4078,21.6782],[110.4073,21.6835],[110.3983,21.6916],[110.3942,21.6876],[110.3953,21.683],[110.3922,21.676],[110.3879,21.684],[110.3804,21.6811],[110.3799,21.6764],[110.3723,21.681],[110.3709,21.6861],[110.3655,21.685],[110.3655,21.691],[110.3622,21.6967],[110.3568,21.7012],[110.3493,21.7031],[110.3535,21.7076],[110.3468,21.7121],[110.3563,21.7182],[110.3579,21.7219],[110.3642,21.7243],[110.3622,21.7301],[110.3625,21.7461],[110.361,21.7558],[110.3695,21.7611],[110.3696,21.7652],[110.3655,21.7726],[110.3697,21.7839],[110.3838,21.7915],[110.3786,21.7999],[110.371,21.8013],[110.3727,21.8091],[110.3672,21.81],[110.3614,21.8004],[110.3552,21.8032],[110.3441,21.8046],[110.3445,21.8109],[110.3547,21.8086],[110.3605,21.8117],[110.3534,21.818],[110.3436,21.8119],[110.3415,21.8034],[110.3349,21.8089],[110.3361,21.8155],[110.3348,21.8251],[110.3359,21.8324],[110.3394,21.8423],[110.3438,21.8483],[110.347,21.8482],[110.3497,21.859],[110.3465,21.866],[110.3497,21.869],[110.3621,21.8689],[110.369,21.8586],[110.3739,21.856],[110.3825,21.855],[110.3903,21.8596],[110.3939,21.8642],[110.3945,21.8707],[110.3873,21.876],[110.3853,21.8826],[110.3869,21.8862],[110.3845,21.8916],[110.3765,21.8955],[110.3739,21.8931],[110.3634,21.8915],[110.3539,21.8926],[110.3493,21.8899],[110.3442,21.8938],[110.3311,21.8907],[110.3195,21.8955],[110.313,21.9021],[110.3096,21.9089],[110.2998,21.9116],[110.286,21.9207],[110.2859,21.9135],[110.2813,21.9069],[110.2831,21.9046],[110.2793,21.8949],[110.2725,21.8943],[110.2656,21.8966],[110.2562,21.8891],[110.2538,21.8831],[110.2448,21.8838],[110.228,21.8815],[110.225,21.8848],[110.2171,21.8842],[110.2058,21.8897],[110.2076,21.8958],[110.199,21.8971],[110.1979,21.9004],[110.1863,21.8999],[110.1706,21.9013],[110.1599,21.8967],[110.1464,21.8997],[110.1392,21.8926],[110.1378,21.8844],[110.1304,21.8958],[110.1259,21.8972],[110.1277,21.9038],[110.1153,21.9042],[110.113,21.8939],[110.1026,21.8851],[110.1033,21.8733],[110.0972,21.8727],[110.095,21.8839],[110.0871,21.8834],[110.0824,21.8771],[110.0823,21.872],[110.0755,21.8674],[110.0644,21.8623],[110.0585,21.8632],[110.0468,21.8598],[110.0339,21.8725],[110.0264,21.8744],[110.0178,21.8723],[110.0156,21.8756],[110.0022,21.8778],[110.0007,21.8829],[109.9954,21.8846],[109.9916,21.8817],[109.9825,21.8823],[109.9828,21.8762],[109.9772,21.8741],[109.974,21.8687],[109.9696,21.869],[109.9631,21.8626],[109.9548,21.8583],[109.9412,21.8471],[109.9449,21.8412],[109.9413,21.8338],[109.9401,21.8263],[109.9321,21.8157],[109.935,21.811],[109.9314,21.8015],[109.9344,21.79],[109.9338,21.7764],[109.9358,21.771],[109.9286,21.7668],[109.9311,21.7575],[109.9271,21.7545],[109.9311,21.7502],[109.931,21.7445],[109.9376,21.7389],[109.9321,21.736],[109.9247,21.7363],[109.9185,21.7303],[109.9211,21.7084],[109.9105,21.7063],[109.9014,21.6965],[109.9011,21.688],[109.91,21.6863],[109.9094,21.6789],[109.905,21.6786],[109.91,21.6695],[109.9071,21.664],[109.9023,21.6622],[109.899,21.6556],[109.8942,21.6524],[109.877,21.656],[109.8699,21.6609],[109.8639,21.651],[109.8601,21.6495],[109.8499,21.6537],[109.8488,21.6491],[109.8405,21.647],[109.8401,21.6411],[109.8329,21.6395],[109.823,21.6425],[109.8153,21.6405],[109.8057,21.6474],[109.8014,21.6391],[109.8027,21.6318],[109.7965,21.6303],[109.7908,21.6332],[109.7854,21.6405],[109.7799,21.6413],[109.7816,21.6501],[109.7755,21.6629],[109.7736,21.6729],[109.7696,21.676],[109.7648,21.6747],[109.7613,21.6701],[109.7614,21.6601],[109.7578,21.6524],[109.7526,21.6479],[109.7538,21.6448],[109.7477,21.6344],[109.7484,21.6294],[109.7416,21.6258],[109.7387,21.6174],[109.743,21.6117],[109.7434,21.6041],[109.7419,21.5946],[109.7463,21.5894],[109.7517,21.5758],[109.749,21.574],[109.7522,21.556],[109.7613,21.5469],[109.7842,21.4944],[109.7817,21.4725],[109.7831,21.4185],[109.9088,21.4186],[109.9214,21.4231],[109.9268,21.4271],[109.9294,21.4323],[109.936,21.4361],[109.9443,21.4286],[109.9493,21.4214],[109.9679,21.4221],[109.9748,21.4203],[109.9836,21.4255],[109.9938,21.4231],[110.0044,21.426],[110.0082,21.4245],[110.0155,21.428],[110.0328,21.4325],[110.04,21.4291],[110.0425,21.4379],[110.0462,21.4403],[110.056,21.4356],[110.0607,21.4409],[110.0676,21.4373],[110.0721,21.4387],[110.0757,21.435],[110.0913,21.4395],[110.0975,21.4456],[110.1043,21.4434],[110.1129,21.4338],[110.1175,21.4328],[110.1197,21.421],[110.1244,21.4227],[110.1265,21.4296],[110.1314,21.4292],[110.1319,21.4199],[110.1365,21.4166],[110.1456,21.423],[110.1442,21.4313],[110.1487,21.4326],[110.1538,21.4489],[110.1608,21.4472],[110.1676,21.4557],[110.177,21.4554],[110.1764,21.4418],[110.1982,21.4339],[110.1985,21.4265],[110.2066,21.4252],[110.2014,21.438],[110.1987,21.4585],[110.1901,21.4656],[110.1795,21.471],[110.1836,21.478],[110.1815,21.4886],[110.1859,21.4982],[110.179,21.5025],[110.1912,21.5097],[110.2019,21.5047],[110.2181,21.5031],[110.2281,21.5001],[110.2306,21.5048],[110.2419,21.5063],[110.2437,21.5002],[110.2493,21.4975],[110.256,21.4992],[110.256,21.4941],[110.2714,21.4976],[110.2747,21.4967],[110.2763,21.4904],[110.2748,21.4824],[110.2709,21.4767],[110.2786,21.4765],[110.279,21.4701],[110.282,21.4651],[110.2881,21.4708],[110.2947,21.4632],[110.304,21.4607],[110.3025,21.4526],[110.3109,21.4505],[110.312,21.4454],[110.3095,21.4411],[110.3179,21.4386],[110.3258,21.434],[110.3286,21.4303],[110.3498,21.4332],[110.3576,21.4364],[110.3687,21.4339],[110.3721,21.4154],[110.3739,21.4115],[110.3827,21.4047],[110.3886,21.4061],[110.3896,21.4143],[110.3946,21.4192],[110.4068,21.4178],[110.4108,21.4235],[110.4175,21.4216],[110.4186,21.4253],[110.412,21.4369],[110.4146,21.4432],[110.4192,21.4389],[110.4265,21.4363],[110.4276,21.4299],[110.4396,21.4339],[110.4425,21.4397],[110.4393,21.4436],[110.443,21.4495],[110.4433,21.4548],[110.4503,21.4542],[110.4492,21.4421],[110.4582,21.4389],[110.4595,21.449],[110.4679,21.4481],[110.4715,21.4448],[110.4783,21.4461]]]]},"properties":{"region_code":"CN-44-4408-440881","parent_region_code":"CN-44-4408","name":"廉江市","level":"county","has_children":false,"full_path":"中国 / 广东省 / 湛江市 / 廉江市","source_admin_code":"440881","osm_relation_id":4582413}},
{"type":"Feature","geometry":{"type":"Polygon","coordinates":[[[110.1172,21.0171],[110.1121,21.0218],[110.1097,21.0277],[110.1131,21.0355],[110.1024,21.0414],[110.077,21.0399],[110.0622,21.0331],[110.0578,21.033],[110.0486,21.0381],[110.0465,21.0488],[110.0526,21.0502],[110.0535,21.0549],[110.0497,21.0594],[110.0494,21.0734],[110.0565,21.073],[110.0559,21.0797],[110.0622,21.0907],[110.0685,21.0952],[110.071,21.1013],[110.0651,21.1171],[110.0684,21.1253],[110.0598,21.1289],[110.0524,21.1264],[110.0456,21.1351],[110.0557,21.1348],[110.0565,21.1441],[110.0495,21.1456],[110.0487,21.1499],[110.0431,21.1539],[110.039,21.161],[110.0345,21.1607],[110.0339,21.1668],[110.0306,21.1704],[110.0184,21.1682],[110.0064,21.1699],[110.0016,21.1732],[110.0073,21.1776],[110.005,21.1817],[109.9897,21.1794],[109.9848,21.1757],[109.9728,21.1756],[109.9722,21.1696],[109.9644,21.1696],[109.9596,21.1674],[109.9533,21.1707],[109.9495,21.1764],[109.9459,21.176],[109.935,21.1816],[109.9251,21.1778],[109.9109,21.1762],[109.9123,21.167],[109.9047,21.1597],[109.8969,21.1592],[109.8954,21.1519],[109.8968,21.1463],[109.8894,21.1351],[109.8878,21.1283],[109.883,21.1276],[109.8858,21.1201],[109.8829,21.1129],[109.8678,21.1143],[109.8718,21.1082],[109.8676,21.103],[109.868,21.0921],[109.8711,21.088],[109.8791,21.0848],[109.8695,21.0753],[109.8671,21.0762],[109.8601,21.0685],[109.8632,21.0629],[109.8611,21.054],[109.8658,21.0536],[109.8677,21.0458],[109.876,21.0343],[109.8728,21.0268],[109.8666,21.023],[109.862,21.0234],[109.8572,21.0289],[109.8617,21.0343],[109.8528,21.0355],[109.8399,21.0498],[109.8418,21.0562],[109.8256,21.0573],[109.8228,21.0479],[109.8195,21.0479],[109.8134,21.0407],[109.8052,21.0373],[109.7984,21.0303],[109.7911,21.0124],[109.7797,21.0087],[109.7801,21.0038],[109.7692,21.0024],[109.7648,20.9982],[109.7579,20.9996],[109.7538,21.007],[109.7481,21.0108],[109.7262,21.0094],[109.7212,21.0138],[109.7124,21.0084],[109.7052,21.0071],[109.7019,21.0008],[109.6955,20.9986],[109.6879,21.0142],[109.4063,21.0149],[109.4381,20.9063],[109.4158,20.4585],[109.8924,20.4574],[109.9126,20.436],[109.9254,20.4261],[109.9434,20.4166],[109.9532,20.4164],[109.9721,20.4217],[109.984,20.4307],[109.9998,20.4357],[110.0068,20.4276],[110.0103,20.4265],[110.0142,20.4379],[110.0184,20.4417],[110.0326,20.4416],[110.035,20.4437],[110.043,20.4412],[110.0484,20.4375],[110.0521,20.4386],[110.0587,20.4358],[110.0584,20.4297],[110.0626,20.4279],[110.0658,20.4326],[110.073,20.4358],[110.0716,20.4399],[110.0775,20.4448],[110.0932,20.4501],[110.0907,20.4551],[110.0933,20.4651],[110.0926,20.4693],[110.0809,20.4731],[110.0865,20.4791],[110.0885,20.4916],[110.0829,20.4937],[110.0839,20.4997],[110.0889,20.5048],[110.0787,20.506],[110.0728,20.5096],[110.0791,20.5161],[110.0803,20.5216],[110.0905,20.5187],[110.0956,20.5207],[110.0984,20.5157],[110.1151,20.5297],[110.1165,20.537],[110.1057,20.5394],[110.099,20.5395],[110.1001,20.544],[110.0964,20.551],[110.1041,20.5572],[110.1089,20.5583],[110.117,20.5646],[110.1229,20.5629],[110.1282,20.5541],[110.1308,20.5459],[110.128,20.5384],[110.131,20.5348],[110.1365,20.5361],[110.1479,20.5344],[110.1491,20.5383],[110.168,20.5349],[110.1693,20.5308],[110.1768,20.5355],[110.1775,20.5455],[110.1871,20.5468],[110.1943,20.5428],[110.1966,20.5518],[110.2048,20.5678],[110.22,20.5659],[110.2283,20.5674],[110.2401,20.5735],[110.2446,20.5691],[110.248,20.5758],[110.2581,20.5782],[110.2609,20.5706],[110.2673,20.5815],[110.2664,20.5879],[110.2721,20.5926],[110.2788,20.6024],[110.2856,20.602],[110.2888,20.6049],[110.2945,20.6043],[110.2989,20.6068],[110.304,20.6048],[110.3128,20.6101],[110.3179,20.6172],[110.3235,20.6198],[110.3326,20.6322],[110.3336,20.6392],[110.3323,20.6501],[110.3397,20.6672],[110.3464,20.6912],[110.3537,20.701],[110.3691,20.7037],[110.3869,20.7022],[110.4017,20.7076],[110.4323,20.7334],[110.445,20.7466],[110.4757,20.758],[110.5185,20.7715],[110.5747,20.7573],[110.9121,20.6167],[111.663,20.1562],[111.6765,20.1748],[110.955,20.6948],[110.8095,20.7632],[110.6763,20.8107],[110.5808,20.8411],[110.4646,20.8936],[110.4253,20.9188],[110.3849,20.927],[110.3275,20.9118],[110.257,20.9106],[110.2441,20.9127],[110.215,20.9225],[110.2014,20.9339],[110.1953,20.9469],[110.191,20.9679],[110.1875,20.9727],[110.1764,20.9745],[110.1665,20.9799],[110.1627,20.9854],[110.1574,20.9848],[110.1545,20.9887],[110.1569,20.9947],[110.152,21.0022],[110.1461,21.0075],[110.1354,21.0054],[110.1316,21.0086],[110.1289,21.0153],[110.1172,21.0171]]]},"properties":{"region_code":"CN-44-4408-440882","parent_region_code":"CN-44-4408","name":"雷州市","level":"county","has_children":false,"full_path":"中国 / 广东省 / 湛江市 / 雷州市","source_admin_code":"440882","osm_relation_id":3484516}},
{"type":"Feature","geometry":{"type":"Polygon","coordinates":[[[111.704,20.2125],[111.7981,20.3415],[112.0515,20.6886],[111.428,21.0339],[111.0147,21.2623],[110.9668,21.4223],[110.9618,21.4242],[110.9592,21.4378],[110.9518,21.4399],[110.952,21.4457],[110.9455,21.4464],[110.9338,21.4451],[110.9248,21.4519],[110.9176,21.445],[110.9063,21.4412],[110.8975,21.4285],[110.8898,21.4324],[110.8891,21.4394],[110.8836,21.4409],[110.8802,21.445],[110.8858,21.4506],[110.8909,21.4636],[110.8794,21.4724],[110.8701,21.4701],[110.8691,21.4756],[110.8728,21.4808],[110.8699,21.4874],[110.8727,21.4914],[110.8716,21.5009],[110.8662,21.5007],[110.8616,21.5083],[110.8555,21.5003],[110.8489,21.5017],[110.8427,21.4944],[110.8383,21.4996],[110.8517,21.5064],[110.85,21.5133],[110.8442,21.5198],[110.8484,21.524],[110.8417,21.5318],[110.8215,21.5462],[110.8145,21.5491],[110.8142,21.5543],[110.8188,21.5567],[110.8201,21.5656],[110.8132,21.5717],[110.8144,21.5788],[110.8091,21.5857],[110.7901,21.5829],[110.7918,21.5893],[110.7891,21.5952],[110.7934,21.6044],[110.7911,21.6145],[110.7947,21.6233],[110.7948,21.6306],[110.7824,21.6359],[110.7818,21.6395],[110.7751,21.6408],[110.7673,21.6504],[110.7569,21.6506],[110.757,21.6456],[110.75,21.6373],[110.7431,21.6381],[110.7389,21.6313],[110.7326,21.6274],[110.731,21.6156],[110.733,21.6113],[110.7387,21.6088],[110.7397,21.6019],[110.7432,21.5994],[110.7418,21.5935],[110.731,21.5872],[110.7327,21.5843],[110.7298,21.5781],[110.7223,21.5753],[110.7208,21.5674],[110.7235,21.5584],[110.7205,21.5559],[110.7219,21.5456],[110.7298,21.5357],[110.7237,21.5336],[110.7177,21.529],[110.7083,21.5282],[110.6961,21.5194],[110.6909,21.5177],[110.6834,21.5189],[110.6769,21.5225],[110.6695,21.5236],[110.6688,21.5138],[110.6774,21.5104],[110.679,21.504],[110.6831,21.4993],[110.6835,21.4941],[110.6759,21.4914],[110.6698,21.4973],[110.663,21.5001],[110.6606,21.4962],[110.654,21.4934],[110.6521,21.4978],[110.6536,21.5063],[110.6392,21.4997],[110.6407,21.4854],[110.6241,21.4862],[110.6169,21.4838],[110.6103,21.4875],[110.6132,21.4909],[110.6046,21.5021],[110.5992,21.5028],[110.5948,21.51],[110.5859,21.5033],[110.5833,21.5048],[110.5732,21.5019],[110.5714,21.5061],[110.5733,21.5132],[110.5708,21.5189],[110.5604,21.5195],[110.5528,21.5154],[110.5455,21.5041],[110.541,21.5023],[110.5375,21.4961],[110.5407,21.4923],[110.5384,21.4886],[110.5412,21.4819],[110.5372,21.4759],[110.5281,21.483],[110.523,21.4809],[110.5138,21.4831],[110.513,21.4924],[110.504,21.4935],[110.4997,21.4901],[110.5017,21.4813],[110.4918,21.4845],[110.486,21.4811],[110.4902,21.4741],[110.486,21.467],[110.4821,21.4678],[110.4799,21.4565],[110.4777,21.4549],[110.4783,21.4461],[110.4884,21.4414],[110.4899,21.4457],[110.5032,21.4396],[110.5041,21.4296],[110.5081,21.4247],[110.5162,21.4205],[110.5187,21.4166],[110.5255,21.4186],[110.5287,21.4142],[110.527,21.4013],[110.529,21.3926],[110.5347,21.3796],[110.5438,21.3744],[110.5545,21.3788],[110.554,21.3735],[110.5586,21.3707],[110.5642,21.3641],[110.558,21.351],[110.5527,21.3471],[110.5558,21.34],[110.5449,21.3376],[110.5455,21.3282],[110.5387,21.3279],[110.5373,21.3323],[110.5293,21.3307],[110.5277,21.323],[110.5187,21.3192],[110.5178,21.3078],[110.5273,21.2997],[110.5308,21.301],[110.5513,21.2896],[110.5586,21.2891],[110.571,21.2812],[110.5759,21.2761],[110.5879,21.2681],[110.5988,21.2716],[110.598,21.2761],[110.6063,21.284],[110.6073,21.2886],[110.616,21.2892],[110.6186,21.2938],[110.6342,21.2915],[110.6356,21.2791],[110.6382,21.2719],[110.6414,21.2494],[110.6408,21.2311],[110.6432,21.2245],[110.653,21.2162],[110.6572,21.2086],[110.6631,21.1937],[110.6756,21.1902],[111.704,20.2125]]]},"properties":{"region_code":"CN-44-4408-440883","parent_region_code":"CN-44-4408","name":"吴川市","level":"county","has_children":false,"full_path":"中国 / 广东省 / 湛江市 / 吴川市","source_admin_code":"440883","osm_relation_id":4582214}}
]}