{"type":"FeatureCollection", "features": [
{"type":"Feature","geometry":{"type":"Polygon","coordinates":[[[114.1846,35.9808],[114.1759,35.9846],[114.1637,36.0011],[114.1716,36.0173],[114.1681,36.0324],[114.1718,36.0496],[114.1491,36.0456],[114.1317,36.0313],[114.1138,36.028],[114.1014,36.0159],[114.1053,36.0091],[114.0972,35.9922],[114.0861,35.982],[114.0637,35.968],[114.0603,35.9609],[114.0403,35.9713],[114.0236,35.9701],[114.0236,35.9455],[114.0324,35.9305],[114.0491,35.9297],[114.0751,35.9153],[114.0771,35.9099],[114.0999,35.9117],[114.1057,35.9197],[114.1406,35.9142],[114.1472,35.9084],[114.18,35.939],[114.1986,35.9464],[114.1981,35.9676],[114.1846,35.9808]]]},"properties":{"region_code":"CN-41-4106-410602","parent_region_code":"CN-41-4106","name":"鹤山区","level":"county","has_children":false,"full_path":"中国 / 河南省 / 鹤壁市 / 鹤山区","source_admin_code":"410602","osm_relation_id":5672391}},
{"type":"Feature","geometry":{"type":"Polygon","coordinates":[[[114.1472,35.9084],[114.1503,35.9028],[114.1432,35.8808],[114.1575,35.8737],[114.1616,35.8655],[114.1758,35.8574],[114.1752,35.8457],[114.2019,35.8418],[114.2254,35.8552],[114.24,35.8716],[114.2554,35.871],[114.2653,35.8763],[114.2764,35.896],[114.2647,35.8984],[114.2715,35.9261],[114.2964,35.9307],[114.2876,35.94],[114.3012,35.949],[114.3033,35.9597],[114.2874,35.96],[114.2796,35.9474],[114.2714,35.9617],[114.2755,35.9749],[114.2515,35.9704],[114.2359,35.9733],[114.2169,35.9821],[114.2097,35.9978],[114.1956,35.9919],[114.1846,35.9808],[114.1981,35.9676],[114.1986,35.9464],[114.18,35.939],[114.1472,35.9084]]]},"properties":{"region_code":"CN-41-4106-410603","parent_region_code":"CN-41-4106","name":"山城区","level":"county","has_children":false,"full_path":"中国 / 河南省 / 鹤壁市 / 山城区","source_admin_code":"410603","osm_relation_id":5672394}},
{"type":"Feature","geometry":{"type":"Polygon","coordinates":[[[114.0771,35.9099],[114.0769,35.8979],[114.0689,35.892],[114.0614,35.8711],[114.0443,35.867],[114.0408,35.8594],[114.0009,35.8578],[114.0136,35.8457],[114.0197,35.8309],[114.0276,35.8249],[114.0168,35.8058],[114.0174,35.7963],[114.07,35.8061],[114.0787,35.8034],[114.0844,35.808],[114.1193,35.8052],[114.1339,35.7978],[114.1581,35.8025],[114.173,35.8016],[114.1815,35.7928],[114.1942,35.7985],[114.2053,35.7909],[114.2186,35.7709],[114.2176,35.7535],[114.2364,35.7599],[114.2504,35.7509],[114.2445,35.7415],[114.2429,35.7259],[114.2488,35.7137],[114.2622,35.7083],[114.2506,35.7002],[114.2484,35.6877],[114.267,35.6775],[114.2755,35.6617],[114.2911,35.6564],[114.307,35.6573],[114.316,35.6445],[114.3479,35.6417],[114.3567,35.6582],[114.3619,35.681],[114.3591,35.6995],[114.3531,35.7102],[114.3544,35.7311],[114.3652,35.7303],[114.3782,35.7378],[114.3766,35.7535],[114.3813,35.7831],[114.404,35.7994],[114.3969,35.8139],[114.3716,35.8183],[114.3356,35.8177],[114.3282,35.7991],[114.3098,35.7945],[114.2878,35.7955],[114.271,35.7631],[114.2491,35.7672],[114.2574,35.7744],[114.2459,35.7932],[114.237,35.7933],[114.2309,35.8091],[114.2254,35.8552],[114.2019,35.8418],[114.1752,35.8457],[114.1758,35.8574],[114.1616,35.8655],[114.1575,35.8737],[114.1432,35.8808],[114.1503,35.9028],[114.1472,35.9084],[114.1406,35.9142],[114.1057,35.9197],[114.0999,35.9117],[114.0771,35.9099]]]},"properties":{"region_code":"CN-41-4106-410611","parent_region_code":"CN-41-4106","name":"淇滨区","level":"county","has_children":false,"full_path":"中国 / 河南省 / 鹤壁市 / 淇滨区","source_admin_code":"410611","osm_relation_id":5672393}},
{"type":"Feature","geometry":{"type":"Polygon","coordinates":[[[114.2911,35.6564],[114.2879,35.6414],[114.2932,35.6188],[114.2801,35.6031],[114.2653,35.5796],[114.2573,35.5721],[114.2631,35.5631],[114.264,35.5485],[114.257,35.5258],[114.264,35.517],[114.2848,35.513],[114.2838,35.5019],[114.2786,35.4913],[114.2647,35.4814],[114.2631,35.4653],[114.2792,35.4592],[114.2919,35.4593],[114.3078,35.4448],[114.3207,35.4434],[114.3347,35.4512],[114.3349,35.4593],[114.3515,35.4687],[114.3725,35.462],[114.3821,35.4772],[114.4087,35.4711],[114.4145,35.4839],[114.4033,35.4892],[114.3873,35.5132],[114.4029,35.5273],[114.4331,35.5471],[114.4663,35.5634],[114.476,35.5726],[114.4763,35.5844],[114.4871,35.5954],[114.4898,35.6061],[114.5188,35.5961],[114.5241,35.6036],[114.5373,35.6004],[114.5414,35.616],[114.5511,35.6186],[114.5787,35.6137],[114.589,35.6229],[114.6072,35.6309],[114.6122,35.647],[114.629,35.6479],[114.6412,35.6547],[114.661,35.6494],[114.6724,35.6642],[114.6747,35.676],[114.6852,35.6868],[114.702,35.6923],[114.718,35.6926],[114.7363,35.716],[114.7459,35.7378],[114.7434,35.7586],[114.723,35.7801],[114.7164,35.7779],[114.7036,35.7874],[114.6872,35.7883],[114.662,35.7835],[114.6548,35.7909],[114.6197,35.7972],[114.6045,35.8076],[114.6039,35.8212],[114.5906,35.823],[114.5893,35.8338],[114.5811,35.8424],[114.5595,35.8378],[114.5486,35.8246],[114.5375,35.8326],[114.5265,35.8322],[114.4997,35.8388],[114.4842,35.8392],[114.4779,35.8258],[114.4425,35.8305],[114.4392,35.8166],[114.4237,35.8235],[114.3969,35.8139],[114.404,35.7994],[114.3813,35.7831],[114.3766,35.7535],[114.3782,35.7378],[114.3652,35.7303],[114.3544,35.7311],[114.3531,35.7102],[114.3591,35.6995],[114.3619,35.681],[114.3567,35.6582],[114.3479,35.6417],[114.316,35.6445],[114.307,35.6573],[114.2911,35.6564]]]},"properties":{"region_code":"CN-41-4106-410621","parent_region_code":"CN-41-4106","name":"浚县","level":"county","has_children":false,"full_path":"中国 / 河南省 / 鹤壁市 / 浚县","source_admin_code":"410621","osm_relation_id":5672395}},
{"type":"Feature","geometry":{"type":"Polygon","coordinates":[[[114.0787,35.8034],[114.0713,35.8023],[114.0718,35.7817],[114.0609,35.7779],[114.0614,35.7574],[114.0521,35.7496],[114.0369,35.7456],[114.0123,35.7261],[113.993,35.7234],[113.9897,35.7053],[113.997,35.6987],[114.0203,35.6938],[114.0207,35.6832],[114.0422,35.6774],[114.0512,35.6559],[114.0454,35.6457],[114.0565,35.6386],[114.0504,35.6267],[114.052,35.6076],[114.0481,35.6032],[114.0641,35.5916],[114.0642,35.5838],[114.0739,35.5674],[114.1,35.554],[114.1132,35.5519],[114.127,35.5425],[114.1417,35.5379],[114.1488,35.5282],[114.1821,35.5218],[114.2016,35.5276],[114.2176,35.5175],[114.2372,35.5105],[114.2419,35.5023],[114.256,35.4966],[114.2612,35.5033],[114.2838,35.5019],[114.2848,35.513],[114.264,35.517],[114.257,35.5258],[114.264,35.5485],[114.2631,35.5631],[114.2573,35.5721],[114.2653,35.5796],[114.2801,35.6031],[114.2932,35.6188],[114.2879,35.6414],[114.2911,35.6564],[114.2755,35.6617],[114.267,35.6775],[114.2484,35.6877],[114.2506,35.7002],[114.2622,35.7083],[114.2488,35.7137],[114.2429,35.7259],[114.2445,35.7415],[114.2504,35.7509],[114.2364,35.7599],[114.2176,35.7535],[114.2186,35.7709],[114.2053,35.7909],[114.1942,35.7985],[114.1815,35.7928],[114.173,35.8016],[114.1581,35.8025],[114.1339,35.7978],[114.1193,35.8052],[114.0844,35.808],[114.0787,35.8034]]]},"properties":{"region_code":"CN-41-4106-410622","parent_region_code":"CN-41-4106","name":"淇县","level":"county","has_children":false,"full_path":"中国 / 河南省 / 鹤壁市 / 淇县","source_admin_code":"410622","osm_relation_id":5672392}}
]}