{"type":"FeatureCollection", "features": [
{"type":"Feature","geometry":{"type":"Polygon","coordinates":[[[110.2303,25.2283],[110.2367,25.2369],[110.2564,25.2407],[110.2685,25.2519],[110.2657,25.2673],[110.2779,25.2782],[110.2944,25.2738],[110.3004,25.2853],[110.2794,25.2947],[110.2842,25.3213],[110.2906,25.3212],[110.2963,25.3343],[110.2638,25.3388],[110.2557,25.3276],[110.2475,25.3008],[110.2404,25.296],[110.2264,25.2675],[110.2183,25.2579],[110.2291,25.2395],[110.2303,25.2283]]]},"properties":{"region_code":"CN-45-4503-450302","parent_region_code":"CN-45-4503","name":"秀峰区","level":"county","has_children":false,"full_path":"中国 / 广西壮族自治区 / 桂林市 / 秀峰区","source_admin_code":"450302","osm_relation_id":3471980}},
{"type":"Feature","geometry":{"type":"Polygon","coordinates":[[[110.3004,25.2853],[110.3005,25.3005],[110.3116,25.307],[110.3169,25.298],[110.3323,25.2906],[110.3495,25.298],[110.3593,25.2956],[110.3775,25.3025],[110.376,25.3172],[110.3806,25.3306],[110.3585,25.3372],[110.3591,25.353],[110.3429,25.3614],[110.3234,25.3533],[110.3224,25.3439],[110.2963,25.3343],[110.2906,25.3212],[110.2842,25.3213],[110.2794,25.2947],[110.3004,25.2853]]]},"properties":{"region_code":"CN-45-4503-450303","parent_region_code":"CN-45-4503","name":"叠彩区","level":"county","has_children":false,"full_path":"中国 / 广西壮族自治区 / 桂林市 / 叠彩区","source_admin_code":"450303","osm_relation_id":3471977}},
{"type":"Feature","geometry":{"type":"Polygon","coordinates":[[[110.2303,25.2283],[110.2317,25.2144],[110.2233,25.1967],[110.227,25.1839],[110.2342,25.1857],[110.2442,25.1746],[110.2571,25.1723],[110.2747,25.1504],[110.2678,25.1473],[110.2683,25.1313],[110.3108,25.1394],[110.3122,25.154],[110.3012,25.1728],[110.3051,25.1835],[110.3218,25.1867],[110.3152,25.2013],[110.3046,25.2049],[110.3091,25.2153],[110.3114,25.2345],[110.304,25.242],[110.2944,25.243],[110.2877,25.2539],[110.2942,25.2612],[110.2944,25.2738],[110.2779,25.2782],[110.2657,25.2673],[110.2685,25.2519],[110.2564,25.2407],[110.2367,25.2369],[110.2303,25.2283]]]},"properties":{"region_code":"CN-45-4503-450304","parent_region_code":"CN-45-4503","name":"象山区","level":"county","has_children":false,"full_path":"中国 / 广西壮族自治区 / 桂林市 / 象山区","source_admin_code":"450304","osm_relation_id":3471979}},
{"type":"Feature","geometry":{"type":"Polygon","coordinates":[[[110.2944,25.2738],[110.2942,25.2612],[110.2877,25.2539],[110.2944,25.243],[110.304,25.242],[110.3114,25.2345],[110.3227,25.227],[110.3326,25.2297],[110.3401,25.2381],[110.3547,25.2225],[110.3717,25.2146],[110.3893,25.2412],[110.3832,25.2497],[110.393,25.2798],[110.3931,25.2938],[110.3775,25.3025],[110.3593,25.2956],[110.3495,25.298],[110.3323,25.2906],[110.3169,25.298],[110.3116,25.307],[110.3005,25.3005],[110.3004,25.2853],[110.2944,25.2738]]]},"properties":{"region_code":"CN-45-4503-450305","parent_region_code":"CN-45-4503","name":"七星区","level":"county","has_children":false,"full_path":"中国 / 广西壮族自治区 / 桂林市 / 七星区","source_admin_code":"450305","osm_relation_id":3471978}},
{"type":"Feature","geometry":{"type":"Polygon","coordinates":[[[110.2683,25.1313],[110.2554,25.121],[110.2511,25.1091],[110.2638,25.0958],[110.2584,25.0832],[110.2615,25.0578],[110.2758,25.037],[110.3083,25.0422],[110.3196,25.0119],[110.3283,25.0108],[110.3366,24.9973],[110.3569,25.014],[110.3716,25.0107],[110.3788,25.0191],[110.3872,25.0128],[110.3983,25.0181],[110.4064,25.0116],[110.4121,25.0316],[110.4282,25.0419],[110.4391,25.0585],[110.4579,25.0519],[110.469,25.0416],[110.4738,25.0524],[110.4842,25.0722],[110.4698,25.0811],[110.472,25.087],[110.4572,25.0949],[110.4489,25.1045],[110.4236,25.1163],[110.4317,25.1357],[110.4304,25.1454],[110.4052,25.1482],[110.4014,25.1348],[110.388,25.1259],[110.379,25.1328],[110.3758,25.1476],[110.3657,25.1498],[110.3672,25.1612],[110.3828,25.1818],[110.3764,25.191],[110.3797,25.2006],[110.3717,25.2146],[110.3547,25.2225],[110.3401,25.2381],[110.3326,25.2297],[110.3227,25.227],[110.3114,25.2345],[110.3091,25.2153],[110.3046,25.2049],[110.3152,25.2013],[110.3218,25.1867],[110.3051,25.1835],[110.3012,25.1728],[110.3122,25.154],[110.3108,25.1394],[110.2683,25.1313]]]},"properties":{"region_code":"CN-45-4503-450311","parent_region_code":"CN-45-4503","name":"雁山区","level":"county","has_children":false,"full_path":"中国 / 广西壮族自治区 / 桂林市 / 雁山区","source_admin_code":"450311","osm_relation_id":3471981}},
{"type":"Feature","geometry":{"type":"Polygon","coordinates":[[[110.2404,25.296],[110.2325,25.296],[110.2258,25.3091],[110.2161,25.3103],[110.2207,25.3283],[110.2097,25.3336],[110.2067,25.345],[110.191,25.3465],[110.1861,25.362],[110.173,25.3653],[110.1796,25.3788],[110.1931,25.3821],[110.1966,25.3913],[110.1843,25.3984],[110.1683,25.4009],[110.1597,25.394],[110.1469,25.3947],[110.1458,25.4158],[110.135,25.413],[110.121,25.4266],[110.1069,25.4223],[110.1046,25.4407],[110.1125,25.4608],[110.1137,25.5146],[110.1078,25.5208],[110.1156,25.5333],[110.1124,25.5489],[110.1172,25.5604],[110.1386,25.5781],[110.129,25.5915],[110.109,25.5971],[110.1138,25.61],[110.0992,25.6129],[110.1003,25.6216],[110.0892,25.6285],[110.0885,25.6425],[110.0993,25.6476],[110.1098,25.6604],[110.1001,25.6749],[110.0867,25.6806],[110.0663,25.6732],[110.0501,25.6852],[110.0359,25.6736],[110.0132,25.6708],[110.0037,25.6732],[109.9928,25.6852],[109.9775,25.6818],[109.9692,25.6696],[109.9609,25.6805],[109.9452,25.6716],[109.9345,25.6767],[109.9159,25.6689],[109.9173,25.6499],[109.9311,25.6405],[109.9394,25.6216],[109.9244,25.603],[109.9233,25.5826],[109.9186,25.5692],[109.923,25.5601],[109.8951,25.5657],[109.8839,25.5808],[109.8624,25.5821],[109.859,25.5722],[109.8469,25.559],[109.834,25.5535],[109.8272,25.5443],[109.8261,25.5309],[109.8319,25.5188],[109.8498,25.5046],[109.831,25.4885],[109.8087,25.4902],[109.7991,25.4966],[109.7963,25.4831],[109.7889,25.4813],[109.775,25.4928],[109.7616,25.4736],[109.7583,25.4588],[109.7611,25.4394],[109.7722,25.4417],[109.7874,25.4387],[109.7976,25.4223],[109.8137,25.4266],[109.8299,25.4235],[109.8376,25.4389],[109.8734,25.4313],[109.8806,25.4245],[109.8732,25.4143],[109.8744,25.4055],[109.8635,25.3888],[109.8717,25.3721],[109.8688,25.3581],[109.8514,25.3599],[109.8492,25.346],[109.8596,25.3223],[109.8554,25.3063],[109.8431,25.2881],[109.8539,25.2737],[109.8735,25.2763],[109.8851,25.2599],[109.8824,25.2512],[109.8897,25.2417],[109.8743,25.2352],[109.8628,25.2155],[109.8667,25.201],[109.8627,25.1872],[109.8869,25.1813],[109.8984,25.1872],[109.9126,25.183],[109.9318,25.1626],[109.9452,25.1524],[109.9447,25.1351],[109.9613,25.13],[109.9709,25.1384],[109.9877,25.1431],[109.9997,25.1348],[110.0374,25.1538],[110.0481,25.1486],[110.0717,25.1538],[110.0759,25.1474],[110.0911,25.14],[110.1002,25.123],[110.0898,25.1108],[110.0926,25.0978],[110.1125,25.0844],[110.1139,25.0748],[110.1263,25.0768],[110.1423,25.0636],[110.1302,25.0444],[110.1344,25.0369],[110.1451,25.036],[110.1555,25.0278],[110.1614,25.0109],[110.174,24.9944],[110.1851,24.9864],[110.1799,24.968],[110.1731,24.9625],[110.182,24.9271],[110.1806,24.9191],[110.1909,24.898],[110.185,24.8684],[110.1954,24.8512],[110.2048,24.8423],[110.2228,24.833],[110.2271,24.8393],[110.2537,24.8466],[110.2646,24.8405],[110.268,24.8496],[110.281,24.8509],[110.2847,24.8654],[110.3029,24.8737],[110.2996,24.8983],[110.3185,24.8998],[110.3416,24.909],[110.3245,24.9375],[110.3164,24.9616],[110.3055,24.9687],[110.3206,24.9834],[110.3432,24.9835],[110.3366,24.9973],[110.3283,25.0108],[110.3196,25.0119],[110.3083,25.0422],[110.2758,25.037],[110.2615,25.0578],[110.2584,25.0832],[110.2638,25.0958],[110.2511,25.1091],[110.2554,25.121],[110.2683,25.1313],[110.2678,25.1473],[110.2747,25.1504],[110.2571,25.1723],[110.2442,25.1746],[110.2342,25.1857],[110.227,25.1839],[110.2233,25.1967],[110.2317,25.2144],[110.2303,25.2283],[110.2291,25.2395],[110.2183,25.2579],[110.2264,25.2675],[110.2404,25.296]]]},"properties":{"region_code":"CN-45-4503-450312","parent_region_code":"CN-45-4503","name":"临桂区","level":"county","has_children":false,"full_path":"中国 / 广西壮族自治区 / 桂林市 / 临桂区","source_admin_code":"450312","osm_relation_id":2773817}},
{"type":"Feature","geometry":{"type":"Polygon","coordinates":[[[110.3366,24.9973],[110.3432,24.9835],[110.3206,24.9834],[110.3055,24.9687],[110.3164,24.9616],[110.3245,24.9375],[110.3416,24.909],[110.3185,24.8998],[110.2996,24.8983],[110.3029,24.8737],[110.2847,24.8654],[110.281,24.8509],[110.268,24.8496],[110.2646,24.8405],[110.2537,24.8466],[110.2271,24.8393],[110.2228,24.833],[110.2299,24.7975],[110.2369,24.785],[110.2242,24.762],[110.2395,24.7506],[110.2567,24.7537],[110.2612,24.7446],[110.2703,24.7475],[110.2797,24.7364],[110.2923,24.7331],[110.2945,24.7267],[110.3083,24.7206],[110.3212,24.7306],[110.3618,24.7169],[110.3679,24.7032],[110.3632,24.673],[110.3763,24.6716],[110.3804,24.6785],[110.393,24.6773],[110.4104,24.6673],[110.4361,24.6731],[110.4588,24.661],[110.4727,24.6638],[110.5021,24.6634],[110.5155,24.6682],[110.5226,24.6632],[110.5242,24.6523],[110.5559,24.6452],[110.5676,24.6369],[110.578,24.6424],[110.5944,24.6463],[110.6045,24.6597],[110.6001,24.6786],[110.6008,24.6976],[110.5956,24.7098],[110.5856,24.7166],[110.5859,24.7302],[110.5982,24.7505],[110.6056,24.7529],[110.6329,24.7516],[110.6574,24.7713],[110.6596,24.7841],[110.645,24.7959],[110.6572,24.8037],[110.6494,24.8186],[110.6596,24.8359],[110.6525,24.8544],[110.6552,24.864],[110.665,24.8715],[110.6778,24.8689],[110.6735,24.8892],[110.6755,24.897],[110.6729,24.9151],[110.6669,24.9194],[110.66,24.9397],[110.6459,24.9487],[110.6445,24.9775],[110.6335,24.9895],[110.6384,25.0037],[110.6304,25.0078],[110.6309,25.0311],[110.6183,25.0451],[110.6115,25.0656],[110.5928,25.0626],[110.5844,25.0647],[110.5694,25.0587],[110.5591,25.0588],[110.548,25.0511],[110.5395,25.0309],[110.5295,25.0296],[110.5159,25.0463],[110.5144,25.0551],[110.4738,25.0524],[110.469,25.0416],[110.4579,25.0519],[110.4391,25.0585],[110.4282,25.0419],[110.4121,25.0316],[110.4064,25.0116],[110.3983,25.0181],[110.3872,25.0128],[110.3788,25.0191],[110.3716,25.0107],[110.3569,25.014],[110.3366,24.9973]]]},"properties":{"region_code":"CN-45-4503-450321","parent_region_code":"CN-45-4503","name":"阳朔县","level":"county","has_children":false,"full_path":"中国 / 广西壮族自治区 / 桂林市 / 阳朔县","source_admin_code":"450321","osm_relation_id":2773823}},
{"type":"Feature","geometry":{"type":"Polygon","coordinates":[[[110.2963,25.3343],[110.3224,25.3439],[110.3234,25.3533],[110.3429,25.3614],[110.3591,25.353],[110.3585,25.3372],[110.3806,25.3306],[110.376,25.3172],[110.3775,25.3025],[110.3931,25.2938],[110.393,25.2798],[110.3832,25.2497],[110.3893,25.2412],[110.3717,25.2146],[110.3797,25.2006],[110.3764,25.191],[110.3828,25.1818],[110.3672,25.1612],[110.3657,25.1498],[110.3758,25.1476],[110.379,25.1328],[110.388,25.1259],[110.4014,25.1348],[110.4052,25.1482],[110.4304,25.1454],[110.4317,25.1357],[110.4236,25.1163],[110.4489,25.1045],[110.4572,25.0949],[110.472,25.087],[110.4698,25.0811],[110.4842,25.0722],[110.4738,25.0524],[110.5144,25.0551],[110.5159,25.0463],[110.5295,25.0296],[110.5395,25.0309],[110.548,25.0511],[110.5591,25.0588],[110.5694,25.0587],[110.5844,25.0647],[110.5928,25.0626],[110.6115,25.0656],[110.6181,25.0802],[110.6403,25.0782],[110.6466,25.0934],[110.6471,25.1046],[110.6416,25.1133],[110.6439,25.1277],[110.662,25.1327],[110.6723,25.125],[110.7014,25.1229],[110.7182,25.1328],[110.739,25.1213],[110.7477,25.1224],[110.767,25.1122],[110.785,25.1238],[110.764,25.1477],[110.7629,25.1541],[110.7451,25.1664],[110.7248,25.176],[110.7283,25.1902],[110.7258,25.1988],[110.7301,25.2151],[110.722,25.2399],[110.7352,25.2416],[110.742,25.248],[110.7344,25.2655],[110.7356,25.2748],[110.7446,25.2788],[110.7427,25.2993],[110.755,25.3014],[110.7541,25.3111],[110.727,25.3109],[110.7261,25.325],[110.7069,25.3233],[110.6978,25.3301],[110.6988,25.3402],[110.685,25.3471],[110.6664,25.3439],[110.6329,25.3529],[110.6218,25.3591],[110.5968,25.356],[110.5904,25.3486],[110.5755,25.3496],[110.5603,25.3439],[110.5543,25.348],[110.5523,25.3621],[110.5548,25.3806],[110.5438,25.3862],[110.5348,25.3991],[110.5334,25.4082],[110.5149,25.4096],[110.507,25.4239],[110.5117,25.4322],[110.4965,25.4374],[110.5135,25.4607],[110.4994,25.4678],[110.5185,25.4889],[110.5132,25.4985],[110.4956,25.5069],[110.4763,25.5016],[110.4634,25.4802],[110.4524,25.4816],[110.457,25.508],[110.449,25.5118],[110.4398,25.5336],[110.4395,25.5413],[110.4299,25.5486],[110.4244,25.5642],[110.405,25.5743],[110.3919,25.5916],[110.3754,25.5908],[110.3641,25.5829],[110.3581,25.5649],[110.3393,25.5734],[110.3421,25.5971],[110.3092,25.6163],[110.3015,25.6263],[110.2849,25.6339],[110.2968,25.6485],[110.2905,25.6722],[110.2804,25.6789],[110.2806,25.699],[110.2768,25.7114],[110.2755,25.7378],[110.2556,25.7582],[110.2561,25.7756],[110.2355,25.7902],[110.2078,25.7859],[110.1929,25.7441],[110.1892,25.7204],[110.1765,25.7056],[110.1749,25.6968],[110.1355,25.6858],[110.1285,25.665],[110.1098,25.6604],[110.0993,25.6476],[110.0885,25.6425],[110.0892,25.6285],[110.1003,25.6216],[110.0992,25.6129],[110.1138,25.61],[110.109,25.5971],[110.129,25.5915],[110.1386,25.5781],[110.1172,25.5604],[110.1124,25.5489],[110.1156,25.5333],[110.1078,25.5208],[110.1137,25.5146],[110.1125,25.4608],[110.1046,25.4407],[110.1069,25.4223],[110.121,25.4266],[110.135,25.413],[110.1458,25.4158],[110.1469,25.3947],[110.1597,25.394],[110.1683,25.4009],[110.1843,25.3984],[110.1966,25.3913],[110.1931,25.3821],[110.1796,25.3788],[110.173,25.3653],[110.1861,25.362],[110.191,25.3465],[110.2067,25.345],[110.2097,25.3336],[110.2207,25.3283],[110.2161,25.3103],[110.2258,25.3091],[110.2325,25.296],[110.2404,25.296],[110.2475,25.3008],[110.2557,25.3276],[110.2638,25.3388],[110.2963,25.3343]]]},"properties":{"region_code":"CN-45-4503-450323","parent_region_code":"CN-45-4503","name":"灵川县","level":"county","has_children":false,"full_path":"中国 / 广西壮族自治区 / 桂林市 / 灵川县","source_admin_code":"450323","osm_relation_id":2773816}},
{"type":"Feature","geometry":{"type":"Polygon","coordinates":[[[110.9167,26.2583],[110.9149,26.2524],[110.8877,26.232],[110.8785,26.2117],[110.8825,26.2057],[110.8684,26.198],[110.8626,26.1788],[110.8545,26.1733],[110.8469,26.1543],[110.8298,26.1373],[110.8192,26.1337],[110.8172,26.124],[110.7804,26.0869],[110.7788,26.0747],[110.7659,26.0583],[110.7682,26.0533],[110.7602,26.0401],[110.7462,26.025],[110.736,26.0201],[110.7368,25.9994],[110.7482,25.994],[110.752,25.9768],[110.7381,25.9609],[110.7246,25.9625],[110.713,25.9451],[110.7154,25.9212],[110.6918,25.9061],[110.6788,25.8847],[110.6674,25.8789],[110.6638,25.87],[110.6468,25.8585],[110.6459,25.84],[110.637,25.8215],[110.6413,25.8005],[110.6319,25.7871],[110.648,25.7751],[110.6541,25.7613],[110.6512,25.7502],[110.6635,25.736],[110.6737,25.7375],[110.6848,25.7298],[110.7024,25.7322],[110.7061,25.7409],[110.7177,25.7462],[110.7348,25.7395],[110.7561,25.7685],[110.7709,25.7647],[110.7796,25.7683],[110.7875,25.7597],[110.7973,25.7576],[110.8044,25.7457],[110.8024,25.7391],[110.778,25.7397],[110.7721,25.7264],[110.7874,25.7237],[110.7957,25.7109],[110.8248,25.7039],[110.8325,25.7052],[110.8432,25.6982],[110.8365,25.6908],[110.841,25.6723],[110.8386,25.6647],[110.8167,25.6354],[110.811,25.6223],[110.8121,25.6138],[110.8021,25.5886],[110.8004,25.5755],[110.8083,25.5571],[110.8015,25.5536],[110.8071,25.5274],[110.8292,25.5257],[110.8464,25.5187],[110.8524,25.5074],[110.8677,25.4949],[110.884,25.4928],[110.9041,25.5043],[110.929,25.4964],[110.9397,25.5099],[110.9556,25.5162],[110.9507,25.5338],[110.9557,25.5427],[110.9667,25.5501],[110.9509,25.5892],[110.965,25.6046],[110.9765,25.6047],[111.0004,25.6147],[111.0185,25.6134],[111.0456,25.619],[111.0513,25.6119],[111.0639,25.6147],[111.073,25.6269],[111.0859,25.6233],[111.0988,25.6287],[111.084,25.6457],[111.0964,25.65],[111.0999,25.6705],[111.1161,25.6726],[111.1235,25.6669],[111.1438,25.6772],[111.1463,25.7146],[111.1525,25.7301],[111.1654,25.7454],[111.1709,25.7466],[111.187,25.7368],[111.1946,25.744],[111.2034,25.7406],[111.2146,25.7577],[111.2245,25.7512],[111.2295,25.737],[111.2433,25.741],[111.2674,25.7377],[111.2773,25.7236],[111.2751,25.7129],[111.2653,25.703],[111.2711,25.6952],[111.2933,25.7066],[111.3032,25.7086],[111.3032,25.7215],[111.3185,25.7345],[111.337,25.7318],[111.3562,25.7373],[111.3824,25.7365],[111.4106,25.771],[111.4217,25.7752],[111.4337,25.7729],[111.4386,25.7857],[111.4307,25.818],[111.4204,25.8255],[111.4258,25.8465],[111.4514,25.851],[111.4569,25.8581],[111.4823,25.862],[111.4844,25.8738],[111.4651,25.8785],[111.4504,25.8737],[111.4439,25.8872],[111.4345,25.8899],[111.4198,25.8861],[111.4117,25.8795],[111.3979,25.888],[111.3804,25.8899],[111.3717,25.9085],[111.3619,25.9047],[111.3517,25.8941],[111.3398,25.9099],[111.3198,25.9026],[111.3198,25.8965],[111.2934,25.8796],[111.2855,25.8569],[111.2741,25.8628],[111.2475,25.8673],[111.2422,25.8844],[111.2183,25.9056],[111.2267,25.9186],[111.2131,25.9292],[111.2144,25.9399],[111.2056,25.9414],[111.1906,25.9552],[111.1923,25.9729],[111.2014,25.9828],[111.2091,26.0054],[111.2099,26.023],[111.2173,26.0273],[111.2299,26.0498],[111.2492,26.0594],[111.261,26.0587],[111.2396,26.0807],[111.2613,26.0989],[111.266,26.1212],[111.2571,26.1396],[111.2527,26.1554],[111.2564,26.1639],[111.2687,26.1734],[111.269,26.1885],[111.2607,26.1957],[111.2656,26.2063],[111.263,26.2175],[111.2875,26.2253],[111.2898,26.2399],[111.2873,26.2559],[111.2746,26.2753],[111.2627,26.2768],[111.2331,26.2709],[111.2227,26.265],[111.1993,26.2804],[111.2035,26.2953],[111.2014,26.3111],[111.1312,26.3095],[111.1223,26.3129],[111.1046,26.3121],[111.1007,26.3073],[111.0855,26.3103],[111.0728,26.3222],[111.0464,26.3231],[111.0379,26.336],[111.0213,26.3411],[111.007,26.3396],[110.9963,26.3466],[111.0016,26.3611],[110.9849,26.3682],[110.9771,26.3846],[110.9587,26.3864],[110.9437,26.3774],[110.9416,26.3385],[110.9395,26.3297],[110.9211,26.3238],[110.9314,26.3085],[110.935,26.2923],[110.926,26.2732],[110.9251,26.2584],[110.9167,26.2583]]]},"properties":{"region_code":"CN-45-4503-450324","parent_region_code":"CN-45-4503","name":"全州县","level":"county","has_children":false,"full_path":"中国 / 广西壮族自治区 / 桂林市 / 全州县","source_admin_code":"450324","osm_relation_id":2773821}},
{"type":"Feature","geometry":{"type":"Polygon","coordinates":[[[110.7541,25.3111],[110.7647,25.3167],[110.7707,25.3363],[110.7833,25.3353],[110.7906,25.34],[110.8053,25.3615],[110.8164,25.3616],[110.8276,25.3703],[110.8438,25.3749],[110.8557,25.3635],[110.8811,25.3665],[110.8775,25.4011],[110.8832,25.4098],[110.8772,25.4184],[110.8791,25.4316],[110.8917,25.4401],[110.9058,25.445],[110.9064,25.462],[110.9117,25.4713],[110.9282,25.4744],[110.929,25.4964],[110.9041,25.5043],[110.884,25.4928],[110.8677,25.4949],[110.8524,25.5074],[110.8464,25.5187],[110.8292,25.5257],[110.8071,25.5274],[110.8015,25.5536],[110.8083,25.5571],[110.8004,25.5755],[110.8021,25.5886],[110.8121,25.6138],[110.811,25.6223],[110.8167,25.6354],[110.8386,25.6647],[110.841,25.6723],[110.8365,25.6908],[110.8432,25.6982],[110.8325,25.7052],[110.8248,25.7039],[110.7957,25.7109],[110.7874,25.7237],[110.7721,25.7264],[110.778,25.7397],[110.8024,25.7391],[110.8044,25.7457],[110.7973,25.7576],[110.7875,25.7597],[110.7796,25.7683],[110.7709,25.7647],[110.7561,25.7685],[110.7348,25.7395],[110.7177,25.7462],[110.7061,25.7409],[110.7024,25.7322],[110.6848,25.7298],[110.6737,25.7375],[110.6635,25.736],[110.6512,25.7502],[110.6541,25.7613],[110.648,25.7751],[110.6319,25.7871],[110.6112,25.7717],[110.6044,25.7768],[110.5895,25.7736],[110.5902,25.7848],[110.5968,25.7984],[110.6029,25.8228],[110.596,25.8349],[110.5671,25.8351],[110.5566,25.8294],[110.5469,25.836],[110.5314,25.8313],[110.5282,25.8505],[110.516,25.8613],[110.495,25.8692],[110.4804,25.8865],[110.4815,25.8931],[110.4681,25.9037],[110.4676,25.9156],[110.4501,25.9126],[110.4399,25.9022],[110.4244,25.8937],[110.413,25.8649],[110.4026,25.863],[110.3958,25.8432],[110.3795,25.825],[110.3884,25.8026],[110.3755,25.7936],[110.3582,25.7686],[110.3443,25.7701],[110.3348,25.7864],[110.3421,25.7938],[110.3368,25.8028],[110.3497,25.8149],[110.3582,25.8355],[110.3526,25.8438],[110.3314,25.8407],[110.3188,25.8441],[110.3034,25.842],[110.2947,25.8278],[110.2845,25.8269],[110.2796,25.8192],[110.275,25.7956],[110.2627,25.786],[110.254,25.7938],[110.2355,25.7902],[110.2561,25.7756],[110.2556,25.7582],[110.2755,25.7378],[110.2768,25.7114],[110.2806,25.699],[110.2804,25.6789],[110.2905,25.6722],[110.2968,25.6485],[110.2849,25.6339],[110.3015,25.6263],[110.3092,25.6163],[110.3421,25.5971],[110.3393,25.5734],[110.3581,25.5649],[110.3641,25.5829],[110.3754,25.5908],[110.3919,25.5916],[110.405,25.5743],[110.4244,25.5642],[110.4299,25.5486],[110.4395,25.5413],[110.4398,25.5336],[110.449,25.5118],[110.457,25.508],[110.4524,25.4816],[110.4634,25.4802],[110.4763,25.5016],[110.4956,25.5069],[110.5132,25.4985],[110.5185,25.4889],[110.4994,25.4678],[110.5135,25.4607],[110.4965,25.4374],[110.5117,25.4322],[110.507,25.4239],[110.5149,25.4096],[110.5334,25.4082],[110.5348,25.3991],[110.5438,25.3862],[110.5548,25.3806],[110.5523,25.3621],[110.5543,25.348],[110.5603,25.3439],[110.5755,25.3496],[110.5904,25.3486],[110.5968,25.356],[110.6218,25.3591],[110.6329,25.3529],[110.6664,25.3439],[110.685,25.3471],[110.6988,25.3402],[110.6978,25.3301],[110.7069,25.3233],[110.7261,25.325],[110.727,25.3109],[110.7541,25.3111]]]},"properties":{"region_code":"CN-45-4503-450325","parent_region_code":"CN-45-4503","name":"兴安县","level":"county","has_children":false,"full_path":"中国 / 广西壮族自治区 / 桂林市 / 兴安县","source_admin_code":"450325","osm_relation_id":2773822}},
{"type":"Feature","geometry":{"type":"Polygon","coordinates":[[[109.7611,25.4394],[109.7587,25.4062],[109.7478,25.3961],[109.7548,25.387],[109.7437,25.383],[109.7449,25.3287],[109.7465,25.3112],[109.7439,25.297],[109.7363,25.2917],[109.7279,25.2668],[109.7115,25.2438],[109.7133,25.231],[109.7029,25.2144],[109.689,25.1977],[109.6668,25.1775],[109.6485,25.1774],[109.6408,25.1677],[109.6479,25.1578],[109.6467,25.1444],[109.6349,25.128],[109.6468,25.1096],[109.6575,25.1007],[109.6552,25.0812],[109.6474,25.0669],[109.6414,25.048],[109.6435,25.0405],[109.6344,25.033],[109.6415,25.0249],[109.6389,24.9955],[109.6298,24.9938],[109.6229,24.983],[109.6163,24.9853],[109.6116,24.9645],[109.6157,24.9519],[109.6261,24.9468],[109.6134,24.9389],[109.6157,24.9211],[109.6215,24.9191],[109.6258,24.8833],[109.625,24.8713],[109.6168,24.8533],[109.617,24.8408],[109.632,24.8335],[109.6384,24.8395],[109.6573,24.8393],[109.6612,24.8591],[109.6696,24.8541],[109.6969,24.8512],[109.7139,24.8374],[109.7283,24.8413],[109.7314,24.8309],[109.75,24.8273],[109.7613,24.8215],[109.786,24.823],[109.8035,24.8156],[109.8109,24.8298],[109.8292,24.8305],[109.8431,24.8162],[109.8529,24.8105],[109.8767,24.815],[109.883,24.8127],[109.8862,24.7979],[109.8821,24.7862],[109.8851,24.7714],[109.8988,24.7607],[109.9238,24.7728],[109.9321,24.7797],[109.9435,24.7641],[109.9429,24.7511],[109.9354,24.7365],[109.9338,24.7212],[109.9443,24.7227],[109.9577,24.701],[109.9711,24.7017],[109.9874,24.6816],[110.0001,24.6757],[110.0132,24.677],[110.0198,24.6626],[110.0408,24.6686],[110.0527,24.6748],[110.0577,24.6874],[110.0739,24.6759],[110.074,24.6694],[110.0874,24.6508],[110.1054,24.6587],[110.1344,24.6539],[110.1377,24.6641],[110.1279,24.6876],[110.1358,24.7005],[110.1429,24.6987],[110.1462,24.7317],[110.1745,24.746],[110.1843,24.7458],[110.1944,24.7567],[110.2242,24.762],[110.2369,24.785],[110.2299,24.7975],[110.2228,24.833],[110.2048,24.8423],[110.1954,24.8512],[110.185,24.8684],[110.1909,24.898],[110.1806,24.9191],[110.182,24.9271],[110.1731,24.9625],[110.1799,24.968],[110.1851,24.9864],[110.174,24.9944],[110.1614,25.0109],[110.1555,25.0278],[110.1451,25.036],[110.1344,25.0369],[110.1302,25.0444],[110.1423,25.0636],[110.1263,25.0768],[110.1139,25.0748],[110.1125,25.0844],[110.0926,25.0978],[110.0898,25.1108],[110.1002,25.123],[110.0911,25.14],[110.0759,25.1474],[110.0717,25.1538],[110.0481,25.1486],[110.0374,25.1538],[109.9997,25.1348],[109.9877,25.1431],[109.9709,25.1384],[109.9613,25.13],[109.9447,25.1351],[109.9452,25.1524],[109.9318,25.1626],[109.9126,25.183],[109.8984,25.1872],[109.8869,25.1813],[109.8627,25.1872],[109.8667,25.201],[109.8628,25.2155],[109.8743,25.2352],[109.8897,25.2417],[109.8824,25.2512],[109.8851,25.2599],[109.8735,25.2763],[109.8539,25.2737],[109.8431,25.2881],[109.8554,25.3063],[109.8596,25.3223],[109.8492,25.346],[109.8514,25.3599],[109.8688,25.3581],[109.8717,25.3721],[109.8635,25.3888],[109.8744,25.4055],[109.8732,25.4143],[109.8806,25.4245],[109.8734,25.4313],[109.8376,25.4389],[109.8299,25.4235],[109.8137,25.4266],[109.7976,25.4223],[109.7874,25.4387],[109.7722,25.4417],[109.7611,25.4394]]]},"properties":{"region_code":"CN-45-4503-450326","parent_region_code":"CN-45-4503","name":"永福县","level":"county","has_children":false,"full_path":"中国 / 广西壮族自治区 / 桂林市 / 永福县","source_admin_code":"450326","osm_relation_id":2773824}},
{"type":"Feature","geometry":{"type":"Polygon","coordinates":[[[110.7301,25.2151],[110.7539,25.2092],[110.7614,25.1987],[110.7748,25.1969],[110.7829,25.2004],[110.7945,25.1833],[110.8317,25.1851],[110.8457,25.195],[110.846,25.208],[110.8524,25.2184],[110.8605,25.2211],[110.8763,25.2362],[110.9248,25.2439],[110.9172,25.2282],[110.9284,25.2225],[110.9389,25.2258],[110.9497,25.2361],[110.9622,25.2407],[110.976,25.2366],[110.9979,25.2447],[111.0084,25.2428],[111.019,25.2576],[111.051,25.2624],[111.065,25.2707],[111.0781,25.2691],[111.0849,25.2811],[111.0974,25.2874],[111.1318,25.3045],[111.1405,25.3132],[111.1659,25.3587],[111.1782,25.3709],[111.205,25.3663],[111.2218,25.3783],[111.2313,25.3814],[111.2359,25.3909],[111.2534,25.3997],[111.2514,25.4127],[111.2591,25.4229],[111.272,25.4253],[111.2883,25.441],[111.2968,25.4574],[111.2942,25.4686],[111.3056,25.4887],[111.3174,25.5035],[111.3234,25.5312],[111.3166,25.554],[111.3245,25.5875],[111.3381,25.607],[111.3335,25.6168],[111.3129,25.6344],[111.3046,25.6536],[111.3127,25.6769],[111.3115,25.6911],[111.3048,25.6927],[111.3032,25.7086],[111.2933,25.7066],[111.2711,25.6952],[111.2653,25.703],[111.2751,25.7129],[111.2773,25.7236],[111.2674,25.7377],[111.2433,25.741],[111.2295,25.737],[111.2245,25.7512],[111.2146,25.7577],[111.2034,25.7406],[111.1946,25.744],[111.187,25.7368],[111.1709,25.7466],[111.1654,25.7454],[111.1525,25.7301],[111.1463,25.7146],[111.1438,25.6772],[111.1235,25.6669],[111.1161,25.6726],[111.0999,25.6705],[111.0964,25.65],[111.084,25.6457],[111.0988,25.6287],[111.0859,25.6233],[111.073,25.6269],[111.0639,25.6147],[111.0513,25.6119],[111.0456,25.619],[111.0185,25.6134],[111.0004,25.6147],[110.9765,25.6047],[110.965,25.6046],[110.9509,25.5892],[110.9667,25.5501],[110.9557,25.5427],[110.9507,25.5338],[110.9556,25.5162],[110.9397,25.5099],[110.929,25.4964],[110.9282,25.4744],[110.9117,25.4713],[110.9064,25.462],[110.9058,25.445],[110.8917,25.4401],[110.8791,25.4316],[110.8772,25.4184],[110.8832,25.4098],[110.8775,25.4011],[110.8811,25.3665],[110.8557,25.3635],[110.8438,25.3749],[110.8276,25.3703],[110.8164,25.3616],[110.8053,25.3615],[110.7906,25.34],[110.7833,25.3353],[110.7707,25.3363],[110.7647,25.3167],[110.7541,25.3111],[110.755,25.3014],[110.7427,25.2993],[110.7446,25.2788],[110.7356,25.2748],[110.7344,25.2655],[110.742,25.248],[110.7352,25.2416],[110.722,25.2399],[110.7301,25.2151]]]},"properties":{"region_code":"CN-45-4503-450327","parent_region_code":"CN-45-4503","name":"灌阳县","level":"county","has_children":false,"full_path":"中国 / 广西壮族自治区 / 桂林市 / 灌阳县","source_admin_code":"450327","osm_relation_id":2098520}},
{"type":"Feature","geometry":{"type":"Polygon","coordinates":[[[110.1098,25.6604],[110.1285,25.665],[110.1355,25.6858],[110.1749,25.6968],[110.1765,25.7056],[110.1892,25.7204],[110.1929,25.7441],[110.2078,25.7859],[110.2355,25.7902],[110.254,25.7938],[110.2627,25.786],[110.275,25.7956],[110.2796,25.8192],[110.2845,25.8269],[110.2947,25.8278],[110.3034,25.842],[110.3188,25.8441],[110.3314,25.8407],[110.3526,25.8438],[110.3552,25.8558],[110.3456,25.8659],[110.351,25.8837],[110.34,25.894],[110.3155,25.9037],[110.3015,25.892],[110.2909,25.8999],[110.2841,25.9143],[110.2861,25.9238],[110.2983,25.945],[110.2861,25.9508],[110.2808,25.9665],[110.261,25.9606],[110.2453,25.9686],[110.2497,26.0092],[110.2406,26.0291],[110.209,26.0457],[110.2029,26.0651],[110.1909,26.072],[110.1724,26.0444],[110.1661,26.0248],[110.1558,26.0188],[110.1415,26.0193],[110.1237,26.0322],[110.112,26.035],[110.1036,26.0225],[110.0958,26.0209],[110.0845,26.0393],[110.0741,26.0397],[110.064,26.0496],[110.0715,26.0639],[110.0709,26.0866],[110.0926,26.132],[110.0896,26.157],[110.0936,26.1717],[110.0772,26.1738],[110.0636,26.1709],[110.0446,26.1718],[110.0284,26.1684],[110.0123,26.188],[110.0009,26.1884],[109.9813,26.1832],[109.9654,26.1985],[109.9558,26.1921],[109.9309,26.1639],[109.9057,26.1466],[109.9076,26.1323],[109.8986,26.1131],[109.8992,26.096],[109.8889,26.0879],[109.8855,26.0561],[109.8727,26.045],[109.8633,26.031],[109.8357,26.0324],[109.8096,26.0472],[109.8006,26.0382],[109.7813,25.9975],[109.7834,25.986],[109.8068,25.9728],[109.8056,25.9593],[109.8097,25.9459],[109.8192,25.9357],[109.8273,25.9172],[109.8257,25.9098],[109.8137,25.9025],[109.8103,25.88],[109.7904,25.8679],[109.7795,25.8676],[109.7591,25.8804],[109.7522,25.8723],[109.7326,25.8602],[109.7272,25.847],[109.718,25.8109],[109.719,25.8055],[109.7535,25.7894],[109.7623,25.7884],[109.7624,25.7778],[109.7768,25.7656],[109.7747,25.7554],[109.781,25.7474],[109.7984,25.7369],[109.7941,25.7219],[109.7851,25.7136],[109.7762,25.6953],[109.7777,25.6833],[109.7939,25.6787],[109.8098,25.6596],[109.8009,25.6551],[109.7988,25.646],[109.7856,25.64],[109.7784,25.6179],[109.7599,25.6173],[109.7511,25.6018],[109.735,25.587],[109.74,25.5783],[109.7384,25.5534],[109.7722,25.5371],[109.7797,25.5098],[109.7706,25.5043],[109.775,25.4928],[109.7889,25.4813],[109.7963,25.4831],[109.7991,25.4966],[109.8087,25.4902],[109.831,25.4885],[109.8498,25.5046],[109.8319,25.5188],[109.8261,25.5309],[109.8272,25.5443],[109.834,25.5535],[109.8469,25.559],[109.859,25.5722],[109.8624,25.5821],[109.8839,25.5808],[109.8951,25.5657],[109.923,25.5601],[109.9186,25.5692],[109.9233,25.5826],[109.9244,25.603],[109.9394,25.6216],[109.9311,25.6405],[109.9173,25.6499],[109.9159,25.6689],[109.9345,25.6767],[109.9452,25.6716],[109.9609,25.6805],[109.9692,25.6696],[109.9775,25.6818],[109.9928,25.6852],[110.0037,25.6732],[110.0132,25.6708],[110.0359,25.6736],[110.0501,25.6852],[110.0663,25.6732],[110.0867,25.6806],[110.1001,25.6749],[110.1098,25.6604]]]},"properties":{"region_code":"CN-45-4503-450328","parent_region_code":"CN-45-4503","name":"龙胜各族自治县","level":"county","has_children":false,"full_path":"中国 / 广西壮族自治区 / 桂林市 / 龙胜各族自治县","source_admin_code":"450328","osm_relation_id":2773819}},
{"type":"Feature","geometry":{"type":"Polygon","coordinates":[[[110.9167,26.2583],[110.92,26.266],[110.9092,26.2793],[110.8732,26.2742],[110.856,26.2735],[110.8383,26.2609],[110.7838,26.2618],[110.7768,26.2636],[110.7636,26.2534],[110.7505,26.2538],[110.7276,26.2727],[110.7408,26.2859],[110.7455,26.2971],[110.7369,26.3173],[110.7159,26.2974],[110.7062,26.2952],[110.6936,26.3115],[110.6767,26.3187],[110.6622,26.3189],[110.6487,26.313],[110.6305,26.314],[110.6212,26.319],[110.6188,26.3326],[110.6126,26.3375],[110.581,26.3049],[110.5647,26.2921],[110.5509,26.2894],[110.5377,26.2557],[110.5408,26.2324],[110.5381,26.2239],[110.5178,26.1996],[110.5129,26.1902],[110.491,26.1688],[110.4858,26.1688],[110.4807,26.1871],[110.4484,26.1683],[110.4216,26.146],[110.4191,26.1359],[110.3999,26.1201],[110.3873,26.1152],[110.3732,26.1035],[110.3688,26.0821],[110.362,26.0711],[110.3511,26.0625],[110.3567,26.0476],[110.3474,26.0362],[110.3428,26.0167],[110.3284,25.9945],[110.3279,25.9822],[110.3063,25.97],[110.2932,25.9716],[110.2808,25.9665],[110.2861,25.9508],[110.2983,25.945],[110.2861,25.9238],[110.2841,25.9143],[110.2909,25.8999],[110.3015,25.892],[110.3155,25.9037],[110.34,25.894],[110.351,25.8837],[110.3456,25.8659],[110.3552,25.8558],[110.3526,25.8438],[110.3582,25.8355],[110.3497,25.8149],[110.3368,25.8028],[110.3421,25.7938],[110.3348,25.7864],[110.3443,25.7701],[110.3582,25.7686],[110.3755,25.7936],[110.3884,25.8026],[110.3795,25.825],[110.3958,25.8432],[110.4026,25.863],[110.413,25.8649],[110.4244,25.8937],[110.4399,25.9022],[110.4501,25.9126],[110.4676,25.9156],[110.4681,25.9037],[110.4815,25.8931],[110.4804,25.8865],[110.495,25.8692],[110.516,25.8613],[110.5282,25.8505],[110.5314,25.8313],[110.5469,25.836],[110.5566,25.8294],[110.5671,25.8351],[110.596,25.8349],[110.6029,25.8228],[110.5968,25.7984],[110.5902,25.7848],[110.5895,25.7736],[110.6044,25.7768],[110.6112,25.7717],[110.6319,25.7871],[110.6413,25.8005],[110.637,25.8215],[110.6459,25.84],[110.6468,25.8585],[110.6638,25.87],[110.6674,25.8789],[110.6788,25.8847],[110.6918,25.9061],[110.7154,25.9212],[110.713,25.9451],[110.7246,25.9625],[110.7381,25.9609],[110.752,25.9768],[110.7482,25.994],[110.7368,25.9994],[110.736,26.0201],[110.7462,26.025],[110.7602,26.0401],[110.7682,26.0533],[110.7659,26.0583],[110.7788,26.0747],[110.7804,26.0869],[110.8172,26.124],[110.8192,26.1337],[110.8298,26.1373],[110.8469,26.1543],[110.8545,26.1733],[110.8626,26.1788],[110.8684,26.198],[110.8825,26.2057],[110.8785,26.2117],[110.8877,26.232],[110.9149,26.2524],[110.9167,26.2583]]]},"properties":{"region_code":"CN-45-4503-450329","parent_region_code":"CN-45-4503","name":"资源县","level":"county","has_children":false,"full_path":"中国 / 广西壮族自治区 / 桂林市 / 资源县","source_admin_code":"450329","osm_relation_id":2773825}},
{"type":"Feature","geometry":{"type":"Polygon","coordinates":[[[110.578,24.6424],[110.5779,24.6287],[110.5631,24.6115],[110.5684,24.6024],[110.5567,24.5883],[110.5675,24.5808],[110.555,24.5614],[110.5622,24.5537],[110.5721,24.5519],[110.5798,24.544],[110.5756,24.5305],[110.5788,24.4938],[110.59,24.4692],[110.5859,24.4481],[110.5979,24.4455],[110.6113,24.4499],[110.6309,24.4414],[110.6509,24.4393],[110.6538,24.4291],[110.6517,24.4117],[110.656,24.4029],[110.6516,24.385],[110.6518,24.3725],[110.6619,24.3754],[110.6899,24.3686],[110.6928,24.3446],[110.7121,24.3378],[110.7345,24.3262],[110.7389,24.3318],[110.7581,24.3327],[110.7674,24.3194],[110.7798,24.3172],[110.7945,24.3251],[110.7853,24.3486],[110.7853,24.3579],[110.7931,24.3636],[110.8082,24.3872],[110.8366,24.3974],[110.8516,24.3856],[110.8566,24.3493],[110.8564,24.3262],[110.8734,24.3162],[110.8708,24.2991],[110.8768,24.2945],[110.875,24.2781],[110.8818,24.2628],[110.9049,24.2895],[110.9065,24.3007],[110.9144,24.3123],[110.9287,24.3127],[110.9264,24.3224],[110.9388,24.3395],[110.9473,24.3332],[110.9549,24.3185],[110.9552,24.3017],[110.9723,24.2973],[110.982,24.3082],[111.0029,24.3174],[111.0073,24.3321],[111.0195,24.3348],[111.021,24.3491],[111.0122,24.3567],[110.9839,24.3587],[110.9675,24.3644],[110.957,24.3756],[110.9636,24.3795],[110.9776,24.3737],[110.988,24.3789],[110.9947,24.4024],[111.0007,24.4043],[111.0194,24.4261],[111.0126,24.4482],[111.0191,24.4536],[111.037,24.4546],[111.0331,24.479],[111.0241,24.4861],[111.0443,24.4954],[111.0372,24.5086],[111.0266,24.52],[111.0145,24.5272],[111.0111,24.5418],[111.0136,24.5515],[110.9899,24.5604],[110.9789,24.5869],[111.0031,24.6134],[110.9879,24.6172],[110.9876,24.6255],[110.9583,24.6163],[110.9478,24.6279],[110.9418,24.6417],[110.9261,24.6385],[110.9107,24.6407],[110.9005,24.6588],[110.8775,24.6741],[110.8738,24.6857],[110.8788,24.6949],[110.858,24.7132],[110.8466,24.7274],[110.8501,24.7352],[110.8344,24.7528],[110.8361,24.7679],[110.8205,24.7807],[110.8121,24.7663],[110.7886,24.7888],[110.7757,24.7902],[110.7806,24.8011],[110.7674,24.8077],[110.7721,24.8182],[110.7693,24.8321],[110.7754,24.8387],[110.7657,24.847],[110.7443,24.8425],[110.7411,24.8551],[110.7246,24.8609],[110.7114,24.8773],[110.6868,24.8886],[110.6755,24.897],[110.6735,24.8892],[110.6778,24.8689],[110.665,24.8715],[110.6552,24.864],[110.6525,24.8544],[110.6596,24.8359],[110.6494,24.8186],[110.6572,24.8037],[110.645,24.7959],[110.6596,24.7841],[110.6574,24.7713],[110.6329,24.7516],[110.6056,24.7529],[110.5982,24.7505],[110.5859,24.7302],[110.5856,24.7166],[110.5956,24.7098],[110.6008,24.6976],[110.6001,24.6786],[110.6045,24.6597],[110.5944,24.6463],[110.578,24.6424]]]},"properties":{"region_code":"CN-45-4503-450330","parent_region_code":"CN-45-4503","name":"平乐县","level":"county","has_children":false,"full_path":"中国 / 广西壮族自治区 / 桂林市 / 平乐县","source_admin_code":"450330","osm_relation_id":2773820}},
{"type":"Feature","geometry":{"type":"Polygon","coordinates":[[[110.6755,24.897],[110.6868,24.8886],[110.7114,24.8773],[110.7246,24.8609],[110.7411,24.8551],[110.7443,24.8425],[110.7657,24.847],[110.7754,24.8387],[110.7693,24.8321],[110.7721,24.8182],[110.7674,24.8077],[110.7806,24.8011],[110.7757,24.7902],[110.7886,24.7888],[110.8121,24.7663],[110.8205,24.7807],[110.8361,24.7679],[110.8344,24.7528],[110.8501,24.7352],[110.8466,24.7274],[110.858,24.7132],[110.8788,24.6949],[110.8738,24.6857],[110.8775,24.6741],[110.9005,24.6588],[110.9107,24.6407],[110.9261,24.6385],[110.9418,24.6417],[110.9478,24.6279],[110.9583,24.6163],[110.9876,24.6255],[111.0118,24.6447],[111.0187,24.669],[111.0233,24.676],[111.0389,24.6801],[111.0481,24.6752],[111.0597,24.6789],[111.0782,24.6974],[111.0851,24.7106],[111.102,24.7089],[111.099,24.7319],[111.109,24.7351],[111.126,24.7329],[111.1342,24.7492],[111.1463,24.7647],[111.1515,24.7771],[111.1654,24.7724],[111.1719,24.7771],[111.1676,24.7878],[111.17,24.8005],[111.1665,24.817],[111.1563,24.8308],[111.1648,24.8526],[111.1719,24.8818],[111.1631,24.9017],[111.146,24.9077],[111.1361,24.8998],[111.1215,24.8972],[111.1122,24.9019],[111.1094,24.9127],[111.1019,24.9189],[111.0904,24.9423],[111.0806,24.9455],[111.0407,24.9296],[111.0273,24.9344],[111.0144,24.9332],[111.0006,24.9232],[110.9825,24.9415],[110.9878,24.9612],[110.9791,24.9699],[110.9651,24.9704],[110.9622,24.9779],[110.9728,24.9888],[110.9548,25.0063],[110.9506,25.0174],[110.952,25.0346],[110.9462,25.0459],[110.9589,25.0725],[110.9583,25.0831],[110.9791,25.1041],[110.9725,25.1126],[110.9897,25.1502],[110.9974,25.154],[110.9958,25.1667],[111.019,25.1749],[111.0453,25.1887],[111.0634,25.1941],[111.0713,25.2001],[111.1073,25.219],[111.1119,25.2378],[111.1057,25.2534],[111.1058,25.2649],[111.0974,25.2874],[111.0849,25.2811],[111.0781,25.2691],[111.065,25.2707],[111.051,25.2624],[111.019,25.2576],[111.0084,25.2428],[110.9979,25.2447],[110.976,25.2366],[110.9622,25.2407],[110.9497,25.2361],[110.9389,25.2258],[110.9284,25.2225],[110.9172,25.2282],[110.9248,25.2439],[110.8763,25.2362],[110.8605,25.2211],[110.8524,25.2184],[110.846,25.208],[110.8457,25.195],[110.8317,25.1851],[110.7945,25.1833],[110.7829,25.2004],[110.7748,25.1969],[110.7614,25.1987],[110.7539,25.2092],[110.7301,25.2151],[110.7258,25.1988],[110.7283,25.1902],[110.7248,25.176],[110.7451,25.1664],[110.7629,25.1541],[110.764,25.1477],[110.785,25.1238],[110.767,25.1122],[110.7477,25.1224],[110.739,25.1213],[110.7182,25.1328],[110.7014,25.1229],[110.6723,25.125],[110.662,25.1327],[110.6439,25.1277],[110.6416,25.1133],[110.6471,25.1046],[110.6466,25.0934],[110.6403,25.0782],[110.6181,25.0802],[110.6115,25.0656],[110.6183,25.0451],[110.6309,25.0311],[110.6304,25.0078],[110.6384,25.0037],[110.6335,24.9895],[110.6445,24.9775],[110.6459,24.9487],[110.66,24.9397],[110.6669,24.9194],[110.6729,24.9151],[110.6755,24.897]]]},"properties":{"region_code":"CN-45-4503-450332","parent_region_code":"CN-45-4503","name":"恭城瑶族自治县","level":"county","has_children":false,"full_path":"中国 / 广西壮族自治区 / 桂林市 / 恭城瑶族自治县","source_admin_code":"450332","osm_relation_id":2773814}},
{"type":"Feature","geometry":{"type":"Polygon","coordinates":[[[110.2242,24.762],[110.1944,24.7567],[110.1843,24.7458],[110.1745,24.746],[110.1462,24.7317],[110.1429,24.6987],[110.1358,24.7005],[110.1279,24.6876],[110.1377,24.6641],[110.1344,24.6539],[110.1488,24.6439],[110.1617,24.6517],[110.1689,24.6477],[110.1714,24.6322],[110.1494,24.6274],[110.1542,24.6147],[110.1519,24.6049],[110.1602,24.5951],[110.1575,24.5816],[110.1677,24.551],[110.1483,24.535],[110.1273,24.5266],[110.1329,24.52],[110.1291,24.4832],[110.122,24.4705],[110.1119,24.4645],[110.1169,24.452],[110.1289,24.4505],[110.1456,24.442],[110.1556,24.4473],[110.1676,24.4409],[110.1819,24.4507],[110.1944,24.4437],[110.1918,24.4268],[110.199,24.4169],[110.1862,24.41],[110.2029,24.4002],[110.1896,24.3855],[110.1856,24.3743],[110.1976,24.3711],[110.1928,24.3567],[110.2058,24.3544],[110.2137,24.348],[110.2206,24.3612],[110.2296,24.3559],[110.2432,24.3557],[110.2553,24.3631],[110.2629,24.3608],[110.2635,24.3504],[110.2545,24.3415],[110.2538,24.3319],[110.266,24.3213],[110.2655,24.3118],[110.2841,24.3019],[110.2943,24.304],[110.3141,24.2982],[110.321,24.2929],[110.3377,24.3141],[110.3538,24.3188],[110.3605,24.3255],[110.386,24.3321],[110.4006,24.3283],[110.424,24.3414],[110.4309,24.3326],[110.4422,24.3305],[110.4492,24.3164],[110.4568,24.3165],[110.4719,24.337],[110.471,24.3475],[110.4589,24.3526],[110.4645,24.3621],[110.4896,24.3478],[110.4988,24.3516],[110.5325,24.3978],[110.5461,24.4067],[110.55,24.3877],[110.5469,24.3769],[110.5508,24.3685],[110.5679,24.3634],[110.5771,24.3669],[110.5888,24.4003],[110.6062,24.3974],[110.6111,24.401],[110.6348,24.3882],[110.6381,24.3764],[110.6531,24.3596],[110.6706,24.3548],[110.68,24.3451],[110.6928,24.3446],[110.6899,24.3686],[110.6619,24.3754],[110.6518,24.3725],[110.6516,24.385],[110.656,24.4029],[110.6517,24.4117],[110.6538,24.4291],[110.6509,24.4393],[110.6309,24.4414],[110.6113,24.4499],[110.5979,24.4455],[110.5859,24.4481],[110.59,24.4692],[110.5788,24.4938],[110.5756,24.5305],[110.5798,24.544],[110.5721,24.5519],[110.5622,24.5537],[110.555,24.5614],[110.5675,24.5808],[110.5567,24.5883],[110.5684,24.6024],[110.5631,24.6115],[110.5779,24.6287],[110.578,24.6424],[110.5676,24.6369],[110.5559,24.6452],[110.5242,24.6523],[110.5226,24.6632],[110.5155,24.6682],[110.5021,24.6634],[110.4727,24.6638],[110.4588,24.661],[110.4361,24.6731],[110.4104,24.6673],[110.393,24.6773],[110.3804,24.6785],[110.3763,24.6716],[110.3632,24.673],[110.3679,24.7032],[110.3618,24.7169],[110.3212,24.7306],[110.3083,24.7206],[110.2945,24.7267],[110.2923,24.7331],[110.2797,24.7364],[110.2703,24.7475],[110.2612,24.7446],[110.2567,24.7537],[110.2395,24.7506],[110.2242,24.762]]]},"properties":{"region_code":"CN-45-4503-450381","parent_region_code":"CN-45-4503","name":"荔浦市","level":"county","has_children":false,"full_path":"中国 / 广西壮族自治区 / 桂林市 / 荔浦市","source_admin_code":"450381","osm_relation_id":2773818}}
]}