{"type":"FeatureCollection", "features": [
{"type":"Feature","geometry":{"type":"Polygon","coordinates":[[[112.3864,34.7217],[112.39,34.7008],[112.4045,34.7006],[112.4042,34.7081],[112.4215,34.7077],[112.4234,34.6878],[112.4389,34.6868],[112.4516,34.6819],[112.4602,34.6682],[112.494,34.6708],[112.481,34.6807],[112.48,34.6923],[112.4719,34.6924],[112.4655,34.6982],[112.4802,34.7309],[112.4713,34.7382],[112.4557,34.743],[112.4411,34.7371],[112.4322,34.7431],[112.4112,34.752],[112.3872,34.7573],[112.3899,34.7453],[112.3843,34.7349],[112.3892,34.7239],[112.3864,34.7217]]]},"properties":{"region_code":"CN-41-4103-410302","parent_region_code":"CN-41-4103","name":"老城区","level":"county","has_children":false,"full_path":"中国 / 河南省 / 洛阳市 / 老城区","source_admin_code":"410302","osm_relation_id":3246481}},
{"type":"Feature","geometry":{"type":"Polygon","coordinates":[[[112.3864,34.7217],[112.373,34.7221],[112.3702,34.7343],[112.3588,34.7287],[112.3489,34.7267],[112.3475,34.7224],[112.3349,34.7199],[112.3171,34.7206],[112.3065,34.7321],[112.2952,34.7349],[112.2914,34.7296],[112.285,34.7332],[112.2826,34.7201],[112.2957,34.7164],[112.3038,34.7109],[112.3075,34.6939],[112.3144,34.6948],[112.3231,34.6911],[112.3291,34.6981],[112.3352,34.6888],[112.3409,34.694],[112.347,34.6857],[112.3522,34.6903],[112.3637,34.6882],[112.3707,34.6943],[112.3791,34.6861],[112.3902,34.6891],[112.3976,34.6864],[112.4079,34.6745],[112.4169,34.67],[112.412,34.6653],[112.4124,34.6485],[112.4214,34.6424],[112.4602,34.6682],[112.4516,34.6819],[112.4389,34.6868],[112.4234,34.6878],[112.4215,34.7077],[112.4042,34.7081],[112.4045,34.7006],[112.39,34.7008],[112.3864,34.7217]]]},"properties":{"region_code":"CN-41-4103-410303","parent_region_code":"CN-41-4103","name":"西工区","level":"county","has_children":false,"full_path":"中国 / 河南省 / 洛阳市 / 西工区","source_admin_code":"410303","osm_relation_id":3246487}},
{"type":"Feature","geometry":{"type":"Polygon","coordinates":[[[112.494,34.6708],[112.5027,34.6719],[112.5138,34.6802],[112.5265,34.6855],[112.5393,34.6878],[112.5449,34.6864],[112.5563,34.6905],[112.5573,34.6979],[112.5653,34.7002],[112.5683,34.7058],[112.578,34.7117],[112.5824,34.7102],[112.6268,34.708],[112.6416,34.7054],[112.6396,34.716],[112.6415,34.7295],[112.6398,34.7324],[112.6382,34.7509],[112.6406,34.7514],[112.6274,34.7579],[112.6222,34.7516],[112.6122,34.755],[112.6109,34.7626],[112.6,34.7636],[112.5996,34.7532],[112.5962,34.7325],[112.5891,34.7245],[112.5785,34.7239],[112.5688,34.7274],[112.5701,34.7339],[112.5659,34.7379],[112.5629,34.7488],[112.5534,34.7438],[112.5328,34.726],[112.5256,34.7367],[112.5163,34.7389],[112.4943,34.7412],[112.4802,34.7309],[112.4655,34.6982],[112.4719,34.6924],[112.48,34.6923],[112.481,34.6807],[112.494,34.6708]]]},"properties":{"region_code":"CN-41-4103-410304","parent_region_code":"CN-41-4103","name":"瀍河回族区","level":"county","has_children":false,"full_path":"中国 / 河南省 / 洛阳市 / 瀍河回族区","source_admin_code":"410304","osm_relation_id":3246478}},
{"type":"Feature","geometry":{"type":"Polygon","coordinates":[[[112.3075,34.6939],[112.3103,34.6808],[112.308,34.669],[112.3008,34.6619],[112.2905,34.6574],[112.295,34.6504],[112.2948,34.6443],[112.2807,34.6381],[112.2816,34.6342],[112.2731,34.6301],[112.2647,34.6232],[112.2708,34.6091],[112.2671,34.6015],[112.2654,34.5875],[112.2616,34.5831],[112.2618,34.5652],[112.2701,34.5569],[112.2745,34.5474],[112.2861,34.5468],[112.2937,34.5494],[112.3001,34.5586],[112.3245,34.5695],[112.3326,34.5712],[112.3519,34.587],[112.3628,34.5942],[112.3997,34.6154],[112.4065,34.6225],[112.4214,34.6424],[112.4124,34.6485],[112.412,34.6653],[112.4169,34.67],[112.4079,34.6745],[112.3976,34.6864],[112.3902,34.6891],[112.3791,34.6861],[112.3707,34.6943],[112.3637,34.6882],[112.3522,34.6903],[112.347,34.6857],[112.3409,34.694],[112.3352,34.6888],[112.3291,34.6981],[112.3231,34.6911],[112.3144,34.6948],[112.3075,34.6939]]]},"properties":{"region_code":"CN-41-4103-410305","parent_region_code":"CN-41-4103","name":"涧西区","level":"county","has_children":false,"full_path":"中国 / 河南省 / 洛阳市 / 涧西区","source_admin_code":"410305","osm_relation_id":3246479}},
{"type":"Feature","geometry":{"type":"Polygon","coordinates":[[[112.6416,34.7054],[112.655,34.7062],[112.6522,34.6874],[112.6378,34.6791],[112.6354,34.6647],[112.6556,34.6626],[112.6594,34.6567],[112.6676,34.656],[112.6711,34.6463],[112.6813,34.6449],[112.6869,34.6365],[112.6846,34.6304],[112.6713,34.6295],[112.673,34.6123],[112.6585,34.6068],[112.659,34.6016],[112.6728,34.5996],[112.6772,34.5915],[112.6688,34.5916],[112.6625,34.572],[112.6648,34.5641],[112.6636,34.5532],[112.6737,34.5427],[112.6804,34.5407],[112.6803,34.5316],[112.6868,34.5262],[112.6878,34.5181],[112.6935,34.5082],[112.6927,34.4956],[112.7076,34.489],[112.7229,34.4881],[112.7305,34.4928],[112.738,34.4915],[112.7625,34.4965],[112.7681,34.5021],[112.785,34.4916],[112.7904,34.4899],[112.8021,34.4808],[112.8337,34.4788],[112.85,34.4804],[112.8592,34.4746],[112.8864,34.4777],[112.8991,34.469],[112.9163,34.4792],[112.9133,34.4823],[112.916,34.4953],[112.9208,34.5026],[112.9187,34.5108],[112.9216,34.5164],[112.9223,34.5275],[112.9457,34.5335],[112.9519,34.5305],[112.9706,34.5327],[112.9741,34.5356],[112.9629,34.5461],[112.9511,34.5471],[112.9342,34.5451],[112.9254,34.5503],[112.9174,34.5471],[112.9007,34.5466],[112.886,34.5496],[112.87,34.5604],[112.8682,34.5722],[112.8638,34.5742],[112.8529,34.5899],[112.8423,34.5876],[112.8335,34.5946],[112.8329,34.605],[112.8448,34.6108],[112.8472,34.6171],[112.8392,34.6247],[112.8187,34.6264],[112.8294,34.6317],[112.8375,34.6304],[112.8386,34.6403],[112.8351,34.6476],[112.8268,34.654],[112.8293,34.669],[112.8207,34.6738],[112.8198,34.6937],[112.824,34.6965],[112.8403,34.7006],[112.8546,34.7081],[112.8646,34.7092],[112.8737,34.7062],[112.8875,34.6963],[112.8961,34.6949],[112.9058,34.7039],[112.9106,34.713],[112.9256,34.7134],[112.9327,34.7245],[112.9217,34.7286],[112.9046,34.738],[112.902,34.7545],[112.9061,34.7622],[112.9065,34.771],[112.8946,34.7722],[112.8897,34.784],[112.8804,34.7854],[112.876,34.7781],[112.8667,34.7837],[112.8608,34.7816],[112.8443,34.7856],[112.8397,34.777],[112.8337,34.7726],[112.8245,34.7714],[112.8213,34.7768],[112.8134,34.7766],[112.8057,34.7822],[112.8048,34.7998],[112.7873,34.7859],[112.7869,34.781],[112.7786,34.7707],[112.7654,34.7673],[112.7624,34.7734],[112.7543,34.7774],[112.7396,34.7803],[112.741,34.7857],[112.7325,34.7965],[112.7205,34.7999],[112.698,34.7984],[112.6871,34.8046],[112.6704,34.8026],[112.6605,34.8038],[112.6461,34.799],[112.6523,34.7862],[112.65,34.7754],[112.6605,34.772],[112.6625,34.7577],[112.6595,34.7506],[112.6406,34.7514],[112.6382,34.7509],[112.6398,34.7324],[112.6415,34.7295],[112.6396,34.716],[112.6416,34.7054]]]},"properties":{"region_code":"CN-41-4103-410307","parent_region_code":"CN-41-4103","name":"偃师区","level":"county","has_children":false,"full_path":"中国 / 河南省 / 洛阳市 / 偃师区","source_admin_code":"410307","osm_relation_id":3246488}},
{"type":"Feature","geometry":{"type":"Polygon","coordinates":[[[112.4802,34.7309],[112.4943,34.7412],[112.5163,34.7389],[112.5256,34.7367],[112.5328,34.726],[112.5534,34.7438],[112.5629,34.7488],[112.5659,34.7379],[112.5701,34.7339],[112.5688,34.7274],[112.5785,34.7239],[112.5891,34.7245],[112.5962,34.7325],[112.5996,34.7532],[112.6,34.7636],[112.6109,34.7626],[112.6122,34.755],[112.6222,34.7516],[112.6274,34.7579],[112.6406,34.7514],[112.6595,34.7506],[112.6625,34.7577],[112.6605,34.772],[112.65,34.7754],[112.6523,34.7862],[112.6461,34.799],[112.6605,34.8038],[112.6704,34.8026],[112.6871,34.8046],[112.698,34.7984],[112.7205,34.7999],[112.7325,34.7965],[112.741,34.7857],[112.7396,34.7803],[112.7543,34.7774],[112.7624,34.7734],[112.7654,34.7673],[112.7786,34.7707],[112.7869,34.781],[112.7873,34.7859],[112.8048,34.7998],[112.8085,34.8101],[112.8072,34.8327],[112.7995,34.835],[112.7693,34.824],[112.7425,34.8163],[112.7157,34.8214],[112.7041,34.8298],[112.7038,34.8357],[112.6956,34.8412],[112.6761,34.8488],[112.6603,34.8464],[112.6472,34.8543],[112.6332,34.8562],[112.6344,34.8694],[112.6339,34.888],[112.6433,34.8888],[112.6421,34.9007],[112.6339,34.8983],[112.628,34.9041],[112.6324,34.917],[112.6282,34.9273],[112.6234,34.9272],[112.6132,34.9193],[112.6004,34.9218],[112.5952,34.9266],[112.5803,34.9244],[112.5729,34.9323],[112.5759,34.942],[112.5665,34.9441],[112.5628,34.9535],[112.5562,34.9536],[112.5438,34.9421],[112.5357,34.9435],[112.5324,34.9318],[112.5275,34.9308],[112.5187,34.9356],[112.5156,34.9446],[112.506,34.9413],[112.4981,34.9428],[112.4932,34.9255],[112.5045,34.9206],[112.5087,34.9307],[112.5227,34.9311],[112.5218,34.9244],[112.5298,34.9194],[112.5255,34.8989],[112.5144,34.8951],[112.4997,34.8987],[112.4882,34.9071],[112.4733,34.9096],[112.4606,34.9161],[112.4491,34.9193],[112.4358,34.9195],[112.421,34.922],[112.4212,34.9137],[112.397,34.9135],[112.3855,34.9158],[112.3769,34.9235],[112.3696,34.9235],[112.3587,34.9281],[112.3424,34.9403],[112.3269,34.9449],[112.304,34.9353],[112.2922,34.9474],[112.2814,34.9618],[112.2686,34.9618],[112.2631,34.9566],[112.2598,34.9455],[112.2471,34.9348],[112.2374,34.9238],[112.2477,34.9132],[112.2401,34.9093],[112.232,34.9113],[112.2221,34.899],[112.2102,34.8925],[112.21,34.8814],[112.2222,34.877],[112.2299,34.8697],[112.2409,34.87],[112.2656,34.8607],[112.2721,34.8531],[112.2846,34.8504],[112.3023,34.8358],[112.2952,34.8264],[112.2933,34.8168],[112.3095,34.8004],[112.319,34.7933],[112.3107,34.7812],[112.301,34.7705],[112.2934,34.7714],[112.2888,34.78],[112.2784,34.78],[112.2727,34.7878],[112.2647,34.7812],[112.2669,34.7742],[112.2836,34.7615],[112.2928,34.7593],[112.301,34.7507],[112.2952,34.7349],[112.3065,34.7321],[112.3171,34.7206],[112.3349,34.7199],[112.3475,34.7224],[112.3489,34.7267],[112.3588,34.7287],[112.3702,34.7343],[112.373,34.7221],[112.3864,34.7217],[112.3892,34.7239],[112.3843,34.7349],[112.3899,34.7453],[112.3872,34.7573],[112.4112,34.752],[112.4322,34.7431],[112.4411,34.7371],[112.4557,34.743],[112.4713,34.7382],[112.4802,34.7309]]]},"properties":{"region_code":"CN-41-4103-410308","parent_region_code":"CN-41-4103","name":"孟津区","level":"county","has_children":false,"full_path":"中国 / 河南省 / 洛阳市 / 孟津区","source_admin_code":"410308","osm_relation_id":3246484}},
{"type":"Feature","geometry":{"type":"Polygon","coordinates":[[[112.4602,34.6682],[112.4214,34.6424],[112.4065,34.6225],[112.3997,34.6154],[112.3628,34.5942],[112.3519,34.587],[112.3326,34.5712],[112.3245,34.5695],[112.3253,34.5617],[112.3223,34.5486],[112.334,34.5494],[112.3381,34.5429],[112.3438,34.5434],[112.3483,34.525],[112.3703,34.5191],[112.3909,34.5211],[112.396,34.5248],[112.3966,34.5334],[112.4027,34.5392],[112.4167,34.5448],[112.431,34.5414],[112.4283,34.5367],[112.4277,34.522],[112.4634,34.5199],[112.4703,34.5164],[112.4819,34.5156],[112.4894,34.5106],[112.5172,34.5065],[112.5205,34.5161],[112.5339,34.5194],[112.5461,34.5169],[112.5627,34.5185],[112.5776,34.5222],[112.5823,34.5176],[112.5958,34.5131],[112.6086,34.5133],[112.6298,34.509],[112.6392,34.502],[112.6481,34.499],[112.6496,34.4904],[112.655,34.4857],[112.686,34.4951],[112.6927,34.4956],[112.6935,34.5082],[112.6878,34.5181],[112.6868,34.5262],[112.6803,34.5316],[112.6804,34.5407],[112.6737,34.5427],[112.6636,34.5532],[112.6648,34.5641],[112.6625,34.572],[112.6688,34.5916],[112.6772,34.5915],[112.6728,34.5996],[112.659,34.6016],[112.6585,34.6068],[112.673,34.6123],[112.6713,34.6295],[112.6846,34.6304],[112.6869,34.6365],[112.6813,34.6449],[112.6711,34.6463],[112.6676,34.656],[112.6594,34.6567],[112.6556,34.6626],[112.6354,34.6647],[112.6378,34.6791],[112.6522,34.6874],[112.655,34.7062],[112.6416,34.7054],[112.6268,34.708],[112.5824,34.7102],[112.578,34.7117],[112.5683,34.7058],[112.5653,34.7002],[112.5573,34.6979],[112.5563,34.6905],[112.5449,34.6864],[112.5393,34.6878],[112.5265,34.6855],[112.5138,34.6802],[112.5027,34.6719],[112.494,34.6708],[112.4602,34.6682]]]},"properties":{"region_code":"CN-41-4103-410311","parent_region_code":"CN-41-4103","name":"洛龙区","level":"county","has_children":false,"full_path":"中国 / 河南省 / 洛阳市 / 洛龙区","source_admin_code":"410311","osm_relation_id":3246482}},
{"type":"Feature","geometry":{"type":"Polygon","coordinates":[[[112.2952,34.7349],[112.301,34.7507],[112.2928,34.7593],[112.2836,34.7615],[112.2669,34.7742],[112.2647,34.7812],[112.2727,34.7878],[112.2784,34.78],[112.2888,34.78],[112.2934,34.7714],[112.301,34.7705],[112.3107,34.7812],[112.319,34.7933],[112.3095,34.8004],[112.2933,34.8168],[112.2952,34.8264],[112.3023,34.8358],[112.2846,34.8504],[112.2721,34.8531],[112.2656,34.8607],[112.2409,34.87],[112.2299,34.8697],[112.2222,34.877],[112.21,34.8814],[112.2102,34.8925],[112.2221,34.899],[112.232,34.9113],[112.2401,34.9093],[112.2477,34.9132],[112.2374,34.9238],[112.2471,34.9348],[112.2598,34.9455],[112.2442,34.9475],[112.2364,34.9532],[112.2226,34.9553],[112.2146,34.9643],[112.2053,34.9694],[112.1794,34.9759],[112.1662,35.0036],[112.1523,35.0125],[112.1254,35.0204],[112.0991,35.0302],[112.0589,35.0279],[112.0405,35.0308],[112.0307,35.0353],[112.029,35.0543],[112.0153,35.0632],[112.0079,35.0715],[111.996,35.0667],[111.9678,35.0705],[111.9569,35.07],[111.9533,35.0661],[111.9504,35.0497],[111.9464,35.0441],[111.9303,35.0418],[111.9279,35.0345],[111.9348,35.0329],[111.9432,35.0231],[111.956,35.0142],[111.9697,35.0096],[111.979,35.0028],[111.9695,34.9925],[111.956,34.9889],[111.9499,34.9827],[111.9556,34.9774],[111.9737,34.9719],[111.9758,34.9614],[111.971,34.9556],[111.9529,34.9497],[111.9418,34.9482],[111.9275,34.9488],[111.9181,34.9343],[111.9038,34.9314],[111.8832,34.9219],[111.8743,34.9094],[111.8793,34.904],[111.8762,34.8983],[111.8929,34.8913],[111.8978,34.8857],[111.914,34.8861],[111.9256,34.8766],[111.9349,34.8725],[111.9446,34.8633],[111.9422,34.8508],[111.9542,34.8518],[111.9732,34.858],[111.9846,34.8584],[111.9841,34.8512],[111.977,34.8475],[111.9817,34.8388],[111.9893,34.8366],[111.9908,34.8309],[112.0129,34.8146],[112.0151,34.8091],[112.0083,34.801],[112.0123,34.7956],[112.0216,34.7924],[112.0253,34.7875],[112.0255,34.7762],[112.0193,34.7753],[112.0124,34.7683],[112.0095,34.7489],[112.0005,34.7496],[111.9944,34.7464],[111.9886,34.7386],[112.0061,34.733],[112.0095,34.7253],[111.9992,34.7205],[111.9893,34.7085],[111.9894,34.6983],[111.9963,34.6932],[112.0184,34.6832],[112.0282,34.6749],[112.0351,34.6795],[112.0493,34.6793],[112.0553,34.6745],[112.0632,34.6768],[112.0668,34.6733],[112.0683,34.6618],[112.0738,34.6571],[112.0668,34.6484],[112.0723,34.6444],[112.0834,34.6462],[112.0897,34.6395],[112.1082,34.6398],[112.1221,34.617],[112.1339,34.6078],[112.1359,34.6028],[112.155,34.6058],[112.1552,34.62],[112.1624,34.622],[112.1738,34.6191],[112.1787,34.6231],[112.189,34.6233],[112.2014,34.6281],[112.2049,34.6324],[112.2176,34.6326],[112.2366,34.6291],[112.2487,34.6304],[112.2659,34.6281],[112.2731,34.6301],[112.2816,34.6342],[112.2807,34.6381],[112.2948,34.6443],[112.295,34.6504],[112.2905,34.6574],[112.3008,34.6619],[112.308,34.669],[112.3103,34.6808],[112.3075,34.6939],[112.3038,34.7109],[112.2957,34.7164],[112.2826,34.7201],[112.285,34.7332],[112.2914,34.7296],[112.2952,34.7349]]]},"properties":{"region_code":"CN-41-4103-410323","parent_region_code":"CN-41-4103","name":"新安县","level":"county","has_children":false,"full_path":"中国 / 河南省 / 洛阳市 / 新安县","source_admin_code":"410323","osm_relation_id":2993026}},
{"type":"Feature","geometry":{"type":"Polygon","coordinates":[[[111.7042,34.185],[111.6977,34.183],[111.6918,34.1733],[111.6767,34.1728],[111.6716,34.1634],[111.6592,34.1587],[111.6586,34.1546],[111.6485,34.1453],[111.6198,34.1537],[111.6067,34.1493],[111.6007,34.1501],[111.5861,34.1593],[111.5771,34.1632],[111.574,34.1571],[111.5674,34.157],[111.5587,34.1465],[111.5431,34.1388],[111.5311,34.138],[111.5194,34.1337],[111.4985,34.1332],[111.4904,34.1398],[111.4786,34.1373],[111.4689,34.1375],[111.4565,34.1305],[111.4337,34.131],[111.4336,34.1154],[111.4279,34.1087],[111.4122,34.1035],[111.4025,34.104],[111.3999,34.1006],[111.3827,34.0944],[111.3736,34.0956],[111.3631,34.0924],[111.3524,34.0887],[111.3458,34.0836],[111.3414,34.074],[111.3416,34.0666],[111.3355,34.0621],[111.3371,34.0366],[111.3408,34.0277],[111.3459,34.0266],[111.3481,34.0115],[111.3465,33.9948],[111.3526,33.9899],[111.3462,33.9846],[111.342,33.9763],[111.3341,33.9715],[111.3232,33.9685],[111.3134,33.9573],[111.3058,33.9536],[111.2986,33.9414],[111.2981,33.9304],[111.2789,33.927],[111.2782,33.9339],[111.2681,33.9365],[111.2567,33.9287],[111.2443,33.9349],[111.2294,33.9335],[111.2206,33.9268],[111.2198,33.9125],[111.227,33.9053],[111.2304,33.8978],[111.2207,33.8908],[111.2068,33.8909],[111.2032,33.8795],[111.2131,33.874],[111.2104,33.8641],[111.2257,33.8576],[111.2326,33.8497],[111.2327,33.8439],[111.2405,33.8351],[111.255,33.8263],[111.2534,33.8224],[111.2555,33.8091],[111.2537,33.7965],[111.2598,33.7844],[111.2754,33.7822],[111.2889,33.7769],[111.2961,33.7771],[111.3072,33.7661],[111.3142,33.764],[111.328,33.77],[111.3413,33.7646],[111.3443,33.7668],[111.3781,33.768],[111.3865,33.7629],[111.3996,33.7582],[111.4115,33.7517],[111.4228,33.7532],[111.4331,33.7476],[111.4425,33.74],[111.4542,33.7363],[111.465,33.7371],[111.4768,33.7272],[111.4911,33.7225],[111.5026,33.7328],[111.5028,33.7374],[111.5166,33.7385],[111.5204,33.7343],[111.5289,33.7391],[111.5359,33.7306],[111.5584,33.7291],[111.5802,33.725],[111.5874,33.7213],[111.6025,33.724],[111.6179,33.7247],[111.6307,33.7177],[111.6389,33.7178],[111.6489,33.7111],[111.6546,33.7009],[111.6532,33.6955],[111.6604,33.6883],[111.6707,33.689],[111.6814,33.681],[111.6961,33.6811],[111.7083,33.6873],[111.724,33.6793],[111.7344,33.6762],[111.7408,33.6786],[111.75,33.6712],[111.7623,33.671],[111.7648,33.6684],[111.7837,33.6637],[111.7909,33.6564],[111.799,33.656],[111.8059,33.6667],[111.8245,33.6802],[111.8345,33.6857],[111.8368,33.6986],[111.8421,33.7004],[111.8466,33.7074],[111.8574,33.7169],[111.8558,33.7279],[111.8436,33.7381],[111.8434,33.745],[111.8316,33.7521],[111.8386,33.7634],[111.8541,33.7687],[111.863,33.7828],[111.8707,33.7853],[111.8859,33.7853],[111.8852,33.782],[111.8999,33.7722],[111.9112,33.771],[111.9153,33.767],[111.9249,33.7721],[111.9363,33.7752],[111.9477,33.7747],[111.9548,33.7713],[111.9623,33.7773],[111.9631,33.7823],[111.971,33.7881],[111.9681,33.7952],[111.9734,33.804],[111.9696,33.8143],[111.9707,33.8239],[111.9812,33.8334],[112.0063,33.8471],[112.0139,33.8467],[112.0315,33.8552],[112.0285,33.8647],[112.0323,33.8735],[112.0298,33.878],[112.0189,33.8836],[112.0162,33.8904],[112.0062,33.89],[111.9986,33.8992],[111.99,33.9003],[111.9814,33.9105],[111.9762,33.9114],[111.9689,33.9188],[111.9641,33.9285],[111.9488,33.9252],[111.9424,33.9305],[111.9274,33.9293],[111.9203,33.9376],[111.9024,33.9462],[111.8898,33.9491],[111.8793,33.9483],[111.8618,33.9418],[111.8571,33.9357],[111.8457,33.9327],[111.836,33.9349],[111.8363,33.9288],[111.8284,33.929],[111.8307,33.9393],[111.8261,33.9428],[111.8094,33.9392],[111.8054,33.932],[111.7965,33.9349],[111.7885,33.9415],[111.7969,33.9475],[111.7964,33.9539],[111.8031,33.9578],[111.8079,33.9654],[111.8068,33.9705],[111.812,33.9831],[111.8051,33.9914],[111.7909,33.994],[111.7878,34],[111.794,34.0093],[111.7834,34.0271],[111.7849,34.0471],[111.7811,34.0503],[111.7799,34.0645],[111.7697,34.0799],[111.7601,34.0882],[111.7592,34.0921],[111.7454,34.1012],[111.7372,34.1152],[111.7388,34.1265],[111.7335,34.1359],[111.735,34.1404],[111.7254,34.1441],[111.7288,34.1554],[111.7275,34.1629],[111.7222,34.1685],[111.7172,34.1809],[111.7042,34.185]]]},"properties":{"region_code":"CN-41-4103-410324","parent_region_code":"CN-41-4103","name":"栾川县","level":"county","has_children":false,"full_path":"中国 / 河南省 / 洛阳市 / 栾川县","source_admin_code":"410324","osm_relation_id":2992168}},
{"type":"Feature","geometry":{"type":"Polygon","coordinates":[[[111.799,33.656],[111.8048,33.6485],[111.8259,33.6413],[111.8259,33.6326],[111.8217,33.6156],[111.8216,33.5935],[111.8262,33.5913],[111.8375,33.5952],[111.85,33.5934],[111.8729,33.5927],[111.8853,33.5873],[111.8952,33.586],[111.9022,33.5822],[111.9029,33.577],[111.9133,33.5638],[111.9264,33.5749],[111.9338,33.5735],[111.9568,33.5742],[111.9804,33.5876],[112.0087,33.5869],[112.0222,33.5952],[112.0176,33.6016],[112.0121,33.5952],[112.0038,33.5987],[112.0026,33.6094],[112.0054,33.6179],[112.0232,33.6209],[112.0455,33.6124],[112.0531,33.6057],[112.0564,33.61],[112.0696,33.6087],[112.0787,33.6028],[112.0862,33.6065],[112.0881,33.6126],[112.0839,33.6166],[112.0785,33.6282],[112.0661,33.6413],[112.0731,33.6474],[112.0711,33.6542],[112.1076,33.6555],[112.1159,33.6529],[112.1207,33.6601],[112.1167,33.6679],[112.1169,33.6789],[112.1238,33.6903],[112.1247,33.697],[112.133,33.7009],[112.1392,33.7115],[112.1516,33.7165],[112.1554,33.7205],[112.1712,33.7214],[112.1741,33.7055],[112.1733,33.6996],[112.1868,33.7026],[112.1985,33.698],[112.2092,33.6985],[112.2125,33.7041],[112.2237,33.7099],[112.2232,33.7163],[112.2349,33.717],[112.2433,33.7205],[112.2419,33.7297],[112.2556,33.7395],[112.2591,33.7662],[112.261,33.7688],[112.2508,33.7766],[112.2528,33.7838],[112.2593,33.785],[112.2704,33.7916],[112.2655,33.7996],[112.2741,33.8053],[112.2768,33.8104],[112.271,33.8147],[112.2738,33.8255],[112.2656,33.8265],[112.2458,33.8182],[112.2297,33.8215],[112.2203,33.8182],[112.2103,33.8247],[112.2052,33.8371],[112.2129,33.8417],[112.2057,33.8504],[112.2077,33.8613],[112.198,33.8704],[112.203,33.8742],[112.2053,33.8893],[112.201,33.8933],[112.2057,33.8983],[112.2094,33.9115],[112.2051,33.9191],[112.2031,33.9364],[112.2076,33.9433],[112.205,33.9543],[112.2148,33.9591],[112.2293,33.974],[112.2356,33.9732],[112.2414,33.9778],[112.2419,33.9853],[112.2626,33.9918],[112.2619,34.0009],[112.2715,34.0124],[112.27,34.0188],[112.2833,34.0267],[112.3014,34.0254],[112.3112,34.0195],[112.3143,34.0143],[112.3236,34.0149],[112.3298,34.0233],[112.343,34.0284],[112.3391,34.0398],[112.3227,34.0408],[112.3214,34.0449],[112.3317,34.0606],[112.3173,34.0718],[112.3135,34.086],[112.3091,34.0919],[112.3101,34.0989],[112.302,34.1062],[112.3028,34.1157],[112.3195,34.1228],[112.3294,34.1329],[112.3338,34.1465],[112.3485,34.146],[112.3385,34.1693],[112.3368,34.1763],[112.3416,34.1908],[112.3459,34.1953],[112.3548,34.1941],[112.3668,34.1989],[112.3711,34.2042],[112.3645,34.2141],[112.3602,34.2191],[112.3491,34.222],[112.3476,34.227],[112.323,34.2337],[112.3099,34.2333],[112.2931,34.2362],[112.2738,34.2365],[112.2656,34.2353],[112.2412,34.2388],[112.2338,34.2553],[112.2417,34.2656],[112.2461,34.2658],[112.2603,34.2776],[112.265,34.2785],[112.2752,34.2945],[112.2661,34.3016],[112.2584,34.3105],[112.2356,34.3034],[112.2179,34.3041],[112.2015,34.309],[112.1758,34.3171],[112.1689,34.315],[112.134,34.322],[112.1262,34.3098],[112.1207,34.3132],[112.1176,34.3234],[112.1042,34.3168],[112.0923,34.3136],[112.0852,34.3009],[112.0587,34.3165],[112.0511,34.3287],[112.0447,34.3292],[112.0314,34.3398],[112.0234,34.3416],[112,34.3311],[111.9945,34.3319],[111.965,34.3217],[111.9406,34.3112],[111.9299,34.3111],[111.9192,34.3081],[111.9176,34.2986],[111.9063,34.29],[111.8931,34.286],[111.886,34.2783],[111.8755,34.2782],[111.8638,34.2821],[111.8544,34.2828],[111.8465,34.2932],[111.8402,34.2933],[111.8156,34.2717],[111.8109,34.2585],[111.8059,34.2519],[111.7968,34.2501],[111.792,34.2449],[111.7597,34.2512],[111.756,34.2473],[111.7534,34.2334],[111.7408,34.2305],[111.7334,34.2244],[111.7317,34.2171],[111.7213,34.2126],[111.7135,34.2123],[111.7042,34.185],[111.7172,34.1809],[111.7222,34.1685],[111.7275,34.1629],[111.7288,34.1554],[111.7254,34.1441],[111.735,34.1404],[111.7335,34.1359],[111.7388,34.1265],[111.7372,34.1152],[111.7454,34.1012],[111.7592,34.0921],[111.7601,34.0882],[111.7697,34.0799],[111.7799,34.0645],[111.7811,34.0503],[111.7849,34.0471],[111.7834,34.0271],[111.794,34.0093],[111.7878,34],[111.7909,33.994],[111.8051,33.9914],[111.812,33.9831],[111.8068,33.9705],[111.8079,33.9654],[111.8031,33.9578],[111.7964,33.9539],[111.7969,33.9475],[111.7885,33.9415],[111.7965,33.9349],[111.8054,33.932],[111.8094,33.9392],[111.8261,33.9428],[111.8307,33.9393],[111.8284,33.929],[111.8363,33.9288],[111.836,33.9349],[111.8457,33.9327],[111.8571,33.9357],[111.8618,33.9418],[111.8793,33.9483],[111.8898,33.9491],[111.9024,33.9462],[111.9203,33.9376],[111.9274,33.9293],[111.9424,33.9305],[111.9488,33.9252],[111.9641,33.9285],[111.9689,33.9188],[111.9762,33.9114],[111.9814,33.9105],[111.99,33.9003],[111.9986,33.8992],[112.0062,33.89],[112.0162,33.8904],[112.0189,33.8836],[112.0298,33.878],[112.0323,33.8735],[112.0285,33.8647],[112.0315,33.8552],[112.0139,33.8467],[112.0063,33.8471],[111.9812,33.8334],[111.9707,33.8239],[111.9696,33.8143],[111.9734,33.804],[111.9681,33.7952],[111.971,33.7881],[111.9631,33.7823],[111.9623,33.7773],[111.9548,33.7713],[111.9477,33.7747],[111.9363,33.7752],[111.9249,33.7721],[111.9153,33.767],[111.9112,33.771],[111.8999,33.7722],[111.8852,33.782],[111.8859,33.7853],[111.8707,33.7853],[111.863,33.7828],[111.8541,33.7687],[111.8386,33.7634],[111.8316,33.7521],[111.8434,33.745],[111.8436,33.7381],[111.8558,33.7279],[111.8574,33.7169],[111.8466,33.7074],[111.8421,33.7004],[111.8368,33.6986],[111.8345,33.6857],[111.8245,33.6802],[111.8059,33.6667],[111.799,33.656]]]},"properties":{"region_code":"CN-41-4103-410325","parent_region_code":"CN-41-4103","name":"嵩县","level":"county","has_children":false,"full_path":"中国 / 河南省 / 洛阳市 / 嵩县","source_admin_code":"410325","osm_relation_id":3246486}},
{"type":"Feature","geometry":{"type":"Polygon","coordinates":[[[112.2768,33.8104],[112.2851,33.8064],[112.2935,33.8069],[112.3002,33.813],[112.2985,33.8179],[112.3093,33.8243],[112.3339,33.8258],[112.3346,33.8317],[112.3486,33.8325],[112.3505,33.8372],[112.3594,33.8348],[112.3743,33.8278],[112.3835,33.8298],[112.3917,33.8207],[112.3952,33.8115],[112.4066,33.8091],[112.4245,33.8138],[112.4269,33.8208],[112.4395,33.8311],[112.4511,33.8486],[112.4679,33.8537],[112.4738,33.8589],[112.4857,33.8557],[112.4948,33.8591],[112.5051,33.8584],[112.5182,33.865],[112.5179,33.8711],[112.5244,33.8739],[112.526,33.8819],[112.534,33.8872],[112.5358,33.8971],[112.5333,33.9016],[112.5148,33.9044],[112.5056,33.9148],[112.4888,33.9187],[112.4906,33.932],[112.5044,33.9352],[112.5236,33.9433],[112.523,33.955],[112.5296,33.9619],[112.5397,33.981],[112.5438,33.9834],[112.5424,33.9912],[112.5377,33.9961],[112.5459,34.0021],[112.558,34.0013],[112.56,34.0061],[112.5427,34.0208],[112.5366,34.0181],[112.5284,34.023],[112.5331,34.0282],[112.5414,34.0315],[112.5474,34.0302],[112.5571,34.0391],[112.5699,34.0399],[112.5734,34.0561],[112.5723,34.0618],[112.5854,34.0672],[112.5879,34.0626],[112.5979,34.0652],[112.6006,34.0744],[112.595,34.0877],[112.6006,34.1051],[112.6061,34.1101],[112.6059,34.1192],[112.6143,34.1312],[112.6165,34.144],[112.6058,34.1597],[112.5987,34.1643],[112.5898,34.1651],[112.5835,34.1877],[112.5767,34.1935],[112.5749,34.2004],[112.5647,34.2071],[112.5619,34.2121],[112.5523,34.212],[112.5504,34.2185],[112.5619,34.2347],[112.5667,34.2444],[112.5737,34.2508],[112.56,34.2583],[112.5547,34.2588],[112.54,34.2715],[112.5499,34.2847],[112.5653,34.2904],[112.5752,34.2979],[112.5792,34.3065],[112.5873,34.3132],[112.6081,34.3239],[112.6017,34.3296],[112.5968,34.3271],[112.5688,34.35],[112.5644,34.3478],[112.5486,34.3504],[112.5463,34.3592],[112.5384,34.3599],[112.5342,34.3517],[112.5094,34.3546],[112.4977,34.3508],[112.4951,34.3411],[112.4998,34.3369],[112.4826,34.3354],[112.4744,34.3384],[112.4673,34.3365],[112.4607,34.328],[112.4453,34.331],[112.4307,34.3439],[112.4171,34.3394],[112.4139,34.3446],[112.4047,34.3423],[112.3975,34.3333],[112.3857,34.3112],[112.3918,34.3021],[112.4021,34.2922],[112.4041,34.2847],[112.4091,34.2812],[112.4061,34.2676],[112.4087,34.2604],[112.4023,34.2457],[112.417,34.2274],[112.4149,34.2234],[112.3991,34.2243],[112.3816,34.2176],[112.3676,34.2217],[112.3645,34.2141],[112.3711,34.2042],[112.3668,34.1989],[112.3548,34.1941],[112.3459,34.1953],[112.3416,34.1908],[112.3368,34.1763],[112.3385,34.1693],[112.3485,34.146],[112.3338,34.1465],[112.3294,34.1329],[112.3195,34.1228],[112.3028,34.1157],[112.302,34.1062],[112.3101,34.0989],[112.3091,34.0919],[112.3135,34.086],[112.3173,34.0718],[112.3317,34.0606],[112.3214,34.0449],[112.3227,34.0408],[112.3391,34.0398],[112.343,34.0284],[112.3298,34.0233],[112.3236,34.0149],[112.3143,34.0143],[112.3112,34.0195],[112.3014,34.0254],[112.2833,34.0267],[112.27,34.0188],[112.2715,34.0124],[112.2619,34.0009],[112.2626,33.9918],[112.2419,33.9853],[112.2414,33.9778],[112.2356,33.9732],[112.2293,33.974],[112.2148,33.9591],[112.205,33.9543],[112.2076,33.9433],[112.2031,33.9364],[112.2051,33.9191],[112.2094,33.9115],[112.2057,33.8983],[112.201,33.8933],[112.2053,33.8893],[112.203,33.8742],[112.198,33.8704],[112.2077,33.8613],[112.2057,33.8504],[112.2129,33.8417],[112.2052,33.8371],[112.2103,33.8247],[112.2203,33.8182],[112.2297,33.8215],[112.2458,33.8182],[112.2656,33.8265],[112.2738,33.8255],[112.271,33.8147],[112.2768,33.8104]]]},"properties":{"region_code":"CN-41-4103-410326","parent_region_code":"CN-41-4103","name":"汝阳县","level":"county","has_children":false,"full_path":"中国 / 河南省 / 洛阳市 / 汝阳县","source_admin_code":"410326","osm_relation_id":3246485}},
{"type":"Feature","geometry":{"type":"Polygon","coordinates":[[[112.2731,34.6301],[112.2659,34.6281],[112.2487,34.6304],[112.2366,34.6291],[112.2176,34.6326],[112.2049,34.6324],[112.2014,34.6281],[112.189,34.6233],[112.1787,34.6231],[112.1738,34.6191],[112.1624,34.622],[112.1552,34.62],[112.155,34.6058],[112.1359,34.6028],[112.1339,34.6078],[112.1221,34.617],[112.1082,34.6398],[112.0897,34.6395],[112.0834,34.6462],[112.0723,34.6444],[112.0668,34.6484],[112.0738,34.6571],[112.0683,34.6618],[112.0668,34.6733],[112.0632,34.6768],[112.0553,34.6745],[112.0493,34.6793],[112.0351,34.6795],[112.0282,34.6749],[112.0184,34.6832],[111.9963,34.6932],[111.9894,34.6983],[111.9707,34.6939],[111.9721,34.6876],[111.9643,34.6854],[111.9682,34.6762],[111.9665,34.6609],[111.974,34.6572],[111.9732,34.6518],[111.9619,34.6472],[111.9539,34.639],[111.9395,34.6406],[111.9364,34.6302],[111.941,34.6256],[111.9276,34.6107],[111.9191,34.6053],[111.9149,34.6123],[111.8939,34.6247],[111.8879,34.6184],[111.8821,34.6197],[111.8628,34.6396],[111.857,34.6495],[111.8449,34.6543],[111.836,34.6511],[111.83,34.6566],[111.8185,34.6515],[111.8152,34.6329],[111.7993,34.6384],[111.7954,34.633],[111.7982,34.6278],[111.8103,34.6205],[111.8091,34.6107],[111.8197,34.6046],[111.8209,34.5915],[111.8256,34.5789],[111.8142,34.5696],[111.813,34.5541],[111.8011,34.5521],[111.7785,34.5426],[111.7797,34.5338],[111.771,34.5247],[111.7801,34.5162],[111.7749,34.5112],[111.7646,34.5083],[111.7686,34.5017],[111.7659,34.4916],[111.7766,34.4901],[111.7749,34.4829],[111.7626,34.4751],[111.7635,34.4605],[111.7667,34.453],[111.75,34.4498],[111.7473,34.4453],[111.7475,34.4335],[111.7527,34.4298],[111.7601,34.4303],[111.7764,34.4261],[111.7771,34.417],[111.7487,34.3933],[111.7451,34.3781],[111.7576,34.3757],[111.7536,34.3692],[111.756,34.3646],[111.7843,34.3513],[111.791,34.3406],[111.7927,34.3285],[111.8029,34.3306],[111.8112,34.319],[111.7981,34.2987],[111.7871,34.2875],[111.7942,34.2763],[111.8156,34.2717],[111.8402,34.2933],[111.8465,34.2932],[111.8544,34.2828],[111.8638,34.2821],[111.8755,34.2782],[111.886,34.2783],[111.8931,34.286],[111.9063,34.29],[111.9176,34.2986],[111.9192,34.3081],[111.9299,34.3111],[111.9406,34.3112],[111.965,34.3217],[111.9945,34.3319],[112,34.3311],[112.0234,34.3416],[112.0314,34.3398],[112.0447,34.3292],[112.0511,34.3287],[112.0587,34.3165],[112.0852,34.3009],[112.0923,34.3136],[112.1042,34.3168],[112.1176,34.3234],[112.1207,34.3132],[112.1262,34.3098],[112.134,34.322],[112.1689,34.315],[112.1758,34.3171],[112.2015,34.309],[112.1996,34.3241],[112.204,34.3421],[112.2101,34.3594],[112.2055,34.362],[112.2061,34.371],[112.2113,34.3746],[112.2211,34.3719],[112.2382,34.3761],[112.2485,34.3889],[112.2507,34.3944],[112.2474,34.4075],[112.2444,34.4107],[112.2224,34.4192],[112.2377,34.4377],[112.2596,34.4421],[112.2692,34.449],[112.277,34.4516],[112.2769,34.4644],[112.286,34.4613],[112.294,34.4658],[112.2868,34.4885],[112.2798,34.4909],[112.2746,34.5094],[112.2881,34.5186],[112.2956,34.5178],[112.3011,34.5248],[112.311,34.5234],[112.3167,34.5266],[112.3483,34.525],[112.3438,34.5434],[112.3381,34.5429],[112.334,34.5494],[112.3223,34.5486],[112.3253,34.5617],[112.3245,34.5695],[112.3001,34.5586],[112.2937,34.5494],[112.2861,34.5468],[112.2745,34.5474],[112.2701,34.5569],[112.2618,34.5652],[112.2616,34.5831],[112.2654,34.5875],[112.2671,34.6015],[112.2708,34.6091],[112.2647,34.6232],[112.2731,34.6301]]]},"properties":{"region_code":"CN-41-4103-410327","parent_region_code":"CN-41-4103","name":"宜阳县","level":"county","has_children":false,"full_path":"中国 / 河南省 / 洛阳市 / 宜阳县","source_admin_code":"410327","osm_relation_id":3246490}},
{"type":"Feature","geometry":{"type":"Polygon","coordinates":[[[111.7042,34.185],[111.7135,34.2123],[111.7213,34.2126],[111.7317,34.2171],[111.7334,34.2244],[111.7408,34.2305],[111.7534,34.2334],[111.756,34.2473],[111.7597,34.2512],[111.792,34.2449],[111.7968,34.2501],[111.8059,34.2519],[111.8109,34.2585],[111.8156,34.2717],[111.7942,34.2763],[111.7871,34.2875],[111.7981,34.2987],[111.8112,34.319],[111.8029,34.3306],[111.7927,34.3285],[111.791,34.3406],[111.7843,34.3513],[111.756,34.3646],[111.7536,34.3692],[111.7576,34.3757],[111.7451,34.3781],[111.7487,34.3933],[111.7771,34.417],[111.7764,34.4261],[111.7601,34.4303],[111.7527,34.4298],[111.7475,34.4335],[111.7473,34.4453],[111.75,34.4498],[111.7667,34.453],[111.7635,34.4605],[111.7626,34.4751],[111.7749,34.4829],[111.7766,34.4901],[111.7659,34.4916],[111.7686,34.5017],[111.7646,34.5083],[111.7749,34.5112],[111.7801,34.5162],[111.771,34.5247],[111.7797,34.5338],[111.7785,34.5426],[111.8011,34.5521],[111.813,34.5541],[111.8142,34.5696],[111.8256,34.5789],[111.8209,34.5915],[111.8197,34.6046],[111.8091,34.6107],[111.8103,34.6205],[111.7982,34.6278],[111.7954,34.633],[111.7856,34.6317],[111.778,34.6254],[111.7823,34.6191],[111.7756,34.6083],[111.7599,34.6127],[111.7549,34.6051],[111.7583,34.5953],[111.7404,34.5949],[111.7295,34.6065],[111.722,34.5966],[111.7161,34.5925],[111.7071,34.5951],[111.7029,34.585],[111.6909,34.574],[111.6623,34.5712],[111.6709,34.5655],[111.6698,34.5606],[111.6764,34.5503],[111.683,34.5454],[111.6894,34.5348],[111.6792,34.5305],[111.6609,34.5416],[111.6253,34.5558],[111.6144,34.5549],[111.6015,34.5643],[111.6012,34.5686],[111.5925,34.5711],[111.5781,34.5708],[111.5725,34.5571],[111.5603,34.568],[111.5357,34.5444],[111.5207,34.5499],[111.5138,34.5453],[111.5074,34.5495],[111.4983,34.5498],[111.4958,34.5424],[111.4758,34.5251],[111.4654,34.5183],[111.4536,34.5147],[111.4441,34.5059],[111.4331,34.5023],[111.4148,34.4913],[111.3882,34.4834],[111.3813,34.4758],[111.3629,34.4736],[111.362,34.4824],[111.353,34.4811],[111.3399,34.4737],[111.3088,34.473],[111.2962,34.4773],[111.2951,34.4894],[111.2917,34.4905],[111.2773,34.4828],[111.2659,34.4696],[111.2698,34.4503],[111.2587,34.4482],[111.2527,34.4518],[111.2343,34.4549],[111.2308,34.4593],[111.2215,34.4613],[111.2104,34.4605],[111.2106,34.4527],[111.2064,34.4379],[111.2076,34.4294],[111.1986,34.4256],[111.1924,34.4187],[111.1863,34.4189],[111.1805,34.4134],[111.186,34.4037],[111.1631,34.3942],[111.1475,34.3958],[111.1385,34.3882],[111.1382,34.3768],[111.1298,34.3616],[111.133,34.3542],[111.1415,34.3544],[111.1558,34.3497],[111.1562,34.3386],[111.1714,34.3304],[111.1815,34.3187],[111.1843,34.3056],[111.1933,34.2976],[111.1801,34.2884],[111.1755,34.2796],[111.1742,34.2638],[111.1755,34.2538],[111.1807,34.2493],[111.1754,34.2325],[111.1721,34.2276],[111.1557,34.2277],[111.1513,34.2255],[111.17,34.2117],[111.187,34.2069],[111.2042,34.1967],[111.2029,34.1902],[111.2076,34.1759],[111.2175,34.1761],[111.2257,34.1798],[111.2296,34.1709],[111.2368,34.1631],[111.2445,34.1624],[111.2531,34.1495],[111.2633,34.1432],[111.2656,34.1491],[111.2728,34.1477],[111.275,34.1379],[111.2845,34.1475],[111.2928,34.1454],[111.305,34.1385],[111.3028,34.1239],[111.3118,34.1174],[111.3305,34.1167],[111.3357,34.1114],[111.3543,34.1094],[111.3565,34.1012],[111.3631,34.0924],[111.3736,34.0956],[111.3827,34.0944],[111.3999,34.1006],[111.4025,34.104],[111.4122,34.1035],[111.4279,34.1087],[111.4336,34.1154],[111.4337,34.131],[111.4565,34.1305],[111.4689,34.1375],[111.4786,34.1373],[111.4904,34.1398],[111.4985,34.1332],[111.5194,34.1337],[111.5311,34.138],[111.5431,34.1388],[111.5587,34.1465],[111.5674,34.157],[111.574,34.1571],[111.5771,34.1632],[111.5861,34.1593],[111.6007,34.1501],[111.6067,34.1493],[111.6198,34.1537],[111.6485,34.1453],[111.6586,34.1546],[111.6592,34.1587],[111.6716,34.1634],[111.6767,34.1728],[111.6918,34.1733],[111.6977,34.183],[111.7042,34.185]]]},"properties":{"region_code":"CN-41-4103-410328","parent_region_code":"CN-41-4103","name":"洛宁县","level":"county","has_children":false,"full_path":"中国 / 河南省 / 洛阳市 / 洛宁县","source_admin_code":"410328","osm_relation_id":3246483}},
{"type":"Feature","geometry":{"type":"Polygon","coordinates":[[[112.6927,34.4956],[112.686,34.4951],[112.655,34.4857],[112.6496,34.4904],[112.6481,34.499],[112.6392,34.502],[112.6298,34.509],[112.6086,34.5133],[112.5958,34.5131],[112.5823,34.5176],[112.5776,34.5222],[112.5627,34.5185],[112.5461,34.5169],[112.5339,34.5194],[112.5205,34.5161],[112.5172,34.5065],[112.4894,34.5106],[112.4819,34.5156],[112.4703,34.5164],[112.4634,34.5199],[112.4277,34.522],[112.4283,34.5367],[112.431,34.5414],[112.4167,34.5448],[112.4027,34.5392],[112.3966,34.5334],[112.396,34.5248],[112.3909,34.5211],[112.3703,34.5191],[112.3483,34.525],[112.3167,34.5266],[112.311,34.5234],[112.3011,34.5248],[112.2956,34.5178],[112.2881,34.5186],[112.2746,34.5094],[112.2798,34.4909],[112.2868,34.4885],[112.294,34.4658],[112.286,34.4613],[112.2769,34.4644],[112.277,34.4516],[112.2692,34.449],[112.2596,34.4421],[112.2377,34.4377],[112.2224,34.4192],[112.2444,34.4107],[112.2474,34.4075],[112.2507,34.3944],[112.2485,34.3889],[112.2382,34.3761],[112.2211,34.3719],[112.2113,34.3746],[112.2061,34.371],[112.2055,34.362],[112.2101,34.3594],[112.204,34.3421],[112.1996,34.3241],[112.2015,34.309],[112.2179,34.3041],[112.2356,34.3034],[112.2584,34.3105],[112.2661,34.3016],[112.2752,34.2945],[112.265,34.2785],[112.2603,34.2776],[112.2461,34.2658],[112.2417,34.2656],[112.2338,34.2553],[112.2412,34.2388],[112.2656,34.2353],[112.2738,34.2365],[112.2931,34.2362],[112.3099,34.2333],[112.323,34.2337],[112.3476,34.227],[112.3491,34.222],[112.3602,34.2191],[112.3645,34.2141],[112.3676,34.2217],[112.3816,34.2176],[112.3991,34.2243],[112.4149,34.2234],[112.417,34.2274],[112.4023,34.2457],[112.4087,34.2604],[112.4061,34.2676],[112.4091,34.2812],[112.4041,34.2847],[112.4021,34.2922],[112.3918,34.3021],[112.3857,34.3112],[112.3975,34.3333],[112.4047,34.3423],[112.4139,34.3446],[112.4171,34.3394],[112.4307,34.3439],[112.4453,34.331],[112.4607,34.328],[112.4673,34.3365],[112.4744,34.3384],[112.4826,34.3354],[112.4998,34.3369],[112.4951,34.3411],[112.4977,34.3508],[112.5094,34.3546],[112.5342,34.3517],[112.5384,34.3599],[112.5463,34.3592],[112.5486,34.3504],[112.5644,34.3478],[112.5688,34.35],[112.5968,34.3271],[112.6017,34.3296],[112.6269,34.3433],[112.6363,34.3459],[112.648,34.3405],[112.6502,34.3355],[112.6476,34.3251],[112.6698,34.3282],[112.6739,34.325],[112.6826,34.3275],[112.696,34.3357],[112.7235,34.3315],[112.729,34.3253],[112.7337,34.3333],[112.7424,34.3347],[112.7501,34.3326],[112.7576,34.3356],[112.7674,34.3465],[112.7524,34.3491],[112.7504,34.3586],[112.726,34.3522],[112.723,34.3651],[112.7239,34.3779],[112.7142,34.383],[112.7156,34.389],[112.7252,34.3934],[112.7282,34.4065],[112.7207,34.4135],[112.73,34.4251],[112.7345,34.4364],[112.7364,34.4487],[112.7335,34.456],[112.7372,34.4717],[112.7305,34.4928],[112.7229,34.4881],[112.7076,34.489],[112.6927,34.4956]]]},"properties":{"region_code":"CN-41-4103-410329","parent_region_code":"CN-41-4103","name":"伊川县","level":"county","has_children":false,"full_path":"中国 / 河南省 / 洛阳市 / 伊川县","source_admin_code":"410329","osm_relation_id":3246489}}
]}