{"type":"FeatureCollection", "features": [
{"type":"Feature","geometry":{"type":"Polygon","coordinates":[[[114.203,32.0337],[114.1928,32.0358],[114.1917,32.0444],[114.1747,32.0529],[114.1695,32.0507],[114.1616,32.041],[114.1463,32.0451],[114.1442,32.0416],[114.1529,32.0323],[114.1487,32.0231],[114.1409,32.0229],[114.1338,32.0282],[114.1289,32.0375],[114.1287,32.049],[114.1206,32.0478],[114.1132,32.053],[114.1095,32.0684],[114.1166,32.0766],[114.1101,32.0827],[114.1132,32.0964],[114.1044,32.1149],[114.0867,32.1191],[114.0854,32.1239],[114.0676,32.1384],[114.0616,32.1517],[114.0627,32.1676],[114.0694,32.1741],[114.0656,32.1896],[114.0632,32.2087],[114.0718,32.2151],[114.0659,32.2266],[114.0646,32.2409],[114.0554,32.2448],[114.0554,32.2522],[114.0657,32.2573],[114.0645,32.2704],[114.0789,32.2679],[114.0783,32.2738],[114.0841,32.2822],[114.0743,32.2874],[114.0716,32.3005],[114.0579,32.2998],[114.0337,32.2819],[114.0281,32.2636],[114.0121,32.2481],[113.9985,32.2431],[113.9841,32.2495],[113.9715,32.2514],[113.9569,32.2458],[113.9503,32.2462],[113.945,32.2593],[113.9438,32.2684],[113.9389,32.277],[113.9287,32.2815],[113.9073,32.2786],[113.8974,32.2846],[113.8975,32.2939],[113.9103,32.308],[113.9029,32.3169],[113.8977,32.3155],[113.8699,32.3216],[113.8728,32.3251],[113.8648,32.3319],[113.8596,32.3447],[113.8404,32.3501],[113.8319,32.3446],[113.8163,32.3465],[113.8037,32.353],[113.8005,32.348],[113.813,32.345],[113.8162,32.3192],[113.8084,32.3155],[113.8002,32.3213],[113.7789,32.3194],[113.7734,32.3234],[113.7644,32.3187],[113.7633,32.3035],[113.7426,32.2941],[113.7376,32.2854],[113.7388,32.2796],[113.7465,32.2689],[113.7437,32.2627],[113.7334,32.2597],[113.7345,32.245],[113.7424,32.2369],[113.7467,32.2183],[113.7588,32.2064],[113.7692,32.2099],[113.7774,32.1918],[113.7578,32.1638],[113.7603,32.1405],[113.7542,32.1293],[113.7444,32.1185],[113.734,32.1152],[113.731,32.1237],[113.7165,32.1264],[113.7226,32.1026],[113.7191,32.0887],[113.7238,32.0835],[113.7389,32.0785],[113.7405,32.0714],[113.7505,32.0646],[113.7561,32.0574],[113.7739,32.052],[113.7864,32.0367],[113.776,32.0277],[113.7718,32.0194],[113.7641,32.0203],[113.7593,32.0099],[113.7521,32.0034],[113.7504,31.9912],[113.7687,31.9836],[113.7772,31.9773],[113.7979,31.9755],[113.807,31.9681],[113.801,31.9528],[113.8001,31.9346],[113.813,31.9245],[113.8214,31.9211],[113.8329,31.9102],[113.8276,31.8999],[113.8287,31.8897],[113.826,31.8756],[113.8354,31.8691],[113.8312,31.8633],[113.834,31.8549],[113.8542,31.8432],[113.8589,31.8474],[113.8683,31.8426],[113.877,31.8483],[113.8919,31.8517],[113.9013,31.8721],[113.9116,31.8807],[113.93,31.881],[113.9274,31.8745],[113.9357,31.8661],[113.9525,31.8588],[113.9533,31.8525],[113.9502,31.8387],[113.945,31.8351],[113.9407,31.8249],[113.947,31.818],[113.9474,31.7934],[113.9635,31.7847],[113.9623,31.7793],[113.9682,31.7719],[113.9695,31.7608],[113.9817,31.7514],[113.9922,31.757],[114.0063,31.7707],[114.0124,31.7739],[114.024,31.7739],[114.0311,31.7713],[114.0374,31.7759],[114.0509,31.7725],[114.0575,31.779],[114.0572,31.7873],[114.0653,31.7882],[114.083,31.7827],[114.0924,31.7933],[114.0892,31.8006],[114.0996,31.8074],[114.1149,31.8093],[114.1163,31.8224],[114.1237,31.8289],[114.123,31.8369],[114.127,31.8452],[114.14,31.8415],[114.1575,31.8419],[114.1572,31.8481],[114.1639,31.8559],[114.1802,31.8545],[114.1962,31.8632],[114.2006,31.8762],[114.2082,31.8882],[114.2014,31.9014],[114.1998,31.9108],[114.1934,31.9102],[114.1856,31.9151],[114.1864,31.9222],[114.1707,31.9362],[114.1657,31.9629],[114.1632,31.992],[114.1809,31.9961],[114.1882,32.0055],[114.2016,32.0142],[114.203,32.0337]]]},"properties":{"region_code":"CN-41-4115-411502","parent_region_code":"CN-41-4115","name":"浉河区","level":"county","has_children":false,"full_path":"中国 / 河南省 / 信阳市 / 浉河区","source_admin_code":"411502","osm_relation_id":3218102}},
{"type":"Feature","geometry":{"type":"Polygon","coordinates":[[[114.203,32.0337],[114.2107,32.0349],[114.221,32.041],[114.2308,32.0416],[114.2397,32.0377],[114.2498,32.0402],[114.2526,32.0489],[114.2731,32.0601],[114.2765,32.066],[114.2866,32.0672],[114.2876,32.073],[114.2798,32.0834],[114.2817,32.0936],[114.2779,32.102],[114.2806,32.113],[114.2864,32.1221],[114.2953,32.126],[114.293,32.1318],[114.3179,32.1397],[114.3215,32.1458],[114.3158,32.1578],[114.3006,32.1568],[114.2873,32.1668],[114.2791,32.1694],[114.2677,32.1785],[114.2726,32.1885],[114.2745,32.226],[114.2954,32.2226],[114.3079,32.2247],[114.3162,32.2209],[114.3333,32.2299],[114.3358,32.2434],[114.3473,32.2442],[114.3584,32.2571],[114.3642,32.2567],[114.3679,32.2816],[114.3757,32.2933],[114.3665,32.2963],[114.3636,32.3148],[114.3448,32.3244],[114.3419,32.3346],[114.3431,32.3461],[114.3372,32.3664],[114.3082,32.375],[114.2943,32.3694],[114.2834,32.3702],[114.2781,32.3956],[114.2731,32.4092],[114.2811,32.4207],[114.2747,32.4248],[114.2644,32.41],[114.2568,32.4109],[114.2553,32.4198],[114.2429,32.4325],[114.2422,32.4603],[114.2302,32.4611],[114.2203,32.456],[114.2184,32.4474],[114.2127,32.4446],[114.1975,32.4496],[114.1924,32.4538],[114.1937,32.4686],[114.1901,32.4938],[114.1745,32.4945],[114.1633,32.4922],[114.1584,32.4838],[114.1583,32.4664],[114.1533,32.4604],[114.1325,32.4638],[114.1258,32.4511],[114.0768,32.4527],[114.073,32.4607],[114.0717,32.4771],[114.077,32.4765],[114.0826,32.4856],[114.0681,32.4972],[114.0627,32.5149],[114.0683,32.5215],[114.0601,32.5263],[114.061,32.5385],[114.0468,32.5447],[114.0474,32.5265],[114.0567,32.5269],[114.0588,32.5213],[114.0411,32.5203],[114.0329,32.5141],[114.0303,32.5226],[114.0148,32.5211],[114.0091,32.5136],[113.9994,32.5063],[113.9928,32.5088],[113.974,32.5032],[113.9542,32.5058],[113.9463,32.512],[113.9489,32.5288],[113.9417,32.534],[113.94,32.5454],[113.9428,32.5582],[113.9333,32.5549],[113.9336,32.5691],[113.9313,32.5758],[113.9211,32.5881],[113.9122,32.588],[113.9076,32.5923],[113.9139,32.5977],[113.9144,32.6073],[113.9074,32.6103],[113.8951,32.6076],[113.8805,32.6075],[113.8681,32.6236],[113.8617,32.6274],[113.856,32.6219],[113.8456,32.6178],[113.8393,32.625],[113.8322,32.6222],[113.8227,32.6244],[113.8149,32.6224],[113.8134,32.6072],[113.7954,32.5977],[113.7937,32.5929],[113.7837,32.5873],[113.78,32.5751],[113.7641,32.5638],[113.7568,32.5509],[113.7655,32.5387],[113.7579,32.5281],[113.7587,32.5214],[113.7526,32.5135],[113.7597,32.4937],[113.7605,32.4837],[113.7557,32.4717],[113.7476,32.4654],[113.7352,32.4678],[113.7275,32.4629],[113.7231,32.4536],[113.7243,32.4483],[113.7169,32.43],[113.7035,32.4236],[113.7272,32.4139],[113.7346,32.3947],[113.7454,32.392],[113.745,32.3785],[113.7387,32.377],[113.7416,32.3663],[113.75,32.3627],[113.7579,32.3723],[113.7646,32.3713],[113.7642,32.3593],[113.75,32.3515],[113.748,32.3327],[113.7531,32.3236],[113.7644,32.3187],[113.7734,32.3234],[113.7789,32.3194],[113.8002,32.3213],[113.8084,32.3155],[113.8162,32.3192],[113.813,32.345],[113.8005,32.348],[113.8037,32.353],[113.8163,32.3465],[113.8319,32.3446],[113.8404,32.3501],[113.8596,32.3447],[113.8648,32.3319],[113.8728,32.3251],[113.8699,32.3216],[113.8977,32.3155],[113.9029,32.3169],[113.9103,32.308],[113.8975,32.2939],[113.8974,32.2846],[113.9073,32.2786],[113.9287,32.2815],[113.9389,32.277],[113.9438,32.2684],[113.945,32.2593],[113.9503,32.2462],[113.9569,32.2458],[113.9715,32.2514],[113.9841,32.2495],[113.9985,32.2431],[114.0121,32.2481],[114.0281,32.2636],[114.0337,32.2819],[114.0579,32.2998],[114.0716,32.3005],[114.0743,32.2874],[114.0841,32.2822],[114.0783,32.2738],[114.0789,32.2679],[114.0645,32.2704],[114.0657,32.2573],[114.0554,32.2522],[114.0554,32.2448],[114.0646,32.2409],[114.0659,32.2266],[114.0718,32.2151],[114.0632,32.2087],[114.0656,32.1896],[114.0694,32.1741],[114.0627,32.1676],[114.0616,32.1517],[114.0676,32.1384],[114.0854,32.1239],[114.0867,32.1191],[114.1044,32.1149],[114.1132,32.0964],[114.1101,32.0827],[114.1166,32.0766],[114.1095,32.0684],[114.1132,32.053],[114.1206,32.0478],[114.1287,32.049],[114.1289,32.0375],[114.1338,32.0282],[114.1409,32.0229],[114.1487,32.0231],[114.1529,32.0323],[114.1442,32.0416],[114.1463,32.0451],[114.1616,32.041],[114.1695,32.0507],[114.1747,32.0529],[114.1917,32.0444],[114.1928,32.0358],[114.203,32.0337]]]},"properties":{"region_code":"CN-41-4115-411503","parent_region_code":"CN-41-4115","name":"平桥区","level":"county","has_children":false,"full_path":"中国 / 河南省 / 信阳市 / 平桥区","source_admin_code":"411503","osm_relation_id":3218100}},
{"type":"Feature","geometry":{"type":"Polygon","coordinates":[[[114.1802,31.8545],[114.1943,31.8468],[114.2038,31.8447],[114.2125,31.8361],[114.2211,31.8348],[114.2277,31.8436],[114.2312,31.8296],[114.2418,31.8175],[114.2427,31.8116],[114.2555,31.7992],[114.2593,31.7891],[114.2687,31.7758],[114.2821,31.7653],[114.2872,31.7551],[114.299,31.7565],[114.3095,31.7542],[114.316,31.7577],[114.327,31.7556],[114.3443,31.758],[114.3518,31.7528],[114.3801,31.7428],[114.4006,31.7499],[114.4113,31.7433],[114.4148,31.7335],[114.4247,31.7376],[114.4333,31.7314],[114.4449,31.7333],[114.4476,31.741],[114.4552,31.7358],[114.4674,31.7439],[114.4837,31.738],[114.4961,31.7394],[114.5057,31.7476],[114.4928,31.7547],[114.4984,31.7584],[114.5049,31.7709],[114.5148,31.7705],[114.5255,31.7522],[114.5268,31.7427],[114.5456,31.7488],[114.5439,31.7697],[114.5645,31.7697],[114.5617,31.7812],[114.563,31.7924],[114.5611,31.8133],[114.5631,31.8258],[114.567,31.8307],[114.5765,31.8327],[114.577,31.8387],[114.57,31.8414],[114.5655,31.8506],[114.5713,31.867],[114.5756,31.8728],[114.578,31.8846],[114.5836,31.8897],[114.5927,31.8905],[114.5895,31.8985],[114.5941,31.9048],[114.5931,31.9122],[114.5852,31.9242],[114.5832,31.932],[114.5766,31.9391],[114.5648,31.9397],[114.5664,31.9503],[114.5545,31.9503],[114.5484,31.9601],[114.5392,31.9635],[114.5389,31.9814],[114.5456,31.9882],[114.5545,31.9899],[114.5661,31.9985],[114.5673,32.0162],[114.5728,32.02],[114.5829,32.0204],[114.5941,32.0273],[114.5975,32.0341],[114.5984,32.0497],[114.6087,32.0611],[114.6099,32.0725],[114.6189,32.0801],[114.6227,32.0869],[114.6223,32.0959],[114.6266,32.1027],[114.6359,32.1078],[114.6413,32.1207],[114.657,32.123],[114.6458,32.1421],[114.6511,32.1488],[114.6559,32.1631],[114.6672,32.1713],[114.6777,32.1751],[114.681,32.1823],[114.6796,32.192],[114.6781,32.199],[114.6835,32.2051],[114.6923,32.2066],[114.6954,32.2178],[114.7097,32.2282],[114.7041,32.2355],[114.6936,32.241],[114.6982,32.2581],[114.688,32.2652],[114.6921,32.2715],[114.7028,32.2746],[114.7066,32.2915],[114.6892,32.2837],[114.6842,32.2778],[114.6715,32.2751],[114.6723,32.284],[114.6822,32.3036],[114.6725,32.3109],[114.6617,32.3041],[114.6536,32.3034],[114.6323,32.3137],[114.6249,32.3118],[114.6172,32.3015],[114.6104,32.3007],[114.5988,32.3082],[114.591,32.3059],[114.5751,32.3115],[114.5647,32.3095],[114.5573,32.2997],[114.5466,32.2904],[114.5356,32.2862],[114.5287,32.29],[114.5163,32.3016],[114.4939,32.3014],[114.4892,32.288],[114.4788,32.2877],[114.4728,32.2936],[114.4645,32.2957],[114.4495,32.2844],[114.441,32.2809],[114.4325,32.2899],[114.4274,32.2908],[114.4189,32.2826],[114.4119,32.2809],[114.4019,32.2907],[114.3892,32.2941],[114.3757,32.2933],[114.3679,32.2816],[114.3642,32.2567],[114.3584,32.2571],[114.3473,32.2442],[114.3358,32.2434],[114.3333,32.2299],[114.3162,32.2209],[114.3079,32.2247],[114.2954,32.2226],[114.2745,32.226],[114.2726,32.1885],[114.2677,32.1785],[114.2791,32.1694],[114.2873,32.1668],[114.3006,32.1568],[114.3158,32.1578],[114.3215,32.1458],[114.3179,32.1397],[114.293,32.1318],[114.2953,32.126],[114.2864,32.1221],[114.2806,32.113],[114.2779,32.102],[114.2817,32.0936],[114.2798,32.0834],[114.2876,32.073],[114.2866,32.0672],[114.2765,32.066],[114.2731,32.0601],[114.2526,32.0489],[114.2498,32.0402],[114.2397,32.0377],[114.2308,32.0416],[114.221,32.041],[114.2107,32.0349],[114.203,32.0337],[114.2016,32.0142],[114.1882,32.0055],[114.1809,31.9961],[114.1632,31.992],[114.1657,31.9629],[114.1707,31.9362],[114.1864,31.9222],[114.1856,31.9151],[114.1934,31.9102],[114.1998,31.9108],[114.2014,31.9014],[114.2082,31.8882],[114.2006,31.8762],[114.1962,31.8632],[114.1802,31.8545]]]},"properties":{"region_code":"CN-41-4115-411521","parent_region_code":"CN-41-4115","name":"罗山县","level":"county","has_children":false,"full_path":"中国 / 河南省 / 信阳市 / 罗山县","source_admin_code":"411521","osm_relation_id":3218099}},
{"type":"Feature","geometry":{"type":"Polygon","coordinates":[[[114.5765,31.8327],[114.578,31.8149],[114.5927,31.8177],[114.6093,31.7999],[114.6179,31.7997],[114.6204,31.8067],[114.6268,31.8083],[114.6457,31.807],[114.6604,31.8001],[114.6591,31.791],[114.6628,31.7851],[114.6814,31.7873],[114.6904,31.7818],[114.6928,31.7958],[114.6982,31.8023],[114.7074,31.805],[114.705,31.7956],[114.7213,31.7926],[114.7324,31.7837],[114.7375,31.7936],[114.7583,31.7871],[114.772,31.7876],[114.7735,31.7795],[114.7801,31.7684],[114.7894,31.7738],[114.8136,31.7737],[114.8241,31.7771],[114.8322,31.7951],[114.8434,31.7872],[114.8559,31.7834],[114.8632,31.7749],[114.8778,31.7701],[114.8824,31.7624],[114.8951,31.7611],[114.9081,31.7516],[114.9283,31.7472],[114.9385,31.7366],[114.9487,31.7418],[114.9568,31.7412],[114.9627,31.7477],[114.9791,31.7477],[114.9844,31.7516],[115.0013,31.7476],[115.0022,31.7426],[115.0155,31.74],[115.02,31.7495],[115.0356,31.7515],[115.0415,31.7306],[115.046,31.7262],[115.0586,31.7276],[115.0646,31.7321],[115.072,31.7304],[115.0773,31.7387],[115.0942,31.7318],[115.1134,31.7196],[115.1176,31.7129],[115.1145,31.7065],[115.125,31.7025],[115.1448,31.7049],[115.1579,31.7104],[115.1653,31.7247],[115.1723,31.7275],[115.1812,31.7403],[115.1673,31.7629],[115.1458,31.7688],[115.14,31.7846],[115.129,31.7851],[115.128,31.7894],[115.112,31.7944],[115.1125,31.8078],[115.1086,31.8168],[115.1184,31.8209],[115.1162,31.8276],[115.121,31.8359],[115.1169,31.8429],[115.1252,31.8647],[115.1339,31.8701],[115.1213,31.8739],[115.11,31.8747],[115.0982,31.8866],[115.0893,31.8983],[115.0857,31.9088],[115.079,31.91],[115.0761,31.9167],[115.07,31.9186],[115.0677,31.9261],[115.0597,31.9306],[115.0538,31.9227],[115.0431,31.9196],[115.0354,31.9274],[115.0139,31.9349],[115.0022,31.9507],[114.9973,31.9503],[114.9869,31.9671],[114.9902,31.9848],[114.9943,31.9884],[114.9978,32.0035],[114.9935,32.0071],[114.9819,32.0059],[114.9756,32.0086],[114.9754,32.0157],[114.9837,32.0207],[114.9836,32.0254],[114.9745,32.0311],[114.9756,32.035],[114.9909,32.0335],[114.9957,32.0362],[114.9962,32.0466],[114.9913,32.0561],[115.0038,32.0672],[115.0046,32.0767],[114.9903,32.0764],[114.9795,32.0709],[114.9568,32.0716],[114.9447,32.0809],[114.9382,32.0985],[114.9347,32.0984],[114.919,32.1133],[114.919,32.1191],[114.9094,32.134],[114.9085,32.1404],[114.8992,32.1479],[114.8985,32.1578],[114.9036,32.1629],[114.907,32.1824],[114.9007,32.1897],[114.8798,32.1712],[114.8762,32.1722],[114.8586,32.1655],[114.8512,32.1597],[114.8486,32.1518],[114.8354,32.142],[114.8249,32.1424],[114.8192,32.1374],[114.8029,32.1385],[114.7882,32.1489],[114.7762,32.1517],[114.7695,32.1588],[114.7512,32.1696],[114.7439,32.1792],[114.7305,32.1837],[114.7191,32.1785],[114.7102,32.1809],[114.7075,32.1904],[114.6908,32.1932],[114.6796,32.192],[114.681,32.1823],[114.6777,32.1751],[114.6672,32.1713],[114.6559,32.1631],[114.6511,32.1488],[114.6458,32.1421],[114.657,32.123],[114.6413,32.1207],[114.6359,32.1078],[114.6266,32.1027],[114.6223,32.0959],[114.6227,32.0869],[114.6189,32.0801],[114.6099,32.0725],[114.6087,32.0611],[114.5984,32.0497],[114.5975,32.0341],[114.5941,32.0273],[114.5829,32.0204],[114.5728,32.02],[114.5673,32.0162],[114.5661,31.9985],[114.5545,31.9899],[114.5456,31.9882],[114.5389,31.9814],[114.5392,31.9635],[114.5484,31.9601],[114.5545,31.9503],[114.5664,31.9503],[114.5648,31.9397],[114.5766,31.9391],[114.5832,31.932],[114.5852,31.9242],[114.5931,31.9122],[114.5941,31.9048],[114.5895,31.8985],[114.5927,31.8905],[114.5836,31.8897],[114.578,31.8846],[114.5756,31.8728],[114.5713,31.867],[114.5655,31.8506],[114.57,31.8414],[114.577,31.8387],[114.5765,31.8327]]]},"properties":{"region_code":"CN-41-4115-411522","parent_region_code":"CN-41-4115","name":"光山县","level":"county","has_children":false,"full_path":"中国 / 河南省 / 信阳市 / 光山县","source_admin_code":"411522","osm_relation_id":3218096}},
{"type":"Feature","geometry":{"type":"Polygon","coordinates":[[[114.5645,31.7697],[114.5666,31.7655],[114.579,31.7665],[114.5818,31.7569],[114.5758,31.7417],[114.5779,31.7347],[114.5751,31.7204],[114.5709,31.7158],[114.5758,31.7089],[114.5883,31.7061],[114.5794,31.6937],[114.57,31.6939],[114.567,31.6618],[114.5491,31.6572],[114.5473,31.6386],[114.5497,31.6334],[114.5441,31.6283],[114.5437,31.6131],[114.5509,31.5897],[114.5555,31.5631],[114.5688,31.556],[114.5697,31.5615],[114.5857,31.5636],[114.5913,31.5779],[114.6068,31.5801],[114.6116,31.5877],[114.6215,31.588],[114.6401,31.5831],[114.646,31.5767],[114.6522,31.5639],[114.6659,31.5478],[114.6718,31.5462],[114.6953,31.548],[114.6961,31.5425],[114.6907,31.528],[114.7005,31.5271],[114.7118,31.53],[114.7152,31.5222],[114.7358,31.5294],[114.7424,31.5262],[114.7683,31.5243],[114.7684,31.5047],[114.7782,31.4963],[114.777,31.4874],[114.7835,31.4825],[114.8004,31.4828],[114.8186,31.4723],[114.8275,31.4644],[114.838,31.4642],[114.8437,31.471],[114.8452,31.4783],[114.8669,31.4814],[114.8737,31.4706],[114.9106,31.4798],[114.9174,31.4829],[114.9273,31.474],[114.9355,31.4743],[114.9362,31.4822],[114.9516,31.491],[114.9571,31.4988],[114.9677,31.5001],[114.9725,31.4969],[114.9767,31.4826],[114.9894,31.4727],[114.9935,31.473],[114.9961,31.4867],[115.0054,31.4894],[114.9984,31.5],[115.0056,31.5068],[115.0183,31.5297],[115.0244,31.5296],[115.0269,31.5225],[115.0358,31.5184],[115.079,31.51],[115.0917,31.5107],[115.0973,31.5225],[115.1046,31.5259],[115.1091,31.5343],[115.1014,31.5389],[115.1005,31.5467],[115.1101,31.5552],[115.109,31.5636],[115.1113,31.5747],[115.125,31.5842],[115.1202,31.5976],[115.1381,31.6073],[115.1494,31.6081],[115.1687,31.6035],[115.1747,31.6117],[115.1691,31.6206],[115.1739,31.6251],[115.1759,31.637],[115.181,31.6438],[115.1924,31.6459],[115.1961,31.6495],[115.1961,31.6624],[115.2034,31.6678],[115.205,31.6767],[115.1914,31.6817],[115.1729,31.6796],[115.157,31.6863],[115.1541,31.6929],[115.1578,31.7016],[115.1579,31.7104],[115.1448,31.7049],[115.125,31.7025],[115.1145,31.7065],[115.1176,31.7129],[115.1134,31.7196],[115.0942,31.7318],[115.0773,31.7387],[115.072,31.7304],[115.0646,31.7321],[115.0586,31.7276],[115.046,31.7262],[115.0415,31.7306],[115.0356,31.7515],[115.02,31.7495],[115.0155,31.74],[115.0022,31.7426],[115.0013,31.7476],[114.9844,31.7516],[114.9791,31.7477],[114.9627,31.7477],[114.9568,31.7412],[114.9487,31.7418],[114.9385,31.7366],[114.9283,31.7472],[114.9081,31.7516],[114.8951,31.7611],[114.8824,31.7624],[114.8778,31.7701],[114.8632,31.7749],[114.8559,31.7834],[114.8434,31.7872],[114.8322,31.7951],[114.8241,31.7771],[114.8136,31.7737],[114.7894,31.7738],[114.7801,31.7684],[114.7735,31.7795],[114.772,31.7876],[114.7583,31.7871],[114.7375,31.7936],[114.7324,31.7837],[114.7213,31.7926],[114.705,31.7956],[114.7074,31.805],[114.6982,31.8023],[114.6928,31.7958],[114.6904,31.7818],[114.6814,31.7873],[114.6628,31.7851],[114.6591,31.791],[114.6604,31.8001],[114.6457,31.807],[114.6268,31.8083],[114.6204,31.8067],[114.6179,31.7997],[114.6093,31.7999],[114.5927,31.8177],[114.578,31.8149],[114.5765,31.8327],[114.567,31.8307],[114.5631,31.8258],[114.5611,31.8133],[114.563,31.7924],[114.5617,31.7812],[114.5645,31.7697]]]},"properties":{"region_code":"CN-41-4115-411523","parent_region_code":"CN-41-4115","name":"新县","level":"county","has_children":false,"full_path":"中国 / 河南省 / 信阳市 / 新县","source_admin_code":"411523","osm_relation_id":3058651}},
{"type":"Feature","geometry":{"type":"Polygon","coordinates":[[[115.1579,31.7104],[115.1578,31.7016],[115.1541,31.6929],[115.157,31.6863],[115.1729,31.6796],[115.1914,31.6817],[115.205,31.6767],[115.2034,31.6678],[115.1961,31.6624],[115.1961,31.6495],[115.1924,31.6459],[115.181,31.6438],[115.1759,31.637],[115.1739,31.6251],[115.1691,31.6206],[115.1747,31.6117],[115.1687,31.6035],[115.1714,31.602],[115.1725,31.5864],[115.1866,31.5671],[115.2016,31.5662],[115.2095,31.556],[115.2308,31.5562],[115.2263,31.5507],[115.2208,31.5297],[115.2128,31.5161],[115.2136,31.5037],[115.2069,31.4924],[115.2108,31.4854],[115.2132,31.4713],[115.2031,31.4478],[115.2176,31.4264],[115.23,31.4289],[115.2469,31.4235],[115.2553,31.4138],[115.2462,31.3984],[115.2469,31.3938],[115.2582,31.3894],[115.2688,31.3988],[115.2793,31.4015],[115.2916,31.3978],[115.2974,31.3865],[115.3035,31.3845],[115.3197,31.3909],[115.3315,31.4042],[115.3484,31.4008],[115.3692,31.4066],[115.3705,31.4133],[115.3783,31.4169],[115.3784,31.4317],[115.3835,31.4514],[115.3717,31.4719],[115.37,31.4872],[115.3664,31.4929],[115.3686,31.5008],[115.3863,31.5078],[115.3913,31.5156],[115.4047,31.5206],[115.4129,31.5275],[115.4241,31.5479],[115.4268,31.5624],[115.4235,31.5668],[115.4339,31.5796],[115.4324,31.5884],[115.4429,31.5954],[115.4499,31.5958],[115.465,31.6056],[115.482,31.6121],[115.4864,31.6231],[115.4721,31.6471],[115.4788,31.6493],[115.4805,31.6615],[115.4877,31.6663],[115.4889,31.6749],[115.5094,31.6846],[115.5137,31.6927],[115.5247,31.7003],[115.5486,31.6974],[115.5506,31.7028],[115.5628,31.7116],[115.5691,31.7108],[115.5809,31.717],[115.5808,31.7236],[115.5899,31.7269],[115.5952,31.7334],[115.6176,31.7418],[115.627,31.7498],[115.6338,31.7596],[115.63,31.7684],[115.6113,31.7753],[115.621,31.7916],[115.6138,31.8028],[115.6047,31.8063],[115.5975,31.8046],[115.5957,31.7968],[115.5796,31.7948],[115.5728,31.8103],[115.5674,31.8129],[115.5671,31.82],[115.5603,31.8306],[115.5704,31.8349],[115.5738,31.8443],[115.5687,31.8568],[115.5697,31.8669],[115.5805,31.8855],[115.5775,31.8958],[115.5843,31.9023],[115.5923,31.9034],[115.5947,31.9091],[115.6032,31.9146],[115.5897,31.928],[115.592,31.9335],[115.5753,31.948],[115.5785,31.9673],[115.5642,31.9615],[115.5577,31.9622],[115.5627,31.9718],[115.5597,31.9819],[115.565,31.9839],[115.5711,31.9935],[115.5561,32.0069],[115.5492,32.006],[115.549,32.0276],[115.5439,32.0424],[115.5356,32.0361],[115.5216,32.0342],[115.5193,32.0314],[115.5016,32.0347],[115.4923,32.0488],[115.4946,32.0565],[115.501,32.0576],[115.4992,32.0711],[115.4937,32.0729],[115.4925,32.0836],[115.4817,32.0899],[115.4717,32.0877],[115.4598,32.0991],[115.4518,32.0927],[115.4448,32.0964],[115.4308,32.0932],[115.4231,32.0855],[115.4269,32.0776],[115.4193,32.0664],[115.416,32.045],[115.4207,32.0406],[115.4223,32.0278],[115.4052,32.0283],[115.4013,32.0226],[115.3787,32.0465],[115.3757,32.0539],[115.3666,32.0555],[115.3622,32.0479],[115.3355,32.0532],[115.3285,32.0404],[115.3101,32.0386],[115.3019,32.0336],[115.3027,32.0228],[115.3012,32.0059],[115.2896,31.989],[115.2919,31.976],[115.2875,31.961],[115.2902,31.9538],[115.2843,31.9513],[115.2857,31.9435],[115.2795,31.9356],[115.2919,31.9255],[115.2875,31.9187],[115.2814,31.9197],[115.2669,31.9093],[115.2611,31.902],[115.2494,31.9024],[115.2393,31.8945],[115.241,31.8777],[115.2263,31.8804],[115.2219,31.8905],[115.2166,31.8922],[115.2145,31.9001],[115.2193,31.9066],[115.1992,31.9062],[115.1883,31.9043],[115.1845,31.8986],[115.1749,31.8977],[115.1677,31.9007],[115.1678,31.9089],[115.159,31.9092],[115.1498,31.9037],[115.1425,31.8955],[115.1348,31.8785],[115.1339,31.8701],[115.1252,31.8647],[115.1169,31.8429],[115.121,31.8359],[115.1162,31.8276],[115.1184,31.8209],[115.1086,31.8168],[115.1125,31.8078],[115.112,31.7944],[115.128,31.7894],[115.129,31.7851],[115.14,31.7846],[115.1458,31.7688],[115.1673,31.7629],[115.1812,31.7403],[115.1723,31.7275],[115.1653,31.7247],[115.1579,31.7104]]]},"properties":{"region_code":"CN-41-4115-411524","parent_region_code":"CN-41-4115","name":"商城县","level":"county","has_children":false,"full_path":"中国 / 河南省 / 信阳市 / 商城县","source_admin_code":"411524","osm_relation_id":3218101}},
{"type":"Feature","geometry":{"type":"Polygon","coordinates":[[[115.6338,31.7596],[115.6579,31.7631],[115.6766,31.7818],[115.6862,31.7779],[115.6879,31.7727],[115.6972,31.7691],[115.7055,31.7738],[115.716,31.7651],[115.7292,31.7631],[115.7296,31.7785],[115.7352,31.7849],[115.7431,31.7833],[115.766,31.7878],[115.7854,31.7817],[115.7891,31.7756],[115.7987,31.7737],[115.8111,31.7643],[115.8265,31.78],[115.8344,31.7763],[115.8431,31.7876],[115.851,31.7772],[115.8804,31.7774],[115.8879,31.7885],[115.8962,31.7943],[115.9049,31.7948],[115.9102,31.8198],[115.9008,31.8307],[115.8938,31.8323],[115.8881,31.8394],[115.8908,31.8523],[115.8905,31.8647],[115.8957,31.8707],[115.8928,31.8803],[115.9007,31.8841],[115.9028,31.8934],[115.9144,31.9113],[115.9173,31.9203],[115.9107,31.9328],[115.9118,31.9412],[115.9044,31.9452],[115.9045,31.9553],[115.9087,31.9593],[115.9137,31.9768],[115.9193,31.9836],[115.9169,31.992],[115.9206,31.9992],[115.9281,32.0039],[115.9222,32.0098],[115.9225,32.0261],[115.9141,32.0304],[115.9226,32.0389],[115.9175,32.0545],[115.9322,32.0625],[115.9374,32.0735],[115.9377,32.081],[115.93,32.0845],[115.9214,32.1072],[115.9267,32.1163],[115.9341,32.1483],[115.9307,32.157],[115.9339,32.1638],[115.9332,32.1726],[115.9278,32.1777],[115.9247,32.1885],[115.9177,32.1924],[115.9153,32.208],[115.9075,32.2333],[115.9075,32.2513],[115.9182,32.2689],[115.9123,32.2786],[115.9051,32.2817],[115.9067,32.2985],[115.8969,32.304],[115.904,32.3188],[115.9038,32.3276],[115.8995,32.3411],[115.8923,32.3487],[115.8942,32.3623],[115.8929,32.3762],[115.8939,32.3941],[115.8873,32.4075],[115.883,32.4212],[115.8844,32.4259],[115.8743,32.4346],[115.8796,32.4535],[115.871,32.4607],[115.8627,32.4587],[115.8593,32.4649],[115.8763,32.477],[115.877,32.494],[115.8683,32.5059],[115.8586,32.508],[115.8395,32.505],[115.8416,32.5113],[115.8509,32.5201],[115.8665,32.5275],[115.8707,32.5446],[115.8969,32.561],[115.9048,32.5693],[115.9137,32.5681],[115.9186,32.5715],[115.9074,32.5795],[115.8893,32.5801],[115.8816,32.5689],[115.8552,32.5395],[115.8402,32.5339],[115.8348,32.527],[115.8341,32.5023],[115.8205,32.5052],[115.7995,32.4887],[115.7799,32.4685],[115.7811,32.4882],[115.7664,32.5072],[115.7624,32.5072],[115.7607,32.4944],[115.7542,32.4843],[115.7378,32.4784],[115.7204,32.4846],[115.6961,32.4976],[115.6877,32.4915],[115.688,32.4811],[115.6956,32.4732],[115.6913,32.4696],[115.6723,32.4687],[115.669,32.4657],[115.6758,32.4546],[115.6754,32.4423],[115.669,32.4333],[115.6666,32.419],[115.6602,32.4109],[115.6501,32.4125],[115.6525,32.4311],[115.64,32.42],[115.6212,32.4074],[115.6058,32.421],[115.6008,32.4282],[115.5929,32.4269],[115.5864,32.4214],[115.5777,32.4018],[115.5802,32.389],[115.5705,32.3857],[115.5682,32.37],[115.5695,32.361],[115.5506,32.3597],[115.5465,32.3432],[115.5458,32.3315],[115.5555,32.3263],[115.5423,32.3189],[115.5334,32.3251],[115.5248,32.3201],[115.5211,32.3088],[115.5137,32.3005],[115.5065,32.3003],[115.4995,32.2925],[115.5051,32.2844],[115.4975,32.2791],[115.4824,32.2782],[115.4591,32.2809],[115.4406,32.2719],[115.4122,32.2564],[115.4006,32.2513],[115.3721,32.2497],[115.3676,32.2421],[115.3609,32.2229],[115.3598,32.2098],[115.3659,32.1967],[115.3636,32.1899],[115.3656,32.1812],[115.363,32.1756],[115.3524,32.1705],[115.344,32.1437],[115.3464,32.1344],[115.3603,32.1271],[115.356,32.1002],[115.3614,32.0962],[115.3645,32.0853],[115.3712,32.0748],[115.366,32.0645],[115.3666,32.0555],[115.3757,32.0539],[115.3787,32.0465],[115.4013,32.0226],[115.4052,32.0283],[115.4223,32.0278],[115.4207,32.0406],[115.416,32.045],[115.4193,32.0664],[115.4269,32.0776],[115.4231,32.0855],[115.4308,32.0932],[115.4448,32.0964],[115.4518,32.0927],[115.4598,32.0991],[115.4717,32.0877],[115.4817,32.0899],[115.4925,32.0836],[115.4937,32.0729],[115.4992,32.0711],[115.501,32.0576],[115.4946,32.0565],[115.4923,32.0488],[115.5016,32.0347],[115.5193,32.0314],[115.5216,32.0342],[115.5356,32.0361],[115.5439,32.0424],[115.549,32.0276],[115.5492,32.006],[115.5561,32.0069],[115.5711,31.9935],[115.565,31.9839],[115.5597,31.9819],[115.5627,31.9718],[115.5577,31.9622],[115.5642,31.9615],[115.5785,31.9673],[115.5753,31.948],[115.592,31.9335],[115.5897,31.928],[115.6032,31.9146],[115.5947,31.9091],[115.5923,31.9034],[115.5843,31.9023],[115.5775,31.8958],[115.5805,31.8855],[115.5697,31.8669],[115.5687,31.8568],[115.5738,31.8443],[115.5704,31.8349],[115.5603,31.8306],[115.5671,31.82],[115.5674,31.8129],[115.5728,31.8103],[115.5796,31.7948],[115.5957,31.7968],[115.5975,31.8046],[115.6047,31.8063],[115.6138,31.8028],[115.621,31.7916],[115.6113,31.7753],[115.63,31.7684],[115.6338,31.7596]]]},"properties":{"region_code":"CN-41-4115-411525","parent_region_code":"CN-41-4115","name":"固始县","level":"county","has_children":false,"full_path":"中国 / 河南省 / 信阳市 / 固始县","source_admin_code":"411525","osm_relation_id":2418140}},
{"type":"Feature","geometry":{"type":"Polygon","coordinates":[[[115.1339,31.8701],[115.1348,31.8785],[115.1425,31.8955],[115.1498,31.9037],[115.159,31.9092],[115.1678,31.9089],[115.1677,31.9007],[115.1749,31.8977],[115.1845,31.8986],[115.1883,31.9043],[115.1992,31.9062],[115.2193,31.9066],[115.2145,31.9001],[115.2166,31.8922],[115.2219,31.8905],[115.2263,31.8804],[115.241,31.8777],[115.2393,31.8945],[115.2494,31.9024],[115.2611,31.902],[115.2669,31.9093],[115.2814,31.9197],[115.2875,31.9187],[115.2919,31.9255],[115.2795,31.9356],[115.2857,31.9435],[115.2843,31.9513],[115.2902,31.9538],[115.2875,31.961],[115.2919,31.976],[115.2896,31.989],[115.3012,32.0059],[115.3027,32.0228],[115.3019,32.0336],[115.3101,32.0386],[115.3285,32.0404],[115.3355,32.0532],[115.3622,32.0479],[115.3666,32.0555],[115.366,32.0645],[115.3712,32.0748],[115.3645,32.0853],[115.3614,32.0962],[115.356,32.1002],[115.3603,32.1271],[115.3464,32.1344],[115.344,32.1437],[115.3524,32.1705],[115.363,32.1756],[115.3656,32.1812],[115.3636,32.1899],[115.3659,32.1967],[115.3598,32.2098],[115.3609,32.2229],[115.3676,32.2421],[115.3721,32.2497],[115.3508,32.2533],[115.3469,32.257],[115.3114,32.2567],[115.3054,32.2717],[115.2998,32.2749],[115.3031,32.302],[115.3117,32.3202],[115.3105,32.3321],[115.3018,32.339],[115.2885,32.354],[115.2864,32.3626],[115.2736,32.3564],[115.254,32.3596],[115.239,32.3594],[115.2325,32.3503],[115.2416,32.3449],[115.2365,32.3352],[115.2299,32.3364],[115.2215,32.3445],[115.2132,32.3457],[115.2021,32.341],[115.1969,32.3434],[115.1912,32.3566],[115.1823,32.3628],[115.1692,32.3586],[115.1556,32.365],[115.1389,32.3655],[115.1318,32.3678],[115.1209,32.3789],[115.1094,32.3748],[115.1105,32.3641],[115.0992,32.3492],[115.0858,32.3428],[115.0828,32.3202],[115.0776,32.3125],[115.0668,32.303],[115.0566,32.3011],[115.0393,32.3056],[115.0252,32.2986],[115.0308,32.29],[115.0317,32.2801],[115.0098,32.2675],[114.9988,32.2485],[114.983,32.241],[114.9748,32.2458],[114.9678,32.2451],[114.9643,32.2354],[114.9515,32.22],[114.9531,32.216],[114.9251,32.2089],[114.917,32.2042],[114.9027,32.2002],[114.9007,32.1897],[114.907,32.1824],[114.9036,32.1629],[114.8985,32.1578],[114.8992,32.1479],[114.9085,32.1404],[114.9094,32.134],[114.919,32.1191],[114.919,32.1133],[114.9347,32.0984],[114.9382,32.0985],[114.9447,32.0809],[114.9568,32.0716],[114.9795,32.0709],[114.9903,32.0764],[115.0046,32.0767],[115.0038,32.0672],[114.9913,32.0561],[114.9962,32.0466],[114.9957,32.0362],[114.9909,32.0335],[114.9756,32.035],[114.9745,32.0311],[114.9836,32.0254],[114.9837,32.0207],[114.9754,32.0157],[114.9756,32.0086],[114.9819,32.0059],[114.9935,32.0071],[114.9978,32.0035],[114.9943,31.9884],[114.9902,31.9848],[114.9869,31.9671],[114.9973,31.9503],[115.0022,31.9507],[115.0139,31.9349],[115.0354,31.9274],[115.0431,31.9196],[115.0538,31.9227],[115.0597,31.9306],[115.0677,31.9261],[115.07,31.9186],[115.0761,31.9167],[115.079,31.91],[115.0857,31.9088],[115.0893,31.8983],[115.0982,31.8866],[115.11,31.8747],[115.1213,31.8739],[115.1339,31.8701]]]},"properties":{"region_code":"CN-41-4115-411526","parent_region_code":"CN-41-4115","name":"潢川县","level":"county","has_children":false,"full_path":"中国 / 河南省 / 信阳市 / 潢川县","source_admin_code":"411526","osm_relation_id":3218098}},
{"type":"Feature","geometry":{"type":"Polygon","coordinates":[[[115.5929,32.4269],[115.5778,32.4201],[115.5613,32.4068],[115.5505,32.4095],[115.5632,32.4165],[115.5641,32.4232],[115.5417,32.4267],[115.532,32.4413],[115.5235,32.4412],[115.5189,32.4494],[115.508,32.4561],[115.4977,32.4848],[115.4923,32.4942],[115.4832,32.5008],[115.4802,32.5144],[115.4726,32.5203],[115.4603,32.5222],[115.4333,32.5345],[115.438,32.5432],[115.4249,32.5542],[115.4081,32.5506],[115.4061,32.5767],[115.402,32.5794],[115.3891,32.5735],[115.3244,32.5632],[115.3185,32.5569],[115.3057,32.5541],[115.2987,32.5559],[115.2912,32.5651],[115.2953,32.5708],[115.2924,32.5784],[115.2856,32.5845],[115.284,32.5917],[115.2774,32.5932],[115.2744,32.5859],[115.2594,32.5805],[115.2493,32.5874],[115.2563,32.5926],[115.2518,32.5968],[115.2364,32.5943],[115.2273,32.5865],[115.2223,32.5928],[115.2085,32.5898],[115.2023,32.5949],[115.189,32.5928],[115.188,32.5976],[115.1756,32.6093],[115.1644,32.6057],[115.1631,32.5956],[115.1518,32.6007],[115.1436,32.5947],[115.1448,32.5876],[115.1398,32.5794],[115.1314,32.5822],[115.1356,32.6036],[115.1147,32.6111],[115.1104,32.6057],[115.1017,32.6094],[115.0934,32.6183],[115.0933,32.6346],[115.0893,32.6397],[115.0807,32.6398],[115.0722,32.6358],[115.0707,32.6236],[115.0672,32.6161],[115.0569,32.6193],[115.0511,32.6111],[115.0357,32.6102],[115.0353,32.6002],[115.0237,32.5973],[115.0201,32.5881],[115.0259,32.5847],[115.0399,32.5848],[115.0457,32.5804],[115.0613,32.5883],[115.069,32.5725],[115.0709,32.5573],[115.0603,32.5529],[115.0623,32.5455],[115.0411,32.5486],[115.0411,32.5356],[115.0349,32.5268],[115.0461,32.5238],[115.0614,32.5236],[115.081,32.5124],[115.0886,32.5143],[115.0938,32.5033],[115.101,32.4946],[115.0997,32.4872],[115.1131,32.4665],[115.1171,32.4445],[115.114,32.427],[115.1161,32.4083],[115.1215,32.4021],[115.1196,32.3903],[115.1209,32.3789],[115.1318,32.3678],[115.1389,32.3655],[115.1556,32.365],[115.1692,32.3586],[115.1823,32.3628],[115.1912,32.3566],[115.1969,32.3434],[115.2021,32.341],[115.2132,32.3457],[115.2215,32.3445],[115.2299,32.3364],[115.2365,32.3352],[115.2416,32.3449],[115.2325,32.3503],[115.239,32.3594],[115.254,32.3596],[115.2736,32.3564],[115.2864,32.3626],[115.2885,32.354],[115.3018,32.339],[115.3105,32.3321],[115.3117,32.3202],[115.3031,32.302],[115.2998,32.2749],[115.3054,32.2717],[115.3114,32.2567],[115.3469,32.257],[115.3508,32.2533],[115.3721,32.2497],[115.4006,32.2513],[115.4122,32.2564],[115.4406,32.2719],[115.4591,32.2809],[115.4824,32.2782],[115.4975,32.2791],[115.5051,32.2844],[115.4995,32.2925],[115.5065,32.3003],[115.5137,32.3005],[115.5211,32.3088],[115.5248,32.3201],[115.5334,32.3251],[115.5423,32.3189],[115.5555,32.3263],[115.5458,32.3315],[115.5465,32.3432],[115.5506,32.3597],[115.5695,32.361],[115.5682,32.37],[115.5705,32.3857],[115.5802,32.389],[115.5777,32.4018],[115.5864,32.4214],[115.5929,32.4269]]]},"properties":{"region_code":"CN-41-4115-411527","parent_region_code":"CN-41-4115","name":"淮滨县","level":"county","has_children":false,"full_path":"中国 / 河南省 / 信阳市 / 淮滨县","source_admin_code":"411527","osm_relation_id":3218097}},
{"type":"Feature","geometry":{"type":"Polygon","coordinates":[[[114.6796,32.192],[114.6908,32.1932],[114.7075,32.1904],[114.7102,32.1809],[114.7191,32.1785],[114.7305,32.1837],[114.7439,32.1792],[114.7512,32.1696],[114.7695,32.1588],[114.7762,32.1517],[114.7882,32.1489],[114.8029,32.1385],[114.8192,32.1374],[114.8249,32.1424],[114.8354,32.142],[114.8486,32.1518],[114.8512,32.1597],[114.8586,32.1655],[114.8762,32.1722],[114.8798,32.1712],[114.9007,32.1897],[114.9027,32.2002],[114.917,32.2042],[114.9251,32.2089],[114.9531,32.216],[114.9515,32.22],[114.9643,32.2354],[114.9678,32.2451],[114.9748,32.2458],[114.983,32.241],[114.9988,32.2485],[115.0098,32.2675],[115.0317,32.2801],[115.0308,32.29],[115.0252,32.2986],[115.0393,32.3056],[115.0566,32.3011],[115.0668,32.303],[115.0776,32.3125],[115.0828,32.3202],[115.0858,32.3428],[115.0992,32.3492],[115.1105,32.3641],[115.1094,32.3748],[115.1209,32.3789],[115.1196,32.3903],[115.1215,32.4021],[115.1161,32.4083],[115.114,32.427],[115.1171,32.4445],[115.1131,32.4665],[115.0997,32.4872],[115.101,32.4946],[115.0938,32.5033],[115.0886,32.5143],[115.081,32.5124],[115.0614,32.5236],[115.0461,32.5238],[115.0349,32.5268],[115.0411,32.5356],[115.0411,32.5486],[115.0623,32.5455],[115.0603,32.5529],[115.0709,32.5573],[115.069,32.5725],[115.0613,32.5883],[115.0457,32.5804],[115.0399,32.5848],[115.0259,32.5847],[115.0201,32.5881],[115.0237,32.5973],[115.0353,32.6002],[115.0357,32.6102],[115.0511,32.6111],[115.0569,32.6193],[115.0672,32.6161],[115.0707,32.6236],[115.0722,32.6358],[115.0653,32.6354],[115.0615,32.6281],[115.0495,32.6338],[115.0401,32.6448],[115.0279,32.6505],[115.0149,32.6506],[115.0044,32.6582],[114.9968,32.6559],[114.9825,32.6621],[114.9514,32.6637],[114.927,32.652],[114.9157,32.6479],[114.9079,32.6559],[114.8944,32.6554],[114.8978,32.6496],[114.8988,32.6351],[114.888,32.6193],[114.8708,32.6187],[114.8656,32.625],[114.85,32.6265],[114.8451,32.6216],[114.8387,32.6261],[114.8226,32.6268],[114.8162,32.6297],[114.8117,32.6242],[114.8117,32.6094],[114.8059,32.6054],[114.801,32.6161],[114.784,32.6142],[114.783,32.5985],[114.7869,32.5851],[114.7946,32.5874],[114.8045,32.5766],[114.8064,32.5656],[114.7953,32.5528],[114.782,32.5548],[114.7801,32.5448],[114.7735,32.5401],[114.7821,32.5226],[114.7877,32.5159],[114.7819,32.5084],[114.764,32.5138],[114.7538,32.5208],[114.7548,32.5283],[114.7455,32.5283],[114.7336,32.5248],[114.7326,32.5182],[114.7246,32.5181],[114.7203,32.5303],[114.7203,32.5391],[114.715,32.5513],[114.6966,32.5418],[114.6946,32.5289],[114.6979,32.5202],[114.6877,32.5179],[114.6785,32.5203],[114.6627,32.5156],[114.6605,32.5313],[114.6453,32.5283],[114.633,32.5292],[114.6314,32.5189],[114.6162,32.5179],[114.6144,32.5125],[114.5742,32.5172],[114.5652,32.5124],[114.5634,32.5004],[114.5679,32.4981],[114.5693,32.4809],[114.5646,32.4781],[114.5692,32.4676],[114.5814,32.4612],[114.576,32.4483],[114.5691,32.4494],[114.5673,32.4395],[114.5624,32.4355],[114.5727,32.427],[114.5909,32.4229],[114.5938,32.413],[114.6086,32.4078],[114.6134,32.403],[114.6307,32.3983],[114.6412,32.3895],[114.6412,32.3786],[114.6149,32.3707],[114.614,32.3649],[114.6181,32.3535],[114.6009,32.3502],[114.6038,32.3382],[114.5943,32.3335],[114.5918,32.3261],[114.5768,32.3245],[114.5714,32.3213],[114.5751,32.3115],[114.591,32.3059],[114.5988,32.3082],[114.6104,32.3007],[114.6172,32.3015],[114.6249,32.3118],[114.6323,32.3137],[114.6536,32.3034],[114.6617,32.3041],[114.6725,32.3109],[114.6822,32.3036],[114.6723,32.284],[114.6715,32.2751],[114.6842,32.2778],[114.6892,32.2837],[114.7066,32.2915],[114.7028,32.2746],[114.6921,32.2715],[114.688,32.2652],[114.6982,32.2581],[114.6936,32.241],[114.7041,32.2355],[114.7097,32.2282],[114.6954,32.2178],[114.6923,32.2066],[114.6835,32.2051],[114.6781,32.199],[114.6796,32.192]]]},"properties":{"region_code":"CN-41-4115-411528","parent_region_code":"CN-41-4115","name":"息县","level":"county","has_children":false,"full_path":"中国 / 河南省 / 信阳市 / 息县","source_admin_code":"411528","osm_relation_id":3218103}}
]}