{"type":"FeatureCollection", "features": [
{"type":"Feature","geometry":{"type":"Polygon","coordinates":[[[108.2249,24.7559],[108.1943,24.7604],[108.1797,24.7544],[108.1687,24.7609],[108.1724,24.7716],[108.1662,24.7802],[108.1739,24.7923],[108.1654,24.8013],[108.152,24.8025],[108.1469,24.7971],[108.1353,24.7745],[108.123,24.765],[108.1109,24.7688],[108.1072,24.7773],[108.0908,24.774],[108.0776,24.78],[108.0645,24.7755],[108.0533,24.7954],[108.0326,24.7888],[108.0245,24.7779],[108.0053,24.7671],[107.9895,24.7788],[107.9888,24.7903],[107.9679,24.8169],[107.9536,24.8162],[107.9513,24.825],[107.9375,24.8391],[107.9259,24.8327],[107.9099,24.8351],[107.903,24.8424],[107.9142,24.8511],[107.9091,24.8688],[107.9184,24.8927],[107.9067,24.8915],[107.899,24.8818],[107.8922,24.883],[107.8871,24.9061],[107.9,24.9033],[107.8869,24.9296],[107.8784,24.9197],[107.8711,24.888],[107.8558,24.8928],[107.8501,24.8994],[107.8462,24.9136],[107.8273,24.9082],[107.818,24.9229],[107.8001,24.9182],[107.7902,24.9228],[107.7729,24.9221],[107.7455,24.9013],[107.7417,24.8903],[107.7244,24.8843],[107.6984,24.8915],[107.687,24.8844],[107.6776,24.8724],[107.6893,24.8644],[107.6944,24.8526],[107.7087,24.8369],[107.7204,24.8333],[107.7083,24.8227],[107.7033,24.8109],[107.7155,24.7969],[107.7169,24.7702],[107.7111,24.767],[107.6998,24.7723],[107.688,24.7693],[107.6736,24.7718],[107.6622,24.768],[107.6408,24.7492],[107.6313,24.7469],[107.6246,24.7539],[107.6133,24.7813],[107.6079,24.7862],[107.6146,24.7979],[107.6141,24.8064],[107.5941,24.8158],[107.5687,24.7901],[107.557,24.7827],[107.5622,24.764],[107.5763,24.744],[107.568,24.7266],[107.5824,24.7174],[107.5799,24.7046],[107.5623,24.6963],[107.5612,24.6823],[107.5515,24.6717],[107.5494,24.6552],[107.5557,24.6488],[107.5516,24.6403],[107.562,24.6306],[107.5734,24.6294],[107.5829,24.6079],[107.5995,24.6024],[107.6033,24.5901],[107.62,24.579],[107.6242,24.5665],[107.6422,24.5629],[107.636,24.5518],[107.6426,24.5405],[107.633,24.5284],[107.6401,24.508],[107.6529,24.5099],[107.6499,24.497],[107.6624,24.4847],[107.6574,24.4708],[107.6666,24.4604],[107.6612,24.4471],[107.6719,24.4367],[107.6755,24.415],[107.6678,24.4041],[107.6768,24.3942],[107.6908,24.3939],[107.7089,24.4017],[107.7094,24.3835],[107.7228,24.3737],[107.7298,24.3588],[107.7574,24.372],[107.7611,24.3673],[107.7673,24.3831],[107.7628,24.3902],[107.7724,24.406],[107.7805,24.4081],[107.7894,24.4198],[107.8007,24.4198],[107.8054,24.4049],[107.8294,24.4117],[107.8351,24.4051],[107.8367,24.393],[107.8463,24.3759],[107.8715,24.401],[107.8693,24.4082],[107.876,24.419],[107.884,24.4117],[107.8935,24.4182],[107.8838,24.426],[107.8761,24.4475],[107.8691,24.4552],[107.8664,24.4789],[107.8767,24.4835],[107.8908,24.4964],[107.8971,24.4923],[107.909,24.4953],[107.9291,24.4918],[107.9343,24.5023],[107.9271,24.515],[107.9398,24.5422],[107.9397,24.5551],[107.932,24.5619],[107.9271,24.5756],[107.9417,24.5745],[107.9629,24.5802],[108.0041,24.5693],[108.0117,24.5715],[108.0299,24.5678],[108.0537,24.5514],[108.068,24.5569],[108.0815,24.5573],[108.0911,24.549],[108.0892,24.5386],[108.0998,24.535],[108.1148,24.5462],[108.1247,24.5432],[108.1289,24.5564],[108.1381,24.5512],[108.1535,24.5367],[108.1751,24.5292],[108.2015,24.5353],[108.2074,24.5461],[108.2179,24.5542],[108.226,24.589],[108.2205,24.6045],[108.2009,24.6178],[108.2005,24.6345],[108.1898,24.6502],[108.1808,24.6576],[108.1778,24.6668],[108.1932,24.6811],[108.2032,24.6795],[108.2129,24.6865],[108.2168,24.7007],[108.2232,24.708],[108.2195,24.7329],[108.2147,24.7493],[108.2249,24.7559]]]},"properties":{"region_code":"CN-45-4512-451202","parent_region_code":"CN-45-4512","name":"金城江区","level":"county","has_children":false,"full_path":"中国 / 广西壮族自治区 / 河池市 / 金城江区","source_admin_code":"451202","osm_relation_id":2774384}},
{"type":"Feature","geometry":{"type":"Polygon","coordinates":[[[108.0537,24.5514],[108.0437,24.5439],[108.07,24.5199],[108.0734,24.5138],[108.0843,24.5133],[108.0856,24.4987],[108.0767,24.4925],[108.0706,24.4642],[108.0883,24.441],[108.1083,24.4324],[108.1178,24.4256],[108.1129,24.4061],[108.1245,24.4023],[108.1361,24.3927],[108.1487,24.3877],[108.1564,24.3923],[108.1788,24.3904],[108.1874,24.3858],[108.1987,24.3922],[108.2012,24.4008],[108.1851,24.4104],[108.1952,24.4364],[108.2156,24.4101],[108.2295,24.4046],[108.2494,24.4005],[108.2577,24.4162],[108.2668,24.4134],[108.2774,24.4038],[108.3025,24.4056],[108.3128,24.4009],[108.321,24.375],[108.3167,24.3663],[108.3341,24.3578],[108.3265,24.3413],[108.3447,24.3439],[108.3589,24.3425],[108.3624,24.3343],[108.3851,24.3201],[108.376,24.3035],[108.3759,24.2926],[108.3907,24.2898],[108.4101,24.2938],[108.4182,24.2923],[108.4171,24.3109],[108.4294,24.3089],[108.4354,24.3029],[108.4422,24.285],[108.4496,24.2868],[108.4642,24.2825],[108.4679,24.2708],[108.4852,24.2499],[108.4867,24.2368],[108.4805,24.2263],[108.4839,24.2193],[108.4776,24.2123],[108.493,24.1936],[108.4794,24.1851],[108.4683,24.1667],[108.4678,24.1526],[108.476,24.1355],[108.4749,24.129],[108.4863,24.1157],[108.4997,24.1064],[108.4833,24.1042],[108.4835,24.0862],[108.5003,24.0678],[108.5049,24.0531],[108.5069,24.0333],[108.5001,24.0262],[108.5025,24.0137],[108.5132,24.0052],[108.5528,24.0047],[108.5641,24.0135],[108.563,24.0272],[108.5698,24.0379],[108.583,24.0383],[108.594,24.0483],[108.5906,24.0662],[108.5855,24.0737],[108.5861,24.0845],[108.581,24.0965],[108.5845,24.1139],[108.5951,24.123],[108.5871,24.139],[108.6001,24.144],[108.6106,24.1438],[108.6143,24.1369],[108.6339,24.1447],[108.6534,24.1379],[108.6556,24.1486],[108.6619,24.1526],[108.672,24.1492],[108.6833,24.1639],[108.6735,24.1799],[108.6899,24.226],[108.6982,24.2344],[108.6848,24.2383],[108.6777,24.2455],[108.686,24.2644],[108.6697,24.2801],[108.6678,24.2918],[108.6999,24.2933],[108.717,24.299],[108.7368,24.3154],[108.7371,24.327],[108.7229,24.337],[108.7355,24.367],[108.7432,24.3746],[108.7559,24.3746],[108.7623,24.3667],[108.7734,24.3715],[108.784,24.3637],[108.7935,24.3631],[108.8012,24.3762],[108.8117,24.3723],[108.8359,24.357],[108.8437,24.333],[108.8545,24.326],[108.8529,24.3135],[108.8443,24.3107],[108.8587,24.2753],[108.8785,24.2724],[108.893,24.2669],[108.902,24.2593],[108.9149,24.2647],[108.9136,24.2819],[108.9208,24.3039],[108.922,24.3198],[108.9292,24.3252],[108.9215,24.3344],[108.9283,24.3475],[108.9211,24.3525],[108.9215,24.3683],[108.9519,24.3848],[108.9626,24.3797],[108.9732,24.3873],[108.993,24.3763],[108.9965,24.3906],[109.0097,24.4031],[109.0099,24.4125],[108.999,24.4246],[109.0147,24.4361],[109.0168,24.443],[109.0374,24.448],[109.0446,24.46],[109.0286,24.4678],[109.0296,24.4778],[109.0128,24.4857],[108.9935,24.4848],[108.991,24.4909],[108.9639,24.4907],[108.9577,24.488],[108.9557,24.4752],[108.936,24.4749],[108.924,24.4883],[108.9144,24.5035],[108.8962,24.5026],[108.8845,24.5127],[108.8887,24.5188],[108.8729,24.5266],[108.8628,24.5224],[108.8526,24.5318],[108.8325,24.535],[108.8456,24.5527],[108.8397,24.5625],[108.8471,24.5741],[108.8683,24.576],[108.8866,24.5804],[108.9112,24.5953],[108.8973,24.6243],[108.8746,24.6144],[108.8655,24.6253],[108.8524,24.6263],[108.8259,24.6224],[108.8109,24.6282],[108.7916,24.6298],[108.7966,24.6452],[108.7824,24.6585],[108.771,24.6601],[108.7469,24.6446],[108.7441,24.6369],[108.7321,24.6252],[108.7139,24.6274],[108.7094,24.6386],[108.6896,24.6322],[108.68,24.6375],[108.6803,24.6509],[108.6762,24.6586],[108.6793,24.6725],[108.6698,24.6892],[108.6779,24.705],[108.6688,24.7119],[108.6722,24.7278],[108.6524,24.7498],[108.6358,24.7448],[108.628,24.7335],[108.6181,24.7298],[108.6118,24.7386],[108.6007,24.7332],[108.5864,24.7312],[108.5845,24.7234],[108.5703,24.71],[108.5566,24.7193],[108.5556,24.733],[108.5454,24.7356],[108.544,24.7478],[108.5259,24.7507],[108.5174,24.7658],[108.527,24.7752],[108.528,24.7906],[108.5194,24.8082],[108.5053,24.8065],[108.4906,24.8294],[108.4878,24.8492],[108.4899,24.8667],[108.4811,24.8663],[108.4761,24.858],[108.4469,24.8678],[108.4368,24.8606],[108.4236,24.8642],[108.4236,24.8473],[108.432,24.8379],[108.4409,24.8202],[108.4237,24.809],[108.4264,24.795],[108.4319,24.7872],[108.4256,24.7759],[108.41,24.7609],[108.3843,24.7452],[108.3817,24.7328],[108.3702,24.7288],[108.3611,24.7405],[108.3541,24.7357],[108.3303,24.7401],[108.3243,24.7335],[108.3109,24.7435],[108.3061,24.7516],[108.2866,24.7456],[108.2709,24.7377],[108.2599,24.7446],[108.2357,24.7494],[108.2249,24.7559],[108.2147,24.7493],[108.2195,24.7329],[108.2232,24.708],[108.2168,24.7007],[108.2129,24.6865],[108.2032,24.6795],[108.1932,24.6811],[108.1778,24.6668],[108.1808,24.6576],[108.1898,24.6502],[108.2005,24.6345],[108.2009,24.6178],[108.2205,24.6045],[108.226,24.589],[108.2179,24.5542],[108.2074,24.5461],[108.2015,24.5353],[108.1751,24.5292],[108.1535,24.5367],[108.1381,24.5512],[108.1289,24.5564],[108.1247,24.5432],[108.1148,24.5462],[108.0998,24.535],[108.0892,24.5386],[108.0911,24.549],[108.0815,24.5573],[108.068,24.5569],[108.0537,24.5514]]]},"properties":{"region_code":"CN-45-4512-451203","parent_region_code":"CN-45-4512","name":"宜州区","level":"county","has_children":false,"full_path":"中国 / 广西壮族自治区 / 河池市 / 宜州区","source_admin_code":"451203","osm_relation_id":2774388}},
{"type":"Feature","geometry":{"type":"Polygon","coordinates":[[[107.8869,24.9296],[107.9008,24.9431],[107.908,24.9601],[107.9,24.964],[107.8972,24.9861],[107.9004,24.9991],[107.8937,25.0056],[107.8867,25.0247],[107.8754,25.0299],[107.8785,25.036],[107.8715,25.0488],[107.8694,25.0651],[107.871,25.0835],[107.8536,25.0969],[107.8415,25.1018],[107.8352,25.1191],[107.8158,25.1313],[107.804,25.1277],[107.7938,25.1191],[107.7771,25.1211],[107.764,25.1195],[107.7588,25.1273],[107.7864,25.145],[107.7853,25.1522],[107.7734,25.1634],[107.7792,25.1723],[107.7628,25.1879],[107.7535,25.2022],[107.7588,25.2236],[107.759,25.2346],[107.7485,25.2428],[107.7337,25.2351],[107.7345,25.2307],[107.703,25.2105],[107.6948,25.2139],[107.6954,25.2246],[107.6818,25.2268],[107.6818,25.2366],[107.6703,25.2395],[107.6682,25.252],[107.6568,25.2623],[107.6631,25.2672],[107.6644,25.2796],[107.6606,25.2925],[107.6493,25.2989],[107.6653,25.3075],[107.6632,25.3225],[107.6453,25.3216],[107.6322,25.3086],[107.6193,25.3089],[107.6189,25.2929],[107.6087,25.2834],[107.6129,25.2717],[107.5871,25.261],[107.5735,25.2594],[107.5574,25.2526],[107.5509,25.2433],[107.5401,25.2389],[107.5353,25.2279],[107.5222,25.2278],[107.5146,25.2183],[107.5061,25.2226],[107.4969,25.2108],[107.4875,25.2155],[107.4746,25.2134],[107.4673,25.2189],[107.4705,25.2289],[107.4651,25.24],[107.472,25.2479],[107.4823,25.2743],[107.4741,25.2821],[107.4823,25.2867],[107.4714,25.2977],[107.4536,25.2892],[107.4399,25.2859],[107.4225,25.2904],[107.421,25.3054],[107.4144,25.3095],[107.4156,25.3365],[107.397,25.3494],[107.4084,25.3716],[107.417,25.3804],[107.4185,25.3887],[107.3911,25.3924],[107.3895,25.407],[107.3652,25.4125],[107.3637,25.4033],[107.3542,25.3961],[107.3424,25.4055],[107.3152,25.4054],[107.3053,25.4117],[107.2996,25.4311],[107.322,25.4395],[107.328,25.4655],[107.3159,25.487],[107.3249,25.4973],[107.3102,25.5073],[107.3003,25.503],[107.2934,25.5163],[107.2774,25.5333],[107.2554,25.5441],[107.2403,25.5456],[107.2263,25.5572],[107.2225,25.5704],[107.2298,25.5888],[107.2365,25.5968],[107.2176,25.6038],[107.2042,25.6133],[107.1946,25.6006],[107.1838,25.5999],[107.1809,25.5811],[107.1615,25.577],[107.1361,25.566],[107.1058,25.5671],[107.0887,25.5713],[107.0755,25.5685],[107.0668,25.5593],[107.059,25.5446],[107.0693,25.5288],[107.0653,25.5138],[107.0491,25.5061],[107.0349,25.506],[107.0095,25.4978],[107.0097,25.4868],[107.0036,25.4824],[107.011,25.4793],[107.0183,25.4629],[107.0412,25.4513],[107.0759,25.4432],[107.0732,25.4231],[107.0861,25.4206],[107.0922,25.4012],[107.1051,25.3884],[107.1134,25.3984],[107.1201,25.3957],[107.1369,25.4071],[107.1502,25.4009],[107.1649,25.4003],[107.1649,25.3853],[107.1355,25.3795],[107.1335,25.3613],[107.1249,25.3434],[107.1355,25.3344],[107.1313,25.3093],[107.1272,25.304],[107.1151,25.3096],[107.1069,25.2861],[107.1121,25.2724],[107.1235,25.2711],[107.1248,25.255],[107.1349,25.2394],[107.1461,25.238],[107.1631,25.2079],[107.1881,25.2004],[107.1992,25.2045],[107.213,25.1979],[107.2215,25.2016],[107.2293,25.1877],[107.2221,25.1789],[107.2083,25.1775],[107.2187,25.1608],[107.2301,25.1516],[107.2067,25.1393],[107.2138,25.1237],[107.2124,25.1126],[107.2297,25.12],[107.2496,25.0937],[107.2601,25.0866],[107.261,25.0714],[107.2681,25.0668],[107.2845,25.0748],[107.2837,25.0632],[107.2917,25.0547],[107.2944,25.0426],[107.3036,25.0252],[107.3008,25.0159],[107.3115,24.9932],[107.3155,24.9728],[107.3293,24.952],[107.3189,24.936],[107.3227,24.9069],[107.2876,24.9134],[107.2814,24.9053],[107.2684,24.9012],[107.266,24.8868],[107.2762,24.8784],[107.2944,24.8704],[107.2995,24.8601],[107.315,24.8501],[107.3329,24.8294],[107.3316,24.8209],[107.3397,24.8073],[107.3319,24.7927],[107.3321,24.7787],[107.3412,24.7674],[107.3312,24.7537],[107.3388,24.7422],[107.334,24.7331],[107.3507,24.7151],[107.3709,24.7031],[107.3817,24.7068],[107.3956,24.705],[107.3981,24.7263],[107.4098,24.7271],[107.4062,24.7362],[107.4136,24.7467],[107.4225,24.7455],[107.4286,24.7556],[107.4369,24.7523],[107.4466,24.7592],[107.4554,24.7516],[107.4641,24.753],[107.4725,24.7392],[107.485,24.733],[107.5034,24.741],[107.5153,24.741],[107.5278,24.7247],[107.5438,24.7103],[107.5488,24.702],[107.5623,24.6963],[107.5799,24.7046],[107.5824,24.7174],[107.568,24.7266],[107.5763,24.744],[107.5622,24.764],[107.557,24.7827],[107.5687,24.7901],[107.5941,24.8158],[107.6141,24.8064],[107.6146,24.7979],[107.6079,24.7862],[107.6133,24.7813],[107.6246,24.7539],[107.6313,24.7469],[107.6408,24.7492],[107.6622,24.768],[107.6736,24.7718],[107.688,24.7693],[107.6998,24.7723],[107.7111,24.767],[107.7169,24.7702],[107.7155,24.7969],[107.7033,24.8109],[107.7083,24.8227],[107.7204,24.8333],[107.7087,24.8369],[107.6944,24.8526],[107.6893,24.8644],[107.6776,24.8724],[107.687,24.8844],[107.6984,24.8915],[107.7244,24.8843],[107.7417,24.8903],[107.7455,24.9013],[107.7729,24.9221],[107.7902,24.9228],[107.8001,24.9182],[107.818,24.9229],[107.8273,24.9082],[107.8462,24.9136],[107.8501,24.8994],[107.8558,24.8928],[107.8711,24.888],[107.8784,24.9197],[107.8869,24.9296]]]},"properties":{"region_code":"CN-45-4512-451221","parent_region_code":"CN-45-4512","name":"南丹县","level":"county","has_children":false,"full_path":"中国 / 广西壮族自治区 / 河池市 / 南丹县","source_admin_code":"451221","osm_relation_id":2774386}},
{"type":"Feature","geometry":{"type":"Polygon","coordinates":[[[107.0036,25.4824],[106.9946,25.4477],[106.9775,25.4512],[106.9599,25.4402],[106.9652,25.4289],[106.9637,25.4136],[106.971,25.4097],[106.9759,25.3909],[106.9752,25.3782],[106.9851,25.3613],[107.0048,25.3591],[107.0103,25.3469],[107.0026,25.3111],[107.0082,25.3003],[107.0059,25.2928],[107.0098,25.2778],[106.9877,25.2665],[106.9815,25.2582],[106.994,25.2439],[106.973,25.2368],[106.9491,25.2505],[106.9257,25.253],[106.9098,25.2465],[106.8983,25.229],[106.8974,25.1994],[106.8872,25.1868],[106.8805,25.1853],[106.8544,25.1902],[106.8151,25.1778],[106.7859,25.1735],[106.7618,25.1857],[106.7243,25.1646],[106.7105,25.1708],[106.6978,25.1815],[106.686,25.1824],[106.6682,25.1746],[106.6458,25.1706],[106.6366,25.1639],[106.6347,25.1349],[106.6252,25.1245],[106.6158,25.1213],[106.593,25.1069],[106.585,25.0888],[106.5681,25.0865],[106.5761,25.072],[106.6,25.0494],[106.6298,25.0634],[106.6545,25.0667],[106.6688,25.0605],[106.682,25.0818],[106.7051,25.0974],[106.7407,25.1014],[106.75,25.0879],[106.7385,25.0721],[106.7439,25.0608],[106.7548,25.0495],[106.7611,25.0341],[106.7504,25.0254],[106.7417,25.0341],[106.7296,25.0269],[106.7215,25.03],[106.7172,25.0063],[106.7269,25.0008],[106.739,24.9817],[106.7363,24.9737],[106.7545,24.9625],[106.7563,24.9528],[106.7652,24.9382],[106.7753,24.9284],[106.7968,24.9233],[106.8032,24.9086],[106.8152,24.9049],[106.8252,24.8961],[106.822,24.8896],[106.833,24.8825],[106.8461,24.863],[106.8469,24.8502],[106.8321,24.8606],[106.8188,24.8549],[106.82,24.8443],[106.7949,24.8362],[106.7976,24.8202],[106.7919,24.8194],[106.7831,24.8067],[106.7783,24.7887],[106.7572,24.7924],[106.7399,24.8079],[106.7249,24.8133],[106.7146,24.8104],[106.6962,24.8173],[106.6688,24.8071],[106.6587,24.7979],[106.6638,24.7748],[106.6809,24.7655],[106.6916,24.7528],[106.706,24.7462],[106.7146,24.7383],[106.7215,24.7399],[106.73,24.7304],[106.7566,24.7245],[106.779,24.7061],[106.7816,24.6942],[106.7893,24.6881],[106.8128,24.6886],[106.8133,24.6746],[106.8049,24.6677],[106.8147,24.659],[106.8241,24.6616],[106.8317,24.649],[106.8434,24.6475],[106.8543,24.6398],[106.8687,24.6408],[106.8851,24.6194],[106.8952,24.6138],[106.9037,24.6149],[106.916,24.6076],[106.924,24.6183],[106.943,24.6272],[106.933,24.639],[106.9346,24.6461],[106.9463,24.6517],[106.9309,24.6888],[106.9468,24.6975],[106.9401,24.7104],[106.9402,24.7252],[106.931,24.7358],[106.9242,24.7506],[106.9306,24.7618],[106.9471,24.7707],[106.9495,24.761],[106.9631,24.7437],[106.9762,24.742],[106.9813,24.7332],[107.0005,24.7379],[107.0155,24.7258],[107.0108,24.7454],[107.0027,24.7548],[106.9951,24.7554],[106.9879,24.7645],[106.9862,24.782],[107.0169,24.7897],[107.0146,24.7976],[107.0178,24.825],[107.0376,24.8241],[107.0565,24.7852],[107.0609,24.7688],[107.0723,24.7704],[107.0839,24.7784],[107.0898,24.7772],[107.1017,24.7896],[107.0944,24.803],[107.109,24.8184],[107.1411,24.8207],[107.1666,24.817],[107.1789,24.8275],[107.1941,24.8239],[107.218,24.842],[107.2254,24.8417],[107.2377,24.8282],[107.2626,24.8323],[107.2877,24.8419],[107.3049,24.8383],[107.315,24.8501],[107.2995,24.8601],[107.2944,24.8704],[107.2762,24.8784],[107.266,24.8868],[107.2684,24.9012],[107.2814,24.9053],[107.2876,24.9134],[107.3227,24.9069],[107.3189,24.936],[107.3293,24.952],[107.3155,24.9728],[107.3115,24.9932],[107.3008,25.0159],[107.3036,25.0252],[107.2944,25.0426],[107.2917,25.0547],[107.2837,25.0632],[107.2845,25.0748],[107.2681,25.0668],[107.261,25.0714],[107.2601,25.0866],[107.2496,25.0937],[107.2297,25.12],[107.2124,25.1126],[107.2138,25.1237],[107.2067,25.1393],[107.2301,25.1516],[107.2187,25.1608],[107.2083,25.1775],[107.2221,25.1789],[107.2293,25.1877],[107.2215,25.2016],[107.213,25.1979],[107.1992,25.2045],[107.1881,25.2004],[107.1631,25.2079],[107.1461,25.238],[107.1349,25.2394],[107.1248,25.255],[107.1235,25.2711],[107.1121,25.2724],[107.1069,25.2861],[107.1151,25.3096],[107.1272,25.304],[107.1313,25.3093],[107.1355,25.3344],[107.1249,25.3434],[107.1335,25.3613],[107.1355,25.3795],[107.1649,25.3853],[107.1649,25.4003],[107.1502,25.4009],[107.1369,25.4071],[107.1201,25.3957],[107.1134,25.3984],[107.1051,25.3884],[107.0922,25.4012],[107.0861,25.4206],[107.0732,25.4231],[107.0759,25.4432],[107.0412,25.4513],[107.0183,25.4629],[107.011,25.4793],[107.0036,25.4824]]]},"properties":{"region_code":"CN-45-4512-451222","parent_region_code":"CN-45-4512","name":"天峨县","level":"county","has_children":false,"full_path":"中国 / 广西壮族自治区 / 河池市 / 天峨县","source_admin_code":"451222","osm_relation_id":2774387}},
{"type":"Feature","geometry":{"type":"Polygon","coordinates":[[[106.8049,24.6677],[106.8029,24.6619],[106.7793,24.6548],[106.7711,24.6589],[106.7605,24.6531],[106.7474,24.6513],[106.7353,24.6442],[106.7179,24.6505],[106.7102,24.6461],[106.7009,24.6269],[106.6903,24.6261],[106.683,24.6032],[106.6973,24.6033],[106.7043,24.6086],[106.7202,24.6103],[106.7251,24.6182],[106.7455,24.6197],[106.7636,24.6123],[106.7618,24.5954],[106.7749,24.5853],[106.7643,24.5713],[106.7708,24.5663],[106.7627,24.5558],[106.76,24.5455],[106.7673,24.5151],[106.7746,24.512],[106.8037,24.5135],[106.7984,24.5015],[106.8192,24.4853],[106.8051,24.4706],[106.8012,24.4607],[106.816,24.4456],[106.8266,24.4459],[106.8332,24.4353],[106.847,24.4243],[106.8428,24.4088],[106.8551,24.4047],[106.8569,24.3961],[106.8883,24.3917],[106.8955,24.3884],[106.8961,24.3751],[106.8879,24.37],[106.8842,24.3522],[106.8935,24.3507],[106.895,24.3369],[106.8923,24.324],[106.8774,24.3168],[106.8885,24.3109],[106.8916,24.2966],[106.9025,24.2918],[106.9065,24.2834],[106.8944,24.2716],[106.9039,24.2645],[106.9166,24.2648],[106.9221,24.2558],[106.9384,24.2549],[106.9429,24.2643],[106.956,24.2725],[106.9518,24.2807],[106.953,24.2954],[106.9618,24.3054],[106.9804,24.3071],[106.9918,24.3178],[106.9873,24.3291],[106.9967,24.3426],[107.0342,24.3451],[107.0447,24.3387],[107.0536,24.3521],[107.0494,24.367],[107.0654,24.3716],[107.0734,24.3801],[107.0882,24.3793],[107.0912,24.3673],[107.1046,24.3718],[107.1156,24.3679],[107.1172,24.3792],[107.1277,24.4003],[107.1286,24.4143],[107.1019,24.4083],[107.097,24.4159],[107.1174,24.43],[107.1248,24.4415],[107.1209,24.4461],[107.1053,24.4484],[107.1155,24.467],[107.1349,24.4758],[107.1491,24.4772],[107.1654,24.4879],[107.1595,24.4939],[107.1689,24.5076],[107.1877,24.516],[107.1986,24.5284],[107.224,24.5297],[107.2443,24.5363],[107.265,24.5379],[107.277,24.534],[107.2833,24.5377],[107.2799,24.5645],[107.2645,24.593],[107.26,24.5952],[107.2513,24.6137],[107.2455,24.6151],[107.2297,24.6293],[107.2368,24.6522],[107.2366,24.6717],[107.2261,24.693],[107.2298,24.7078],[107.2265,24.7155],[107.2362,24.7274],[107.2255,24.7394],[107.2265,24.7499],[107.2103,24.7485],[107.2074,24.7547],[107.21,24.7691],[107.1828,24.7696],[107.1718,24.7652],[107.1562,24.7693],[107.1435,24.758],[107.1288,24.7593],[107.0994,24.7449],[107.1016,24.7613],[107.0915,24.7655],[107.0898,24.7772],[107.0839,24.7784],[107.0723,24.7704],[107.0609,24.7688],[107.0565,24.7852],[107.0376,24.8241],[107.0178,24.825],[107.0146,24.7976],[107.0169,24.7897],[106.9862,24.782],[106.9879,24.7645],[106.9951,24.7554],[107.0027,24.7548],[107.0108,24.7454],[107.0155,24.7258],[107.0005,24.7379],[106.9813,24.7332],[106.9762,24.742],[106.9631,24.7437],[106.9495,24.761],[106.9471,24.7707],[106.9306,24.7618],[106.9242,24.7506],[106.931,24.7358],[106.9402,24.7252],[106.9401,24.7104],[106.9468,24.6975],[106.9309,24.6888],[106.9463,24.6517],[106.9346,24.6461],[106.933,24.639],[106.943,24.6272],[106.924,24.6183],[106.916,24.6076],[106.9037,24.6149],[106.8952,24.6138],[106.8851,24.6194],[106.8687,24.6408],[106.8543,24.6398],[106.8434,24.6475],[106.8317,24.649],[106.8241,24.6616],[106.8147,24.659],[106.8049,24.6677]]]},"properties":{"region_code":"CN-45-4512-451223","parent_region_code":"CN-45-4512","name":"凤山县","level":"county","has_children":false,"full_path":"中国 / 广西壮族自治区 / 河池市 / 凤山县","source_admin_code":"451223","osm_relation_id":2774383}},
{"type":"Feature","geometry":{"type":"Polygon","coordinates":[[[107.5623,24.6963],[107.5488,24.702],[107.5438,24.7103],[107.5278,24.7247],[107.5153,24.741],[107.5034,24.741],[107.485,24.733],[107.4725,24.7392],[107.4641,24.753],[107.4554,24.7516],[107.4466,24.7592],[107.4369,24.7523],[107.4286,24.7556],[107.4225,24.7455],[107.4136,24.7467],[107.4062,24.7362],[107.4098,24.7271],[107.3981,24.7263],[107.3956,24.705],[107.3817,24.7068],[107.3709,24.7031],[107.3507,24.7151],[107.334,24.7331],[107.3388,24.7422],[107.3312,24.7537],[107.3412,24.7674],[107.3321,24.7787],[107.3319,24.7927],[107.3397,24.8073],[107.3316,24.8209],[107.3329,24.8294],[107.315,24.8501],[107.3049,24.8383],[107.2877,24.8419],[107.2626,24.8323],[107.2377,24.8282],[107.2254,24.8417],[107.218,24.842],[107.1941,24.8239],[107.1789,24.8275],[107.1666,24.817],[107.1411,24.8207],[107.109,24.8184],[107.0944,24.803],[107.1017,24.7896],[107.0898,24.7772],[107.0915,24.7655],[107.1016,24.7613],[107.0994,24.7449],[107.1288,24.7593],[107.1435,24.758],[107.1562,24.7693],[107.1718,24.7652],[107.1828,24.7696],[107.21,24.7691],[107.2074,24.7547],[107.2103,24.7485],[107.2265,24.7499],[107.2255,24.7394],[107.2362,24.7274],[107.2265,24.7155],[107.2298,24.7078],[107.2261,24.693],[107.2366,24.6717],[107.2368,24.6522],[107.2297,24.6293],[107.2455,24.6151],[107.2513,24.6137],[107.26,24.5952],[107.2645,24.593],[107.2799,24.5645],[107.2833,24.5377],[107.277,24.534],[107.265,24.5379],[107.2443,24.5363],[107.224,24.5297],[107.1986,24.5284],[107.1877,24.516],[107.1689,24.5076],[107.1595,24.4939],[107.1654,24.4879],[107.1491,24.4772],[107.1349,24.4758],[107.1155,24.467],[107.1053,24.4484],[107.1209,24.4461],[107.1248,24.4415],[107.1174,24.43],[107.097,24.4159],[107.1019,24.4083],[107.1286,24.4143],[107.1277,24.4003],[107.1371,24.3912],[107.1471,24.3618],[107.1698,24.3676],[107.1849,24.3552],[107.2044,24.3601],[107.2363,24.3639],[107.258,24.3605],[107.2541,24.3513],[107.2592,24.3438],[107.2568,24.3338],[107.2692,24.3156],[107.2822,24.3124],[107.2733,24.303],[107.2824,24.2869],[107.2872,24.2723],[107.283,24.2537],[107.2919,24.2543],[107.3002,24.2397],[107.3085,24.2403],[107.3199,24.2306],[107.3298,24.2297],[107.3471,24.2437],[107.3529,24.2393],[107.3637,24.2452],[107.3866,24.2472],[107.3824,24.2332],[107.3875,24.2263],[107.4045,24.2297],[107.4098,24.2244],[107.4249,24.2244],[107.4287,24.2336],[107.4367,24.2372],[107.4245,24.2512],[107.4235,24.2671],[107.431,24.2775],[107.4391,24.2807],[107.4424,24.2903],[107.4545,24.2818],[107.4724,24.2797],[107.4753,24.2672],[107.4725,24.2563],[107.4926,24.2563],[107.4869,24.2711],[107.4924,24.2792],[107.5017,24.2762],[107.5143,24.2824],[107.524,24.2748],[107.5211,24.2692],[107.5038,24.2638],[107.5256,24.2574],[107.5333,24.2411],[107.5318,24.2347],[107.5415,24.228],[107.5577,24.2369],[107.5497,24.2532],[107.5393,24.2613],[107.5664,24.2754],[107.577,24.2646],[107.5842,24.2635],[107.592,24.2786],[107.5809,24.2864],[107.5614,24.2935],[107.5521,24.309],[107.5586,24.314],[107.5664,24.3074],[107.5803,24.3131],[107.5922,24.3025],[107.5861,24.2894],[107.5936,24.2877],[107.6017,24.2603],[107.6126,24.2601],[107.6116,24.2727],[107.6199,24.2758],[107.6252,24.2955],[107.625,24.3118],[107.6381,24.3077],[107.6441,24.3155],[107.6313,24.332],[107.6383,24.3405],[107.6561,24.3373],[107.6597,24.3207],[107.6916,24.331],[107.6938,24.3435],[107.7027,24.3417],[107.7248,24.3471],[107.7298,24.3588],[107.7228,24.3737],[107.7094,24.3835],[107.7089,24.4017],[107.6908,24.3939],[107.6768,24.3942],[107.6678,24.4041],[107.6755,24.415],[107.6719,24.4367],[107.6612,24.4471],[107.6666,24.4604],[107.6574,24.4708],[107.6624,24.4847],[107.6499,24.497],[107.6529,24.5099],[107.6401,24.508],[107.633,24.5284],[107.6426,24.5405],[107.636,24.5518],[107.6422,24.5629],[107.6242,24.5665],[107.62,24.579],[107.6033,24.5901],[107.5995,24.6024],[107.5829,24.6079],[107.5734,24.6294],[107.562,24.6306],[107.5516,24.6403],[107.5557,24.6488],[107.5494,24.6552],[107.5515,24.6717],[107.5612,24.6823],[107.5623,24.6963]]]},"properties":{"region_code":"CN-45-4512-451224","parent_region_code":"CN-45-4512","name":"东兰县","level":"county","has_children":false,"full_path":"中国 / 广西壮族自治区 / 河池市 / 东兰县","source_admin_code":"451224","osm_relation_id":2774381}},
{"type":"Feature","geometry":{"type":"Polygon","coordinates":[[[108.8973,24.6243],[108.9366,24.6481],[108.9555,24.6458],[108.961,24.652],[108.959,24.6629],[108.9741,24.6755],[108.9505,24.6893],[108.9491,24.7113],[108.9314,24.721],[108.9292,24.7331],[108.9365,24.7423],[108.9442,24.7368],[108.9616,24.7358],[108.9497,24.7475],[108.9626,24.7489],[108.9663,24.7565],[108.9896,24.7588],[108.9992,24.7816],[109.0164,24.8018],[109.0238,24.8054],[109.0247,24.8146],[109.0327,24.8275],[109.0509,24.8226],[109.0622,24.8305],[109.0932,24.834],[109.0894,24.8202],[109.0964,24.8125],[109.1067,24.8102],[109.1191,24.7979],[109.1287,24.7951],[109.151,24.8114],[109.1556,24.8249],[109.155,24.8362],[109.1461,24.8406],[109.1332,24.8384],[109.1334,24.8525],[109.1417,24.8643],[109.133,24.8698],[109.1323,24.8945],[109.1492,24.8974],[109.1532,24.9095],[109.1378,24.9308],[109.1231,24.9372],[109.1239,24.945],[109.1161,24.9525],[109.0891,24.9498],[109.0855,24.9338],[109.0773,24.9183],[109.0542,24.9193],[109.0459,24.9222],[109.0181,24.9174],[108.9991,24.9221],[108.983,24.9359],[108.9826,24.9558],[108.9967,24.9718],[109.0215,24.9915],[109.0313,24.9914],[109.0405,25.001],[109.0479,24.9989],[109.056,25.0095],[109.0643,25.0124],[109.0674,25.0276],[109.0752,25.0337],[109.0866,25.0355],[109.0813,25.053],[109.096,25.0737],[109.091,25.0857],[109.1005,25.0949],[109.0975,25.1102],[109.0969,25.133],[109.0859,25.1443],[109.0906,25.1572],[109.0907,25.1702],[109.0695,25.1817],[109.0626,25.1823],[109.0544,25.1939],[109.0458,25.199],[109.0335,25.1943],[109.0221,25.1824],[109.0188,25.1733],[108.9989,25.1668],[108.9862,25.1771],[108.9767,25.1666],[108.9656,25.1395],[108.952,25.1244],[108.9398,25.1253],[108.9342,25.1326],[108.9092,25.1295],[108.9058,25.1545],[108.892,25.1561],[108.8743,25.1418],[108.8621,25.1442],[108.853,25.1578],[108.8355,25.1567],[108.8289,25.1394],[108.8178,25.1303],[108.8164,25.115],[108.7963,25.1167],[108.795,25.1281],[108.7865,25.1327],[108.7642,25.1229],[108.7454,25.1299],[108.7425,25.1112],[108.7231,25.0995],[108.711,25.1048],[108.7046,25.1046],[108.6929,25.0891],[108.6936,25.0697],[108.6867,25.058],[108.6787,25.0583],[108.6594,25.066],[108.648,25.0748],[108.6406,25.0682],[108.6365,25.0557],[108.6168,25.0539],[108.6016,25.0435],[108.5996,25.033],[108.607,25.0304],[108.6096,25.0211],[108.6061,25.0072],[108.6137,25.0017],[108.5916,24.9891],[108.5832,24.9964],[108.5557,24.9927],[108.5352,25.0015],[108.5203,25.0039],[108.4969,24.9906],[108.5104,24.9768],[108.5102,24.9635],[108.5048,24.9529],[108.4922,24.9427],[108.5064,24.9347],[108.505,24.9286],[108.4867,24.9238],[108.4844,24.91],[108.4756,24.9063],[108.4797,24.8944],[108.4927,24.8881],[108.4899,24.8667],[108.4878,24.8492],[108.4906,24.8294],[108.5053,24.8065],[108.5194,24.8082],[108.528,24.7906],[108.527,24.7752],[108.5174,24.7658],[108.5259,24.7507],[108.544,24.7478],[108.5454,24.7356],[108.5556,24.733],[108.5566,24.7193],[108.5703,24.71],[108.5845,24.7234],[108.5864,24.7312],[108.6007,24.7332],[108.6118,24.7386],[108.6181,24.7298],[108.628,24.7335],[108.6358,24.7448],[108.6524,24.7498],[108.6722,24.7278],[108.6688,24.7119],[108.6779,24.705],[108.6698,24.6892],[108.6793,24.6725],[108.6762,24.6586],[108.6803,24.6509],[108.68,24.6375],[108.6896,24.6322],[108.7094,24.6386],[108.7139,24.6274],[108.7321,24.6252],[108.7441,24.6369],[108.7469,24.6446],[108.771,24.6601],[108.7824,24.6585],[108.7966,24.6452],[108.7916,24.6298],[108.8109,24.6282],[108.8259,24.6224],[108.8524,24.6263],[108.8655,24.6253],[108.8746,24.6144],[108.8973,24.6243]]]},"properties":{"region_code":"CN-45-4512-451225","parent_region_code":"CN-45-4512","name":"罗城仫佬族自治县","level":"county","has_children":false,"full_path":"中国 / 广西壮族自治区 / 河池市 / 罗城仫佬族自治县","source_admin_code":"451225","osm_relation_id":2774385}},
{"type":"Feature","geometry":{"type":"Polygon","coordinates":[[[108.2249,24.7559],[108.2357,24.7494],[108.2599,24.7446],[108.2709,24.7377],[108.2866,24.7456],[108.3061,24.7516],[108.3109,24.7435],[108.3243,24.7335],[108.3303,24.7401],[108.3541,24.7357],[108.3611,24.7405],[108.3702,24.7288],[108.3817,24.7328],[108.3843,24.7452],[108.41,24.7609],[108.4256,24.7759],[108.4319,24.7872],[108.4264,24.795],[108.4237,24.809],[108.4409,24.8202],[108.432,24.8379],[108.4236,24.8473],[108.4236,24.8642],[108.4368,24.8606],[108.4469,24.8678],[108.4761,24.858],[108.4811,24.8663],[108.4899,24.8667],[108.4927,24.8881],[108.4797,24.8944],[108.4756,24.9063],[108.4844,24.91],[108.4867,24.9238],[108.505,24.9286],[108.5064,24.9347],[108.4922,24.9427],[108.5048,24.9529],[108.5102,24.9635],[108.5104,24.9768],[108.4969,24.9906],[108.5203,25.0039],[108.5352,25.0015],[108.5557,24.9927],[108.5832,24.9964],[108.5916,24.9891],[108.6137,25.0017],[108.6061,25.0072],[108.6096,25.0211],[108.607,25.0304],[108.5996,25.033],[108.6016,25.0435],[108.6168,25.0539],[108.6365,25.0557],[108.6406,25.0682],[108.648,25.0748],[108.6594,25.066],[108.6787,25.0583],[108.6867,25.058],[108.6936,25.0697],[108.6929,25.0891],[108.7046,25.1046],[108.711,25.1048],[108.696,25.1043],[108.6711,25.1176],[108.6739,25.1322],[108.6833,25.1315],[108.6819,25.1437],[108.6902,25.1664],[108.7114,25.162],[108.7158,25.1791],[108.6965,25.1932],[108.6885,25.1934],[108.6766,25.2054],[108.6645,25.2069],[108.6512,25.2181],[108.6496,25.2359],[108.6529,25.2409],[108.6447,25.2517],[108.6461,25.2752],[108.6382,25.3018],[108.6218,25.3115],[108.6088,25.3129],[108.5883,25.3372],[108.5884,25.3526],[108.5819,25.3689],[108.5585,25.3758],[108.5577,25.3886],[108.5469,25.3985],[108.5385,25.4115],[108.5205,25.4219],[108.5053,25.4183],[108.5087,25.4328],[108.4992,25.4474],[108.4864,25.4545],[108.4818,25.4614],[108.4666,25.4597],[108.4343,25.4501],[108.429,25.4398],[108.415,25.4453],[108.4085,25.4597],[108.41,25.4653],[108.3952,25.4951],[108.3529,25.5181],[108.3401,25.5413],[108.3148,25.5372],[108.3122,25.5289],[108.302,25.518],[108.2939,25.502],[108.2781,25.4808],[108.2588,25.4785],[108.2498,25.4691],[108.2377,25.4634],[108.2324,25.4514],[108.2481,25.4409],[108.2482,25.432],[108.2223,25.4285],[108.218,25.4514],[108.1989,25.4535],[108.1883,25.4604],[108.1573,25.4463],[108.1582,25.4314],[108.1668,25.4336],[108.1777,25.429],[108.1861,25.4198],[108.1815,25.4138],[108.1881,25.402],[108.1747,25.393],[108.1458,25.3963],[108.1381,25.3928],[108.151,25.3806],[108.1482,25.3556],[108.1317,25.344],[108.1481,25.3259],[108.1474,25.3126],[108.1293,25.2941],[108.132,25.283],[108.1425,25.2734],[108.1307,25.2605],[108.1295,25.2371],[108.1184,25.2326],[108.105,25.2155],[108.1033,25.2072],[108.0737,25.1972],[108.0528,25.2014],[108.0074,25.1973],[107.9985,25.1982],[107.9898,25.1905],[107.9653,25.1792],[107.9474,25.1755],[107.932,25.1634],[107.8947,25.1507],[107.8941,25.1472],[107.8682,25.1424],[107.8666,25.133],[107.8352,25.1191],[107.8415,25.1018],[107.8536,25.0969],[107.871,25.0835],[107.8694,25.0651],[107.8715,25.0488],[107.8785,25.036],[107.8754,25.0299],[107.8867,25.0247],[107.8937,25.0056],[107.9004,24.9991],[107.8972,24.9861],[107.9,24.964],[107.908,24.9601],[107.9008,24.9431],[107.8869,24.9296],[107.9,24.9033],[107.8871,24.9061],[107.8922,24.883],[107.899,24.8818],[107.9067,24.8915],[107.9184,24.8927],[107.9091,24.8688],[107.9142,24.8511],[107.903,24.8424],[107.9099,24.8351],[107.9259,24.8327],[107.9375,24.8391],[107.9513,24.825],[107.9536,24.8162],[107.9679,24.8169],[107.9888,24.7903],[107.9895,24.7788],[108.0053,24.7671],[108.0245,24.7779],[108.0326,24.7888],[108.0533,24.7954],[108.0645,24.7755],[108.0776,24.78],[108.0908,24.774],[108.1072,24.7773],[108.1109,24.7688],[108.123,24.765],[108.1353,24.7745],[108.1469,24.7971],[108.152,24.8025],[108.1654,24.8013],[108.1739,24.7923],[108.1662,24.7802],[108.1724,24.7716],[108.1687,24.7609],[108.1797,24.7544],[108.1943,24.7604],[108.2249,24.7559]]]},"properties":{"region_code":"CN-45-4512-451226","parent_region_code":"CN-45-4512","name":"环江毛南族自治县","level":"county","has_children":false,"full_path":"中国 / 广西壮族自治区 / 河池市 / 环江毛南族自治县","source_admin_code":"451226","osm_relation_id":2099451}},
{"type":"Feature","geometry":{"type":"Polygon","coordinates":[[[106.9221,24.2558],[106.9197,24.2469],[106.9098,24.2335],[106.9081,24.2231],[106.8985,24.212],[106.8651,24.1971],[106.8666,24.1911],[106.8559,24.1811],[106.856,24.1682],[106.8665,24.1652],[106.877,24.1492],[106.8793,24.1357],[106.8907,24.13],[106.8918,24.114],[106.9007,24.1119],[106.9092,24.1002],[106.9352,24.1042],[106.9434,24.115],[106.9614,24.1032],[106.9396,24.0959],[106.9402,24.0875],[106.9621,24.0767],[106.9723,24.065],[106.9841,24.0628],[106.9947,24.0442],[106.9997,24.0446],[107.0149,24.026],[107.0195,24.0309],[107.0332,24.0324],[107.0552,24.0597],[107.0953,24.0512],[107.1212,24.0522],[107.1314,24.0468],[107.1274,24.0356],[107.1335,24.032],[107.1347,24.0171],[107.1432,23.9961],[107.1583,23.9889],[107.1679,23.993],[107.1883,23.9814],[107.1924,23.9732],[107.213,23.9796],[107.2222,23.9708],[107.2485,23.9693],[107.2618,23.9971],[107.281,23.9929],[107.2734,23.9819],[107.2947,23.9561],[107.2937,23.9366],[107.3029,23.9272],[107.3208,23.9242],[107.3247,23.9141],[107.3333,23.9167],[107.346,23.9122],[107.3725,23.9222],[107.379,23.9064],[107.3844,23.9035],[107.3816,23.8825],[107.3864,23.8748],[107.4003,23.8767],[107.4187,23.8524],[107.4241,23.8363],[107.4405,23.8326],[107.4499,23.8351],[107.4622,23.8606],[107.4758,23.8642],[107.4754,23.8809],[107.4688,23.8848],[107.4606,23.9003],[107.4736,23.9067],[107.4688,23.9157],[107.4742,23.9289],[107.4739,23.9422],[107.4556,23.9407],[107.4469,23.9457],[107.4464,23.9624],[107.4368,23.9772],[107.4282,23.9765],[107.4252,23.9874],[107.418,23.9905],[107.4038,23.9847],[107.395,23.9904],[107.3916,24.0054],[107.3937,24.0125],[107.3741,24.0307],[107.3725,24.0393],[107.3625,24.0585],[107.3587,24.0781],[107.3637,24.0949],[107.3493,24.1258],[107.3438,24.1233],[107.3317,24.1364],[107.3465,24.1516],[107.3467,24.1594],[107.3781,24.1688],[107.3825,24.153],[107.3907,24.1423],[107.3851,24.1331],[107.4013,24.1245],[107.427,24.137],[107.4301,24.1515],[107.4508,24.1556],[107.4583,24.1463],[107.4849,24.1645],[107.4943,24.1662],[107.5023,24.158],[107.5128,24.1621],[107.5341,24.1842],[107.5386,24.2045],[107.5422,24.2086],[107.5415,24.228],[107.5318,24.2347],[107.5333,24.2411],[107.5256,24.2574],[107.5038,24.2638],[107.5211,24.2692],[107.524,24.2748],[107.5143,24.2824],[107.5017,24.2762],[107.4924,24.2792],[107.4869,24.2711],[107.4926,24.2563],[107.4725,24.2563],[107.4753,24.2672],[107.4724,24.2797],[107.4545,24.2818],[107.4424,24.2903],[107.4391,24.2807],[107.431,24.2775],[107.4235,24.2671],[107.4245,24.2512],[107.4367,24.2372],[107.4287,24.2336],[107.4249,24.2244],[107.4098,24.2244],[107.4045,24.2297],[107.3875,24.2263],[107.3824,24.2332],[107.3866,24.2472],[107.3637,24.2452],[107.3529,24.2393],[107.3471,24.2437],[107.3298,24.2297],[107.3199,24.2306],[107.3085,24.2403],[107.3002,24.2397],[107.2919,24.2543],[107.283,24.2537],[107.2872,24.2723],[107.2824,24.2869],[107.2733,24.303],[107.2822,24.3124],[107.2692,24.3156],[107.2568,24.3338],[107.2592,24.3438],[107.2541,24.3513],[107.258,24.3605],[107.2363,24.3639],[107.2044,24.3601],[107.1849,24.3552],[107.1698,24.3676],[107.1471,24.3618],[107.1371,24.3912],[107.1277,24.4003],[107.1172,24.3792],[107.1156,24.3679],[107.1046,24.3718],[107.0912,24.3673],[107.0882,24.3793],[107.0734,24.3801],[107.0654,24.3716],[107.0494,24.367],[107.0536,24.3521],[107.0447,24.3387],[107.0342,24.3451],[106.9967,24.3426],[106.9873,24.3291],[106.9918,24.3178],[106.9804,24.3071],[106.9618,24.3054],[106.953,24.2954],[106.9518,24.2807],[106.956,24.2725],[106.9429,24.2643],[106.9384,24.2549],[106.9221,24.2558]]]},"properties":{"region_code":"CN-45-4512-451227","parent_region_code":"CN-45-4512","name":"巴马瑶族自治县","level":"county","has_children":false,"full_path":"中国 / 广西壮族自治区 / 河池市 / 巴马瑶族自治县","source_admin_code":"451227","osm_relation_id":2774379}},
{"type":"Feature","geometry":{"type":"Polygon","coordinates":[[[107.7611,24.3673],[107.7743,24.3602],[107.7614,24.3375],[107.7625,24.3252],[107.7756,24.3212],[107.7878,24.3134],[107.778,24.3052],[107.7821,24.2854],[107.775,24.2821],[107.7728,24.2622],[107.7836,24.2522],[107.7788,24.2482],[107.7776,24.2321],[107.7696,24.2255],[107.7777,24.2192],[107.7706,24.1981],[107.7717,24.1925],[107.7853,24.1863],[107.7706,24.1751],[107.7787,24.1613],[107.7941,24.1598],[107.8077,24.1667],[107.8138,24.1641],[107.8072,24.1415],[107.7952,24.136],[107.7865,24.1265],[107.7841,24.1147],[107.7773,24.1144],[107.7703,24.0903],[107.7739,24.0764],[107.7896,24.0773],[107.8018,24.063],[107.8051,24.0468],[107.8191,24.039],[107.8334,24.0473],[107.8297,24.0266],[107.845,24.0284],[107.859,24.019],[107.8691,24.0187],[107.879,24.0261],[107.8941,24.0216],[107.9042,24.0122],[107.8952,24.0052],[107.9098,23.9814],[107.8927,23.9767],[107.8845,23.968],[107.8671,23.9581],[107.8619,23.9471],[107.87,23.9402],[107.8586,23.9318],[107.8788,23.9148],[107.8926,23.9153],[107.9046,23.9201],[107.9114,23.913],[107.9301,23.9264],[107.9343,23.9168],[107.9496,23.9151],[107.9489,23.9035],[107.9848,23.8923],[107.9786,23.8844],[107.9678,23.8858],[107.9571,23.8676],[107.9432,23.8577],[107.9346,23.8594],[107.9208,23.8411],[107.934,23.8297],[107.9477,23.8352],[107.9517,23.8259],[107.9795,23.8383],[107.9989,23.8354],[108.0019,23.8261],[108.0094,23.8244],[108.016,23.8325],[108.0233,23.8317],[108.0387,23.795],[108.0547,23.804],[108.08,23.7958],[108.0902,23.7976],[108.1004,23.8131],[108.1101,23.8185],[108.1117,23.8342],[108.1308,23.8564],[108.147,23.8465],[108.1561,23.832],[108.1677,23.824],[108.1771,23.8264],[108.1794,23.8337],[108.1722,23.8419],[108.1759,23.8551],[108.1833,23.8636],[108.199,23.8743],[108.2047,23.8582],[108.2212,23.8453],[108.2194,23.8278],[108.2304,23.8215],[108.2272,23.812],[108.239,23.8077],[108.2422,23.8166],[108.2647,23.8185],[108.2746,23.8007],[108.2818,23.8217],[108.2995,23.8321],[108.3056,23.8422],[108.2867,23.8511],[108.289,23.8596],[108.3017,23.8716],[108.3137,23.8929],[108.3128,23.902],[108.3266,23.9082],[108.3254,23.9148],[108.3443,23.9135],[108.3639,23.9203],[108.3613,23.9347],[108.3651,23.9439],[108.3622,23.9636],[108.3505,23.9715],[108.3544,23.9844],[108.3662,23.9861],[108.3688,23.9994],[108.3592,24.0052],[108.3703,24.0154],[108.3885,24.0229],[108.4019,24.0326],[108.4297,24.0348],[108.443,24.0309],[108.4543,24.0122],[108.465,24.0202],[108.4753,24.0219],[108.4811,24.0303],[108.4919,24.0346],[108.5001,24.0262],[108.5069,24.0333],[108.5049,24.0531],[108.5003,24.0678],[108.4835,24.0862],[108.4833,24.1042],[108.4997,24.1064],[108.4863,24.1157],[108.4749,24.129],[108.476,24.1355],[108.4678,24.1526],[108.4683,24.1667],[108.4794,24.1851],[108.493,24.1936],[108.4776,24.2123],[108.4839,24.2193],[108.4805,24.2263],[108.4867,24.2368],[108.4852,24.2499],[108.4679,24.2708],[108.4642,24.2825],[108.4496,24.2868],[108.4422,24.285],[108.4354,24.3029],[108.4294,24.3089],[108.4171,24.3109],[108.4182,24.2923],[108.4101,24.2938],[108.3907,24.2898],[108.3759,24.2926],[108.376,24.3035],[108.3851,24.3201],[108.3624,24.3343],[108.3589,24.3425],[108.3447,24.3439],[108.3265,24.3413],[108.3341,24.3578],[108.3167,24.3663],[108.321,24.375],[108.3128,24.4009],[108.3025,24.4056],[108.2774,24.4038],[108.2668,24.4134],[108.2577,24.4162],[108.2494,24.4005],[108.2295,24.4046],[108.2156,24.4101],[108.1952,24.4364],[108.1851,24.4104],[108.2012,24.4008],[108.1987,24.3922],[108.1874,24.3858],[108.1788,24.3904],[108.1564,24.3923],[108.1487,24.3877],[108.1361,24.3927],[108.1245,24.4023],[108.1129,24.4061],[108.1178,24.4256],[108.1083,24.4324],[108.0883,24.441],[108.0706,24.4642],[108.0767,24.4925],[108.0856,24.4987],[108.0843,24.5133],[108.0734,24.5138],[108.07,24.5199],[108.0437,24.5439],[108.0537,24.5514],[108.0299,24.5678],[108.0117,24.5715],[108.0041,24.5693],[107.9629,24.5802],[107.9417,24.5745],[107.9271,24.5756],[107.932,24.5619],[107.9397,24.5551],[107.9398,24.5422],[107.9271,24.515],[107.9343,24.5023],[107.9291,24.4918],[107.909,24.4953],[107.8971,24.4923],[107.8908,24.4964],[107.8767,24.4835],[107.8664,24.4789],[107.8691,24.4552],[107.8761,24.4475],[107.8838,24.426],[107.8935,24.4182],[107.884,24.4117],[107.876,24.419],[107.8693,24.4082],[107.8715,24.401],[107.8463,24.3759],[107.8367,24.393],[107.8351,24.4051],[107.8294,24.4117],[107.8054,24.4049],[107.8007,24.4198],[107.7894,24.4198],[107.7805,24.4081],[107.7724,24.406],[107.7628,24.3902],[107.7673,24.3831],[107.7611,24.3673]]]},"properties":{"region_code":"CN-45-4512-451228","parent_region_code":"CN-45-4512","name":"都安瑶族自治县","level":"county","has_children":false,"full_path":"中国 / 广西壮族自治区 / 河池市 / 都安瑶族自治县","source_admin_code":"451228","osm_relation_id":2774382}},
{"type":"Feature","geometry":{"type":"Polygon","coordinates":[[[107.7298,24.3588],[107.7248,24.3471],[107.7027,24.3417],[107.6938,24.3435],[107.6916,24.331],[107.6597,24.3207],[107.6561,24.3373],[107.6383,24.3405],[107.6313,24.332],[107.6441,24.3155],[107.6381,24.3077],[107.625,24.3118],[107.6252,24.2955],[107.6199,24.2758],[107.6116,24.2727],[107.6126,24.2601],[107.6017,24.2603],[107.5936,24.2877],[107.5861,24.2894],[107.5922,24.3025],[107.5803,24.3131],[107.5664,24.3074],[107.5586,24.314],[107.5521,24.309],[107.5614,24.2935],[107.5809,24.2864],[107.592,24.2786],[107.5842,24.2635],[107.577,24.2646],[107.5664,24.2754],[107.5393,24.2613],[107.5497,24.2532],[107.5577,24.2369],[107.5415,24.228],[107.5422,24.2086],[107.5386,24.2045],[107.5341,24.1842],[107.5128,24.1621],[107.5023,24.158],[107.4943,24.1662],[107.4849,24.1645],[107.4583,24.1463],[107.4508,24.1556],[107.4301,24.1515],[107.427,24.137],[107.4013,24.1245],[107.3851,24.1331],[107.3907,24.1423],[107.3825,24.153],[107.3781,24.1688],[107.3467,24.1594],[107.3465,24.1516],[107.3317,24.1364],[107.3438,24.1233],[107.3493,24.1258],[107.3637,24.0949],[107.3587,24.0781],[107.3625,24.0585],[107.3725,24.0393],[107.3741,24.0307],[107.3937,24.0125],[107.3916,24.0054],[107.395,23.9904],[107.4038,23.9847],[107.418,23.9905],[107.4252,23.9874],[107.4282,23.9765],[107.4368,23.9772],[107.4464,23.9624],[107.4469,23.9457],[107.4556,23.9407],[107.4739,23.9422],[107.4742,23.9289],[107.4688,23.9157],[107.4736,23.9067],[107.4606,23.9003],[107.4688,23.8848],[107.4754,23.8809],[107.494,23.8752],[107.4979,23.8888],[107.5123,23.8936],[107.5274,23.8897],[107.5335,23.8919],[107.5455,23.8795],[107.54,23.8723],[107.5247,23.8645],[107.5323,23.849],[107.5556,23.8407],[107.5677,23.8392],[107.5715,23.8179],[107.5648,23.8063],[107.5836,23.7939],[107.591,23.7934],[107.6163,23.7782],[107.6267,23.7801],[107.6382,23.7769],[107.6487,23.7816],[107.6562,23.792],[107.6685,23.7985],[107.6771,23.8079],[107.7058,23.8002],[107.7393,23.803],[107.7474,23.794],[107.7329,23.7923],[107.7322,23.787],[107.7457,23.7704],[107.7484,23.7614],[107.764,23.7614],[107.7773,23.7707],[107.7877,23.7598],[107.7934,23.7631],[107.8084,23.7558],[107.8123,23.7309],[107.8217,23.7286],[107.8293,23.7182],[107.8233,23.7109],[107.8272,23.7028],[107.8177,23.6916],[107.8201,23.6798],[107.804,23.6704],[107.7864,23.6669],[107.7722,23.6766],[107.7585,23.6701],[107.7521,23.6562],[107.7455,23.6571],[107.7364,23.647],[107.7176,23.6407],[107.6997,23.6109],[107.6999,23.5906],[107.7033,23.5778],[107.7102,23.5703],[107.7117,23.5578],[107.7191,23.557],[107.7321,23.573],[107.7378,23.5637],[107.7571,23.5751],[107.7896,23.5692],[107.7881,23.582],[107.8021,23.5939],[107.8076,23.6086],[107.8204,23.6029],[107.8342,23.6125],[107.8444,23.6061],[107.8676,23.6032],[107.8846,23.6115],[107.8861,23.6251],[107.8965,23.6211],[107.9044,23.6312],[107.8992,23.638],[107.9148,23.6413],[107.9285,23.6514],[107.9349,23.6632],[107.9558,23.6462],[107.9591,23.6339],[107.9655,23.6286],[107.9791,23.63],[107.9929,23.6413],[107.9885,23.6491],[107.9961,23.675],[108.0142,23.679],[108.0172,23.6941],[108.0323,23.7091],[108.0395,23.7227],[108.0231,23.731],[108.0177,23.7556],[108.0117,23.7619],[108.0182,23.7709],[108.0227,23.7854],[108.0356,23.7894],[108.0387,23.795],[108.0233,23.8317],[108.016,23.8325],[108.0094,23.8244],[108.0019,23.8261],[107.9989,23.8354],[107.9795,23.8383],[107.9517,23.8259],[107.9477,23.8352],[107.934,23.8297],[107.9208,23.8411],[107.9346,23.8594],[107.9432,23.8577],[107.9571,23.8676],[107.9678,23.8858],[107.9786,23.8844],[107.9848,23.8923],[107.9489,23.9035],[107.9496,23.9151],[107.9343,23.9168],[107.9301,23.9264],[107.9114,23.913],[107.9046,23.9201],[107.8926,23.9153],[107.8788,23.9148],[107.8586,23.9318],[107.87,23.9402],[107.8619,23.9471],[107.8671,23.9581],[107.8845,23.968],[107.8927,23.9767],[107.9098,23.9814],[107.8952,24.0052],[107.9042,24.0122],[107.8941,24.0216],[107.879,24.0261],[107.8691,24.0187],[107.859,24.019],[107.845,24.0284],[107.8297,24.0266],[107.8334,24.0473],[107.8191,24.039],[107.8051,24.0468],[107.8018,24.063],[107.7896,24.0773],[107.7739,24.0764],[107.7703,24.0903],[107.7773,24.1144],[107.7841,24.1147],[107.7865,24.1265],[107.7952,24.136],[107.8072,24.1415],[107.8138,24.1641],[107.8077,24.1667],[107.7941,24.1598],[107.7787,24.1613],[107.7706,24.1751],[107.7853,24.1863],[107.7717,24.1925],[107.7706,24.1981],[107.7777,24.2192],[107.7696,24.2255],[107.7776,24.2321],[107.7788,24.2482],[107.7836,24.2522],[107.7728,24.2622],[107.775,24.2821],[107.7821,24.2854],[107.778,24.3052],[107.7878,24.3134],[107.7756,24.3212],[107.7625,24.3252],[107.7614,24.3375],[107.7743,24.3602],[107.7611,24.3673],[107.7574,24.372],[107.7298,24.3588]]]},"properties":{"region_code":"CN-45-4512-451229","parent_region_code":"CN-45-4512","name":"大化瑶族自治县","level":"county","has_children":false,"full_path":"中国 / 广西壮族自治区 / 河池市 / 大化瑶族自治县","source_admin_code":"451229","osm_relation_id":2774380}}
]}