{"type":"FeatureCollection", "features": [
{"type":"Feature","geometry":{"type":"Polygon","coordinates":[[[112.2258,31.898],[112.1792,31.9161],[112.1607,31.9363],[112.1677,31.9716],[112.2153,32.0018],[112.217,32.057],[112.19,32.0773],[112.1701,32.0602],[112.136,32.0246],[112.0467,32.0239],[112.0345,32.0472],[111.9539,32.0666],[111.907,32.0652],[111.8676,32.0517],[111.8217,31.9876],[111.8358,31.9656],[111.859,31.9479],[111.8907,31.9662],[111.9179,31.9407],[111.968,31.9412],[111.993,31.9154],[112.0364,31.8884],[112.0455,31.8546],[112.0308,31.8179],[112.0101,31.8091],[112.0391,31.7858],[112.1,31.7816],[112.1449,31.8042],[112.1703,31.8345],[112.1969,31.8414],[112.2203,31.8695],[112.2258,31.898]]]},"properties":{"region_code":"CN-42-4206-420602","parent_region_code":"CN-42-4206","name":"襄城区","level":"county","has_children":false,"full_path":"中国 / 湖北省 / 襄阳市 / 襄城区","source_admin_code":"420602","osm_relation_id":3216586}},
{"type":"Feature","geometry":{"type":"Polygon","coordinates":[[[112.1701,32.0602],[112.1397,32.1325],[112.1133,32.1382],[112.0989,32.1605],[112.0478,32.153],[112.03,32.1711],[111.999,32.1593],[111.9596,32.1729],[111.9321,32.1554],[111.8889,32.1498],[111.8693,32.174],[111.8424,32.1784],[111.8224,32.2069],[111.827,32.2455],[111.8004,32.2516],[111.7516,32.2462],[111.7811,32.2097],[111.745,32.172],[111.7944,32.1184],[111.8094,32.074],[111.8329,32.0526],[111.8676,32.0517],[111.907,32.0652],[111.9539,32.0666],[112.0345,32.0472],[112.0467,32.0239],[112.136,32.0246],[112.1701,32.0602]]]},"properties":{"region_code":"CN-42-4206-420606","parent_region_code":"CN-42-4206","name":"樊城区","level":"county","has_children":false,"full_path":"中国 / 湖北省 / 襄阳市 / 樊城区","source_admin_code":"420606","osm_relation_id":3216582}},
{"type":"Feature","geometry":{"type":"Polygon","coordinates":[[[112.2258,31.898],[112.2553,31.9083],[112.318,31.8817],[112.39,31.8387],[112.4549,31.8509],[112.4616,31.8663],[112.5097,31.8641],[112.5142,31.9183],[112.5545,31.987],[112.5189,32.0266],[112.4886,32.04],[112.5301,32.0726],[112.4749,32.088],[112.4601,32.1154],[112.4789,32.1377],[112.4834,32.2043],[112.4687,32.2301],[112.4921,32.243],[112.4866,32.27],[112.5089,32.2971],[112.4912,32.32],[112.516,32.3414],[112.5199,32.3812],[112.4542,32.3703],[112.4358,32.3472],[112.4081,32.3652],[112.354,32.3677],[112.3194,32.3237],[112.1999,32.3951],[112.1501,32.3784],[112.1022,32.4067],[112.0613,32.4427],[112.0419,32.4763],[112.008,32.4524],[111.9707,32.4023],[111.9372,32.3936],[111.9211,32.336],[111.848,32.3234],[111.8004,32.2516],[111.827,32.2455],[111.8224,32.2069],[111.8424,32.1784],[111.8693,32.174],[111.8889,32.1498],[111.9321,32.1554],[111.9596,32.1729],[111.999,32.1593],[112.03,32.1711],[112.0478,32.153],[112.0989,32.1605],[112.1133,32.1382],[112.1397,32.1325],[112.1701,32.0602],[112.19,32.0773],[112.217,32.057],[112.2153,32.0018],[112.1677,31.9716],[112.1607,31.9363],[112.1792,31.9161],[112.2258,31.898]]]},"properties":{"region_code":"CN-42-4206-420607","parent_region_code":"CN-42-4206","name":"襄州区","level":"county","has_children":false,"full_path":"中国 / 湖北省 / 襄阳市 / 襄州区","source_admin_code":"420607","osm_relation_id":3216587}},
{"type":"Feature","geometry":{"type":"Polygon","coordinates":[[[111.8358,31.9656],[111.7766,31.9713],[111.7433,31.9547],[111.725,31.9676],[111.6592,31.9853],[111.6217,32.013],[111.5669,32.017],[111.5274,32],[111.4942,31.9495],[111.513,31.8988],[111.4706,31.8837],[111.4304,31.843],[111.438,31.8225],[111.471,31.8055],[111.5354,31.7405],[111.4995,31.7232],[111.4997,31.6991],[111.5272,31.6804],[111.5101,31.6595],[111.4944,31.6064],[111.5063,31.5757],[111.4572,31.5756],[111.4633,31.5161],[111.4914,31.4907],[111.4596,31.4701],[111.464,31.4505],[111.4304,31.4226],[111.4032,31.3743],[111.4297,31.3539],[111.4324,31.3149],[111.5132,31.3044],[111.5912,31.3424],[111.6231,31.3753],[111.6738,31.357],[111.7324,31.3713],[111.7427,31.3548],[111.7419,31.2982],[111.8258,31.2424],[111.8788,31.2362],[111.8948,31.2568],[111.9402,31.2754],[111.9221,31.3011],[111.9302,31.3715],[111.9502,31.4425],[111.9501,31.4676],[111.9771,31.476],[111.9809,31.5041],[112.0129,31.5365],[112.0585,31.5638],[112.0831,31.5482],[112.1472,31.5682],[112.1305,31.5937],[112.139,31.6197],[112.0864,31.7205],[112.0678,31.7282],[112.0031,31.7959],[112.0101,31.8091],[112.0308,31.8179],[112.0455,31.8546],[112.0364,31.8884],[111.993,31.9154],[111.968,31.9412],[111.9179,31.9407],[111.8907,31.9662],[111.859,31.9479],[111.8358,31.9656]]]},"properties":{"region_code":"CN-42-4206-420624","parent_region_code":"CN-42-4206","name":"南漳县","level":"county","has_children":false,"full_path":"中国 / 湖北省 / 襄阳市 / 南漳县","source_admin_code":"420624","osm_relation_id":3216585}},
{"type":"Feature","geometry":{"type":"Polygon","coordinates":[[[111.8676,32.0517],[111.8329,32.0526],[111.8094,32.074],[111.7944,32.1184],[111.745,32.172],[111.7171,32.1816],[111.6961,32.2118],[111.7025,32.2661],[111.6854,32.2962],[111.6348,32.3205],[111.6207,32.3427],[111.6293,32.3651],[111.661,32.3908],[111.6606,32.4128],[111.6097,32.4574],[111.5272,32.4932],[111.4838,32.4798],[111.4607,32.4338],[111.402,32.4125],[111.3693,32.4104],[111.3196,32.3878],[111.3042,32.3601],[111.2697,32.35],[111.2296,32.3238],[111.2318,32.2431],[111.2487,32.2071],[111.2133,32.1507],[111.1231,32.1078],[111.1307,32.0719],[111.154,32.0299],[111.1812,32.0161],[111.2533,32.0247],[111.2857,32.0214],[111.3335,31.9524],[111.3367,31.9288],[111.3863,31.9285],[111.4342,31.8929],[111.4706,31.8837],[111.513,31.8988],[111.4942,31.9495],[111.5274,32],[111.5669,32.017],[111.6217,32.013],[111.6592,31.9853],[111.725,31.9676],[111.7433,31.9547],[111.7766,31.9713],[111.8358,31.9656],[111.8217,31.9876],[111.8676,32.0517]]]},"properties":{"region_code":"CN-42-4206-420625","parent_region_code":"CN-42-4206","name":"谷城县","level":"county","has_children":false,"full_path":"中国 / 湖北省 / 襄阳市 / 谷城县","source_admin_code":"420625","osm_relation_id":3216583}},
{"type":"Feature","geometry":{"type":"Polygon","coordinates":[[[111.4706,31.8837],[111.4342,31.8929],[111.3863,31.9285],[111.3367,31.9288],[111.3335,31.9524],[111.2857,32.0214],[111.2533,32.0247],[111.1812,32.0161],[111.154,32.0299],[111.1307,32.0719],[111.1231,32.1078],[111.089,32.0884],[111.0586,32.0864],[111.051,32.0663],[111.0709,32.0268],[111.1175,32.0213],[111.0779,31.9948],[111.0468,31.9868],[111.0366,32.0146],[111,32.0106],[111.0055,31.9796],[110.9953,31.8968],[111.0121,31.881],[111.0202,31.8411],[110.9951,31.8244],[110.9341,31.8788],[110.9015,31.8638],[110.8423,31.8503],[110.7784,31.8663],[110.7584,31.8402],[110.7962,31.7927],[110.8444,31.7823],[110.8704,31.7356],[110.8744,31.7032],[110.9051,31.6591],[110.9442,31.6676],[110.9728,31.6509],[110.9384,31.6009],[110.9473,31.574],[110.9791,31.5814],[111.0387,31.5692],[111.0409,31.5417],[111.0615,31.5093],[111.0446,31.4921],[111.0533,31.4434],[111.079,31.4254],[111.164,31.4561],[111.201,31.4449],[111.2256,31.4704],[111.2612,31.4539],[111.2724,31.3987],[111.331,31.357],[111.4032,31.3743],[111.4304,31.4226],[111.464,31.4505],[111.4596,31.4701],[111.4914,31.4907],[111.4633,31.5161],[111.4572,31.5756],[111.5063,31.5757],[111.4944,31.6064],[111.5101,31.6595],[111.5272,31.6804],[111.4997,31.6991],[111.4995,31.7232],[111.5354,31.7405],[111.471,31.8055],[111.438,31.8225],[111.4304,31.843],[111.4706,31.8837]]]},"properties":{"region_code":"CN-42-4206-420626","parent_region_code":"CN-42-4206","name":"保康县","level":"county","has_children":false,"full_path":"中国 / 湖北省 / 襄阳市 / 保康县","source_admin_code":"420626","osm_relation_id":3216581}},
{"type":"Feature","geometry":{"type":"Polygon","coordinates":[[[111.8004,32.2516],[111.848,32.3234],[111.9211,32.336],[111.9372,32.3936],[111.9707,32.4023],[112.008,32.4524],[111.9721,32.4732],[111.9507,32.5145],[111.8842,32.5055],[111.8237,32.5314],[111.7417,32.579],[111.7153,32.6065],[111.6375,32.6288],[111.6126,32.6299],[111.577,32.5987],[111.5792,32.5799],[111.5504,32.5426],[111.5272,32.4932],[111.6097,32.4574],[111.6606,32.4128],[111.661,32.3908],[111.6293,32.3651],[111.6207,32.3427],[111.6348,32.3205],[111.6854,32.2962],[111.7025,32.2661],[111.6961,32.2118],[111.7171,32.1816],[111.745,32.172],[111.7811,32.2097],[111.7516,32.2462],[111.8004,32.2516]]]},"properties":{"region_code":"CN-42-4206-420682","parent_region_code":"CN-42-4206","name":"老河口市","level":"county","has_children":false,"full_path":"中国 / 湖北省 / 襄阳市 / 老河口市","source_admin_code":"420682","osm_relation_id":3216584}},
{"type":"Feature","geometry":{"type":"Polygon","coordinates":[[[112.5097,31.8641],[112.5609,31.8569],[112.599,31.8319],[112.6241,31.7857],[112.6014,31.7447],[112.6413,31.6699],[112.6872,31.6679],[112.724,31.6377],[112.7277,31.7039],[112.7413,31.7464],[112.7795,31.7399],[112.823,31.759],[112.8486,31.8035],[112.8799,31.7997],[112.9193,31.8396],[112.9578,31.8315],[112.9727,31.8476],[112.956,31.8827],[112.9821,31.9033],[112.9941,31.9436],[113.029,31.9607],[112.9858,31.98],[112.9841,32.0522],[113.0435,32.1174],[113.0211,32.1442],[113.0139,32.1763],[113.0279,32.2012],[113.0215,32.2745],[113.0615,32.2832],[113.0906,32.3153],[113.0516,32.3537],[113.099,32.3694],[113.1022,32.3993],[113.0594,32.4014],[113.0191,32.4274],[112.984,32.4029],[112.9838,32.371],[112.8647,32.4002],[112.8303,32.3749],[112.7703,32.3607],[112.7498,32.3451],[112.6674,32.3701],[112.6352,32.37],[112.5562,32.4019],[112.5199,32.3812],[112.516,32.3414],[112.4912,32.32],[112.5089,32.2971],[112.4866,32.27],[112.4921,32.243],[112.4687,32.2301],[112.4834,32.2043],[112.4789,32.1377],[112.4601,32.1154],[112.4749,32.088],[112.5301,32.0726],[112.4886,32.04],[112.5189,32.0266],[112.5545,31.987],[112.5142,31.9183],[112.5097,31.8641]]]},"properties":{"region_code":"CN-42-4206-420683","parent_region_code":"CN-42-4206","name":"枣阳市","level":"county","has_children":false,"full_path":"中国 / 湖北省 / 襄阳市 / 枣阳市","source_admin_code":"420683","osm_relation_id":3216589}},
{"type":"Feature","geometry":{"type":"Polygon","coordinates":[[[112.0101,31.8091],[112.0031,31.7959],[112.0678,31.7282],[112.0864,31.7205],[112.139,31.6197],[112.1305,31.5937],[112.1472,31.5682],[112.0831,31.5482],[112.0585,31.5638],[112.0129,31.5365],[111.9809,31.5041],[111.9771,31.476],[111.9501,31.4676],[111.9502,31.4425],[111.9961,31.4526],[112.0567,31.4322],[112.0868,31.4577],[112.1552,31.4814],[112.1852,31.4716],[112.1855,31.5163],[112.2743,31.5492],[112.2931,31.5351],[112.4072,31.5041],[112.4754,31.5367],[112.5063,31.563],[112.5611,31.5633],[112.5913,31.5458],[112.6241,31.5067],[112.647,31.5096],[112.7139,31.4825],[112.7194,31.5073],[112.6968,31.5453],[112.7346,31.5585],[112.7464,31.6119],[112.724,31.6377],[112.6872,31.6679],[112.6413,31.6699],[112.6014,31.7447],[112.6241,31.7857],[112.599,31.8319],[112.5609,31.8569],[112.5097,31.8641],[112.4616,31.8663],[112.4549,31.8509],[112.39,31.8387],[112.318,31.8817],[112.2553,31.9083],[112.2258,31.898],[112.2203,31.8695],[112.1969,31.8414],[112.1703,31.8345],[112.1449,31.8042],[112.1,31.7816],[112.0391,31.7858],[112.0101,31.8091]]]},"properties":{"region_code":"CN-42-4206-420684","parent_region_code":"CN-42-4206","name":"宜城市","level":"county","has_children":false,"full_path":"中国 / 湖北省 / 襄阳市 / 宜城市","source_admin_code":"420684","osm_relation_id":3216588}}
]}