{"type":"FeatureCollection", "features": [
{"type":"Feature","geometry":{"type":"Polygon","coordinates":[[[111.9986,22.6568],[112.004,22.6516],[112.0149,22.6576],[112.0198,22.6456],[112.0398,22.6526],[112.0471,22.6656],[112.0424,22.6795],[112.0525,22.6821],[112.0536,22.691],[112.064,22.6969],[112.0573,22.712],[112.0638,22.7175],[112.0653,22.7341],[112.0715,22.7352],[112.0858,22.7491],[112.0974,22.7716],[112.1135,22.7763],[112.1166,22.7853],[112.1251,22.7887],[112.148,22.7852],[112.1703,22.8067],[112.1768,22.8034],[112.192,22.8155],[112.211,22.8254],[112.222,22.8383],[112.2367,22.8415],[112.2509,22.8369],[112.2548,22.8268],[112.2855,22.827],[112.3045,22.8363],[112.3071,22.8533],[112.2909,22.8761],[112.2942,22.8933],[112.3004,22.8989],[112.3022,22.914],[112.2948,22.9183],[112.2802,22.914],[112.2732,22.9174],[112.2608,22.9094],[112.2526,22.9133],[112.2577,22.9426],[112.256,22.9547],[112.2785,22.9473],[112.285,22.9554],[112.2721,22.9733],[112.2931,23.0102],[112.2817,23.0228],[112.2846,23.027],[112.2809,23.0471],[112.2627,23.0386],[112.2479,23.0408],[112.2442,23.0236],[112.2198,23.0187],[112.2012,23.006],[112.1926,22.9907],[112.1807,22.9837],[112.173,22.9684],[112.1613,22.9688],[112.1532,22.9774],[112.1565,22.9861],[112.1419,22.9935],[112.1152,22.9971],[112.0994,23.0145],[112.0837,23.0094],[112.0806,23.0166],[112.0488,23.0162],[112.0252,23.0242],[112.0204,23.0072],[112.0103,23.0045],[112.0073,22.995],[111.9864,22.9937],[111.972,22.9849],[111.9786,22.9705],[111.9768,22.9553],[111.9705,22.9476],[111.9816,22.9321],[111.9811,22.9219],[111.9737,22.915],[111.9749,22.9031],[111.9539,22.8829],[111.9673,22.8715],[111.9857,22.8694],[112.0223,22.8882],[112.0282,22.8883],[112.0332,22.8726],[112.0139,22.853],[112.0134,22.8326],[112.0045,22.8304],[112.013,22.8162],[111.9945,22.7911],[112.0028,22.7864],[112.0035,22.7671],[111.999,22.7533],[112.0032,22.7361],[112,22.7281],[111.9853,22.7121],[111.9928,22.7035],[112.0044,22.7066],[112.0152,22.7003],[112.019,22.6884],[112.0067,22.6791],[111.9986,22.6568]]]},"properties":{"region_code":"CN-44-4453-445302","parent_region_code":"CN-44-4453","name":"云城区","level":"county","has_children":false,"full_path":"中国 / 广东省 / 云浮市 / 云城区","source_admin_code":"445302","osm_relation_id":3032079}},
{"type":"Feature","geometry":{"type":"Polygon","coordinates":[[[112.2809,23.0471],[112.2907,23.0636],[112.296,23.0822],[112.3124,23.0829],[112.3212,23.0962],[112.3219,23.1068],[112.2961,23.125],[112.2805,23.1324],[112.2656,23.1243],[112.233,23.1175],[112.2209,23.1123],[112.1917,23.082],[112.1811,23.0764],[112.1653,23.0753],[112.1299,23.0873],[112.1186,23.084],[112.0968,23.0917],[112.0822,23.0836],[112.0396,23.0734],[112.0221,23.0821],[112.0014,23.084],[111.9828,23.091],[111.9774,23.0976],[111.9724,23.1269],[111.9531,23.1335],[111.9219,23.1272],[111.8947,23.1296],[111.8905,23.1069],[111.8938,23.0989],[111.8833,23.0809],[111.8936,23.061],[111.9004,23.0553],[111.9037,23.0415],[111.8904,23.0389],[111.8902,23.0276],[111.8836,23.0213],[111.8637,23.0221],[111.8505,23.0306],[111.8425,23.0205],[111.8488,23.0097],[111.8472,22.9815],[111.8496,22.9664],[111.8274,22.9523],[111.8196,22.9309],[111.8233,22.9249],[111.8404,22.9185],[111.846,22.9065],[111.856,22.9135],[111.8685,22.9028],[111.8816,22.8991],[111.8869,22.8844],[111.88,22.8708],[111.8709,22.8956],[111.8588,22.8912],[111.852,22.882],[111.8503,22.8683],[111.834,22.847],[111.8173,22.8528],[111.8012,22.8488],[111.7975,22.842],[111.7839,22.844],[111.7713,22.8533],[111.7598,22.8473],[111.7493,22.8326],[111.7459,22.8203],[111.7254,22.8064],[111.7302,22.795],[111.7454,22.8006],[111.7534,22.791],[111.7596,22.8046],[111.7689,22.7885],[111.7925,22.8016],[111.7999,22.8009],[111.7759,22.7772],[111.779,22.766],[111.791,22.7584],[111.803,22.7732],[111.8213,22.7723],[111.8331,22.7786],[111.8404,22.7611],[111.8307,22.7496],[111.8416,22.7419],[111.8695,22.7391],[111.8689,22.7259],[111.8836,22.7234],[111.8739,22.7138],[111.8674,22.7007],[111.8519,22.6948],[111.84,22.683],[111.8516,22.6663],[111.8658,22.6628],[111.8681,22.6459],[111.8657,22.6357],[111.8524,22.6357],[111.8497,22.6265],[111.8555,22.6201],[111.854,22.6084],[111.8419,22.6152],[111.8361,22.6085],[111.8268,22.6119],[111.8166,22.6006],[111.8307,22.5964],[111.8306,22.5889],[111.8544,22.5846],[111.8572,22.5785],[111.8962,22.5774],[111.8972,22.5845],[111.9092,22.5967],[111.9262,22.6091],[111.9341,22.6239],[111.9515,22.6368],[111.9609,22.6305],[111.9721,22.6474],[111.9986,22.6568],[112.0067,22.6791],[112.019,22.6884],[112.0152,22.7003],[112.0044,22.7066],[111.9928,22.7035],[111.9853,22.7121],[112,22.7281],[112.0032,22.7361],[111.999,22.7533],[112.0035,22.7671],[112.0028,22.7864],[111.9945,22.7911],[112.013,22.8162],[112.0045,22.8304],[112.0134,22.8326],[112.0139,22.853],[112.0332,22.8726],[112.0282,22.8883],[112.0223,22.8882],[111.9857,22.8694],[111.9673,22.8715],[111.9539,22.8829],[111.9749,22.9031],[111.9737,22.915],[111.9811,22.9219],[111.9816,22.9321],[111.9705,22.9476],[111.9768,22.9553],[111.9786,22.9705],[111.972,22.9849],[111.9864,22.9937],[112.0073,22.995],[112.0103,23.0045],[112.0204,23.0072],[112.0252,23.0242],[112.0488,23.0162],[112.0806,23.0166],[112.0837,23.0094],[112.0994,23.0145],[112.1152,22.9971],[112.1419,22.9935],[112.1565,22.9861],[112.1532,22.9774],[112.1613,22.9688],[112.173,22.9684],[112.1807,22.9837],[112.1926,22.9907],[112.2012,23.006],[112.2198,23.0187],[112.2442,23.0236],[112.2479,23.0408],[112.2627,23.0386],[112.2809,23.0471]]]},"properties":{"region_code":"CN-44-4453-445303","parent_region_code":"CN-44-4453","name":"云安区","level":"county","has_children":false,"full_path":"中国 / 广东省 / 云浮市 / 云安区","source_admin_code":"445303","osm_relation_id":3032077}},
{"type":"Feature","geometry":{"type":"Polygon","coordinates":[[[111.9986,22.6568],[111.9721,22.6474],[111.9609,22.6305],[111.98,22.5968],[111.9932,22.5922],[111.9934,22.5784],[111.9848,22.568],[111.9713,22.5659],[111.9645,22.5495],[111.9789,22.5183],[111.9786,22.5084],[111.9902,22.4953],[112.0037,22.494],[112.0091,22.4877],[112.007,22.4769],[112.0293,22.4691],[112.0402,22.4558],[112.0535,22.454],[112.068,22.4354],[112.072,22.4236],[112.0814,22.4189],[112.1036,22.416],[112.1275,22.4086],[112.1357,22.4181],[112.1563,22.4034],[112.1565,22.3904],[112.1668,22.3845],[112.1698,22.3726],[112.1876,22.3872],[112.1859,22.3998],[112.1948,22.4061],[112.206,22.4019],[112.2217,22.4109],[112.2323,22.4096],[112.2389,22.4173],[112.2304,22.4357],[112.2405,22.4492],[112.2573,22.4847],[112.2518,22.5031],[112.2672,22.5103],[112.296,22.5181],[112.3022,22.5308],[112.297,22.5476],[112.302,22.5733],[112.3099,22.5759],[112.3262,22.5702],[112.3187,22.5574],[112.3328,22.5489],[112.3382,22.5674],[112.3659,22.561],[112.3728,22.5758],[112.374,22.5971],[112.385,22.5974],[112.3908,22.6053],[112.3906,22.6169],[112.3998,22.6209],[112.3951,22.6386],[112.408,22.6498],[112.4074,22.6595],[112.4142,22.6669],[112.43,22.664],[112.4285,22.6562],[112.438,22.645],[112.4304,22.6227],[112.4365,22.6087],[112.4511,22.6033],[112.4583,22.5876],[112.5138,22.6068],[112.5143,22.6245],[112.4989,22.6425],[112.5051,22.6521],[112.4951,22.6715],[112.4848,22.679],[112.4875,22.6897],[112.4714,22.7068],[112.4592,22.7129],[112.4433,22.7111],[112.4305,22.6837],[112.421,22.6735],[112.4066,22.6739],[112.3985,22.6853],[112.3978,22.7029],[112.4054,22.7071],[112.3937,22.7291],[112.3874,22.7471],[112.3872,22.7724],[112.3688,22.797],[112.351,22.7907],[112.3163,22.79],[112.3118,22.7981],[112.3303,22.8099],[112.3045,22.8363],[112.2855,22.827],[112.2548,22.8268],[112.2509,22.8369],[112.2367,22.8415],[112.222,22.8383],[112.211,22.8254],[112.192,22.8155],[112.1768,22.8034],[112.1703,22.8067],[112.148,22.7852],[112.1251,22.7887],[112.1166,22.7853],[112.1135,22.7763],[112.0974,22.7716],[112.0858,22.7491],[112.0715,22.7352],[112.0653,22.7341],[112.0638,22.7175],[112.0573,22.712],[112.064,22.6969],[112.0536,22.691],[112.0525,22.6821],[112.0424,22.6795],[112.0471,22.6656],[112.0398,22.6526],[112.0198,22.6456],[112.0149,22.6576],[112.004,22.6516],[111.9986,22.6568]]]},"properties":{"region_code":"CN-44-4453-445321","parent_region_code":"CN-44-4453","name":"新兴县","level":"county","has_children":false,"full_path":"中国 / 广东省 / 云浮市 / 新兴县","source_admin_code":"445321","osm_relation_id":3031848}},
{"type":"Feature","geometry":{"type":"Polygon","coordinates":[[[111.8947,23.1296],[111.8851,23.1318],[111.8696,23.1419],[111.8531,23.1411],[111.8406,23.1353],[111.8242,23.1323],[111.7822,23.1342],[111.7577,23.138],[111.7219,23.1544],[111.7035,23.152],[111.6851,23.1602],[111.6714,23.1561],[111.6588,23.1582],[111.6441,23.1682],[111.6332,23.1887],[111.6234,23.1919],[111.5884,23.1889],[111.5794,23.1915],[111.5346,23.2154],[111.5294,23.2294],[111.5365,23.2374],[111.5625,23.246],[111.5708,23.2509],[111.573,23.2646],[111.5536,23.288],[111.5272,23.3273],[111.5228,23.313],[111.515,23.3085],[111.5137,23.2926],[111.4981,23.285],[111.4793,23.2848],[111.4686,23.278],[111.4517,23.2798],[111.4481,23.292],[111.435,23.2956],[111.4368,23.3039],[111.4157,23.3187],[111.4033,23.3184],[111.3873,23.328],[111.3743,23.3259],[111.3723,23.3078],[111.3602,23.2998],[111.3511,23.2877],[111.3521,23.2792],[111.3637,23.2611],[111.3602,23.2436],[111.383,23.2143],[111.3805,23.205],[111.3786,23.1698],[111.3923,23.1675],[111.385,23.156],[111.3707,23.1509],[111.371,23.1322],[111.3773,23.1288],[111.3708,23.1148],[111.3694,23.0952],[111.3727,23.0852],[111.3896,23.071],[111.413,23.0721],[111.4204,23.0655],[111.4288,23.0493],[111.4282,23.0385],[111.4159,23.0324],[111.411,23.0205],[111.3921,23.016],[111.3843,23.0081],[111.3986,22.9916],[111.373,22.9759],[111.3618,22.9622],[111.3591,22.9514],[111.3705,22.9397],[111.4038,22.951],[111.416,22.9478],[111.4205,22.9553],[111.4316,22.953],[111.4417,22.958],[111.4512,22.9558],[111.4561,22.9426],[111.4655,22.9362],[111.4637,22.9246],[111.4737,22.9113],[111.4883,22.9015],[111.4886,22.8834],[111.4963,22.879],[111.4941,22.8638],[111.4979,22.852],[111.5113,22.8406],[111.5171,22.8468],[111.5407,22.847],[111.5553,22.8209],[111.5503,22.8104],[111.5649,22.8014],[111.5687,22.7945],[111.5828,22.8065],[111.5937,22.8022],[111.6133,22.8196],[111.6254,22.8043],[111.6376,22.7973],[111.6497,22.801],[111.6572,22.8204],[111.6688,22.832],[111.6847,22.8294],[111.691,22.8142],[111.7064,22.8161],[111.7132,22.8066],[111.7254,22.8064],[111.7459,22.8203],[111.7493,22.8326],[111.7598,22.8473],[111.7713,22.8533],[111.7839,22.844],[111.7975,22.842],[111.8012,22.8488],[111.8173,22.8528],[111.834,22.847],[111.8503,22.8683],[111.852,22.882],[111.8588,22.8912],[111.8709,22.8956],[111.88,22.8708],[111.8869,22.8844],[111.8816,22.8991],[111.8685,22.9028],[111.856,22.9135],[111.846,22.9065],[111.8404,22.9185],[111.8233,22.9249],[111.8196,22.9309],[111.8274,22.9523],[111.8496,22.9664],[111.8472,22.9815],[111.8488,23.0097],[111.8425,23.0205],[111.8505,23.0306],[111.8637,23.0221],[111.8836,23.0213],[111.8902,23.0276],[111.8904,23.0389],[111.9037,23.0415],[111.9004,23.0553],[111.8936,23.061],[111.8833,23.0809],[111.8938,23.0989],[111.8905,23.1069],[111.8947,23.1296]]]},"properties":{"region_code":"CN-44-4453-445322","parent_region_code":"CN-44-4453","name":"郁南县","level":"county","has_children":false,"full_path":"中国 / 广东省 / 云浮市 / 郁南县","source_admin_code":"445322","osm_relation_id":3032078}},
{"type":"Feature","geometry":{"type":"Polygon","coordinates":[[[111.7254,22.8064],[111.7132,22.8066],[111.7064,22.8161],[111.691,22.8142],[111.6847,22.8294],[111.6688,22.832],[111.6572,22.8204],[111.6497,22.801],[111.6376,22.7973],[111.6254,22.8043],[111.6133,22.8196],[111.5937,22.8022],[111.5828,22.8065],[111.5687,22.7945],[111.5649,22.8014],[111.5503,22.8104],[111.5553,22.8209],[111.5407,22.847],[111.5171,22.8468],[111.5113,22.8406],[111.4979,22.852],[111.4941,22.8638],[111.4963,22.879],[111.4886,22.8834],[111.4883,22.9015],[111.4737,22.9113],[111.4637,22.9246],[111.4655,22.9362],[111.4561,22.9426],[111.4512,22.9558],[111.4417,22.958],[111.4316,22.953],[111.4205,22.9553],[111.416,22.9478],[111.4038,22.951],[111.3705,22.9397],[111.3705,22.9285],[111.3552,22.9085],[111.356,22.8968],[111.3387,22.8797],[111.3349,22.8712],[111.3258,22.8693],[111.319,22.8576],[111.3079,22.8488],[111.2887,22.8281],[111.283,22.819],[111.2876,22.8119],[111.2685,22.8022],[111.2642,22.7914],[111.2367,22.7842],[111.2341,22.7719],[111.214,22.7514],[111.1994,22.7528],[111.1972,22.7433],[111.1756,22.7384],[111.1514,22.7448],[111.1378,22.74],[111.1151,22.7457],[111.0921,22.7441],[111.0902,22.7357],[111.0792,22.7325],[111.0538,22.7338],[111.0585,22.7238],[111.0781,22.7117],[111.0849,22.6966],[111.0996,22.6975],[111.1023,22.7069],[111.1118,22.7066],[111.1322,22.6877],[111.125,22.6631],[111.138,22.6414],[111.1389,22.6287],[111.1579,22.6221],[111.1697,22.6086],[111.1808,22.6072],[111.1925,22.6131],[111.2106,22.5975],[111.2142,22.5887],[111.2353,22.5858],[111.2485,22.5921],[111.2742,22.5949],[111.298,22.5836],[111.2986,22.5723],[111.3215,22.5601],[111.3176,22.5524],[111.2889,22.5505],[111.2801,22.5268],[111.2722,22.5207],[111.2672,22.5006],[111.2744,22.497],[111.2882,22.5089],[111.3045,22.5147],[111.3372,22.5215],[111.3433,22.5107],[111.3684,22.5187],[111.3794,22.5125],[111.3978,22.5188],[111.4081,22.5153],[111.4053,22.4947],[111.398,22.4822],[111.4035,22.4779],[111.4043,22.4598],[111.4159,22.4496],[111.4117,22.4338],[111.4165,22.4294],[111.4333,22.43],[111.4408,22.445],[111.4661,22.4448],[111.4743,22.4589],[111.4684,22.4713],[111.4717,22.483],[111.4641,22.4931],[111.4817,22.5084],[111.5027,22.4968],[111.5201,22.4831],[111.5404,22.5023],[111.5405,22.5211],[111.5561,22.5264],[111.5544,22.5318],[111.578,22.5502],[111.5913,22.5544],[111.6059,22.5494],[111.6117,22.5289],[111.6163,22.5243],[111.6133,22.5035],[111.6289,22.5063],[111.6431,22.5012],[111.6664,22.5062],[111.6734,22.4993],[111.6729,22.4878],[111.6861,22.4851],[111.7082,22.5076],[111.7162,22.5289],[111.7145,22.5432],[111.7328,22.5734],[111.7588,22.5855],[111.7589,22.5909],[111.7751,22.5989],[111.7792,22.6105],[111.8094,22.6362],[111.8019,22.6483],[111.8047,22.6595],[111.8157,22.6707],[111.815,22.6794],[111.8283,22.6837],[111.84,22.683],[111.8519,22.6948],[111.8674,22.7007],[111.8739,22.7138],[111.8836,22.7234],[111.8689,22.7259],[111.8695,22.7391],[111.8416,22.7419],[111.8307,22.7496],[111.8404,22.7611],[111.8331,22.7786],[111.8213,22.7723],[111.803,22.7732],[111.791,22.7584],[111.779,22.766],[111.7759,22.7772],[111.7999,22.8009],[111.7925,22.8016],[111.7689,22.7885],[111.7596,22.8046],[111.7534,22.791],[111.7454,22.8006],[111.7302,22.795],[111.7254,22.8064]]]},"properties":{"region_code":"CN-44-4453-445381","parent_region_code":"CN-44-4453","name":"罗定市","level":"county","has_children":false,"full_path":"中国 / 广东省 / 云浮市 / 罗定市","source_admin_code":"445381","osm_relation_id":3032076}}
]}