{"type":"FeatureCollection", "features": [
{"type":"Feature","geometry":{"type":"Polygon","coordinates":[[[110.5154,19.5651],[110.5432,19.5643],[110.5404,19.5497],[110.5659,19.5259],[110.629,19.5369],[110.6373,19.55],[110.6313,19.5953],[110.6502,19.6206],[110.6514,19.6538],[110.6295,19.6558],[110.6176,19.6858],[110.6246,19.7247],[110.6192,19.7375],[110.6552,19.8094],[110.6764,19.7976],[110.701,19.8083],[110.6942,19.8631],[110.6715,19.8618],[110.6754,19.8826],[110.6704,19.9107],[110.643,19.9402],[110.6306,19.9669],[110.5944,19.9837],[110.5954,19.9991],[110.5743,20.0163],[110.5288,20.0664],[110.5056,20.1298],[110.4829,20.1322],[110.4283,20.128],[110.3721,20.1176],[110.3277,20.1132],[110.299,20.0964],[110.268,20.0871],[110.2296,20.0871],[110.2012,20.0764],[110.1408,20.0748],[110.1031,20.0276],[110.1315,19.9956],[110.1401,19.9783],[110.1594,19.9707],[110.148,19.9385],[110.1333,19.9201],[110.1515,19.9047],[110.1488,19.8724],[110.1708,19.862],[110.201,19.8336],[110.2016,19.7907],[110.2207,19.7736],[110.2174,19.7479],[110.2033,19.7272],[110.2213,19.7092],[110.2142,19.6845],[110.2581,19.6894],[110.2921,19.7027],[110.3051,19.6978],[110.3357,19.7227],[110.3514,19.7166],[110.3824,19.7199],[110.3893,19.7053],[110.374,19.6891],[110.3684,19.6565],[110.3909,19.6109],[110.4201,19.6087],[110.4204,19.5868],[110.4513,19.5766],[110.4843,19.596],[110.5014,19.5882],[110.5154,19.5651]]]},"properties":{"region_code":"CN-46-4601","parent_region_code":"CN-46","name":"海口市","level":"prefecture","has_children":true,"full_path":"中国 / 海南省 / 海口市","source_admin_code":"4601","osm_relation_id":2784613}},
{"type":"Feature","geometry":{"type":"Polygon","coordinates":[[[109.777,18.5129],[109.7284,18.4945],[109.7089,18.4669],[109.7015,18.4321],[109.6618,18.3927],[109.6339,18.4026],[109.5999,18.3887],[109.5838,18.3971],[109.5357,18.3977],[109.5341,18.4108],[109.5115,18.4308],[109.5223,18.4805],[109.5329,18.4925],[109.5321,18.53],[109.5035,18.5432],[109.5021,18.5528],[109.4697,18.5618],[109.452,18.5588],[109.4197,18.5757],[109.4023,18.6057],[109.4029,18.6302],[109.355,18.5883],[109.3286,18.5772],[109.3092,18.5455],[109.309,18.5191],[109.2451,18.5601],[109.2285,18.5531],[109.2022,18.5572],[109.1876,18.5348],[109.1806,18.5088],[109.1908,18.4711],[109.1844,18.4572],[109.1636,18.4528],[109.1472,18.4676],[109.1036,18.4644],[109.0819,18.4478],[109.0148,18.4255],[108.9795,18.386],[108.9282,18.337],[108.9507,18.309],[108.9894,18.3142],[109.011,18.3265],[109.1042,18.3255],[109.1204,18.3176],[109.1347,18.269],[109.1703,18.2616],[109.2842,18.2665],[109.3087,18.2576],[109.3518,18.2166],[109.4372,18.2009],[109.4629,18.175],[109.5232,18.1705],[109.5517,18.1471],[109.5806,18.1449],[109.6223,18.1678],[109.6496,18.177],[109.6842,18.1722],[109.7215,18.1788],[109.746,18.1953],[109.7572,18.2425],[109.7609,18.2763],[109.7733,18.3063],[109.7792,18.3389],[109.8012,18.3492],[109.7868,18.4019],[109.7828,18.4369],[109.7973,18.4394],[109.8069,18.4638],[109.7938,18.4877],[109.7761,18.4915],[109.777,18.5129]]]},"properties":{"region_code":"CN-46-4602","parent_region_code":"CN-46","name":"三亚市","level":"prefecture","has_children":true,"full_path":"中国 / 海南省 / 三亚市","source_admin_code":"4602","osm_relation_id":2128284}},
{"type":"Feature","geometry":{"type":"MultiPolygon","coordinates":[[[[114.5958,10.2112],[114.6337,10.2164],[114.6635,10.2257],[114.708,10.2504],[114.7336,10.2726],[114.7692,10.323],[114.7884,10.3872],[114.789,10.4277],[114.782,10.4648],[114.7619,10.511],[114.7404,10.5406],[114.7093,10.5692],[114.6861,10.5841],[114.5958,10.2112]]],[[[117.5031,15.2117],[117.5124,15.1035],[117.5257,15.0492],[117.5432,15.0154],[117.5622,14.9907],[117.6,14.9552],[117.6254,14.9366],[117.678,14.9135],[117.728,14.9054],[117.8163,14.9021],[117.8496,14.9033],[117.8892,14.9118],[117.925,14.9269],[117.9679,14.9556],[117.9926,14.9785],[118.0192,15.0116],[118.0383,15.0482],[118.0533,15.1085],[118.0546,15.149],[118.0458,15.1956],[118.0355,15.2232],[118.0119,15.2617],[117.9913,15.2861],[117.9539,15.3186],[117.8451,15.3969],[117.7945,15.4175],[117.7473,15.4244],[117.7099,15.4234],[117.6465,15.4093],[117.5972,15.3835],[117.5553,15.3471],[117.5309,15.3124],[117.508,15.2547],[117.5031,15.2117]]],[[[114.0949,9.6525],[114.1173,9.6064],[114.145,9.5728],[114.1735,9.5497],[114.215,9.5284],[114.2449,9.5196],[114.2929,9.5153],[114.3514,9.5255],[114.3865,9.5408],[114.4274,9.5707],[114.4501,9.5961],[114.3201,9.7799],[114.0949,9.6525]]],[[[114.513,9.7095],[114.5525,10.1018],[114.3929,10.0451],[114.439,9.7174],[114.4693,9.7109],[114.513,9.7095]]],[[[114.2858,10.3504],[114.1641,10.3979],[114.1289,10.3836],[114.0979,10.3638],[114.0586,10.3235],[114.0393,10.2908],[114.0256,10.2511],[114.021,10.2192],[114.0613,10.0874],[114.0944,10.0377],[114.1346,10.0003],[114.1557,9.9874],[114.3276,10.0532],[114.2858,10.3504]]],[[[115.4738,9.6851],[115.5084,9.6797],[115.5537,9.6815],[115.5814,9.6876],[115.6821,9.7304],[115.7337,9.7733],[115.7569,9.8066],[115.7766,9.8576],[115.7819,9.9018],[115.775,9.9586],[115.7577,10.0032],[115.738,10.0344],[115.708,10.0671],[115.664,10.0979],[115.6096,10.1189],[115.5409,10.1324],[115.4883,10.1323],[115.4428,10.121],[115.4096,10.105],[115.3715,10.0757],[115.3431,10.0407],[115.31,9.9807],[115.297,9.9334],[115.2954,9.8914],[115.3092,9.8314],[115.3322,9.7895],[115.3734,9.747],[115.4309,9.707],[115.4738,9.6851]]],[[[114.1004,11.1443],[114.0603,11.1421],[114.0098,11.1278],[113.9682,11.1037],[113.9335,11.0707],[113.9102,11.0356],[113.8778,10.9539],[113.8721,10.9152],[113.8806,10.8488],[113.8965,10.8114],[113.9134,10.7856],[113.9471,10.7515],[113.988,10.7261],[114.0186,10.7147],[114.0848,10.707],[114.1483,10.7202],[114.2763,10.8958],[114.2404,10.9086],[114.2109,10.9244],[114.1717,10.9555],[114.1462,10.9854],[114.1231,11.0257],[114.1101,11.0639],[114.1004,11.1443]]],[[[113.0462,9.411],[113.1585,9.5167],[113.1952,9.5629],[113.2126,9.6028],[113.2208,9.644],[113.2172,9.7028],[113.1973,9.7566],[113.1751,9.7891],[113.1309,9.8283],[113.0727,9.8545],[113.0207,9.8617],[112.9604,9.8534],[112.9039,9.8358],[112.8614,9.8133],[112.8303,9.7867],[112.729,9.6801],[112.6997,9.6406],[112.6786,9.5887],[112.6727,9.5261],[112.6849,9.47],[112.6972,9.4432],[112.7315,9.398],[112.7622,9.373],[112.7899,9.3572],[112.8259,9.3442],[112.8567,9.3387],[112.9067,9.3393],[112.964,9.3554],[112.9966,9.3732],[113.0462,9.411]]],[[[112.7892,8.6694],[112.8342,8.6651],[112.8941,8.675],[112.9228,8.6869],[112.9595,8.7106],[112.9828,8.733],[113.0066,8.7661],[113.0194,8.7926],[113.0316,8.8414],[113.0305,8.8958],[113.0229,8.9271],[113.001,8.9725],[112.9621,9.0166],[112.9246,9.0416],[112.8824,9.0577],[112.8518,9.0632],[112.8023,9.0623],[112.7429,9.0444],[112.7012,9.0177],[112.7892,8.6694]]],[[[112.1928,15.6955],[112.2082,15.6829],[112.2302,15.6843],[112.29,15.7202],[112.2848,15.7514],[112.265,15.7584],[112.2074,15.7457],[112.1951,15.7345],[112.1928,15.6955]]],[[[112.8585,16.8369],[112.4688,17.1067],[112.3852,17.1604],[112.347,17.1779],[112.28,17.195],[111.5921,17.3078],[111.5413,17.3174],[111.4702,17.3112],[111.3767,17.2816],[111.3277,17.2545],[111.2965,17.2271],[111.2601,17.1766],[111.2476,17.1453],[111.2399,17.1026],[110.9883,15.8345],[110.9813,15.7943],[110.9822,15.7593],[110.9945,15.7105],[111.0159,15.6697],[111.0584,15.6233],[111.1093,15.5922],[111.1763,15.5746],[111.222,15.5746],[111.251,15.5792],[112.5358,15.8205],[112.6162,15.8433],[112.6592,15.8648],[112.7307,15.9208],[112.7535,15.9424],[112.7819,15.9829],[112.7985,16.0262],[112.9475,16.6162],[112.953,16.6759],[112.9449,16.7199],[112.9302,16.7549],[112.8871,16.8131],[112.8585,16.8369]]],[[[113.5363,15.5748],[113.5388,15.5679],[113.6055,15.4949],[113.6147,15.4877],[113.8758,15.363],[113.887,15.3606],[114.0692,15.3604],[114.1784,15.375],[114.2739,15.4195],[114.2792,15.4241],[114.3481,15.5405],[114.3547,15.5442],[114.5707,15.5428],[114.6551,15.5922],[114.7437,15.6845],[114.966,16.0212],[114.9934,16.1303],[114.9929,16.1361],[114.9045,16.2748],[114.8321,16.334],[114.8206,16.3352],[114.6702,16.2955],[114.5124,16.1949],[114.2167,16.1434],[113.9769,16.0299],[113.83,15.8658],[113.7835,15.7034],[113.7726,15.6945],[113.6172,15.6378],[113.5377,15.5801],[113.5363,15.5748]]]]},"properties":{"region_code":"CN-46-4603","parent_region_code":"CN-46","name":"三沙市","level":"prefecture","has_children":true,"full_path":"中国 / 海南省 / 三沙市","source_admin_code":"4603","osm_relation_id":2833102}},
{"type":"Feature","geometry":{"type":"MultiPolygon","coordinates":[[[[109.4238,19.9266],[109.4282,19.9137],[109.4633,19.9008],[109.4676,19.9205],[109.4238,19.9266]]],[[[109.4948,19.8756],[109.408,19.8971],[109.3425,19.9022],[109.3046,19.9195],[109.2755,19.9025],[109.2556,19.9008],[109.2519,19.8689],[109.2273,19.8649],[109.2014,19.842],[109.1592,19.8282],[109.1386,19.7928],[109.1545,19.786],[109.1553,19.7613],[109.1655,19.739],[109.1432,19.7067],[109.0908,19.6934],[109.0754,19.6766],[109.0448,19.6216],[109.0172,19.6012],[108.9842,19.5857],[108.9246,19.5262],[108.9355,19.4993],[108.9789,19.479],[108.9962,19.4305],[109.0407,19.4321],[109.0491,19.45],[109.0413,19.4766],[109.0473,19.4895],[109.0734,19.4866],[109.0939,19.4749],[109.1263,19.4813],[109.1625,19.434],[109.1877,19.4335],[109.1738,19.4024],[109.2274,19.3944],[109.2731,19.3835],[109.315,19.4],[109.3456,19.3717],[109.376,19.3731],[109.38,19.3574],[109.4215,19.3571],[109.4525,19.4011],[109.4726,19.4031],[109.5023,19.36],[109.4807,19.3165],[109.5074,19.2997],[109.536,19.3143],[109.5468,19.2956],[109.5792,19.2603],[109.607,19.2554],[109.6109,19.2251],[109.6442,19.2055],[109.6682,19.2103],[109.6812,19.175],[109.702,19.2233],[109.7038,19.2487],[109.6937,19.2725],[109.7029,19.3091],[109.7025,19.3314],[109.69,19.3465],[109.6422,19.3529],[109.6384,19.3989],[109.6859,19.4166],[109.708,19.4032],[109.7314,19.4109],[109.751,19.4299],[109.7359,19.4529],[109.7394,19.4751],[109.7212,19.4878],[109.7235,19.5043],[109.7526,19.5277],[109.7371,19.5517],[109.7553,19.5558],[109.7652,19.58],[109.752,19.5754],[109.7193,19.5889],[109.7051,19.5794],[109.6596,19.6081],[109.6352,19.6346],[109.6076,19.6313],[109.5798,19.6607],[109.5611,19.7068],[109.5887,19.7217],[109.5956,19.7485],[109.5919,19.767],[109.576,19.7717],[109.5652,19.8],[109.5605,19.8568],[109.4948,19.8756]]]]},"properties":{"region_code":"CN-46-4604","parent_region_code":"CN-46","name":"儋州市","level":"prefecture","has_children":false,"full_path":"中国 / 海南省 / 儋州市","source_admin_code":"4604","osm_relation_id":2784610}},
{"type":"Feature","geometry":{"type":"Polygon","coordinates":[[[109.7108,18.8351],[109.7125,18.8592],[109.694,18.8902],[109.7202,18.9023],[109.7266,18.9154],[109.6728,18.9277],[109.6608,18.9209],[109.6109,18.913],[109.5733,18.9273],[109.552,18.9462],[109.5422,18.9758],[109.5247,19.0015],[109.5195,19.033],[109.4781,19.0294],[109.4639,19.0343],[109.4559,18.9982],[109.4202,18.992],[109.4039,18.9668],[109.3605,18.9386],[109.3443,18.9482],[109.3197,18.9206],[109.3394,18.9003],[109.3434,18.8826],[109.3703,18.8561],[109.3485,18.8137],[109.3537,18.7801],[109.3482,18.755],[109.3575,18.7025],[109.3922,18.675],[109.3902,18.6461],[109.4029,18.6302],[109.424,18.6294],[109.4437,18.657],[109.4672,18.6488],[109.5146,18.6514],[109.5357,18.6607],[109.5268,18.6765],[109.5241,18.7056],[109.547,18.7327],[109.5809,18.74],[109.5797,18.7139],[109.6155,18.6806],[109.6382,18.7207],[109.671,18.7291],[109.699,18.7237],[109.7026,18.7344],[109.6875,18.7648],[109.6805,18.8001],[109.6836,18.831],[109.7108,18.8351]]]},"properties":{"region_code":"CN-46-469001","parent_region_code":"CN-46","name":"五指山市","level":"county","has_children":false,"full_path":"中国 / 海南省 / 五指山市","source_admin_code":"469001","osm_relation_id":2784622}},
{"type":"Feature","geometry":{"type":"Polygon","coordinates":[[[110.542,19.4702],[110.5005,19.4702],[110.4804,19.4448],[110.4459,19.4492],[110.4194,19.4151],[110.4053,19.4197],[110.3846,19.3981],[110.3643,19.3934],[110.3568,19.3595],[110.3322,19.3547],[110.323,19.3169],[110.3511,19.3031],[110.3541,19.2787],[110.3363,19.2691],[110.34,19.2299],[110.3115,19.2315],[110.296,19.2176],[110.2622,19.2149],[110.2379,19.2256],[110.2206,19.2234],[110.2138,19.2102],[110.1662,19.1929],[110.1465,19.21],[110.1359,19.1966],[110.1347,19.1619],[110.1109,19.1347],[110.1212,19.0804],[110.1197,19.0491],[110.1536,19.0209],[110.1545,19.001],[110.1843,18.9922],[110.1955,19.0008],[110.2321,18.9973],[110.2419,18.9788],[110.2927,18.9893],[110.3378,19.0058],[110.3436,19.0246],[110.3934,19.0401],[110.4322,19.0617],[110.447,19.0622],[110.4732,19.0986],[110.49,19.0842],[110.5297,19.105],[110.5426,19.0899],[110.6065,19.086],[110.6177,19.1573],[110.6374,19.2173],[110.6746,19.2853],[110.7036,19.3201],[110.7259,19.3802],[110.6558,19.3983],[110.6293,19.3933],[110.6249,19.3662],[110.6004,19.3522],[110.58,19.3697],[110.5773,19.4215],[110.5641,19.444],[110.5494,19.4477],[110.542,19.4702]]]},"properties":{"region_code":"CN-46-469002","parent_region_code":"CN-46","name":"琼海市","level":"county","has_children":false,"full_path":"中国 / 海南省 / 琼海市","source_admin_code":"469002","osm_relation_id":2784617}},
{"type":"Feature","geometry":{"type":"MultiPolygon","coordinates":[[[[111.2437,19.9696],[111.2481,19.9493],[111.2703,19.9573],[111.2841,19.9758],[111.279,19.9941],[111.2579,19.9879],[111.2437,19.9696]]],[[[111.2055,19.8753],[111.224,19.8811],[111.2074,19.9334],[111.1878,19.9276],[111.188,19.9057],[111.2055,19.8753]]],[[[110.5154,19.5651],[110.4878,19.5535],[110.4643,19.5283],[110.47,19.5043],[110.4956,19.513],[110.512,19.5102],[110.5446,19.4877],[110.542,19.4702],[110.5494,19.4477],[110.5641,19.444],[110.5773,19.4215],[110.58,19.3697],[110.6004,19.3522],[110.6249,19.3662],[110.6293,19.3933],[110.6558,19.3983],[110.7259,19.3802],[110.7813,19.3985],[110.8309,19.4408],[110.8887,19.5268],[110.9277,19.5628],[111.0103,19.6081],[111.0528,19.611],[111.0678,19.6325],[111.0627,19.6644],[111.0363,19.7703],[111.0123,19.8466],[110.9769,19.9746],[110.9635,20.0161],[110.9379,20.0305],[110.9088,20.0201],[110.8671,20.0127],[110.8317,20.0212],[110.8057,20.0375],[110.7809,20.0641],[110.738,20.0771],[110.7282,20.0933],[110.7121,20.1518],[110.6816,20.1656],[110.6502,20.1357],[110.5568,20.1117],[110.5401,20.1133],[110.5056,20.1298],[110.5288,20.0664],[110.5743,20.0163],[110.5954,19.9991],[110.5944,19.9837],[110.6306,19.9669],[110.643,19.9402],[110.6704,19.9107],[110.6754,19.8826],[110.6715,19.8618],[110.6942,19.8631],[110.701,19.8083],[110.6764,19.7976],[110.6552,19.8094],[110.6192,19.7375],[110.6246,19.7247],[110.6176,19.6858],[110.6295,19.6558],[110.6514,19.6538],[110.6502,19.6206],[110.6313,19.5953],[110.6373,19.55],[110.629,19.5369],[110.5659,19.5259],[110.5404,19.5497],[110.5432,19.5643],[110.5154,19.5651]]]]},"properties":{"region_code":"CN-46-469005","parent_region_code":"CN-46","name":"文昌市","level":"county","has_children":false,"full_path":"中国 / 海南省 / 文昌市","source_admin_code":"469005","osm_relation_id":2784621}},
{"type":"Feature","geometry":{"type":"Polygon","coordinates":[[[110.1545,19.001],[110.1451,18.9756],[110.1039,18.9461],[110.0933,18.9132],[110.0411,18.8869],[110.0778,18.8411],[110.0914,18.813],[110.0665,18.7892],[110.0495,18.7574],[110.0266,18.7408],[110.0008,18.7348],[110.0106,18.7154],[110.0111,18.6748],[110.0275,18.6371],[110.0627,18.6307],[110.0732,18.6159],[110.114,18.5924],[110.1313,18.6068],[110.1716,18.5966],[110.2102,18.5806],[110.243,18.6125],[110.2835,18.6327],[110.3245,18.644],[110.358,18.6326],[110.4909,18.6517],[110.497,18.6708],[110.4933,18.7219],[110.4954,18.7517],[110.5604,18.7746],[110.5757,18.7903],[110.5871,18.8234],[110.5817,18.9016],[110.5902,18.9451],[110.6065,19.086],[110.5426,19.0899],[110.5297,19.105],[110.49,19.0842],[110.4732,19.0986],[110.447,19.0622],[110.4322,19.0617],[110.3934,19.0401],[110.3436,19.0246],[110.3378,19.0058],[110.2927,18.9893],[110.2419,18.9788],[110.2321,18.9973],[110.1955,19.0008],[110.1843,18.9922],[110.1545,19.001]]]},"properties":{"region_code":"CN-46-469006","parent_region_code":"CN-46","name":"万宁市","level":"county","has_children":false,"full_path":"中国 / 海南省 / 万宁市","source_admin_code":"469006","osm_relation_id":2784620}},
{"type":"Feature","geometry":{"type":"Polygon","coordinates":[[[109.1222,18.8788],[109.0849,18.9092],[109.108,18.9705],[109.1061,18.9969],[109.0931,19.0322],[109.0633,19.0365],[109.05,19.0462],[109.0236,19.0377],[109.0043,19.0472],[109.0172,19.1183],[108.9875,19.1324],[108.9735,19.1653],[108.966,19.2002],[108.9508,19.2207],[108.9116,19.2204],[108.88,19.2311],[108.8292,19.2615],[108.7808,19.2465],[108.7336,19.2615],[108.6937,19.2685],[108.6736,19.2951],[108.6516,19.3389],[108.6408,19.3511],[108.6287,19.3158],[108.6097,19.2885],[108.6023,19.2662],[108.5902,19.1794],[108.5874,19.1085],[108.5941,19.0567],[108.6092,19.0176],[108.6273,19.0034],[108.6339,18.9228],[108.6305,18.9124],[108.5923,18.8736],[108.5828,18.8394],[108.5897,18.8115],[108.6085,18.7845],[108.6493,18.7423],[108.6559,18.7186],[108.6993,18.7233],[108.7147,18.7314],[108.7514,18.7363],[108.7704,18.7255],[108.808,18.7212],[108.8309,18.7462],[108.858,18.7594],[108.8978,18.7863],[108.9339,18.7934],[108.9636,18.7873],[108.9953,18.8066],[109.0419,18.8039],[109.0667,18.8097],[109.0732,18.841],[109.091,18.8608],[109.1187,18.8632],[109.1222,18.8788]]]},"properties":{"region_code":"CN-46-469007","parent_region_code":"CN-46","name":"东方市","level":"county","has_children":false,"full_path":"中国 / 海南省 / 东方市","source_admin_code":"469007","osm_relation_id":2784612}},
{"type":"Feature","geometry":{"type":"Polygon","coordinates":[[[110.2581,19.6894],[110.2353,19.6443],[110.2092,19.6262],[110.1743,19.6346],[110.1628,19.646],[110.1674,19.6659],[110.1476,19.6704],[110.127,19.6496],[110.1379,19.6198],[110.1315,19.5962],[110.1335,19.5619],[110.1557,19.5879],[110.188,19.5908],[110.1968,19.5621],[110.1918,19.5374],[110.2382,19.5202],[110.2511,19.4967],[110.2248,19.4844],[110.2259,19.4522],[110.1901,19.4573],[110.1579,19.4285],[110.1556,19.3928],[110.169,19.3554],[110.184,19.3373],[110.1737,19.3271],[110.1833,19.3084],[110.2072,19.3149],[110.2273,19.2978],[110.2206,19.2234],[110.2379,19.2256],[110.2622,19.2149],[110.296,19.2176],[110.3115,19.2315],[110.34,19.2299],[110.3363,19.2691],[110.3541,19.2787],[110.3511,19.3031],[110.323,19.3169],[110.3322,19.3547],[110.3568,19.3595],[110.3643,19.3934],[110.3846,19.3981],[110.4053,19.4197],[110.4194,19.4151],[110.4459,19.4492],[110.4804,19.4448],[110.5005,19.4702],[110.542,19.4702],[110.5446,19.4877],[110.512,19.5102],[110.4956,19.513],[110.47,19.5043],[110.4643,19.5283],[110.4878,19.5535],[110.5154,19.5651],[110.5014,19.5882],[110.4843,19.596],[110.4513,19.5766],[110.4204,19.5868],[110.4201,19.6087],[110.3909,19.6109],[110.3684,19.6565],[110.374,19.6891],[110.3893,19.7053],[110.3824,19.7199],[110.3514,19.7166],[110.3357,19.7227],[110.3051,19.6978],[110.2921,19.7027],[110.2581,19.6894]]]},"properties":{"region_code":"CN-46-469021","parent_region_code":"CN-46","name":"定安县","level":"county","has_children":false,"full_path":"中国 / 海南省 / 定安县","source_admin_code":"469021","osm_relation_id":2784611}},
{"type":"Feature","geometry":{"type":"Polygon","coordinates":[[[110.2206,19.2234],[110.2273,19.2978],[110.2072,19.3149],[110.1833,19.3084],[110.1737,19.3271],[110.184,19.3373],[110.169,19.3554],[110.1556,19.3928],[110.1579,19.4285],[110.1901,19.4573],[110.2259,19.4522],[110.2248,19.4844],[110.2511,19.4967],[110.2382,19.5202],[110.1918,19.5374],[110.1968,19.5621],[110.188,19.5908],[110.1557,19.5879],[110.1335,19.5619],[110.1042,19.5594],[110.1151,19.5048],[110.0677,19.4936],[110.0678,19.4693],[110.0414,19.4577],[110.0163,19.4871],[109.9849,19.4851],[109.9577,19.4914],[109.9345,19.4881],[109.9426,19.4666],[109.9103,19.4264],[109.9095,19.3946],[109.8806,19.3803],[109.87,19.392],[109.8483,19.3836],[109.8392,19.3553],[109.8207,19.3379],[109.8161,19.2925],[109.8324,19.2764],[109.8562,19.2769],[109.8902,19.2411],[109.9173,19.2415],[109.9388,19.2283],[109.9536,19.1905],[109.9732,19.1939],[110.0193,19.1816],[110.0529,19.1329],[110.08,19.1384],[110.1109,19.1347],[110.1347,19.1619],[110.1359,19.1966],[110.1465,19.21],[110.1662,19.1929],[110.2138,19.2102],[110.2206,19.2234]]]},"properties":{"region_code":"CN-46-469022","parent_region_code":"CN-46","name":"屯昌县","level":"county","has_children":false,"full_path":"中国 / 海南省 / 屯昌县","source_admin_code":"469022","osm_relation_id":2784619}},
{"type":"Feature","geometry":{"type":"Polygon","coordinates":[[[110.1031,20.0276],[110.0394,19.9925],[109.9938,19.9814],[109.9612,19.9951],[109.8972,19.9958],[109.8514,19.9862],[109.8735,19.9276],[109.8861,19.9248],[109.8754,19.8875],[109.8429,19.8944],[109.857,19.8616],[109.8802,19.8559],[109.8797,19.8277],[109.871,19.7997],[109.8929,19.7783],[109.8787,19.7248],[109.8599,19.7012],[109.8486,19.6545],[109.8332,19.6502],[109.811,19.6242],[109.8151,19.5993],[109.7805,19.6049],[109.7652,19.58],[109.7553,19.5558],[109.7371,19.5517],[109.7526,19.5277],[109.7235,19.5043],[109.7212,19.4878],[109.7394,19.4751],[109.7359,19.4529],[109.751,19.4299],[109.7314,19.4109],[109.7644,19.4013],[109.7825,19.3792],[109.8471,19.4097],[109.87,19.392],[109.8806,19.3803],[109.9095,19.3946],[109.9103,19.4264],[109.9426,19.4666],[109.9345,19.4881],[109.9577,19.4914],[109.9849,19.4851],[110.0163,19.4871],[110.0414,19.4577],[110.0678,19.4693],[110.0677,19.4936],[110.1151,19.5048],[110.1042,19.5594],[110.1335,19.5619],[110.1315,19.5962],[110.1379,19.6198],[110.127,19.6496],[110.1476,19.6704],[110.1674,19.6659],[110.1628,19.646],[110.1743,19.6346],[110.2092,19.6262],[110.2353,19.6443],[110.2581,19.6894],[110.2142,19.6845],[110.2213,19.7092],[110.2033,19.7272],[110.2174,19.7479],[110.2207,19.7736],[110.2016,19.7907],[110.201,19.8336],[110.1708,19.862],[110.1488,19.8724],[110.1515,19.9047],[110.1333,19.9201],[110.148,19.9385],[110.1594,19.9707],[110.1401,19.9783],[110.1315,19.9956],[110.1031,20.0276]]]},"properties":{"region_code":"CN-46-469023","parent_region_code":"CN-46","name":"澄迈县","level":"county","has_children":false,"full_path":"中国 / 海南省 / 澄迈县","source_admin_code":"469023","osm_relation_id":2784609}},
{"type":"Feature","geometry":{"type":"Polygon","coordinates":[[[109.7652,19.58],[109.7805,19.6049],[109.8151,19.5993],[109.811,19.6242],[109.8332,19.6502],[109.8486,19.6545],[109.8599,19.7012],[109.8787,19.7248],[109.8929,19.7783],[109.871,19.7997],[109.8797,19.8277],[109.8802,19.8559],[109.857,19.8616],[109.8429,19.8944],[109.8754,19.8875],[109.8861,19.9248],[109.8735,19.9276],[109.8514,19.9862],[109.8102,19.9948],[109.785,19.9804],[109.7577,19.9833],[109.7315,20.0107],[109.7074,20.0194],[109.6547,20.0137],[109.6296,19.9973],[109.5814,19.9902],[109.5228,19.945],[109.4948,19.8756],[109.5605,19.8568],[109.5652,19.8],[109.576,19.7717],[109.5919,19.767],[109.5956,19.7485],[109.5887,19.7217],[109.5611,19.7068],[109.5798,19.6607],[109.6076,19.6313],[109.6352,19.6346],[109.6596,19.6081],[109.7051,19.5794],[109.7193,19.5889],[109.752,19.5754],[109.7652,19.58]]]},"properties":{"region_code":"CN-46-469024","parent_region_code":"CN-46","name":"临高县","level":"county","has_children":false,"full_path":"中国 / 海南省 / 临高县","source_admin_code":"469024","osm_relation_id":2784615}},
{"type":"Feature","geometry":{"type":"Polygon","coordinates":[[[109.0407,19.4321],[109.0403,19.4024],[109.0472,19.3742],[109.0385,19.3423],[109.0774,19.3282],[109.09,19.3026],[109.1143,19.2992],[109.1376,19.2651],[109.1267,19.2254],[109.1149,19.2034],[109.1296,19.1663],[109.1517,19.152],[109.1567,19.1243],[109.1781,19.0886],[109.2009,19.0882],[109.2526,19.0625],[109.2707,19.0606],[109.2744,19.0137],[109.2812,18.993],[109.2771,18.9592],[109.2897,18.9542],[109.3443,18.9482],[109.3605,18.9386],[109.4039,18.9668],[109.4202,18.992],[109.4559,18.9982],[109.4639,19.0343],[109.4781,19.0294],[109.5195,19.033],[109.5509,19.0694],[109.5845,19.0544],[109.6043,19.0582],[109.6061,19.0855],[109.6414,19.099],[109.6572,19.1257],[109.6821,19.1172],[109.6947,19.1306],[109.6812,19.175],[109.6682,19.2103],[109.6442,19.2055],[109.6109,19.2251],[109.607,19.2554],[109.5792,19.2603],[109.5468,19.2956],[109.536,19.3143],[109.5074,19.2997],[109.4807,19.3165],[109.5023,19.36],[109.4726,19.4031],[109.4525,19.4011],[109.4215,19.3571],[109.38,19.3574],[109.376,19.3731],[109.3456,19.3717],[109.315,19.4],[109.2731,19.3835],[109.2274,19.3944],[109.1738,19.4024],[109.1877,19.4335],[109.1625,19.434],[109.1263,19.4813],[109.0939,19.4749],[109.0734,19.4866],[109.0473,19.4895],[109.0413,19.4766],[109.0491,19.45],[109.0407,19.4321]]]},"properties":{"region_code":"CN-46-469025","parent_region_code":"CN-46","name":"白沙黎族自治县","level":"county","has_children":false,"full_path":"中国 / 海南省 / 白沙黎族自治县","source_admin_code":"469025","osm_relation_id":2784606}},
{"type":"Feature","geometry":{"type":"Polygon","coordinates":[[[108.9246,19.5262],[108.8823,19.4908],[108.8389,19.4652],[108.8027,19.4523],[108.7887,19.4411],[108.7682,19.4099],[108.7433,19.3933],[108.6901,19.3892],[108.66,19.376],[108.6408,19.3511],[108.6516,19.3389],[108.6736,19.2951],[108.6937,19.2685],[108.7336,19.2615],[108.7808,19.2465],[108.8292,19.2615],[108.88,19.2311],[108.9116,19.2204],[108.9508,19.2207],[108.966,19.2002],[108.9735,19.1653],[108.9875,19.1324],[109.0172,19.1183],[109.0043,19.0472],[109.0236,19.0377],[109.05,19.0462],[109.0633,19.0365],[109.0931,19.0322],[109.1061,18.9969],[109.108,18.9705],[109.0849,18.9092],[109.1222,18.8788],[109.1521,18.9096],[109.1775,18.9036],[109.2003,18.8897],[109.2393,18.8928],[109.2553,18.903],[109.2595,18.9201],[109.2897,18.9542],[109.2771,18.9592],[109.2812,18.993],[109.2744,19.0137],[109.2707,19.0606],[109.2526,19.0625],[109.2009,19.0882],[109.1781,19.0886],[109.1567,19.1243],[109.1517,19.152],[109.1296,19.1663],[109.1149,19.2034],[109.1267,19.2254],[109.1376,19.2651],[109.1143,19.2992],[109.09,19.3026],[109.0774,19.3282],[109.0385,19.3423],[109.0472,19.3742],[109.0403,19.4024],[109.0407,19.4321],[108.9962,19.4305],[108.9789,19.479],[108.9355,19.4993],[108.9246,19.5262]]]},"properties":{"region_code":"CN-46-469026","parent_region_code":"CN-46","name":"昌江黎族自治县","level":"county","has_children":false,"full_path":"中国 / 海南省 / 昌江黎族自治县","source_admin_code":"469026","osm_relation_id":2784608}},
{"type":"Feature","geometry":{"type":"Polygon","coordinates":[[[109.4029,18.6302],[109.3902,18.6461],[109.3922,18.675],[109.3575,18.7025],[109.3482,18.755],[109.3537,18.7801],[109.3485,18.8137],[109.3703,18.8561],[109.3434,18.8826],[109.3394,18.9003],[109.3197,18.9206],[109.3443,18.9482],[109.2897,18.9542],[109.2595,18.9201],[109.2553,18.903],[109.2393,18.8928],[109.2003,18.8897],[109.1775,18.9036],[109.1521,18.9096],[109.1222,18.8788],[109.1187,18.8632],[109.091,18.8608],[109.0732,18.841],[109.0667,18.8097],[109.0419,18.8039],[108.9953,18.8066],[108.9636,18.7873],[108.9339,18.7934],[108.8978,18.7863],[108.858,18.7594],[108.8309,18.7462],[108.808,18.7212],[108.7704,18.7255],[108.7514,18.7363],[108.7147,18.7314],[108.6993,18.7233],[108.6559,18.7186],[108.6647,18.6825],[108.6687,18.6289],[108.6467,18.5469],[108.6599,18.5024],[108.676,18.476],[108.7053,18.4523],[108.7757,18.4356],[108.8431,18.4036],[108.9282,18.337],[108.9795,18.386],[109.0148,18.4255],[109.0819,18.4478],[109.1036,18.4644],[109.1472,18.4676],[109.1636,18.4528],[109.1844,18.4572],[109.1908,18.4711],[109.1806,18.5088],[109.1876,18.5348],[109.2022,18.5572],[109.2285,18.5531],[109.2451,18.5601],[109.309,18.5191],[109.3092,18.5455],[109.3286,18.5772],[109.355,18.5883],[109.4029,18.6302]]]},"properties":{"region_code":"CN-46-469027","parent_region_code":"CN-46","name":"乐东黎族自治县","level":"county","has_children":false,"full_path":"中国 / 海南省 / 乐东黎族自治县","source_admin_code":"469027","osm_relation_id":2784614}},
{"type":"Feature","geometry":{"type":"Polygon","coordinates":[[[109.8012,18.3492],[109.9161,18.3775],[109.9523,18.375],[110.0124,18.3606],[110.063,18.3765],[110.0871,18.401],[110.1015,18.48],[110.1134,18.5104],[110.2102,18.5806],[110.1716,18.5966],[110.1313,18.6068],[110.114,18.5924],[110.0732,18.6159],[110.0627,18.6307],[110.0275,18.6371],[110.0111,18.6748],[110.0106,18.7154],[110.0008,18.7348],[109.9859,18.7388],[109.9711,18.7602],[109.9355,18.7645],[109.8859,18.7342],[109.8665,18.7437],[109.848,18.7261],[109.8288,18.7223],[109.8118,18.7327],[109.8,18.7721],[109.7658,18.8048],[109.7488,18.7784],[109.7525,18.7588],[109.7681,18.7503],[109.7689,18.7158],[109.8039,18.7134],[109.8295,18.6897],[109.8221,18.6613],[109.8272,18.637],[109.8019,18.6252],[109.8059,18.5867],[109.8214,18.5709],[109.8456,18.568],[109.8227,18.511],[109.8008,18.5196],[109.777,18.5129],[109.7761,18.4915],[109.7938,18.4877],[109.8069,18.4638],[109.7973,18.4394],[109.7828,18.4369],[109.7868,18.4019],[109.8012,18.3492]]]},"properties":{"region_code":"CN-46-469028","parent_region_code":"CN-46","name":"陵水黎族自治县","level":"county","has_children":false,"full_path":"中国 / 海南省 / 陵水黎族自治县","source_admin_code":"469028","osm_relation_id":2784616}},
{"type":"Feature","geometry":{"type":"Polygon","coordinates":[[[109.777,18.5129],[109.8008,18.5196],[109.8227,18.511],[109.8456,18.568],[109.8214,18.5709],[109.8059,18.5867],[109.8019,18.6252],[109.8272,18.637],[109.8221,18.6613],[109.8295,18.6897],[109.8039,18.7134],[109.7689,18.7158],[109.7681,18.7503],[109.7525,18.7588],[109.7488,18.7784],[109.7658,18.8048],[109.7371,18.8148],[109.7108,18.8351],[109.6836,18.831],[109.6805,18.8001],[109.6875,18.7648],[109.7026,18.7344],[109.699,18.7237],[109.671,18.7291],[109.6382,18.7207],[109.6155,18.6806],[109.5797,18.7139],[109.5809,18.74],[109.547,18.7327],[109.5241,18.7056],[109.5268,18.6765],[109.5357,18.6607],[109.5146,18.6514],[109.4672,18.6488],[109.4437,18.657],[109.424,18.6294],[109.4029,18.6302],[109.4023,18.6057],[109.4197,18.5757],[109.452,18.5588],[109.4697,18.5618],[109.5021,18.5528],[109.5035,18.5432],[109.5321,18.53],[109.5329,18.4925],[109.5223,18.4805],[109.5115,18.4308],[109.5341,18.4108],[109.5357,18.3977],[109.5838,18.3971],[109.5999,18.3887],[109.6339,18.4026],[109.6618,18.3927],[109.7015,18.4321],[109.7089,18.4669],[109.7284,18.4945],[109.777,18.5129]]]},"properties":{"region_code":"CN-46-469029","parent_region_code":"CN-46","name":"保亭黎族苗族自治县","level":"county","has_children":false,"full_path":"中国 / 海南省 / 保亭黎族苗族自治县","source_admin_code":"469029","osm_relation_id":2784607}},
{"type":"Feature","geometry":{"type":"Polygon","coordinates":[[[109.6812,19.175],[109.6947,19.1306],[109.6821,19.1172],[109.6572,19.1257],[109.6414,19.099],[109.6061,19.0855],[109.6043,19.0582],[109.5845,19.0544],[109.5509,19.0694],[109.5195,19.033],[109.5247,19.0015],[109.5422,18.9758],[109.552,18.9462],[109.5733,18.9273],[109.6109,18.913],[109.6608,18.9209],[109.6728,18.9277],[109.7266,18.9154],[109.7202,18.9023],[109.694,18.8902],[109.7125,18.8592],[109.7108,18.8351],[109.7371,18.8148],[109.7658,18.8048],[109.8,18.7721],[109.8118,18.7327],[109.8288,18.7223],[109.848,18.7261],[109.8665,18.7437],[109.8859,18.7342],[109.9355,18.7645],[109.9711,18.7602],[109.9859,18.7388],[110.0008,18.7348],[110.0266,18.7408],[110.0495,18.7574],[110.0665,18.7892],[110.0914,18.813],[110.0778,18.8411],[110.0411,18.8869],[110.0933,18.9132],[110.1039,18.9461],[110.1451,18.9756],[110.1545,19.001],[110.1536,19.0209],[110.1197,19.0491],[110.1212,19.0804],[110.1109,19.1347],[110.08,19.1384],[110.0529,19.1329],[110.0193,19.1816],[109.9732,19.1939],[109.9536,19.1905],[109.9388,19.2283],[109.9173,19.2415],[109.8902,19.2411],[109.8562,19.2769],[109.8324,19.2764],[109.8161,19.2925],[109.8207,19.3379],[109.8392,19.3553],[109.8483,19.3836],[109.87,19.392],[109.8471,19.4097],[109.7825,19.3792],[109.7644,19.4013],[109.7314,19.4109],[109.708,19.4032],[109.6859,19.4166],[109.6384,19.3989],[109.6422,19.3529],[109.69,19.3465],[109.7025,19.3314],[109.7029,19.3091],[109.6937,19.2725],[109.7038,19.2487],[109.702,19.2233],[109.6812,19.175]]]},"properties":{"region_code":"CN-46-469030","parent_region_code":"CN-46","name":"琼中黎族苗族自治县","level":"county","has_children":false,"full_path":"中国 / 海南省 / 琼中黎族苗族自治县","source_admin_code":"469030","osm_relation_id":2784618}}
]}