{"type":"FeatureCollection", "features": [
{"type":"Feature","geometry":{"type":"Polygon","coordinates":[[[103.71,30.2782],[103.7113,30.2703],[103.7021,30.2672],[103.7043,30.2538],[103.6916,30.2478],[103.687,30.2598],[103.6757,30.2495],[103.6747,30.2402],[103.6555,30.2397],[103.6467,30.236],[103.6418,30.2261],[103.6517,30.2206],[103.6465,30.2149],[103.6493,30.2047],[103.6208,30.2125],[103.6172,30.1982],[103.6083,30.1949],[103.6061,30.2033],[103.5933,30.2067],[103.5842,30.198],[103.5766,30.2012],[103.5697,30.1984],[103.5612,30.1898],[103.5512,30.189],[103.5422,30.1845],[103.5361,30.1754],[103.5437,30.1643],[103.5434,30.1602],[103.5267,30.1465],[103.5153,30.1434],[103.5068,30.1293],[103.5157,30.1139],[103.5079,30.1118],[103.5023,30.1062],[103.496,30.0922],[103.4886,30.0933],[103.4841,30.0884],[103.4861,30.0782],[103.5041,30.0641],[103.5027,30.0477],[103.5067,30.0344],[103.5168,30.0381],[103.5196,30.0298],[103.5247,30.028],[103.5338,30.034],[103.5484,30.0262],[103.5563,30.0301],[103.5626,30.0203],[103.5555,30.0019],[103.5407,29.9801],[103.5463,29.9712],[103.5385,29.9673],[103.5435,29.9606],[103.5429,29.951],[103.5535,29.9467],[103.5658,29.9487],[103.5703,29.9434],[103.5807,29.9457],[103.5861,29.9337],[103.5885,29.9219],[103.606,29.9121],[103.618,29.9202],[103.6388,29.9206],[103.6479,29.9257],[103.6506,29.9311],[103.674,29.9232],[103.6763,29.9112],[103.6898,29.8949],[103.6955,29.8847],[103.7055,29.8836],[103.7069,29.875],[103.713,29.8718],[103.722,29.8693],[103.7501,29.8747],[103.7646,29.874],[103.7808,29.8753],[103.7972,29.8701],[103.8093,29.87],[103.8088,29.8805],[103.7987,29.8924],[103.7897,29.8944],[103.7892,29.9043],[103.7921,29.9227],[103.7955,29.9269],[103.8041,29.9262],[103.8127,29.9122],[103.8214,29.9077],[103.8332,29.906],[103.8454,29.8951],[103.8545,29.903],[103.863,29.9028],[103.8716,29.9073],[103.8796,29.9074],[103.8887,29.8993],[103.906,29.8997],[103.9147,29.91],[103.9271,29.9074],[103.9427,29.9011],[103.9562,29.9109],[103.9545,29.9152],[103.9615,29.9244],[103.9543,29.9396],[103.9539,29.9509],[103.9494,29.9588],[103.9475,29.9711],[103.9409,29.9701],[103.9284,29.976],[103.9194,29.9777],[103.9273,29.9891],[103.9385,29.984],[103.9499,29.9874],[103.9532,29.9817],[103.9628,29.9871],[103.959,29.9957],[103.966,29.9984],[103.968,30.0115],[103.974,30.017],[103.9779,30.0301],[103.9716,30.0439],[103.9809,30.0541],[103.9844,30.0665],[103.9843,30.0862],[103.9791,30.1027],[103.9681,30.1192],[103.9672,30.1341],[103.936,30.154],[103.9112,30.1618],[103.9038,30.1607],[103.8931,30.1417],[103.8926,30.1319],[103.8849,30.1271],[103.8804,30.1314],[103.8776,30.1461],[103.8795,30.1612],[103.8739,30.1651],[103.8659,30.164],[103.8651,30.1583],[103.8529,30.1609],[103.8456,30.1677],[103.8359,30.1683],[103.8256,30.1727],[103.8169,30.1806],[103.8031,30.1796],[103.7854,30.1827],[103.7785,30.1887],[103.7697,30.1894],[103.7608,30.1848],[103.7503,30.1913],[103.7393,30.1918],[103.7237,30.2006],[103.7167,30.2121],[103.7147,30.2275],[103.7203,30.2416],[103.7186,30.2535],[103.7239,30.2565],[103.727,30.2663],[103.7202,30.2795],[103.7131,30.2829],[103.71,30.2782]]]},"properties":{"region_code":"CN-51-5114-511402","parent_region_code":"CN-51-5114","name":"东坡区","level":"county","has_children":false,"full_path":"中国 / 四川省 / 眉山市 / 东坡区","source_admin_code":"511402","osm_relation_id":2789921}},
{"type":"Feature","geometry":{"type":"MultiPolygon","coordinates":[[[[103.71,30.2782],[103.7042,30.2715],[103.6873,30.2712],[103.6791,30.2672],[103.687,30.2598],[103.6916,30.2478],[103.7043,30.2538],[103.7021,30.2672],[103.7113,30.2703],[103.71,30.2782]]],[[[103.9672,30.1341],[103.9801,30.1586],[103.9768,30.1634],[103.9778,30.1744],[103.9706,30.179],[103.9742,30.1891],[103.9831,30.1896],[103.9883,30.1981],[103.9829,30.2021],[103.9685,30.2057],[103.9582,30.2166],[103.9723,30.2371],[103.9761,30.2474],[103.9706,30.2625],[103.9762,30.2694],[103.9893,30.2756],[103.9837,30.2834],[103.9724,30.2879],[103.9761,30.3098],[103.9683,30.3139],[103.9609,30.3245],[103.9539,30.3242],[103.9413,30.3353],[103.9315,30.3606],[103.924,30.3644],[103.9123,30.3564],[103.9175,30.3458],[103.9104,30.3424],[103.9091,30.3326],[103.9004,30.3364],[103.8833,30.3317],[103.8755,30.3487],[103.8613,30.3512],[103.8481,30.3463],[103.8275,30.3479],[103.8091,30.3465],[103.7966,30.3493],[103.7801,30.3406],[103.7691,30.3376],[103.7646,30.3273],[103.7492,30.3197],[103.7491,30.3106],[103.7405,30.3093],[103.7322,30.3131],[103.7248,30.3077],[103.7357,30.2949],[103.7345,30.2887],[103.7259,30.2902],[103.7131,30.2829],[103.7202,30.2795],[103.727,30.2663],[103.7239,30.2565],[103.7186,30.2535],[103.7203,30.2416],[103.7147,30.2275],[103.7167,30.2121],[103.7237,30.2006],[103.7393,30.1918],[103.7503,30.1913],[103.7608,30.1848],[103.7697,30.1894],[103.7785,30.1887],[103.7854,30.1827],[103.8031,30.1796],[103.8169,30.1806],[103.8256,30.1727],[103.8359,30.1683],[103.8456,30.1677],[103.8529,30.1609],[103.8651,30.1583],[103.8659,30.164],[103.8739,30.1651],[103.8795,30.1612],[103.8776,30.1461],[103.8804,30.1314],[103.8849,30.1271],[103.8926,30.1319],[103.8931,30.1417],[103.9038,30.1607],[103.9112,30.1618],[103.936,30.154],[103.9672,30.1341]]]]},"properties":{"region_code":"CN-51-5114-511403","parent_region_code":"CN-51-5114","name":"彭山区","level":"county","has_children":false,"full_path":"中国 / 四川省 / 眉山市 / 彭山区","source_admin_code":"511403","osm_relation_id":2789923}},
{"type":"Feature","geometry":{"type":"Polygon","coordinates":[[[103.9545,29.9152],[103.9707,29.8946],[103.9799,29.8941],[103.9905,29.9021],[103.9952,29.8938],[103.9915,29.8855],[103.9733,29.8769],[103.9611,29.8675],[103.9599,29.8577],[103.9656,29.8593],[103.9807,29.853],[103.9912,29.8588],[104.0013,29.8727],[104.0176,29.8719],[104.0267,29.876],[104.04,29.8661],[104.0477,29.8711],[104.055,29.8598],[104.0538,29.8495],[104.0472,29.8411],[104.0466,29.8337],[104.0543,29.8309],[104.0667,29.831],[104.0724,29.8279],[104.0738,29.8168],[104.0862,29.8161],[104.0857,29.8078],[104.0791,29.8054],[104.0693,29.7865],[104.0601,29.7804],[104.0706,29.7735],[104.0712,29.7669],[104.0869,29.7462],[104.0979,29.7476],[104.106,29.7443],[104.1048,29.7392],[104.1144,29.736],[104.1236,29.72],[104.1349,29.7121],[104.1504,29.7099],[104.155,29.7189],[104.1759,29.7157],[104.1804,29.7108],[104.1888,29.7093],[104.185,29.698],[104.1851,29.6889],[104.1949,29.6868],[104.2013,29.6683],[104.2153,29.6706],[104.2144,29.6761],[104.2261,29.6789],[104.2311,29.6716],[104.2287,29.6641],[104.2378,29.6583],[104.2408,29.6516],[104.2386,29.6444],[104.2514,29.6357],[104.2711,29.6384],[104.28,29.6593],[104.2945,29.6757],[104.2955,29.681],[104.3052,29.6971],[104.3189,29.7126],[104.3315,29.7021],[104.3383,29.7],[104.3477,29.7043],[104.3463,29.7122],[104.3344,29.7201],[104.3343,29.7249],[104.3463,29.7296],[104.3578,29.7403],[104.371,29.7376],[104.3951,29.7509],[104.3986,29.7506],[104.4067,29.7374],[104.4131,29.7348],[104.4292,29.7381],[104.4414,29.7378],[104.4426,29.7424],[104.4546,29.7508],[104.4536,29.7631],[104.4574,29.7727],[104.4676,29.788],[104.4747,29.7865],[104.4841,29.7896],[104.4945,29.7985],[104.5012,29.8079],[104.491,29.813],[104.4836,29.809],[104.4749,29.8139],[104.4799,29.8278],[104.4762,29.8413],[104.4812,29.8573],[104.487,29.8666],[104.4985,29.8717],[104.4922,29.8841],[104.4927,29.8907],[104.5009,29.8987],[104.4971,29.9042],[104.4876,29.9074],[104.4859,29.9242],[104.4707,29.9374],[104.4771,29.9399],[104.4754,29.9489],[104.4577,29.9548],[104.4606,29.9678],[104.4728,29.988],[104.4767,29.9915],[104.4527,30.0032],[104.4559,30.0174],[104.457,30.0383],[104.4537,30.0434],[104.4617,30.0525],[104.4738,30.0497],[104.4767,30.0527],[104.466,30.0623],[104.4657,30.0701],[104.4737,30.0715],[104.4799,30.0772],[104.4794,30.0893],[104.4712,30.0922],[104.4588,30.0892],[104.4476,30.1037],[104.4356,30.1041],[104.4258,30.0923],[104.4129,30.1024],[104.4177,30.107],[104.4071,30.1281],[104.3962,30.1272],[104.3854,30.1358],[104.3885,30.1409],[104.3855,30.1592],[104.3794,30.1681],[104.3681,30.17],[104.3556,30.1762],[104.362,30.1885],[104.3499,30.1965],[104.3338,30.1997],[104.3247,30.2069],[104.313,30.2034],[104.3046,30.209],[104.2899,30.2137],[104.2799,30.2235],[104.2702,30.2205],[104.2687,30.2333],[104.2622,30.2443],[104.2416,30.2467],[104.2307,30.254],[104.2286,30.2588],[104.241,30.2701],[104.2338,30.2783],[104.2233,30.2786],[104.2237,30.289],[104.2293,30.2946],[104.2299,30.3164],[104.2107,30.3231],[104.1992,30.3192],[104.1906,30.3325],[104.1797,30.3264],[104.1753,30.3192],[104.1728,30.3023],[104.1671,30.2977],[104.1655,30.2857],[104.1577,30.2812],[104.1518,30.2707],[104.15,30.247],[104.1343,30.2358],[104.1287,30.2364],[104.1237,30.2287],[104.1154,30.2282],[104.1082,30.2391],[104.096,30.2412],[104.0789,30.2571],[104.0569,30.2668],[104.0486,30.2632],[104.0472,30.2741],[104.029,30.2672],[104.0124,30.2713],[104.0042,30.2655],[103.992,30.2698],[103.9893,30.2756],[103.9762,30.2694],[103.9706,30.2625],[103.9761,30.2474],[103.9723,30.2371],[103.9582,30.2166],[103.9685,30.2057],[103.9829,30.2021],[103.9883,30.1981],[103.9831,30.1896],[103.9742,30.1891],[103.9706,30.179],[103.9778,30.1744],[103.9768,30.1634],[103.9801,30.1586],[103.9672,30.1341],[103.9681,30.1192],[103.9791,30.1027],[103.9843,30.0862],[103.9844,30.0665],[103.9809,30.0541],[103.9716,30.0439],[103.9779,30.0301],[103.974,30.017],[103.968,30.0115],[103.966,29.9984],[103.959,29.9957],[103.9628,29.9871],[103.9532,29.9817],[103.9499,29.9874],[103.9385,29.984],[103.9273,29.9891],[103.9194,29.9777],[103.9284,29.976],[103.9409,29.9701],[103.9475,29.9711],[103.9494,29.9588],[103.9539,29.9509],[103.9543,29.9396],[103.9615,29.9244],[103.9545,29.9152]]]},"properties":{"region_code":"CN-51-5114-511421","parent_region_code":"CN-51-5114","name":"仁寿县","level":"county","has_children":false,"full_path":"中国 / 四川省 / 眉山市 / 仁寿县","source_admin_code":"511421","osm_relation_id":2789925}},
{"type":"Feature","geometry":{"type":"Polygon","coordinates":[[[103.238,30.0052],[103.2246,30.002],[103.2314,29.9965],[103.2286,29.9908],[103.2277,29.9763],[103.2228,29.972],[103.2117,29.9746],[103.2039,29.9678],[103.1888,29.9701],[103.1942,29.9583],[103.1957,29.9473],[103.18,29.9506],[103.1688,29.9473],[103.1611,29.9395],[103.1576,29.9267],[103.1494,29.926],[103.1195,29.9173],[103.1047,29.9086],[103.0979,29.9082],[103.0857,29.8986],[103.0895,29.8836],[103.1018,29.8818],[103.1033,29.8768],[103.1226,29.8664],[103.1328,29.8517],[103.1334,29.844],[103.1404,29.8335],[103.1447,29.8193],[103.1541,29.8079],[103.1539,29.8009],[103.1635,29.7947],[103.1655,29.7743],[103.1565,29.7712],[103.1407,29.7614],[103.1436,29.7535],[103.1577,29.7519],[103.1617,29.743],[103.1446,29.7318],[103.1543,29.7205],[103.1416,29.707],[103.1428,29.6965],[103.1403,29.6877],[103.1447,29.6846],[103.1463,29.6712],[103.127,29.6723],[103.1138,29.6866],[103.1065,29.687],[103.0961,29.6961],[103.0916,29.6851],[103.0674,29.6847],[103.0513,29.6776],[103.0467,29.7001],[103.0314,29.7026],[103.0255,29.707],[103.0318,29.7135],[103.0271,29.7204],[103.0126,29.7286],[103.0046,29.7247],[103.0026,29.7139],[102.9916,29.7105],[102.9867,29.7129],[102.9747,29.7107],[102.97,29.7184],[102.9634,29.7197],[102.9602,29.726],[102.929,29.7139],[102.9333,29.7101],[102.9342,29.7005],[102.9298,29.6941],[102.9312,29.688],[102.938,29.6821],[102.9254,29.6668],[102.9231,29.6575],[102.9354,29.6424],[102.9262,29.6221],[102.9318,29.611],[102.9217,29.6034],[102.9238,29.5915],[102.9195,29.5872],[102.9193,29.5786],[102.9232,29.5681],[102.9189,29.5581],[102.9073,29.5546],[102.897,29.5459],[102.8894,29.546],[102.8793,29.5403],[102.8738,29.5339],[102.8669,29.5358],[102.86,29.522],[102.8472,29.5066],[102.8494,29.4985],[102.8688,29.4872],[102.869,29.4776],[102.8771,29.4771],[102.8835,29.4807],[102.892,29.4755],[102.8947,29.4463],[102.9055,29.4404],[102.9072,29.4329],[102.9016,29.419],[102.9165,29.4156],[102.9327,29.4029],[102.9476,29.4111],[102.973,29.4082],[102.9782,29.4192],[102.9926,29.4232],[103.0056,29.439],[103.0084,29.4453],[103.0177,29.4519],[103.0394,29.446],[103.048,29.4484],[103.067,29.4387],[103.0743,29.4309],[103.0907,29.4272],[103.0966,29.4323],[103.1153,29.4361],[103.1159,29.4421],[103.1313,29.4408],[103.1411,29.4324],[103.1555,29.4283],[103.1639,29.4281],[103.178,29.4329],[103.1845,29.477],[103.191,29.4848],[103.2025,29.4866],[103.2238,29.4842],[103.239,29.4847],[103.2569,29.4813],[103.2757,29.4884],[103.2807,29.5001],[103.2899,29.5059],[103.2873,29.5119],[103.2763,29.5133],[103.2695,29.511],[103.2577,29.5158],[103.267,29.5374],[103.2544,29.5596],[103.2575,29.5727],[103.2688,29.5765],[103.2695,29.5944],[103.2658,29.5988],[103.2749,29.6051],[103.2968,29.6026],[103.3001,29.6113],[103.3095,29.6134],[103.314,29.6197],[103.3228,29.6221],[103.3283,29.6324],[103.3366,29.6369],[103.3336,29.648],[103.335,29.6543],[103.3604,29.6648],[103.3718,29.6735],[103.3733,29.6797],[103.3601,29.6781],[103.3518,29.6939],[103.3408,29.678],[103.3306,29.6756],[103.3197,29.6857],[103.3069,29.6792],[103.3034,29.6884],[103.294,29.6971],[103.3022,29.7091],[103.2968,29.721],[103.2974,29.7302],[103.3042,29.7394],[103.3154,29.7477],[103.3079,29.7552],[103.3132,29.7662],[103.3136,29.7744],[103.3286,29.7855],[103.3306,29.7954],[103.3399,29.8003],[103.3569,29.802],[103.3632,29.7967],[103.3784,29.7952],[103.3945,29.8074],[103.407,29.799],[103.4002,29.7919],[103.4156,29.7766],[103.4247,29.7753],[103.4288,29.7633],[103.4371,29.7735],[103.4282,29.7904],[103.4316,29.7982],[103.4306,29.8231],[103.4622,29.8242],[103.4836,29.8174],[103.4917,29.8261],[103.5015,29.8271],[103.5076,29.834],[103.5137,29.8464],[103.5257,29.8425],[103.5314,29.8443],[103.5325,29.8521],[103.5304,29.868],[103.522,29.8706],[103.5224,29.8778],[103.5141,29.8778],[103.5111,29.8847],[103.5139,29.9005],[103.5014,29.9117],[103.5009,29.9169],[103.4808,29.9411],[103.4792,29.9469],[103.4704,29.9532],[103.4546,29.9547],[103.4501,29.9514],[103.4418,29.9536],[103.4235,29.9488],[103.4092,29.9569],[103.4004,29.9674],[103.3885,29.9708],[103.3827,29.9614],[103.3844,29.9524],[103.3684,29.9586],[103.362,29.9667],[103.3495,29.9722],[103.3319,29.977],[103.3288,29.9855],[103.3183,29.987],[103.3103,29.9941],[103.2944,29.9939],[103.2861,29.9667],[103.2815,29.9609],[103.2596,29.9722],[103.2608,29.9878],[103.2589,29.9968],[103.253,30.0025],[103.238,30.0052]]]},"properties":{"region_code":"CN-51-5114-511423","parent_region_code":"CN-51-5114","name":"洪雅县","level":"county","has_children":false,"full_path":"中国 / 四川省 / 眉山市 / 洪雅县","source_admin_code":"511423","osm_relation_id":2789922}},
{"type":"Feature","geometry":{"type":"Polygon","coordinates":[[[103.5068,30.1293],[103.5022,30.1299],[103.4894,30.1208],[103.4882,30.1137],[103.4814,30.1095],[103.4781,30.1185],[103.4718,30.1215],[103.4723,30.1317],[103.4632,30.1328],[103.4598,30.1375],[103.4484,30.1345],[103.4524,30.1256],[103.4637,30.1204],[103.469,30.1037],[103.4545,30.0916],[103.4396,30.1125],[103.4363,30.1198],[103.4287,30.108],[103.4162,30.1123],[103.3984,30.0977],[103.3845,30.0916],[103.3733,30.094],[103.3631,30.0813],[103.3544,30.0994],[103.3457,30.103],[103.3465,30.0924],[103.3399,30.0884],[103.3362,30.0757],[103.3298,30.0722],[103.321,30.0757],[103.3113,30.0735],[103.3018,30.0806],[103.3042,30.0886],[103.2864,30.0772],[103.2855,30.0724],[103.27,30.0644],[103.2567,30.0523],[103.2573,30.0416],[103.2409,30.0241],[103.2385,30.0174],[103.2415,30.0105],[103.238,30.0052],[103.253,30.0025],[103.2589,29.9968],[103.2608,29.9878],[103.2596,29.9722],[103.2815,29.9609],[103.2861,29.9667],[103.2944,29.9939],[103.3103,29.9941],[103.3183,29.987],[103.3288,29.9855],[103.3319,29.977],[103.3495,29.9722],[103.362,29.9667],[103.3684,29.9586],[103.3844,29.9524],[103.3827,29.9614],[103.3885,29.9708],[103.4004,29.9674],[103.4092,29.9569],[103.4235,29.9488],[103.4418,29.9536],[103.4501,29.9514],[103.4546,29.9547],[103.4704,29.9532],[103.4792,29.9469],[103.4808,29.9411],[103.5009,29.9169],[103.5014,29.9117],[103.5139,29.9005],[103.5111,29.8847],[103.5232,29.8863],[103.5313,29.8765],[103.5376,29.877],[103.5548,29.8709],[103.57,29.8736],[103.5827,29.8837],[103.5737,29.8924],[103.5775,29.8981],[103.5885,29.9049],[103.5913,29.9131],[103.5885,29.9219],[103.5861,29.9337],[103.5807,29.9457],[103.5703,29.9434],[103.5658,29.9487],[103.5535,29.9467],[103.5429,29.951],[103.5435,29.9606],[103.5385,29.9673],[103.5463,29.9712],[103.5407,29.9801],[103.5555,30.0019],[103.5626,30.0203],[103.5563,30.0301],[103.5484,30.0262],[103.5338,30.034],[103.5247,30.028],[103.5196,30.0298],[103.5168,30.0381],[103.5067,30.0344],[103.5027,30.0477],[103.5041,30.0641],[103.4861,30.0782],[103.4841,30.0884],[103.4886,30.0933],[103.496,30.0922],[103.5023,30.1062],[103.5079,30.1118],[103.5157,30.1139],[103.5068,30.1293]]]},"properties":{"region_code":"CN-51-5114-511424","parent_region_code":"CN-51-5114","name":"丹棱县","level":"county","has_children":false,"full_path":"中国 / 四川省 / 眉山市 / 丹棱县","source_admin_code":"511424","osm_relation_id":2789920}},
{"type":"Feature","geometry":{"type":"Polygon","coordinates":[[[103.713,29.8718],[103.7214,29.8613],[103.7139,29.8579],[103.7307,29.837],[103.7319,29.8314],[103.7266,29.8188],[103.7312,29.8139],[103.7389,29.8138],[103.7386,29.8043],[103.7462,29.8009],[103.7434,29.79],[103.7313,29.7841],[103.7319,29.7738],[103.7199,29.7813],[103.7012,29.7743],[103.6902,29.7775],[103.686,29.7729],[103.686,29.7621],[103.7035,29.74],[103.7053,29.729],[103.7014,29.7253],[103.7038,29.7166],[103.7172,29.7196],[103.7375,29.7312],[103.7445,29.7229],[103.7532,29.7229],[103.762,29.7098],[103.7704,29.706],[103.7753,29.7131],[103.7913,29.7184],[103.802,29.7194],[103.8179,29.7324],[103.8282,29.7351],[103.8402,29.7339],[103.8516,29.7411],[103.8529,29.7485],[103.8799,29.7452],[103.8912,29.746],[103.897,29.7526],[103.8996,29.7709],[103.9106,29.7705],[103.9107,29.7787],[103.9031,29.7799],[103.9014,29.7866],[103.9207,29.7938],[103.9237,29.8012],[103.9322,29.809],[103.9243,29.8196],[103.9264,29.8294],[103.9392,29.8334],[103.9489,29.828],[103.9603,29.8304],[103.949,29.8446],[103.9599,29.8577],[103.9611,29.8675],[103.9733,29.8769],[103.9915,29.8855],[103.9952,29.8938],[103.9905,29.9021],[103.9799,29.8941],[103.9707,29.8946],[103.9545,29.9152],[103.9562,29.9109],[103.9427,29.9011],[103.9271,29.9074],[103.9147,29.91],[103.906,29.8997],[103.8887,29.8993],[103.8796,29.9074],[103.8716,29.9073],[103.863,29.9028],[103.8545,29.903],[103.8454,29.8951],[103.8332,29.906],[103.8214,29.9077],[103.8127,29.9122],[103.8041,29.9262],[103.7955,29.9269],[103.7921,29.9227],[103.7892,29.9043],[103.7897,29.8944],[103.7987,29.8924],[103.8088,29.8805],[103.8093,29.87],[103.7972,29.8701],[103.7808,29.8753],[103.7646,29.874],[103.7501,29.8747],[103.722,29.8693],[103.713,29.8718]]]},"properties":{"region_code":"CN-51-5114-511425","parent_region_code":"CN-51-5114","name":"青神县","level":"county","has_children":false,"full_path":"中国 / 四川省 / 眉山市 / 青神县","source_admin_code":"511425","osm_relation_id":2789924}}
]}