{"type":"FeatureCollection", "features": [
{"type":"Feature","geometry":{"type":"Polygon","coordinates":[[[106.7832,27.795],[106.7554,27.7676],[106.7258,27.7789],[106.6982,27.759],[106.71,27.743],[106.7329,27.7301],[106.7332,27.7076],[106.7116,27.6982],[106.71,27.6646],[106.7272,27.6643],[106.7756,27.6251],[106.7938,27.6339],[106.8371,27.6269],[106.8594,27.6345],[106.887,27.62],[106.8834,27.6062],[106.9133,27.6007],[106.9042,27.5738],[106.9181,27.5584],[106.9693,27.5682],[106.9871,27.5663],[107.0051,27.5784],[107.0024,27.5936],[107.0247,27.6097],[107.058,27.6076],[107.0601,27.6292],[107.0735,27.6441],[107.0575,27.6559],[107.0738,27.6776],[107.0906,27.6815],[107.1136,27.6736],[107.1236,27.7073],[107.1229,27.7417],[107.1318,27.747],[107.1167,27.762],[107.0808,27.7503],[107.0602,27.7494],[107.0422,27.7659],[107.0187,27.7564],[106.9974,27.7588],[106.9814,27.7289],[106.9085,27.6932],[106.8663,27.7029],[106.8791,27.718],[106.8664,27.7344],[106.8906,27.7421],[106.8925,27.7623],[106.8766,27.7843],[106.8625,27.7883],[106.7832,27.795]]]},"properties":{"region_code":"CN-52-5203-520302","parent_region_code":"CN-52-5203","name":"红花岗区","level":"county","has_children":false,"full_path":"中国 / 贵州省 / 遵义市 / 红花岗区","source_admin_code":"520302","osm_relation_id":2778859}},
{"type":"Feature","geometry":{"type":"Polygon","coordinates":[[[107.1318,27.747],[107.1491,27.7431],[107.1546,27.77],[107.167,27.7822],[107.151,27.8006],[107.1675,27.822],[107.1723,27.8439],[107.1415,27.8757],[107.0729,27.8475],[107.0545,27.8222],[107.0341,27.846],[107.0124,27.8494],[107.0219,27.874],[107.0059,27.9247],[106.9949,27.9425],[107.0054,27.955],[106.9727,28.0043],[106.985,28.0341],[106.9809,28.0522],[106.9413,28.063],[106.9446,28.0267],[106.9176,28.0313],[106.9088,28.0614],[106.8799,28.0646],[106.8621,28.0357],[106.8418,28.0225],[106.8454,28],[106.8328,27.9869],[106.8441,27.9753],[106.8433,27.9358],[106.8635,27.9397],[106.874,27.9059],[106.897,27.8995],[106.892,27.8711],[106.8438,27.8646],[106.8332,27.8337],[106.7918,27.8247],[106.7803,27.8148],[106.7832,27.795],[106.8625,27.7883],[106.8766,27.7843],[106.8925,27.7623],[106.8906,27.7421],[106.8664,27.7344],[106.8791,27.718],[106.8663,27.7029],[106.9085,27.6932],[106.9814,27.7289],[106.9974,27.7588],[107.0187,27.7564],[107.0422,27.7659],[107.0602,27.7494],[107.0808,27.7503],[107.1167,27.762],[107.1318,27.747]]]},"properties":{"region_code":"CN-52-5203-520303","parent_region_code":"CN-52-5203","name":"汇川区","level":"county","has_children":false,"full_path":"中国 / 贵州省 / 遵义市 / 汇川区","source_admin_code":"520303","osm_relation_id":2778880}},
{"type":"Feature","geometry":{"type":"Polygon","coordinates":[[[106.7832,27.795],[106.7803,27.8148],[106.7918,27.8247],[106.8332,27.8337],[106.8438,27.8646],[106.892,27.8711],[106.897,27.8995],[106.874,27.9059],[106.8635,27.9397],[106.8433,27.9358],[106.8441,27.9753],[106.8328,27.9869],[106.8072,27.9824],[106.7746,27.9895],[106.7307,27.9648],[106.6864,27.9545],[106.6706,27.988],[106.6728,28.0066],[106.6637,28.0274],[106.6406,28.0385],[106.6288,28.0309],[106.5753,28.0352],[106.5477,28.029],[106.5438,28.0185],[106.5546,27.9913],[106.5984,27.9729],[106.5907,27.9614],[106.5981,27.9014],[106.5802,27.8865],[106.5692,27.8653],[106.5428,27.8633],[106.5076,27.8532],[106.4977,27.8429],[106.5027,27.8159],[106.4995,27.7841],[106.4677,27.7462],[106.4842,27.7243],[106.4892,27.7035],[106.4808,27.6678],[106.4637,27.6504],[106.4622,27.6227],[106.4183,27.6098],[106.3667,27.6157],[106.3454,27.6279],[106.3252,27.6246],[106.2999,27.6004],[106.3377,27.5769],[106.3443,27.5569],[106.3381,27.5412],[106.3195,27.5282],[106.3194,27.5119],[106.3361,27.4823],[106.3664,27.4712],[106.3725,27.4838],[106.4118,27.5083],[106.4548,27.5111],[106.4737,27.4886],[106.5191,27.479],[106.5236,27.5088],[106.5859,27.5356],[106.6096,27.5316],[106.6357,27.5157],[106.6411,27.4991],[106.6665,27.4655],[106.6917,27.4682],[106.7029,27.4589],[106.7034,27.4351],[106.7233,27.4086],[106.6898,27.3604],[106.6941,27.34],[106.7091,27.3298],[106.709,27.3108],[106.7228,27.3004],[106.7301,27.2594],[106.7502,27.2473],[106.7695,27.2557],[106.7944,27.291],[106.7907,27.3158],[106.832,27.327],[106.8589,27.3115],[106.8622,27.2905],[106.8903,27.2649],[106.9021,27.2693],[106.9304,27.3088],[106.9455,27.3102],[106.9968,27.3568],[107.025,27.36],[107.0485,27.3523],[107.0753,27.328],[107.0991,27.3244],[107.1343,27.3479],[107.1652,27.3582],[107.1915,27.3594],[107.2327,27.4042],[107.2492,27.409],[107.2639,27.4435],[107.2643,27.4848],[107.2606,27.5191],[107.2764,27.545],[107.2764,27.5757],[107.267,27.6054],[107.2873,27.6374],[107.3079,27.6455],[107.3158,27.6654],[107.3405,27.6868],[107.3291,27.7101],[107.3334,27.7225],[107.3723,27.7574],[107.3765,27.7865],[107.4088,27.7977],[107.4392,27.8355],[107.4318,27.85],[107.4351,27.9021],[107.4132,27.9132],[107.3966,27.9312],[107.3724,27.9193],[107.3495,27.8957],[107.3142,27.8859],[107.2813,27.8898],[107.269,27.8644],[107.243,27.871],[107.2082,27.871],[107.1814,27.8573],[107.1647,27.8788],[107.1415,27.8757],[107.1723,27.8439],[107.1675,27.822],[107.151,27.8006],[107.167,27.7822],[107.1546,27.77],[107.1491,27.7431],[107.1318,27.747],[107.1229,27.7417],[107.1236,27.7073],[107.1136,27.6736],[107.0906,27.6815],[107.0738,27.6776],[107.0575,27.6559],[107.0735,27.6441],[107.0601,27.6292],[107.058,27.6076],[107.0247,27.6097],[107.0024,27.5936],[107.0051,27.5784],[106.9871,27.5663],[106.9693,27.5682],[106.9181,27.5584],[106.9042,27.5738],[106.9133,27.6007],[106.8834,27.6062],[106.887,27.62],[106.8594,27.6345],[106.8371,27.6269],[106.7938,27.6339],[106.7756,27.6251],[106.7272,27.6643],[106.71,27.6646],[106.7116,27.6982],[106.7332,27.7076],[106.7329,27.7301],[106.71,27.743],[106.6982,27.759],[106.7258,27.7789],[106.7554,27.7676],[106.7832,27.795]]]},"properties":{"region_code":"CN-52-5203-520304","parent_region_code":"CN-52-5203","name":"播州区","level":"county","has_children":false,"full_path":"中国 / 贵州省 / 遵义市 / 播州区","source_admin_code":"520304","osm_relation_id":2778811}},
{"type":"Feature","geometry":{"type":"Polygon","coordinates":[[[106.9809,28.0522],[106.9735,28.067],[106.9772,28.102],[106.9659,28.1502],[106.9663,28.1825],[106.9813,28.215],[106.9719,28.2569],[106.9707,28.2911],[106.9869,28.3147],[106.9897,28.3589],[106.9651,28.3837],[106.9619,28.3982],[106.9792,28.4241],[107.0359,28.4407],[107.0558,28.4539],[107.0564,28.4766],[107.0813,28.4894],[107.086,28.5423],[107.0701,28.5794],[107.0729,28.6057],[107.0884,28.6248],[107.0835,28.6543],[107.1258,28.6579],[107.1662,28.6456],[107.176,28.6719],[107.2009,28.6905],[107.2277,28.6888],[107.2617,28.7082],[107.2734,28.7473],[107.2614,28.7656],[107.2417,28.7636],[107.2132,28.7741],[107.2043,28.817],[107.2101,28.8305],[107.1892,28.8446],[107.1947,28.8656],[107.1701,28.8854],[107.1392,28.8816],[107.1357,28.8907],[107.0877,28.8933],[107.0823,28.876],[107.0542,28.869],[107.0101,28.8845],[107.0134,28.8624],[106.9792,28.8541],[106.9854,28.833],[106.9769,28.8166],[106.9827,28.777],[106.9459,28.7822],[106.921,28.8139],[106.8938,28.8047],[106.8701,28.7826],[106.8416,28.7844],[106.8202,28.7576],[106.8273,28.7368],[106.8495,28.7277],[106.8613,28.6936],[106.8807,28.6981],[106.8647,28.6612],[106.8632,28.6282],[106.8301,28.6161],[106.8038,28.5926],[106.7808,28.6302],[106.7535,28.613],[106.7543,28.5929],[106.7757,28.5675],[106.7352,28.558],[106.7244,28.5461],[106.7216,28.5233],[106.7412,28.4921],[106.7434,28.4699],[106.7048,28.4538],[106.7052,28.4364],[106.7421,28.3988],[106.7287,28.3501],[106.7054,28.3252],[106.7064,28.296],[106.6991,28.2902],[106.6806,28.2375],[106.6538,28.2087],[106.6163,28.1836],[106.5553,28.1807],[106.5264,28.1947],[106.4756,28.1827],[106.4444,28.1648],[106.4385,28.1496],[106.4461,28.1266],[106.4477,28.0994],[106.4574,28.0761],[106.487,28.047],[106.5317,28.0455],[106.5477,28.029],[106.5753,28.0352],[106.6288,28.0309],[106.6406,28.0385],[106.6637,28.0274],[106.6728,28.0066],[106.6706,27.988],[106.6864,27.9545],[106.7307,27.9648],[106.7746,27.9895],[106.8072,27.9824],[106.8328,27.9869],[106.8454,28],[106.8418,28.0225],[106.8621,28.0357],[106.8799,28.0646],[106.9088,28.0614],[106.9176,28.0313],[106.9446,28.0267],[106.9413,28.063],[106.9809,28.0522]]]},"properties":{"region_code":"CN-52-5203-520322","parent_region_code":"CN-52-5203","name":"桐梓县","level":"county","has_children":false,"full_path":"中国 / 贵州省 / 遵义市 / 桐梓县","source_admin_code":"520322","osm_relation_id":2778862}},
{"type":"Feature","geometry":{"type":"Polygon","coordinates":[[[107.1415,27.8757],[107.1647,27.8788],[107.1814,27.8573],[107.2082,27.871],[107.243,27.871],[107.269,27.8644],[107.2813,27.8898],[107.3142,27.8859],[107.3495,27.8957],[107.3724,27.9193],[107.3966,27.9312],[107.399,27.941],[107.4315,27.9623],[107.4414,27.9774],[107.4796,28.0007],[107.5097,28.0458],[107.5157,28.0673],[107.4993,28.0833],[107.4761,28.074],[107.447,28.0941],[107.4301,28.0728],[107.4093,28.0699],[107.3799,28.0791],[107.3922,28.1108],[107.4227,28.1356],[107.4301,28.1539],[107.4612,28.1454],[107.485,28.1653],[107.4942,28.1823],[107.5163,28.1839],[107.5273,28.1987],[107.5058,28.2195],[107.4983,28.2459],[107.4782,28.2756],[107.4395,28.2608],[107.3992,28.2521],[107.3882,28.2148],[107.3355,28.2212],[107.315,28.2474],[107.2762,28.2665],[107.2219,28.2837],[107.2284,28.3055],[107.2484,28.3398],[107.285,28.3628],[107.3077,28.3706],[107.317,28.3988],[107.3129,28.4193],[107.2982,28.4452],[107.1891,28.4023],[107.1602,28.4586],[107.1478,28.4681],[107.0813,28.4894],[107.0564,28.4766],[107.0558,28.4539],[107.0359,28.4407],[106.9792,28.4241],[106.9619,28.3982],[106.9651,28.3837],[106.9897,28.3589],[106.9869,28.3147],[106.9707,28.2911],[106.9719,28.2569],[106.9813,28.215],[106.9663,28.1825],[106.9659,28.1502],[106.9772,28.102],[106.9735,28.067],[106.9809,28.0522],[106.985,28.0341],[106.9727,28.0043],[107.0054,27.955],[106.9949,27.9425],[107.0059,27.9247],[107.0219,27.874],[107.0124,27.8494],[107.0341,27.846],[107.0545,27.8222],[107.0729,27.8475],[107.1415,27.8757]]]},"properties":{"region_code":"CN-52-5203-520323","parent_region_code":"CN-52-5203","name":"绥阳县","level":"county","has_children":false,"full_path":"中国 / 贵州省 / 遵义市 / 绥阳县","source_admin_code":"520323","osm_relation_id":2778861}},
{"type":"Feature","geometry":{"type":"Polygon","coordinates":[[[107.0813,28.4894],[107.1478,28.4681],[107.1602,28.4586],[107.1891,28.4023],[107.2982,28.4452],[107.3129,28.4193],[107.317,28.3988],[107.3077,28.3706],[107.285,28.3628],[107.2484,28.3398],[107.2284,28.3055],[107.2219,28.2837],[107.2762,28.2665],[107.315,28.2474],[107.3355,28.2212],[107.3882,28.2148],[107.3992,28.2521],[107.4395,28.2608],[107.4782,28.2756],[107.4983,28.2459],[107.5058,28.2195],[107.5273,28.1987],[107.5416,28.1858],[107.5541,28.1566],[107.5875,28.1561],[107.6171,28.1603],[107.6297,28.1772],[107.6177,28.2162],[107.6216,28.2244],[107.6556,28.2357],[107.6578,28.2464],[107.6969,28.2954],[107.6604,28.3116],[107.6335,28.3043],[107.6263,28.3334],[107.6096,28.3507],[107.6206,28.3783],[107.6386,28.3922],[107.6264,28.404],[107.6237,28.4278],[107.6282,28.4622],[107.6399,28.4938],[107.6281,28.5162],[107.6485,28.5187],[107.6547,28.5309],[107.6332,28.5522],[107.6409,28.5625],[107.6812,28.5824],[107.6976,28.6002],[107.697,28.636],[107.6665,28.6422],[107.6369,28.6184],[107.6062,28.6114],[107.5856,28.6182],[107.5751,28.6353],[107.5357,28.625],[107.4997,28.6642],[107.4815,28.6711],[107.4834,28.7198],[107.4938,28.754],[107.4743,28.7624],[107.4289,28.8288],[107.4342,28.8418],[107.3881,28.8496],[107.3825,28.855],[107.3637,28.8468],[107.3352,28.8481],[107.3404,28.8321],[107.3229,28.8122],[107.2554,28.7948],[107.2417,28.7636],[107.2614,28.7656],[107.2734,28.7473],[107.2617,28.7082],[107.2277,28.6888],[107.2009,28.6905],[107.176,28.6719],[107.1662,28.6456],[107.1258,28.6579],[107.0835,28.6543],[107.0884,28.6248],[107.0729,28.6057],[107.0701,28.5794],[107.086,28.5423],[107.0813,28.4894]]]},"properties":{"region_code":"CN-52-5203-520324","parent_region_code":"CN-52-5203","name":"正安县","level":"county","has_children":false,"full_path":"中国 / 贵州省 / 遵义市 / 正安县","source_admin_code":"520324","osm_relation_id":2778865}},
{"type":"Feature","geometry":{"type":"Polygon","coordinates":[[[107.697,28.636],[107.7183,28.6539],[107.7208,28.6875],[107.7697,28.7107],[107.7711,28.7322],[107.7868,28.7638],[107.7845,28.7889],[107.7938,28.8079],[107.8024,28.8732],[107.8635,28.9629],[107.8455,28.9651],[107.8055,28.9869],[107.8169,29.0093],[107.8184,29.0348],[107.7815,29.0503],[107.786,29.0862],[107.8069,29.1435],[107.7901,29.1495],[107.7567,29.18],[107.749,29.2016],[107.7279,29.1868],[107.7132,29.1582],[107.6951,29.145],[107.6581,29.1513],[107.6383,29.1637],[107.6038,29.1695],[107.5852,29.1539],[107.5724,29.1886],[107.5669,29.2197],[107.5553,29.2244],[107.5273,29.1961],[107.51,29.1967],[107.4918,29.1808],[107.4673,29.1738],[107.4595,29.1983],[107.4359,29.2062],[107.3999,29.1833],[107.4084,29.1653],[107.4038,29.1412],[107.4227,29.1323],[107.4064,29.0976],[107.368,29.0966],[107.3738,29.0609],[107.3906,29.0431],[107.3597,29.0125],[107.367,28.9969],[107.3874,28.9985],[107.4122,28.9604],[107.4352,28.9586],[107.4304,28.9378],[107.4105,28.9157],[107.4135,28.8972],[107.3924,28.8789],[107.3825,28.855],[107.3881,28.8496],[107.4342,28.8418],[107.4289,28.8288],[107.4743,28.7624],[107.4938,28.754],[107.4834,28.7198],[107.4815,28.6711],[107.4997,28.6642],[107.5357,28.625],[107.5751,28.6353],[107.5856,28.6182],[107.6062,28.6114],[107.6369,28.6184],[107.6665,28.6422],[107.697,28.636]]]},"properties":{"region_code":"CN-52-5203-520325","parent_region_code":"CN-52-5203","name":"道真仡佬族苗族自治县","level":"county","has_children":false,"full_path":"中国 / 贵州省 / 遵义市 / 道真仡佬族苗族自治县","source_admin_code":"520325","osm_relation_id":2778857}},
{"type":"Feature","geometry":{"type":"Polygon","coordinates":[[[107.6604,28.3116],[107.6695,28.3297],[107.7026,28.3458],[107.7129,28.3325],[107.746,28.3181],[107.7743,28.3208],[107.7812,28.3501],[107.8164,28.33],[107.823,28.2945],[107.8402,28.2605],[107.8309,28.2454],[107.8415,28.2215],[107.8154,28.2173],[107.7993,28.1869],[107.8113,28.179],[107.833,28.188],[107.8573,28.2091],[107.8619,28.2925],[107.8563,28.3256],[107.8615,28.3581],[107.8748,28.3789],[107.9038,28.3803],[107.987,28.3692],[108,28.3906],[108.0327,28.3687],[108.0638,28.4252],[108.0443,28.4473],[108.0557,28.4756],[108.0437,28.4931],[108.0656,28.5197],[108.0538,28.5446],[108.0341,28.5579],[108.0454,28.57],[108.0332,28.596],[108.059,28.6096],[108.076,28.6049],[108.1246,28.6384],[108.1208,28.6572],[108.1588,28.6802],[108.1702,28.6934],[108.1847,28.7286],[108.1844,28.7493],[108.2019,28.7769],[108.2077,28.7978],[108.2004,28.8219],[108.1796,28.8162],[108.1523,28.8512],[108.1334,28.86],[108.1243,28.879],[108.1339,28.935],[108.1025,28.9648],[108.1034,28.9788],[108.0693,29.0152],[108.0672,29.0587],[108.0555,29.0791],[108.0193,29.0415],[107.9882,29.0376],[107.927,29.0396],[107.9036,29.0093],[107.8804,29.0117],[107.8819,28.993],[107.8687,28.9876],[107.8635,28.9629],[107.8024,28.8732],[107.7938,28.8079],[107.7845,28.7889],[107.7868,28.7638],[107.7711,28.7322],[107.7697,28.7107],[107.7208,28.6875],[107.7183,28.6539],[107.697,28.636],[107.6976,28.6002],[107.6812,28.5824],[107.6409,28.5625],[107.6332,28.5522],[107.6547,28.5309],[107.6485,28.5187],[107.6281,28.5162],[107.6399,28.4938],[107.6282,28.4622],[107.6237,28.4278],[107.6264,28.404],[107.6386,28.3922],[107.6206,28.3783],[107.6096,28.3507],[107.6263,28.3334],[107.6335,28.3043],[107.6604,28.3116]]]},"properties":{"region_code":"CN-52-5203-520326","parent_region_code":"CN-52-5203","name":"务川仡佬族苗族自治县","level":"county","has_children":false,"full_path":"中国 / 贵州省 / 遵义市 / 务川仡佬族苗族自治县","source_admin_code":"520326","osm_relation_id":2778863}},
{"type":"Feature","geometry":{"type":"Polygon","coordinates":[[[107.5875,28.1561],[107.5731,28.1358],[107.5501,28.1342],[107.5321,28.1109],[107.5255,28.0804],[107.5476,28.0672],[107.6143,28.0698],[107.6517,28.0537],[107.6822,28.027],[107.6512,27.952],[107.6746,27.932],[107.6314,27.8756],[107.6038,27.8704],[107.6204,27.8487],[107.6553,27.8299],[107.6503,27.813],[107.6477,27.7535],[107.6198,27.7333],[107.6224,27.721],[107.6064,27.6935],[107.6195,27.6864],[107.6768,27.6688],[107.6986,27.6308],[107.7336,27.619],[107.7388,27.6049],[107.7583,27.601],[107.7809,27.5674],[107.8137,27.5654],[107.8291,27.546],[107.8493,27.5575],[107.8721,27.5505],[107.8933,27.5622],[107.9051,27.5791],[107.8972,27.625],[107.9115,27.6601],[107.9347,27.6877],[107.9236,27.7054],[107.9209,27.7366],[107.9277,27.7567],[107.9451,27.7783],[107.9371,27.7928],[107.9088,27.8131],[107.8843,27.8476],[107.8812,27.8811],[107.8921,27.8983],[107.9132,27.9033],[107.9222,27.9218],[107.9076,27.9535],[107.9111,27.9766],[107.9282,28.012],[107.9106,28.0222],[107.8843,28.0564],[107.8654,28.0569],[107.8585,28.0416],[107.8322,28.0348],[107.8056,28.0732],[107.7876,28.0702],[107.7818,28.099],[107.7937,28.1209],[107.8003,28.1521],[107.7993,28.1869],[107.8154,28.2173],[107.8415,28.2215],[107.8309,28.2454],[107.8402,28.2605],[107.823,28.2945],[107.8164,28.33],[107.7812,28.3501],[107.7743,28.3208],[107.746,28.3181],[107.7129,28.3325],[107.7026,28.3458],[107.6695,28.3297],[107.6604,28.3116],[107.6969,28.2954],[107.6578,28.2464],[107.6556,28.2357],[107.6216,28.2244],[107.6177,28.2162],[107.6297,28.1772],[107.6171,28.1603],[107.5875,28.1561]]]},"properties":{"region_code":"CN-52-5203-520327","parent_region_code":"CN-52-5203","name":"凤冈县","level":"county","has_children":false,"full_path":"中国 / 贵州省 / 遵义市 / 凤冈县","source_admin_code":"520327","osm_relation_id":2778858}},
{"type":"Feature","geometry":{"type":"Polygon","coordinates":[[[107.2643,27.4848],[107.2983,27.4672],[107.3545,27.4621],[107.3491,27.449],[107.3913,27.426],[107.3959,27.41],[107.3711,27.3935],[107.3715,27.3688],[107.3938,27.369],[107.4138,27.349],[107.4298,27.3771],[107.4363,27.3929],[107.4565,27.3987],[107.4713,27.4174],[107.4899,27.4182],[107.5239,27.4416],[107.541,27.4709],[107.5314,27.5033],[107.5173,27.508],[107.5144,27.5344],[107.5298,27.5851],[107.5526,27.6121],[107.5856,27.628],[107.5802,27.6645],[107.6195,27.6864],[107.6064,27.6935],[107.6224,27.721],[107.6198,27.7333],[107.6477,27.7535],[107.6503,27.813],[107.6553,27.8299],[107.6204,27.8487],[107.6038,27.8704],[107.6314,27.8756],[107.6746,27.932],[107.6512,27.952],[107.6822,28.027],[107.6517,28.0537],[107.6143,28.0698],[107.5476,28.0672],[107.5255,28.0804],[107.5321,28.1109],[107.5501,28.1342],[107.5731,28.1358],[107.5875,28.1561],[107.5541,28.1566],[107.5416,28.1858],[107.5273,28.1987],[107.5163,28.1839],[107.4942,28.1823],[107.485,28.1653],[107.4612,28.1454],[107.4301,28.1539],[107.4227,28.1356],[107.3922,28.1108],[107.3799,28.0791],[107.4093,28.0699],[107.4301,28.0728],[107.447,28.0941],[107.4761,28.074],[107.4993,28.0833],[107.5157,28.0673],[107.5097,28.0458],[107.4796,28.0007],[107.4414,27.9774],[107.4315,27.9623],[107.399,27.941],[107.3966,27.9312],[107.4132,27.9132],[107.4351,27.9021],[107.4318,27.85],[107.4392,27.8355],[107.4088,27.7977],[107.3765,27.7865],[107.3723,27.7574],[107.3334,27.7225],[107.3291,27.7101],[107.3405,27.6868],[107.3158,27.6654],[107.3079,27.6455],[107.2873,27.6374],[107.267,27.6054],[107.2764,27.5757],[107.2764,27.545],[107.2606,27.5191],[107.2643,27.4848]]]},"properties":{"region_code":"CN-52-5203-520328","parent_region_code":"CN-52-5203","name":"湄潭县","level":"county","has_children":false,"full_path":"中国 / 贵州省 / 遵义市 / 湄潭县","source_admin_code":"520328","osm_relation_id":2778860}},
{"type":"Feature","geometry":{"type":"Polygon","coordinates":[[[107.6195,27.6864],[107.5802,27.6645],[107.5856,27.628],[107.5526,27.6121],[107.5298,27.5851],[107.5144,27.5344],[107.5173,27.508],[107.5314,27.5033],[107.541,27.4709],[107.5239,27.4416],[107.4899,27.4182],[107.4713,27.4174],[107.4565,27.3987],[107.4363,27.3929],[107.4298,27.3771],[107.447,27.3702],[107.4824,27.3784],[107.494,27.3674],[107.4887,27.3382],[107.4994,27.3193],[107.4726,27.3016],[107.471,27.2853],[107.4539,27.2665],[107.4593,27.2557],[107.5072,27.2069],[107.5281,27.2204],[107.5584,27.2251],[107.5492,27.2483],[107.5559,27.2691],[107.599,27.2643],[107.6463,27.2657],[107.6387,27.2537],[107.6684,27.2365],[107.6763,27.2421],[107.7047,27.228],[107.7231,27.2297],[107.7764,27.2107],[107.7899,27.1956],[107.8218,27.1896],[107.844,27.1687],[107.8484,27.1526],[107.873,27.1454],[107.8795,27.1815],[107.9046,27.1761],[107.931,27.1977],[107.9593,27.2012],[108,27.2309],[108.029,27.2419],[108.0354,27.2614],[108.0076,27.2779],[107.9932,27.3079],[107.973,27.3257],[107.9511,27.3168],[107.9551,27.3421],[107.9466,27.3576],[107.9161,27.3394],[107.8699,27.3467],[107.8538,27.3327],[107.8356,27.3292],[107.8086,27.3372],[107.7702,27.3643],[107.7767,27.3767],[107.7662,27.3967],[107.8017,27.4193],[107.7857,27.4344],[107.7591,27.4466],[107.7496,27.4652],[107.7626,27.4794],[107.8046,27.4923],[107.8291,27.546],[107.8137,27.5654],[107.7809,27.5674],[107.7583,27.601],[107.7388,27.6049],[107.7336,27.619],[107.6986,27.6308],[107.6768,27.6688],[107.6195,27.6864]]]},"properties":{"region_code":"CN-52-5203-520329","parent_region_code":"CN-52-5203","name":"余庆县","level":"county","has_children":false,"full_path":"中国 / 贵州省 / 遵义市 / 余庆县","source_admin_code":"520329","osm_relation_id":2778864}},
{"type":"Feature","geometry":{"type":"Polygon","coordinates":[[[106.7048,28.4538],[106.6901,28.4599],[106.6941,28.4802],[106.6633,28.4909],[106.6461,28.483],[106.6179,28.5066],[106.5641,28.4872],[106.5563,28.5166],[106.5845,28.5288],[106.6118,28.5529],[106.603,28.5965],[106.6074,28.61],[106.6293,28.6099],[106.6333,28.6277],[106.6151,28.6489],[106.6105,28.684],[106.5837,28.6953],[106.5562,28.7241],[106.5583,28.7598],[106.5303,28.7741],[106.5168,28.7958],[106.4863,28.8122],[106.4722,28.8287],[106.4483,28.8198],[106.4503,28.7795],[106.4598,28.7631],[106.4879,28.7459],[106.5117,28.6919],[106.5244,28.6814],[106.4909,28.6181],[106.4629,28.59],[106.5022,28.5462],[106.4969,28.5375],[106.4657,28.5373],[106.4374,28.5634],[106.3823,28.5639],[106.3693,28.5411],[106.3735,28.4818],[106.3448,28.4776],[106.301,28.507],[106.287,28.5398],[106.2682,28.538],[106.2548,28.518],[106.2554,28.5004],[106.2233,28.512],[106.1814,28.4663],[106.1664,28.443],[106.143,28.4666],[106.1168,28.461],[106.0634,28.4725],[106.0843,28.4373],[106.1071,28.4137],[106.084,28.3938],[106.0801,28.3758],[106.0416,28.3765],[106.03,28.366],[106.0318,28.3394],[106.0124,28.3378],[106.0113,28.3188],[105.9852,28.3193],[105.948,28.3025],[105.9376,28.3047],[105.9099,28.2873],[105.8969,28.2977],[105.8559,28.2839],[105.8426,28.2625],[105.8865,28.2399],[105.866,28.2038],[105.8561,28.1697],[105.8892,28.1232],[105.9051,28.1368],[105.9658,28.1357],[105.9728,28.1119],[106.0096,28.1233],[106.0237,28.1346],[106.0578,28.1464],[106.0838,28.1644],[106.1238,28.1697],[106.2038,28.1384],[106.2287,28.147],[106.2876,28.1224],[106.3158,28.1256],[106.3417,28.1458],[106.3483,28.1605],[106.3823,28.163],[106.4155,28.1566],[106.4461,28.1266],[106.4385,28.1496],[106.4444,28.1648],[106.4756,28.1827],[106.5264,28.1947],[106.5553,28.1807],[106.6163,28.1836],[106.6538,28.2087],[106.6806,28.2375],[106.6991,28.2902],[106.7064,28.296],[106.7054,28.3252],[106.7287,28.3501],[106.7421,28.3988],[106.7052,28.4364],[106.7048,28.4538]]]},"properties":{"region_code":"CN-52-5203-520330","parent_region_code":"CN-52-5203","name":"习水县","level":"county","has_children":false,"full_path":"中国 / 贵州省 / 遵义市 / 习水县","source_admin_code":"520330","osm_relation_id":2778810}},
{"type":"Feature","geometry":{"type":"Polygon","coordinates":[[[106.2682,28.538],[106.218,28.5747],[106.2017,28.5712],[106.1853,28.5824],[106.1798,28.6029],[106.1656,28.6161],[106.1605,28.6392],[106.1238,28.6465],[106.1068,28.633],[106.0826,28.6627],[106.0814,28.685],[106.0519,28.6895],[106.0015,28.7453],[105.9749,28.7466],[105.95,28.728],[105.9528,28.7175],[105.9298,28.7062],[105.9336,28.6903],[105.8993,28.6723],[105.8891,28.6377],[105.8919,28.6196],[105.8692,28.6081],[105.8311,28.6027],[105.7802,28.6138],[105.7533,28.6052],[105.7403,28.6201],[105.7144,28.5913],[105.6894,28.5922],[105.6802,28.5379],[105.6244,28.5114],[105.6058,28.4771],[105.6076,28.4425],[105.6425,28.4293],[105.6506,28.3658],[105.6488,28.3463],[105.6355,28.3256],[105.6661,28.3151],[105.6844,28.2874],[105.7267,28.2751],[105.7349,28.2788],[105.7363,28.3086],[105.7721,28.3175],[105.7893,28.3316],[105.7974,28.3125],[105.8205,28.3099],[105.8426,28.2625],[105.8559,28.2839],[105.8969,28.2977],[105.9099,28.2873],[105.9376,28.3047],[105.948,28.3025],[105.9852,28.3193],[106.0113,28.3188],[106.0124,28.3378],[106.0318,28.3394],[106.03,28.366],[106.0416,28.3765],[106.0801,28.3758],[106.084,28.3938],[106.1071,28.4137],[106.0843,28.4373],[106.0634,28.4725],[106.1168,28.461],[106.143,28.4666],[106.1664,28.443],[106.1814,28.4663],[106.2233,28.512],[106.2554,28.5004],[106.2548,28.518],[106.2682,28.538]]]},"properties":{"region_code":"CN-52-5203-520381","parent_region_code":"CN-52-5203","name":"赤水市","level":"county","has_children":false,"full_path":"中国 / 贵州省 / 遵义市 / 赤水市","source_admin_code":"520381","osm_relation_id":2778808}},
{"type":"Feature","geometry":{"type":"Polygon","coordinates":[[[106.5477,28.029],[106.5317,28.0455],[106.487,28.047],[106.4574,28.0761],[106.4477,28.0994],[106.4461,28.1266],[106.4155,28.1566],[106.3823,28.163],[106.3483,28.1605],[106.3417,28.1458],[106.3158,28.1256],[106.2876,28.1224],[106.2287,28.147],[106.2038,28.1384],[106.2229,28.1194],[106.2287,28.1013],[106.2468,28.0956],[106.2632,28.0696],[106.2396,28.0324],[106.2461,28.0132],[106.2824,28.0104],[106.3131,27.9821],[106.3246,27.9611],[106.3044,27.9405],[106.3007,27.903],[106.3221,27.9018],[106.3347,27.8791],[106.3344,27.8607],[106.3132,27.8419],[106.3387,27.8238],[106.3069,27.8138],[106.2392,27.7703],[106.21,27.7675],[106.191,27.7578],[106.1213,27.7829],[106.0609,27.7808],[106.0599,27.7677],[106.0214,27.751],[106.0012,27.7476],[105.9974,27.7275],[106.0049,27.6952],[105.9989,27.6794],[106.0103,27.6643],[106.0322,27.6711],[106.0913,27.6544],[106.116,27.6172],[106.159,27.5638],[106.2072,27.571],[106.2298,27.5559],[106.2348,27.5783],[106.2728,27.6052],[106.2999,27.6004],[106.3252,27.6246],[106.3454,27.6279],[106.3667,27.6157],[106.4183,27.6098],[106.4622,27.6227],[106.4637,27.6504],[106.4808,27.6678],[106.4892,27.7035],[106.4842,27.7243],[106.4677,27.7462],[106.4995,27.7841],[106.5027,27.8159],[106.4977,27.8429],[106.5076,27.8532],[106.5428,27.8633],[106.5692,27.8653],[106.5802,27.8865],[106.5981,27.9014],[106.5907,27.9614],[106.5984,27.9729],[106.5546,27.9913],[106.5438,28.0185],[106.5477,28.029]]]},"properties":{"region_code":"CN-52-5203-520382","parent_region_code":"CN-52-5203","name":"仁怀市","level":"county","has_children":false,"full_path":"中国 / 贵州省 / 遵义市 / 仁怀市","source_admin_code":"520382","osm_relation_id":2778809}}
]}