{"type":"FeatureCollection", "features": [
{"type":"Feature","geometry":{"type":"Polygon","coordinates":[[[107.6743,26.007],[107.6868,26.0122],[107.7089,26.034],[107.7245,26.038],[107.7611,26.065],[107.7649,26.0799],[107.7658,26.1214],[107.7448,26.1356],[107.7313,26.1557],[107.7423,26.1821],[107.7376,26.2076],[107.7456,26.2318],[107.7678,26.278],[107.7642,26.3196],[107.7422,26.3239],[107.7164,26.3206],[107.6868,26.3008],[107.6605,26.3055],[107.6463,26.2828],[107.6352,26.2994],[107.6352,26.3187],[107.6226,26.323],[107.6178,26.3466],[107.6025,26.349],[107.5788,26.3697],[107.5503,26.3712],[107.5287,26.3475],[107.5148,26.3489],[107.5141,26.3712],[107.5203,26.3857],[107.5158,26.4096],[107.4963,26.4222],[107.4704,26.4144],[107.4396,26.4108],[107.4339,26.3938],[107.3988,26.376],[107.3733,26.4006],[107.344,26.408],[107.3266,26.3947],[107.34,26.3436],[107.3566,26.3235],[107.35,26.3138],[107.3318,26.3099],[107.328,26.2966],[107.2904,26.2766],[107.2763,26.2652],[107.2633,26.2332],[107.2538,26.2215],[107.2244,26.2038],[107.2229,26.1762],[107.1927,26.111],[107.1772,26.106],[107.1556,26.119],[107.1374,26.0995],[107.1302,26.0782],[107.1352,26.0601],[107.154,26.0506],[107.1737,26.022],[107.1968,26.0203],[107.2186,26.0032],[107.2159,25.9869],[107.2012,25.9831],[107.2011,25.9691],[107.217,25.9509],[107.2442,25.9489],[107.2593,25.9605],[107.2821,25.9921],[107.2833,26.0109],[107.3284,25.9879],[107.3375,25.9798],[107.3594,25.9792],[107.3611,25.9675],[107.344,25.9362],[107.3402,25.8986],[107.3595,25.886],[107.3841,25.8804],[107.406,25.8857],[107.4156,25.8781],[107.4229,25.8573],[107.4479,25.8584],[107.4493,25.8729],[107.4686,25.8836],[107.4766,25.8998],[107.4657,25.9137],[107.4683,25.9303],[107.4942,25.9347],[107.4993,25.9457],[107.5162,25.9418],[107.5171,25.9644],[107.5255,25.9741],[107.5192,25.9874],[107.5311,26.0085],[107.5632,26.009],[107.5699,26.0033],[107.5972,26.0182],[107.615,26.0012],[107.6379,25.9866],[107.6743,26.007]]]},"properties":{"region_code":"CN-52-5227-522701","parent_region_code":"CN-52-5227","name":"都匀市","level":"county","has_children":false,"full_path":"中国 / 贵州省 / 黔南布依族苗族自治州 / 都匀市","source_admin_code":"522701","osm_relation_id":2777416}},
{"type":"Feature","geometry":{"type":"Polygon","coordinates":[[[107.3557,26.5547],[107.3777,26.5424],[107.3952,26.5409],[107.3955,26.557],[107.4458,26.5841],[107.4568,26.5683],[107.4593,26.5501],[107.4919,26.5587],[107.5091,26.5579],[107.5091,26.5726],[107.5349,26.5767],[107.5607,26.6083],[107.5741,26.6079],[107.5991,26.5872],[107.6068,26.6014],[107.6267,26.6074],[107.6432,26.604],[107.6577,26.5832],[107.6815,26.5745],[107.7046,26.5824],[107.7177,26.573],[107.7378,26.5805],[107.7418,26.5991],[107.7157,26.6148],[107.7192,26.6296],[107.7109,26.6464],[107.6962,26.6531],[107.6889,26.6694],[107.6873,26.7075],[107.6945,26.7272],[107.691,26.7389],[107.7137,26.755],[107.7496,26.795],[107.764,26.8054],[107.7589,26.8273],[107.7277,26.8314],[107.7345,26.8496],[107.6874,26.8689],[107.6866,26.8482],[107.6447,26.8397],[107.6313,26.8477],[107.6422,26.868],[107.6218,26.8842],[107.6019,26.9075],[107.5967,26.8966],[107.5686,26.9001],[107.5506,26.8964],[107.5411,26.9139],[107.5541,26.9452],[107.5486,26.9576],[107.5193,26.9717],[107.4953,26.9623],[107.456,26.9561],[107.4402,26.9485],[107.4176,26.9466],[107.4021,26.9534],[107.3886,26.9783],[107.387,26.998],[107.3765,27.0183],[107.3595,27.0341],[107.3441,27.0365],[107.3063,27.0062],[107.2568,26.9865],[107.2461,26.9681],[107.2633,26.9053],[107.2739,26.8764],[107.2732,26.8487],[107.2659,26.8458],[107.262,26.8071],[107.2513,26.7964],[107.2471,26.768],[107.2612,26.7543],[107.2803,26.7624],[107.3042,26.7525],[107.3191,26.7309],[107.3205,26.7031],[107.3595,26.6679],[107.3602,26.6264],[107.3548,26.6013],[107.3328,26.5978],[107.3231,26.5819],[107.3369,26.5604],[107.3557,26.5547]]]},"properties":{"region_code":"CN-52-5227-522702","parent_region_code":"CN-52-5227","name":"福泉市","level":"county","has_children":false,"full_path":"中国 / 贵州省 / 黔南布依族苗族自治州 / 福泉市","source_admin_code":"522702","osm_relation_id":2777417}},
{"type":"Feature","geometry":{"type":"Polygon","coordinates":[[[107.7786,25.6373],[107.7706,25.6198],[107.7324,25.6053],[107.7078,25.6137],[107.6831,25.6014],[107.6618,25.6135],[107.6346,25.6029],[107.6423,25.5886],[107.6292,25.5713],[107.6343,25.5507],[107.6243,25.5292],[107.6351,25.5009],[107.6468,25.484],[107.6188,25.4654],[107.6223,25.4459],[107.6589,25.4054],[107.6444,25.3745],[107.6435,25.3537],[107.6598,25.3488],[107.6506,25.3201],[107.6632,25.3225],[107.6606,25.2925],[107.6703,25.2395],[107.6818,25.2268],[107.6954,25.2246],[107.703,25.2105],[107.7485,25.2428],[107.759,25.2346],[107.7535,25.2022],[107.7792,25.1723],[107.7734,25.1634],[107.7864,25.145],[107.7588,25.1273],[107.764,25.1195],[107.7938,25.1191],[107.8158,25.1313],[107.8348,25.1191],[107.8666,25.133],[107.8682,25.1424],[107.932,25.1634],[107.9474,25.1755],[107.9653,25.1792],[108.0074,25.1973],[108.0528,25.2014],[108.0737,25.1972],[108.1033,25.2072],[108.1184,25.2326],[108.1295,25.2371],[108.1307,25.2605],[108.1425,25.2734],[108.1293,25.2941],[108.1474,25.3126],[108.1481,25.3259],[108.1317,25.344],[108.1482,25.3556],[108.151,25.3806],[108.1458,25.3963],[108.1747,25.393],[108.1881,25.402],[108.1777,25.429],[108.1582,25.4314],[108.1573,25.4463],[108.1883,25.4604],[108.218,25.4514],[108.2223,25.4285],[108.2482,25.432],[108.2324,25.4514],[108.2377,25.4634],[108.2588,25.4785],[108.2781,25.4808],[108.302,25.518],[108.2857,25.529],[108.271,25.5741],[108.2381,25.5957],[108.2385,25.6309],[108.2125,25.6152],[108.1861,25.6163],[108.1694,25.6066],[108.1423,25.6033],[108.1291,25.5958],[108.1057,25.5976],[108.0975,25.5758],[108.0702,25.5718],[108.0517,25.564],[108.0426,25.5417],[108.0176,25.5458],[107.9875,25.5249],[107.9538,25.5334],[107.9548,25.5214],[107.9347,25.5166],[107.9263,25.5292],[107.9237,25.5508],[107.9044,25.5555],[107.8951,25.5389],[107.8737,25.5327],[107.858,25.5377],[107.8445,25.5587],[107.8129,25.5767],[107.8018,25.5916],[107.8042,25.6251],[107.7906,25.64],[107.7786,25.6373]]]},"properties":{"region_code":"CN-52-5227-522722","parent_region_code":"CN-52-5227","name":"荔波县","level":"county","has_children":false,"full_path":"中国 / 贵州省 / 黔南布依族苗族自治州 / 荔波县","source_admin_code":"522722","osm_relation_id":4425368}},
{"type":"Feature","geometry":{"type":"Polygon","coordinates":[[[107.344,26.408],[107.3257,26.4205],[107.3204,26.4414],[107.308,26.4502],[107.3514,26.4906],[107.3403,26.5049],[107.3212,26.5065],[107.3143,26.5279],[107.3347,26.5543],[107.3557,26.5547],[107.3369,26.5604],[107.3231,26.5819],[107.3328,26.5978],[107.3548,26.6013],[107.3602,26.6264],[107.3595,26.6679],[107.3205,26.7031],[107.3191,26.7309],[107.3042,26.7525],[107.2803,26.7624],[107.2612,26.7543],[107.2471,26.768],[107.245,26.7588],[107.2034,26.7708],[107.1844,26.7515],[107.1854,26.7405],[107.1695,26.7336],[107.1582,26.7386],[107.1402,26.7267],[107.1407,26.7152],[107.1597,26.7061],[107.1628,26.6928],[107.1459,26.6905],[107.1315,26.7056],[107.1212,26.6909],[107.1346,26.6468],[107.1037,26.6129],[107.0811,26.6005],[107.0899,26.5793],[107.0858,26.5637],[107.0616,26.5462],[107.0816,26.537],[107.0883,26.5196],[107.1089,26.5255],[107.1145,26.537],[107.1346,26.5278],[107.1592,26.5274],[107.1536,26.5108],[107.1222,26.4952],[107.1258,26.4796],[107.095,26.4773],[107.0796,26.4649],[107.0781,26.4543],[107.094,26.4446],[107.0775,26.4078],[107.077,26.3968],[107.056,26.3857],[107.0611,26.371],[107.057,26.3503],[107.0457,26.3452],[107.0195,26.3558],[106.9917,26.3507],[107.0092,26.3346],[107.0179,26.3139],[107.0364,26.3088],[107.0426,26.2964],[107.0611,26.2835],[107.0601,26.2664],[107.0447,26.2618],[107.0395,26.2213],[107.015,26.2159],[106.9962,26.2058],[107.0346,26.1546],[107.0645,26.1299],[107.082,26.1207],[107.0957,26.1055],[107.1374,26.0995],[107.1556,26.119],[107.1772,26.106],[107.1927,26.111],[107.2229,26.1762],[107.2244,26.2038],[107.2538,26.2215],[107.2633,26.2332],[107.2763,26.2652],[107.2904,26.2766],[107.328,26.2966],[107.3318,26.3099],[107.35,26.3138],[107.3566,26.3235],[107.34,26.3436],[107.3266,26.3947],[107.344,26.408]]]},"properties":{"region_code":"CN-52-5227-522723","parent_region_code":"CN-52-5227","name":"贵定县","level":"county","has_children":false,"full_path":"中国 / 贵州省 / 黔南布依族苗族自治州 / 贵定县","source_admin_code":"522723","osm_relation_id":2777418}},
{"type":"Feature","geometry":{"type":"Polygon","coordinates":[[[107.6019,26.9075],[107.5963,26.9147],[107.6115,26.932],[107.6284,26.9608],[107.6424,26.9577],[107.6601,26.9804],[107.6645,26.9953],[107.6389,27.0156],[107.6432,27.0229],[107.6298,27.0489],[107.644,27.0713],[107.6856,27.1175],[107.7023,27.1466],[107.6835,27.1547],[107.6759,27.1752],[107.6808,27.1983],[107.6697,27.2115],[107.6489,27.2082],[107.6628,27.2377],[107.6387,27.2537],[107.6463,27.2657],[107.599,27.2643],[107.5981,27.2712],[107.5559,27.2691],[107.5492,27.2483],[107.5584,27.2251],[107.5281,27.2204],[107.5072,27.2069],[107.4593,27.2557],[107.4539,27.2665],[107.471,27.2853],[107.4726,27.3016],[107.4994,27.3193],[107.5021,27.3338],[107.4887,27.3382],[107.494,27.3674],[107.4824,27.3784],[107.447,27.3702],[107.4298,27.3771],[107.4138,27.349],[107.3938,27.369],[107.3715,27.3688],[107.3711,27.3935],[107.3959,27.41],[107.3913,27.426],[107.3491,27.449],[107.3545,27.4621],[107.2983,27.4672],[107.2713,27.4841],[107.2639,27.4435],[107.2492,27.409],[107.2327,27.4042],[107.1915,27.3594],[107.2011,27.3551],[107.204,27.334],[107.1864,27.3059],[107.162,27.2876],[107.1628,27.2659],[107.1352,27.2559],[107.1341,27.2484],[107.1565,27.2373],[107.1944,27.2471],[107.211,27.2431],[107.256,27.2208],[107.2448,27.1906],[107.2319,27.1686],[107.2093,27.174],[107.1873,27.1577],[107.1649,27.1503],[107.183,27.1361],[107.182,27.1116],[107.1638,27.0915],[107.1715,27.0844],[107.1649,27.0662],[107.1631,27.0304],[107.1698,27.0238],[107.1909,27.0302],[107.1924,27.0144],[107.2255,27.0038],[107.2373,26.976],[107.2461,26.9681],[107.2568,26.9865],[107.3063,27.0062],[107.3441,27.0365],[107.3595,27.0341],[107.3765,27.0183],[107.387,26.998],[107.3886,26.9783],[107.4021,26.9534],[107.4176,26.9466],[107.4402,26.9485],[107.456,26.9561],[107.4953,26.9623],[107.5193,26.9717],[107.5486,26.9576],[107.5541,26.9452],[107.5411,26.9139],[107.5506,26.8964],[107.5686,26.9001],[107.5967,26.8966],[107.6019,26.9075]]]},"properties":{"region_code":"CN-52-5227-522725","parent_region_code":"CN-52-5227","name":"瓮安县","level":"county","has_children":false,"full_path":"中国 / 贵州省 / 黔南布依族苗族自治州 / 瓮安县","source_admin_code":"522725","osm_relation_id":2777424}},
{"type":"Feature","geometry":{"type":"Polygon","coordinates":[[[107.4229,25.8573],[107.4078,25.8347],[107.4321,25.8184],[107.4213,25.8097],[107.4349,25.7961],[107.4229,25.7582],[107.4036,25.7337],[107.4015,25.6919],[107.3905,25.6869],[107.3751,25.6618],[107.3515,25.6569],[107.3454,25.6208],[107.3542,25.6037],[107.3507,25.5594],[107.3449,25.5473],[107.3558,25.5331],[107.3276,25.5109],[107.3234,25.502],[107.3159,25.487],[107.328,25.4655],[107.322,25.4395],[107.2996,25.4311],[107.3053,25.4117],[107.3152,25.4054],[107.3424,25.4055],[107.3542,25.3961],[107.3652,25.4125],[107.3895,25.407],[107.3911,25.3924],[107.4185,25.3887],[107.397,25.3494],[107.4156,25.3365],[107.4144,25.3095],[107.4225,25.2904],[107.4399,25.2859],[107.4714,25.2977],[107.4823,25.2743],[107.4651,25.24],[107.4746,25.2134],[107.4969,25.2108],[107.5061,25.2226],[107.5353,25.2279],[107.5574,25.2526],[107.6129,25.2717],[107.6087,25.2834],[107.6322,25.3086],[107.6506,25.3201],[107.6598,25.3488],[107.6435,25.3537],[107.6444,25.3745],[107.6589,25.4054],[107.6223,25.4459],[107.6188,25.4654],[107.6468,25.484],[107.6351,25.5009],[107.6243,25.5292],[107.6343,25.5507],[107.6292,25.5713],[107.6423,25.5886],[107.6346,25.6029],[107.6618,25.6135],[107.6831,25.6014],[107.7078,25.6137],[107.7324,25.6053],[107.7706,25.6198],[107.7786,25.6373],[107.7945,25.6646],[107.7835,25.6747],[107.8018,25.6867],[107.7937,25.7011],[107.7953,25.7168],[107.7852,25.7258],[107.8003,25.7395],[107.8064,25.7677],[107.8341,25.771],[107.8342,25.7851],[107.8224,25.7946],[107.8201,25.8117],[107.7993,25.8152],[107.7851,25.8309],[107.7562,25.8174],[107.7274,25.8385],[107.7091,25.8357],[107.6822,25.8433],[107.6789,25.8641],[107.702,25.8931],[107.7019,25.9087],[107.7108,25.9251],[107.7288,25.9191],[107.7413,25.9301],[107.7183,25.9488],[107.7169,25.966],[107.6928,25.9802],[107.6891,25.9976],[107.6743,26.007],[107.6379,25.9866],[107.615,26.0012],[107.5972,26.0182],[107.5699,26.0033],[107.5632,26.009],[107.5311,26.0085],[107.5192,25.9874],[107.5255,25.9741],[107.5171,25.9644],[107.5162,25.9418],[107.4993,25.9457],[107.4942,25.9347],[107.4683,25.9303],[107.4657,25.9137],[107.4766,25.8998],[107.4686,25.8836],[107.4493,25.8729],[107.4479,25.8584],[107.4229,25.8573]]]},"properties":{"region_code":"CN-52-5227-522726","parent_region_code":"CN-52-5227","name":"独山县","level":"county","has_children":false,"full_path":"中国 / 贵州省 / 黔南布依族苗族自治州 / 独山县","source_admin_code":"522726","osm_relation_id":2777415}},
{"type":"Feature","geometry":{"type":"Polygon","coordinates":[[[107.1374,26.0995],[107.0957,26.1055],[107.0758,26.0959],[107.0534,26.0994],[107.0272,26.1119],[107.0078,26.0992],[107.01,26.0752],[107.0439,26.0644],[107.0336,26.0474],[107.0102,26.0509],[106.99,26.0377],[106.9585,26.0363],[106.9502,25.998],[106.9335,25.969],[106.8747,25.9559],[106.8692,25.9222],[106.895,25.9353],[106.8994,25.9265],[106.8563,25.9085],[106.8498,25.8738],[106.8549,25.8557],[106.8395,25.8298],[106.8844,25.8181],[106.8925,25.7931],[106.8894,25.7764],[106.8494,25.7558],[106.8442,25.7481],[106.8196,25.749],[106.7978,25.7578],[106.7814,25.7552],[106.7928,25.7351],[106.7603,25.7262],[106.7418,25.7361],[106.7024,25.7277],[106.6893,25.7143],[106.6813,25.6934],[106.6852,25.6806],[106.7021,25.6788],[106.7124,25.6652],[106.7213,25.6189],[106.7462,25.6022],[106.8188,25.5784],[106.8274,25.5809],[106.8525,25.6078],[106.8539,25.6309],[106.8743,25.639],[106.9164,25.6436],[106.9554,25.6272],[106.9957,25.6017],[106.9984,25.5898],[106.9857,25.567],[106.996,25.5559],[107.0316,25.5678],[107.0617,25.5593],[107.0887,25.5713],[107.1361,25.566],[107.1809,25.5811],[107.1838,25.5999],[107.2042,25.6133],[107.2365,25.5968],[107.2225,25.5704],[107.2263,25.5572],[107.2403,25.5456],[107.2774,25.5333],[107.3003,25.503],[107.3234,25.502],[107.3276,25.5109],[107.3558,25.5331],[107.3449,25.5473],[107.3507,25.5594],[107.3542,25.6037],[107.3454,25.6208],[107.3515,25.6569],[107.3751,25.6618],[107.3905,25.6869],[107.4015,25.6919],[107.4036,25.7337],[107.4229,25.7582],[107.4349,25.7961],[107.4213,25.8097],[107.4321,25.8184],[107.4078,25.8347],[107.4229,25.8573],[107.4156,25.8781],[107.406,25.8857],[107.3841,25.8804],[107.3595,25.886],[107.3402,25.8986],[107.344,25.9362],[107.3611,25.9675],[107.3594,25.9792],[107.3375,25.9798],[107.3284,25.9879],[107.2833,26.0109],[107.2821,25.9921],[107.2593,25.9605],[107.2442,25.9489],[107.217,25.9509],[107.2011,25.9691],[107.2012,25.9831],[107.2159,25.9869],[107.2186,26.0032],[107.1968,26.0203],[107.1737,26.022],[107.154,26.0506],[107.1352,26.0601],[107.1302,26.0782],[107.1374,26.0995]]]},"properties":{"region_code":"CN-52-5227-522727","parent_region_code":"CN-52-5227","name":"平塘县","level":"county","has_children":false,"full_path":"中国 / 贵州省 / 黔南布依族苗族自治州 / 平塘县","source_admin_code":"522727","osm_relation_id":2777422}},
{"type":"Feature","geometry":{"type":"Polygon","coordinates":[[[106.6813,25.6934],[106.6622,25.7114],[106.6388,25.7161],[106.6337,25.7454],[106.6148,25.7555],[106.6031,25.747],[106.6262,25.7159],[106.6292,25.6988],[106.6162,25.6958],[106.5986,25.7025],[106.5941,25.723],[106.5759,25.725],[106.5758,25.7407],[106.5542,25.7485],[106.554,25.707],[106.5466,25.6959],[106.525,25.6879],[106.5203,25.6758],[106.5153,25.667],[106.489,25.6652],[106.4831,25.6506],[106.4705,25.6321],[106.467,25.6047],[106.4403,25.5879],[106.439,25.5769],[106.4237,25.5603],[106.4314,25.5318],[106.4066,25.4892],[106.3964,25.4789],[106.4009,25.4631],[106.4186,25.4468],[106.4129,25.4282],[106.3929,25.415],[106.4194,25.3959],[106.4267,25.3716],[106.4149,25.3639],[106.4262,25.329],[106.453,25.3266],[106.4796,25.2937],[106.4923,25.2489],[106.4937,25.2318],[106.5028,25.2216],[106.4931,25.2052],[106.4599,25.187],[106.4809,25.1541],[106.5081,25.1265],[106.534,25.0796],[106.547,25.0853],[106.585,25.0888],[106.593,25.1069],[106.6252,25.1245],[106.6347,25.1349],[106.6366,25.1639],[106.6458,25.1706],[106.686,25.1824],[106.6978,25.1815],[106.7243,25.1646],[106.7618,25.1857],[106.7859,25.1735],[106.8151,25.1778],[106.8544,25.1902],[106.8805,25.1853],[106.8974,25.1994],[106.8983,25.229],[106.9098,25.2465],[106.9257,25.253],[106.9491,25.2505],[106.973,25.2368],[106.994,25.2439],[106.9815,25.2582],[107.0098,25.2778],[107.0026,25.3111],[107.0103,25.3469],[107.0048,25.3591],[106.9851,25.3613],[106.9752,25.3782],[106.971,25.4097],[106.9599,25.4402],[106.9775,25.4512],[106.9946,25.4477],[107.0095,25.4978],[107.0653,25.5138],[107.0693,25.5288],[107.059,25.5446],[107.0617,25.5593],[107.0316,25.5678],[106.996,25.5559],[106.9857,25.567],[106.9984,25.5898],[106.9957,25.6017],[106.9554,25.6272],[106.9164,25.6436],[106.8743,25.639],[106.8539,25.6309],[106.8525,25.6078],[106.8274,25.5809],[106.8188,25.5784],[106.7462,25.6022],[106.7213,25.6189],[106.7124,25.6652],[106.7021,25.6788],[106.6852,25.6806],[106.6813,25.6934]]]},"properties":{"region_code":"CN-52-5227-522728","parent_region_code":"CN-52-5227","name":"罗甸县","level":"county","has_children":false,"full_path":"中国 / 贵州省 / 黔南布依族苗族自治州 / 罗甸县","source_admin_code":"522728","osm_relation_id":2777421}},
{"type":"Feature","geometry":{"type":"Polygon","coordinates":[[[106.5203,25.6758],[106.5099,25.694],[106.4971,25.6877],[106.4868,25.7073],[106.4739,25.7093],[106.4656,25.7365],[106.3871,25.7429],[106.3946,25.7588],[106.4238,25.7898],[106.4441,25.8049],[106.4277,25.8918],[106.436,25.9191],[106.4377,25.9482],[106.454,25.9603],[106.4825,25.9622],[106.5079,25.9532],[106.5536,25.9488],[106.566,25.968],[106.5528,25.9768],[106.5393,26.017],[106.5391,26.039],[106.5145,26.056],[106.518,26.0755],[106.5371,26.0695],[106.5585,26.0829],[106.5632,26.1028],[106.5607,26.1223],[106.5483,26.1194],[106.5346,26.1284],[106.5224,26.1534],[106.5271,26.16],[106.5628,26.1665],[106.5732,26.1612],[106.5893,26.1739],[106.6049,26.1734],[106.6373,26.1838],[106.626,26.1982],[106.6146,26.2299],[106.6042,26.2382],[106.5905,26.2255],[106.5641,26.2384],[106.5451,26.2334],[106.5076,26.2389],[106.4977,26.2627],[106.455,26.2694],[106.4359,26.2801],[106.4056,26.2771],[106.3867,26.2907],[106.3508,26.2794],[106.359,26.2681],[106.3447,26.2556],[106.3457,26.2369],[106.3337,26.2256],[106.311,26.2222],[106.2941,26.2399],[106.2516,26.246],[106.2346,26.2306],[106.2781,26.2218],[106.2816,26.2111],[106.2796,26.1754],[106.2699,26.1455],[106.2774,26.1133],[106.2915,26.1036],[106.24,26.0842],[106.2303,26.0581],[106.2306,26.0258],[106.2797,26.0277],[106.3114,25.9756],[106.2802,25.9448],[106.2751,25.9303],[106.2962,25.9252],[106.2923,25.9055],[106.2677,25.854],[106.2476,25.8318],[106.244,25.8092],[106.253,25.7755],[106.2557,25.7475],[106.2307,25.7156],[106.2418,25.7011],[106.2747,25.7138],[106.2894,25.7277],[106.3053,25.7298],[106.2893,25.7018],[106.3631,25.657],[106.3896,25.6569],[106.4093,25.6496],[106.4281,25.6832],[106.4548,25.6725],[106.449,25.6625],[106.4831,25.6506],[106.489,25.6652],[106.5153,25.667],[106.5203,25.6758]]]},"properties":{"region_code":"CN-52-5227-522729","parent_region_code":"CN-52-5227","name":"长顺县","level":"county","has_children":false,"full_path":"中国 / 贵州省 / 黔南布依族苗族自治州 / 长顺县","source_admin_code":"522729","osm_relation_id":2777414}},
{"type":"Feature","geometry":{"type":"Polygon","coordinates":[[[107.2513,26.7964],[107.239,26.8071],[107.2058,26.8169],[107.1982,26.8082],[107.169,26.8236],[107.132,26.8265],[107.1024,26.8183],[107.0861,26.8037],[107.0692,26.8064],[107.0618,26.7889],[107.0452,26.7753],[107.0251,26.7716],[107.0092,26.7586],[106.9775,26.7556],[106.9663,26.7452],[106.9615,26.7233],[106.9776,26.7051],[106.9579,26.6847],[106.9435,26.6778],[106.9573,26.6586],[106.9131,26.6426],[106.9078,26.6612],[106.8921,26.6537],[106.8886,26.6321],[106.8973,26.6187],[106.9106,26.6151],[106.9162,26.5999],[106.9023,26.59],[106.8812,26.588],[106.876,26.5774],[106.8446,26.5758],[106.8312,26.56],[106.8444,26.5388],[106.8443,26.5215],[106.834,26.5076],[106.8069,26.4897],[106.829,26.4563],[106.8146,26.447],[106.8035,26.4306],[106.7855,26.4366],[106.7671,26.407],[106.7673,26.3835],[106.7938,26.3713],[106.7987,26.3868],[106.8142,26.3954],[106.8425,26.3864],[106.8134,26.3732],[106.8202,26.3612],[106.8169,26.3452],[106.7961,26.3449],[106.7787,26.3369],[106.7821,26.3229],[106.8277,26.3163],[106.8678,26.3196],[106.8841,26.2773],[106.8657,26.2713],[106.8504,26.2548],[106.8508,26.2405],[106.8804,26.2376],[106.8863,26.2199],[106.8647,26.2117],[106.8591,26.1999],[106.8859,26.1914],[106.896,26.1741],[106.906,26.1748],[106.9318,26.197],[106.9586,26.2003],[106.9822,26.1913],[106.9962,26.2058],[107.015,26.2159],[107.0395,26.2213],[107.0447,26.2618],[107.0601,26.2664],[107.0611,26.2835],[107.0426,26.2964],[107.0364,26.3088],[107.0179,26.3139],[107.0092,26.3346],[106.9917,26.3507],[107.0195,26.3558],[107.0457,26.3452],[107.057,26.3503],[107.0611,26.371],[107.056,26.3857],[107.077,26.3968],[107.0775,26.4078],[107.094,26.4446],[107.0781,26.4543],[107.0796,26.4649],[107.095,26.4773],[107.1258,26.4796],[107.1222,26.4952],[107.1536,26.5108],[107.1592,26.5274],[107.1346,26.5278],[107.1145,26.537],[107.1089,26.5255],[107.0883,26.5196],[107.0816,26.537],[107.0616,26.5462],[107.0858,26.5637],[107.0899,26.5793],[107.0811,26.6005],[107.1037,26.6129],[107.1346,26.6468],[107.1212,26.6909],[107.1315,26.7056],[107.1459,26.6905],[107.1628,26.6928],[107.1597,26.7061],[107.1407,26.7152],[107.1402,26.7267],[107.1582,26.7386],[107.1695,26.7336],[107.1854,26.7405],[107.1844,26.7515],[107.2034,26.7708],[107.245,26.7588],[107.2471,26.768],[107.2513,26.7964]]]},"properties":{"region_code":"CN-52-5227-522730","parent_region_code":"CN-52-5227","name":"龙里县","level":"county","has_children":false,"full_path":"中国 / 贵州省 / 黔南布依族苗族自治州 / 龙里县","source_admin_code":"522730","osm_relation_id":2777420}},
{"type":"Feature","geometry":{"type":"Polygon","coordinates":[[[106.9962,26.2058],[106.9822,26.1913],[106.9586,26.2003],[106.9318,26.197],[106.906,26.1748],[106.896,26.1741],[106.8859,26.1914],[106.8591,26.1999],[106.8479,26.1892],[106.8269,26.1871],[106.8091,26.2041],[106.8063,26.2302],[106.7901,26.2379],[106.793,26.2559],[106.7786,26.2726],[106.7681,26.2657],[106.7372,26.2835],[106.7153,26.2762],[106.696,26.2927],[106.6684,26.2911],[106.6605,26.274],[106.6268,26.2734],[106.6316,26.2481],[106.6146,26.2299],[106.626,26.1982],[106.6373,26.1838],[106.6049,26.1734],[106.5893,26.1739],[106.5732,26.1612],[106.5628,26.1665],[106.5271,26.16],[106.5224,26.1534],[106.5346,26.1284],[106.5483,26.1194],[106.5607,26.1223],[106.5632,26.1028],[106.5585,26.0829],[106.5371,26.0695],[106.518,26.0755],[106.5145,26.056],[106.5391,26.039],[106.5393,26.017],[106.5528,25.9768],[106.566,25.968],[106.5536,25.9488],[106.5079,25.9532],[106.4825,25.9622],[106.454,25.9603],[106.4377,25.9482],[106.436,25.9191],[106.4277,25.8918],[106.4441,25.8049],[106.4238,25.7898],[106.3946,25.7588],[106.3871,25.7429],[106.4656,25.7365],[106.4739,25.7093],[106.4868,25.7073],[106.4971,25.6877],[106.5099,25.694],[106.5203,25.6758],[106.525,25.6879],[106.5466,25.6959],[106.554,25.707],[106.5542,25.7485],[106.5758,25.7407],[106.5759,25.725],[106.5941,25.723],[106.5986,25.7025],[106.6162,25.6958],[106.6292,25.6988],[106.6262,25.7159],[106.6031,25.747],[106.6148,25.7555],[106.6337,25.7454],[106.6388,25.7161],[106.6622,25.7114],[106.6813,25.6934],[106.6893,25.7143],[106.7024,25.7277],[106.7418,25.7361],[106.7603,25.7262],[106.7928,25.7351],[106.7814,25.7552],[106.7978,25.7578],[106.8196,25.749],[106.8442,25.7481],[106.8494,25.7558],[106.8894,25.7764],[106.8925,25.7931],[106.8844,25.8181],[106.8395,25.8298],[106.8549,25.8557],[106.8498,25.8738],[106.8563,25.9085],[106.8994,25.9265],[106.895,25.9353],[106.8692,25.9222],[106.8747,25.9559],[106.9335,25.969],[106.9502,25.998],[106.9585,26.0363],[106.99,26.0377],[107.0102,26.0509],[107.0336,26.0474],[107.0439,26.0644],[107.01,26.0752],[107.0078,26.0992],[107.0272,26.1119],[107.0534,26.0994],[107.0758,26.0959],[107.0957,26.1055],[107.082,26.1207],[107.0645,26.1299],[107.0346,26.1546],[106.9962,26.2058]]]},"properties":{"region_code":"CN-52-5227-522731","parent_region_code":"CN-52-5227","name":"惠水县","level":"county","has_children":false,"full_path":"中国 / 贵州省 / 黔南布依族苗族自治州 / 惠水县","source_admin_code":"522731","osm_relation_id":2777419}},
{"type":"Feature","geometry":{"type":"Polygon","coordinates":[[[107.6743,26.007],[107.6891,25.9976],[107.6928,25.9802],[107.7169,25.966],[107.7183,25.9488],[107.7413,25.9301],[107.7288,25.9191],[107.7108,25.9251],[107.7019,25.9087],[107.702,25.8931],[107.6789,25.8641],[107.6822,25.8433],[107.7091,25.8357],[107.7274,25.8385],[107.7562,25.8174],[107.7851,25.8309],[107.7993,25.8152],[107.8201,25.8117],[107.8224,25.7946],[107.8342,25.7851],[107.8341,25.771],[107.8064,25.7677],[107.8003,25.7395],[107.7852,25.7258],[107.7953,25.7168],[107.7937,25.7011],[107.8018,25.6867],[107.7835,25.6747],[107.7945,25.6646],[107.7786,25.6373],[107.7906,25.64],[107.8042,25.6251],[107.8018,25.5916],[107.8129,25.5767],[107.8445,25.5587],[107.858,25.5377],[107.8737,25.5327],[107.8951,25.5389],[107.9044,25.5555],[107.9237,25.5508],[107.9263,25.5292],[107.9347,25.5166],[107.9548,25.5214],[107.9538,25.5334],[107.9875,25.5249],[108.0176,25.5458],[108.0426,25.5417],[108.0517,25.564],[108.0702,25.5718],[108.0975,25.5758],[108.1057,25.5976],[108.1291,25.5958],[108.1423,25.6033],[108.1694,25.6066],[108.1861,25.6163],[108.1774,25.6207],[108.1817,25.6468],[108.1645,25.6558],[108.1646,25.6797],[108.1543,25.7035],[108.1093,25.6899],[108.0947,25.7045],[108.0944,25.7373],[108.1004,25.7628],[108.0775,25.7791],[108.0874,25.8131],[108.1146,25.8394],[108.1072,25.8545],[108.1301,25.8696],[108.1411,25.8859],[108.1347,25.913],[108.1768,25.9565],[108.212,25.973],[108.2093,26.0068],[108.2352,26.0402],[108.2212,26.0538],[108.2218,26.0735],[108.1835,26.0403],[108.1617,26.0369],[108.1556,26.0513],[108.154,26.0812],[108.1455,26.0984],[108.1236,26.0998],[108.0981,26.081],[108.0393,26.0821],[108.0185,26.0933],[108,26.0933],[107.9918,26.0836],[107.9604,26.0785],[107.9422,26.1024],[107.9201,26.105],[107.9024,26.1275],[107.8829,26.1202],[107.8563,26.1437],[107.8446,26.1406],[107.8365,26.1022],[107.8116,26.1035],[107.788,26.1281],[107.7835,26.146],[107.7595,26.1594],[107.7423,26.1821],[107.7313,26.1557],[107.7448,26.1356],[107.7658,26.1214],[107.7649,26.0799],[107.7611,26.065],[107.7245,26.038],[107.7089,26.034],[107.6868,26.0122],[107.6743,26.007]]]},"properties":{"region_code":"CN-52-5227-522732","parent_region_code":"CN-52-5227","name":"三都水族自治县","level":"county","has_children":false,"full_path":"中国 / 贵州省 / 黔南布依族苗族自治州 / 三都水族自治县","source_admin_code":"522732","osm_relation_id":2777423}}
]}