{"type":"FeatureCollection", "features": [
{"type":"Feature","geometry":{"type":"Polygon","coordinates":[[[108.029,30.5791],[108.0677,30.5853],[108.1083,30.5861],[108.1345,30.5735],[108.1429,30.5623],[108.142,30.5435],[108.1565,30.5317],[108.17,30.5357],[108.1939,30.5098],[108.2056,30.5053],[108.2289,30.4576],[108.2151,30.4339],[108.2163,30.4205],[108.2486,30.4077],[108.2581,30.3932],[108.2745,30.4101],[108.2894,30.403],[108.3327,30.4604],[108.3418,30.4874],[108.3741,30.5372],[108.3895,30.5388],[108.4059,30.5206],[108.4091,30.5056],[108.4189,30.4916],[108.423,30.4946],[108.4608,30.4907],[108.4851,30.5044],[108.5037,30.5072],[108.521,30.494],[108.5512,30.4915],[108.5655,30.4751],[108.5866,30.4984],[108.6071,30.5062],[108.6197,30.5298],[108.6454,30.5416],[108.6457,30.5569],[108.6353,30.5793],[108.6572,30.5912],[108.687,30.59],[108.6948,30.5478],[108.7081,30.541],[108.7088,30.525],[108.7202,30.5105],[108.741,30.498],[108.7502,30.5075],[108.7665,30.5063],[108.7853,30.5173],[108.8056,30.4949],[108.8416,30.5095],[108.8505,30.5262],[108.8673,30.5347],[108.8889,30.5601],[108.8986,30.5771],[108.879,30.6071],[108.8678,30.6165],[108.878,30.6315],[108.891,30.6373],[108.8976,30.6495],[108.8955,30.6792],[108.8887,30.6891],[108.8707,30.6938],[108.8265,30.6823],[108.8165,30.6964],[108.7768,30.6857],[108.7744,30.698],[108.7892,30.7087],[108.7816,30.7173],[108.7594,30.7149],[108.7578,30.7322],[108.7438,30.7524],[108.7356,30.7786],[108.7353,30.808],[108.7271,30.8184],[108.6961,30.8132],[108.6913,30.8305],[108.6808,30.8382],[108.6768,30.8535],[108.666,30.8561],[108.6626,30.8709],[108.6488,30.8945],[108.6196,30.8946],[108.6194,30.9286],[108.606,30.9431],[108.5896,30.9234],[108.5764,30.9174],[108.5511,30.9149],[108.5415,30.9367],[108.5427,30.9455],[108.5233,30.9684],[108.5312,30.9997],[108.4995,30.9952],[108.5014,30.9792],[108.4828,30.9812],[108.4509,30.9688],[108.4491,31.0039],[108.4099,31.0009],[108.3823,30.9908],[108.3776,30.9766],[108.3446,30.9681],[108.333,30.9749],[108.3427,30.9387],[108.3362,30.9235],[108.3088,30.9128],[108.258,30.8798],[108.2406,30.8924],[108.2274,30.8805],[108.2142,30.8551],[108.1767,30.828],[108.1621,30.8246],[108.1394,30.8325],[108.1289,30.8406],[108.0964,30.8421],[108.0854,30.868],[108.0986,30.8805],[108.0831,30.8974],[108.0655,30.895],[108.0312,30.8782],[108,30.9192],[107.9913,30.9113],[107.9513,30.8835],[107.9503,30.8732],[107.8904,30.8353],[107.8669,30.811],[107.9014,30.766],[107.9462,30.7329],[107.9643,30.7217],[107.9941,30.7148],[108.0127,30.7154],[108.0355,30.7228],[108.0636,30.7256],[108.0725,30.7215],[108.0719,30.6793],[108.0598,30.6641],[108.0327,30.6645],[108.0114,30.6276],[108.0228,30.602],[108.029,30.5791]]]},"properties":{"region_code":"CN-50-500101","parent_region_code":"CN-50","name":"万州区","level":"county","has_children":false,"full_path":"中国 / 重庆市 / 万州区","source_admin_code":"500101","osm_relation_id":2692017}},
{"type":"Feature","geometry":{"type":"Polygon","coordinates":[[[107.4484,30.0024],[107.4318,29.9885],[107.419,29.9718],[107.4082,29.9692],[107.379,29.93],[107.3839,29.9216],[107.3552,29.8994],[107.3345,29.8945],[107.3319,29.8755],[107.3204,29.858],[107.2927,29.8417],[107.2668,29.8413],[107.2545,29.8488],[107.2292,29.848],[107.2036,29.8366],[107.2072,29.8165],[107.1939,29.8103],[107.1812,29.7952],[107.1452,29.7866],[107.1339,29.7757],[107.1091,29.7671],[107.0961,29.7584],[107.0778,29.7652],[107.0663,29.7609],[107.0462,29.7418],[107.0363,29.7384],[107.0214,29.7223],[106.9983,29.7161],[106.9836,29.6554],[106.9711,29.6403],[106.9713,29.6278],[106.9567,29.5914],[106.9495,29.5591],[106.9493,29.5364],[106.9415,29.4992],[106.9902,29.4851],[107.0025,29.4742],[107.0299,29.4688],[107.0303,29.4544],[107.0194,29.4421],[107.031,29.4103],[107.0231,29.3992],[107.0402,29.3805],[107.0854,29.3624],[107.1085,29.3674],[107.1047,29.3857],[107.1409,29.4055],[107.13,29.4138],[107.1548,29.4256],[107.1693,29.4099],[107.1799,29.4175],[107.1999,29.4126],[107.1973,29.4007],[107.21,29.3688],[107.228,29.3674],[107.237,29.3811],[107.2339,29.3977],[107.2223,29.409],[107.2297,29.4241],[107.2446,29.4264],[107.2895,29.4552],[107.3035,29.4711],[107.3089,29.4881],[107.3288,29.5149],[107.3489,29.5169],[107.3739,29.5245],[107.386,29.5341],[107.4064,29.5178],[107.4214,29.5108],[107.4267,29.4859],[107.4448,29.4918],[107.4583,29.5058],[107.471,29.5096],[107.4764,29.4968],[107.5104,29.462],[107.5291,29.4253],[107.5423,29.4357],[107.5472,29.4518],[107.5716,29.4636],[107.5863,29.4802],[107.6121,29.4839],[107.6121,29.5141],[107.6039,29.5263],[107.6373,29.5533],[107.652,29.5541],[107.6518,29.5668],[107.6959,29.6132],[107.6972,29.6277],[107.7144,29.6581],[107.6913,29.6632],[107.655,29.6887],[107.6412,29.6902],[107.628,29.6992],[107.6278,29.7212],[107.6327,29.7445],[107.6225,29.7543],[107.6357,29.7729],[107.632,29.7779],[107.6353,29.8131],[107.6178,29.8049],[107.5999,29.8106],[107.5998,29.8557],[107.6119,29.8687],[107.5946,29.8923],[107.593,29.9144],[107.5798,29.9202],[107.5734,29.9319],[107.5745,29.9582],[107.5587,29.9587],[107.5287,29.9674],[107.5153,29.9766],[107.5106,29.9622],[107.4999,29.9602],[107.4843,29.9714],[107.4683,29.9922],[107.4484,30.0024]]]},"properties":{"region_code":"CN-50-500102","parent_region_code":"CN-50","name":"涪陵区","level":"county","has_children":false,"full_path":"中国 / 重庆市 / 涪陵区","source_admin_code":"500102","osm_relation_id":2693277}},
{"type":"Feature","geometry":{"type":"Polygon","coordinates":[[[106.4888,29.5572],[106.4786,29.5513],[106.4929,29.5492],[106.4975,29.5338],[106.5286,29.5319],[106.5377,29.5432],[106.5695,29.5472],[106.5831,29.5533],[106.5843,29.5745],[106.5729,29.5671],[106.5464,29.571],[106.5269,29.5554],[106.5011,29.5601],[106.4888,29.5572]]]},"properties":{"region_code":"CN-50-500103","parent_region_code":"CN-50","name":"渝中区","level":"county","has_children":false,"full_path":"中国 / 重庆市 / 渝中区","source_admin_code":"500103","osm_relation_id":4738525}},
{"type":"Feature","geometry":{"type":"Polygon","coordinates":[[[106.5201,29.4813],[106.5005,29.4962],[106.4576,29.4981],[106.4513,29.4924],[106.4669,29.479],[106.4519,29.4678],[106.4542,29.4524],[106.4503,29.431],[106.4537,29.4224],[106.43,29.4203],[106.4056,29.443],[106.3899,29.4326],[106.389,29.4092],[106.3949,29.3886],[106.4057,29.3694],[106.3929,29.3601],[106.3968,29.3431],[106.4313,29.3564],[106.4475,29.3812],[106.4827,29.4007],[106.5067,29.4006],[106.5194,29.3923],[106.5294,29.3993],[106.4948,29.4482],[106.4978,29.4793],[106.5201,29.4813]]]},"properties":{"region_code":"CN-50-500104","parent_region_code":"CN-50","name":"大渡口区","level":"county","has_children":false,"full_path":"中国 / 重庆市 / 大渡口区","source_admin_code":"500104","osm_relation_id":4738522}},
{"type":"Feature","geometry":{"type":"Polygon","coordinates":[[[106.5843,29.5745],[106.5782,29.5842],[106.5802,29.6044],[106.5976,29.6188],[106.622,29.6147],[106.6319,29.5921],[106.6522,29.5953],[106.6679,29.5711],[106.6832,29.5653],[106.6956,29.5755],[106.7319,29.5892],[106.7469,29.6122],[106.7841,29.6089],[106.7999,29.5916],[106.8177,29.5942],[106.8458,29.5795],[106.8718,29.6235],[106.8972,29.6707],[106.9064,29.683],[106.9284,29.6968],[106.9358,29.7067],[106.9425,29.7325],[106.9706,29.769],[106.9565,29.7728],[106.947,29.7957],[106.9368,29.8062],[106.9402,29.8277],[106.9325,29.8525],[106.922,29.8456],[106.9162,29.8307],[106.8882,29.8457],[106.8732,29.8442],[106.8658,29.8232],[106.8366,29.8141],[106.7862,29.8287],[106.7977,29.8377],[106.804,29.8586],[106.7872,29.855],[106.7825,29.8671],[106.7647,29.8877],[106.7462,29.8936],[106.7397,29.884],[106.7459,29.8689],[106.7432,29.8552],[106.7279,29.8487],[106.7111,29.8614],[106.6894,29.8713],[106.6536,29.8771],[106.6395,29.8476],[106.6257,29.8412],[106.6108,29.8567],[106.6055,29.8729],[106.5881,29.8561],[106.5644,29.8592],[106.5177,29.8598],[106.5034,29.8346],[106.4836,29.8216],[106.4756,29.8238],[106.4624,29.8094],[106.4747,29.7952],[106.4581,29.7878],[106.4477,29.7739],[106.4398,29.7451],[106.428,29.7093],[106.4227,29.6844],[106.4246,29.6648],[106.4446,29.6538],[106.4532,29.6719],[106.4675,29.6565],[106.4489,29.6356],[106.4486,29.6231],[106.4596,29.6175],[106.4468,29.5948],[106.4808,29.5596],[106.4888,29.5572],[106.5011,29.5601],[106.5269,29.5554],[106.5464,29.571],[106.5729,29.5671],[106.5843,29.5745]]]},"properties":{"region_code":"CN-50-500157","parent_region_code":"CN-50","name":"两江新区","level":"county","has_children":false,"full_path":"中国 / 重庆市 / 两江新区","source_admin_code":"500157","osm_relation_id":19798221}},
{"type":"Feature","geometry":{"type":"Polygon","coordinates":[[[106.4888,29.5572],[106.4808,29.5596],[106.4468,29.5948],[106.4596,29.6175],[106.4486,29.6231],[106.4489,29.6356],[106.4675,29.6565],[106.4532,29.6719],[106.4446,29.6538],[106.4246,29.6648],[106.4227,29.6844],[106.428,29.7093],[106.4398,29.7451],[106.4139,29.7535],[106.4092,29.743],[106.3664,29.7475],[106.3489,29.7366],[106.3009,29.739],[106.2925,29.7071],[106.2756,29.7011],[106.2739,29.6865],[106.2834,29.6648],[106.2739,29.6513],[106.2811,29.6446],[106.2787,29.628],[106.2562,29.5956],[106.2461,29.5582],[106.2492,29.5348],[106.268,29.5299],[106.3205,29.5483],[106.3306,29.5466],[106.3524,29.5622],[106.3741,29.5503],[106.3762,29.5382],[106.395,29.5448],[106.4103,29.5429],[106.4071,29.5037],[106.4031,29.4949],[106.4386,29.4972],[106.4482,29.5212],[106.4587,29.5369],[106.4791,29.5413],[106.4786,29.5513],[106.4888,29.5572]]]},"properties":{"region_code":"CN-50-500106","parent_region_code":"CN-50","name":"沙坪坝区","level":"county","has_children":false,"full_path":"中国 / 重庆市 / 沙坪坝区","source_admin_code":"500106","osm_relation_id":4738519}},
{"type":"Feature","geometry":{"type":"Polygon","coordinates":[[[106.4786,29.5513],[106.4791,29.5413],[106.4587,29.5369],[106.4482,29.5212],[106.4386,29.4972],[106.4031,29.4949],[106.4071,29.5037],[106.4103,29.5429],[106.395,29.5448],[106.3762,29.5382],[106.3741,29.5503],[106.3524,29.5622],[106.3306,29.5466],[106.3205,29.5483],[106.268,29.5299],[106.2492,29.5348],[106.2498,29.5207],[106.2603,29.5151],[106.2572,29.4993],[106.2622,29.4829],[106.2555,29.4679],[106.2588,29.4533],[106.3181,29.4292],[106.3255,29.4148],[106.3249,29.4003],[106.3032,29.3818],[106.2809,29.3891],[106.2576,29.3368],[106.2842,29.325],[106.2821,29.2834],[106.2915,29.262],[106.3052,29.2583],[106.3289,29.2652],[106.3538,29.281],[106.374,29.2838],[106.3854,29.2909],[106.3815,29.3185],[106.3903,29.3404],[106.3968,29.3431],[106.3929,29.3601],[106.4057,29.3694],[106.3949,29.3886],[106.389,29.4092],[106.3899,29.4326],[106.4056,29.443],[106.43,29.4203],[106.4537,29.4224],[106.4503,29.431],[106.4542,29.4524],[106.4519,29.4678],[106.4669,29.479],[106.4513,29.4924],[106.4576,29.4981],[106.5005,29.4962],[106.5201,29.4813],[106.541,29.4768],[106.5479,29.4901],[106.5445,29.501],[106.5309,29.5105],[106.5286,29.5319],[106.4975,29.5338],[106.4929,29.5492],[106.4786,29.5513]]]},"properties":{"region_code":"CN-50-500107","parent_region_code":"CN-50","name":"九龙坡区","level":"county","has_children":false,"full_path":"中国 / 重庆市 / 九龙坡区","source_admin_code":"500107","osm_relation_id":14481498}},
{"type":"Feature","geometry":{"type":"Polygon","coordinates":[[[106.5286,29.5319],[106.5309,29.5105],[106.5445,29.501],[106.5479,29.4901],[106.5574,29.4916],[106.5825,29.4763],[106.607,29.4768],[106.6156,29.4698],[106.6386,29.473],[106.6688,29.4611],[106.6848,29.4711],[106.6782,29.4782],[106.6902,29.4919],[106.713,29.4855],[106.7342,29.4888],[106.7608,29.535],[106.7696,29.5558],[106.7877,29.5806],[106.7999,29.5916],[106.7841,29.6089],[106.7469,29.6122],[106.7319,29.5892],[106.6956,29.5755],[106.6832,29.5653],[106.6679,29.5711],[106.6522,29.5953],[106.6319,29.5921],[106.622,29.6147],[106.5976,29.6188],[106.5802,29.6044],[106.5782,29.5842],[106.5843,29.5745],[106.5831,29.5533],[106.5695,29.5472],[106.5377,29.5432],[106.5286,29.5319]]]},"properties":{"region_code":"CN-50-500108","parent_region_code":"CN-50","name":"南岸区","level":"county","has_children":false,"full_path":"中国 / 重庆市 / 南岸区","source_admin_code":"500108","osm_relation_id":2693315}},
{"type":"Feature","geometry":{"type":"Polygon","coordinates":[[[106.9325,29.8525],[106.9412,29.8549],[106.943,29.881],[106.9714,29.9218],[106.9795,29.9369],[106.9672,29.9412],[106.9625,29.9548],[106.928,29.9674],[106.9272,29.9741],[106.9034,29.9748],[106.89,29.9872],[106.8644,29.9812],[106.8588,29.9953],[106.8622,30.007],[106.858,30.0321],[106.8375,30.0518],[106.8216,30.0337],[106.7952,30.0331],[106.7836,30.0205],[106.7645,30.0183],[106.7277,30.0294],[106.7197,30.0471],[106.7228,30.0565],[106.6959,30.0763],[106.6987,30.0954],[106.6924,30.1005],[106.6989,30.1209],[106.6852,30.1264],[106.6688,30.1251],[106.6482,30.0838],[106.6292,30.0836],[106.5879,30.046],[106.5974,30.0328],[106.5715,30.0182],[106.5665,29.9931],[106.5538,29.9599],[106.5416,29.9377],[106.5228,29.9494],[106.5179,29.9298],[106.5007,29.9345],[106.4873,29.9134],[106.4752,29.9039],[106.4641,29.8776],[106.4509,29.868],[106.4417,29.8821],[106.4372,29.9048],[106.4195,29.8872],[106.39,29.9017],[106.3865,29.9229],[106.377,29.9302],[106.3097,29.8864],[106.3213,29.8727],[106.3258,29.8508],[106.3429,29.8149],[106.3679,29.8161],[106.3328,29.7751],[106.3193,29.7762],[106.3009,29.739],[106.3489,29.7366],[106.3664,29.7475],[106.4092,29.743],[106.4139,29.7535],[106.4398,29.7451],[106.4477,29.7739],[106.4581,29.7878],[106.4747,29.7952],[106.4624,29.8094],[106.4756,29.8238],[106.4836,29.8216],[106.5034,29.8346],[106.5177,29.8598],[106.5644,29.8592],[106.5881,29.8561],[106.6055,29.8729],[106.6108,29.8567],[106.6257,29.8412],[106.6395,29.8476],[106.6536,29.8771],[106.6894,29.8713],[106.7111,29.8614],[106.7279,29.8487],[106.7432,29.8552],[106.7459,29.8689],[106.7397,29.884],[106.7462,29.8936],[106.7647,29.8877],[106.7825,29.8671],[106.7872,29.855],[106.804,29.8586],[106.7977,29.8377],[106.7862,29.8287],[106.8366,29.8141],[106.8658,29.8232],[106.8732,29.8442],[106.8882,29.8457],[106.9162,29.8307],[106.922,29.8456],[106.9325,29.8525]]]},"properties":{"region_code":"CN-50-500109","parent_region_code":"CN-50","name":"北碚区","level":"county","has_children":false,"full_path":"中国 / 重庆市 / 北碚区","source_admin_code":"500109","osm_relation_id":2693395}},
{"type":"Feature","geometry":{"type":"Polygon","coordinates":[[[106.5705,29.1311],[106.578,29.1112],[106.5741,29.0953],[106.5856,29.0598],[106.5834,29.0444],[106.5908,29.0215],[106.5671,29.0249],[106.5543,29.0134],[106.5409,29.0395],[106.5227,29.0389],[106.5113,29.0625],[106.4935,29.0754],[106.4801,29.0671],[106.4852,29.0502],[106.4722,29.0166],[106.4518,29.0212],[106.4376,29.0454],[106.4185,29.0522],[106.4011,29.0405],[106.3894,29.0237],[106.3918,29.0015],[106.4019,28.976],[106.3958,28.9521],[106.4048,28.9251],[106.4061,28.8972],[106.4341,28.862],[106.4432,28.8402],[106.4568,28.8368],[106.4682,28.8392],[106.4863,28.8122],[106.5168,28.7958],[106.5303,28.7741],[106.5437,28.7739],[106.5583,28.7598],[106.5562,28.7241],[106.5837,28.6953],[106.5936,28.6956],[106.6105,28.684],[106.6141,28.6699],[106.6275,28.6611],[106.6361,28.6682],[106.6477,28.6524],[106.6346,28.6477],[106.6151,28.6489],[106.6333,28.6277],[106.6293,28.6099],[106.6074,28.61],[106.603,28.5965],[106.6131,28.5665],[106.6118,28.5529],[106.5983,28.5464],[106.5845,28.5288],[106.5637,28.5271],[106.5563,28.5166],[106.5641,28.4872],[106.5883,28.4951],[106.5905,28.5136],[106.6054,28.5018],[106.6179,28.5066],[106.6273,28.4932],[106.6461,28.483],[106.6633,28.4909],[106.6852,28.4881],[106.6941,28.4802],[106.6901,28.4599],[106.7224,28.4579],[106.7277,28.4668],[106.7434,28.4699],[106.7412,28.4921],[106.7216,28.5233],[106.7244,28.5461],[106.7352,28.558],[106.7593,28.5611],[106.7757,28.5675],[106.7543,28.5929],[106.7535,28.613],[106.7808,28.6302],[106.7875,28.6149],[106.8038,28.5926],[106.8097,28.5929],[106.8301,28.6161],[106.8249,28.6259],[106.8632,28.6282],[106.8647,28.6612],[106.8807,28.6981],[106.8613,28.6936],[106.8493,28.7022],[106.8596,28.7104],[106.8495,28.7277],[106.8273,28.7368],[106.8202,28.7576],[106.8416,28.7844],[106.8701,28.7826],[106.8938,28.8047],[106.9019,28.7995],[106.921,28.8139],[106.9459,28.7822],[106.9827,28.777],[106.9858,28.7864],[106.9769,28.8166],[106.9854,28.833],[106.9792,28.8541],[107.0134,28.8624],[107.0101,28.8845],[107.0327,28.88],[107.0548,28.9008],[107.0417,28.921],[107.0483,28.9433],[107.0257,28.9393],[107.0104,28.9559],[107.0103,28.9722],[107.0262,28.9892],[107.0088,29.0111],[106.9826,29.0276],[106.9768,29.0361],[106.9844,29.0472],[106.9783,29.0576],[106.9643,29.0546],[106.9449,29.0722],[106.9358,29.0469],[106.9019,29.0568],[106.9053,29.0778],[106.9121,29.0829],[106.9174,29.1062],[106.9003,29.1184],[106.8882,29.1352],[106.881,29.1454],[106.8482,29.16],[106.819,29.1513],[106.8089,29.166],[106.8071,29.1808],[106.7829,29.1797],[106.7724,29.1659],[106.7449,29.1798],[106.7253,29.1654],[106.7081,29.1823],[106.6793,29.1819],[106.6503,29.1634],[106.6505,29.1776],[106.6272,29.1706],[106.6125,29.1506],[106.608,29.1329],[106.5705,29.1311]]]},"properties":{"region_code":"CN-50-500110","parent_region_code":"CN-50","name":"綦江区","level":"county","has_children":false,"full_path":"中国 / 重庆市 / 綦江区","source_admin_code":"500110","osm_relation_id":2693401}},
{"type":"Feature","geometry":{"type":"Polygon","coordinates":[[[105.7741,29.8138],[105.7638,29.7961],[105.7439,29.8042],[105.7199,29.7914],[105.7107,29.7974],[105.7342,29.824],[105.7229,29.8381],[105.7344,29.8479],[105.7297,29.863],[105.7053,29.8433],[105.6742,29.8571],[105.6656,29.8471],[105.6226,29.84],[105.6135,29.8488],[105.6039,29.8328],[105.6053,29.8239],[105.5804,29.8153],[105.5772,29.7932],[105.5835,29.7873],[105.5675,29.7685],[105.5721,29.7477],[105.5604,29.7403],[105.526,29.7095],[105.5169,29.7062],[105.4953,29.7119],[105.4883,29.7232],[105.4754,29.719],[105.4692,29.7022],[105.4795,29.6822],[105.492,29.6746],[105.4926,29.6606],[105.5068,29.6399],[105.5045,29.6175],[105.5171,29.5893],[105.5419,29.592],[105.5454,29.5757],[105.5639,29.5958],[105.5872,29.5938],[105.5973,29.5707],[105.5898,29.5439],[105.579,29.5253],[105.6039,29.5115],[105.6165,29.5084],[105.6177,29.4974],[105.6542,29.4841],[105.6534,29.4696],[105.6653,29.4588],[105.6889,29.451],[105.7104,29.4675],[105.7352,29.4408],[105.7268,29.4343],[105.7379,29.4033],[105.732,29.3876],[105.748,29.3751],[105.7646,29.3831],[105.7684,29.4096],[105.7986,29.4436],[105.7974,29.4484],[105.8173,29.5071],[105.8325,29.5345],[105.8538,29.545],[105.8682,29.5446],[105.8708,29.5577],[105.8868,29.5736],[105.9199,29.5963],[105.9423,29.629],[105.9654,29.647],[105.9799,29.6722],[105.9952,29.6684],[106.0016,29.6836],[106.0322,29.7294],[106.0245,29.7361],[106.0247,29.7516],[105.9994,29.7503],[105.9913,29.7815],[105.9747,29.7862],[105.9419,29.7788],[105.9222,29.7889],[105.9001,29.789],[105.8668,29.7592],[105.8286,29.7594],[105.8182,29.774],[105.8024,29.7736],[105.7981,29.7883],[105.7795,29.8028],[105.7741,29.8138]]]},"properties":{"region_code":"CN-50-500111","parent_region_code":"CN-50","name":"大足区","level":"county","has_children":false,"full_path":"中国 / 重庆市 / 大足区","source_admin_code":"500111","osm_relation_id":2693398}},
{"type":"Feature","geometry":{"type":"Polygon","coordinates":[[[106.9983,29.7161],[106.9944,29.7349],[106.9856,29.741],[106.9893,29.7615],[106.983,29.7734],[106.9706,29.769],[106.9425,29.7325],[106.9358,29.7067],[106.9284,29.6968],[106.9064,29.683],[106.8972,29.6707],[106.8718,29.6235],[106.8458,29.5795],[106.8177,29.5942],[106.7999,29.5916],[106.7877,29.5806],[106.7696,29.5558],[106.7608,29.535],[106.7342,29.4888],[106.713,29.4855],[106.6902,29.4919],[106.6782,29.4782],[106.6848,29.4711],[106.6688,29.4611],[106.6386,29.473],[106.6156,29.4698],[106.607,29.4768],[106.5825,29.4763],[106.5574,29.4916],[106.5479,29.4901],[106.541,29.4768],[106.5201,29.4813],[106.4978,29.4793],[106.4948,29.4482],[106.5294,29.3993],[106.5194,29.3923],[106.5067,29.4006],[106.4827,29.4007],[106.4475,29.3812],[106.4313,29.3564],[106.47,29.359],[106.4704,29.322],[106.4861,29.2918],[106.5012,29.2857],[106.5157,29.2556],[106.5119,29.2363],[106.5172,29.2271],[106.5333,29.2245],[106.5439,29.2156],[106.5378,29.1963],[106.5502,29.179],[106.5558,29.1612],[106.5459,29.1479],[106.5569,29.136],[106.5705,29.1311],[106.608,29.1329],[106.6125,29.1506],[106.6272,29.1706],[106.6505,29.1776],[106.6503,29.1634],[106.6793,29.1819],[106.7081,29.1823],[106.7253,29.1654],[106.7449,29.1798],[106.7724,29.1659],[106.7829,29.1797],[106.8071,29.1808],[106.8089,29.166],[106.819,29.1513],[106.8482,29.16],[106.881,29.1454],[106.8882,29.1352],[106.8946,29.1581],[106.9044,29.1634],[106.9011,29.1811],[106.8912,29.1938],[106.9032,29.2],[106.9167,29.1831],[106.9551,29.194],[106.964,29.2193],[106.9543,29.2307],[106.9503,29.2562],[106.941,29.2574],[106.9297,29.2831],[106.9181,29.2859],[106.9193,29.3151],[106.917,29.3781],[106.9181,29.4045],[106.9298,29.4099],[106.9328,29.4426],[106.931,29.4667],[106.9415,29.4992],[106.9493,29.5364],[106.9495,29.5591],[106.9567,29.5914],[106.9713,29.6278],[106.9711,29.6403],[106.9836,29.6554],[106.9983,29.7161]]]},"properties":{"region_code":"CN-50-500113","parent_region_code":"CN-50","name":"巴南区","level":"county","has_children":false,"full_path":"中国 / 重庆市 / 巴南区","source_admin_code":"500113","osm_relation_id":2693394}},
{"type":"Feature","geometry":{"type":"Polygon","coordinates":[[[108.5023,29.7108],[108.5229,29.701],[108.5215,29.6852],[108.4986,29.6796],[108.4908,29.6617],[108.4825,29.6271],[108.5078,29.6177],[108.5126,29.6051],[108.5308,29.5896],[108.5313,29.5747],[108.5454,29.5607],[108.5326,29.5433],[108.5155,29.5479],[108.5036,29.5426],[108.4902,29.5158],[108.5216,29.4992],[108.5576,29.4943],[108.5813,29.4795],[108.5772,29.4657],[108.5885,29.446],[108.5722,29.4192],[108.5514,29.4119],[108.5435,29.3868],[108.5573,29.3548],[108.5438,29.329],[108.5552,29.3093],[108.5726,29.3012],[108.5807,29.2825],[108.5666,29.2636],[108.5719,29.2549],[108.5652,29.2289],[108.5448,29.2116],[108.5549,29.1847],[108.5702,29.1673],[108.5643,29.1511],[108.554,29.1428],[108.5685,29.1258],[108.5952,29.1095],[108.5834,29.0977],[108.596,29.0895],[108.61,29.099],[108.6179,29.0788],[108.6586,29.092],[108.6631,29.1111],[108.6873,29.1108],[108.6967,29.0975],[108.722,29.0829],[108.742,29.0899],[108.7449,29.1098],[108.7708,29.1143],[108.7809,29.1266],[108.8011,29.1326],[108.8104,29.1242],[108.844,29.108],[108.8501,29.1351],[108.8583,29.1465],[108.8918,29.2117],[108.9107,29.2185],[108.9162,29.2332],[108.9439,29.2693],[108.9007,29.2975],[108.905,29.3162],[108.9159,29.3292],[108.9124,29.3365],[108.9238,29.3535],[108.9222,29.3662],[108.9296,29.3869],[108.9297,29.4018],[108.9395,29.4138],[108.9286,29.4341],[108.8947,29.4445],[108.8779,29.4447],[108.8693,29.4525],[108.8625,29.4735],[108.8676,29.4918],[108.8845,29.5063],[108.8833,29.5332],[108.8735,29.542],[108.8822,29.5557],[108.9076,29.5745],[108.8961,29.5883],[108.8666,29.5989],[108.8812,29.6235],[108.883,29.6345],[108.8712,29.6453],[108.8502,29.6397],[108.845,29.6557],[108.8137,29.6521],[108.8113,29.6339],[108.7955,29.6385],[108.7795,29.6364],[108.794,29.6644],[108.7801,29.678],[108.7848,29.692],[108.7722,29.6973],[108.7499,29.6928],[108.7725,29.6775],[108.7701,29.6612],[108.7517,29.6515],[108.738,29.6553],[108.7366,29.6698],[108.7057,29.6824],[108.7148,29.6939],[108.7088,29.7029],[108.6871,29.6923],[108.6889,29.7066],[108.6764,29.7254],[108.6825,29.7428],[108.6717,29.7547],[108.6782,29.7722],[108.6746,29.7791],[108.6765,29.8042],[108.6666,29.8148],[108.6641,29.8433],[108.6191,29.8702],[108.5986,29.8684],[108.5732,29.8471],[108.5756,29.8341],[108.5518,29.8212],[108.5209,29.7734],[108.5221,29.7623],[108.5357,29.7596],[108.5447,29.7481],[108.5055,29.7292],[108.5114,29.7205],[108.5023,29.7108]]]},"properties":{"region_code":"CN-50-500114","parent_region_code":"CN-50","name":"黔江区","level":"county","has_children":false,"full_path":"中国 / 重庆市 / 黔江区","source_admin_code":"500114","osm_relation_id":2693032}},
{"type":"Feature","geometry":{"type":"Polygon","coordinates":[[[107.4484,30.0024],[107.4523,30.0225],[107.4301,30.0351],[107.3748,29.9801],[107.3443,29.9832],[107.3281,29.9737],[107.3175,29.977],[107.3031,29.9954],[107.3045,30.0396],[107.26,30.0587],[107.254,30.0786],[107.285,30.0985],[107.2795,30.1098],[107.2895,30.1204],[107.2866,30.1338],[107.2645,30.1466],[107.2813,30.1691],[107.2745,30.1843],[107.2478,30.2146],[107.2235,30.2279],[107.1951,30.1939],[107.1796,30.1836],[107.1551,30.1567],[107.1323,30.1378],[107.1272,30.1235],[107.1085,30.1204],[107.1068,30.1033],[107.0783,30.097],[107.0682,30.0832],[107.0807,30.0668],[107.0626,30.0481],[107.037,30.0572],[107.0338,30.0453],[107.0198,30.037],[107.0107,30.0546],[106.9982,30.0559],[106.9799,30.088],[106.9657,30.0847],[106.9525,30.0698],[106.9525,30.0561],[106.9294,30.0412],[106.8994,30.0332],[106.858,30.0321],[106.8622,30.007],[106.8588,29.9953],[106.8644,29.9812],[106.89,29.9872],[106.9034,29.9748],[106.9272,29.9741],[106.928,29.9674],[106.9625,29.9548],[106.9672,29.9412],[106.9795,29.9369],[106.9714,29.9218],[106.943,29.881],[106.9412,29.8549],[106.9325,29.8525],[106.9402,29.8277],[106.9368,29.8062],[106.947,29.7957],[106.9565,29.7728],[106.9706,29.769],[106.983,29.7734],[106.9893,29.7615],[106.9856,29.741],[106.9944,29.7349],[106.9983,29.7161],[107.0214,29.7223],[107.0363,29.7384],[107.0462,29.7418],[107.0663,29.7609],[107.0778,29.7652],[107.0961,29.7584],[107.1091,29.7671],[107.1339,29.7757],[107.1452,29.7866],[107.1812,29.7952],[107.1939,29.8103],[107.2072,29.8165],[107.2036,29.8366],[107.2292,29.848],[107.2545,29.8488],[107.2668,29.8413],[107.2927,29.8417],[107.3204,29.858],[107.3319,29.8755],[107.3345,29.8945],[107.3552,29.8994],[107.3839,29.9216],[107.379,29.93],[107.4082,29.9692],[107.419,29.9718],[107.4318,29.9885],[107.4484,30.0024]]]},"properties":{"region_code":"CN-50-500115","parent_region_code":"CN-50","name":"长寿区","level":"county","has_children":false,"full_path":"中国 / 重庆市 / 长寿区","source_admin_code":"500115","osm_relation_id":2693397}},
{"type":"Feature","geometry":{"type":"Polygon","coordinates":[[[106.3968,29.3431],[106.3903,29.3404],[106.3815,29.3185],[106.3854,29.2909],[106.374,29.2838],[106.3538,29.281],[106.3289,29.2652],[106.3052,29.2583],[106.2915,29.262],[106.2821,29.2834],[106.2842,29.325],[106.2576,29.3368],[106.2809,29.3891],[106.3032,29.3818],[106.3249,29.4003],[106.3255,29.4148],[106.3181,29.4292],[106.2588,29.4533],[106.2442,29.4257],[106.2318,29.3854],[106.2155,29.3504],[106.1905,29.3316],[106.1646,29.3055],[106.1397,29.2985],[106.1118,29.2834],[106.1055,29.2975],[106.0932,29.2918],[106.0802,29.3036],[106.0716,29.3225],[106.0405,29.3281],[106.0332,29.3092],[106.0361,29.2875],[106.0316,29.2573],[106.013,29.2414],[105.9824,29.1923],[105.9718,29.1869],[105.9644,29.1556],[105.9556,29.1506],[105.9282,29.1179],[105.9178,29.1167],[105.9057,29.1006],[105.9051,29.0904],[105.9164,29.0832],[105.9161,29.0568],[105.8963,29.0531],[105.8564,29.0269],[105.8555,28.9904],[105.8477,28.9802],[105.8206,28.963],[105.8275,28.9469],[105.8419,28.934],[105.8548,28.9325],[105.8716,28.9388],[105.8821,28.9336],[105.8825,28.9159],[105.9029,28.9033],[105.9161,28.9339],[105.9429,28.9442],[105.96,28.9671],[105.978,28.9833],[105.9912,28.98],[106.0122,28.9565],[106.0363,28.9589],[106.0429,28.946],[106.0345,28.9381],[106.0332,28.916],[106.0433,28.9093],[106.0683,28.9234],[106.0878,28.9028],[106.1047,28.9018],[106.1287,28.9084],[106.1436,28.9067],[106.171,28.9196],[106.1991,28.9066],[106.2208,28.8862],[106.2306,28.8718],[106.249,28.8685],[106.2601,28.8488],[106.2414,28.8323],[106.2461,28.8222],[106.2431,28.7974],[106.2749,28.7741],[106.267,28.7668],[106.2673,28.745],[106.2795,28.7377],[106.2995,28.7144],[106.3032,28.6617],[106.3026,28.6453],[106.3229,28.642],[106.3218,28.6155],[106.3382,28.5994],[106.3437,28.5869],[106.3309,28.557],[106.3646,28.5281],[106.3749,28.5379],[106.3823,28.5639],[106.3952,28.5748],[106.4062,28.5668],[106.4374,28.5634],[106.4657,28.5373],[106.48,28.5339],[106.4969,28.5375],[106.5022,28.5462],[106.4822,28.5639],[106.4629,28.59],[106.4748,28.6027],[106.4903,28.6038],[106.4909,28.6181],[106.5032,28.6393],[106.5013,28.6657],[106.5129,28.6642],[106.5244,28.6814],[106.5117,28.6919],[106.503,28.719],[106.4944,28.721],[106.4879,28.7459],[106.4598,28.7631],[106.4503,28.7795],[106.4483,28.8198],[106.4634,28.8283],[106.4568,28.8368],[106.4432,28.8402],[106.4341,28.862],[106.4061,28.8972],[106.4048,28.9251],[106.3958,28.9521],[106.4019,28.976],[106.3918,29.0015],[106.3894,29.0237],[106.4011,29.0405],[106.4185,29.0522],[106.4376,29.0454],[106.4518,29.0212],[106.4722,29.0166],[106.4852,29.0502],[106.4801,29.0671],[106.4935,29.0754],[106.5113,29.0625],[106.5227,29.0389],[106.5409,29.0395],[106.5543,29.0134],[106.5671,29.0249],[106.5908,29.0215],[106.5834,29.0444],[106.5856,29.0598],[106.5741,29.0953],[106.578,29.1112],[106.5705,29.1311],[106.5569,29.136],[106.5459,29.1479],[106.5558,29.1612],[106.5502,29.179],[106.5378,29.1963],[106.5439,29.2156],[106.5333,29.2245],[106.5172,29.2271],[106.5119,29.2363],[106.5157,29.2556],[106.5012,29.2857],[106.4861,29.2918],[106.4704,29.322],[106.47,29.359],[106.4313,29.3564],[106.3968,29.3431]]]},"properties":{"region_code":"CN-50-500116","parent_region_code":"CN-50","name":"江津区","level":"county","has_children":false,"full_path":"中国 / 重庆市 / 江津区","source_admin_code":"500116","osm_relation_id":2693400}},
{"type":"Feature","geometry":{"type":"Polygon","coordinates":[[[106.6688,30.1251],[106.6739,30.1604],[106.6354,30.1827],[106.6434,30.1919],[106.6226,30.2015],[106.6222,30.2262],[106.608,30.2308],[106.6274,30.2484],[106.6399,30.2507],[106.6315,30.2679],[106.6082,30.2954],[106.5899,30.295],[106.5824,30.3059],[106.5515,30.3183],[106.5416,30.2989],[106.5171,30.3026],[106.5073,30.2924],[106.4413,30.3092],[106.432,30.3061],[106.4138,30.2809],[106.4161,30.2674],[106.409,30.2469],[106.3992,30.2444],[106.3674,30.2505],[106.345,30.2473],[106.332,30.238],[106.2873,30.2197],[106.2926,30.208],[106.2628,30.1946],[106.2228,30.2135],[106.2099,30.205],[106.1883,30.2195],[106.198,30.2367],[106.1763,30.2351],[106.1683,30.2555],[106.1766,30.2733],[106.1663,30.306],[106.1298,30.3199],[106.1111,30.3203],[106.1017,30.3138],[106.0863,30.3297],[106.0835,30.3489],[106.0677,30.3371],[106.0516,30.3503],[106.0393,30.3532],[106.0276,30.3767],[106.0125,30.3738],[105.9995,30.3791],[105.9909,30.3717],[105.9714,30.3755],[105.9702,30.3638],[105.9849,30.3227],[105.9664,30.3086],[105.9716,30.296],[105.9946,30.2837],[106.0021,30.2743],[105.9987,30.2612],[105.9797,30.224],[105.9902,30.2122],[106.0019,30.2146],[106.016,30.2038],[105.9925,30.178],[105.9739,30.1879],[105.9688,30.1815],[105.9849,30.1655],[105.9744,30.1602],[105.9738,30.1465],[105.9898,30.1352],[105.9949,30.1118],[105.9815,30.1035],[105.9759,30.0799],[105.9773,30.0639],[105.9782,30.0524],[105.9924,30.03],[106.0146,30.0315],[106.0421,30.0178],[106.0416,29.9993],[106.0721,30.0037],[106.1023,30.0045],[106.1162,30.0013],[106.1064,29.9538],[106.1175,29.9399],[106.1561,29.9234],[106.1727,29.9259],[106.1904,29.9347],[106.2124,29.9338],[106.2158,29.9258],[106.2336,29.9219],[106.2466,29.905],[106.2579,29.9028],[106.2702,29.8784],[106.2626,29.8543],[106.2676,29.8473],[106.2858,29.8676],[106.3097,29.8864],[106.377,29.9302],[106.3865,29.9229],[106.39,29.9017],[106.4195,29.8872],[106.4372,29.9048],[106.4417,29.8821],[106.4509,29.868],[106.4641,29.8776],[106.4752,29.9039],[106.4873,29.9134],[106.5007,29.9345],[106.5179,29.9298],[106.5228,29.9494],[106.5416,29.9377],[106.5538,29.9599],[106.5665,29.9931],[106.5715,30.0182],[106.5974,30.0328],[106.5879,30.046],[106.6292,30.0836],[106.6482,30.0838],[106.6688,30.1251]]]},"properties":{"region_code":"CN-50-500117","parent_region_code":"CN-50","name":"合川区","level":"county","has_children":false,"full_path":"中国 / 重庆市 / 合川区","source_admin_code":"500117","osm_relation_id":2693399}},
{"type":"Feature","geometry":{"type":"Polygon","coordinates":[[[105.732,29.3876],[105.6894,29.3604],[105.6723,29.3575],[105.6479,29.3437],[105.6432,29.3239],[105.628,29.3151],[105.6429,29.2883],[105.6617,29.2788],[105.6945,29.2697],[105.7055,29.2416],[105.7086,29.2231],[105.7028,29.2028],[105.7183,29.2004],[105.7051,29.1809],[105.7177,29.1735],[105.7321,29.132],[105.7247,29.1012],[105.7391,29.0908],[105.7413,29.0781],[105.754,29.0721],[105.7395,29.0457],[105.7507,29.0272],[105.7629,29.0169],[105.7583,28.9969],[105.7622,28.9879],[105.784,28.9776],[105.8048,28.9561],[105.7904,28.9414],[105.8275,28.9469],[105.8206,28.963],[105.8477,28.9802],[105.8555,28.9904],[105.8564,29.0269],[105.8963,29.0531],[105.9161,29.0568],[105.9164,29.0832],[105.9051,29.0904],[105.9057,29.1006],[105.9178,29.1167],[105.9282,29.1179],[105.9556,29.1506],[105.9644,29.1556],[105.9718,29.1869],[105.9824,29.1923],[106.013,29.2414],[106.0316,29.2573],[106.0361,29.2875],[106.0332,29.3092],[106.0405,29.3281],[106.0449,29.3566],[106.0625,29.3808],[106.0576,29.3995],[106.0597,29.4206],[106.0669,29.4388],[106.0716,29.4723],[106.0746,29.5145],[106.0852,29.5464],[106.0769,29.5474],[106.0613,29.5344],[106.0387,29.5343],[106.015,29.528],[106.0033,29.5165],[105.9927,29.5299],[105.9923,29.541],[105.9513,29.5474],[105.9337,29.5527],[105.9252,29.5428],[105.907,29.5438],[105.901,29.5512],[105.9015,29.5687],[105.8868,29.5736],[105.8708,29.5577],[105.8682,29.5446],[105.8538,29.545],[105.8325,29.5345],[105.8173,29.5071],[105.7974,29.4484],[105.7986,29.4436],[105.7684,29.4096],[105.7646,29.3831],[105.748,29.3751],[105.732,29.3876]]]},"properties":{"region_code":"CN-50-500118","parent_region_code":"CN-50","name":"永川区","level":"county","has_children":false,"full_path":"中国 / 重庆市 / 永川区","source_admin_code":"500118","osm_relation_id":2693404}},
{"type":"Feature","geometry":{"type":"Polygon","coordinates":[[[106.9415,29.4992],[106.931,29.4667],[106.9328,29.4426],[106.9298,29.4099],[106.9181,29.4045],[106.917,29.3781],[106.9193,29.3151],[106.9181,29.2859],[106.9297,29.2831],[106.941,29.2574],[106.9503,29.2562],[106.9543,29.2307],[106.964,29.2193],[106.9551,29.194],[106.9167,29.1831],[106.9032,29.2],[106.8912,29.1938],[106.9011,29.1811],[106.9044,29.1634],[106.8946,29.1581],[106.8882,29.1352],[106.9003,29.1184],[106.9174,29.1062],[106.9121,29.0829],[106.9053,29.0778],[106.9019,29.0568],[106.9358,29.0469],[106.9449,29.0722],[106.9643,29.0546],[106.9783,29.0576],[106.9844,29.0472],[106.9768,29.0361],[106.9826,29.0276],[107.0088,29.0111],[107.0262,28.9892],[107.0103,28.9722],[107.0104,28.9559],[107.0257,28.9393],[107.0483,28.9433],[107.0417,28.921],[107.0548,28.9008],[107.0599,28.887],[107.0542,28.869],[107.0657,28.8682],[107.0823,28.876],[107.0877,28.8933],[107.1357,28.8907],[107.1392,28.8816],[107.1701,28.8854],[107.1947,28.8656],[107.1892,28.8446],[107.2101,28.8305],[107.2043,28.817],[107.2132,28.7741],[107.2417,28.7636],[107.2463,28.7825],[107.2554,28.7948],[107.2983,28.8085],[107.3229,28.8122],[107.3404,28.8321],[107.3352,28.8481],[107.3552,28.8521],[107.3637,28.8468],[107.394,28.8649],[107.3924,28.8789],[107.4135,28.8972],[107.4105,28.9157],[107.4173,28.9298],[107.4304,28.9378],[107.4352,28.9586],[107.4122,28.9604],[107.4008,28.9749],[107.4011,28.9851],[107.3874,28.9985],[107.367,28.9969],[107.3597,29.0125],[107.3749,29.0311],[107.3906,29.0431],[107.3858,29.063],[107.3738,29.0609],[107.368,29.0966],[107.3848,29.0996],[107.4064,29.0976],[107.4227,29.1323],[107.4038,29.1412],[107.4084,29.1653],[107.4009,29.1886],[107.3962,29.2089],[107.4068,29.2256],[107.3968,29.2571],[107.4033,29.2704],[107.3832,29.2857],[107.3919,29.3263],[107.3846,29.3366],[107.3694,29.3409],[107.3048,29.3467],[107.2694,29.3603],[107.2713,29.3732],[107.2566,29.386],[107.237,29.3811],[107.228,29.3674],[107.21,29.3688],[107.1973,29.4007],[107.1999,29.4126],[107.1799,29.4175],[107.1693,29.4099],[107.1548,29.4256],[107.13,29.4138],[107.1409,29.4055],[107.1047,29.3857],[107.1085,29.3674],[107.0854,29.3624],[107.0402,29.3805],[107.0231,29.3992],[107.031,29.4103],[107.0194,29.4421],[107.0303,29.4544],[107.0299,29.4688],[107.0025,29.4742],[106.9902,29.4851],[106.9415,29.4992]]]},"properties":{"region_code":"CN-50-500119","parent_region_code":"CN-50","name":"南川区","level":"county","has_children":false,"full_path":"中国 / 重庆市 / 南川区","source_admin_code":"500119","osm_relation_id":2693278}},
{"type":"Feature","geometry":{"type":"Polygon","coordinates":[[[106.3009,29.739],[106.3193,29.7762],[106.3328,29.7751],[106.3679,29.8161],[106.3429,29.8149],[106.3258,29.8508],[106.3213,29.8727],[106.3097,29.8864],[106.2858,29.8676],[106.2676,29.8473],[106.2268,29.8052],[106.1897,29.7871],[106.1576,29.7595],[106.1642,29.7507],[106.1591,29.7216],[106.1521,29.7088],[106.1646,29.6906],[106.1213,29.6406],[106.1107,29.6203],[106.1116,29.6084],[106.0991,29.5863],[106.1011,29.5809],[106.0831,29.556],[106.0852,29.5464],[106.0746,29.5145],[106.0716,29.4723],[106.0669,29.4388],[106.0597,29.4206],[106.0576,29.3995],[106.0625,29.3808],[106.0449,29.3566],[106.0405,29.3281],[106.0716,29.3225],[106.0802,29.3036],[106.0932,29.2918],[106.1055,29.2975],[106.1118,29.2834],[106.1397,29.2985],[106.1646,29.3055],[106.1905,29.3316],[106.2155,29.3504],[106.2318,29.3854],[106.2442,29.4257],[106.2588,29.4533],[106.2555,29.4679],[106.2622,29.4829],[106.2572,29.4993],[106.2603,29.5151],[106.2498,29.5207],[106.2492,29.5348],[106.2461,29.5582],[106.2562,29.5956],[106.2787,29.628],[106.2811,29.6446],[106.2739,29.6513],[106.2834,29.6648],[106.2739,29.6865],[106.2756,29.7011],[106.2925,29.7071],[106.3009,29.739]]]},"properties":{"region_code":"CN-50-500120","parent_region_code":"CN-50","name":"璧山区","level":"county","has_children":false,"full_path":"中国 / 重庆市 / 璧山区","source_admin_code":"500120","osm_relation_id":2693396}},
{"type":"Feature","geometry":{"type":"Polygon","coordinates":[[[105.8868,29.5736],[105.9015,29.5687],[105.901,29.5512],[105.907,29.5438],[105.9252,29.5428],[105.9337,29.5527],[105.9513,29.5474],[105.9923,29.541],[105.9927,29.5299],[106.0033,29.5165],[106.015,29.528],[106.0387,29.5343],[106.0613,29.5344],[106.0769,29.5474],[106.0852,29.5464],[106.0831,29.556],[106.1011,29.5809],[106.0991,29.5863],[106.1116,29.6084],[106.1107,29.6203],[106.1213,29.6406],[106.1646,29.6906],[106.1521,29.7088],[106.1591,29.7216],[106.1642,29.7507],[106.1576,29.7595],[106.1897,29.7871],[106.2268,29.8052],[106.2676,29.8473],[106.2626,29.8543],[106.2702,29.8784],[106.2579,29.9028],[106.2466,29.905],[106.2336,29.9219],[106.2158,29.9258],[106.2124,29.9338],[106.1904,29.9347],[106.1727,29.9259],[106.1561,29.9234],[106.1175,29.9399],[106.1064,29.9538],[106.1162,30.0013],[106.1023,30.0045],[106.0721,30.0037],[106.0416,29.9993],[106.0421,30.0178],[106.0146,30.0315],[105.9924,30.03],[105.9782,30.0524],[105.9773,30.0639],[105.97,30.0763],[105.9561,30.0766],[105.9465,30.0634],[105.9263,30.0938],[105.9041,30.0945],[105.8891,30.0712],[105.8975,30.0572],[105.878,30.0524],[105.8662,30.0367],[105.8715,30.0302],[105.8633,30.0142],[105.8924,30.0058],[105.9108,29.9963],[105.903,29.9748],[105.9072,29.9652],[105.937,29.9477],[105.932,29.9339],[105.9427,29.9154],[105.944,29.8972],[105.9303,29.8933],[105.9239,29.8716],[105.9056,29.8705],[105.9049,29.8806],[105.88,29.894],[105.8604,29.8928],[105.8413,29.897],[105.8337,29.8821],[105.8196,29.8842],[105.8141,29.8571],[105.8019,29.8335],[105.7868,29.8286],[105.7741,29.8138],[105.7795,29.8028],[105.7981,29.7883],[105.8024,29.7736],[105.8182,29.774],[105.8286,29.7594],[105.8668,29.7592],[105.9001,29.789],[105.9222,29.7889],[105.9419,29.7788],[105.9747,29.7862],[105.9913,29.7815],[105.9994,29.7503],[106.0247,29.7516],[106.0245,29.7361],[106.0322,29.7294],[106.0016,29.6836],[105.9952,29.6684],[105.9799,29.6722],[105.9654,29.647],[105.9423,29.629],[105.9199,29.5963],[105.8868,29.5736]]]},"properties":{"region_code":"CN-50-500151","parent_region_code":"CN-50","name":"铜梁区","level":"county","has_children":false,"full_path":"中国 / 重庆市 / 铜梁区","source_admin_code":"500151","osm_relation_id":2693403}},
{"type":"Feature","geometry":{"type":"Polygon","coordinates":[[[105.7741,29.8138],[105.7868,29.8286],[105.8019,29.8335],[105.8141,29.8571],[105.8196,29.8842],[105.8337,29.8821],[105.8413,29.897],[105.8604,29.8928],[105.88,29.894],[105.9049,29.8806],[105.9056,29.8705],[105.9239,29.8716],[105.9303,29.8933],[105.944,29.8972],[105.9427,29.9154],[105.932,29.9339],[105.937,29.9477],[105.9072,29.9652],[105.903,29.9748],[105.9108,29.9963],[105.8924,30.0058],[105.8633,30.0142],[105.8715,30.0302],[105.8662,30.0367],[105.878,30.0524],[105.8975,30.0572],[105.8891,30.0712],[105.9041,30.0945],[105.9263,30.0938],[105.9465,30.0634],[105.9561,30.0766],[105.97,30.0763],[105.9773,30.0639],[105.9759,30.0799],[105.9815,30.1035],[105.9949,30.1118],[105.9898,30.1352],[105.9738,30.1465],[105.9744,30.1602],[105.9849,30.1655],[105.9688,30.1815],[105.9739,30.1879],[105.9925,30.178],[106.016,30.2038],[106.0019,30.2146],[105.9902,30.2122],[105.9797,30.224],[105.9987,30.2612],[106.0021,30.2743],[105.9946,30.2837],[105.9716,30.296],[105.9664,30.3086],[105.9849,30.3227],[105.9702,30.3638],[105.9714,30.3755],[105.9624,30.3816],[105.9373,30.3751],[105.9135,30.3988],[105.898,30.3892],[105.8959,30.4084],[105.8742,30.4002],[105.859,30.4099],[105.8479,30.3976],[105.8343,30.4066],[105.8271,30.4351],[105.8139,30.4393],[105.7965,30.4301],[105.7829,30.4069],[105.7662,30.4066],[105.7603,30.3907],[105.7655,30.3786],[105.7472,30.3607],[105.7505,30.3448],[105.7305,30.3391],[105.7389,30.323],[105.7115,30.326],[105.7083,30.319],[105.7081,30.2862],[105.7306,30.2744],[105.714,30.2548],[105.698,30.2606],[105.6673,30.2568],[105.6418,30.2761],[105.6202,30.2769],[105.6154,30.2381],[105.6328,30.2223],[105.6506,30.2245],[105.659,30.213],[105.6403,30.2064],[105.642,30.1959],[105.6295,30.1866],[105.6144,30.189],[105.6043,30.1812],[105.5865,30.1855],[105.5781,30.1762],[105.5584,30.1866],[105.533,30.1678],[105.5327,30.1555],[105.5526,30.1467],[105.5672,30.1644],[105.5935,30.1605],[105.5898,30.1474],[105.5676,30.1397],[105.5937,30.1118],[105.6243,30.1082],[105.6334,30.0962],[105.638,30.0759],[105.6604,30.0695],[105.6829,30.0474],[105.7024,30.0382],[105.7147,30.0447],[105.7249,30.0296],[105.7378,30.036],[105.7481,30.0248],[105.7435,30.005],[105.7287,30.0016],[105.72,29.9773],[105.7276,29.9593],[105.7143,29.9464],[105.7163,29.9388],[105.7011,29.9255],[105.7114,29.914],[105.7078,29.9023],[105.7288,29.8897],[105.7297,29.863],[105.7344,29.8479],[105.7229,29.8381],[105.7342,29.824],[105.7107,29.7974],[105.7199,29.7914],[105.7439,29.8042],[105.7638,29.7961],[105.7741,29.8138]]]},"properties":{"region_code":"CN-50-500152","parent_region_code":"CN-50","name":"潼南区","level":"county","has_children":false,"full_path":"中国 / 重庆市 / 潼南区","source_admin_code":"500152","osm_relation_id":2194821}},
{"type":"Feature","geometry":{"type":"Polygon","coordinates":[[[105.4795,29.6822],[105.4728,29.6775],[105.4333,29.6797],[105.4166,29.6905],[105.397,29.6742],[105.382,29.6668],[105.3897,29.6535],[105.3733,29.645],[105.3773,29.6309],[105.3648,29.6244],[105.3442,29.6241],[105.3257,29.6077],[105.3074,29.598],[105.3135,29.5798],[105.2931,29.5728],[105.2868,29.5556],[105.298,29.5358],[105.3165,29.515],[105.3206,29.4979],[105.3183,29.4785],[105.3286,29.4745],[105.3341,29.4601],[105.3312,29.4443],[105.3591,29.4482],[105.36,29.4609],[105.3731,29.4609],[105.3912,29.4509],[105.3955,29.442],[105.3754,29.4318],[105.4043,29.4226],[105.4241,29.4215],[105.4403,29.4019],[105.44,29.3889],[105.4293,29.3822],[105.4342,29.3684],[105.4143,29.3545],[105.4193,29.3294],[105.4165,29.3172],[105.45,29.3249],[105.4641,29.3217],[105.4621,29.2954],[105.472,29.282],[105.485,29.2811],[105.5029,29.2882],[105.5073,29.2731],[105.5183,29.2682],[105.5547,29.2799],[105.5747,29.2743],[105.6078,29.2728],[105.625,29.2788],[105.6441,29.2563],[105.6658,29.2569],[105.6617,29.2788],[105.6429,29.2883],[105.628,29.3151],[105.6432,29.3239],[105.6479,29.3437],[105.6723,29.3575],[105.6894,29.3604],[105.732,29.3876],[105.7379,29.4033],[105.7268,29.4343],[105.7352,29.4408],[105.7104,29.4675],[105.6889,29.451],[105.6653,29.4588],[105.6534,29.4696],[105.6542,29.4841],[105.6177,29.4974],[105.6165,29.5084],[105.6039,29.5115],[105.579,29.5253],[105.5898,29.5439],[105.5973,29.5707],[105.5872,29.5938],[105.5639,29.5958],[105.5454,29.5757],[105.5419,29.592],[105.5171,29.5893],[105.5045,29.6175],[105.5068,29.6399],[105.4926,29.6606],[105.492,29.6746],[105.4795,29.6822]]]},"properties":{"region_code":"CN-50-500153","parent_region_code":"CN-50","name":"荣昌区","level":"county","has_children":false,"full_path":"中国 / 重庆市 / 荣昌区","source_admin_code":"500153","osm_relation_id":2693402}},
{"type":"Feature","geometry":{"type":"Polygon","coordinates":[[[108.4099,31.0009],[108.4155,31.0108],[108.4301,31.0169],[108.4465,31.0162],[108.4699,31.0248],[108.4756,31.0373],[108.4695,31.0584],[108.4735,31.0653],[108.5027,31.0799],[108.5536,31.0945],[108.5524,31.1123],[108.5615,31.117],[108.5634,31.1424],[108.59,31.1596],[108.5959,31.1672],[108.5774,31.1771],[108.5752,31.1856],[108.5847,31.1999],[108.5864,31.2208],[108.5994,31.2444],[108.6385,31.2754],[108.6312,31.2898],[108.6509,31.3039],[108.6296,31.334],[108.6459,31.3449],[108.6908,31.3486],[108.699,31.3736],[108.6874,31.3813],[108.7037,31.3984],[108.7214,31.3952],[108.7234,31.4101],[108.7445,31.4242],[108.7562,31.4412],[108.735,31.4442],[108.7318,31.4524],[108.6969,31.4698],[108.6952,31.5021],[108.7295,31.5002],[108.7522,31.5125],[108.7692,31.5445],[108.7874,31.5535],[108.798,31.5785],[108.8527,31.5895],[108.8706,31.6079],[108.8988,31.6137],[108.9122,31.6206],[108.9366,31.6425],[108.9424,31.6627],[108.8989,31.6616],[108.8768,31.6652],[108.8497,31.6889],[108.7724,31.6869],[108.7583,31.6769],[108.7477,31.6519],[108.715,31.637],[108.6938,31.6434],[108.6877,31.6332],[108.6523,31.625],[108.6372,31.6289],[108.6282,31.6513],[108.5962,31.6582],[108.5587,31.682],[108.5388,31.6768],[108.5153,31.6683],[108.4884,31.6442],[108.4692,31.6422],[108.4525,31.632],[108.4264,31.6305],[108.4138,31.6128],[108.3959,31.6046],[108.3844,31.5916],[108.3889,31.5797],[108.3851,31.5479],[108.3751,31.5435],[108.3459,31.5505],[108.3347,31.5408],[108.3448,31.52],[108.3192,31.504],[108.3089,31.5096],[108.2911,31.5049],[108.2559,31.5056],[108.2466,31.5005],[108.232,31.5096],[108.2058,31.4952],[108.188,31.4946],[108.1896,31.4699],[108.208,31.4713],[108.2207,31.4661],[108.2218,31.4543],[108.2065,31.4411],[108.2129,31.4319],[108.2124,31.4135],[108.1981,31.3975],[108.1747,31.3943],[108.1698,31.3835],[108.1499,31.3757],[108.1546,31.3627],[108.1759,31.3544],[108.1819,31.3402],[108.1776,31.3287],[108.1591,31.323],[108.1577,31.3151],[108.0893,31.2762],[108.0894,31.2684],[108.0605,31.2632],[108.0173,31.2473],[108.0278,31.2396],[108.0275,31.2194],[108.0586,31.2284],[108.0766,31.2218],[108.0855,31.201],[108.0688,31.1744],[108.0305,31.1386],[108.024,31.1203],[108.0065,31.1131],[108.0183,31.0956],[108.0222,31.0634],[108.0429,31.0642],[108.0556,31.0541],[108.0495,31.0433],[108.0199,31.0352],[108.0003,31.0264],[107.9812,30.9866],[107.968,30.985],[107.9389,30.992],[107.9328,30.9554],[107.9405,30.9268],[107.9651,30.9144],[107.9913,30.9113],[108,30.9192],[108.0312,30.8782],[108.0655,30.895],[108.0831,30.8974],[108.0986,30.8805],[108.0854,30.868],[108.0964,30.8421],[108.1289,30.8406],[108.1394,30.8325],[108.1621,30.8246],[108.1767,30.828],[108.2142,30.8551],[108.2274,30.8805],[108.2406,30.8924],[108.258,30.8798],[108.3088,30.9128],[108.3362,30.9235],[108.3427,30.9387],[108.333,30.9749],[108.3446,30.9681],[108.3776,30.9766],[108.3823,30.9908],[108.4099,31.0009]]]},"properties":{"region_code":"CN-50-500154","parent_region_code":"CN-50","name":"开州区","level":"county","has_children":false,"full_path":"中国 / 重庆市 / 开州区","source_admin_code":"500154","osm_relation_id":2692015}},
{"type":"Feature","geometry":{"type":"Polygon","coordinates":[[[107.8669,30.811],[107.8447,30.7943],[107.807,30.8074],[107.779,30.8214],[107.7603,30.8186],[107.7528,30.8573],[107.7381,30.8849],[107.7117,30.8924],[107.6991,30.8736],[107.6825,30.8716],[107.6547,30.8379],[107.6396,30.815],[107.6121,30.8308],[107.6116,30.8415],[107.5718,30.8514],[107.5211,30.8461],[107.5126,30.8584],[107.4796,30.8401],[107.4903,30.8236],[107.4893,30.8064],[107.4721,30.8011],[107.4353,30.7631],[107.4347,30.7493],[107.4199,30.7448],[107.4318,30.724],[107.4484,30.7086],[107.4723,30.6669],[107.4848,30.6663],[107.5127,30.6503],[107.489,30.6225],[107.4811,30.6003],[107.4234,30.5513],[107.439,30.5363],[107.4161,30.5188],[107.4034,30.5242],[107.406,30.5136],[107.4207,30.5081],[107.4389,30.492],[107.4586,30.4813],[107.4888,30.4942],[107.5209,30.4934],[107.5379,30.5007],[107.5825,30.4766],[107.6263,30.478],[107.6391,30.4825],[107.6622,30.4772],[107.6658,30.4661],[107.6486,30.4453],[107.6515,30.4316],[107.6814,30.4506],[107.6986,30.4673],[107.7155,30.498],[107.7385,30.5137],[107.7756,30.5073],[107.8051,30.4834],[107.8146,30.4995],[107.8122,30.5259],[107.816,30.5585],[107.8239,30.5639],[107.8535,30.5668],[107.8637,30.5567],[107.8788,30.5553],[107.8773,30.5342],[107.8815,30.5137],[107.8938,30.5056],[107.9352,30.4887],[107.9487,30.516],[107.9472,30.5243],[107.959,30.5375],[107.9763,30.5335],[107.9974,30.5426],[108.0257,30.566],[108.029,30.5791],[108.0228,30.602],[108.0114,30.6276],[108.0327,30.6645],[108.0598,30.6641],[108.0719,30.6793],[108.0725,30.7215],[108.0636,30.7256],[108.0355,30.7228],[108.0127,30.7154],[107.9941,30.7148],[107.9643,30.7217],[107.9462,30.7329],[107.9014,30.766],[107.8669,30.811]]]},"properties":{"region_code":"CN-50-500155","parent_region_code":"CN-50","name":"梁平区","level":"county","has_children":false,"full_path":"中国 / 重庆市 / 梁平区","source_admin_code":"500155","osm_relation_id":2692016}},
{"type":"Feature","geometry":{"type":"Polygon","coordinates":[[[107.237,29.3811],[107.2566,29.386],[107.2713,29.3732],[107.2694,29.3603],[107.3048,29.3467],[107.3694,29.3409],[107.3846,29.3366],[107.3919,29.3263],[107.3832,29.2857],[107.4033,29.2704],[107.3968,29.2571],[107.4068,29.2256],[107.3962,29.2089],[107.4009,29.1886],[107.4228,29.1933],[107.4359,29.2062],[107.4595,29.1983],[107.4578,29.1799],[107.4673,29.1738],[107.4918,29.1808],[107.51,29.1967],[107.5273,29.1961],[107.5454,29.2096],[107.5553,29.2244],[107.5669,29.2197],[107.5724,29.1886],[107.5852,29.1539],[107.5979,29.1519],[107.6038,29.1695],[107.6246,29.1695],[107.6383,29.1637],[107.6559,29.1665],[107.6581,29.1513],[107.6951,29.145],[107.7022,29.1574],[107.7132,29.1582],[107.7279,29.1868],[107.749,29.2016],[107.7567,29.18],[107.7901,29.1495],[107.8069,29.1435],[107.7956,29.1066],[107.786,29.0862],[107.7815,29.0503],[107.8194,29.0373],[107.8452,29.0426],[107.8703,29.0603],[107.8665,29.0731],[107.8849,29.0895],[107.8789,29.1088],[107.8916,29.1232],[107.8888,29.1515],[107.8979,29.1769],[107.8924,29.1886],[107.9114,29.1933],[107.9371,29.1805],[107.9487,29.1862],[107.982,29.22],[107.9906,29.2385],[108.006,29.247],[107.9911,29.2669],[107.9931,29.3036],[108.0025,29.3179],[107.9794,29.3351],[107.9777,29.3587],[107.9712,29.3644],[107.9874,29.3907],[107.9849,29.4197],[108.0088,29.4516],[108.0088,29.4727],[108.0144,29.4981],[108.0121,29.5059],[108.0515,29.5342],[108.0683,29.5506],[108.0718,29.5608],[108.0595,29.5771],[108.0721,29.581],[108.0811,29.5923],[108.0616,29.6153],[108.0385,29.6274],[108.0209,29.6224],[108.0006,29.634],[107.9776,29.632],[107.9476,29.6056],[107.9423,29.613],[107.9376,29.6448],[107.9319,29.6574],[107.9071,29.6647],[107.8936,29.664],[107.8548,29.671],[107.8418,29.6604],[107.843,29.6411],[107.835,29.608],[107.8278,29.5972],[107.8333,29.5774],[107.8305,29.5629],[107.8013,29.5564],[107.7915,29.5723],[107.7758,29.5752],[107.7649,29.5985],[107.7504,29.6065],[107.7309,29.5879],[107.7128,29.5965],[107.7042,29.6145],[107.6959,29.6132],[107.6518,29.5668],[107.652,29.5541],[107.6373,29.5533],[107.6039,29.5263],[107.6121,29.5141],[107.6121,29.4839],[107.5863,29.4802],[107.5716,29.4636],[107.5472,29.4518],[107.5423,29.4357],[107.5291,29.4253],[107.5104,29.462],[107.4764,29.4968],[107.471,29.5096],[107.4583,29.5058],[107.4448,29.4918],[107.4267,29.4859],[107.4214,29.5108],[107.4064,29.5178],[107.386,29.5341],[107.3739,29.5245],[107.3489,29.5169],[107.3288,29.5149],[107.3089,29.4881],[107.3035,29.4711],[107.2895,29.4552],[107.2446,29.4264],[107.2297,29.4241],[107.2223,29.409],[107.2339,29.3977],[107.237,29.3811]]]},"properties":{"region_code":"CN-50-500156","parent_region_code":"CN-50","name":"武隆区","level":"county","has_children":false,"full_path":"中国 / 重庆市 / 武隆区","source_admin_code":"500156","osm_relation_id":2693279}},
{"type":"Feature","geometry":{"type":"Polygon","coordinates":[[[108.9424,31.6627],[108.9883,31.6619],[109.0009,31.667],[108.9988,31.6814],[109.0068,31.6936],[109.0202,31.6992],[109.0648,31.7089],[109.0938,31.705],[109.1312,31.7191],[109.1513,31.7019],[109.1621,31.6978],[109.1983,31.7026],[109.2185,31.7105],[109.2225,31.7265],[109.2427,31.7256],[109.2567,31.7192],[109.2779,31.7186],[109.2792,31.7432],[109.2677,31.7579],[109.2501,31.761],[109.2585,31.7751],[109.2716,31.7775],[109.2712,31.8024],[109.2287,31.811],[109.2113,31.8191],[109.1917,31.8189],[109.1868,31.8275],[109.1956,31.8447],[109.1868,31.8572],[109.1592,31.8795],[109.12,31.8945],[109.1044,31.9121],[109.0904,31.9198],[109.0771,31.9346],[109.0555,31.9438],[109.0302,31.9597],[108.9997,31.9726],[108.9857,31.9831],[108.9601,31.9846],[108.9498,31.9808],[108.9342,31.9914],[108.9035,31.9915],[108.8961,31.9876],[108.8728,31.9965],[108.8474,32.0259],[108.8456,32.0395],[108.8082,32.0476],[108.7829,32.0498],[108.7635,32.0668],[108.7472,32.0755],[108.7457,32.0997],[108.7297,32.1088],[108.6686,32.1048],[108.6504,32.1184],[108.6479,32.1269],[108.6006,32.1579],[108.5912,32.1591],[108.5814,32.1734],[108.5379,32.1801],[108.531,32.1881],[108.5043,32.2037],[108.4873,32.1961],[108.4752,32.1833],[108.453,32.1826],[108.4388,32.191],[108.4172,32.1914],[108.4019,32.1981],[108.3751,32.1781],[108.3777,32.1658],[108.3903,32.1491],[108.3998,32.146],[108.4174,32.1246],[108.4344,32.097],[108.4461,32.0941],[108.4436,32.0743],[108.4253,32.0622],[108.3909,32.0704],[108.371,32.0795],[108.3527,32.0714],[108.3495,32.0587],[108.3605,32.0384],[108.3486,32.0302],[108.3369,32.0324],[108.3237,32.0205],[108.3419,32.005],[108.3662,31.9907],[108.3492,31.977],[108.3207,31.9873],[108.3033,31.9993],[108.2921,31.99],[108.2636,31.987],[108.2556,31.9683],[108.2777,31.956],[108.2828,31.9393],[108.2783,31.9191],[108.3038,31.9082],[108.3385,31.8647],[108.3558,31.8557],[108.38,31.8496],[108.3914,31.8268],[108.4223,31.812],[108.4561,31.8134],[108.4607,31.8081],[108.4466,31.7888],[108.4838,31.7777],[108.5118,31.7633],[108.5305,31.7592],[108.503,31.7376],[108.5156,31.7285],[108.5219,31.7031],[108.5109,31.6984],[108.5272,31.6805],[108.5388,31.6768],[108.5587,31.682],[108.5962,31.6582],[108.6282,31.6513],[108.6372,31.6289],[108.6523,31.625],[108.6877,31.6332],[108.6938,31.6434],[108.715,31.637],[108.7477,31.6519],[108.7583,31.6769],[108.7724,31.6869],[108.8497,31.6889],[108.8768,31.6652],[108.8989,31.6616],[108.9424,31.6627]]]},"properties":{"region_code":"CN-50-500229","parent_region_code":"CN-50","name":"城口县","level":"county","has_children":false,"full_path":"中国 / 重庆市 / 城口县","source_admin_code":"500229","osm_relation_id":2089846}},
{"type":"Feature","geometry":{"type":"Polygon","coordinates":[[[107.6959,29.6132],[107.7042,29.6145],[107.7128,29.5965],[107.7309,29.5879],[107.7504,29.6065],[107.7649,29.5985],[107.7758,29.5752],[107.7915,29.5723],[107.8013,29.5564],[107.8305,29.5629],[107.8333,29.5774],[107.8278,29.5972],[107.835,29.608],[107.843,29.6411],[107.8418,29.6604],[107.8548,29.671],[107.8936,29.664],[107.9071,29.6647],[107.9319,29.6574],[107.9376,29.6448],[107.9423,29.613],[107.9476,29.6056],[107.9776,29.632],[108.0006,29.634],[108.0209,29.6224],[108.0385,29.6274],[108.0616,29.6153],[108.0735,29.6212],[108.0876,29.6033],[108.1133,29.6022],[108.1265,29.6078],[108.1438,29.6031],[108.1601,29.6066],[108.1616,29.6197],[108.1775,29.6277],[108.1729,29.6516],[108.1611,29.6546],[108.1506,29.6468],[108.1386,29.6646],[108.1523,29.6822],[108.1702,29.6878],[108.173,29.697],[108.1644,29.7164],[108.1708,29.7355],[108.1646,29.7488],[108.1898,29.7557],[108.2128,29.7803],[108.1926,29.7892],[108.1814,29.8056],[108.189,29.8153],[108.1748,29.8243],[108.1659,29.8435],[108.1452,29.8323],[108.1423,29.8475],[108.126,29.8546],[108.0847,29.8411],[108.0563,29.8567],[108.0699,29.8745],[108.0616,29.8852],[108.0427,29.8949],[108.0332,29.905],[108.0197,29.9419],[107.9872,29.9637],[107.9871,29.9747],[108,29.9849],[108.0088,29.9766],[108.0285,29.9922],[108.0257,30.0045],[108.0148,30.0148],[108.0222,30.0333],[108.0042,30.0589],[107.9972,30.051],[107.9593,30.0541],[107.9313,30.0672],[107.8969,30.108],[107.8677,30.1044],[107.8402,30.1216],[107.812,30.1177],[107.8106,30.1341],[107.8312,30.1643],[107.8187,30.1799],[107.7639,30.203],[107.7585,30.2073],[107.7523,30.2357],[107.7142,30.2305],[107.6895,30.2391],[107.6669,30.238],[107.6675,30.2643],[107.6531,30.2609],[107.6441,30.2279],[107.6177,30.2056],[107.6022,30.201],[107.5961,30.1881],[107.5632,30.166],[107.561,30.1571],[107.57,30.1378],[107.5505,30.1007],[107.5337,30.0919],[107.5092,30.0456],[107.488,30.0164],[107.4788,29.9955],[107.4683,29.9922],[107.4843,29.9714],[107.4999,29.9602],[107.5106,29.9622],[107.5153,29.9766],[107.5287,29.9674],[107.5587,29.9587],[107.5745,29.9582],[107.5734,29.9319],[107.5798,29.9202],[107.593,29.9144],[107.5946,29.8923],[107.6119,29.8687],[107.5998,29.8557],[107.5999,29.8106],[107.6178,29.8049],[107.6353,29.8131],[107.632,29.7779],[107.6357,29.7729],[107.6225,29.7543],[107.6327,29.7445],[107.6278,29.7212],[107.628,29.6992],[107.6412,29.6902],[107.655,29.6887],[107.6913,29.6632],[107.7144,29.6581],[107.6972,29.6277],[107.6959,29.6132]]]},"properties":{"region_code":"CN-50-500230","parent_region_code":"CN-50","name":"丰都县","level":"county","has_children":false,"full_path":"中国 / 重庆市 / 丰都县","source_admin_code":"500230","osm_relation_id":2693276}},
{"type":"Feature","geometry":{"type":"Polygon","coordinates":[[[107.4683,29.9922],[107.4788,29.9955],[107.488,30.0164],[107.5092,30.0456],[107.5337,30.0919],[107.5505,30.1007],[107.57,30.1378],[107.561,30.1571],[107.5632,30.166],[107.5961,30.1881],[107.6022,30.201],[107.579,30.2029],[107.5671,30.211],[107.5442,30.2069],[107.5478,30.2373],[107.5654,30.2457],[107.5661,30.27],[107.5915,30.2814],[107.5984,30.2956],[107.5882,30.3127],[107.5662,30.3246],[107.5728,30.3425],[107.6041,30.3757],[107.6288,30.397],[107.6515,30.4316],[107.6486,30.4453],[107.6658,30.4661],[107.6622,30.4772],[107.6391,30.4825],[107.6263,30.478],[107.5825,30.4766],[107.5379,30.5007],[107.5209,30.4934],[107.4888,30.4942],[107.4586,30.4813],[107.4389,30.492],[107.4207,30.5081],[107.406,30.5136],[107.4034,30.5242],[107.3835,30.4943],[107.3637,30.4709],[107.3406,30.4276],[107.3343,30.3897],[107.3154,30.3671],[107.3004,30.3573],[107.2828,30.3372],[107.2732,30.3145],[107.2546,30.2851],[107.2561,30.276],[107.2377,30.2443],[107.2235,30.2279],[107.2478,30.2146],[107.2745,30.1843],[107.2813,30.1691],[107.2645,30.1466],[107.2866,30.1338],[107.2895,30.1204],[107.2795,30.1098],[107.285,30.0985],[107.254,30.0786],[107.26,30.0587],[107.3045,30.0396],[107.3031,29.9954],[107.3175,29.977],[107.3281,29.9737],[107.3443,29.9832],[107.3748,29.9801],[107.4301,30.0351],[107.4523,30.0225],[107.4484,30.0024],[107.4683,29.9922]]]},"properties":{"region_code":"CN-50-500231","parent_region_code":"CN-50","name":"垫江县","level":"county","has_children":false,"full_path":"中国 / 重庆市 / 垫江县","source_admin_code":"500231","osm_relation_id":2693275}},
{"type":"Feature","geometry":{"type":"Polygon","coordinates":[[[108.029,30.5791],[108.0257,30.566],[107.9974,30.5426],[107.9763,30.5335],[107.959,30.5375],[107.9472,30.5243],[107.9487,30.516],[107.9352,30.4887],[107.8938,30.5056],[107.8815,30.5137],[107.8773,30.5342],[107.8788,30.5553],[107.8637,30.5567],[107.8535,30.5668],[107.8239,30.5639],[107.816,30.5585],[107.8122,30.5259],[107.8146,30.4995],[107.8051,30.4834],[107.7756,30.5073],[107.7385,30.5137],[107.7155,30.498],[107.6986,30.4673],[107.6814,30.4506],[107.6515,30.4316],[107.6288,30.397],[107.6041,30.3757],[107.5728,30.3425],[107.5662,30.3246],[107.5882,30.3127],[107.5984,30.2956],[107.5915,30.2814],[107.5661,30.27],[107.5654,30.2457],[107.5478,30.2373],[107.5442,30.2069],[107.5671,30.211],[107.579,30.2029],[107.6022,30.201],[107.6177,30.2056],[107.6441,30.2279],[107.6531,30.2609],[107.6675,30.2643],[107.6669,30.238],[107.6895,30.2391],[107.7142,30.2305],[107.7523,30.2357],[107.7585,30.2073],[107.7639,30.203],[107.8187,30.1799],[107.8312,30.1643],[107.8106,30.1341],[107.812,30.1177],[107.8402,30.1216],[107.8677,30.1044],[107.8969,30.108],[107.9313,30.0672],[107.9593,30.0541],[107.9972,30.051],[108.0042,30.0589],[108.0171,30.0822],[108.0436,30.0738],[108.0554,30.0817],[108.0779,30.1076],[108.0866,30.1274],[108.0784,30.1496],[108.0558,30.1636],[108.0838,30.1868],[108.0965,30.2087],[108.1288,30.206],[108.118,30.2265],[108.1035,30.2237],[108.0919,30.2421],[108.1256,30.2606],[108.1363,30.2696],[108.1265,30.3006],[108.145,30.3042],[108.1597,30.3224],[108.1569,30.3372],[108.1285,30.3337],[108.1094,30.3356],[108.0882,30.3432],[108.0893,30.3593],[108.1193,30.3621],[108.1322,30.3674],[108.1442,30.3935],[108.1535,30.405],[108.1803,30.4162],[108.2065,30.4119],[108.2163,30.4205],[108.2151,30.4339],[108.2289,30.4576],[108.2056,30.5053],[108.1939,30.5098],[108.17,30.5357],[108.1565,30.5317],[108.142,30.5435],[108.1429,30.5623],[108.1345,30.5735],[108.1083,30.5861],[108.0677,30.5853],[108.029,30.5791]]]},"properties":{"region_code":"CN-50-500233","parent_region_code":"CN-50","name":"忠县","level":"county","has_children":false,"full_path":"中国 / 重庆市 / 忠县","source_admin_code":"500233","osm_relation_id":2692021}},
{"type":"Feature","geometry":{"type":"Polygon","coordinates":[[[108.8986,30.5771],[108.9169,30.5929],[108.9399,30.6045],[108.9625,30.6269],[108.9825,30.6249],[109.0011,30.6292],[109.0182,30.6449],[109.0113,30.6511],[109.0201,30.6662],[109.0155,30.7012],[109.0158,30.7228],[109.0417,30.7325],[109.0434,30.7478],[109.0559,30.7664],[109.0443,30.7791],[109.0386,30.8335],[109.0471,30.8413],[109.0491,30.8622],[109.0758,30.8713],[109.0802,30.861],[109.1112,30.8631],[109.1322,30.8682],[109.1454,30.8798],[109.1386,30.9016],[109.1547,30.9218],[109.1447,30.941],[109.1679,30.9429],[109.1911,30.9388],[109.2112,30.9241],[109.2146,30.9413],[109.2111,30.9834],[109.2292,31.0042],[109.2451,31.0315],[109.2362,31.0471],[109.1976,31.0508],[109.186,31.069],[109.1774,31.072],[109.1453,31.0663],[109.1279,31.0561],[109.0981,31.0623],[109.0907,31.0723],[109.0935,31.1237],[109.0483,31.1338],[109.0548,31.1481],[109.0465,31.1596],[109.0432,31.1834],[109.0572,31.184],[109.0867,31.1931],[109.0843,31.2277],[109.0668,31.2547],[109.0636,31.2751],[109.0388,31.286],[109.035,31.2998],[109.0445,31.3265],[109.0481,31.3688],[109.0293,31.3711],[108.9765,31.3886],[108.9513,31.385],[108.9238,31.3881],[108.8842,31.3861],[108.8905,31.346],[108.8811,31.3385],[108.863,31.347],[108.8326,31.3493],[108.82,31.36],[108.8229,31.3818],[108.8127,31.3924],[108.7914,31.4022],[108.8068,31.4216],[108.7761,31.4381],[108.7562,31.4412],[108.7445,31.4242],[108.7234,31.4101],[108.7214,31.3952],[108.7037,31.3984],[108.6874,31.3813],[108.699,31.3736],[108.6908,31.3486],[108.6459,31.3449],[108.6296,31.334],[108.6509,31.3039],[108.6312,31.2898],[108.6385,31.2754],[108.5994,31.2444],[108.5864,31.2208],[108.5847,31.1999],[108.5752,31.1856],[108.5774,31.1771],[108.5959,31.1672],[108.59,31.1596],[108.5634,31.1424],[108.5615,31.117],[108.5524,31.1123],[108.5536,31.0945],[108.5027,31.0799],[108.4735,31.0653],[108.4695,31.0584],[108.4756,31.0373],[108.4699,31.0248],[108.4465,31.0162],[108.4301,31.0169],[108.4155,31.0108],[108.4099,31.0009],[108.4491,31.0039],[108.4509,30.9688],[108.4828,30.9812],[108.5014,30.9792],[108.4995,30.9952],[108.5312,30.9997],[108.5233,30.9684],[108.5427,30.9455],[108.5415,30.9367],[108.5511,30.9149],[108.5764,30.9174],[108.5896,30.9234],[108.606,30.9431],[108.6194,30.9286],[108.6196,30.8946],[108.6488,30.8945],[108.6626,30.8709],[108.666,30.8561],[108.6768,30.8535],[108.6808,30.8382],[108.6913,30.8305],[108.6961,30.8132],[108.7271,30.8184],[108.7353,30.808],[108.7356,30.7786],[108.7438,30.7524],[108.7578,30.7322],[108.7594,30.7149],[108.7816,30.7173],[108.7892,30.7087],[108.7744,30.698],[108.7768,30.6857],[108.8165,30.6964],[108.8265,30.6823],[108.8707,30.6938],[108.8887,30.6891],[108.8955,30.6792],[108.8976,30.6495],[108.891,30.6373],[108.878,30.6315],[108.8678,30.6165],[108.879,30.6071],[108.8986,30.5771]]]},"properties":{"region_code":"CN-50-500235","parent_region_code":"CN-50","name":"云阳县","level":"county","has_children":false,"full_path":"中国 / 重庆市 / 云阳县","source_admin_code":"500235","osm_relation_id":2692020}},
{"type":"Feature","geometry":{"type":"Polygon","coordinates":[[[109.0182,30.6449],[109.0412,30.656],[109.0513,30.6442],[109.0865,30.6487],[109.0938,30.6404],[109.1101,30.6466],[109.1184,30.633],[109.1086,30.6139],[109.0891,30.6107],[109.0789,30.5994],[109.0908,30.5752],[109.1083,30.5515],[109.1267,30.5327],[109.143,30.5233],[109.1657,30.5491],[109.1873,30.5479],[109.2199,30.5728],[109.24,30.5959],[109.2555,30.5969],[109.2781,30.6237],[109.2968,30.6271],[109.3084,30.6119],[109.3102,30.5999],[109.3441,30.5748],[109.3562,30.5532],[109.3364,30.5298],[109.3376,30.4968],[109.351,30.4895],[109.4193,30.5706],[109.4322,30.6001],[109.4422,30.6038],[109.4575,30.6203],[109.4799,30.6255],[109.4876,30.6376],[109.5232,30.6657],[109.5366,30.6538],[109.5331,30.6395],[109.558,30.6488],[109.5699,30.649],[109.584,30.6667],[109.5773,30.6743],[109.5846,30.6972],[109.596,30.7029],[109.6138,30.7015],[109.6506,30.7247],[109.6576,30.734],[109.6526,30.7633],[109.6502,30.7823],[109.6313,30.8228],[109.6074,30.8396],[109.6118,30.8634],[109.595,30.8648],[109.5747,30.8742],[109.5651,30.8977],[109.5944,30.9062],[109.6089,30.9052],[109.6045,30.9263],[109.5915,30.9554],[109.5977,30.9661],[109.5955,30.9808],[109.6253,31.0078],[109.6074,31.0228],[109.6523,31.0481],[109.6702,31.055],[109.6909,31.0565],[109.7202,31.0776],[109.7257,31.0957],[109.7669,31.1149],[109.7579,31.1359],[109.7674,31.1627],[109.7597,31.176],[109.7326,31.1798],[109.7234,31.1734],[109.6989,31.1699],[109.663,31.1888],[109.6358,31.1866],[109.6197,31.1948],[109.6175,31.2056],[109.6287,31.2243],[109.6103,31.2327],[109.5805,31.2231],[109.5639,31.2471],[109.532,31.2568],[109.5095,31.2457],[109.4653,31.2567],[109.4472,31.2482],[109.4462,31.2402],[109.4094,31.2481],[109.3877,31.2451],[109.3821,31.2737],[109.3726,31.2884],[109.3324,31.3076],[109.3218,31.3263],[109.3203,31.35],[109.2882,31.3535],[109.2596,31.3634],[109.2286,31.359],[109.2226,31.3653],[109.175,31.3636],[109.1338,31.3687],[109.12,31.3748],[109.1063,31.3678],[109.0697,31.3733],[109.0481,31.3688],[109.0445,31.3265],[109.035,31.2998],[109.0388,31.286],[109.0636,31.2751],[109.0668,31.2547],[109.0843,31.2277],[109.0867,31.1931],[109.0572,31.184],[109.0432,31.1834],[109.0465,31.1596],[109.0548,31.1481],[109.0483,31.1338],[109.0935,31.1237],[109.0907,31.0723],[109.0981,31.0623],[109.1279,31.0561],[109.1453,31.0663],[109.1774,31.072],[109.186,31.069],[109.1976,31.0508],[109.2362,31.0471],[109.2451,31.0315],[109.2292,31.0042],[109.2111,30.9834],[109.2146,30.9413],[109.2112,30.9241],[109.1911,30.9388],[109.1679,30.9429],[109.1447,30.941],[109.1547,30.9218],[109.1386,30.9016],[109.1454,30.8798],[109.1322,30.8682],[109.1112,30.8631],[109.0802,30.861],[109.0758,30.8713],[109.0491,30.8622],[109.0471,30.8413],[109.0386,30.8335],[109.0443,30.7791],[109.0559,30.7664],[109.0434,30.7478],[109.0417,30.7325],[109.0158,30.7228],[109.0155,30.7012],[109.0201,30.6662],[109.0113,30.6511],[109.0182,30.6449]]]},"properties":{"region_code":"CN-50-500236","parent_region_code":"CN-50","name":"奉节县","level":"county","has_children":false,"full_path":"中国 / 重庆市 / 奉节县","source_admin_code":"500236","osm_relation_id":2692014}},
{"type":"Feature","geometry":{"type":"Polygon","coordinates":[[[109.6526,30.7633],[109.6821,30.7711],[109.6886,30.7822],[109.7054,30.7788],[109.7163,30.7853],[109.7127,30.8052],[109.7271,30.8185],[109.7762,30.8512],[109.8143,30.8624],[109.8658,30.8888],[109.8883,30.9023],[109.8993,30.9027],[109.9272,30.8899],[109.9368,30.881],[109.9517,30.8797],[109.9689,30.8902],[109.9827,30.891],[110.0015,30.8845],[109.9983,30.8717],[110.0125,30.8576],[110.0144,30.8318],[110.0337,30.8229],[110.0384,30.8065],[110.0466,30.8019],[110.0771,30.8018],[110.0893,30.8285],[110.1101,30.8475],[110.1187,30.8705],[110.1465,30.9144],[110.1399,30.9245],[110.1486,30.9563],[110.1681,30.982],[110.1582,30.9939],[110.1321,30.992],[110.1358,31.0076],[110.135,31.033],[110.1152,31.0344],[110.1215,31.0568],[110.1282,31.0638],[110.116,31.0749],[110.117,31.0965],[110.141,31.1189],[110.1565,31.118],[110.1839,31.1314],[110.1817,31.148],[110.1944,31.1597],[110.1743,31.1827],[110.1718,31.2151],[110.1654,31.2217],[110.1697,31.2467],[110.1561,31.2541],[110.1506,31.2816],[110.1564,31.2927],[110.1527,31.3351],[110.1419,31.3496],[110.1344,31.371],[110.1398,31.3834],[110.1349,31.3932],[110.1186,31.3965],[110.112,31.4151],[110.0643,31.41],[110.0504,31.4125],[110.029,31.4329],[109.9982,31.4559],[109.9811,31.4778],[109.9371,31.4718],[109.9334,31.4611],[109.9357,31.4267],[109.9167,31.395],[109.8818,31.3946],[109.8367,31.3813],[109.8283,31.3897],[109.7834,31.3809],[109.7809,31.3642],[109.7609,31.3496],[109.7513,31.3566],[109.7246,31.3584],[109.7067,31.3456],[109.7095,31.3035],[109.6616,31.2971],[109.6414,31.3126],[109.6236,31.2983],[109.6067,31.2973],[109.5931,31.2676],[109.5639,31.2471],[109.5805,31.2231],[109.6103,31.2327],[109.6287,31.2243],[109.6175,31.2056],[109.6197,31.1948],[109.6358,31.1866],[109.663,31.1888],[109.6989,31.1699],[109.7234,31.1734],[109.7326,31.1798],[109.7597,31.176],[109.7674,31.1627],[109.7579,31.1359],[109.7669,31.1149],[109.7257,31.0957],[109.7202,31.0776],[109.6909,31.0565],[109.6702,31.055],[109.6523,31.0481],[109.6074,31.0228],[109.6253,31.0078],[109.5955,30.9808],[109.5977,30.9661],[109.5915,30.9554],[109.6045,30.9263],[109.6089,30.9052],[109.5944,30.9062],[109.5651,30.8977],[109.5747,30.8742],[109.595,30.8648],[109.6118,30.8634],[109.6074,30.8396],[109.6313,30.8228],[109.6502,30.7823],[109.6526,30.7633]]]},"properties":{"region_code":"CN-50-500237","parent_region_code":"CN-50","name":"巫山县","level":"county","has_children":false,"full_path":"中国 / 重庆市 / 巫山县","source_admin_code":"500237","osm_relation_id":2692018}},
{"type":"Feature","geometry":{"type":"Polygon","coordinates":[[[108.7562,31.4412],[108.7761,31.4381],[108.8068,31.4216],[108.7914,31.4022],[108.8127,31.3924],[108.8229,31.3818],[108.82,31.36],[108.8326,31.3493],[108.863,31.347],[108.8811,31.3385],[108.8905,31.346],[108.8842,31.3861],[108.9238,31.3881],[108.9513,31.385],[108.9765,31.3886],[109.0293,31.3711],[109.0481,31.3688],[109.0697,31.3733],[109.1063,31.3678],[109.12,31.3748],[109.1338,31.3687],[109.175,31.3636],[109.2226,31.3653],[109.2286,31.359],[109.2596,31.3634],[109.2882,31.3535],[109.3203,31.35],[109.3218,31.3263],[109.3324,31.3076],[109.3726,31.2884],[109.3821,31.2737],[109.3877,31.2451],[109.4094,31.2481],[109.4462,31.2402],[109.4472,31.2482],[109.4653,31.2567],[109.5095,31.2457],[109.532,31.2568],[109.5639,31.2471],[109.5931,31.2676],[109.6067,31.2973],[109.6236,31.2983],[109.6414,31.3126],[109.6616,31.2971],[109.7095,31.3035],[109.7067,31.3456],[109.7246,31.3584],[109.7513,31.3566],[109.7609,31.3496],[109.7809,31.3642],[109.7834,31.3809],[109.8283,31.3897],[109.8367,31.3813],[109.8818,31.3946],[109.9167,31.395],[109.9357,31.4267],[109.9334,31.4611],[109.9371,31.4718],[109.9385,31.4871],[109.9554,31.4938],[109.963,31.5102],[109.9409,31.5076],[109.9285,31.5213],[109.891,31.5203],[109.8627,31.5319],[109.8547,31.5446],[109.8329,31.5576],[109.8164,31.5574],[109.7934,31.5419],[109.7857,31.5506],[109.732,31.5481],[109.7131,31.5579],[109.7219,31.5725],[109.7419,31.5798],[109.7389,31.5974],[109.7594,31.6053],[109.732,31.6305],[109.7359,31.6646],[109.7267,31.6741],[109.7231,31.6901],[109.728,31.7016],[109.7042,31.7025],[109.6783,31.7214],[109.6584,31.7178],[109.6443,31.7224],[109.6168,31.7134],[109.6034,31.7148],[109.5751,31.7305],[109.5503,31.7328],[109.5292,31.7244],[109.4925,31.7192],[109.4745,31.7215],[109.4551,31.7166],[109.4515,31.7244],[109.4209,31.72],[109.4113,31.7113],[109.3774,31.7067],[109.3551,31.71],[109.2926,31.713],[109.2779,31.7186],[109.2567,31.7192],[109.2427,31.7256],[109.2225,31.7265],[109.2185,31.7105],[109.1983,31.7026],[109.1621,31.6978],[109.1513,31.7019],[109.1312,31.7191],[109.0938,31.705],[109.0648,31.7089],[109.0202,31.6992],[109.0068,31.6936],[108.9988,31.6814],[109.0009,31.667],[108.9883,31.6619],[108.9424,31.6627],[108.9366,31.6425],[108.9122,31.6206],[108.8988,31.6137],[108.8706,31.6079],[108.8527,31.5895],[108.798,31.5785],[108.7874,31.5535],[108.7692,31.5445],[108.7522,31.5125],[108.7295,31.5002],[108.6952,31.5021],[108.6969,31.4698],[108.7318,31.4524],[108.735,31.4442],[108.7562,31.4412]]]},"properties":{"region_code":"CN-50-500238","parent_region_code":"CN-50","name":"巫溪县","level":"county","has_children":false,"full_path":"中国 / 重庆市 / 巫溪县","source_admin_code":"500238","osm_relation_id":2692019}},
{"type":"Feature","geometry":{"type":"Polygon","coordinates":[[[108.2163,30.4205],[108.2065,30.4119],[108.1803,30.4162],[108.1535,30.405],[108.1442,30.3935],[108.1322,30.3674],[108.1193,30.3621],[108.0893,30.3593],[108.0882,30.3432],[108.1094,30.3356],[108.1285,30.3337],[108.1569,30.3372],[108.1597,30.3224],[108.145,30.3042],[108.1265,30.3006],[108.1363,30.2696],[108.1256,30.2606],[108.0919,30.2421],[108.1035,30.2237],[108.118,30.2265],[108.1288,30.206],[108.0965,30.2087],[108.0838,30.1868],[108.0558,30.1636],[108.0784,30.1496],[108.0866,30.1274],[108.0779,30.1076],[108.0554,30.0817],[108.0436,30.0738],[108.0171,30.0822],[108.0042,30.0589],[108.0222,30.0333],[108.0148,30.0148],[108.0257,30.0045],[108.0285,29.9922],[108.0088,29.9766],[108,29.9849],[107.9871,29.9747],[107.9872,29.9637],[108.0197,29.9419],[108.0332,29.905],[108.0427,29.8949],[108.0616,29.8852],[108.0699,29.8745],[108.0563,29.8567],[108.0847,29.8411],[108.126,29.8546],[108.1423,29.8475],[108.1452,29.8323],[108.1659,29.8435],[108.1748,29.8243],[108.189,29.8153],[108.1814,29.8056],[108.1926,29.7892],[108.2128,29.7803],[108.1898,29.7557],[108.1646,29.7488],[108.1708,29.7355],[108.1644,29.7164],[108.173,29.697],[108.1702,29.6878],[108.1523,29.6822],[108.1386,29.6646],[108.1506,29.6468],[108.1611,29.6546],[108.1819,29.6696],[108.1915,29.6697],[108.2053,29.692],[108.1995,29.6954],[108.2205,29.7274],[108.2158,29.7389],[108.2213,29.7496],[108.2491,29.7484],[108.2638,29.7349],[108.3116,29.7247],[108.3213,29.7141],[108.3469,29.7243],[108.3658,29.7204],[108.357,29.7644],[108.3683,29.7729],[108.3896,29.8197],[108.3639,29.8214],[108.3674,29.846],[108.3874,29.8579],[108.4033,29.8617],[108.4267,29.8848],[108.4604,29.8676],[108.4877,29.8715],[108.4937,29.8832],[108.5154,29.8779],[108.5199,29.915],[108.5115,29.9322],[108.5136,29.9455],[108.5293,29.9748],[108.5374,30.0021],[108.5251,30.0082],[108.5258,30.0455],[108.5114,30.0567],[108.5115,30.0679],[108.5297,30.0881],[108.5433,30.1115],[108.5628,30.161],[108.5478,30.1677],[108.555,30.197],[108.5695,30.2414],[108.5776,30.2568],[108.5609,30.2595],[108.5302,30.2858],[108.5228,30.3082],[108.5108,30.3189],[108.4942,30.3195],[108.4793,30.3375],[108.4478,30.3561],[108.4271,30.3562],[108.4194,30.3681],[108.4024,30.3766],[108.3956,30.3924],[108.418,30.3961],[108.4168,30.4138],[108.4254,30.4187],[108.4066,30.44],[108.4177,30.4526],[108.4095,30.4785],[108.4189,30.4916],[108.4091,30.5056],[108.4059,30.5206],[108.3895,30.5388],[108.3741,30.5372],[108.3418,30.4874],[108.3327,30.4604],[108.2894,30.403],[108.2745,30.4101],[108.2581,30.3932],[108.2486,30.4077],[108.2163,30.4205]]]},"properties":{"region_code":"CN-50-500240","parent_region_code":"CN-50","name":"石柱土家族自治县","level":"county","has_children":false,"full_path":"中国 / 重庆市 / 石柱土家族自治县","source_admin_code":"500240","osm_relation_id":2693033}},
{"type":"Feature","geometry":{"type":"Polygon","coordinates":[[[108.7195,28.4959],[108.7244,28.4746],[108.7374,28.4709],[108.7444,28.4524],[108.7663,28.444],[108.7778,28.4305],[108.7573,28.3992],[108.7587,28.39],[108.7804,28.3828],[108.774,28.3694],[108.7725,28.3449],[108.7569,28.3288],[108.7658,28.3209],[108.7633,28.3077],[108.7439,28.3036],[108.7226,28.286],[108.724,28.2636],[108.735,28.2544],[108.7359,28.2288],[108.7552,28.2238],[108.7518,28.2018],[108.7603,28.1952],[108.7721,28.222],[108.7948,28.2286],[108.8024,28.2431],[108.8177,28.2439],[108.8357,28.2047],[108.853,28.2049],[108.8903,28.2218],[108.9164,28.2207],[108.9305,28.2084],[108.924,28.1962],[108.9883,28.1617],[109.0063,28.1645],[109.0143,28.1836],[109.0074,28.2007],[109.0223,28.2205],[109.0357,28.2218],[109.0375,28.2071],[109.0576,28.2053],[109.0712,28.1909],[109.0827,28.1863],[109.0984,28.219],[109.0752,28.2513],[109.0789,28.2616],[109.0958,28.2672],[109.1271,28.3098],[109.1376,28.3304],[109.1354,28.3447],[109.1475,28.3541],[109.1329,28.3629],[109.1428,28.3758],[109.1526,28.405],[109.1705,28.4347],[109.1727,28.4539],[109.1877,28.465],[109.1856,28.4728],[109.2084,28.4844],[109.2263,28.4787],[109.2699,28.4979],[109.2671,28.5164],[109.2694,28.5417],[109.2841,28.5487],[109.2897,28.5683],[109.3008,28.5823],[109.315,28.5838],[109.2995,28.6051],[109.3021,28.6237],[109.2827,28.6328],[109.2724,28.6212],[109.2534,28.6097],[109.2295,28.6242],[109.2015,28.6058],[109.184,28.612],[109.1764,28.6247],[109.1917,28.6414],[109.2351,28.6591],[109.2665,28.6743],[109.2482,28.695],[109.2674,28.7033],[109.2905,28.7259],[109.2949,28.7496],[109.2739,28.7547],[109.2377,28.7801],[109.2366,28.7974],[109.2416,28.8254],[109.2367,28.8389],[109.2377,28.8594],[109.2319,28.8829],[109.2061,28.8842],[109.1707,28.8541],[109.1453,28.8492],[109.1265,28.8353],[109.1125,28.8334],[109.0899,28.8217],[109.1004,28.8085],[109.0809,28.7857],[109.0609,28.7687],[109.0466,28.7382],[109.0214,28.6938],[108.9981,28.6997],[108.9696,28.6637],[108.9545,28.6278],[108.9434,28.6134],[108.9165,28.6231],[108.8965,28.6203],[108.8832,28.6248],[108.8512,28.6117],[108.8267,28.6086],[108.8093,28.5966],[108.7837,28.5625],[108.7782,28.5499],[108.7546,28.5424],[108.7481,28.5337],[108.7245,28.5217],[108.7195,28.4959]]]},"properties":{"region_code":"CN-50-500241","parent_region_code":"CN-50","name":"秀山土家族苗族自治县","level":"county","has_children":false,"full_path":"中国 / 重庆市 / 秀山土家族苗族自治县","source_admin_code":"500241","osm_relation_id":2693034}},
{"type":"Feature","geometry":{"type":"Polygon","coordinates":[[[108.554,29.1428],[108.5222,29.1276],[108.5179,29.1104],[108.5041,29.1002],[108.4545,29.0808],[108.4515,29.0682],[108.4264,29.0669],[108.4139,29.0553],[108.3786,29.0523],[108.3664,29.0451],[108.3076,29],[108.3142,28.9696],[108.3217,28.9547],[108.3436,28.9431],[108.3453,28.9084],[108.3517,28.8966],[108.3516,28.8776],[108.3413,28.8599],[108.3497,28.8369],[108.3484,28.8172],[108.3816,28.8079],[108.3822,28.7757],[108.3714,28.7712],[108.3494,28.7417],[108.3424,28.7391],[108.3439,28.7131],[108.3282,28.6829],[108.3507,28.678],[108.3863,28.6548],[108.4184,28.6461],[108.4413,28.635],[108.4564,28.638],[108.465,28.6308],[108.4968,28.6313],[108.5045,28.6414],[108.5287,28.6497],[108.5579,28.6537],[108.5629,28.6676],[108.6054,28.6383],[108.6198,28.6463],[108.6312,28.6415],[108.6326,28.6265],[108.6013,28.597],[108.6077,28.5446],[108.5734,28.5388],[108.575,28.5136],[108.5716,28.5026],[108.5859,28.4787],[108.5835,28.4657],[108.5932,28.4599],[108.5966,28.445],[108.6067,28.4392],[108.6053,28.4108],[108.5837,28.4083],[108.5723,28.3881],[108.5756,28.3471],[108.5958,28.3456],[108.6127,28.3276],[108.6347,28.3369],[108.6638,28.3384],[108.6738,28.3507],[108.6513,28.3595],[108.6618,28.3877],[108.6896,28.3981],[108.6934,28.4073],[108.6846,28.4255],[108.67,28.4324],[108.662,28.4463],[108.6368,28.4587],[108.6404,28.4732],[108.6817,28.4855],[108.6957,28.4857],[108.7036,28.5016],[108.7195,28.4959],[108.7245,28.5217],[108.7481,28.5337],[108.7546,28.5424],[108.7782,28.5499],[108.7837,28.5625],[108.8093,28.5966],[108.8267,28.6086],[108.8512,28.6117],[108.8832,28.6248],[108.8965,28.6203],[108.9165,28.6231],[108.9434,28.6134],[108.9545,28.6278],[108.9696,28.6637],[108.9981,28.6997],[109.0214,28.6938],[109.0466,28.7382],[109.0609,28.7687],[109.0809,28.7857],[109.1004,28.8085],[109.0899,28.8217],[109.1125,28.8334],[109.1265,28.8353],[109.1453,28.8492],[109.1707,28.8541],[109.2061,28.8842],[109.2319,28.8829],[109.242,28.9061],[109.2503,28.9113],[109.2496,28.9306],[109.2586,28.9632],[109.268,28.9734],[109.2837,28.9767],[109.2914,29.0195],[109.3157,29.0473],[109.3077,29.0682],[109.2889,29.0719],[109.2516,29.091],[109.2393,29.088],[109.2279,29.0963],[109.2286,29.1225],[109.2085,29.1475],[109.1954,29.1545],[109.173,29.1745],[109.157,29.1825],[109.1481,29.1741],[109.132,29.1718],[109.105,29.2176],[109.1348,29.274],[109.1243,29.2832],[109.0987,29.2956],[109.1077,29.3176],[109.1047,29.3443],[109.1073,29.363],[109.076,29.3918],[109.0558,29.4051],[109.0338,29.3916],[109.0299,29.3627],[109.0058,29.3622],[108.996,29.3664],[108.981,29.3557],[108.9797,29.3359],[108.9159,29.3292],[108.905,29.3162],[108.9007,29.2975],[108.9439,29.2693],[108.9162,29.2332],[108.9107,29.2185],[108.8918,29.2117],[108.8583,29.1465],[108.8501,29.1351],[108.844,29.108],[108.8104,29.1242],[108.8011,29.1326],[108.7809,29.1266],[108.7708,29.1143],[108.7449,29.1098],[108.742,29.0899],[108.722,29.0829],[108.6967,29.0975],[108.6873,29.1108],[108.6631,29.1111],[108.6586,29.092],[108.6179,29.0788],[108.61,29.099],[108.596,29.0895],[108.5834,29.0977],[108.5952,29.1095],[108.5685,29.1258],[108.554,29.1428]]]},"properties":{"region_code":"CN-50-500242","parent_region_code":"CN-50","name":"酉阳土家族苗族自治县","level":"county","has_children":false,"full_path":"中国 / 重庆市 / 酉阳土家族苗族自治县","source_admin_code":"500242","osm_relation_id":2693035}},
{"type":"Feature","geometry":{"type":"Polygon","coordinates":[[[108.5023,29.7108],[108.4865,29.7262],[108.4622,29.7341],[108.4532,29.7437],[108.4352,29.7433],[108.4348,29.7602],[108.4417,29.77],[108.4372,29.7825],[108.4173,29.7773],[108.4125,29.7864],[108.4197,29.8183],[108.3913,29.8342],[108.3896,29.8197],[108.3683,29.7729],[108.357,29.7644],[108.3658,29.7204],[108.3469,29.7243],[108.3213,29.7141],[108.3116,29.7247],[108.2638,29.7349],[108.2491,29.7484],[108.2213,29.7496],[108.2158,29.7389],[108.2205,29.7274],[108.1995,29.6954],[108.2053,29.692],[108.1915,29.6697],[108.1819,29.6696],[108.1611,29.6546],[108.1729,29.6516],[108.1775,29.6277],[108.1616,29.6197],[108.1601,29.6066],[108.1438,29.6031],[108.1265,29.6078],[108.1133,29.6022],[108.0876,29.6033],[108.0735,29.6212],[108.0616,29.6153],[108.0811,29.5923],[108.0721,29.581],[108.0595,29.5771],[108.0718,29.5608],[108.0683,29.5506],[108.0515,29.5342],[108.0121,29.5059],[108.0144,29.4981],[108.0088,29.4727],[108.0088,29.4516],[107.9849,29.4197],[107.9874,29.3907],[107.9712,29.3644],[107.9777,29.3587],[107.9794,29.3351],[108.0025,29.3179],[107.9931,29.3036],[107.9911,29.2669],[108.006,29.247],[107.9906,29.2385],[107.982,29.22],[107.9487,29.1862],[107.9371,29.1805],[107.9114,29.1933],[107.8924,29.1886],[107.8979,29.1769],[107.8888,29.1515],[107.8916,29.1232],[107.8789,29.1088],[107.8849,29.0895],[107.8665,29.0731],[107.8703,29.0603],[107.8452,29.0426],[107.8194,29.0373],[107.8169,29.0093],[107.8055,28.9869],[107.8235,28.9805],[107.8455,28.9651],[107.8595,28.9663],[107.8687,28.9876],[107.8819,28.993],[107.8804,29.0117],[107.9036,29.0093],[107.927,29.0396],[107.9437,29.0372],[107.9882,29.0376],[108.0193,29.0415],[108.0398,29.0664],[108.0647,29.0899],[108.109,29.0776],[108.1259,29.0685],[108.129,29.0557],[108.1496,29.0572],[108.168,29.0687],[108.1922,29.0748],[108.2011,29.0593],[108.2261,29.0502],[108.221,29.0336],[108.2391,29.0314],[108.256,29.053],[108.2564,29.0699],[108.2647,29.0937],[108.2938,29.0894],[108.303,29.08],[108.2939,29.0513],[108.3044,29.0218],[108.3076,29],[108.3664,29.0451],[108.3786,29.0523],[108.4139,29.0553],[108.4264,29.0669],[108.4515,29.0682],[108.4545,29.0808],[108.5041,29.1002],[108.5179,29.1104],[108.5222,29.1276],[108.554,29.1428],[108.5643,29.1511],[108.5702,29.1673],[108.5549,29.1847],[108.5448,29.2116],[108.5652,29.2289],[108.5719,29.2549],[108.5666,29.2636],[108.5807,29.2825],[108.5726,29.3012],[108.5552,29.3093],[108.5438,29.329],[108.5573,29.3548],[108.5435,29.3868],[108.5514,29.4119],[108.5722,29.4192],[108.5885,29.446],[108.5772,29.4657],[108.5813,29.4795],[108.5576,29.4943],[108.5216,29.4992],[108.4902,29.5158],[108.5036,29.5426],[108.5155,29.5479],[108.5326,29.5433],[108.5454,29.5607],[108.5313,29.5747],[108.5308,29.5896],[108.5126,29.6051],[108.5078,29.6177],[108.4825,29.6271],[108.4908,29.6617],[108.4986,29.6796],[108.5215,29.6852],[108.5229,29.701],[108.5023,29.7108]]]},"properties":{"region_code":"CN-50-500243","parent_region_code":"CN-50","name":"彭水苗族土家族自治县","level":"county","has_children":false,"full_path":"中国 / 重庆市 / 彭水苗族土家族自治县","source_admin_code":"500243","osm_relation_id":2693031}}
]}