{"type":"FeatureCollection", "features": [
{"type":"Feature","geometry":{"type":"Polygon","coordinates":[[[80.5978,30.4696],[80.6239,30.4629],[80.6931,30.413],[80.7151,30.414],[80.7653,30.3724],[80.7879,30.34],[80.8333,30.3132],[80.9064,30.3037],[80.9269,30.2672],[80.9809,30.2706],[81.0309,30.2471],[81.0448,30.1791],[81.0832,30.1496],[81.0803,30.1234],[81.109,30.0853],[81.092,30.0533],[81.1334,30.0154],[81.1653,30.0105],[81.1948,30.0234],[81.2186,30.0074],[81.2378,30.0313],[81.2715,30.0447],[81.2868,30.0694],[81.2825,30.1232],[81.2577,30.1511],[81.3335,30.16],[81.3955,30.2069],[81.3898,30.2343],[81.4223,30.3054],[81.396,30.3237],[81.4291,30.3833],[81.4386,30.4187],[81.4763,30.3895],[81.5355,30.3718],[81.5501,30.3822],[81.5646,30.4294],[81.6065,30.4117],[81.6214,30.4469],[81.6953,30.4235],[81.7499,30.3887],[81.7907,30.3889],[81.8247,30.3752],[81.8661,30.3772],[81.8812,30.3616],[81.9374,30.3476],[81.9613,30.3538],[81.9884,30.3213],[82.0213,30.3439],[82.0554,30.3338],[82.0675,30.3569],[82.1063,30.3491],[82.1282,30.303],[82.1571,30.3196],[82.2047,30.3691],[82.2079,30.4577],[82.2257,30.4766],[82.1734,30.5289],[82.2043,30.5423],[82.2308,30.5316],[82.319,30.527],[82.4033,30.5504],[82.4957,30.5669],[82.5207,30.5997],[82.5437,30.6016],[82.5382,30.6434],[82.492,30.6847],[82.4934,30.7051],[82.4623,30.7373],[82.474,30.7689],[82.4473,30.7836],[82.417,30.7626],[82.3224,30.7187],[82.2807,30.7226],[82.2626,30.7614],[82.2215,30.7808],[82.2092,30.8167],[82.1825,30.8373],[82.1232,30.8206],[82.1035,30.8038],[82.0646,30.8123],[82.0453,30.8577],[82.0646,30.8898],[82.0008,30.8986],[81.9787,30.8873],[81.9432,30.916],[81.8952,30.9196],[81.878,30.9815],[81.8304,31.0005],[81.8227,31.0356],[81.7679,31.0139],[81.7523,31.0592],[81.7316,31.0807],[81.6602,31.0403],[81.6442,31.061],[81.5927,31.0939],[81.5807,31.1399],[81.5216,31.1016],[81.4746,31.1233],[81.4393,31.1282],[81.432,31.166],[81.3916,31.2111],[81.2872,31.1874],[81.2614,31.152],[81.1948,31.2025],[81.1527,31.1831],[81.1286,31.1361],[81.0782,31.1067],[81.0353,31.0436],[81.0029,30.9741],[80.9981,30.9452],[80.9514,30.9467],[80.9174,30.9315],[80.8922,30.9218],[80.903,30.8843],[80.9274,30.8757],[80.9181,30.8393],[80.8922,30.798],[80.8199,30.7485],[80.6817,30.7244],[80.6718,30.6897],[80.5733,30.688],[80.575,30.6721],[80.5419,30.6042],[80.5532,30.5487],[80.59,30.5099],[80.5978,30.4696]]]},"properties":{"region_code":"CN-54-5425-542521","parent_region_code":"CN-54-5425","name":"普兰县","level":"county","has_children":false,"full_path":"中国 / 西藏自治区 / 阿里地区 / 普兰县","source_admin_code":"542521","osm_relation_id":1997907}},
{"type":"Feature","geometry":{"type":"Polygon","coordinates":[[[80.9174,30.9315],[80.9108,30.9771],[80.9217,31.0076],[80.9016,31.0459],[80.8534,31.0402],[80.8467,31.025],[80.7997,31.0289],[80.7443,31.0098],[80.7262,30.9758],[80.695,30.9937],[80.7455,31.042],[80.6891,31.0774],[80.6774,31.1158],[80.6142,31.1174],[80.5382,31.1529],[80.5061,31.1577],[80.4633,31.1429],[80.4463,31.1657],[80.4137,31.1615],[80.4135,31.1376],[80.376,31.0854],[80.3313,31.1004],[80.3412,31.1413],[80.3249,31.1667],[80.3043,31.237],[80.2317,31.2449],[80.2412,31.285],[80.2231,31.3141],[80.2455,31.3409],[80.216,31.3874],[80.2847,31.4037],[80.284,31.4281],[80.3057,31.4573],[80.2723,31.476],[80.1784,31.4779],[80.1332,31.5195],[80.0886,31.5996],[80.0361,31.6104],[80.0231,31.6442],[79.9717,31.7099],[79.929,31.7385],[79.9275,31.7684],[79.8929,31.8078],[79.9389,31.8307],[79.9036,31.9114],[79.9323,31.9363],[79.8785,31.9831],[79.8703,32.0099],[79.8382,32.0068],[79.8095,32.0629],[79.8215,32.0906],[79.8025,32.1481],[79.8042,32.1713],[79.7541,32.2076],[79.7156,32.2597],[79.6598,32.2764],[79.636,32.3086],[79.6655,32.3361],[79.5978,32.3632],[79.5282,32.3705],[79.4784,32.3273],[79.4537,32.3816],[79.4275,32.3682],[79.3781,32.4047],[79.3128,32.4221],[79.2933,32.3979],[79.241,32.4535],[79.2252,32.4542],[79.1654,32.4943],[79.1175,32.4545],[79.1264,32.4217],[79.1054,32.4075],[79.1044,32.3743],[79.0579,32.387],[78.9894,32.37],[78.9683,32.3357],[78.8686,32.4135],[78.8436,32.4106],[78.8131,32.434],[78.7575,32.5672],[78.7814,32.6163],[78.723,32.6743],[78.6341,32.6454],[78.641,32.6097],[78.5941,32.6081],[78.5464,32.6178],[78.5021,32.5845],[78.42,32.5693],[78.3923,32.538],[78.4289,32.5037],[78.4508,32.4612],[78.4724,32.4434],[78.4684,32.3939],[78.4857,32.3561],[78.4759,32.3323],[78.5104,32.3031],[78.4967,32.2759],[78.5613,32.2032],[78.599,32.1939],[78.5968,32.1581],[78.6315,32.1259],[78.6825,32.1148],[78.6826,32.0801],[78.7064,32.0629],[78.7398,32.0014],[78.7669,32.0036],[78.7791,31.9666],[78.7694,31.9286],[78.7427,31.9022],[78.749,31.8734],[78.7342,31.8321],[78.7022,31.8071],[78.7057,31.774],[78.7255,31.7581],[78.761,31.6749],[78.8008,31.6778],[78.8091,31.6388],[78.8466,31.6069],[78.8224,31.5786],[78.7443,31.5422],[78.7203,31.5077],[78.725,31.4848],[78.7575,31.4829],[78.7952,31.4442],[78.753,31.3849],[78.7507,31.3634],[78.7782,31.3123],[78.8328,31.2942],[78.9128,31.3099],[78.9439,31.3657],[79.0187,31.349],[79.0189,31.4267],[79.0608,31.4296],[79.0752,31.459],[79.1423,31.4321],[79.1773,31.3855],[79.1706,31.3631],[79.2233,31.3462],[79.221,31.315],[79.2502,31.2933],[79.2263,31.2606],[79.3009,31.219],[79.3094,31.1549],[79.3212,31.1386],[79.3755,31.1143],[79.4139,31.1066],[79.4271,31.0233],[79.5069,31.0324],[79.516,30.9975],[79.5532,30.9574],[79.6009,30.9388],[79.6632,30.9645],[79.7762,30.9862],[79.8147,30.9726],[79.8575,30.9755],[79.8821,30.9551],[79.8888,30.9177],[79.9289,30.8826],[79.9887,30.8769],[80.0289,30.8434],[80.0502,30.8412],[80.1085,30.7815],[80.1794,30.806],[80.1977,30.7649],[80.2386,30.7623],[80.2488,30.7204],[80.233,30.6905],[80.1978,30.6862],[80.1926,30.666],[80.2194,30.6428],[80.2085,30.5881],[80.2545,30.5646],[80.3154,30.5645],[80.3455,30.5203],[80.3646,30.5275],[80.4194,30.515],[80.4659,30.4906],[80.497,30.4879],[80.5411,30.4488],[80.5978,30.4696],[80.59,30.5099],[80.5532,30.5487],[80.5419,30.6042],[80.575,30.6721],[80.5733,30.688],[80.6718,30.6897],[80.6817,30.7244],[80.8199,30.7485],[80.8922,30.798],[80.9181,30.8393],[80.9274,30.8757],[80.903,30.8843],[80.8922,30.9218],[80.9174,30.9315]]]},"properties":{"region_code":"CN-54-5425-542522","parent_region_code":"CN-54-5425","name":"札达县","level":"county","has_children":false,"full_path":"中国 / 西藏自治区 / 阿里地区 / 札达县","source_admin_code":"542522","osm_relation_id":1997913}},
{"type":"Feature","geometry":{"type":"MultiPolygon","coordinates":[[[[80.9522,32.4781],[80.9916,32.4899],[81.1014,32.5017],[81.1153,32.5287],[81.1589,32.5357],[81.1804,32.5238],[81.2499,32.5141],[81.3581,32.5474],[81.4017,32.5483],[81.4188,32.5736],[81.3761,32.6067],[81.3162,32.6152],[81.2753,32.631],[81.2157,32.6249],[81.1771,32.6097],[81.1083,32.6148],[81.0906,32.5935],[81.0398,32.5985],[81.0123,32.587],[80.9558,32.5438],[80.9522,32.4781]]],[[[81.1527,31.1831],[81.1683,31.2408],[81.1269,31.2796],[81.0407,31.3164],[81.0562,31.3559],[81.0094,31.3856],[80.9153,31.3432],[80.849,31.3857],[80.8201,31.4325],[80.841,31.4491],[80.805,31.5259],[80.8213,31.564],[80.7338,31.6057],[80.7529,31.6349],[80.7171,31.6991],[80.7331,31.7229],[80.7903,31.7361],[80.808,31.7686],[80.8596,31.7535],[80.8956,31.7675],[80.9544,31.8249],[81.014,31.8428],[81.0632,31.845],[81.0816,31.8793],[81.0634,31.8885],[81.0101,31.8727],[80.9809,31.9274],[81.011,31.9635],[81.0113,31.9862],[80.9848,32.0248],[80.9475,32.1442],[81.0005,32.1496],[81.0599,32.2137],[81.0348,32.2506],[81.0341,32.2866],[80.9874,32.3064],[80.9387,32.3141],[80.9227,32.3441],[80.9643,32.3821],[80.949,32.4416],[80.8838,32.4337],[80.8494,32.4181],[80.7288,32.4261],[80.7166,32.4498],[80.6841,32.4624],[80.635,32.507],[80.5359,32.5431],[80.4743,32.5391],[80.4116,32.5459],[80.3592,32.5352],[80.3214,32.5474],[80.2673,32.5946],[80.1753,32.5944],[80.1509,32.6171],[80.1504,32.6453],[80.1284,32.6589],[80.1231,32.6923],[80.0553,32.7121],[80.0318,32.6946],[79.9685,32.7102],[79.9113,32.7414],[79.8576,32.747],[79.8448,32.7022],[79.7556,32.7154],[79.7366,32.682],[79.701,32.6921],[79.665,32.7209],[79.638,32.7214],[79.6077,32.7448],[79.5411,32.764],[79.4785,32.8022],[79.4221,32.8084],[79.3658,32.8335],[79.407,32.7855],[79.4154,32.7414],[79.4607,32.7098],[79.4402,32.6879],[79.3989,32.6039],[79.4101,32.5191],[79.3358,32.5399],[79.3111,32.5601],[79.2579,32.5375],[79.2482,32.5167],[79.1883,32.5159],[79.1654,32.4943],[79.2252,32.4542],[79.241,32.4535],[79.2933,32.3979],[79.3128,32.4221],[79.3781,32.4047],[79.4275,32.3682],[79.4537,32.3816],[79.4784,32.3273],[79.5282,32.3705],[79.5978,32.3632],[79.6655,32.3361],[79.636,32.3086],[79.6598,32.2764],[79.7156,32.2597],[79.7541,32.2076],[79.8042,32.1713],[79.8025,32.1481],[79.8215,32.0906],[79.8095,32.0629],[79.8382,32.0068],[79.8703,32.0099],[79.8785,31.9831],[79.9323,31.9363],[79.9036,31.9114],[79.9389,31.8307],[79.8929,31.8078],[79.9275,31.7684],[79.929,31.7385],[79.9717,31.7099],[80.0231,31.6442],[80.0361,31.6104],[80.0886,31.5996],[80.1332,31.5195],[80.1784,31.4779],[80.2723,31.476],[80.3057,31.4573],[80.284,31.4281],[80.2847,31.4037],[80.216,31.3874],[80.2455,31.3409],[80.2231,31.3141],[80.2412,31.285],[80.2317,31.2449],[80.3043,31.237],[80.3249,31.1667],[80.3412,31.1413],[80.3313,31.1004],[80.376,31.0854],[80.4135,31.1376],[80.4137,31.1615],[80.4463,31.1657],[80.4633,31.1429],[80.5061,31.1577],[80.5382,31.1529],[80.6142,31.1174],[80.6774,31.1158],[80.6891,31.0774],[80.7455,31.042],[80.695,30.9937],[80.7262,30.9758],[80.7443,31.0098],[80.7997,31.0289],[80.8467,31.025],[80.8534,31.0402],[80.9016,31.0459],[80.9217,31.0076],[80.9108,30.9771],[80.9174,30.9315],[80.9514,30.9467],[80.9981,30.9452],[81.0029,30.9741],[81.0353,31.0436],[81.0782,31.1067],[81.1286,31.1361],[81.1527,31.1831]]]]},"properties":{"region_code":"CN-54-5425-542523","parent_region_code":"CN-54-5425","name":"噶尔县","level":"county","has_children":false,"full_path":"中国 / 西藏自治区 / 阿里地区 / 噶尔县","source_admin_code":"542523","osm_relation_id":1997909}},
{"type":"Feature","geometry":{"type":"Polygon","coordinates":[[[80.4743,32.5391],[80.5143,32.5734],[80.612,32.5716],[80.6221,32.5885],[80.6173,32.653],[80.6357,32.6681],[80.7207,32.6595],[80.7727,32.6387],[80.8511,32.641],[80.8913,32.6711],[80.9062,32.7121],[80.9261,32.7235],[80.9289,32.7817],[80.9836,32.8146],[81.0125,32.8024],[81.0268,32.7545],[81.1043,32.7281],[81.1482,32.7362],[81.1969,32.7652],[81.2569,32.7531],[81.2923,32.7024],[81.3349,32.69],[81.3785,32.6972],[81.4846,32.772],[81.5414,32.7241],[81.5959,32.7085],[81.6185,32.6817],[81.6686,32.6505],[81.6744,32.6304],[81.8019,32.6102],[81.8318,32.61],[81.8619,32.637],[81.8591,32.6908],[81.9044,32.7147],[81.8418,32.7984],[81.7651,32.9199],[81.7472,32.9655],[81.7285,32.9801],[81.7536,33.0096],[81.6745,33.0338],[81.6539,33.0217],[81.5865,33.053],[81.4873,33.0803],[81.4671,33.1255],[81.5178,33.1491],[81.5598,33.1419],[81.5886,33.1628],[81.6027,33.2384],[81.6531,33.279],[81.6499,33.3439],[81.6696,33.3609],[81.7503,33.3604],[81.7651,33.3827],[81.8069,33.3847],[81.8413,33.42],[81.8742,33.4074],[81.9247,33.4767],[81.9501,33.4962],[82.0064,33.5142],[82.0401,33.5042],[82.1489,33.5148],[82.163,33.4987],[82.2279,33.487],[82.2876,33.4919],[82.3353,33.5165],[82.3576,33.57],[82.3123,33.6263],[82.3116,33.6775],[82.379,33.7038],[82.3477,33.7238],[82.3644,33.7536],[82.3503,33.7807],[82.3664,33.8205],[82.3861,33.8348],[82.367,33.8898],[82.3981,33.9596],[82.3642,34.0302],[82.3388,34.0566],[82.3057,34.1167],[82.3721,34.1528],[82.386,34.1857],[82.4407,34.2365],[82.416,34.2836],[82.4349,34.3182],[82.416,34.3763],[82.452,34.4163],[82.4328,34.4542],[82.3927,34.4808],[82.4524,34.5665],[82.4545,34.592],[82.4136,34.6151],[82.364,34.6199],[82.3338,34.6377],[82.3506,34.6592],[82.327,34.7476],[82.35,34.7555],[82.3781,34.7917],[82.4178,34.8007],[82.4389,34.8503],[82.4337,34.9357],[82.4386,34.9878],[82.3854,35.0608],[82.3576,35.1134],[82.3586,35.1544],[82.3773,35.1742],[82.3719,35.2019],[82.338,35.2144],[82.2051,35.2165],[82.1588,35.223],[82.0652,35.207],[82.0071,35.232],[81.982,35.2967],[81.993,35.3245],[81.9372,35.3258],[81.9385,35.3012],[81.8908,35.2858],[81.8607,35.2611],[81.8009,35.2768],[81.7311,35.2603],[81.6723,35.2346],[81.5653,35.2393],[81.4672,35.3149],[81.4618,35.3378],[81.4251,35.3599],[81.3848,35.3384],[81.3325,35.3488],[81.3171,35.3371],[81.2653,35.3433],[81.253,35.3253],[81.2048,35.3261],[81.1918,35.3656],[81.1396,35.3659],[81.0956,35.4108],[81.0334,35.393],[81.0482,35.3366],[81.0273,35.3146],[80.9508,35.3136],[80.9343,35.3282],[80.8923,35.3251],[80.8423,35.3464],[80.7579,35.3356],[80.6973,35.3383],[80.6885,35.3677],[80.598,35.4107],[80.5776,35.3962],[80.5021,35.3976],[80.4458,35.418],[80.4292,35.4498],[80.3769,35.3923],[80.3468,35.391],[80.2879,35.3578],[80.2662,35.2964],[80.3294,35.2266],[80.3145,35.2038],[80.2563,35.2042],[80.2223,35.178],[80.2374,35.1544],[80.1173,35.0668],[80.0766,35.0781],[80.0309,35.0411],[80.0452,35.0255],[80.0244,34.9725],[80.0418,34.9452],[80.0357,34.9044],[80.0028,34.8961],[79.9999,34.8622],[79.9273,34.8554],[79.9424,34.8032],[79.8982,34.7327],[79.8851,34.6445],[79.8438,34.5534],[79.8614,34.5373],[79.8187,34.4929],[79.7655,34.4705],[79.7216,34.4717],[79.7033,34.4862],[79.6736,34.4546],[79.6234,34.4498],[79.6048,34.4653],[79.4223,34.4491],[79.363,34.4292],[79.3277,34.4445],[79.2721,34.4384],[79.2278,34.4159],[79.1797,34.4238],[79.1613,34.4427],[79.0684,34.4146],[79.035,34.4226],[79.008,34.4026],[79.0486,34.35],[79.0287,34.3167],[78.9856,34.314],[78.9438,34.225],[78.9257,34.1544],[78.8979,34.1484],[78.8621,34.1656],[78.8261,34.1247],[78.7852,34.1202],[78.7423,34.0924],[78.7078,34.0947],[78.6537,34.0546],[78.6575,34.0315],[78.6979,34.0259],[78.7423,34],[78.7303,33.9209],[78.7623,33.9145],[78.7513,33.8848],[78.7654,33.8359],[78.7542,33.7843],[78.7746,33.7379],[78.7431,33.6781],[78.6968,33.6388],[78.751,33.6278],[78.734,33.5655],[78.8037,33.4893],[78.8448,33.4199],[78.8915,33.4142],[78.9364,33.3872],[78.9625,33.3395],[79.0269,33.3201],[79.0352,33.2727],[79.0708,33.2519],[79.0728,33.2232],[79.1563,33.1768],[79.1595,33.1362],[79.1432,33.1057],[79.1606,33.0151],[79.22,32.9622],[79.2373,32.9748],[79.2851,32.9501],[79.3063,32.9279],[79.3028,32.8922],[79.3658,32.8335],[79.4221,32.8084],[79.4785,32.8022],[79.5411,32.764],[79.6077,32.7448],[79.638,32.7214],[79.665,32.7209],[79.701,32.6921],[79.7366,32.682],[79.7556,32.7154],[79.8448,32.7022],[79.8576,32.747],[79.9113,32.7414],[79.9685,32.7102],[80.0318,32.6946],[80.0553,32.7121],[80.1231,32.6923],[80.1284,32.6589],[80.1504,32.6453],[80.1509,32.6171],[80.1753,32.5944],[80.2673,32.5946],[80.3214,32.5474],[80.3592,32.5352],[80.4116,32.5459],[80.4743,32.5391]]]},"properties":{"region_code":"CN-54-5425-542524","parent_region_code":"CN-54-5425","name":"日土县","level":"county","has_children":false,"full_path":"中国 / 西藏自治区 / 阿里地区 / 日土县","source_admin_code":"542524","osm_relation_id":1997912}},
{"type":"Feature","geometry":{"type":"Polygon","coordinates":[[[82.4473,30.7836],[82.4445,30.862],[82.5015,30.8987],[82.5611,30.9103],[82.6406,30.911],[82.6908,30.8732],[82.7252,30.8584],[82.7108,30.8198],[82.7343,30.7798],[82.7721,30.7961],[82.8095,30.7595],[82.8208,30.6943],[82.863,30.6901],[82.8829,30.6621],[82.9272,30.6464],[82.9248,30.5819],[82.9467,30.5392],[83.0014,30.547],[83.0217,30.5201],[83.0543,30.5028],[83.0734,30.5144],[83.1193,30.5962],[83.1422,30.6101],[83.176,30.7079],[83.1591,30.7261],[83.1553,30.7922],[83.0865,30.8219],[83.0324,30.8127],[82.9795,30.8849],[82.9553,30.8955],[82.9366,30.9375],[82.8941,30.918],[82.8596,30.9661],[82.7998,31.0209],[82.7899,31.0582],[82.821,31.1557],[82.9019,31.1647],[82.9483,31.1849],[82.9761,31.225],[82.9797,31.3264],[82.9454,31.4084],[82.96,31.484],[82.9344,31.4842],[82.8048,31.526],[82.772,31.5554],[82.7456,31.5526],[82.7349,31.5222],[82.6977,31.5268],[82.7051,31.5623],[82.6859,31.5825],[82.6843,31.6428],[82.6095,31.6546],[82.5363,31.6449],[82.5125,31.6944],[82.5629,31.7709],[82.5629,31.8065],[82.5398,31.8431],[82.5478,31.8663],[82.7064,31.8774],[82.7658,31.8738],[82.8302,31.8915],[82.8376,31.9199],[82.8743,31.9416],[82.9147,31.9372],[82.9354,31.9188],[82.9733,31.9164],[83.0058,31.9281],[83.0599,31.9966],[83.0635,32.0381],[83.0276,32.0632],[83.068,32.08],[83.0536,32.1593],[83.0305,32.1907],[83.0614,32.205],[83.0237,32.2662],[83.0324,32.2932],[83.0576,32.2998],[83.0271,32.3865],[83.0704,32.4907],[83.0604,32.5564],[83.0343,32.5797],[83.0464,32.6014],[83.0251,32.6402],[83.0055,32.6495],[82.9461,32.7518],[82.8932,32.8672],[82.8747,32.9309],[82.874,32.9724],[82.841,33.0167],[82.8575,33.061],[82.8465,33.1036],[82.8019,33.1778],[82.6817,33.2485],[82.6199,33.2789],[82.5911,33.264],[82.5609,33.282],[82.4987,33.2917],[82.4763,33.3211],[82.4393,33.3238],[82.4095,33.3735],[82.3611,33.3899],[82.3319,33.4409],[82.3076,33.4638],[82.2443,33.4652],[82.2279,33.487],[82.163,33.4987],[82.1489,33.5148],[82.0401,33.5042],[82.0064,33.5142],[81.9501,33.4962],[81.9247,33.4767],[81.8742,33.4074],[81.8413,33.42],[81.8069,33.3847],[81.7651,33.3827],[81.7503,33.3604],[81.6696,33.3609],[81.6499,33.3439],[81.6531,33.279],[81.6027,33.2384],[81.5886,33.1628],[81.5598,33.1419],[81.5178,33.1491],[81.4671,33.1255],[81.4873,33.0803],[81.5865,33.053],[81.6539,33.0217],[81.6745,33.0338],[81.7536,33.0096],[81.7285,32.9801],[81.7472,32.9655],[81.7651,32.9199],[81.8418,32.7984],[81.9044,32.7147],[81.8591,32.6908],[81.8619,32.637],[81.8318,32.61],[81.8019,32.6102],[81.6744,32.6304],[81.6686,32.6505],[81.6185,32.6817],[81.5959,32.7085],[81.5414,32.7241],[81.4846,32.772],[81.3785,32.6972],[81.3349,32.69],[81.2923,32.7024],[81.2569,32.7531],[81.1969,32.7652],[81.1482,32.7362],[81.1043,32.7281],[81.0268,32.7545],[81.0125,32.8024],[80.9836,32.8146],[80.9289,32.7817],[80.9261,32.7235],[80.9062,32.7121],[80.8913,32.6711],[80.8511,32.641],[80.7727,32.6387],[80.7207,32.6595],[80.6357,32.6681],[80.6173,32.653],[80.6221,32.5885],[80.612,32.5716],[80.5143,32.5734],[80.4743,32.5391],[80.5359,32.5431],[80.635,32.507],[80.6841,32.4624],[80.7166,32.4498],[80.7288,32.4261],[80.8494,32.4181],[80.8838,32.4337],[80.949,32.4416],[80.9643,32.3821],[80.9227,32.3441],[80.9387,32.3141],[80.9874,32.3064],[81.0341,32.2866],[81.0348,32.2506],[81.0599,32.2137],[81.0005,32.1496],[80.9475,32.1442],[80.9848,32.0248],[81.0113,31.9862],[81.011,31.9635],[80.9809,31.9274],[81.0101,31.8727],[81.0634,31.8885],[81.0816,31.8793],[81.0632,31.845],[81.014,31.8428],[80.9544,31.8249],[80.8956,31.7675],[80.8596,31.7535],[80.808,31.7686],[80.7903,31.7361],[80.7331,31.7229],[80.7171,31.6991],[80.7529,31.6349],[80.7338,31.6057],[80.8213,31.564],[80.805,31.5259],[80.841,31.4491],[80.8201,31.4325],[80.849,31.3857],[80.9153,31.3432],[81.0094,31.3856],[81.0562,31.3559],[81.0407,31.3164],[81.1269,31.2796],[81.1683,31.2408],[81.1527,31.1831],[81.1948,31.2025],[81.2614,31.152],[81.2872,31.1874],[81.3916,31.2111],[81.432,31.166],[81.4393,31.1282],[81.4746,31.1233],[81.5216,31.1016],[81.5807,31.1399],[81.5927,31.0939],[81.6442,31.061],[81.6602,31.0403],[81.7316,31.0807],[81.7523,31.0592],[81.7679,31.0139],[81.8227,31.0356],[81.8304,31.0005],[81.878,30.9815],[81.8952,30.9196],[81.9432,30.916],[81.9787,30.8873],[82.0008,30.8986],[82.0646,30.8898],[82.0453,30.8577],[82.0646,30.8123],[82.1035,30.8038],[82.1232,30.8206],[82.1825,30.8373],[82.2092,30.8167],[82.2215,30.7808],[82.2626,30.7614],[82.2807,30.7226],[82.3224,30.7187],[82.417,30.7626],[82.4473,30.7836]],[[80.9522,32.4781],[80.9558,32.5438],[81.0123,32.587],[81.0398,32.5985],[81.0906,32.5935],[81.1083,32.6148],[81.1771,32.6097],[81.2157,32.6249],[81.2753,32.631],[81.3162,32.6152],[81.3761,32.6067],[81.4188,32.5736],[81.4017,32.5483],[81.3581,32.5474],[81.2499,32.5141],[81.1804,32.5238],[81.1589,32.5357],[81.1153,32.5287],[81.1014,32.5017],[80.9916,32.4899],[80.9522,32.4781]]]},"properties":{"region_code":"CN-54-5425-542525","parent_region_code":"CN-54-5425","name":"革吉县","level":"county","has_children":false,"full_path":"中国 / 西藏自治区 / 阿里地区 / 革吉县","source_admin_code":"542525","osm_relation_id":1997911}},
{"type":"Feature","geometry":{"type":"Polygon","coordinates":[[[82.2279,33.487],[82.2443,33.4652],[82.3076,33.4638],[82.3319,33.4409],[82.3611,33.3899],[82.4095,33.3735],[82.4393,33.3238],[82.4763,33.3211],[82.4987,33.2917],[82.5609,33.282],[82.5911,33.264],[82.6199,33.2789],[82.6817,33.2485],[82.8019,33.1778],[82.8465,33.1036],[82.8575,33.061],[82.841,33.0167],[82.874,32.9724],[82.8747,32.9309],[82.8932,32.8672],[82.9461,32.7518],[83.0055,32.6495],[83.0251,32.6402],[83.0464,32.6014],[83.0343,32.5797],[83.0604,32.5564],[83.0704,32.4907],[83.0271,32.3865],[83.0576,32.2998],[83.0324,32.2932],[83.0237,32.2662],[83.0614,32.205],[83.0305,32.1907],[83.0536,32.1593],[83.068,32.08],[83.0276,32.0632],[83.0635,32.0381],[83.0599,31.9966],[83.0058,31.9281],[82.9733,31.9164],[82.9354,31.9188],[82.9147,31.9372],[82.8743,31.9416],[82.8376,31.9199],[82.8302,31.8915],[82.7658,31.8738],[82.7064,31.8774],[82.5478,31.8663],[82.5398,31.8431],[82.5629,31.8065],[82.5629,31.7709],[82.5125,31.6944],[82.5363,31.6449],[82.6095,31.6546],[82.6843,31.6428],[82.6859,31.5825],[82.7051,31.5623],[82.6977,31.5268],[82.7349,31.5222],[82.7456,31.5526],[82.772,31.5554],[82.8048,31.526],[82.9344,31.4842],[82.96,31.484],[82.8933,31.5088],[82.8605,31.5392],[82.8337,31.5391],[82.8216,31.5642],[82.8409,31.5863],[82.8991,31.5715],[82.9468,31.5801],[82.9622,31.6502],[83.0264,31.6318],[83.0844,31.6548],[83.1174,31.6577],[83.1415,31.6844],[83.1981,31.6849],[83.2167,31.6501],[83.2648,31.6551],[83.255,31.6994],[83.3045,31.7318],[83.3153,31.7025],[83.3639,31.6727],[83.3567,31.65],[83.3927,31.6082],[83.4701,31.5905],[83.5317,31.5864],[83.5965,31.5919],[83.6438,31.5745],[83.7116,31.5938],[83.7649,31.5676],[83.8019,31.5833],[83.8251,31.5721],[83.8599,31.5889],[83.9113,31.5818],[83.9648,31.5904],[84.0354,31.6433],[84.0828,31.619],[84.1439,31.6215],[84.149,31.6561],[84.2121,31.6765],[84.2426,31.6605],[84.2871,31.6644],[84.2975,31.6155],[84.3253,31.6176],[84.3395,31.644],[84.3862,31.6427],[84.3949,31.6737],[84.3713,31.7074],[84.3476,31.7836],[84.3927,31.8087],[84.4431,31.7749],[84.4646,31.7016],[84.5312,31.6974],[84.5511,31.6864],[84.6236,31.6795],[84.6665,31.6513],[84.6901,31.6519],[84.7285,31.6231],[84.7414,31.5959],[84.7739,31.597],[84.8338,31.5753],[84.9473,31.5698],[84.9295,31.6112],[84.9774,31.6398],[85.0337,31.6235],[85.1052,31.6574],[85.1415,31.6615],[85.1152,31.6884],[85.1414,31.7655],[85.1285,31.8382],[85.1656,31.8815],[85.1434,31.9081],[85.1577,31.9395],[85.1358,32.0071],[85.1084,32.0394],[85.0601,32.0647],[85.0537,32.1033],[85.1055,32.1615],[85.1348,32.2083],[85.1741,32.2478],[85.1891,32.2997],[85.2228,32.3788],[85.2169,32.416],[85.2695,32.5007],[85.336,32.5177],[85.3801,32.5753],[85.4095,32.5933],[85.4367,32.5837],[85.5105,32.5906],[85.5869,32.6378],[85.6302,32.6447],[85.7551,32.6915],[85.8537,32.6942],[85.8985,32.7067],[85.964,32.7561],[85.971,32.7765],[86.0715,32.8058],[86.1046,32.8581],[86.0502,32.9098],[86.0798,32.9633],[86.0654,32.9862],[86.0862,33.0152],[86.1275,33.0282],[86.13,33.0544],[86.1058,33.0733],[86.1319,33.116],[86.1696,33.1438],[86.1682,33.1621],[86.1052,33.1695],[86.0769,33.1574],[86.0148,33.1709],[86.0294,33.2446],[86.1268,33.2734],[86.1727,33.2996],[86.2401,33.325],[86.2484,33.3886],[86.3062,33.4312],[86.2628,33.4926],[86.2719,33.5236],[86.265,33.5954],[86.2439,33.6341],[86.2054,33.6334],[86.1841,33.6529],[86.1745,33.7125],[86.2046,33.7487],[86.2065,33.7851],[86.2671,33.849],[86.269,33.8955],[86.2407,33.9494],[86.2231,33.9638],[86.2308,33.9983],[86.1859,34.0297],[86.1953,34.1253],[86.1734,34.1661],[86.1277,34.2105],[86.1235,34.2831],[86.1365,34.3301],[86.1654,34.3597],[86.1574,34.407],[86.0629,34.4797],[85.9505,34.5079],[85.9432,34.5642],[86.0228,34.6147],[86.0487,34.6551],[86.0295,34.6958],[86.0461,34.75],[86.1066,34.8142],[86.1331,34.8773],[86.1398,34.929],[86.1058,34.9338],[86.139,34.9736],[86.143,35.0076],[86.2121,35.1092],[86.2094,35.1367],[86.2295,35.1546],[86.2001,35.2096],[86.2052,35.2739],[86.1726,35.3236],[86.2428,35.3489],[86.2353,35.3717],[86.2725,35.3876],[86.25,35.4294],[86.2569,35.5066],[86.2909,35.5583],[86.2783,35.5881],[86.313,35.6399],[86.2799,35.6523],[86.2759,35.6768],[86.2391,35.72],[86.198,35.7455],[86.1347,35.7716],[86.1013,35.7965],[86.0597,35.8534],[86.0104,35.8336],[85.9657,35.7886],[85.8336,35.7731],[85.8074,35.7817],[85.6821,35.7486],[85.6508,35.7319],[85.6127,35.6533],[85.5662,35.6418],[85.5187,35.68],[85.3928,35.704],[85.3379,35.7547],[85.2668,35.7902],[85.2154,35.7662],[85.1377,35.7434],[85.0524,35.7544],[84.9943,35.74],[84.9686,35.7045],[84.9182,35.6941],[84.8517,35.6666],[84.8364,35.6401],[84.7407,35.6138],[84.6987,35.6188],[84.4511,35.5484],[84.4743,35.515],[84.4498,35.4788],[84.334,35.415],[84.2761,35.4058],[84.2052,35.3815],[84.1786,35.3589],[84.1302,35.3757],[84.0938,35.3645],[84.0567,35.4115],[83.9907,35.4222],[83.9117,35.4088],[83.8801,35.3653],[83.8024,35.3555],[83.7812,35.3681],[83.6761,35.3654],[83.6194,35.3369],[83.5966,35.3522],[83.539,35.3426],[83.5339,35.3665],[83.4844,35.3996],[83.4475,35.3829],[83.3939,35.3823],[83.3444,35.3988],[83.2942,35.4007],[83.2509,35.4215],[83.1899,35.3925],[83.1237,35.3992],[83.086,35.4261],[83.0646,35.4633],[82.9962,35.4853],[82.969,35.5491],[82.9788,35.6006],[82.9536,35.6371],[82.9647,35.6682],[82.8922,35.6748],[82.8779,35.6892],[82.7899,35.6874],[82.7776,35.6669],[82.7286,35.6386],[82.6496,35.6739],[82.626,35.6931],[82.5435,35.7093],[82.5112,35.6985],[82.4658,35.718],[82.4059,35.7],[82.39,35.6567],[82.3332,35.652],[82.3474,35.6117],[82.3315,35.5663],[82.2964,35.5456],[82.2607,35.5487],[82.2317,35.5211],[82.1923,35.5189],[82.1294,35.4813],[82.042,35.4493],[82.0454,35.3634],[82.0134,35.3287],[81.993,35.3245],[81.982,35.2967],[82.0071,35.232],[82.0652,35.207],[82.1588,35.223],[82.2051,35.2165],[82.338,35.2144],[82.3719,35.2019],[82.3773,35.1742],[82.3586,35.1544],[82.3576,35.1134],[82.3854,35.0608],[82.4386,34.9878],[82.4337,34.9357],[82.4389,34.8503],[82.4178,34.8007],[82.3781,34.7917],[82.35,34.7555],[82.327,34.7476],[82.3506,34.6592],[82.3338,34.6377],[82.364,34.6199],[82.4136,34.6151],[82.4545,34.592],[82.4524,34.5665],[82.3927,34.4808],[82.4328,34.4542],[82.452,34.4163],[82.416,34.3763],[82.4349,34.3182],[82.416,34.2836],[82.4407,34.2365],[82.386,34.1857],[82.3721,34.1528],[82.3057,34.1167],[82.3388,34.0566],[82.3642,34.0302],[82.3981,33.9596],[82.367,33.8898],[82.3861,33.8348],[82.3664,33.8205],[82.3503,33.7807],[82.3644,33.7536],[82.3477,33.7238],[82.379,33.7038],[82.3116,33.6775],[82.3123,33.6263],[82.3576,33.57],[82.3353,33.5165],[82.2876,33.4919],[82.2279,33.487]]]},"properties":{"region_code":"CN-54-5425-542526","parent_region_code":"CN-54-5425","name":"改则县","level":"county","has_children":false,"full_path":"中国 / 西藏自治区 / 阿里地区 / 改则县","source_admin_code":"542526","osm_relation_id":1997910}},
{"type":"Feature","geometry":{"type":"Polygon","coordinates":[[[84.6665,31.6513],[84.6153,31.6419],[84.5964,31.5955],[84.5487,31.5423],[84.5515,31.52],[84.5255,31.4903],[84.4952,31.4814],[84.421,31.5016],[84.3747,31.4916],[84.3488,31.4503],[84.2919,31.4454],[84.2686,31.424],[84.2033,31.4076],[84.2071,31.3721],[84.266,31.366],[84.3236,31.3427],[84.3455,31.3202],[84.4086,31.314],[84.492,31.3293],[84.4957,31.3048],[84.5477,31.2805],[84.595,31.2737],[84.6078,31.2573],[84.6037,31.1821],[84.6244,31.1673],[84.6128,31.1153],[84.6305,31.1051],[84.6117,31.0713],[84.6636,31.0597],[84.6931,31.0369],[84.6948,30.9828],[84.7751,30.9314],[84.7611,30.9036],[84.7303,30.9099],[84.647,30.8416],[84.6442,30.8268],[84.5994,30.8027],[84.5909,30.7705],[84.5671,30.7587],[84.5191,30.6935],[84.5135,30.6412],[84.4706,30.6251],[84.4624,30.5912],[84.4986,30.5766],[84.4835,30.5058],[84.4509,30.4762],[84.4502,30.4457],[84.4765,30.407],[84.5134,30.4173],[84.5822,30.398],[84.5954,30.3463],[84.6166,30.3273],[84.6188,30.2998],[84.6517,30.2588],[84.7063,30.2537],[84.7005,30.2141],[84.7411,30.1746],[84.7334,30.1194],[84.7436,30.0496],[84.7345,30.0024],[84.7976,29.9808],[84.8602,29.9823],[84.8556,29.9584],[84.9003,29.9283],[84.9458,29.8612],[85.0409,29.7976],[85.0563,29.7753],[85.0989,29.767],[85.1225,29.7366],[85.1599,29.7176],[85.1812,29.6931],[85.2493,29.7154],[85.3022,29.6844],[85.3754,29.7104],[85.3981,29.7314],[85.3863,29.7751],[85.3895,29.81],[85.4159,29.8485],[85.4399,29.8583],[85.4636,29.8243],[85.5275,29.8174],[85.543,29.7779],[85.5912,29.7805],[85.596,29.8153],[85.5423,29.8393],[85.5589,29.8837],[85.6165,29.8977],[85.6968,29.9029],[85.6947,29.935],[85.6666,29.9743],[85.7071,30.0046],[85.7804,30.0141],[85.7913,30.0697],[85.7691,30.0806],[85.7705,30.1481],[85.8022,30.1213],[85.8406,30.1103],[85.8531,30.1399],[85.8305,30.2183],[85.7598,30.2716],[85.7993,30.2691],[85.8294,30.307],[85.8606,30.3244],[85.8723,30.3659],[85.9183,30.3672],[85.8781,30.4028],[85.8835,30.4742],[85.8991,30.4932],[85.885,30.557],[85.849,30.5992],[85.7864,30.5982],[85.7114,30.6274],[85.7145,30.6635],[85.7438,30.6916],[85.798,30.6637],[85.8292,30.6919],[85.791,30.7377],[85.8094,30.7598],[85.8283,30.8224],[85.8087,30.866],[85.7668,30.9211],[85.7567,30.96],[85.7686,31.0127],[85.8238,31.0449],[85.8513,31.0741],[85.9105,31.0825],[85.9805,31.0717],[86.0704,31.0706],[86.0957,31.0619],[86.1205,30.9709],[86.191,31.0065],[86.1821,31.0376],[86.2013,31.0578],[86.1721,31.1126],[86.1721,31.1727],[86.1419,31.1908],[86.1295,31.2158],[86.0687,31.2061],[86.0386,31.2186],[85.9613,31.2274],[85.9453,31.2437],[85.8683,31.2551],[85.8613,31.2878],[85.786,31.2933],[85.7592,31.3211],[85.7336,31.318],[85.6423,31.3578],[85.6022,31.3645],[85.5774,31.4247],[85.5418,31.4641],[85.5581,31.4918],[85.4951,31.5126],[85.4446,31.5398],[85.447,31.5792],[85.3959,31.595],[85.3497,31.5596],[85.3081,31.5816],[85.2811,31.6444],[85.1893,31.6761],[85.1415,31.6615],[85.1052,31.6574],[85.0337,31.6235],[84.9774,31.6398],[84.9295,31.6112],[84.9473,31.5698],[84.8338,31.5753],[84.7739,31.597],[84.7414,31.5959],[84.7285,31.6231],[84.6901,31.6519],[84.6665,31.6513]]]},"properties":{"region_code":"CN-54-5425-542527","parent_region_code":"CN-54-5425","name":"措勤县","level":"county","has_children":false,"full_path":"中国 / 西藏自治区 / 阿里地区 / 措勤县","source_admin_code":"542527","osm_relation_id":1997908}}
]}