{"type":"FeatureCollection", "features": [
{"type":"Feature","geometry":{"type":"Polygon","coordinates":[[[99.9784,25.8691],[99.9961,25.8597],[100.0035,25.8458],[100.0174,25.8355],[100.0161,25.8135],[100.0282,25.788],[100.0446,25.7667],[100.0429,25.753],[100.052,25.74],[100.0589,25.7405],[100.0671,25.726],[100.0808,25.7154],[100.0894,25.6876],[100.0904,25.6734],[100.0984,25.6666],[100.1011,25.6529],[100.114,25.6458],[100.1144,25.638],[100.1254,25.6302],[100.1291,25.6194],[100.1247,25.6088],[100.1115,25.5946],[100.1109,25.5859],[100.1223,25.5785],[100.1296,25.5662],[100.1126,25.5582],[100.0952,25.5611],[100.0705,25.5756],[100.0481,25.5807],[100.0389,25.5663],[100.0248,25.5578],[100.0151,25.5347],[100.0357,25.5338],[100.0364,25.5269],[100.0266,25.512],[100.0355,25.4885],[100.0668,25.4857],[100.0732,25.4695],[100.0814,25.4656],[100.0962,25.4726],[100.0891,25.5078],[100.112,25.5302],[100.1205,25.5252],[100.1385,25.5291],[100.1584,25.5264],[100.1665,25.5198],[100.1802,25.5265],[100.1863,25.5397],[100.2144,25.5297],[100.2352,25.5006],[100.2494,25.4914],[100.2578,25.4943],[100.2797,25.5128],[100.2889,25.5022],[100.3097,25.5017],[100.3132,25.4806],[100.323,25.4636],[100.3454,25.4486],[100.3399,25.4356],[100.3496,25.4355],[100.355,25.4241],[100.3797,25.4292],[100.3913,25.4462],[100.3973,25.467],[100.3974,25.489],[100.4179,25.5132],[100.4247,25.5358],[100.4364,25.5528],[100.4126,25.5843],[100.4337,25.5893],[100.4255,25.6003],[100.422,25.6172],[100.4069,25.6398],[100.3862,25.6558],[100.3765,25.6712],[100.367,25.6949],[100.3419,25.6955],[100.3388,25.7087],[100.3298,25.7095],[100.3204,25.738],[100.3054,25.7558],[100.2928,25.7505],[100.2877,25.7833],[100.2921,25.7988],[100.2899,25.8208],[100.3243,25.8257],[100.3165,25.84],[100.3046,25.8375],[100.295,25.8448],[100.2906,25.8578],[100.2793,25.866],[100.2818,25.8804],[100.2989,25.8878],[100.2976,25.8986],[100.3125,25.9104],[100.3185,25.9538],[100.3105,25.9618],[100.3154,25.9688],[100.3401,25.968],[100.3513,25.9777],[100.3359,26.0108],[100.3351,26.0326],[100.3068,26.0406],[100.2811,26.0278],[100.2342,26.0244],[100.2145,26.02],[100.2026,26.0224],[100.2066,26.0407],[100.1929,26.0493],[100.1896,26.0619],[100.179,26.0752],[100.1704,26.0783],[100.1514,26.0713],[100.1455,26.0498],[100.1459,26.0363],[100.1361,26.0305],[100.1417,26.0214],[100.1529,26.0195],[100.1489,26.0088],[100.1351,26.0023],[100.1,25.9908],[100.1035,25.9672],[100.0938,25.965],[100.0795,25.9537],[100.0611,25.9526],[100.0484,25.9455],[100.0366,25.9258],[100.024,25.9325],[100.0102,25.9295],[99.9994,25.9113],[100.005,25.8989],[99.9967,25.8774],[99.9784,25.8691]]]},"properties":{"region_code":"CN-53-5329-532901","parent_region_code":"CN-53-5329","name":"大理市","level":"county","has_children":false,"full_path":"中国 / 云南省 / 大理白族自治州 / 大理市","source_admin_code":"532901","osm_relation_id":2727734}},
{"type":"Feature","geometry":{"type":"Polygon","coordinates":[[[99.9784,25.8691],[99.9694,25.8919],[99.9441,25.881],[99.9459,25.8707],[99.939,25.857],[99.9205,25.8376],[99.9092,25.8364],[99.9062,25.8239],[99.8913,25.8271],[99.8868,25.8494],[99.8743,25.8626],[99.8697,25.8781],[99.8564,25.8843],[99.8296,25.9046],[99.8242,25.9057],[99.8029,25.8946],[99.7914,25.8844],[99.7848,25.8612],[99.7738,25.8536],[99.7749,25.8424],[99.7542,25.8252],[99.7502,25.8152],[99.7659,25.8082],[99.7569,25.7926],[99.7589,25.7645],[99.7515,25.7633],[99.7536,25.7487],[99.7612,25.7556],[99.7716,25.7534],[99.7657,25.7355],[99.7539,25.7241],[99.7388,25.7275],[99.7306,25.7197],[99.7231,25.7283],[99.6988,25.7283],[99.6854,25.7218],[99.6708,25.7302],[99.6627,25.7183],[99.643,25.718],[99.6313,25.7109],[99.6291,25.6877],[99.637,25.6823],[99.6588,25.6538],[99.6326,25.647],[99.6312,25.6306],[99.6116,25.6079],[99.6149,25.5994],[99.6357,25.5868],[99.6534,25.5826],[99.6753,25.5695],[99.6818,25.5754],[99.7012,25.581],[99.7152,25.5922],[99.7263,25.5916],[99.7546,25.6166],[99.7698,25.6188],[99.7749,25.6061],[99.7911,25.6012],[99.7966,25.5948],[99.7919,25.5772],[99.7784,25.5663],[99.7658,25.5507],[99.7626,25.5282],[99.7712,25.5233],[99.7809,25.5096],[99.7906,25.4803],[99.7876,25.4729],[99.8001,25.4635],[99.8161,25.4592],[99.8184,25.4499],[99.8145,25.4228],[99.8033,25.4139],[99.8099,25.4012],[99.8285,25.3796],[99.822,25.3706],[99.8253,25.3534],[99.8356,25.3407],[99.853,25.3341],[99.8778,25.3351],[99.8793,25.3213],[99.8556,25.3192],[99.8625,25.3067],[99.8701,25.3076],[99.8869,25.297],[99.8885,25.278],[99.8811,25.2573],[99.8495,25.2284],[99.8777,25.2135],[99.8684,25.2056],[99.8875,25.1989],[99.8995,25.2168],[99.9198,25.203],[99.9277,25.2074],[99.9301,25.2263],[99.9458,25.2561],[99.9828,25.2726],[99.9943,25.2816],[100.0087,25.3048],[100.0109,25.327],[100.0008,25.3438],[100.0121,25.3558],[99.9979,25.3699],[100.0041,25.3815],[99.9957,25.3874],[100.0122,25.4069],[100.007,25.4183],[99.995,25.4225],[99.9854,25.4166],[99.9778,25.4399],[99.988,25.4503],[99.9888,25.4723],[99.9825,25.4903],[99.9977,25.5235],[100.0151,25.5347],[100.0248,25.5578],[100.0389,25.5663],[100.0481,25.5807],[100.0705,25.5756],[100.0952,25.5611],[100.1126,25.5582],[100.1296,25.5662],[100.1223,25.5785],[100.1109,25.5859],[100.1115,25.5946],[100.1247,25.6088],[100.1291,25.6194],[100.1254,25.6302],[100.1144,25.638],[100.114,25.6458],[100.1011,25.6529],[100.0984,25.6666],[100.0904,25.6734],[100.0894,25.6876],[100.0808,25.7154],[100.0671,25.726],[100.0589,25.7405],[100.052,25.74],[100.0429,25.753],[100.0446,25.7667],[100.0282,25.788],[100.0161,25.8135],[100.0174,25.8355],[100.0035,25.8458],[99.9961,25.8597],[99.9784,25.8691]]]},"properties":{"region_code":"CN-53-5329-532922","parent_region_code":"CN-53-5329","name":"漾濞彝族自治县","level":"county","has_children":false,"full_path":"中国 / 云南省 / 大理白族自治州 / 漾濞彝族自治县","source_admin_code":"532922","osm_relation_id":2727742}},
{"type":"Feature","geometry":{"type":"Polygon","coordinates":[[[100.4247,25.5358],[100.4441,25.5156],[100.44,25.5024],[100.4625,25.5067],[100.4782,25.4963],[100.4804,25.4885],[100.4712,25.4785],[100.4757,25.4407],[100.4865,25.4254],[100.5015,25.4244],[100.5113,25.4118],[100.5129,25.3935],[100.5326,25.389],[100.573,25.3999],[100.5861,25.392],[100.6082,25.3717],[100.6097,25.3624],[100.5989,25.3553],[100.5852,25.3378],[100.5828,25.3185],[100.5985,25.3037],[100.6145,25.3074],[100.6222,25.3038],[100.6426,25.3047],[100.6537,25.2732],[100.6625,25.2713],[100.6649,25.2538],[100.6805,25.2556],[100.68,25.2697],[100.7221,25.2604],[100.7275,25.2513],[100.7421,25.2414],[100.7441,25.2299],[100.7567,25.2165],[100.7699,25.2122],[100.7766,25.2042],[100.7979,25.2053],[100.8071,25.1969],[100.8186,25.1964],[100.823,25.2113],[100.8167,25.2184],[100.8317,25.2433],[100.8179,25.2745],[100.8286,25.278],[100.8445,25.2664],[100.8743,25.2563],[100.8861,25.2576],[100.9073,25.2437],[100.9191,25.2488],[100.9347,25.2462],[100.9417,25.262],[100.9665,25.2512],[100.9813,25.2539],[100.9869,25.2689],[100.9697,25.2876],[100.9613,25.3063],[100.9752,25.315],[100.9675,25.3267],[100.9723,25.3337],[100.9839,25.3308],[100.9978,25.3494],[101.0088,25.3461],[101.0171,25.3515],[101.0332,25.3511],[101.0388,25.3584],[101.0252,25.3731],[101.0417,25.3846],[101.0295,25.3896],[101.0339,25.4055],[101.0247,25.4054],[101.0143,25.4172],[100.9957,25.4121],[100.9793,25.4154],[100.9775,25.4273],[100.9514,25.4435],[100.9536,25.4674],[100.9431,25.4794],[100.9468,25.5085],[100.9532,25.5185],[100.9467,25.5297],[100.9534,25.545],[100.955,25.5608],[100.9628,25.5657],[100.9826,25.5675],[101.0002,25.5641],[101.0004,25.5901],[100.9915,25.6183],[100.9941,25.6254],[100.9895,25.6551],[100.9668,25.6651],[100.9491,25.6591],[100.955,25.6805],[100.9396,25.6881],[100.9322,25.7025],[100.9378,25.7114],[100.9508,25.7174],[100.9713,25.7419],[100.9706,25.7502],[100.9572,25.7524],[100.9364,25.7468],[100.948,25.7695],[100.9282,25.7923],[100.923,25.8052],[100.8975,25.8125],[100.8884,25.8256],[100.88,25.8276],[100.8788,25.8121],[100.867,25.8011],[100.8529,25.8031],[100.8356,25.814],[100.8229,25.8119],[100.8122,25.8167],[100.8036,25.8047],[100.7916,25.8068],[100.7887,25.8169],[100.7928,25.8371],[100.7824,25.8391],[100.7707,25.8563],[100.7593,25.8607],[100.7524,25.8742],[100.7207,25.8592],[100.708,25.8701],[100.6961,25.8713],[100.6957,25.8593],[100.689,25.8432],[100.6768,25.8282],[100.686,25.8092],[100.6839,25.8025],[100.6904,25.7884],[100.6795,25.782],[100.6748,25.7709],[100.6613,25.7632],[100.6654,25.7543],[100.6983,25.7563],[100.7116,25.72],[100.714,25.7047],[100.697,25.6978],[100.6821,25.6839],[100.6888,25.6735],[100.7003,25.6701],[100.6944,25.658],[100.6748,25.6423],[100.6793,25.6374],[100.673,25.6228],[100.6636,25.6143],[100.67,25.6044],[100.6522,25.5882],[100.632,25.5811],[100.6149,25.556],[100.5969,25.562],[100.5838,25.5548],[100.5663,25.5558],[100.5585,25.549],[100.5434,25.5616],[100.5493,25.5693],[100.5639,25.571],[100.5461,25.5927],[100.5309,25.5976],[100.4845,25.6028],[100.4569,25.5846],[100.4337,25.5893],[100.4126,25.5843],[100.4364,25.5528],[100.4247,25.5358]]]},"properties":{"region_code":"CN-53-5329-532923","parent_region_code":"CN-53-5329","name":"祥云县","level":"county","has_children":false,"full_path":"中国 / 云南省 / 大理白族自治州 / 祥云县","source_admin_code":"532923","osm_relation_id":2727741}},
{"type":"Feature","geometry":{"type":"Polygon","coordinates":[[[100.4337,25.5893],[100.4569,25.5846],[100.4845,25.6028],[100.5309,25.5976],[100.5461,25.5927],[100.5639,25.571],[100.5493,25.5693],[100.5434,25.5616],[100.5585,25.549],[100.5663,25.5558],[100.5838,25.5548],[100.5969,25.562],[100.6149,25.556],[100.632,25.5811],[100.6522,25.5882],[100.67,25.6044],[100.6636,25.6143],[100.673,25.6228],[100.6793,25.6374],[100.6748,25.6423],[100.6944,25.658],[100.7003,25.6701],[100.6888,25.6735],[100.6821,25.6839],[100.697,25.6978],[100.714,25.7047],[100.7116,25.72],[100.6983,25.7563],[100.6654,25.7543],[100.6613,25.7632],[100.6748,25.7709],[100.6795,25.782],[100.6904,25.7884],[100.6839,25.8025],[100.686,25.8092],[100.6768,25.8282],[100.689,25.8432],[100.6957,25.8593],[100.6961,25.8713],[100.708,25.8701],[100.7207,25.8592],[100.7524,25.8742],[100.7593,25.8607],[100.7707,25.8563],[100.7824,25.8391],[100.7928,25.8371],[100.7887,25.8169],[100.7916,25.8068],[100.8036,25.8047],[100.8122,25.8167],[100.8229,25.8119],[100.8356,25.814],[100.8529,25.8031],[100.867,25.8011],[100.8788,25.8121],[100.88,25.8276],[100.8884,25.8256],[100.9016,25.8335],[100.9042,25.8426],[100.9227,25.8523],[100.934,25.8648],[100.9304,25.8759],[100.9153,25.8818],[100.9286,25.8915],[100.9398,25.8932],[100.9491,25.9021],[100.9561,25.9211],[100.9566,25.9535],[100.9428,25.9738],[100.9199,25.9708],[100.9066,25.9855],[100.9033,25.9961],[100.9189,26.0183],[100.9345,26.0243],[100.9397,26.0348],[100.9359,26.0473],[100.9133,26.0582],[100.915,26.0779],[100.9133,26.1013],[100.9151,26.1163],[100.9222,26.1283],[100.9194,26.1536],[100.9089,26.1701],[100.9027,26.1596],[100.8923,26.1558],[100.8651,26.1573],[100.8543,26.1706],[100.8305,26.1784],[100.823,26.2008],[100.8052,26.1995],[100.788,26.1872],[100.7679,26.1903],[100.7625,26.1719],[100.7513,26.1689],[100.7397,26.1592],[100.7058,26.1514],[100.7033,26.1439],[100.6886,26.1382],[100.6866,26.1306],[100.6686,26.1269],[100.6688,26.1164],[100.6522,26.1043],[100.6454,26.0937],[100.6522,26.0802],[100.6473,26.0714],[100.6517,26.0447],[100.6687,26.0017],[100.6445,26.005],[100.6401,25.9955],[100.6238,26.0044],[100.6016,25.9997],[100.5897,25.9924],[100.5694,25.9887],[100.564,26.0035],[100.5663,26.013],[100.5513,26.0217],[100.5272,26.0287],[100.5176,26.0156],[100.4917,26.0169],[100.48,25.9951],[100.4725,25.9921],[100.4712,25.9672],[100.4611,25.9579],[100.447,25.9526],[100.4184,25.9636],[100.4029,25.9671],[100.3856,25.9758],[100.3728,25.9739],[100.3513,25.9777],[100.3401,25.968],[100.3154,25.9688],[100.3105,25.9618],[100.3185,25.9538],[100.3125,25.9104],[100.2976,25.8986],[100.2989,25.8878],[100.2818,25.8804],[100.2793,25.866],[100.2906,25.8578],[100.295,25.8448],[100.3046,25.8375],[100.3165,25.84],[100.3243,25.8257],[100.2899,25.8208],[100.2921,25.7988],[100.2877,25.7833],[100.2928,25.7505],[100.3054,25.7558],[100.3204,25.738],[100.3298,25.7095],[100.3388,25.7087],[100.3419,25.6955],[100.367,25.6949],[100.3765,25.6712],[100.3862,25.6558],[100.4069,25.6398],[100.422,25.6172],[100.4255,25.6003],[100.4337,25.5893]]]},"properties":{"region_code":"CN-53-5329-532924","parent_region_code":"CN-53-5329","name":"宾川县","level":"county","has_children":false,"full_path":"中国 / 云南省 / 大理白族自治州 / 宾川县","source_admin_code":"532924","osm_relation_id":2727733}},
{"type":"Feature","geometry":{"type":"Polygon","coordinates":[[[100.3399,25.4356],[100.3273,25.4241],[100.3211,25.4091],[100.327,25.4045],[100.3259,25.3898],[100.3381,25.3618],[100.3333,25.3463],[100.3369,25.3294],[100.3517,25.296],[100.3847,25.2792],[100.3829,25.2727],[100.3924,25.2526],[100.3897,25.2284],[100.3987,25.216],[100.4109,25.1816],[100.4107,25.1731],[100.4243,25.1666],[100.43,25.1688],[100.4697,25.1352],[100.4896,25.1282],[100.5002,25.112],[100.5207,25.1103],[100.5309,25.1023],[100.5395,25.0874],[100.5567,25.087],[100.579,25.0987],[100.6029,25.088],[100.6241,25.0707],[100.6159,25.0266],[100.6284,25.0262],[100.6299,25.0181],[100.6087,25.0111],[100.613,24.9921],[100.6223,24.9918],[100.6361,25.0008],[100.6449,24.9895],[100.6327,24.9755],[100.632,24.9586],[100.6466,24.9489],[100.6333,24.9325],[100.6079,24.9369],[100.5884,24.9292],[100.5829,24.9202],[100.5954,24.911],[100.606,24.8959],[100.6294,24.9041],[100.6454,24.8953],[100.6394,24.8851],[100.6423,24.8717],[100.6367,24.8631],[100.661,24.8545],[100.675,24.8465],[100.6572,24.8223],[100.6772,24.8114],[100.6887,24.8103],[100.6966,24.7973],[100.7063,24.7984],[100.7216,24.7886],[100.7462,24.7856],[100.7382,24.8067],[100.7418,24.8168],[100.7574,24.8184],[100.758,24.8333],[100.7429,24.8385],[100.7377,24.8677],[100.7405,24.8854],[100.7595,24.8979],[100.7521,24.9394],[100.7376,24.9388],[100.737,24.9565],[100.7198,24.9774],[100.7321,24.9898],[100.7522,24.9955],[100.7787,25.0081],[100.7595,25.0342],[100.7465,25.0414],[100.746,25.0505],[100.7637,25.0555],[100.7711,25.0644],[100.7576,25.0847],[100.7599,25.0935],[100.7496,25.1059],[100.7586,25.1264],[100.7482,25.1497],[100.7543,25.1635],[100.7736,25.1845],[100.7766,25.2042],[100.7699,25.2122],[100.7567,25.2165],[100.7441,25.2299],[100.7421,25.2414],[100.7275,25.2513],[100.7221,25.2604],[100.68,25.2697],[100.6805,25.2556],[100.6649,25.2538],[100.6625,25.2713],[100.6537,25.2732],[100.6426,25.3047],[100.6222,25.3038],[100.6145,25.3074],[100.5985,25.3037],[100.5828,25.3185],[100.5852,25.3378],[100.5989,25.3553],[100.6097,25.3624],[100.6082,25.3717],[100.5861,25.392],[100.573,25.3999],[100.5326,25.389],[100.5129,25.3935],[100.5113,25.4118],[100.5015,25.4244],[100.4865,25.4254],[100.4757,25.4407],[100.4712,25.4785],[100.4804,25.4885],[100.4782,25.4963],[100.4625,25.5067],[100.44,25.5024],[100.4441,25.5156],[100.4247,25.5358],[100.4179,25.5132],[100.3974,25.489],[100.3973,25.467],[100.3913,25.4462],[100.3797,25.4292],[100.355,25.4241],[100.3496,25.4355],[100.3399,25.4356]]]},"properties":{"region_code":"CN-53-5329-532925","parent_region_code":"CN-53-5329","name":"弥渡县","level":"county","has_children":false,"full_path":"中国 / 云南省 / 大理白族自治州 / 弥渡县","source_admin_code":"532925","osm_relation_id":2727738}},
{"type":"Feature","geometry":{"type":"Polygon","coordinates":[[[100.4243,25.1666],[100.4148,25.1511],[100.3984,25.14],[100.3928,25.1154],[100.4078,25.0937],[100.4026,25.0856],[100.3837,25.0713],[100.3653,25.0742],[100.353,25.0817],[100.3386,25.0791],[100.3268,25.0702],[100.3283,25.0623],[100.3094,25.0566],[100.3006,25.0428],[100.3026,25.0316],[100.2894,25.0185],[100.2849,25.0279],[100.2686,25.0133],[100.2713,24.994],[100.2637,24.979],[100.2468,24.9706],[100.2442,24.9544],[100.224,24.9442],[100.206,24.9455],[100.1988,24.9316],[100.2026,24.917],[100.182,24.8953],[100.1782,24.8811],[100.1801,24.8642],[100.1706,24.8445],[100.1555,24.8332],[100.1509,24.8217],[100.1531,24.798],[100.1441,24.7712],[100.1314,24.7576],[100.1311,24.7362],[100.1166,24.7335],[100.0942,24.7145],[100.0923,24.7008],[100.0985,24.6892],[100.0985,24.6689],[100.1217,24.6646],[100.1297,24.6697],[100.1353,24.6876],[100.1385,24.7117],[100.1512,24.7125],[100.1749,24.7314],[100.1951,24.7433],[100.2385,24.7451],[100.2796,24.7547],[100.2936,24.7607],[100.3198,24.7618],[100.3333,24.7497],[100.3573,24.7509],[100.3722,24.7292],[100.3837,24.7329],[100.3917,24.7199],[100.4226,24.7133],[100.4408,24.7354],[100.4474,24.7372],[100.4598,24.7277],[100.4684,24.7363],[100.4849,24.7408],[100.5002,24.7363],[100.5119,24.7393],[100.5128,24.7241],[100.53,24.713],[100.5476,24.7156],[100.5635,24.7073],[100.606,24.7385],[100.623,24.7487],[100.6298,24.7636],[100.6303,24.7895],[100.6371,24.8087],[100.6315,24.8221],[100.6455,24.825],[100.6572,24.8223],[100.675,24.8465],[100.661,24.8545],[100.6367,24.8631],[100.6423,24.8717],[100.6394,24.8851],[100.6454,24.8953],[100.6294,24.9041],[100.606,24.8959],[100.5954,24.911],[100.5829,24.9202],[100.5884,24.9292],[100.6079,24.9369],[100.6333,24.9325],[100.6466,24.9489],[100.632,24.9586],[100.6327,24.9755],[100.6449,24.9895],[100.6361,25.0008],[100.6223,24.9918],[100.613,24.9921],[100.6087,25.0111],[100.6299,25.0181],[100.6284,25.0262],[100.6159,25.0266],[100.6241,25.0707],[100.6029,25.088],[100.579,25.0987],[100.5567,25.087],[100.5395,25.0874],[100.5309,25.1023],[100.5207,25.1103],[100.5002,25.112],[100.4896,25.1282],[100.4697,25.1352],[100.43,25.1688],[100.4243,25.1666]]]},"properties":{"region_code":"CN-53-5329-532926","parent_region_code":"CN-53-5329","name":"南涧彝族自治县","level":"county","has_children":false,"full_path":"中国 / 云南省 / 大理白族自治州 / 南涧彝族自治县","source_admin_code":"532926","osm_relation_id":2727739}},
{"type":"Feature","geometry":{"type":"Polygon","coordinates":[[[100.0151,25.5347],[99.9977,25.5235],[99.9825,25.4903],[99.9888,25.4723],[99.988,25.4503],[99.9778,25.4399],[99.9854,25.4166],[99.995,25.4225],[100.007,25.4183],[100.0122,25.4069],[99.9957,25.3874],[100.0041,25.3815],[99.9979,25.3699],[100.0121,25.3558],[100.0008,25.3438],[100.0109,25.327],[100.0087,25.3048],[99.9943,25.2816],[99.9828,25.2726],[99.9458,25.2561],[99.9301,25.2263],[99.9277,25.2074],[99.9259,25.1892],[99.9369,25.1827],[99.94,25.1653],[99.9585,25.1544],[99.9683,25.1386],[99.9685,25.129],[99.9775,25.1216],[99.979,25.103],[99.9935,25.1101],[100.0205,25.1111],[100.0384,25.099],[100.0291,25.0907],[100.0322,25.0802],[100.0415,25.0743],[100.0454,25.0555],[100.0292,25.0497],[100.0138,25.0387],[99.9927,25.0357],[100.0019,25.0237],[100.0132,25.0204],[100.018,24.998],[100.0184,24.9713],[100.0288,24.9507],[100.051,24.9466],[100.0616,24.9516],[100.0655,24.9712],[100.0749,24.9813],[100.0905,24.9783],[100.1055,24.9932],[100.1215,24.9869],[100.1391,24.9878],[100.1441,24.9833],[100.1691,24.9889],[100.1812,24.9872],[100.185,24.9766],[100.2021,24.9767],[100.2113,24.9671],[100.206,24.9455],[100.224,24.9442],[100.2442,24.9544],[100.2468,24.9706],[100.2637,24.979],[100.2713,24.994],[100.2686,25.0133],[100.2849,25.0279],[100.2894,25.0185],[100.3026,25.0316],[100.3006,25.0428],[100.3094,25.0566],[100.3283,25.0623],[100.3268,25.0702],[100.3386,25.0791],[100.353,25.0817],[100.3653,25.0742],[100.3837,25.0713],[100.4026,25.0856],[100.4078,25.0937],[100.3928,25.1154],[100.3984,25.14],[100.4148,25.1511],[100.4243,25.1666],[100.4107,25.1731],[100.4109,25.1816],[100.3987,25.216],[100.3897,25.2284],[100.3924,25.2526],[100.3829,25.2727],[100.3847,25.2792],[100.3517,25.296],[100.3369,25.3294],[100.3333,25.3463],[100.3381,25.3618],[100.3259,25.3898],[100.327,25.4045],[100.3211,25.4091],[100.3273,25.4241],[100.3399,25.4356],[100.3454,25.4486],[100.323,25.4636],[100.3132,25.4806],[100.3097,25.5017],[100.2889,25.5022],[100.2797,25.5128],[100.2578,25.4943],[100.2494,25.4914],[100.2352,25.5006],[100.2144,25.5297],[100.1863,25.5397],[100.1802,25.5265],[100.1665,25.5198],[100.1584,25.5264],[100.1385,25.5291],[100.1205,25.5252],[100.112,25.5302],[100.0891,25.5078],[100.0962,25.4726],[100.0814,25.4656],[100.0732,25.4695],[100.0668,25.4857],[100.0355,25.4885],[100.0266,25.512],[100.0364,25.5269],[100.0357,25.5338],[100.0151,25.5347]]]},"properties":{"region_code":"CN-53-5329-532927","parent_region_code":"CN-53-5329","name":"巍山彝族回族自治县","level":"county","has_children":false,"full_path":"中国 / 云南省 / 大理白族自治州 / 巍山彝族回族自治县","source_admin_code":"532927","osm_relation_id":2727740}},
{"type":"Feature","geometry":{"type":"Polygon","coordinates":[[[99.6326,25.647],[99.5995,25.6569],[99.5836,25.6553],[99.5821,25.6693],[99.5675,25.6748],[99.566,25.6896],[99.5456,25.6938],[99.5359,25.7059],[99.5341,25.7232],[99.5159,25.7198],[99.4759,25.7306],[99.4489,25.7457],[99.4425,25.74],[99.4468,25.7281],[99.4657,25.7149],[99.4735,25.7032],[99.461,25.6926],[99.4634,25.6719],[99.445,25.6753],[99.4381,25.6903],[99.4236,25.6885],[99.424,25.6804],[99.4354,25.6695],[99.433,25.656],[99.4495,25.6346],[99.4329,25.6298],[99.422,25.6361],[99.4149,25.6255],[99.4286,25.6122],[99.4338,25.6016],[99.4282,25.5926],[99.4123,25.5981],[99.4055,25.584],[99.3886,25.5722],[99.3726,25.5745],[99.3578,25.5827],[99.3483,25.5782],[99.3521,25.5643],[99.3452,25.5473],[99.3266,25.5252],[99.3278,25.519],[99.3248,25.4994],[99.3439,25.4687],[99.3521,25.4623],[99.3419,25.4463],[99.3442,25.416],[99.3337,25.4106],[99.3185,25.4147],[99.3086,25.4223],[99.2843,25.4267],[99.2887,25.4114],[99.2928,25.378],[99.2821,25.3789],[99.2875,25.3635],[99.3043,25.3482],[99.3156,25.3246],[99.3339,25.2975],[99.342,25.2902],[99.3566,25.291],[99.37,25.2805],[99.3722,25.266],[99.3897,25.2346],[99.4051,25.2173],[99.4261,25.2022],[99.4503,25.1783],[99.4615,25.1596],[99.491,25.139],[99.5049,25.1227],[99.5462,25.1332],[99.5532,25.1207],[99.5777,25.1103],[99.6122,25.104],[99.626,25.0971],[99.655,25.0709],[99.664,25.0741],[99.6779,25.0691],[99.6942,25.0535],[99.7223,25.0562],[99.7368,25.0637],[99.7338,25.0753],[99.7511,25.0883],[99.7745,25.0834],[99.7806,25.0886],[99.8241,25.09],[99.8274,25.1054],[99.8234,25.1122],[99.835,25.1339],[99.8589,25.1574],[99.8509,25.1738],[99.8556,25.1805],[99.8776,25.1936],[99.8958,25.1934],[99.9198,25.203],[99.8995,25.2168],[99.8875,25.1989],[99.8684,25.2056],[99.8777,25.2135],[99.8495,25.2284],[99.8811,25.2573],[99.8885,25.278],[99.8869,25.297],[99.8701,25.3076],[99.8625,25.3067],[99.8556,25.3192],[99.8793,25.3213],[99.8778,25.3351],[99.853,25.3341],[99.8356,25.3407],[99.8253,25.3534],[99.822,25.3706],[99.8285,25.3796],[99.8099,25.4012],[99.8033,25.4139],[99.8145,25.4228],[99.8184,25.4499],[99.8161,25.4592],[99.8001,25.4635],[99.7876,25.4729],[99.7906,25.4803],[99.7809,25.5096],[99.7712,25.5233],[99.7626,25.5282],[99.7658,25.5507],[99.7784,25.5663],[99.7919,25.5772],[99.7966,25.5948],[99.7911,25.6012],[99.7749,25.6061],[99.7698,25.6188],[99.7546,25.6166],[99.7263,25.5916],[99.7152,25.5922],[99.7012,25.581],[99.6818,25.5754],[99.6753,25.5695],[99.6534,25.5826],[99.6357,25.5868],[99.6149,25.5994],[99.6116,25.6079],[99.6312,25.6306],[99.6326,25.647]]]},"properties":{"region_code":"CN-53-5329-532928","parent_region_code":"CN-53-5329","name":"永平县","level":"county","has_children":false,"full_path":"中国 / 云南省 / 大理白族自治州 / 永平县","source_admin_code":"532928","osm_relation_id":2727743}},
{"type":"Feature","geometry":{"type":"Polygon","coordinates":[[[99.7231,25.7283],[99.7234,25.7442],[99.7392,25.7531],[99.7536,25.7487],[99.7515,25.7633],[99.7589,25.7645],[99.7569,25.7926],[99.7659,25.8082],[99.7502,25.8152],[99.7382,25.823],[99.7215,25.8157],[99.7058,25.8175],[99.7009,25.8072],[99.6834,25.8104],[99.6627,25.8298],[99.6561,25.8246],[99.6434,25.8337],[99.6352,25.833],[99.624,25.844],[99.6181,25.8577],[99.6286,25.8685],[99.6167,25.9037],[99.5941,25.9236],[99.5908,25.9323],[99.5701,25.954],[99.5524,25.9875],[99.5527,26.0094],[99.549,26.0256],[99.5379,26.0408],[99.5353,26.0551],[99.5401,26.0602],[99.5411,26.0779],[99.5567,26.0841],[99.5713,26.1124],[99.5844,26.1235],[99.593,26.1405],[99.5912,26.164],[99.6026,26.1799],[99.6025,26.1981],[99.5971,26.2089],[99.5852,26.1955],[99.5757,26.1914],[99.5573,26.1987],[99.5418,26.1997],[99.5308,26.1927],[99.5145,26.2021],[99.5078,26.2137],[99.4698,26.2318],[99.4782,26.2428],[99.493,26.2768],[99.4945,26.2964],[99.5039,26.3071],[99.4906,26.3156],[99.4909,26.3306],[99.4686,26.3812],[99.4566,26.3777],[99.4483,26.3632],[99.4367,26.3591],[99.4285,26.3465],[99.3869,26.3527],[99.3728,26.3334],[99.3415,26.3224],[99.3201,26.3209],[99.3167,26.3081],[99.304,26.2935],[99.2996,26.2747],[99.3075,26.2677],[99.3243,26.2621],[99.3198,26.2527],[99.293,26.2376],[99.2685,26.2372],[99.2554,26.2267],[99.2412,26.2298],[99.2372,26.2178],[99.228,26.2105],[99.2008,26.1981],[99.1936,26.1859],[99.1836,26.1831],[99.1741,26.1697],[99.1573,26.1631],[99.1687,26.1489],[99.1694,26.1368],[99.1794,26.1272],[99.2029,26.1208],[99.197,26.1099],[99.1879,26.1109],[99.1794,26.1215],[99.1515,26.1303],[99.1326,26.1398],[99.12,26.1327],[99.0989,26.1356],[99.1022,26.1535],[99.0703,26.1549],[99.0457,26.1608],[99.0268,26.1473],[99.0272,26.1374],[99.0149,26.1289],[99.0042,26.114],[99.0024,26.0945],[99.0065,26.0893],[98.9986,26.0761],[99.0006,26.0499],[99.0097,26.0368],[99.0103,26.0177],[99.0011,26.0093],[99.0049,25.9969],[99.0079,25.9652],[99.0334,25.9624],[99.0583,25.9715],[99.069,25.9467],[99.0767,25.9399],[99.0884,25.9189],[99.095,25.8848],[99.1023,25.8764],[99.1057,25.8619],[99.1227,25.824],[99.1262,25.8061],[99.1364,25.791],[99.1254,25.786],[99.0979,25.7913],[99.0691,25.7804],[99.0625,25.7895],[99.0577,25.8193],[99.0422,25.8149],[99.0256,25.8224],[99.0299,25.8015],[99.0176,25.7883],[99.0291,25.7714],[99.0449,25.7603],[99.0508,25.7456],[99.0359,25.7429],[99.0244,25.7358],[98.9998,25.7291],[98.9775,25.7343],[98.9425,25.7595],[98.911,25.7619],[98.9044,25.7855],[98.8877,25.7798],[98.8741,25.7808],[98.8634,25.7646],[98.8729,25.7457],[98.888,25.7428],[98.8836,25.7309],[98.8751,25.7263],[98.8793,25.7124],[98.8724,25.6925],[98.882,25.6808],[98.8807,25.6668],[98.8914,25.6546],[98.8903,25.6352],[98.9142,25.6298],[98.9249,25.6386],[98.9542,25.6417],[98.996,25.632],[99.0087,25.6332],[99.0099,25.6231],[99.0032,25.611],[99.0084,25.5977],[99.0009,25.5906],[99.001,25.5634],[99.0055,25.5597],[99.0441,25.5642],[99.0536,25.5698],[99.064,25.548],[99.0756,25.5378],[99.0783,25.5251],[99.0659,25.5149],[99.0651,25.5006],[99.0769,25.4877],[99.0862,25.4701],[99.1224,25.478],[99.1455,25.496],[99.1601,25.5014],[99.1523,25.5221],[99.1704,25.5259],[99.1878,25.5174],[99.199,25.5269],[99.2128,25.5309],[99.217,25.5435],[99.2418,25.5483],[99.2557,25.5467],[99.2741,25.5395],[99.2852,25.5262],[99.3119,25.5172],[99.3278,25.519],[99.3266,25.5252],[99.3452,25.5473],[99.3521,25.5643],[99.3483,25.5782],[99.3578,25.5827],[99.3726,25.5745],[99.3886,25.5722],[99.4055,25.584],[99.4123,25.5981],[99.4282,25.5926],[99.4338,25.6016],[99.4286,25.6122],[99.4149,25.6255],[99.422,25.6361],[99.4329,25.6298],[99.4495,25.6346],[99.433,25.656],[99.4354,25.6695],[99.424,25.6804],[99.4236,25.6885],[99.4381,25.6903],[99.445,25.6753],[99.4634,25.6719],[99.461,25.6926],[99.4735,25.7032],[99.4657,25.7149],[99.4468,25.7281],[99.4425,25.74],[99.4489,25.7457],[99.4759,25.7306],[99.5159,25.7198],[99.5341,25.7232],[99.5359,25.7059],[99.5456,25.6938],[99.566,25.6896],[99.5675,25.6748],[99.5821,25.6693],[99.5836,25.6553],[99.5995,25.6569],[99.6326,25.647],[99.6588,25.6538],[99.637,25.6823],[99.6291,25.6877],[99.6313,25.7109],[99.643,25.718],[99.6627,25.7183],[99.6708,25.7302],[99.6854,25.7218],[99.6988,25.7283],[99.7231,25.7283]]]},"properties":{"region_code":"CN-53-5329-532929","parent_region_code":"CN-53-5329","name":"云龙县","level":"county","has_children":false,"full_path":"中国 / 云南省 / 大理白族自治州 / 云龙县","source_admin_code":"532929","osm_relation_id":2727744}},
{"type":"Feature","geometry":{"type":"MultiPolygon","coordinates":[[[[99.7536,25.7487],[99.7392,25.7531],[99.7234,25.7442],[99.7231,25.7283],[99.7306,25.7197],[99.7388,25.7275],[99.7539,25.7241],[99.7657,25.7355],[99.7716,25.7534],[99.7612,25.7556],[99.7536,25.7487]]],[[[100.179,26.0752],[100.1796,26.0914],[100.1954,26.1091],[100.1962,26.1227],[100.1809,26.1333],[100.1716,26.1337],[100.1576,26.1476],[100.1461,26.1452],[100.1176,26.1541],[100.1038,26.1539],[100.1025,26.1779],[100.0968,26.1821],[100.1003,26.1988],[100.0962,26.2077],[100.1049,26.2186],[100.1038,26.2377],[100.1116,26.2426],[100.1137,26.2566],[100.1033,26.2591],[100.1031,26.2771],[100.0949,26.2818],[100.1003,26.2937],[100.0992,26.3159],[100.0884,26.3296],[100.1053,26.3545],[100.0997,26.3843],[100.0906,26.3953],[100.0996,26.417],[100.0975,26.4318],[100.0747,26.425],[100.0724,26.4302],[100.0531,26.4313],[100.0224,26.4099],[100.0097,26.3962],[100.0077,26.3753],[99.9727,26.3544],[99.9663,26.3654],[99.9527,26.3562],[99.9373,26.3541],[99.9345,26.3447],[99.9223,26.3376],[99.9346,26.3169],[99.9334,26.3017],[99.923,26.2894],[99.9039,26.2854],[99.9056,26.2656],[99.8988,26.2607],[99.8691,26.2554],[99.8386,26.2529],[99.8286,26.2293],[99.8197,26.2228],[99.8155,26.2065],[99.7945,26.2153],[99.7665,26.2383],[99.7474,26.2407],[99.7301,26.2269],[99.7182,26.2305],[99.6694,26.2245],[99.6521,26.2194],[99.6218,26.2148],[99.6118,26.2271],[99.6029,26.2287],[99.5971,26.2089],[99.6025,26.1981],[99.6026,26.1799],[99.5912,26.164],[99.593,26.1405],[99.5844,26.1235],[99.5713,26.1124],[99.5567,26.0841],[99.5411,26.0779],[99.5401,26.0602],[99.5353,26.0551],[99.5379,26.0408],[99.549,26.0256],[99.5527,26.0094],[99.5524,25.9875],[99.5701,25.954],[99.5908,25.9323],[99.5941,25.9236],[99.6167,25.9037],[99.6286,25.8685],[99.6181,25.8577],[99.624,25.844],[99.6352,25.833],[99.6434,25.8337],[99.6561,25.8246],[99.6627,25.8298],[99.6834,25.8104],[99.7009,25.8072],[99.7058,25.8175],[99.7215,25.8157],[99.7382,25.823],[99.7502,25.8152],[99.7542,25.8252],[99.7749,25.8424],[99.7738,25.8536],[99.7848,25.8612],[99.7914,25.8844],[99.8029,25.8946],[99.8242,25.9057],[99.8296,25.9046],[99.8564,25.8843],[99.8697,25.8781],[99.8743,25.8626],[99.8868,25.8494],[99.8913,25.8271],[99.9062,25.8239],[99.9092,25.8364],[99.9205,25.8376],[99.939,25.857],[99.9459,25.8707],[99.9441,25.881],[99.9694,25.8919],[99.9784,25.8691],[99.9967,25.8774],[100.005,25.8989],[99.9994,25.9113],[100.0102,25.9295],[100.024,25.9325],[100.0366,25.9258],[100.0484,25.9455],[100.0611,25.9526],[100.0795,25.9537],[100.0938,25.965],[100.1035,25.9672],[100.1,25.9908],[100.1351,26.0023],[100.1489,26.0088],[100.1529,26.0195],[100.1417,26.0214],[100.1361,26.0305],[100.1459,26.0363],[100.1455,26.0498],[100.1514,26.0713],[100.1704,26.0783],[100.179,26.0752]]]]},"properties":{"region_code":"CN-53-5329-532930","parent_region_code":"CN-53-5329","name":"洱源县","level":"county","has_children":false,"full_path":"中国 / 云南省 / 大理白族自治州 / 洱源县","source_admin_code":"532930","osm_relation_id":2727735}},
{"type":"Feature","geometry":{"type":"Polygon","coordinates":[[[99.5971,26.2089],[99.6029,26.2287],[99.6118,26.2271],[99.6218,26.2148],[99.6521,26.2194],[99.6694,26.2245],[99.7182,26.2305],[99.7301,26.2269],[99.7474,26.2407],[99.7665,26.2383],[99.7945,26.2153],[99.8155,26.2065],[99.8197,26.2228],[99.8286,26.2293],[99.8386,26.2529],[99.8691,26.2554],[99.8988,26.2607],[99.9056,26.2656],[99.9039,26.2854],[99.923,26.2894],[99.9334,26.3017],[99.9346,26.3169],[99.9223,26.3376],[99.9345,26.3447],[99.9373,26.3541],[99.9527,26.3562],[99.9663,26.3654],[99.9727,26.3544],[100.0077,26.3753],[100.0097,26.3962],[100.0224,26.4099],[100.0531,26.4313],[100.055,26.4423],[100.0417,26.4601],[100.0304,26.4634],[100.033,26.4731],[100.0482,26.4996],[100.0483,26.5183],[100.0416,26.5456],[100.051,26.5763],[100.0386,26.5842],[100.0389,26.5962],[100.0341,26.5904],[100.015,26.5863],[99.9916,26.5991],[99.9729,26.6039],[99.959,26.6125],[99.946,26.614],[99.9374,26.6283],[99.913,26.6449],[99.8932,26.6475],[99.8943,26.6238],[99.8647,26.6256],[99.8264,26.6246],[99.8172,26.6356],[99.7888,26.6476],[99.7751,26.6466],[99.7499,26.6375],[99.7263,26.6234],[99.7121,26.6232],[99.702,26.6286],[99.6928,26.6424],[99.6899,26.6609],[99.6626,26.6792],[99.6447,26.6818],[99.6273,26.6718],[99.6212,26.6336],[99.6133,26.6243],[99.5939,26.6275],[99.5729,26.6133],[99.5503,26.6052],[99.5386,26.5975],[99.5127,26.588],[99.4903,26.5752],[99.4893,26.5618],[99.4996,26.5481],[99.5036,26.5186],[99.5033,26.5022],[99.4981,26.4795],[99.51,26.4735],[99.52,26.4523],[99.5112,26.4293],[99.5038,26.4269],[99.4837,26.4047],[99.4797,26.3926],[99.4686,26.3812],[99.4909,26.3306],[99.4906,26.3156],[99.5039,26.3071],[99.4945,26.2964],[99.493,26.2768],[99.4782,26.2428],[99.4698,26.2318],[99.5078,26.2137],[99.5145,26.2021],[99.5308,26.1927],[99.5418,26.1997],[99.5573,26.1987],[99.5757,26.1914],[99.5852,26.1955],[99.5971,26.2089]]]},"properties":{"region_code":"CN-53-5329-532931","parent_region_code":"CN-53-5329","name":"剑川县","level":"county","has_children":false,"full_path":"中国 / 云南省 / 大理白族自治州 / 剑川县","source_admin_code":"532931","osm_relation_id":2727737}},
{"type":"Feature","geometry":{"type":"Polygon","coordinates":[[[100.3513,25.9777],[100.3728,25.9739],[100.3856,25.9758],[100.4029,25.9671],[100.4184,25.9636],[100.447,25.9526],[100.4611,25.9579],[100.4712,25.9672],[100.4725,25.9921],[100.48,25.9951],[100.4917,26.0169],[100.4819,26.0447],[100.4855,26.0659],[100.4761,26.0834],[100.4822,26.096],[100.4793,26.1103],[100.4917,26.1154],[100.4819,26.1351],[100.4724,26.1403],[100.4568,26.1319],[100.4377,26.1336],[100.423,26.1444],[100.4215,26.1587],[100.4125,26.1758],[100.419,26.1877],[100.4435,26.2044],[100.431,26.2183],[100.4355,26.2312],[100.427,26.2358],[100.4191,26.2493],[100.4117,26.2724],[100.4082,26.2954],[100.3942,26.3039],[100.4024,26.3161],[100.4167,26.3205],[100.4228,26.3164],[100.4367,26.3456],[100.4321,26.3649],[100.4455,26.3745],[100.4461,26.3903],[100.4512,26.4013],[100.4933,26.3972],[100.4948,26.4158],[100.4611,26.4308],[100.4447,26.4238],[100.439,26.436],[100.4421,26.4451],[100.4306,26.4561],[100.4266,26.4776],[100.4336,26.4864],[100.4609,26.4873],[100.4693,26.4953],[100.4574,26.5058],[100.4413,26.5098],[100.4483,26.5178],[100.4543,26.5353],[100.438,26.5428],[100.415,26.5369],[100.403,26.5586],[100.3942,26.5656],[100.3777,26.5708],[100.3593,26.5685],[100.3575,26.5772],[100.3707,26.5945],[100.3654,26.6081],[100.3541,26.6139],[100.3487,26.5975],[100.3364,26.6021],[100.3426,26.626],[100.3292,26.6314],[100.3048,26.6278],[100.2947,26.6357],[100.2957,26.656],[100.2733,26.6532],[100.2632,26.6458],[100.2416,26.6444],[100.2381,26.6599],[100.241,26.6699],[100.2409,26.7002],[100.2209,26.6914],[100.213,26.6963],[100.196,26.6878],[100.1802,26.6571],[100.1554,26.6185],[100.1326,26.6062],[100.1086,26.6173],[100.0932,26.618],[100.0798,26.6421],[100.0539,26.6445],[100.0491,26.6234],[100.053,26.6118],[100.0502,26.596],[100.0389,26.5962],[100.0386,26.5842],[100.051,26.5763],[100.0416,26.5456],[100.0483,26.5183],[100.0482,26.4996],[100.033,26.4731],[100.0304,26.4634],[100.0417,26.4601],[100.055,26.4423],[100.0531,26.4313],[100.0724,26.4302],[100.0747,26.425],[100.0975,26.4318],[100.0996,26.417],[100.0906,26.3953],[100.0997,26.3843],[100.1053,26.3545],[100.0884,26.3296],[100.0992,26.3159],[100.1003,26.2937],[100.0949,26.2818],[100.1031,26.2771],[100.1033,26.2591],[100.1137,26.2566],[100.1116,26.2426],[100.1038,26.2377],[100.1049,26.2186],[100.0962,26.2077],[100.1003,26.1988],[100.0968,26.1821],[100.1025,26.1779],[100.1038,26.1539],[100.1176,26.1541],[100.1461,26.1452],[100.1576,26.1476],[100.1716,26.1337],[100.1809,26.1333],[100.1962,26.1227],[100.1954,26.1091],[100.1796,26.0914],[100.179,26.0752],[100.1896,26.0619],[100.1929,26.0493],[100.2066,26.0407],[100.2026,26.0224],[100.2145,26.02],[100.2342,26.0244],[100.2811,26.0278],[100.3068,26.0406],[100.3351,26.0326],[100.3359,26.0108],[100.3513,25.9777]]]},"properties":{"region_code":"CN-53-5329-532932","parent_region_code":"CN-53-5329","name":"鹤庆县","level":"county","has_children":false,"full_path":"中国 / 云南省 / 大理白族自治州 / 鹤庆县","source_admin_code":"532932","osm_relation_id":2727736}}
]}