{"type":"FeatureCollection", "features": [
{"type":"Feature","geometry":{"type":"Polygon","coordinates":[[[106.083,30.7665],[106.0983,30.7711],[106.089,30.7821],[106.0941,30.7961],[106.1028,30.8035],[106.1166,30.8016],[106.126,30.8207],[106.1236,30.8429],[106.1453,30.8593],[106.148,30.8697],[106.1745,30.8739],[106.1728,30.8861],[106.1803,30.9076],[106.1799,30.9258],[106.1861,30.9498],[106.2123,30.9647],[106.2255,30.9648],[106.2345,30.9481],[106.2497,30.9476],[106.2656,30.9571],[106.2787,30.9746],[106.2586,30.9959],[106.2506,30.9875],[106.238,30.993],[106.214,30.9835],[106.194,30.9884],[106.201,31.0054],[106.203,31.0301],[106.1846,31.0535],[106.1748,31.0558],[106.1756,31.0731],[106.166,31.0757],[106.168,31.0907],[106.1512,31.0946],[106.1504,31.1067],[106.1294,31.1108],[106.1276,31.0871],[106.1104,31.0869],[106.0871,31.1031],[106.0793,31.1029],[106.0725,31.0923],[106.0593,31.0914],[106.0662,31.0759],[106.0541,31.0665],[106.0555,31.0562],[106.0361,31.0395],[106.0371,31.0271],[106.0278,31.0074],[106.0113,30.9902],[106.0186,30.9682],[106.0112,30.9542],[106.002,30.9544],[105.9693,30.9383],[105.9606,30.9294],[105.967,30.919],[105.9578,30.9002],[105.9475,30.8951],[105.9722,30.8821],[105.9787,30.8705],[105.9966,30.8606],[105.9975,30.8504],[106.0085,30.8394],[106.0168,30.8453],[106.0253,30.8298],[106.0364,30.7938],[106.0695,30.7788],[106.083,30.7665]]]},"properties":{"region_code":"CN-51-5113-511302","parent_region_code":"CN-51-5113","name":"顺庆区","level":"county","has_children":false,"full_path":"中国 / 四川省 / 南充市 / 顺庆区","source_admin_code":"511302","osm_relation_id":2787933}},
{"type":"Feature","geometry":{"type":"Polygon","coordinates":[[[106.083,30.7665],[106.0718,30.7464],[106.0743,30.7352],[106.1027,30.7319],[106.1153,30.7053],[106.0869,30.7098],[106.0675,30.7028],[106.0484,30.6796],[106.0537,30.6582],[106.0754,30.6558],[106.1011,30.6753],[106.1144,30.6486],[106.1151,30.6241],[106.0979,30.5994],[106.111,30.5806],[106.1365,30.5724],[106.1495,30.5851],[106.1538,30.6004],[106.1657,30.6051],[106.1833,30.6012],[106.1885,30.6153],[106.1759,30.6211],[106.1749,30.6364],[106.163,30.6497],[106.1741,30.6536],[106.2141,30.6816],[106.234,30.7001],[106.2332,30.7101],[106.2137,30.7072],[106.2075,30.7236],[106.2261,30.7254],[106.2409,30.7208],[106.254,30.7241],[106.283,30.7077],[106.2966,30.6887],[106.3107,30.6914],[106.3102,30.7003],[106.3236,30.7103],[106.3505,30.7245],[106.362,30.7169],[106.3559,30.7062],[106.385,30.6822],[106.3984,30.6975],[106.419,30.6956],[106.4167,30.7106],[106.4262,30.7252],[106.437,30.7295],[106.444,30.7557],[106.4625,30.7633],[106.4836,30.7904],[106.4776,30.7977],[106.4501,30.8038],[106.439,30.8139],[106.4266,30.8169],[106.4103,30.8137],[106.4083,30.8259],[106.3857,30.8338],[106.3855,30.8418],[106.3756,30.8587],[106.3672,30.8606],[106.3466,30.8833],[106.3272,30.8853],[106.3125,30.883],[106.2972,30.8895],[106.3116,30.9027],[106.3307,30.9069],[106.3299,30.9136],[106.3114,30.9249],[106.3105,30.939],[106.3018,30.944],[106.3038,30.9564],[106.2981,30.9638],[106.2787,30.9746],[106.2656,30.9571],[106.2497,30.9476],[106.2345,30.9481],[106.2255,30.9648],[106.2123,30.9647],[106.1861,30.9498],[106.1799,30.9258],[106.1803,30.9076],[106.1728,30.8861],[106.1745,30.8739],[106.148,30.8697],[106.1453,30.8593],[106.1236,30.8429],[106.126,30.8207],[106.1166,30.8016],[106.1028,30.8035],[106.0941,30.7961],[106.089,30.7821],[106.0983,30.7711],[106.083,30.7665]]]},"properties":{"region_code":"CN-51-5113-511303","parent_region_code":"CN-51-5113","name":"高坪区","level":"county","has_children":false,"full_path":"中国 / 四川省 / 南充市 / 高坪区","source_admin_code":"511303","osm_relation_id":2787928}},
{"type":"Feature","geometry":{"type":"Polygon","coordinates":[[[105.9475,30.8951],[105.9373,30.8894],[105.9315,30.8757],[105.9071,30.8928],[105.8925,30.9102],[105.8794,30.8995],[105.8655,30.9],[105.852,30.9126],[105.8228,30.9209],[105.8015,30.9242],[105.7786,30.9204],[105.7767,30.911],[105.7577,30.8982],[105.7395,30.8922],[105.7412,30.8816],[105.7268,30.8793],[105.7383,30.8595],[105.7477,30.8631],[105.7521,30.8453],[105.7806,30.8263],[105.7808,30.8119],[105.7921,30.8094],[105.7901,30.7986],[105.7786,30.7876],[105.7893,30.7625],[105.7788,30.7558],[105.792,30.7365],[105.789,30.7139],[105.7995,30.6991],[105.7951,30.6891],[105.7989,30.6732],[105.8102,30.654],[105.8037,30.6415],[105.8054,30.628],[105.82,30.6218],[105.8202,30.6057],[105.8363,30.582],[105.8484,30.5785],[105.8528,30.5667],[105.8677,30.5649],[105.874,30.5502],[105.8614,30.5268],[105.8592,30.5152],[105.8474,30.5114],[105.8411,30.5007],[105.8471,30.4909],[105.8573,30.4885],[105.8639,30.4999],[105.8806,30.499],[105.8844,30.4797],[105.8717,30.4708],[105.9033,30.4619],[105.9222,30.4746],[105.9193,30.4824],[105.9344,30.4863],[105.9426,30.498],[105.923,30.4972],[105.9123,30.5118],[105.9304,30.5195],[105.9352,30.511],[105.952,30.5158],[105.9706,30.4818],[105.979,30.4913],[105.9929,30.4886],[106.0025,30.4939],[106.0216,30.4846],[106.0293,30.498],[106.0246,30.5087],[106.0348,30.5206],[106.0508,30.5116],[106.0701,30.4929],[106.09,30.5063],[106.1109,30.5082],[106.1192,30.5469],[106.1272,30.5525],[106.1365,30.5724],[106.111,30.5806],[106.0979,30.5994],[106.1151,30.6241],[106.1144,30.6486],[106.1011,30.6753],[106.0754,30.6558],[106.0537,30.6582],[106.0484,30.6796],[106.0675,30.7028],[106.0869,30.7098],[106.1153,30.7053],[106.1027,30.7319],[106.0743,30.7352],[106.0718,30.7464],[106.083,30.7665],[106.0695,30.7788],[106.0364,30.7938],[106.0253,30.8298],[106.0168,30.8453],[106.0085,30.8394],[105.9975,30.8504],[105.9966,30.8606],[105.9787,30.8705],[105.9722,30.8821],[105.9475,30.8951]]]},"properties":{"region_code":"CN-51-5113-511304","parent_region_code":"CN-51-5113","name":"嘉陵区","level":"county","has_children":false,"full_path":"中国 / 四川省 / 南充市 / 嘉陵区","source_admin_code":"511304","osm_relation_id":2787929}},
{"type":"Feature","geometry":{"type":"Polygon","coordinates":[[[106.1756,31.0731],[106.1844,31.08],[106.1686,31.0949],[106.1709,31.1081],[106.1938,31.1151],[106.1979,31.1081],[106.2152,31.1156],[106.2171,31.1287],[106.2363,31.135],[106.2306,31.1477],[106.256,31.1575],[106.2633,31.1793],[106.2613,31.1903],[106.2723,31.1961],[106.2616,31.2178],[106.2483,31.2108],[106.2255,31.2162],[106.2208,31.2334],[106.2326,31.2463],[106.2244,31.2661],[106.2085,31.2695],[106.2007,31.2789],[106.206,31.292],[106.1939,31.3037],[106.2079,31.3199],[106.2151,31.312],[106.2418,31.3084],[106.2488,31.3369],[106.2457,31.347],[106.2501,31.3693],[106.2754,31.3824],[106.3065,31.3851],[106.3062,31.3653],[106.2945,31.3469],[106.2964,31.3316],[106.3238,31.3293],[106.3581,31.3319],[106.3735,31.3404],[106.3813,31.3581],[106.3763,31.3669],[106.3497,31.38],[106.3573,31.4011],[106.3342,31.4216],[106.3244,31.425],[106.3151,31.4424],[106.2996,31.4495],[106.2988,31.4621],[106.2843,31.4607],[106.284,31.4525],[106.2648,31.437],[106.2607,31.4268],[106.2432,31.4345],[106.2243,31.4203],[106.2061,31.4206],[106.1915,31.428],[106.1769,31.4235],[106.1545,31.4227],[106.1515,31.4312],[106.1268,31.4331],[106.1233,31.423],[106.0934,31.4085],[106.0622,31.4018],[106.0405,31.4015],[106.0343,31.4237],[106.0183,31.4168],[105.9884,31.4305],[105.9786,31.4147],[105.9553,31.4128],[105.9467,31.4022],[105.9453,31.3773],[105.934,31.3697],[105.9119,31.3657],[105.8944,31.3784],[105.8872,31.3894],[105.8848,31.4054],[105.8725,31.4131],[105.8654,31.4042],[105.8559,31.4228],[105.8331,31.4218],[105.8223,31.4292],[105.8397,31.4408],[105.8243,31.4517],[105.8077,31.45],[105.7974,31.4541],[105.8059,31.4737],[105.7974,31.5105],[105.8042,31.5224],[105.8149,31.5192],[105.8279,31.5306],[105.8227,31.5517],[105.8082,31.5652],[105.8001,31.5567],[105.7903,31.5611],[105.78,31.5486],[105.7679,31.5499],[105.7629,31.5589],[105.7514,31.5567],[105.7308,31.56],[105.7027,31.5847],[105.6899,31.5858],[105.6855,31.5998],[105.6781,31.6111],[105.6577,31.6014],[105.6426,31.6085],[105.6294,31.6031],[105.6355,31.5899],[105.6193,31.5871],[105.6189,31.5699],[105.6139,31.5565],[105.6037,31.5552],[105.596,31.5831],[105.5786,31.5803],[105.5757,31.5685],[105.559,31.5703],[105.5477,31.5639],[105.5331,31.5649],[105.5283,31.5757],[105.5058,31.5822],[105.4988,31.5678],[105.4839,31.5524],[105.4688,31.5424],[105.4668,31.5336],[105.4541,31.5268],[105.4585,31.5004],[105.439,31.4841],[105.4544,31.477],[105.4618,31.485],[105.4762,31.4846],[105.484,31.4699],[105.497,31.4598],[105.4951,31.4515],[105.4803,31.4399],[105.4766,31.4277],[105.496,31.4046],[105.5213,31.3937],[105.5367,31.3969],[105.5502,31.4047],[105.5665,31.3997],[105.5694,31.384],[105.588,31.3986],[105.6088,31.399],[105.6226,31.4074],[105.6281,31.3981],[105.6392,31.397],[105.6412,31.3806],[105.6289,31.3643],[105.6258,31.3484],[105.6006,31.3393],[105.6054,31.3273],[105.5895,31.3044],[105.5908,31.2943],[105.6123,31.2981],[105.6347,31.2854],[105.6438,31.2599],[105.6711,31.2583],[105.6745,31.2526],[105.6927,31.2463],[105.708,31.2553],[105.7202,31.2531],[105.7386,31.2582],[105.7459,31.234],[105.7601,31.2397],[105.7877,31.2334],[105.7913,31.2218],[105.8091,31.2236],[105.8204,31.2174],[105.8226,31.1949],[105.8163,31.1891],[105.8404,31.1795],[105.8535,31.1884],[105.8669,31.1829],[105.8919,31.1837],[105.9098,31.193],[105.9228,31.1872],[105.9323,31.191],[105.931,31.202],[105.9487,31.2129],[105.9644,31.2056],[105.9717,31.2123],[105.9945,31.198],[106.0035,31.1983],[106.0156,31.187],[106.0132,31.1525],[106.0027,31.1454],[106.0121,31.1369],[106.0392,31.1303],[106.0342,31.1191],[106.0793,31.1029],[106.0871,31.1031],[106.1104,31.0869],[106.1276,31.0871],[106.1294,31.1108],[106.1504,31.1067],[106.1512,31.0946],[106.168,31.0907],[106.166,31.0757],[106.1756,31.0731]]]},"properties":{"region_code":"CN-51-5113-511321","parent_region_code":"CN-51-5113","name":"南部县","level":"county","has_children":false,"full_path":"中国 / 四川省 / 南充市 / 南部县","source_admin_code":"511321","osm_relation_id":2787931}},
{"type":"Feature","geometry":{"type":"Polygon","coordinates":[[[106.8613,31.4026],[106.839,31.4032],[106.8245,31.3873],[106.8085,31.3845],[106.8026,31.3759],[106.7842,31.3873],[106.7475,31.3724],[106.7526,31.3614],[106.7696,31.3493],[106.7665,31.3339],[106.7585,31.3222],[106.7411,31.3318],[106.7418,31.3151],[106.7128,31.2959],[106.6971,31.2961],[106.6828,31.2895],[106.6599,31.3008],[106.645,31.2919],[106.6175,31.2918],[106.5974,31.2807],[106.5743,31.2627],[106.5554,31.2624],[106.5274,31.2874],[106.5145,31.267],[106.5065,31.2655],[106.5092,31.2476],[106.5054,31.2302],[106.4908,31.2237],[106.4812,31.2131],[106.486,31.2011],[106.4665,31.1899],[106.446,31.1916],[106.4359,31.1781],[106.4347,31.1602],[106.4272,31.1446],[106.4474,31.131],[106.4516,31.1156],[106.4762,31.0947],[106.4523,31.0912],[106.4431,31.0719],[106.4587,31.0672],[106.457,31.0589],[106.471,31.0448],[106.4732,31.0264],[106.4954,31.014],[106.5171,31.0209],[106.5271,31.0145],[106.5613,31.0185],[106.5568,31.007],[106.5715,31.0038],[106.5828,30.9858],[106.5664,30.9623],[106.5807,30.9425],[106.5887,30.9239],[106.6063,30.9296],[106.6168,30.9127],[106.6288,30.9088],[106.6469,30.9189],[106.6631,30.9175],[106.674,30.9244],[106.7027,30.9183],[106.7187,30.9487],[106.7363,30.9541],[106.7358,30.9769],[106.7585,30.9754],[106.7667,30.9711],[106.7811,30.9757],[106.7818,30.9968],[106.8074,31.0034],[106.8153,31.0143],[106.8188,31.0343],[106.8292,31.0482],[106.8358,31.0645],[106.8554,31.0735],[106.8684,31.0852],[106.8905,31.0904],[106.9053,31.1101],[106.9258,31.1128],[106.9308,31.1218],[106.9269,31.1349],[106.9399,31.1471],[106.9479,31.1663],[106.9325,31.1767],[106.9379,31.2105],[106.9611,31.2421],[106.9587,31.2568],[106.939,31.272],[106.9607,31.2946],[106.9398,31.2914],[106.9302,31.3117],[106.9447,31.3395],[106.9279,31.3473],[106.9266,31.3573],[106.9135,31.3796],[106.8825,31.3942],[106.8711,31.3924],[106.8613,31.4026]]]},"properties":{"region_code":"CN-51-5113-511322","parent_region_code":"CN-51-5113","name":"营山县","level":"county","has_children":false,"full_path":"中国 / 四川省 / 南充市 / 营山县","source_admin_code":"511322","osm_relation_id":2787936}},
{"type":"Feature","geometry":{"type":"Polygon","coordinates":[[[106.2787,30.9746],[106.2981,30.9638],[106.3038,30.9564],[106.3018,30.944],[106.3105,30.939],[106.3114,30.9249],[106.3299,30.9136],[106.3307,30.9069],[106.3116,30.9027],[106.2972,30.8895],[106.3125,30.883],[106.3272,30.8853],[106.3466,30.8833],[106.3672,30.8606],[106.3756,30.8587],[106.3855,30.8418],[106.3857,30.8338],[106.4083,30.8259],[106.4103,30.8137],[106.4266,30.8169],[106.439,30.8139],[106.4501,30.8038],[106.4776,30.7977],[106.4836,30.7904],[106.5014,30.7817],[106.5036,30.7625],[106.5248,30.735],[106.537,30.7435],[106.5542,30.7406],[106.561,30.747],[106.582,30.7421],[106.5804,30.7598],[106.6143,30.7691],[106.6227,30.7928],[106.612,30.805],[106.6151,30.8222],[106.6257,30.8237],[106.6449,30.834],[106.6574,30.8312],[106.6655,30.8369],[106.6749,30.8535],[106.6718,30.8665],[106.6857,30.8873],[106.6802,30.8991],[106.6674,30.9075],[106.6631,30.9175],[106.6469,30.9189],[106.6288,30.9088],[106.6168,30.9127],[106.6063,30.9296],[106.5887,30.9239],[106.5807,30.9425],[106.5664,30.9623],[106.5828,30.9858],[106.5715,31.0038],[106.5568,31.007],[106.5613,31.0185],[106.5271,31.0145],[106.5171,31.0209],[106.4954,31.014],[106.4732,31.0264],[106.471,31.0448],[106.457,31.0589],[106.4587,31.0672],[106.4431,31.0719],[106.4523,31.0912],[106.4762,31.0947],[106.4516,31.1156],[106.4474,31.131],[106.4272,31.1446],[106.4347,31.1602],[106.4359,31.1781],[106.446,31.1916],[106.4665,31.1899],[106.486,31.2011],[106.4812,31.2131],[106.4908,31.2237],[106.5054,31.2302],[106.5092,31.2476],[106.5065,31.2655],[106.4894,31.2683],[106.4651,31.2649],[106.4554,31.2711],[106.4373,31.2594],[106.416,31.2777],[106.3845,31.2614],[106.3784,31.249],[106.3516,31.2469],[106.3481,31.2327],[106.3236,31.2244],[106.3043,31.1923],[106.2991,31.2021],[106.3045,31.2202],[106.2861,31.2178],[106.2788,31.2251],[106.2616,31.2178],[106.2723,31.1961],[106.2613,31.1903],[106.2633,31.1793],[106.256,31.1575],[106.2306,31.1477],[106.2363,31.135],[106.2171,31.1287],[106.2152,31.1156],[106.1979,31.1081],[106.1938,31.1151],[106.1709,31.1081],[106.1686,31.0949],[106.1844,31.08],[106.1756,31.0731],[106.1748,31.0558],[106.1846,31.0535],[106.203,31.0301],[106.201,31.0054],[106.194,30.9884],[106.214,30.9835],[106.238,30.993],[106.2506,30.9875],[106.2586,30.9959],[106.2787,30.9746]]]},"properties":{"region_code":"CN-51-5113-511323","parent_region_code":"CN-51-5113","name":"蓬安县","level":"county","has_children":false,"full_path":"中国 / 四川省 / 南充市 / 蓬安县","source_admin_code":"511323","osm_relation_id":2787932}},
{"type":"Feature","geometry":{"type":"Polygon","coordinates":[[[106.2616,31.2178],[106.2788,31.2251],[106.2861,31.2178],[106.3045,31.2202],[106.2991,31.2021],[106.3043,31.1923],[106.3236,31.2244],[106.3481,31.2327],[106.3516,31.2469],[106.3784,31.249],[106.3845,31.2614],[106.416,31.2777],[106.4373,31.2594],[106.4554,31.2711],[106.4651,31.2649],[106.4894,31.2683],[106.5065,31.2655],[106.5145,31.267],[106.5274,31.2874],[106.5554,31.2624],[106.5743,31.2627],[106.5974,31.2807],[106.6175,31.2918],[106.645,31.2919],[106.6599,31.3008],[106.6828,31.2895],[106.6971,31.2961],[106.7128,31.2959],[106.7418,31.3151],[106.7411,31.3318],[106.7585,31.3222],[106.7665,31.3339],[106.7696,31.3493],[106.7526,31.3614],[106.7475,31.3724],[106.7842,31.3873],[106.8026,31.3759],[106.8085,31.3845],[106.8245,31.3873],[106.839,31.4032],[106.8613,31.4026],[106.8798,31.4232],[106.8682,31.4281],[106.8511,31.4528],[106.8425,31.4591],[106.8392,31.4756],[106.8397,31.501],[106.8303,31.5107],[106.8105,31.5187],[106.8108,31.5357],[106.8171,31.5504],[106.7813,31.5336],[106.7677,31.538],[106.7632,31.5577],[106.7662,31.5706],[106.7416,31.5664],[106.7184,31.5656],[106.7151,31.5748],[106.6963,31.5714],[106.6902,31.5628],[106.6676,31.5788],[106.6699,31.5912],[106.6399,31.5907],[106.6299,31.5738],[106.6328,31.5554],[106.6404,31.5424],[106.6225,31.5126],[106.6029,31.5094],[106.5827,31.5177],[106.5691,31.5181],[106.5592,31.5255],[106.5633,31.5447],[106.5535,31.558],[106.5339,31.5733],[106.5139,31.5781],[106.5109,31.5692],[106.4878,31.5697],[106.4798,31.5866],[106.4573,31.5885],[106.4547,31.6254],[106.4469,31.6488],[106.4385,31.6575],[106.4287,31.6546],[106.4031,31.6641],[106.3865,31.6481],[106.3688,31.6564],[106.3596,31.6534],[106.3486,31.6382],[106.3156,31.6422],[106.3006,31.6337],[106.2829,31.6392],[106.2711,31.6281],[106.2476,31.6168],[106.2498,31.6107],[106.2368,31.5992],[106.2478,31.578],[106.271,31.5746],[106.2784,31.5597],[106.2748,31.5504],[106.284,31.5415],[106.2705,31.5328],[106.2634,31.5224],[106.2696,31.5098],[106.2892,31.5012],[106.2919,31.4745],[106.2988,31.4621],[106.2996,31.4495],[106.3151,31.4424],[106.3244,31.425],[106.3342,31.4216],[106.3573,31.4011],[106.3497,31.38],[106.3763,31.3669],[106.3813,31.3581],[106.3735,31.3404],[106.3581,31.3319],[106.3238,31.3293],[106.2964,31.3316],[106.2945,31.3469],[106.3062,31.3653],[106.3065,31.3851],[106.2754,31.3824],[106.2501,31.3693],[106.2457,31.347],[106.2488,31.3369],[106.2418,31.3084],[106.2151,31.312],[106.2079,31.3199],[106.1939,31.3037],[106.206,31.292],[106.2007,31.2789],[106.2085,31.2695],[106.2244,31.2661],[106.2326,31.2463],[106.2208,31.2334],[106.2255,31.2162],[106.2483,31.2108],[106.2616,31.2178]]]},"properties":{"region_code":"CN-51-5113-511324","parent_region_code":"CN-51-5113","name":"仪陇县","level":"county","has_children":false,"full_path":"中国 / 四川省 / 南充市 / 仪陇县","source_admin_code":"511324","osm_relation_id":2787935}},
{"type":"Feature","geometry":{"type":"Polygon","coordinates":[[[106.0793,31.1029],[106.0342,31.1191],[106.0392,31.1303],[106.0121,31.1369],[106.0027,31.1454],[106.0132,31.1525],[106.0156,31.187],[106.0035,31.1983],[105.9945,31.198],[105.9717,31.2123],[105.9644,31.2056],[105.9487,31.2129],[105.931,31.202],[105.9323,31.191],[105.9228,31.1872],[105.9098,31.193],[105.8919,31.1837],[105.8669,31.1829],[105.8535,31.1884],[105.8404,31.1795],[105.8163,31.1891],[105.8226,31.1949],[105.8204,31.2174],[105.8091,31.2236],[105.7913,31.2218],[105.7877,31.2334],[105.7601,31.2397],[105.7459,31.234],[105.7386,31.2582],[105.7202,31.2531],[105.708,31.2553],[105.6927,31.2463],[105.6745,31.2526],[105.6632,31.237],[105.6707,31.2262],[105.6741,31.1997],[105.6681,31.1823],[105.67,31.1742],[105.6957,31.1742],[105.718,31.1519],[105.7203,31.137],[105.7126,31.1319],[105.7181,31.1028],[105.7178,31.0876],[105.708,31.0614],[105.7103,31.0422],[105.7019,31.031],[105.6888,31.0253],[105.6607,31.0222],[105.6588,31.0028],[105.6293,31.0055],[105.6118,30.9948],[105.6154,30.9774],[105.6245,30.9762],[105.64,30.9506],[105.6563,30.9448],[105.6564,30.9205],[105.6852,30.9384],[105.7006,30.9136],[105.7285,30.9081],[105.7395,30.8922],[105.7577,30.8982],[105.7767,30.911],[105.7786,30.9204],[105.8015,30.9242],[105.8228,30.9209],[105.852,30.9126],[105.8655,30.9],[105.8794,30.8995],[105.8925,30.9102],[105.9071,30.8928],[105.9315,30.8757],[105.9373,30.8894],[105.9475,30.8951],[105.9578,30.9002],[105.967,30.919],[105.9606,30.9294],[105.9693,30.9383],[106.002,30.9544],[106.0112,30.9542],[106.0186,30.9682],[106.0113,30.9902],[106.0278,31.0074],[106.0371,31.0271],[106.0361,31.0395],[106.0555,31.0562],[106.0541,31.0665],[106.0662,31.0759],[106.0593,31.0914],[106.0725,31.0923],[106.0793,31.1029]]]},"properties":{"region_code":"CN-51-5113-511325","parent_region_code":"CN-51-5113","name":"西充县","level":"county","has_children":false,"full_path":"中国 / 四川省 / 南充市 / 西充县","source_admin_code":"511325","osm_relation_id":2787934}},
{"type":"Feature","geometry":{"type":"Polygon","coordinates":[[[106.2988,31.4621],[106.2919,31.4745],[106.2892,31.5012],[106.2696,31.5098],[106.2634,31.5224],[106.2705,31.5328],[106.284,31.5415],[106.2748,31.5504],[106.2784,31.5597],[106.271,31.5746],[106.2478,31.578],[106.2368,31.5992],[106.2498,31.6107],[106.2476,31.6168],[106.2711,31.6281],[106.2829,31.6392],[106.3006,31.6337],[106.3156,31.6422],[106.3486,31.6382],[106.3596,31.6534],[106.3688,31.6564],[106.3865,31.6481],[106.4031,31.6641],[106.3958,31.6842],[106.3622,31.6997],[106.3853,31.7324],[106.4012,31.7278],[106.4074,31.7587],[106.4202,31.7594],[106.4024,31.7799],[106.4008,31.7928],[106.3916,31.809],[106.3802,31.8046],[106.3679,31.8342],[106.3559,31.8352],[106.3576,31.8483],[106.3317,31.8515],[106.3197,31.829],[106.3066,31.828],[106.2972,31.814],[106.2878,31.8096],[106.2774,31.8184],[106.2672,31.8148],[106.2711,31.7997],[106.2627,31.777],[106.2467,31.7857],[106.2349,31.7762],[106.2184,31.7785],[106.2111,31.7724],[106.1905,31.788],[106.188,31.8063],[106.1952,31.8207],[106.183,31.8234],[106.1555,31.8135],[106.1163,31.8194],[106.1082,31.7946],[106.119,31.789],[106.1245,31.7692],[106.1087,31.7615],[106.1051,31.744],[106.0945,31.731],[106.0642,31.7104],[106.074,31.6992],[106.0444,31.7001],[106.0285,31.6897],[106.0033,31.6869],[105.9738,31.6647],[105.9545,31.6748],[105.9349,31.6661],[105.9214,31.6671],[105.9174,31.6578],[105.9249,31.6455],[105.9069,31.6282],[105.8944,31.6355],[105.8829,31.6514],[105.8728,31.642],[105.8822,31.6316],[105.8617,31.6171],[105.8414,31.6362],[105.8348,31.6503],[105.8378,31.6599],[105.7929,31.696],[105.7883,31.7069],[105.778,31.7073],[105.7648,31.7376],[105.7456,31.721],[105.7224,31.7289],[105.7202,31.7161],[105.7254,31.7086],[105.7192,31.6979],[105.7177,31.6828],[105.7235,31.6755],[105.7104,31.6554],[105.6954,31.6521],[105.6825,31.6154],[105.6963,31.6075],[105.6855,31.5998],[105.6899,31.5858],[105.7027,31.5847],[105.7308,31.56],[105.7514,31.5567],[105.7629,31.5589],[105.7679,31.5499],[105.78,31.5486],[105.7903,31.5611],[105.8001,31.5567],[105.8082,31.5652],[105.8227,31.5517],[105.8279,31.5306],[105.8149,31.5192],[105.8042,31.5224],[105.7974,31.5105],[105.8059,31.4737],[105.7974,31.4541],[105.8077,31.45],[105.8243,31.4517],[105.8397,31.4408],[105.8223,31.4292],[105.8331,31.4218],[105.8559,31.4228],[105.8654,31.4042],[105.8725,31.4131],[105.8848,31.4054],[105.8872,31.3894],[105.8944,31.3784],[105.9119,31.3657],[105.934,31.3697],[105.9453,31.3773],[105.9467,31.4022],[105.9553,31.4128],[105.9786,31.4147],[105.9884,31.4305],[106.0183,31.4168],[106.0343,31.4237],[106.0405,31.4015],[106.0622,31.4018],[106.0934,31.4085],[106.1233,31.423],[106.1268,31.4331],[106.1515,31.4312],[106.1545,31.4227],[106.1769,31.4235],[106.1915,31.428],[106.2061,31.4206],[106.2243,31.4203],[106.2432,31.4345],[106.2607,31.4268],[106.2648,31.437],[106.284,31.4525],[106.2843,31.4607],[106.2988,31.4621]]]},"properties":{"region_code":"CN-51-5113-511381","parent_region_code":"CN-51-5113","name":"阆中市","level":"county","has_children":false,"full_path":"中国 / 四川省 / 南充市 / 阆中市","source_admin_code":"511381","osm_relation_id":2787930}}
]}