{"type":"FeatureCollection", "features": [
{"type":"Feature","geometry":{"type":"Polygon","coordinates":[[[104.139,30.6204],[104.126,30.621],[104.1223,30.6245],[104.1262,30.6304],[104.1255,30.6372],[104.0859,30.6558],[104.094,30.6673],[104.0872,30.6725],[104.0835,30.6666],[104.0768,30.6697],[104.0729,30.6638],[104.0663,30.6624],[104.0577,30.6494],[104.0761,30.6478],[104.0863,30.6429],[104.0917,30.6328],[104.082,30.626],[104.0821,30.618],[104.0859,30.6091],[104.0792,30.6024],[104.0807,30.5934],[104.0769,30.592],[104.0769,30.5812],[104.0716,30.5759],[104.0732,30.5721],[104.0802,30.5702],[104.101,30.5732],[104.1092,30.5721],[104.1125,30.5673],[104.1083,30.5619],[104.1059,30.5536],[104.1242,30.5503],[104.121,30.5586],[104.1258,30.5661],[104.133,30.5706],[104.1388,30.5705],[104.146,30.5644],[104.1505,30.5652],[104.1622,30.5663],[104.1604,30.5801],[104.1653,30.5855],[104.1656,30.5915],[104.1594,30.5913],[104.1507,30.5998],[104.1559,30.6069],[104.1497,30.6081],[104.1434,30.6128],[104.139,30.6204]]]},"properties":{"region_code":"CN-51-5101-510104","parent_region_code":"CN-51-5101","name":"锦江区","level":"county","has_children":false,"full_path":"中国 / 四川省 / 成都市 / 锦江区","source_admin_code":"510104","osm_relation_id":4734760}},
{"type":"Feature","geometry":{"type":"Polygon","coordinates":[[[104.0872,30.6725],[104.0726,30.6801],[104.0605,30.6849],[104.049,30.6754],[104.0443,30.6655],[104.0319,30.6717],[104.0303,30.6819],[104.0181,30.6862],[104.0123,30.6843],[104.0081,30.6883],[104.0041,30.7013],[103.9952,30.7068],[103.9896,30.7071],[103.984,30.6961],[103.9783,30.6955],[103.971,30.7018],[103.9683,30.7137],[103.9617,30.7145],[103.9529,30.7233],[103.946,30.7232],[103.9414,30.7267],[103.9357,30.7245],[103.9369,30.719],[103.9234,30.7052],[103.915,30.7024],[103.9191,30.6974],[103.9091,30.6897],[103.9034,30.6875],[103.9044,30.6777],[103.9109,30.6732],[103.9188,30.672],[103.921,30.6687],[103.9254,30.6678],[103.9306,30.6616],[103.94,30.663],[103.9478,30.6609],[103.967,30.6648],[103.9715,30.6622],[103.9859,30.6632],[103.9946,30.66],[104.0031,30.662],[104.0036,30.6565],[104.0177,30.6593],[104.0243,30.6534],[104.0518,30.6541],[104.0577,30.6494],[104.0663,30.6624],[104.0729,30.6638],[104.0768,30.6697],[104.0835,30.6666],[104.0872,30.6725]]]},"properties":{"region_code":"CN-51-5101-510105","parent_region_code":"CN-51-5101","name":"青羊区","level":"county","has_children":false,"full_path":"中国 / 四川省 / 成都市 / 青羊区","source_admin_code":"510105","osm_relation_id":4734707}},
{"type":"Feature","geometry":{"type":"Polygon","coordinates":[[[104.0872,30.6725],[104.0924,30.6792],[104.0864,30.6822],[104.0913,30.6963],[104.0904,30.6998],[104.069,30.7007],[104.0682,30.7156],[104.0796,30.7195],[104.0897,30.725],[104.0991,30.7253],[104.0993,30.7344],[104.1074,30.7331],[104.1143,30.7345],[104.1164,30.7407],[104.1251,30.7429],[104.1271,30.7502],[104.137,30.7471],[104.1362,30.7568],[104.1387,30.7621],[104.1359,30.7685],[104.1256,30.7688],[104.1202,30.7649],[104.1168,30.7724],[104.1256,30.7788],[104.1158,30.7893],[104.1077,30.788],[104.0953,30.7983],[104.0851,30.8089],[104.0771,30.8058],[104.0655,30.7972],[104.0575,30.8003],[104.0602,30.7898],[104.0555,30.7864],[104.0632,30.782],[104.0701,30.781],[104.0677,30.7648],[104.0741,30.7635],[104.0779,30.7678],[104.0943,30.7671],[104.0935,30.7581],[104.0754,30.7526],[104.0699,30.7458],[104.0687,30.7407],[104.0612,30.7441],[104.0519,30.7535],[104.0469,30.7543],[104.0403,30.7539],[104.0307,30.7443],[104.0349,30.7397],[104.0304,30.7342],[104.0185,30.7441],[104.019,30.7497],[104.0102,30.751],[104.0145,30.7567],[104.0091,30.761],[103.997,30.758],[103.9937,30.7461],[104.0006,30.7407],[103.9901,30.7287],[103.9813,30.7348],[103.9712,30.7299],[103.978,30.7232],[103.9711,30.7215],[103.9639,30.7259],[103.9529,30.7233],[103.9617,30.7145],[103.9683,30.7137],[103.971,30.7018],[103.9783,30.6955],[103.984,30.6961],[103.9896,30.7071],[103.9952,30.7068],[104.0041,30.7013],[104.0081,30.6883],[104.0123,30.6843],[104.0181,30.6862],[104.0303,30.6819],[104.0319,30.6717],[104.0443,30.6655],[104.049,30.6754],[104.0605,30.6849],[104.0726,30.6801],[104.0872,30.6725]]]},"properties":{"region_code":"CN-51-5101-510106","parent_region_code":"CN-51-5101","name":"金牛区","level":"county","has_children":false,"full_path":"中国 / 四川省 / 成都市 / 金牛区","source_admin_code":"510106","osm_relation_id":3579975}},
{"type":"Feature","geometry":{"type":"Polygon","coordinates":[[[104.0577,30.6494],[104.0518,30.6541],[104.0243,30.6534],[104.0177,30.6593],[104.0036,30.6565],[104.0031,30.662],[103.9946,30.66],[103.9859,30.6632],[103.9715,30.6622],[103.967,30.6648],[103.9478,30.6609],[103.9492,30.6562],[103.9456,30.6506],[103.9503,30.6471],[103.9511,30.6353],[103.9595,30.6275],[103.9541,30.6228],[103.9548,30.6106],[103.9592,30.6106],[103.9646,30.6036],[103.9642,30.577],[103.9688,30.5745],[103.976,30.5824],[103.9835,30.5874],[103.9919,30.5877],[104,30.5804],[104.0074,30.588],[104.0194,30.5822],[104.0309,30.5784],[104.0349,30.5721],[104.0324,30.5653],[104.0244,30.566],[104.0236,30.5566],[104.0203,30.5501],[104.0084,30.5418],[104.0179,30.5347],[104.0171,30.5286],[104.0241,30.5285],[104.0345,30.5318],[104.0414,30.5318],[104.0419,30.538],[104.0503,30.539],[104.0613,30.5365],[104.0722,30.5391],[104.0744,30.5438],[104.0723,30.5519],[104.0816,30.5549],[104.0771,30.5647],[104.0802,30.5702],[104.0732,30.5721],[104.0716,30.5759],[104.0769,30.5812],[104.0769,30.592],[104.0807,30.5934],[104.0792,30.6024],[104.0859,30.6091],[104.0821,30.618],[104.082,30.626],[104.0917,30.6328],[104.0863,30.6429],[104.0761,30.6478],[104.0577,30.6494]]]},"properties":{"region_code":"CN-51-5101-510107","parent_region_code":"CN-51-5101","name":"武侯区","level":"county","has_children":false,"full_path":"中国 / 四川省 / 成都市 / 武侯区","source_admin_code":"510107","osm_relation_id":4734743}},
{"type":"Feature","geometry":{"type":"Polygon","coordinates":[[[104.139,30.6204],[104.1402,30.6235],[104.1555,30.624],[104.1593,30.6281],[104.162,30.6369],[104.1605,30.6459],[104.1522,30.6545],[104.154,30.6577],[104.1518,30.6658],[104.1576,30.6732],[104.1644,30.6771],[104.1667,30.6716],[104.1737,30.6751],[104.1814,30.674],[104.1897,30.6844],[104.1971,30.6868],[104.2154,30.6823],[104.2174,30.6848],[104.2339,30.6896],[104.2268,30.6945],[104.2233,30.704],[104.229,30.7137],[104.2196,30.7174],[104.2088,30.7144],[104.1951,30.7125],[104.1897,30.7152],[104.1898,30.7239],[104.1863,30.7292],[104.1791,30.7315],[104.1642,30.7296],[104.156,30.7395],[104.1416,30.7422],[104.137,30.7471],[104.1271,30.7502],[104.1251,30.7429],[104.1164,30.7407],[104.1143,30.7345],[104.1074,30.7331],[104.0993,30.7344],[104.0991,30.7253],[104.0897,30.725],[104.0796,30.7195],[104.0682,30.7156],[104.069,30.7007],[104.0904,30.6998],[104.0913,30.6963],[104.0864,30.6822],[104.0924,30.6792],[104.0872,30.6725],[104.094,30.6673],[104.0859,30.6558],[104.1255,30.6372],[104.1262,30.6304],[104.1223,30.6245],[104.126,30.621],[104.139,30.6204]]]},"properties":{"region_code":"CN-51-5101-510108","parent_region_code":"CN-51-5101","name":"成华区","level":"county","has_children":false,"full_path":"中国 / 四川省 / 成都市 / 成华区","source_admin_code":"510108","osm_relation_id":4734807}},
{"type":"Feature","geometry":{"type":"Polygon","coordinates":[[[104.1505,30.5652],[104.155,30.5611],[104.1488,30.5532],[104.1709,30.5455],[104.1735,30.5373],[104.1807,30.5357],[104.1847,30.5267],[104.1842,30.5203],[104.1949,30.5095],[104.1985,30.4998],[104.1979,30.4926],[104.2019,30.487],[104.2203,30.478],[104.2205,30.4706],[104.2297,30.4712],[104.2449,30.4644],[104.2494,30.4701],[104.2575,30.4707],[104.2546,30.4768],[104.2547,30.4846],[104.2602,30.4895],[104.2686,30.488],[104.2753,30.4899],[104.2892,30.5004],[104.2974,30.5091],[104.3051,30.501],[104.3218,30.4924],[104.3303,30.4956],[104.3278,30.5077],[104.3195,30.5148],[104.3231,30.5205],[104.3336,30.5158],[104.342,30.4991],[104.3415,30.4899],[104.3436,30.4848],[104.356,30.4844],[104.3652,30.4924],[104.3729,30.4896],[104.3769,30.4929],[104.3871,30.4895],[104.3904,30.4858],[104.3974,30.4942],[104.3933,30.5086],[104.3961,30.5124],[104.4037,30.5104],[104.4144,30.5193],[104.4118,30.5251],[104.4052,30.525],[104.3967,30.5362],[104.4011,30.5395],[104.4005,30.5582],[104.4061,30.5656],[104.3989,30.5756],[104.4001,30.5843],[104.4041,30.596],[104.4134,30.6006],[104.4194,30.6006],[104.4276,30.6061],[104.426,30.6126],[104.435,30.6111],[104.4468,30.6188],[104.4456,30.624],[104.4507,30.6286],[104.4527,30.6447],[104.451,30.655],[104.445,30.6539],[104.4405,30.6496],[104.4365,30.6369],[104.4323,30.6376],[104.4314,30.6495],[104.433,30.6546],[104.4308,30.6606],[104.4343,30.6649],[104.4342,30.6737],[104.4266,30.6765],[104.4176,30.6835],[104.4119,30.6826],[104.4077,30.6764],[104.3993,30.672],[104.3884,30.6789],[104.39,30.6926],[104.3807,30.6981],[104.3657,30.7],[104.3602,30.6985],[104.3512,30.7007],[104.3391,30.7095],[104.336,30.7158],[104.3286,30.7132],[104.3201,30.7189],[104.3112,30.717],[104.301,30.7208],[104.2902,30.7214],[104.2856,30.7159],[104.2657,30.7174],[104.2626,30.7],[104.2517,30.6947],[104.2503,30.6835],[104.2455,30.6831],[104.2408,30.6778],[104.2325,30.6852],[104.2339,30.6896],[104.2174,30.6848],[104.2154,30.6823],[104.1971,30.6868],[104.1897,30.6844],[104.1814,30.674],[104.1737,30.6751],[104.1667,30.6716],[104.1644,30.6771],[104.1576,30.6732],[104.1518,30.6658],[104.154,30.6577],[104.1522,30.6545],[104.1605,30.6459],[104.162,30.6369],[104.1593,30.6281],[104.1555,30.624],[104.1402,30.6235],[104.139,30.6204],[104.1434,30.6128],[104.1497,30.6081],[104.1559,30.6069],[104.1507,30.5998],[104.1594,30.5913],[104.1656,30.5915],[104.1653,30.5855],[104.1604,30.5801],[104.1622,30.5663],[104.1505,30.5652]]]},"properties":{"region_code":"CN-51-5101-510112","parent_region_code":"CN-51-5101","name":"龙泉驿区","level":"county","has_children":false,"full_path":"中国 / 四川省 / 成都市 / 龙泉驿区","source_admin_code":"510112","osm_relation_id":2791742}},
{"type":"Feature","geometry":{"type":"Polygon","coordinates":[[[104.4343,30.6649],[104.4415,30.6696],[104.4512,30.6554],[104.4547,30.6618],[104.4473,30.6693],[104.4531,30.6729],[104.4624,30.6664],[104.4788,30.6629],[104.4786,30.6792],[104.4885,30.6815],[104.4942,30.6861],[104.488,30.6923],[104.4801,30.6936],[104.4812,30.7009],[104.4874,30.7031],[104.4818,30.7155],[104.4734,30.718],[104.4687,30.7225],[104.4675,30.7294],[104.4727,30.7301],[104.4765,30.7391],[104.471,30.7469],[104.4744,30.752],[104.4734,30.7586],[104.4675,30.7631],[104.4728,30.7662],[104.4738,30.7753],[104.4696,30.7809],[104.4641,30.7827],[104.4566,30.7767],[104.449,30.7748],[104.4441,30.7798],[104.4386,30.7812],[104.4315,30.7735],[104.4239,30.7737],[104.4242,30.7805],[104.433,30.7908],[104.4288,30.795],[104.4209,30.7898],[104.4162,30.7918],[104.4058,30.7826],[104.3993,30.7863],[104.3822,30.7879],[104.3775,30.786],[104.3747,30.7932],[104.3824,30.7941],[104.3818,30.8022],[104.3752,30.8065],[104.3702,30.8129],[104.3671,30.8236],[104.3729,30.8334],[104.368,30.8412],[104.3518,30.8358],[104.3479,30.8447],[104.3573,30.845],[104.3636,30.8498],[104.3711,30.845],[104.3761,30.8469],[104.3749,30.8568],[104.3844,30.8655],[104.3807,30.8708],[104.3826,30.879],[104.3734,30.882],[104.3702,30.8881],[104.3638,30.8868],[104.3621,30.8813],[104.3544,30.8824],[104.3581,30.8881],[104.3486,30.8979],[104.3493,30.9037],[104.3293,30.9029],[104.3185,30.8941],[104.3076,30.9],[104.2848,30.9049],[104.2816,30.9029],[104.2693,30.9042],[104.2631,30.9008],[104.2595,30.9077],[104.2439,30.8991],[104.2296,30.9006],[104.2264,30.8976],[104.2178,30.9042],[104.2101,30.9074],[104.2021,30.9145],[104.1945,30.9155],[104.1862,30.9124],[104.1859,30.9034],[104.1769,30.8914],[104.1676,30.8892],[104.1691,30.8778],[104.1632,30.8669],[104.1671,30.8578],[104.177,30.8676],[104.1836,30.8676],[104.191,30.8609],[104.1977,30.8604],[104.2066,30.8678],[104.2155,30.8678],[104.2285,30.862],[104.2389,30.8528],[104.2355,30.8459],[104.2368,30.8417],[104.245,30.8395],[104.2396,30.8328],[104.2329,30.8327],[104.229,30.8248],[104.231,30.8187],[104.238,30.8144],[104.2432,30.8054],[104.2568,30.7921],[104.2581,30.7861],[104.256,30.7793],[104.2646,30.7757],[104.267,30.7722],[104.2648,30.762],[104.2576,30.7581],[104.2551,30.7537],[104.264,30.7487],[104.2656,30.745],[104.283,30.7403],[104.2878,30.7482],[104.2941,30.7466],[104.2989,30.7506],[104.3053,30.7474],[104.312,30.7508],[104.319,30.7484],[104.3268,30.7375],[104.3257,30.726],[104.3201,30.7189],[104.3286,30.7132],[104.336,30.7158],[104.3391,30.7095],[104.3512,30.7007],[104.3602,30.6985],[104.3657,30.7],[104.3807,30.6981],[104.39,30.6926],[104.3884,30.6789],[104.3993,30.672],[104.4077,30.6764],[104.4119,30.6826],[104.4176,30.6835],[104.4266,30.6765],[104.4342,30.6737],[104.4343,30.6649]]]},"properties":{"region_code":"CN-51-5101-510113","parent_region_code":"CN-51-5101","name":"青白江区","level":"county","has_children":false,"full_path":"中国 / 四川省 / 成都市 / 青白江区","source_admin_code":"510113","osm_relation_id":3581622}},
{"type":"Feature","geometry":{"type":"Polygon","coordinates":[[[104.137,30.7471],[104.1416,30.7422],[104.156,30.7395],[104.1642,30.7296],[104.1791,30.7315],[104.1863,30.7292],[104.1898,30.7239],[104.1897,30.7152],[104.1951,30.7125],[104.2088,30.7144],[104.2196,30.7174],[104.229,30.7137],[104.2233,30.704],[104.2268,30.6945],[104.2339,30.6896],[104.2325,30.6852],[104.2408,30.6778],[104.2455,30.6831],[104.2503,30.6835],[104.2517,30.6947],[104.2626,30.7],[104.2657,30.7174],[104.2856,30.7159],[104.2902,30.7214],[104.301,30.7208],[104.3112,30.717],[104.3201,30.7189],[104.3257,30.726],[104.3268,30.7375],[104.319,30.7484],[104.312,30.7508],[104.3053,30.7474],[104.2989,30.7506],[104.2941,30.7466],[104.2878,30.7482],[104.283,30.7403],[104.2656,30.745],[104.264,30.7487],[104.2551,30.7537],[104.2576,30.7581],[104.2648,30.762],[104.267,30.7722],[104.2646,30.7757],[104.256,30.7793],[104.2581,30.7861],[104.2568,30.7921],[104.2432,30.8054],[104.238,30.8144],[104.231,30.8187],[104.229,30.8248],[104.2329,30.8327],[104.2396,30.8328],[104.245,30.8395],[104.2368,30.8417],[104.2355,30.8459],[104.2389,30.8528],[104.2285,30.862],[104.2155,30.8678],[104.2066,30.8678],[104.1977,30.8604],[104.191,30.8609],[104.1836,30.8676],[104.177,30.8676],[104.1671,30.8578],[104.1632,30.8669],[104.1691,30.8778],[104.1676,30.8892],[104.1769,30.8914],[104.1859,30.9034],[104.1862,30.9124],[104.1686,30.908],[104.1665,30.9208],[104.1453,30.9189],[104.1438,30.9172],[104.1299,30.9171],[104.1216,30.9133],[104.1117,30.9174],[104.101,30.9151],[104.0749,30.9193],[104.0648,30.9264],[104.0662,30.9284],[104.0625,30.9462],[104.0568,30.9561],[104.0479,30.9607],[104.045,30.9659],[104.0389,30.9635],[104.0367,30.9581],[104.0282,30.9619],[104.0233,30.9551],[104.0151,30.9495],[104.0112,30.9429],[104.0016,30.9432],[103.9975,30.9385],[103.9881,30.9415],[103.9768,30.94],[103.9696,30.9329],[103.9624,30.9312],[103.9635,30.9246],[103.9595,30.9167],[103.9526,30.9219],[103.9466,30.9192],[103.9394,30.9248],[103.9119,30.9248],[103.9007,30.9298],[103.9028,30.9246],[103.9165,30.9167],[103.9218,30.9159],[103.9337,30.91],[103.941,30.9081],[103.9365,30.9031],[103.947,30.9006],[103.9413,30.8954],[103.9466,30.8876],[103.9418,30.8841],[103.9445,30.8784],[103.9409,30.8723],[103.9337,30.8689],[103.9452,30.8595],[103.9503,30.8581],[103.9575,30.8497],[103.9623,30.8484],[103.9637,30.8392],[103.9744,30.8359],[103.9788,30.8307],[103.987,30.8297],[103.9885,30.8258],[104.0034,30.823],[104.0178,30.818],[104.0141,30.812],[104.0186,30.8077],[104.0249,30.8071],[104.0237,30.8016],[104.0341,30.7958],[104.0311,30.7908],[104.0403,30.7898],[104.0432,30.7802],[104.0388,30.7776],[104.0291,30.7813],[104.0258,30.7779],[104.0319,30.7706],[104.0295,30.7644],[104.0469,30.7543],[104.0519,30.7535],[104.0612,30.7441],[104.0687,30.7407],[104.0699,30.7458],[104.0754,30.7526],[104.0935,30.7581],[104.0943,30.7671],[104.0779,30.7678],[104.0741,30.7635],[104.0677,30.7648],[104.0701,30.781],[104.0632,30.782],[104.0555,30.7864],[104.0602,30.7898],[104.0575,30.8003],[104.0655,30.7972],[104.0771,30.8058],[104.0851,30.8089],[104.0953,30.7983],[104.1077,30.788],[104.1158,30.7893],[104.1256,30.7788],[104.1168,30.7724],[104.1202,30.7649],[104.1256,30.7688],[104.1359,30.7685],[104.1387,30.7621],[104.1362,30.7568],[104.137,30.7471]]]},"properties":{"region_code":"CN-51-5101-510114","parent_region_code":"CN-51-5101","name":"新都区","level":"county","has_children":false,"full_path":"中国 / 四川省 / 成都市 / 新都区","source_admin_code":"510114","osm_relation_id":3581618}},
{"type":"Feature","geometry":{"type":"Polygon","coordinates":[[[103.9414,30.7267],[103.9418,30.7318],[103.932,30.734],[103.9148,30.7446],[103.911,30.7394],[103.8994,30.7427],[103.8955,30.7492],[103.8856,30.7526],[103.876,30.7587],[103.8796,30.7476],[103.8545,30.7514],[103.8545,30.7542],[103.8416,30.7585],[103.839,30.7645],[103.8243,30.7713],[103.8196,30.7722],[103.8109,30.7798],[103.7984,30.7825],[103.786,30.8086],[103.7814,30.8129],[103.7691,30.8103],[103.7598,30.8165],[103.7552,30.828],[103.749,30.833],[103.7343,30.8392],[103.7294,30.8391],[103.7209,30.8477],[103.7203,30.8543],[103.7138,30.8631],[103.6921,30.8861],[103.684,30.8846],[103.6896,30.8742],[103.6903,30.8662],[103.6956,30.8587],[103.6995,30.8455],[103.6988,30.8382],[103.7137,30.816],[103.7128,30.812],[103.7162,30.8041],[103.7216,30.7798],[103.7195,30.7742],[103.7274,30.7557],[103.7277,30.7481],[103.7332,30.7366],[103.7393,30.7292],[103.7493,30.7211],[103.7528,30.7118],[103.7504,30.7053],[103.7532,30.6927],[103.757,30.6912],[103.7575,30.6835],[103.7628,30.6751],[103.7616,30.663],[103.772,30.6542],[103.7721,30.6497],[103.7823,30.6354],[103.7816,30.6316],[103.7925,30.6239],[103.7978,30.6279],[103.8094,30.6157],[103.8237,30.6183],[103.8364,30.6173],[103.8445,30.6192],[103.8454,30.6269],[103.8412,30.6377],[103.8457,30.6383],[103.8508,30.6306],[103.8562,30.631],[103.8558,30.6396],[103.8637,30.65],[103.8735,30.6574],[103.8764,30.6505],[103.8888,30.6506],[103.8915,30.6567],[103.8903,30.6646],[103.8957,30.6688],[103.9129,30.6667],[103.921,30.6687],[103.9188,30.672],[103.9109,30.6732],[103.9044,30.6777],[103.9034,30.6875],[103.9091,30.6897],[103.9191,30.6974],[103.915,30.7024],[103.9234,30.7052],[103.9369,30.719],[103.9357,30.7245],[103.9414,30.7267]]]},"properties":{"region_code":"CN-51-5101-510115","parent_region_code":"CN-51-5101","name":"温江区","level":"county","has_children":false,"full_path":"中国 / 四川省 / 成都市 / 温江区","source_admin_code":"510115","osm_relation_id":3581602}},
{"type":"Feature","geometry":{"type":"MultiPolygon","coordinates":[[[[104.0802,30.5702],[104.0771,30.5647],[104.0816,30.5549],[104.0723,30.5519],[104.0744,30.5438],[104.0722,30.5391],[104.0613,30.5365],[104.0503,30.539],[104.0419,30.538],[104.0414,30.5318],[104.0345,30.5318],[104.0241,30.5285],[104.0171,30.5286],[104.0179,30.5347],[104.0084,30.5418],[104.0203,30.5501],[104.0236,30.5566],[104.0244,30.566],[104.0324,30.5653],[104.0349,30.5721],[104.0309,30.5784],[104.0194,30.5822],[104.0074,30.588],[104,30.5804],[103.9919,30.5877],[103.9835,30.5874],[103.976,30.5824],[103.9688,30.5745],[103.9642,30.577],[103.9646,30.6036],[103.9592,30.6106],[103.9548,30.6106],[103.9541,30.6228],[103.9595,30.6275],[103.9511,30.6353],[103.9503,30.6471],[103.9456,30.6506],[103.9492,30.6562],[103.9478,30.6609],[103.94,30.663],[103.9306,30.6616],[103.9254,30.6678],[103.921,30.6687],[103.9129,30.6667],[103.8957,30.6688],[103.8903,30.6646],[103.8915,30.6567],[103.8888,30.6506],[103.8764,30.6505],[103.8735,30.6574],[103.8637,30.65],[103.8558,30.6396],[103.8562,30.631],[103.8508,30.6306],[103.8457,30.6383],[103.8412,30.6377],[103.8454,30.6269],[103.8445,30.6192],[103.8364,30.6173],[103.8237,30.6183],[103.8094,30.6157],[103.7978,30.6279],[103.7925,30.6239],[103.7915,30.619],[103.7961,30.6162],[103.7955,30.6082],[103.801,30.6048],[103.8018,30.594],[103.8078,30.5935],[103.8103,30.5858],[103.8194,30.5812],[103.8203,30.5677],[103.8186,30.5551],[103.8145,30.548],[103.8153,30.5408],[103.8107,30.538],[103.8216,30.5238],[103.8204,30.5213],[103.8264,30.5096],[103.8268,30.5043],[103.8367,30.5098],[103.8411,30.5075],[103.8584,30.5109],[103.8712,30.5093],[103.8785,30.5025],[103.8866,30.4988],[103.8943,30.4993],[103.8984,30.4939],[103.9044,30.4909],[103.9121,30.4764],[103.9149,30.4656],[103.9113,30.4618],[103.9115,30.4559],[103.9078,30.4525],[103.923,30.4402],[103.926,30.4284],[103.9309,30.4276],[103.9336,30.4166],[103.9317,30.4089],[103.9339,30.4036],[103.9266,30.3838],[103.9294,30.3813],[103.921,30.3752],[103.9171,30.3662],[103.9233,30.364],[103.9315,30.3606],[103.9403,30.3599],[103.9341,30.354],[103.9413,30.3353],[103.9539,30.3242],[103.9609,30.3245],[103.9683,30.3139],[103.9761,30.3098],[103.9742,30.2984],[103.9713,30.2936],[103.9724,30.2879],[103.9837,30.2834],[103.9827,30.2785],[103.9932,30.2728],[103.992,30.2698],[104.0042,30.2655],[104.0124,30.2713],[104.0197,30.2707],[104.0263,30.2744],[104.029,30.2672],[104.0394,30.2699],[104.0472,30.2741],[104.0486,30.2632],[104.0569,30.2668],[104.0627,30.263],[104.0789,30.2571],[104.0826,30.2527],[104.0905,30.2529],[104.0889,30.2475],[104.096,30.2412],[104.1082,30.2391],[104.1105,30.2318],[104.1154,30.2282],[104.1237,30.2287],[104.1287,30.2364],[104.1343,30.2358],[104.15,30.247],[104.1481,30.2511],[104.1507,30.2586],[104.1518,30.2707],[104.1577,30.2812],[104.1655,30.2857],[104.1671,30.2977],[104.1728,30.3023],[104.1756,30.3132],[104.1753,30.3192],[104.1797,30.3264],[104.1893,30.3326],[104.1978,30.3444],[104.1947,30.3544],[104.2056,30.3643],[104.2115,30.3748],[104.2173,30.3791],[104.2207,30.3888],[104.2177,30.3941],[104.2259,30.3985],[104.2273,30.4025],[104.2256,30.4127],[104.23,30.4191],[104.2422,30.4195],[104.2506,30.4217],[104.2465,30.4312],[104.2555,30.4405],[104.2639,30.4524],[104.2672,30.4596],[104.2579,30.4616],[104.247,30.4598],[104.2449,30.4644],[104.2297,30.4712],[104.2205,30.4706],[104.2203,30.478],[104.2019,30.487],[104.1979,30.4926],[104.1985,30.4998],[104.1949,30.5095],[104.1842,30.5203],[104.1847,30.5267],[104.1807,30.5357],[104.1735,30.5373],[104.1709,30.5455],[104.1488,30.5532],[104.155,30.5611],[104.1505,30.5652],[104.146,30.5644],[104.1388,30.5705],[104.133,30.5706],[104.1258,30.5661],[104.121,30.5586],[104.1242,30.5503],[104.1059,30.5536],[104.1083,30.5619],[104.1125,30.5673],[104.1092,30.5721],[104.101,30.5732],[104.0802,30.5702]]],[[[103.9588,30.3107],[103.951,30.3155],[103.947,30.3118],[103.9476,30.3065],[103.9588,30.3107]]]]},"properties":{"region_code":"CN-51-5101-510116","parent_region_code":"CN-51-5101","name":"双流区","level":"county","has_children":false,"full_path":"中国 / 四川省 / 成都市 / 双流区","source_admin_code":"510116","osm_relation_id":2791690}},
{"type":"Feature","geometry":{"type":"Polygon","coordinates":[[[103.9529,30.7233],[103.9639,30.7259],[103.9711,30.7215],[103.978,30.7232],[103.9712,30.7299],[103.9813,30.7348],[103.9901,30.7287],[104.0006,30.7407],[103.9937,30.7461],[103.997,30.758],[104.0091,30.761],[104.0145,30.7567],[104.0102,30.751],[104.019,30.7497],[104.0185,30.7441],[104.0304,30.7342],[104.0349,30.7397],[104.0307,30.7443],[104.0403,30.7539],[104.0469,30.7543],[104.0295,30.7644],[104.0319,30.7706],[104.0258,30.7779],[104.0291,30.7813],[104.0388,30.7776],[104.0432,30.7802],[104.0403,30.7898],[104.0311,30.7908],[104.0341,30.7958],[104.0237,30.8016],[104.0249,30.8071],[104.0186,30.8077],[104.0141,30.812],[104.0178,30.818],[104.0034,30.823],[103.9885,30.8258],[103.987,30.8297],[103.9788,30.8307],[103.9744,30.8359],[103.9637,30.8392],[103.9623,30.8484],[103.9575,30.8497],[103.9503,30.8581],[103.9452,30.8595],[103.9337,30.8689],[103.9409,30.8723],[103.9445,30.8784],[103.9418,30.8841],[103.9466,30.8876],[103.9413,30.8954],[103.947,30.9006],[103.9365,30.9031],[103.941,30.9081],[103.9337,30.91],[103.9218,30.9159],[103.9165,30.9167],[103.9028,30.9246],[103.9007,30.9298],[103.8898,30.9288],[103.8842,30.9325],[103.8717,30.9331],[103.8616,30.937],[103.8444,30.939],[103.8415,30.9293],[103.8272,30.931],[103.8232,30.9401],[103.8097,30.9475],[103.7985,30.9453],[103.7791,30.9587],[103.7713,30.962],[103.7662,30.9577],[103.7642,30.9506],[103.7666,30.9465],[103.7651,30.9398],[103.7692,30.9338],[103.7683,30.9273],[103.7731,30.921],[103.7602,30.9197],[103.7612,30.9143],[103.7582,30.9048],[103.7504,30.9009],[103.75,30.8948],[103.7552,30.8934],[103.7574,30.8861],[103.7488,30.8795],[103.742,30.8826],[103.7312,30.8782],[103.7333,30.8732],[103.7307,30.8688],[103.7232,30.8643],[103.7138,30.8631],[103.7203,30.8543],[103.7209,30.8477],[103.7294,30.8391],[103.7343,30.8392],[103.749,30.833],[103.7552,30.828],[103.7598,30.8165],[103.7691,30.8103],[103.7814,30.8129],[103.786,30.8086],[103.7984,30.7825],[103.8109,30.7798],[103.8196,30.7722],[103.8243,30.7713],[103.839,30.7645],[103.8416,30.7585],[103.8545,30.7542],[103.8545,30.7514],[103.8796,30.7476],[103.876,30.7587],[103.8856,30.7526],[103.8955,30.7492],[103.8994,30.7427],[103.911,30.7394],[103.9148,30.7446],[103.932,30.734],[103.9418,30.7318],[103.9414,30.7267],[103.946,30.7232],[103.9529,30.7233]]]},"properties":{"region_code":"CN-51-5101-510117","parent_region_code":"CN-51-5101","name":"郫都区","level":"county","has_children":false,"full_path":"中国 / 四川省 / 成都市 / 郫都区","source_admin_code":"510117","osm_relation_id":3581605}},
{"type":"Feature","geometry":{"type":"Polygon","coordinates":[[[103.8216,30.5238],[103.8009,30.5252],[103.787,30.5149],[103.794,30.5083],[103.7961,30.5022],[103.7828,30.5002],[103.7778,30.5049],[103.7723,30.5015],[103.7641,30.5022],[103.7549,30.5024],[103.7447,30.4999],[103.7404,30.4881],[103.7315,30.4807],[103.7351,30.4704],[103.7302,30.4614],[103.7301,30.457],[103.7212,30.4503],[103.7173,30.4433],[103.7061,30.437],[103.7041,30.4278],[103.7122,30.42],[103.7214,30.4142],[103.7242,30.4026],[103.735,30.3935],[103.7393,30.3825],[103.747,30.3753],[103.7456,30.3676],[103.7484,30.3601],[103.7547,30.3554],[103.7481,30.3506],[103.737,30.3458],[103.7328,30.3384],[103.7385,30.3321],[103.7462,30.3342],[103.7506,30.3402],[103.7562,30.3367],[103.7539,30.3321],[103.7653,30.3313],[103.7691,30.3376],[103.7801,30.3406],[103.7966,30.3493],[103.807,30.3501],[103.8091,30.3465],[103.8275,30.3479],[103.8481,30.3463],[103.8517,30.35],[103.8613,30.3512],[103.8755,30.3487],[103.8812,30.3398],[103.8833,30.3317],[103.9004,30.3364],[103.9091,30.3326],[103.9104,30.3424],[103.9175,30.3458],[103.9123,30.3564],[103.9135,30.3599],[103.9233,30.364],[103.9171,30.3662],[103.921,30.3752],[103.9294,30.3813],[103.9266,30.3838],[103.9339,30.4036],[103.9317,30.4089],[103.9336,30.4166],[103.9309,30.4276],[103.926,30.4284],[103.923,30.4402],[103.9078,30.4525],[103.9115,30.4559],[103.9113,30.4618],[103.9149,30.4656],[103.9121,30.4764],[103.9044,30.4909],[103.8984,30.4939],[103.8943,30.4993],[103.8866,30.4988],[103.8785,30.5025],[103.8712,30.5093],[103.8584,30.5109],[103.8411,30.5075],[103.8367,30.5098],[103.8268,30.5043],[103.8264,30.5096],[103.8204,30.5213],[103.8216,30.5238]]]},"properties":{"region_code":"CN-51-5101-510118","parent_region_code":"CN-51-5101","name":"新津区","level":"county","has_children":false,"full_path":"中国 / 四川省 / 成都市 / 新津区","source_admin_code":"510118","osm_relation_id":2791692}},
{"type":"Feature","geometry":{"type":"Polygon","coordinates":[[[104.4194,30.6006],[104.428,30.5993],[104.4337,30.5926],[104.4441,30.5961],[104.4488,30.5918],[104.4587,30.5945],[104.4651,30.5924],[104.4732,30.5981],[104.4825,30.594],[104.5005,30.6],[104.5033,30.6078],[104.5123,30.6101],[104.5174,30.6167],[104.5253,30.6147],[104.5232,30.6217],[104.5272,30.6301],[104.5425,30.6296],[104.5456,30.6374],[104.562,30.6302],[104.5671,30.6355],[104.5716,30.6452],[104.588,30.6323],[104.5948,30.6365],[104.5999,30.6292],[104.6084,30.6217],[104.6166,30.623],[104.6325,30.6194],[104.6496,30.6136],[104.6531,30.6085],[104.6615,30.6138],[104.6763,30.6099],[104.6804,30.6044],[104.6911,30.6027],[104.6962,30.5998],[104.6984,30.5942],[104.6941,30.591],[104.6926,30.5837],[104.6853,30.5824],[104.6852,30.5767],[104.6815,30.5647],[104.6833,30.5573],[104.6889,30.5533],[104.7042,30.5498],[104.707,30.5466],[104.7199,30.5445],[104.7291,30.5378],[104.7276,30.5319],[104.7308,30.5279],[104.7282,30.5178],[104.7385,30.5127],[104.7468,30.5109],[104.7554,30.5052],[104.7641,30.4867],[104.7747,30.4871],[104.7799,30.4919],[104.7921,30.4913],[104.8065,30.4957],[104.8029,30.5052],[104.8123,30.5122],[104.8181,30.5093],[104.8261,30.5133],[104.829,30.5111],[104.8401,30.5123],[104.8491,30.5066],[104.8605,30.5123],[104.8728,30.5114],[104.8735,30.5164],[104.8792,30.5174],[104.8775,30.5233],[104.888,30.5354],[104.8907,30.5456],[104.8902,30.554],[104.8851,30.5582],[104.8789,30.5536],[104.8731,30.5544],[104.8744,30.5615],[104.8622,30.5681],[104.8625,30.579],[104.8533,30.5902],[104.83,30.5857],[104.8173,30.5795],[104.813,30.5899],[104.8163,30.5928],[104.8168,30.6011],[104.8304,30.6129],[104.8347,30.6222],[104.8454,30.6344],[104.8454,30.6446],[104.8353,30.6506],[104.8263,30.651],[104.8255,30.6463],[104.8183,30.6469],[104.819,30.6539],[104.8159,30.6674],[104.8093,30.6755],[104.8105,30.6814],[104.8031,30.6862],[104.8012,30.6925],[104.7936,30.692],[104.7864,30.6944],[104.7879,30.7036],[104.7855,30.7123],[104.7928,30.718],[104.7872,30.7233],[104.7783,30.7216],[104.771,30.7232],[104.764,30.7213],[104.7612,30.7282],[104.7544,30.7313],[104.7447,30.7305],[104.7473,30.7376],[104.7402,30.7411],[104.744,30.7551],[104.737,30.7588],[104.7318,30.7766],[104.7322,30.7808],[104.7251,30.782],[104.7151,30.773],[104.708,30.7764],[104.7127,30.783],[104.7087,30.7974],[104.7033,30.8058],[104.6967,30.8104],[104.6959,30.8176],[104.7025,30.8243],[104.6966,30.8274],[104.6864,30.8292],[104.677,30.8286],[104.6761,30.834],[104.6645,30.8337],[104.6549,30.8393],[104.6447,30.8376],[104.6343,30.843],[104.6305,30.8546],[104.6231,30.8547],[104.6178,30.8511],[104.6043,30.8523],[104.6019,30.8615],[104.5953,30.8684],[104.5859,30.865],[104.5747,30.8667],[104.5672,30.8729],[104.5479,30.8776],[104.5369,30.883],[104.5275,30.8825],[104.5175,30.8849],[104.5207,30.8944],[104.5271,30.8987],[104.5264,30.9086],[104.5298,30.9155],[104.5307,30.9233],[104.5165,30.9285],[104.5131,30.9376],[104.4941,30.9386],[104.4811,30.9484],[104.4706,30.9492],[104.461,30.9522],[104.447,30.9481],[104.4429,30.9427],[104.4333,30.9451],[104.4302,30.9422],[104.422,30.9461],[104.4012,30.9384],[104.393,30.9449],[104.3918,30.9365],[104.3881,30.9315],[104.375,30.9349],[104.3699,30.9404],[104.3643,30.9366],[104.3639,30.9309],[104.3546,30.9192],[104.3565,30.9146],[104.3511,30.9098],[104.3493,30.9037],[104.3486,30.8979],[104.3581,30.8881],[104.3544,30.8824],[104.3621,30.8813],[104.3638,30.8868],[104.3702,30.8881],[104.3734,30.882],[104.3826,30.879],[104.3807,30.8708],[104.3844,30.8655],[104.3749,30.8568],[104.3761,30.8469],[104.3711,30.845],[104.3636,30.8498],[104.3573,30.845],[104.3479,30.8447],[104.3518,30.8358],[104.368,30.8412],[104.3729,30.8334],[104.3671,30.8236],[104.3702,30.8129],[104.3752,30.8065],[104.3818,30.8022],[104.3824,30.7941],[104.3747,30.7932],[104.3775,30.786],[104.3822,30.7879],[104.3993,30.7863],[104.4058,30.7826],[104.4162,30.7918],[104.4209,30.7898],[104.4288,30.795],[104.433,30.7908],[104.4242,30.7805],[104.4239,30.7737],[104.4315,30.7735],[104.4386,30.7812],[104.4441,30.7798],[104.449,30.7748],[104.4566,30.7767],[104.4641,30.7827],[104.4696,30.7809],[104.4738,30.7753],[104.4728,30.7662],[104.4675,30.7631],[104.4734,30.7586],[104.4744,30.752],[104.471,30.7469],[104.4765,30.7391],[104.4727,30.7301],[104.4675,30.7294],[104.4687,30.7225],[104.4734,30.718],[104.4818,30.7155],[104.4874,30.7031],[104.4812,30.7009],[104.4801,30.6936],[104.488,30.6923],[104.4942,30.6861],[104.4885,30.6815],[104.4786,30.6792],[104.4788,30.6629],[104.4624,30.6664],[104.4531,30.6729],[104.4473,30.6693],[104.4547,30.6618],[104.4512,30.6554],[104.4415,30.6696],[104.4343,30.6649],[104.4308,30.6606],[104.433,30.6546],[104.4314,30.6495],[104.4323,30.6376],[104.4365,30.6369],[104.4405,30.6496],[104.445,30.6539],[104.451,30.655],[104.4527,30.6447],[104.4507,30.6286],[104.4456,30.624],[104.4468,30.6188],[104.435,30.6111],[104.426,30.6126],[104.4276,30.6061],[104.4194,30.6006]]]},"properties":{"region_code":"CN-51-5101-510121","parent_region_code":"CN-51-5101","name":"金堂县","level":"county","has_children":false,"full_path":"中国 / 四川省 / 成都市 / 金堂县","source_admin_code":"510121","osm_relation_id":2791682}},
{"type":"Feature","geometry":{"type":"Polygon","coordinates":[[[103.7641,30.5022],[103.762,30.51],[103.756,30.5183],[103.7546,30.5264],[103.7432,30.5493],[103.7375,30.5498],[103.7249,30.5564],[103.7159,30.5662],[103.7096,30.5602],[103.6988,30.5623],[103.6957,30.5548],[103.682,30.5534],[103.6743,30.5507],[103.6538,30.5345],[103.6527,30.5313],[103.6378,30.5151],[103.631,30.5162],[103.6276,30.5224],[103.6322,30.5287],[103.625,30.5342],[103.6267,30.537],[103.6238,30.5478],[103.6145,30.546],[103.6074,30.5389],[103.5967,30.5382],[103.5837,30.535],[103.5745,30.5398],[103.5663,30.536],[103.5557,30.5413],[103.556,30.5477],[103.5658,30.5545],[103.556,30.5704],[103.5541,30.5783],[103.5604,30.5927],[103.5667,30.5954],[103.5674,30.6001],[103.5614,30.603],[103.5628,30.6175],[103.5608,30.6244],[103.5619,30.6307],[103.5548,30.6385],[103.55,30.6573],[103.5534,30.6737],[103.5432,30.6845],[103.5399,30.6922],[103.53,30.6935],[103.5188,30.7051],[103.5129,30.7056],[103.5061,30.7018],[103.5016,30.7132],[103.4959,30.7173],[103.4874,30.715],[103.4829,30.7202],[103.4741,30.7218],[103.471,30.7257],[103.4597,30.7188],[103.45,30.7197],[103.4431,30.726],[103.435,30.7203],[103.4158,30.7363],[103.4109,30.7384],[103.406,30.7342],[103.3883,30.7288],[103.3736,30.7284],[103.3701,30.7341],[103.3589,30.739],[103.3539,30.7369],[103.3443,30.7265],[103.3403,30.725],[103.3369,30.7136],[103.3339,30.712],[103.3216,30.7195],[103.3143,30.7348],[103.3045,30.7256],[103.2948,30.7193],[103.2821,30.7203],[103.2723,30.7177],[103.2569,30.7446],[103.2468,30.7454],[103.2459,30.752],[103.2377,30.7584],[103.2238,30.7562],[103.212,30.7441],[103.1984,30.7363],[103.1876,30.7419],[103.1719,30.7405],[103.1645,30.7493],[103.152,30.7614],[103.1458,30.7652],[103.1376,30.7642],[103.1188,30.7836],[103.1198,30.794],[103.1143,30.7996],[103.1049,30.8006],[103.0978,30.8068],[103.0885,30.8075],[103.0869,30.8109],[103.0772,30.818],[103.0688,30.8148],[103.0533,30.8038],[103.0372,30.8056],[103.0272,30.7987],[103.0148,30.794],[103.0117,30.7967],[103.0049,30.7915],[103.0026,30.7851],[102.9924,30.7814],[102.9957,30.7744],[102.9896,30.769],[102.9948,30.7653],[103.002,30.7493],[103.013,30.74],[103.0201,30.7383],[103.0255,30.7294],[103.0332,30.7238],[103.0287,30.7067],[103.0419,30.7063],[103.0629,30.7176],[103.0688,30.7193],[103.0768,30.7142],[103.0745,30.7081],[103.0761,30.7012],[103.0887,30.6942],[103.0917,30.6856],[103.0988,30.6762],[103.106,30.6733],[103.114,30.6745],[103.1209,30.6708],[103.1234,30.6609],[103.133,30.6594],[103.1298,30.6526],[103.1298,30.642],[103.1331,30.6367],[103.1338,30.6281],[103.1298,30.6198],[103.1243,30.6162],[103.126,30.6064],[103.1241,30.5984],[103.1263,30.5907],[103.1329,30.5844],[103.1451,30.5883],[103.1493,30.5845],[103.1472,30.5747],[103.164,30.5644],[103.1623,30.5473],[103.1579,30.5419],[103.1537,30.5315],[103.1649,30.5268],[103.178,30.5274],[103.1894,30.5311],[103.1979,30.5213],[103.2086,30.5234],[103.2107,30.5144],[103.216,30.5084],[103.2226,30.5068],[103.2343,30.5107],[103.2435,30.5047],[103.2547,30.5051],[103.2548,30.5105],[103.2615,30.5156],[103.2668,30.5234],[103.2848,30.5216],[103.2915,30.5146],[103.3008,30.5134],[103.3028,30.5274],[103.2944,30.5402],[103.304,30.5447],[103.3168,30.5452],[103.331,30.5424],[103.3412,30.5514],[103.347,30.5539],[103.3681,30.5423],[103.3728,30.5423],[103.3776,30.5482],[103.386,30.5482],[103.3938,30.5452],[103.4016,30.5453],[103.4055,30.5393],[103.4263,30.5305],[103.4369,30.5185],[103.4469,30.5095],[103.4503,30.4995],[103.4496,30.4912],[103.4538,30.4907],[103.4587,30.4834],[103.4601,30.4763],[103.4761,30.4788],[103.4798,30.4888],[103.4853,30.4899],[103.4964,30.4877],[103.5075,30.4809],[103.5123,30.4805],[103.5224,30.4645],[103.5268,30.4611],[103.5276,30.4547],[103.552,30.4449],[103.5508,30.4363],[103.5539,30.4322],[103.563,30.4376],[103.5692,30.4312],[103.5855,30.4283],[103.5965,30.4302],[103.6134,30.4283],[103.6258,30.43],[103.6266,30.4428],[103.6193,30.4465],[103.6151,30.452],[103.6306,30.4608],[103.6487,30.4731],[103.6539,30.4729],[103.6666,30.4641],[103.6715,30.4677],[103.6801,30.4583],[103.6896,30.4577],[103.6973,30.453],[103.6951,30.4496],[103.6975,30.4433],[103.7061,30.437],[103.7173,30.4433],[103.7212,30.4503],[103.7301,30.457],[103.7302,30.4614],[103.7351,30.4704],[103.7315,30.4807],[103.7404,30.4881],[103.7447,30.4999],[103.7549,30.5024],[103.7641,30.5022]]]},"properties":{"region_code":"CN-51-5101-510129","parent_region_code":"CN-51-5101","name":"大邑县","level":"county","has_children":false,"full_path":"中国 / 四川省 / 成都市 / 大邑县","source_admin_code":"510129","osm_relation_id":2791681}},
{"type":"Feature","geometry":{"type":"Polygon","coordinates":[[[103.311,30.2638],[103.3204,30.2531],[103.3201,30.241],[103.3155,30.239],[103.3226,30.2327],[103.3305,30.2383],[103.3396,30.2371],[103.3458,30.2389],[103.3603,30.2345],[103.3709,30.228],[103.3708,30.2142],[103.3641,30.2084],[103.3686,30.202],[103.363,30.1954],[103.3561,30.1919],[103.3615,30.1812],[103.3565,30.1801],[103.3569,30.1745],[103.362,30.1714],[103.3604,30.1652],[103.3617,30.1572],[103.3706,30.1552],[103.3726,30.1521],[103.3651,30.1397],[103.373,30.1268],[103.3744,30.1184],[103.3782,30.1111],[103.385,30.1089],[103.385,30.1042],[103.3925,30.0971],[103.3984,30.0977],[103.4162,30.1123],[103.4287,30.108],[103.4363,30.1198],[103.4434,30.117],[103.4396,30.1125],[103.4545,30.0916],[103.469,30.1037],[103.4637,30.1204],[103.4524,30.1256],[103.4484,30.1345],[103.4529,30.1379],[103.4598,30.1375],[103.4632,30.1328],[103.4723,30.1317],[103.4718,30.1215],[103.4781,30.1185],[103.4814,30.1095],[103.4882,30.1137],[103.4894,30.1208],[103.495,30.1224],[103.505,30.1309],[103.5153,30.1434],[103.5267,30.1465],[103.5434,30.1602],[103.5437,30.1643],[103.5361,30.1754],[103.5422,30.1845],[103.5512,30.189],[103.5612,30.1898],[103.5697,30.1984],[103.5766,30.2012],[103.5842,30.198],[103.5869,30.2028],[103.5933,30.2067],[103.6061,30.2033],[103.6083,30.1949],[103.6172,30.1982],[103.6208,30.2125],[103.6259,30.2175],[103.6312,30.2151],[103.6308,30.2104],[103.6493,30.2047],[103.6499,30.2112],[103.6465,30.2149],[103.6517,30.2206],[103.6418,30.2261],[103.6467,30.236],[103.6555,30.2397],[103.6692,30.2414],[103.6747,30.2402],[103.6757,30.2495],[103.686,30.2595],[103.6852,30.2637],[103.6791,30.2672],[103.6807,30.2741],[103.6825,30.2831],[103.69,30.2825],[103.6874,30.2945],[103.6781,30.2978],[103.6714,30.3043],[103.6647,30.3046],[103.6604,30.3112],[103.6551,30.3084],[103.6473,30.3107],[103.6479,30.3173],[103.6402,30.3144],[103.6297,30.3168],[103.6226,30.3216],[103.6004,30.3234],[103.5829,30.3139],[103.5779,30.3162],[103.5638,30.3136],[103.5531,30.3211],[103.5557,30.3302],[103.5564,30.3412],[103.5471,30.3394],[103.5412,30.3343],[103.5333,30.3354],[103.5264,30.339],[103.5221,30.3329],[103.5125,30.3289],[103.505,30.3345],[103.488,30.3367],[103.479,30.329],[103.4695,30.3354],[103.4647,30.3292],[103.4567,30.3305],[103.4357,30.3231],[103.4317,30.3236],[103.4285,30.333],[103.424,30.3386],[103.4143,30.3332],[103.4066,30.3249],[103.4038,30.3187],[103.3877,30.3113],[103.3824,30.3147],[103.3734,30.3135],[103.3649,30.3078],[103.3636,30.3031],[103.3532,30.301],[103.347,30.2955],[103.3444,30.2898],[103.3357,30.2957],[103.3328,30.2924],[103.338,30.2806],[103.334,30.278],[103.3274,30.2799],[103.3128,30.2706],[103.311,30.2638]]]},"properties":{"region_code":"CN-51-5101-510131","parent_region_code":"CN-51-5101","name":"蒲江县","level":"county","has_children":false,"full_path":"中国 / 四川省 / 成都市 / 蒲江县","source_admin_code":"510131","osm_relation_id":2110259}},
{"type":"Feature","geometry":{"type":"Polygon","coordinates":[[[103.7138,30.8631],[103.7232,30.8643],[103.7307,30.8688],[103.7333,30.8732],[103.7312,30.8782],[103.742,30.8826],[103.7488,30.8795],[103.7574,30.8861],[103.7552,30.8934],[103.75,30.8948],[103.7504,30.9009],[103.7582,30.9048],[103.7612,30.9143],[103.7602,30.9197],[103.7731,30.921],[103.7683,30.9273],[103.7692,30.9338],[103.7651,30.9398],[103.7666,30.9465],[103.7642,30.9506],[103.7662,30.9577],[103.7713,30.962],[103.7791,30.9587],[103.7793,30.9842],[103.7677,30.9926],[103.764,31.0043],[103.7503,31.0104],[103.7488,31.0204],[103.7532,31.0247],[103.7523,31.0299],[103.746,31.0318],[103.7449,31.0417],[103.7388,31.0519],[103.738,31.0622],[103.7319,31.0621],[103.7247,31.0688],[103.729,31.074],[103.7395,31.0719],[103.7423,31.0742],[103.7674,31.0765],[103.7696,31.0818],[103.7649,31.0848],[103.7609,31.0943],[103.7626,31.1064],[103.7519,31.1079],[103.7525,31.1129],[103.7442,31.1198],[103.7428,31.1273],[103.7378,31.1325],[103.739,31.1417],[103.7319,31.148],[103.7383,31.1661],[103.7277,31.1661],[103.7174,31.1732],[103.7033,31.1878],[103.6953,31.1889],[103.6928,31.1981],[103.6844,31.2084],[103.6822,31.2147],[103.6829,31.2226],[103.6861,31.2301],[103.6919,31.2356],[103.6916,31.2435],[103.7036,31.2539],[103.7074,31.2591],[103.7157,31.2639],[103.7204,31.2746],[103.7198,31.2863],[103.7128,31.2903],[103.7125,31.2995],[103.7076,31.3044],[103.7107,31.3096],[103.7071,31.3233],[103.6992,31.3255],[103.6971,31.3344],[103.6921,31.3422],[103.694,31.352],[103.6886,31.356],[103.6845,31.3628],[103.6772,31.3689],[103.6717,31.364],[103.6689,31.358],[103.6576,31.3528],[103.6413,31.3558],[103.6319,31.3529],[103.6262,31.3467],[103.6102,31.3492],[103.6026,31.3534],[103.598,31.347],[103.5894,31.3417],[103.585,31.3434],[103.5717,31.3434],[103.5664,31.3327],[103.5705,31.3212],[103.5678,31.3164],[103.572,31.3],[103.5779,31.2932],[103.5714,31.2818],[103.5669,31.2774],[103.5674,31.2628],[103.5705,31.2617],[103.5795,31.2487],[103.579,31.2381],[103.5738,31.2184],[103.5789,31.213],[103.5815,31.2052],[103.5814,31.1969],[103.5788,31.1909],[103.5709,31.1804],[103.5613,31.1762],[103.5596,31.1626],[103.5542,31.1563],[103.555,31.1521],[103.5436,31.1406],[103.5436,31.1332],[103.5316,31.1158],[103.528,31.1079],[103.5222,31.1021],[103.5268,31.0908],[103.5183,31.0825],[103.5202,31.076],[103.5155,31.0621],[103.5074,31.0541],[103.5019,31.0393],[103.5084,31.0391],[103.5175,31.0291],[103.516,31.0221],[103.5195,31.0116],[103.5192,31.0054],[103.5126,30.9962],[103.5117,30.983],[103.5164,30.9767],[103.5137,30.9726],[103.5075,30.9728],[103.494,30.9643],[103.4903,30.9587],[103.4826,30.9594],[103.4729,30.9492],[103.4676,30.9488],[103.463,30.9397],[103.4567,30.9373],[103.4504,30.9186],[103.45,30.8967],[103.44,30.8856],[103.4312,30.8803],[103.4291,30.875],[103.447,30.8746],[103.4491,30.8687],[103.4687,30.8696],[103.4746,30.8623],[103.4757,30.8572],[103.4855,30.8596],[103.4973,30.8583],[103.4997,30.8514],[103.4992,30.844],[103.5159,30.8431],[103.5242,30.8384],[103.531,30.8397],[103.5418,30.8364],[103.5419,30.8267],[103.5451,30.8215],[103.5606,30.8258],[103.5766,30.8206],[103.5776,30.8137],[103.5936,30.812],[103.5989,30.7953],[103.6067,30.7941],[103.6096,30.788],[103.6019,30.7751],[103.6074,30.7678],[103.6236,30.7668],[103.6443,30.7707],[103.6517,30.7702],[103.654,30.7756],[103.6685,30.7768],[103.6898,30.7706],[103.6957,30.7729],[103.7067,30.7657],[103.7168,30.749],[103.7274,30.7557],[103.7195,30.7742],[103.7216,30.7798],[103.7162,30.8041],[103.7128,30.812],[103.7137,30.816],[103.6988,30.8382],[103.6995,30.8455],[103.6956,30.8587],[103.6903,30.8662],[103.6896,30.8742],[103.684,30.8846],[103.6921,30.8861],[103.7138,30.8631]]]},"properties":{"region_code":"CN-51-5101-510181","parent_region_code":"CN-51-5101","name":"都江堰市","level":"county","has_children":false,"full_path":"中国 / 四川省 / 成都市 / 都江堰市","source_admin_code":"510181","osm_relation_id":2110257}},
{"type":"Feature","geometry":{"type":"Polygon","coordinates":[[[104.1453,30.9189],[104.1419,30.9293],[104.1502,30.9314],[104.151,30.9441],[104.1547,30.9444],[104.1584,30.9522],[104.1643,30.9555],[104.1611,30.9614],[104.1674,30.9718],[104.1637,30.9833],[104.167,30.9882],[104.1654,30.994],[104.1519,31.007],[104.1482,31.0046],[104.1425,31.0084],[104.1408,31.0136],[104.1275,31.0164],[104.1216,31.0198],[104.1148,31.0196],[104.1111,31.0319],[104.0902,31.0356],[104.0835,31.0401],[104.0854,31.0436],[104.075,31.0524],[104.0766,31.0608],[104.0641,31.0658],[104.0577,31.0664],[104.0571,31.0763],[104.0538,31.0794],[104.0416,31.0847],[104.0411,31.0931],[104.0299,31.0972],[104.0246,31.1019],[104.0215,31.1111],[104.0271,31.1145],[104.0194,31.1187],[104.0233,31.1259],[104.0167,31.1395],[104.0187,31.1454],[104.0101,31.1505],[104.0068,31.1559],[104.0122,31.17],[104.0055,31.1809],[103.9988,31.1825],[103.9925,31.1913],[103.9679,31.2098],[103.9596,31.2084],[103.9537,31.2043],[103.9456,31.2066],[103.9473,31.2184],[103.9389,31.2258],[103.9341,31.2245],[103.9278,31.2325],[103.9286,31.2399],[103.9338,31.2476],[103.9251,31.255],[103.9252,31.2626],[103.9318,31.2658],[103.9254,31.2754],[103.9132,31.2795],[103.9109,31.2859],[103.905,31.2879],[103.9013,31.2969],[103.8936,31.2989],[103.8903,31.3041],[103.8893,31.3153],[103.8941,31.3306],[103.9126,31.3471],[103.9229,31.3497],[103.9257,31.3619],[103.9184,31.3653],[103.9186,31.372],[103.9065,31.3844],[103.9048,31.3922],[103.8944,31.4039],[103.8936,31.4101],[103.8961,31.4179],[103.888,31.4235],[103.8839,31.4192],[103.8753,31.4153],[103.8641,31.4243],[103.8538,31.4159],[103.8422,31.4163],[103.8377,31.4184],[103.8263,31.4156],[103.8164,31.4241],[103.8145,31.4329],[103.804,31.4369],[103.7947,31.4325],[103.7884,31.4349],[103.7797,31.4345],[103.769,31.43],[103.766,31.4251],[103.7582,31.4248],[103.7505,31.4179],[103.7441,31.4176],[103.741,31.4029],[103.7334,31.4004],[103.7229,31.3944],[103.7095,31.3929],[103.7067,31.395],[103.6976,31.3925],[103.6935,31.3835],[103.6875,31.3777],[103.6784,31.3746],[103.6772,31.3689],[103.6845,31.3628],[103.6886,31.356],[103.694,31.352],[103.6921,31.3422],[103.6971,31.3344],[103.6992,31.3255],[103.7071,31.3233],[103.7107,31.3096],[103.7076,31.3044],[103.7125,31.2995],[103.7128,31.2903],[103.7198,31.2863],[103.7204,31.2746],[103.7157,31.2639],[103.7074,31.2591],[103.7036,31.2539],[103.6916,31.2435],[103.6919,31.2356],[103.6861,31.2301],[103.6829,31.2226],[103.6822,31.2147],[103.6844,31.2084],[103.6928,31.1981],[103.6953,31.1889],[103.7033,31.1878],[103.7174,31.1732],[103.7277,31.1661],[103.7383,31.1661],[103.7319,31.148],[103.739,31.1417],[103.7378,31.1325],[103.7428,31.1273],[103.7442,31.1198],[103.7525,31.1129],[103.7519,31.1079],[103.7626,31.1064],[103.7609,31.0943],[103.7649,31.0848],[103.7696,31.0818],[103.7674,31.0765],[103.7423,31.0742],[103.7395,31.0719],[103.729,31.074],[103.7247,31.0688],[103.7319,31.0621],[103.738,31.0622],[103.7388,31.0519],[103.7449,31.0417],[103.746,31.0318],[103.7523,31.0299],[103.7532,31.0247],[103.7488,31.0204],[103.7503,31.0104],[103.764,31.0043],[103.7677,30.9926],[103.7793,30.9842],[103.7791,30.9587],[103.7985,30.9453],[103.8097,30.9475],[103.8232,30.9401],[103.8272,30.931],[103.8415,30.9293],[103.8444,30.939],[103.8616,30.937],[103.8717,30.9331],[103.8842,30.9325],[103.8898,30.9288],[103.9007,30.9298],[103.9119,30.9248],[103.9394,30.9248],[103.9466,30.9192],[103.9526,30.9219],[103.9595,30.9167],[103.9635,30.9246],[103.9624,30.9312],[103.9696,30.9329],[103.9768,30.94],[103.9881,30.9415],[103.9975,30.9385],[104.0016,30.9432],[104.0112,30.9429],[104.0151,30.9495],[104.0233,30.9551],[104.0282,30.9619],[104.0367,30.9581],[104.0389,30.9635],[104.045,30.9659],[104.0479,30.9607],[104.0568,30.9561],[104.0625,30.9462],[104.0662,30.9284],[104.0648,30.9264],[104.0749,30.9193],[104.101,30.9151],[104.1117,30.9174],[104.1216,30.9133],[104.1299,30.9171],[104.1438,30.9172],[104.1453,30.9189]]]},"properties":{"region_code":"CN-51-5101-510182","parent_region_code":"CN-51-5101","name":"彭州市","level":"county","has_children":false,"full_path":"中国 / 四川省 / 成都市 / 彭州市","source_admin_code":"510182","osm_relation_id":2791685}},
{"type":"Feature","geometry":{"type":"Polygon","coordinates":[[[103.7061,30.437],[103.6975,30.4433],[103.6951,30.4496],[103.6973,30.453],[103.6896,30.4577],[103.6801,30.4583],[103.6715,30.4677],[103.6666,30.4641],[103.6539,30.4729],[103.6487,30.4731],[103.6306,30.4608],[103.6151,30.452],[103.6193,30.4465],[103.6266,30.4428],[103.6258,30.43],[103.6134,30.4283],[103.5965,30.4302],[103.5855,30.4283],[103.5692,30.4312],[103.563,30.4376],[103.5539,30.4322],[103.5508,30.4363],[103.552,30.4449],[103.5276,30.4547],[103.5268,30.4611],[103.5224,30.4645],[103.5123,30.4805],[103.5075,30.4809],[103.4964,30.4877],[103.4853,30.4899],[103.4798,30.4888],[103.4761,30.4788],[103.4601,30.4763],[103.4587,30.4834],[103.4538,30.4907],[103.4496,30.4912],[103.4503,30.4995],[103.4469,30.5095],[103.4369,30.5185],[103.4263,30.5305],[103.4055,30.5393],[103.4016,30.5453],[103.3938,30.5452],[103.386,30.5482],[103.3776,30.5482],[103.3728,30.5423],[103.3681,30.5423],[103.347,30.5539],[103.3412,30.5514],[103.331,30.5424],[103.3168,30.5452],[103.304,30.5447],[103.2944,30.5402],[103.3028,30.5274],[103.3008,30.5134],[103.2915,30.5146],[103.2848,30.5216],[103.2668,30.5234],[103.2615,30.5156],[103.2548,30.5105],[103.2547,30.5051],[103.2435,30.5047],[103.2343,30.5107],[103.2226,30.5068],[103.216,30.5084],[103.2107,30.5144],[103.2086,30.5234],[103.1979,30.5213],[103.1894,30.5311],[103.178,30.5274],[103.177,30.5227],[103.1849,30.513],[103.1815,30.5072],[103.1742,30.5013],[103.1668,30.4866],[103.1561,30.4745],[103.155,30.4796],[103.1454,30.4777],[103.1399,30.4726],[103.1229,30.4527],[103.1386,30.4452],[103.1341,30.4393],[103.1261,30.4393],[103.1211,30.4448],[103.1169,30.4396],[103.1163,30.434],[103.1219,30.4312],[103.1134,30.4154],[103.1172,30.412],[103.119,30.394],[103.1138,30.38],[103.1227,30.3796],[103.1265,30.3746],[103.1168,30.3591],[103.103,30.3437],[103.0934,30.3362],[103.0841,30.3262],[103.077,30.3266],[103.0697,30.3168],[103.0626,30.315],[103.06,30.3055],[103.0669,30.3002],[103.0682,30.2944],[103.0644,30.2905],[103.0588,30.2764],[103.0587,30.269],[103.0646,30.2624],[103.07,30.261],[103.0705,30.2439],[103.0762,30.2285],[103.072,30.2229],[103.1091,30.2179],[103.1253,30.2131],[103.1278,30.2077],[103.1364,30.2101],[103.1478,30.2104],[103.1558,30.2161],[103.1594,30.2246],[103.1776,30.2505],[103.1855,30.2457],[103.2006,30.2428],[103.2112,30.2354],[103.2105,30.23],[103.2146,30.2223],[103.2121,30.2131],[103.2203,30.2085],[103.2284,30.2103],[103.2337,30.2206],[103.233,30.2279],[103.2386,30.2393],[103.2394,30.2473],[103.2659,30.2591],[103.2789,30.2668],[103.2889,30.2647],[103.2943,30.2683],[103.3024,30.2679],[103.311,30.2638],[103.3128,30.2706],[103.3274,30.2799],[103.334,30.278],[103.338,30.2806],[103.3328,30.2924],[103.3357,30.2957],[103.3444,30.2898],[103.347,30.2955],[103.3532,30.301],[103.3636,30.3031],[103.3649,30.3078],[103.3734,30.3135],[103.3824,30.3147],[103.3877,30.3113],[103.4038,30.3187],[103.4066,30.3249],[103.4143,30.3332],[103.424,30.3386],[103.4285,30.333],[103.4317,30.3236],[103.4357,30.3231],[103.4567,30.3305],[103.4647,30.3292],[103.4695,30.3354],[103.479,30.329],[103.488,30.3367],[103.505,30.3345],[103.5125,30.3289],[103.5221,30.3329],[103.5264,30.339],[103.5333,30.3354],[103.5412,30.3343],[103.5471,30.3394],[103.5564,30.3412],[103.5557,30.3302],[103.5531,30.3211],[103.5638,30.3136],[103.5779,30.3162],[103.5829,30.3139],[103.6004,30.3234],[103.6226,30.3216],[103.6297,30.3168],[103.6402,30.3144],[103.6479,30.3173],[103.6473,30.3107],[103.6551,30.3084],[103.6604,30.3112],[103.6647,30.3046],[103.6714,30.3043],[103.6781,30.2978],[103.6874,30.2945],[103.69,30.2825],[103.6825,30.2831],[103.6807,30.2741],[103.6873,30.2712],[103.7068,30.273],[103.7151,30.2853],[103.7259,30.2902],[103.7345,30.2887],[103.7357,30.2949],[103.7248,30.3077],[103.7322,30.3131],[103.7405,30.3093],[103.7491,30.3106],[103.7492,30.3197],[103.7584,30.3224],[103.7663,30.3221],[103.7653,30.3313],[103.7539,30.3321],[103.7562,30.3367],[103.7506,30.3402],[103.7462,30.3342],[103.7385,30.3321],[103.7328,30.3384],[103.737,30.3458],[103.7481,30.3506],[103.7547,30.3554],[103.7484,30.3601],[103.7456,30.3676],[103.747,30.3753],[103.7393,30.3825],[103.735,30.3935],[103.7242,30.4026],[103.7214,30.4142],[103.7122,30.42],[103.7041,30.4278],[103.7061,30.437]]]},"properties":{"region_code":"CN-51-5101-510183","parent_region_code":"CN-51-5101","name":"邛崃市","level":"county","has_children":false,"full_path":"中国 / 四川省 / 成都市 / 邛崃市","source_admin_code":"510183","osm_relation_id":2791689}},
{"type":"Feature","geometry":{"type":"Polygon","coordinates":[[[103.7274,30.7557],[103.7168,30.749],[103.7067,30.7657],[103.6957,30.7729],[103.6898,30.7706],[103.6685,30.7768],[103.654,30.7756],[103.6517,30.7702],[103.6443,30.7707],[103.6236,30.7668],[103.6074,30.7678],[103.6019,30.7751],[103.6096,30.788],[103.6067,30.7941],[103.5989,30.7953],[103.5936,30.812],[103.5776,30.8137],[103.5766,30.8206],[103.5606,30.8258],[103.5451,30.8215],[103.5419,30.8267],[103.5418,30.8364],[103.531,30.8397],[103.5242,30.8384],[103.5159,30.8431],[103.4992,30.844],[103.4997,30.8514],[103.4973,30.8583],[103.4855,30.8596],[103.4757,30.8572],[103.4746,30.8623],[103.4687,30.8696],[103.4491,30.8687],[103.447,30.8746],[103.4291,30.875],[103.4312,30.8803],[103.4243,30.8825],[103.4158,30.8716],[103.4095,30.8678],[103.3935,30.8668],[103.3878,30.8645],[103.3814,30.8658],[103.3758,30.8607],[103.358,30.8524],[103.3523,30.8524],[103.3469,30.8469],[103.3385,30.8314],[103.3189,30.8214],[103.3133,30.8161],[103.3045,30.8136],[103.2939,30.8135],[103.29,30.8161],[103.286,30.8268],[103.2781,30.8299],[103.2734,30.8288],[103.2622,30.8325],[103.2539,30.8434],[103.2392,30.8401],[103.2319,30.8359],[103.2236,30.8374],[103.2128,30.8423],[103.2037,30.843],[103.1943,30.8483],[103.1798,30.847],[103.1728,30.8504],[103.1623,30.8438],[103.1559,30.8281],[103.1472,30.8206],[103.1362,30.8166],[103.1292,30.7999],[103.1198,30.794],[103.1188,30.7836],[103.1376,30.7642],[103.1458,30.7652],[103.152,30.7614],[103.1645,30.7493],[103.1719,30.7405],[103.1876,30.7419],[103.1984,30.7363],[103.212,30.7441],[103.2238,30.7562],[103.2377,30.7584],[103.2459,30.752],[103.2468,30.7454],[103.2569,30.7446],[103.2723,30.7177],[103.2821,30.7203],[103.2948,30.7193],[103.3045,30.7256],[103.3143,30.7348],[103.3216,30.7195],[103.3339,30.712],[103.3369,30.7136],[103.3403,30.725],[103.3443,30.7265],[103.3539,30.7369],[103.3589,30.739],[103.3701,30.7341],[103.3736,30.7284],[103.3883,30.7288],[103.406,30.7342],[103.4109,30.7384],[103.4158,30.7363],[103.435,30.7203],[103.4431,30.726],[103.45,30.7197],[103.4597,30.7188],[103.471,30.7257],[103.4741,30.7218],[103.4829,30.7202],[103.4874,30.715],[103.4959,30.7173],[103.5016,30.7132],[103.5061,30.7018],[103.5129,30.7056],[103.5188,30.7051],[103.53,30.6935],[103.5399,30.6922],[103.5432,30.6845],[103.5534,30.6737],[103.55,30.6573],[103.5548,30.6385],[103.5619,30.6307],[103.5608,30.6244],[103.5628,30.6175],[103.5614,30.603],[103.5674,30.6001],[103.5667,30.5954],[103.5604,30.5927],[103.5541,30.5783],[103.556,30.5704],[103.5658,30.5545],[103.556,30.5477],[103.5557,30.5413],[103.5663,30.536],[103.5745,30.5398],[103.5837,30.535],[103.5967,30.5382],[103.6074,30.5389],[103.6145,30.546],[103.6238,30.5478],[103.6267,30.537],[103.625,30.5342],[103.6322,30.5287],[103.6276,30.5224],[103.631,30.5162],[103.6378,30.5151],[103.6527,30.5313],[103.6538,30.5345],[103.6743,30.5507],[103.682,30.5534],[103.6957,30.5548],[103.6988,30.5623],[103.7096,30.5602],[103.7159,30.5662],[103.7249,30.5564],[103.7375,30.5498],[103.7432,30.5493],[103.7546,30.5264],[103.756,30.5183],[103.762,30.51],[103.7641,30.5022],[103.7723,30.5015],[103.7778,30.5049],[103.7828,30.5002],[103.7961,30.5022],[103.794,30.5083],[103.787,30.5149],[103.8009,30.5252],[103.8216,30.5238],[103.8107,30.538],[103.8153,30.5408],[103.8145,30.548],[103.8186,30.5551],[103.8203,30.5677],[103.8194,30.5812],[103.8103,30.5858],[103.8078,30.5935],[103.8018,30.594],[103.801,30.6048],[103.7955,30.6082],[103.7961,30.6162],[103.7915,30.619],[103.7925,30.6239],[103.7816,30.6316],[103.7823,30.6354],[103.7721,30.6497],[103.772,30.6542],[103.7616,30.663],[103.7628,30.6751],[103.7575,30.6835],[103.757,30.6912],[103.7532,30.6927],[103.7504,30.7053],[103.7528,30.7118],[103.7493,30.7211],[103.7393,30.7292],[103.7332,30.7366],[103.7277,30.7481],[103.7274,30.7557]]]},"properties":{"region_code":"CN-51-5101-510184","parent_region_code":"CN-51-5101","name":"崇州市","level":"county","has_children":false,"full_path":"中国 / 四川省 / 成都市 / 崇州市","source_admin_code":"510184","osm_relation_id":2791680}},
{"type":"Feature","geometry":{"type":"Polygon","coordinates":[[[104.2449,30.4644],[104.247,30.4598],[104.2579,30.4616],[104.2672,30.4596],[104.2639,30.4524],[104.2555,30.4405],[104.2465,30.4312],[104.2506,30.4217],[104.2422,30.4195],[104.23,30.4191],[104.2256,30.4127],[104.2273,30.4025],[104.2259,30.3985],[104.2177,30.3941],[104.2207,30.3888],[104.2173,30.3791],[104.2115,30.3748],[104.2056,30.3643],[104.1947,30.3544],[104.1978,30.3444],[104.1893,30.3326],[104.1968,30.325],[104.1992,30.3192],[104.2107,30.3231],[104.2299,30.3164],[104.2324,30.3121],[104.2289,30.3069],[104.2293,30.2946],[104.2237,30.289],[104.2233,30.2786],[104.2289,30.275],[104.2338,30.2783],[104.241,30.2701],[104.2286,30.2588],[104.2307,30.254],[104.2364,30.2521],[104.2416,30.2467],[104.2471,30.2473],[104.2535,30.2442],[104.2622,30.2443],[104.2687,30.2333],[104.2674,30.2242],[104.2702,30.2205],[104.2799,30.2235],[104.2899,30.2137],[104.3046,30.209],[104.3077,30.2038],[104.313,30.2034],[104.3247,30.2069],[104.3338,30.1997],[104.3499,30.1965],[104.362,30.1885],[104.3598,30.1833],[104.3511,30.1818],[104.3556,30.1762],[104.3681,30.17],[104.3794,30.1681],[104.3855,30.1592],[104.3885,30.1409],[104.3854,30.1358],[104.3962,30.1272],[104.4071,30.1281],[104.4134,30.1183],[104.4177,30.107],[104.4129,30.1024],[104.4258,30.0923],[104.4322,30.0971],[104.4356,30.1041],[104.4417,30.1021],[104.4447,30.1084],[104.4345,30.1101],[104.4424,30.1174],[104.4552,30.1232],[104.4468,30.1354],[104.4525,30.1408],[104.455,30.1496],[104.463,30.1491],[104.4647,30.1586],[104.473,30.1636],[104.4786,30.1584],[104.4827,30.1586],[104.4864,30.1652],[104.4815,30.1696],[104.4835,30.1772],[104.4823,30.1854],[104.4883,30.1907],[104.4976,30.1919],[104.5077,30.1849],[104.5216,30.1886],[104.5263,30.1965],[104.5331,30.195],[104.5391,30.1871],[104.559,30.1954],[104.5669,30.1999],[104.5699,30.208],[104.5824,30.2137],[104.5978,30.2233],[104.5995,30.2384],[104.5947,30.2401],[104.5973,30.2473],[104.6068,30.248],[104.614,30.243],[104.6426,30.2418],[104.6507,30.243],[104.6503,30.2541],[104.6358,30.271],[104.6352,30.2747],[104.6412,30.2858],[104.6497,30.2882],[104.6579,30.2804],[104.6657,30.2787],[104.6796,30.282],[104.6894,30.2781],[104.7013,30.3044],[104.7088,30.3088],[104.7237,30.3086],[104.7251,30.297],[104.7358,30.293],[104.7466,30.2957],[104.7482,30.3016],[104.7563,30.3049],[104.7637,30.3033],[104.7721,30.3042],[104.7768,30.2998],[104.7835,30.2987],[104.7883,30.2878],[104.7957,30.2826],[104.8005,30.2917],[104.807,30.2954],[104.8209,30.2983],[104.8235,30.3064],[104.8296,30.3042],[104.8367,30.3079],[104.8461,30.3096],[104.8488,30.3212],[104.8472,30.3283],[104.8477,30.3417],[104.8399,30.3478],[104.8323,30.3582],[104.8368,30.3636],[104.844,30.3571],[104.8469,30.3481],[104.8528,30.35],[104.8529,30.3558],[104.8574,30.3657],[104.8645,30.3685],[104.8801,30.3665],[104.8818,30.3748],[104.8932,30.3852],[104.8783,30.3969],[104.8763,30.404],[104.8763,30.4213],[104.8717,30.4217],[104.8675,30.4292],[104.8723,30.4386],[104.8716,30.4542],[104.873,30.4662],[104.8708,30.4752],[104.8726,30.4878],[104.8695,30.494],[104.8736,30.5041],[104.8728,30.5114],[104.8605,30.5123],[104.8491,30.5066],[104.8401,30.5123],[104.829,30.5111],[104.8261,30.5133],[104.8181,30.5093],[104.8123,30.5122],[104.8029,30.5052],[104.8065,30.4957],[104.7921,30.4913],[104.7799,30.4919],[104.7747,30.4871],[104.7641,30.4867],[104.7554,30.5052],[104.7468,30.5109],[104.7385,30.5127],[104.7282,30.5178],[104.7308,30.5279],[104.7276,30.5319],[104.7291,30.5378],[104.7199,30.5445],[104.707,30.5466],[104.7042,30.5498],[104.6889,30.5533],[104.6833,30.5573],[104.6815,30.5647],[104.6852,30.5767],[104.6853,30.5824],[104.6926,30.5837],[104.6941,30.591],[104.6984,30.5942],[104.6962,30.5998],[104.6911,30.6027],[104.6804,30.6044],[104.6763,30.6099],[104.6615,30.6138],[104.6531,30.6085],[104.6496,30.6136],[104.6325,30.6194],[104.6166,30.623],[104.6084,30.6217],[104.5999,30.6292],[104.5948,30.6365],[104.588,30.6323],[104.5716,30.6452],[104.5671,30.6355],[104.562,30.6302],[104.5456,30.6374],[104.5425,30.6296],[104.5272,30.6301],[104.5232,30.6217],[104.5253,30.6147],[104.5174,30.6167],[104.5123,30.6101],[104.5033,30.6078],[104.5005,30.6],[104.4825,30.594],[104.4732,30.5981],[104.4651,30.5924],[104.4587,30.5945],[104.4488,30.5918],[104.4441,30.5961],[104.4337,30.5926],[104.428,30.5993],[104.4194,30.6006],[104.4134,30.6006],[104.4041,30.596],[104.4001,30.5843],[104.3989,30.5756],[104.4061,30.5656],[104.4005,30.5582],[104.4011,30.5395],[104.3967,30.5362],[104.4052,30.525],[104.4118,30.5251],[104.4144,30.5193],[104.4037,30.5104],[104.3961,30.5124],[104.3933,30.5086],[104.3974,30.4942],[104.3904,30.4858],[104.3871,30.4895],[104.3769,30.4929],[104.3729,30.4896],[104.3652,30.4924],[104.356,30.4844],[104.3436,30.4848],[104.3415,30.4899],[104.342,30.4991],[104.3336,30.5158],[104.3231,30.5205],[104.3195,30.5148],[104.3278,30.5077],[104.3303,30.4956],[104.3218,30.4924],[104.3051,30.501],[104.2974,30.5091],[104.2892,30.5004],[104.2753,30.4899],[104.2686,30.488],[104.2602,30.4895],[104.2547,30.4846],[104.2546,30.4768],[104.2575,30.4707],[104.2494,30.4701],[104.2449,30.4644]]]},"properties":{"region_code":"CN-51-5101-510185","parent_region_code":"CN-51-5101","name":"简阳市","level":"county","has_children":false,"full_path":"中国 / 四川省 / 成都市 / 简阳市","source_admin_code":"510185","osm_relation_id":2788721}}
]}