{"type":"FeatureCollection", "features": [
{"type":"Feature","geometry":{"type":"Polygon","coordinates":[[[90.9909,31.4497],[91.1057,31.3268],[91.1072,31.2776],[91.2269,31.149],[91.2737,31.0503],[91.3456,31.0433],[91.369,30.9882],[91.3688,30.9192],[91.3941,30.8248],[91.4402,30.7488],[91.4216,30.7219],[91.547,30.6539],[91.6914,30.703],[91.8277,30.6213],[91.9064,30.5194],[91.9988,30.5251],[92.0714,30.547],[92.1112,30.5853],[92.205,30.562],[92.2501,30.5711],[92.2949,30.6202],[92.2551,30.6456],[92.2271,30.7232],[92.2541,30.787],[92.2805,30.905],[92.3358,30.894],[92.4563,30.9794],[92.4476,31.0087],[92.5716,31.0644],[92.6163,31.0509],[92.6706,31.1058],[92.7362,31.1333],[92.7964,31.1348],[92.8557,31.2683],[92.94,31.248],[92.9907,31.2945],[93.0104,31.315],[92.9824,31.3881],[93.014,31.4494],[92.8848,31.4904],[92.8155,31.5261],[92.8435,31.5793],[92.8911,31.5698],[92.9607,31.6959],[92.853,31.7445],[92.8257,31.8126],[92.7705,31.8723],[92.6837,31.817],[92.5396,31.8728],[92.5343,31.8212],[92.4897,31.7875],[92.4675,31.7357],[92.3768,31.7435],[92.1537,31.6944],[92.1305,31.73],[91.9549,31.6766],[91.953,31.6069],[91.9085,31.5695],[91.5907,31.7389],[91.525,31.6451],[91.3551,31.6425],[91.1934,31.5402],[91.1503,31.4659],[91.0493,31.4404],[90.9909,31.4497]]]},"properties":{"region_code":"CN-54-5406-540602","parent_region_code":"CN-54-5406","name":"色尼区","level":"county","has_children":false,"full_path":"中国 / 西藏自治区 / 那曲市 / 色尼区","source_admin_code":"540602","osm_relation_id":2745051}},
{"type":"Feature","geometry":{"type":"Polygon","coordinates":[[[91.9064,30.5194],[91.815,30.4942],[91.7901,30.4657],[91.8445,30.4072],[91.8576,30.2864],[91.8904,30.2934],[91.9557,30.2311],[91.9588,30.1885],[92.076,30.2215],[92.1379,30.2032],[92.2153,30.3149],[92.2711,30.3072],[92.298,30.2665],[92.4024,30.2684],[92.5131,30.2393],[92.6231,30.2292],[92.6255,30.2852],[92.7073,30.2973],[92.7082,30.3386],[92.7877,30.4177],[92.7602,30.4745],[92.7919,30.5307],[92.8815,30.5444],[92.9031,30.6121],[92.9736,30.5812],[93.0231,30.5868],[93.0234,30.5136],[93.0819,30.4933],[93.1294,30.4155],[93.1652,30.4149],[93.2494,30.5095],[93.2978,30.4741],[93.3646,30.4715],[93.4288,30.4154],[93.4047,30.348],[93.4626,30.3167],[93.6187,30.289],[93.6495,30.3042],[93.7756,30.285],[93.9017,30.3172],[93.9974,30.3016],[94.0218,30.3699],[94.1053,30.3922],[94.1135,30.504],[94.0359,30.5208],[93.954,30.6102],[93.8612,30.6224],[93.7247,30.7444],[93.6793,30.7558],[93.7014,30.8078],[93.6815,30.8476],[93.6013,30.8573],[93.649,30.9242],[93.614,30.967],[93.4997,31.006],[93.4551,31.0357],[93.3392,31.0092],[93.2885,31.0362],[93.3388,31.0788],[93.2595,31.0927],[93.1919,31.1377],[93.0317,31.1268],[93.046,31.1551],[92.9907,31.2945],[92.94,31.248],[92.8557,31.2683],[92.7964,31.1348],[92.7362,31.1333],[92.6706,31.1058],[92.6163,31.0509],[92.5716,31.0644],[92.4476,31.0087],[92.4563,30.9794],[92.3358,30.894],[92.2805,30.905],[92.2541,30.787],[92.2271,30.7232],[92.2551,30.6456],[92.2949,30.6202],[92.2501,30.5711],[92.205,30.562],[92.1112,30.5853],[92.0714,30.547],[91.9988,30.5251],[91.9064,30.5194]]]},"properties":{"region_code":"CN-54-5406-540621","parent_region_code":"CN-54-5406","name":"嘉黎县","level":"county","has_children":false,"full_path":"中国 / 西藏自治区 / 那曲市 / 嘉黎县","source_admin_code":"540621","osm_relation_id":2745050}},
{"type":"Feature","geometry":{"type":"Polygon","coordinates":[[[92.9907,31.2945],[93.046,31.1551],[93.0317,31.1268],[93.1919,31.1377],[93.2595,31.0927],[93.3388,31.0788],[93.2885,31.0362],[93.3392,31.0092],[93.4551,31.0357],[93.4997,31.006],[93.614,30.967],[93.649,30.9242],[93.6984,30.9339],[93.7876,30.9002],[93.8546,30.9069],[93.9218,30.8436],[93.9869,30.8727],[94.0637,30.8742],[94.1475,30.852],[94.2453,30.8739],[94.3249,30.8601],[94.3398,30.9195],[94.2657,31.0218],[94.2556,31.0767],[94.2088,31.0944],[94.2506,31.1978],[94.289,31.2123],[94.2787,31.2671],[94.2977,31.3158],[94.2815,31.3739],[94.1186,31.37],[94.0903,31.4355],[93.9852,31.4783],[93.9213,31.5298],[93.8849,31.5288],[93.8222,31.5722],[93.7609,31.6914],[93.7183,31.7078],[93.6811,31.6674],[93.6147,31.7179],[93.6409,31.7867],[93.6048,31.8572],[93.5437,31.8707],[93.5064,31.9179],[93.391,31.9658],[93.3391,31.9475],[93.2363,31.9497],[93.1736,32.0207],[93.0851,32.0407],[93.0463,32.0824],[92.8857,32.1093],[92.8243,32.0488],[92.7576,32.1025],[92.7207,32.0805],[92.7079,32.022],[92.7369,31.9932],[92.6566,31.9592],[92.5396,31.8728],[92.6837,31.817],[92.7705,31.8723],[92.8257,31.8126],[92.853,31.7445],[92.9607,31.6959],[92.8911,31.5698],[92.8435,31.5793],[92.8155,31.5261],[92.8848,31.4904],[93.014,31.4494],[92.9824,31.3881],[93.0104,31.315],[92.9907,31.2945]]]},"properties":{"region_code":"CN-54-5406-540622","parent_region_code":"CN-54-5406","name":"比如县","level":"county","has_children":false,"full_path":"中国 / 西藏自治区 / 那曲市 / 比如县","source_admin_code":"540622","osm_relation_id":2745049}},
{"type":"Feature","geometry":{"type":"Polygon","coordinates":[[[92.5396,31.8728],[92.6566,31.9592],[92.7369,31.9932],[92.7079,32.022],[92.7207,32.0805],[92.7576,32.1025],[92.8243,32.0488],[92.8857,32.1093],[93.0463,32.0824],[92.9947,32.13],[93.0479,32.2503],[93.1017,32.275],[93.1567,32.2426],[93.1799,32.1859],[93.2907,32.1756],[93.3642,32.211],[93.3653,32.3007],[93.3383,32.3333],[93.4346,32.3761],[93.4269,32.4747],[93.5147,32.4783],[93.5919,32.515],[93.5805,32.5752],[93.609,32.653],[93.5719,32.7209],[93.5716,32.7685],[93.6275,32.7939],[93.7196,32.8011],[93.7724,32.9462],[93.7106,33.0127],[93.6172,33.0444],[93.4325,33.1707],[93.3945,33.2426],[93.2906,33.2857],[93.2542,33.335],[93.1582,33.2637],[93.1033,33.2967],[93.0072,33.2711],[92.9509,33.2378],[92.9873,33.1154],[92.8943,32.989],[92.9041,32.8435],[92.8362,32.802],[92.8032,32.7318],[92.6872,32.7685],[92.6487,32.724],[92.5773,32.7436],[92.5201,32.6001],[92.4727,32.582],[92.451,32.5338],[92.338,32.4441],[92.3508,32.3935],[92.2981,32.337],[92.3384,32.2279],[92.2918,32.1712],[92.0477,32.1899],[91.86,32.1776],[91.8287,32.0669],[91.8989,31.9688],[91.9755,31.9397],[92.0195,31.8575],[91.9261,31.8367],[91.8932,31.7881],[91.9049,31.7385],[91.9549,31.6766],[92.1305,31.73],[92.1537,31.6944],[92.3768,31.7435],[92.4675,31.7357],[92.4897,31.7875],[92.5343,31.8212],[92.5396,31.8728]]]},"properties":{"region_code":"CN-54-5406-540623","parent_region_code":"CN-54-5406","name":"聂荣县","level":"county","has_children":false,"full_path":"中国 / 西藏自治区 / 那曲市 / 聂荣县","source_admin_code":"540623","osm_relation_id":2745052}},
{"type":"Feature","geometry":{"type":"Polygon","coordinates":[[[91.9549,31.6766],[91.9049,31.7385],[91.8932,31.7881],[91.9261,31.8367],[92.0195,31.8575],[91.9755,31.9397],[91.8989,31.9688],[91.8287,32.0669],[91.86,32.1776],[92.0477,32.1899],[92.2918,32.1712],[92.3384,32.2279],[92.2981,32.337],[92.3508,32.3935],[92.338,32.4441],[92.451,32.5338],[92.4727,32.582],[92.5201,32.6001],[92.5773,32.7436],[92.6487,32.724],[92.6872,32.7685],[92.8032,32.7318],[92.8362,32.802],[92.9041,32.8435],[92.8943,32.989],[92.9873,33.1154],[92.9509,33.2378],[93.0072,33.2711],[93.1033,33.2967],[93.1582,33.2637],[93.2542,33.335],[93.2906,33.2857],[93.3945,33.2426],[93.4325,33.1707],[93.4689,33.2059],[93.4792,33.2766],[93.5204,33.3873],[93.4827,33.4715],[93.506,33.602],[93.5321,33.6484],[93.4344,33.7048],[93.3956,33.7552],[93.1309,33.7766],[93.0049,33.8075],[92.9169,33.7791],[92.8455,33.8185],[92.7746,33.9375],[92.6906,33.954],[92.6257,33.9362],[92.601,33.8798],[92.5223,33.8681],[92.3883,33.8969],[92.3574,33.9553],[92.3816,33.9915],[92.3497,34.0399],[92.1169,34.2879],[92.0943,34.3859],[92.0438,34.461],[91.9117,34.4964],[91.9568,34.5545],[91.9383,34.5877],[91.773,34.6182],[91.7468,34.6544],[91.6875,34.6583],[91.5198,34.7195],[91.4573,34.7272],[91.3372,34.7896],[91.2248,34.8065],[91.0562,34.7913],[90.9834,34.7471],[90.9425,34.7668],[90.9187,34.8359],[90.7814,34.8911],[90.736,34.885],[90.632,34.9212],[90.2052,34.9401],[90.177,34.8867],[90.1173,34.8675],[90.0478,34.9132],[89.9556,34.9026],[89.9009,34.872],[89.8694,34.9041],[89.7803,34.9222],[89.7056,34.9179],[89.6601,34.8887],[89.5866,34.8983],[89.5593,34.9356],[89.5896,35.0335],[89.5881,35.1144],[89.5187,35.1364],[89.4519,35.2317],[89.4917,35.2987],[89.5053,35.3747],[89.5825,35.3845],[89.6338,35.4193],[89.688,35.4217],[89.7344,35.4711],[89.7057,35.5112],[89.711,35.5827],[89.7614,35.5924],[89.743,35.6588],[89.7448,35.7532],[89.7999,35.849],[89.7727,35.8621],[89.6523,35.8486],[89.5287,35.8704],[89.4258,35.918],[89.416,36.0458],[89.4707,36.023],[89.636,36.0506],[89.6797,36.0912],[89.485,36.1538],[89.3735,36.2283],[89.2882,36.2337],[89.2987,36.1889],[89.2636,36.1519],[89.1692,36.1948],[89.0964,36.1894],[89.2083,36.1088],[89.2401,36.0515],[89.2777,36.0417],[89.3279,35.8762],[89.2658,35.7854],[89.2766,35.7465],[89.23,35.6411],[89.249,35.592],[89.2126,35.5113],[89.1121,35.4765],[89.1144,35.4139],[89.0195,35.3751],[88.9384,35.3615],[88.8533,35.3671],[88.8277,35.3253],[88.8507,35.2274],[88.8172,35.1783],[88.8546,35.1375],[88.8763,35.0268],[88.7877,34.9534],[88.7726,34.8688],[88.7105,34.7353],[88.7431,34.6775],[88.8518,34.6353],[88.9119,34.5701],[88.9498,34.4739],[88.9528,34.3726],[89.0323,34.2877],[89.0277,34.2438],[89.1085,34.2019],[89.1521,34.0756],[89.2182,34.0574],[89.2729,34.1728],[89.3548,34.1404],[89.4054,34.0639],[89.4033,33.9945],[89.4932,33.9477],[89.4877,33.8781],[89.446,33.8201],[89.4679,33.7682],[89.5576,33.7766],[89.595,33.7407],[89.5653,33.6791],[89.6461,33.6288],[89.9146,33.5873],[89.987,33.4872],[89.9602,33.4065],[90.002,33.371],[90.0409,33.2409],[89.9758,33.0839],[89.9379,32.9447],[89.9592,32.9146],[90.0885,32.9305],[90.1488,32.8919],[90.084,32.8639],[90.0988,32.8147],[90.2838,32.6173],[90.2918,32.5608],[90.354,32.4191],[90.34,32.3754],[90.3752,32.286],[90.3675,32.2256],[90.4573,32.2367],[90.5258,32.2248],[90.5922,32.2357],[90.6718,32.1025],[90.6651,32.0462],[90.612,31.9979],[90.6596,31.9467],[90.6794,31.8689],[90.7818,31.8839],[90.7983,31.8415],[90.85,31.8097],[90.9045,31.7441],[90.8932,31.6481],[90.9818,31.6074],[90.9909,31.4497],[91.0493,31.4404],[91.1503,31.4659],[91.1934,31.5402],[91.3551,31.6425],[91.525,31.6451],[91.5907,31.7389],[91.9085,31.5695],[91.953,31.6069],[91.9549,31.6766]]]},"properties":{"region_code":"CN-54-5406-540624","parent_region_code":"CN-54-5406","name":"安多县","level":"county","has_children":false,"full_path":"中国 / 西藏自治区 / 那曲市 / 安多县","source_admin_code":"540624","osm_relation_id":2745047}},
{"type":"Feature","geometry":{"type":"Polygon","coordinates":[[[87.8842,31.6427],[87.9141,31.5177],[87.9799,31.436],[87.9633,31.3631],[88.096,31.249],[88.1022,31.1804],[88.0488,31.032],[88.1168,31.016],[88.1445,30.9466],[88.0944,30.9355],[88.0193,30.8652],[87.9415,30.8475],[87.9444,30.8009],[87.836,30.7821],[87.8504,30.6966],[87.7862,30.6327],[87.8317,30.5944],[87.8269,30.5143],[87.8836,30.5226],[87.8817,30.4615],[87.9572,30.4371],[87.9682,30.3849],[88.0335,30.3597],[88.0794,30.3788],[88.1152,30.2787],[88.1848,30.2598],[88.1989,30.2274],[88.2709,30.2234],[88.2905,30.2613],[88.4096,30.2462],[88.4802,30.1776],[88.4622,30.0885],[88.5159,30.0532],[88.5627,30.1433],[88.6055,30.1585],[88.6431,30.226],[88.7099,30.2316],[88.8033,30.2032],[88.9119,30.2254],[88.9519,30.2027],[89.0041,30.2605],[89.0853,30.2571],[89.1892,30.3125],[89.2349,30.2619],[89.3167,30.2721],[89.3754,30.2267],[89.4147,30.2565],[89.427,30.2726],[89.4224,30.4112],[89.5414,30.447],[89.6098,30.4326],[89.6164,30.5017],[89.5303,30.5128],[89.5912,30.5647],[89.5961,30.6069],[89.6463,30.668],[89.5698,30.7365],[89.7389,30.7363],[89.7735,30.7685],[89.7877,30.8362],[89.748,30.894],[89.6914,30.9383],[89.6895,31.0335],[89.6387,31.0379],[89.6175,31.0931],[89.5784,31.1109],[89.3986,31.0352],[89.407,30.9843],[89.4471,30.9271],[89.3714,30.8905],[89.3399,30.9643],[89.3455,31.0368],[89.2816,31.1133],[89.2387,31.1353],[89.2439,31.2029],[89.2746,31.2623],[89.3311,31.2787],[89.3559,31.3522],[89.3228,31.4607],[89.3324,31.5185],[89.2877,31.6111],[89.1691,31.6081],[89.0371,31.6857],[88.9992,31.9402],[89.0144,31.9875],[89.1869,31.997],[89.1889,31.9505],[89.3045,31.9497],[89.3376,31.9847],[89.3209,32.0447],[89.3487,32.0768],[89.2887,32.161],[89.2005,32.1768],[89.1302,32.2278],[89.1452,32.2599],[89.019,32.2945],[89.019,32.2466],[88.9788,32.1999],[89.0092,32.1288],[88.9786,32.0471],[88.9634,31.821],[88.7806,31.7711],[88.594,31.8477],[88.5604,31.9368],[88.4614,31.9635],[88.4241,31.9185],[88.3373,31.8978],[88.1968,31.8986],[88.1914,31.8342],[88.1425,31.7959],[87.8942,31.6944],[87.8842,31.6427]]]},"properties":{"region_code":"CN-54-5406-540625","parent_region_code":"CN-54-5406","name":"申扎县","level":"county","has_children":false,"full_path":"中国 / 西藏自治区 / 那曲市 / 申扎县","source_admin_code":"540625","osm_relation_id":2745055}},
{"type":"Feature","geometry":{"type":"Polygon","coordinates":[[[94.2977,31.3158],[94.3673,31.2966],[94.3962,31.327],[94.4885,31.3625],[94.5234,31.4111],[94.5781,31.3887],[94.614,31.3168],[94.6725,31.3171],[94.7464,31.3637],[94.7727,31.3325],[94.7269,31.2678],[94.7123,31.1779],[94.7342,31.1117],[94.775,31.0787],[94.8282,31.1147],[94.9783,31.1433],[95.0466,31.1895],[94.9847,31.2778],[94.9687,31.3658],[94.9017,31.3793],[94.8702,31.4156],[94.9116,31.4922],[94.8915,31.5393],[94.7635,31.569],[94.7503,31.6422],[94.7209,31.6879],[94.7724,31.7253],[94.7606,31.7876],[94.6859,31.819],[94.5927,31.7462],[94.4757,31.7702],[94.411,31.8102],[94.3492,31.8005],[94.297,31.843],[94.206,31.8465],[94.1325,31.8683],[94.0325,31.8401],[93.9968,31.9126],[93.8222,31.9656],[93.7988,31.9406],[93.6914,32.0003],[93.6134,31.9549],[93.6048,31.9149],[93.5064,31.9179],[93.5437,31.8707],[93.6048,31.8572],[93.6409,31.7867],[93.6147,31.7179],[93.6811,31.6674],[93.7183,31.7078],[93.7609,31.6914],[93.8222,31.5722],[93.8849,31.5288],[93.9213,31.5298],[93.9852,31.4783],[94.0903,31.4355],[94.1186,31.37],[94.2815,31.3739],[94.2977,31.3158]]]},"properties":{"region_code":"CN-54-5406-540626","parent_region_code":"CN-54-5406","name":"索县","level":"county","has_children":false,"full_path":"中国 / 西藏自治区 / 那曲市 / 索县","source_admin_code":"540626","osm_relation_id":2745054}},
{"type":"Feature","geometry":{"type":"Polygon","coordinates":[[[90.9909,31.4497],[90.9818,31.6074],[90.8932,31.6481],[90.9045,31.7441],[90.85,31.8097],[90.7983,31.8415],[90.7818,31.8839],[90.6794,31.8689],[90.6596,31.9467],[90.612,31.9979],[90.6651,32.0462],[90.6718,32.1025],[90.5922,32.2357],[90.5258,32.2248],[90.4573,32.2367],[90.3675,32.2256],[90.302,32.2102],[90.3185,32.1413],[90.3013,32.0278],[90.1669,32.005],[90.1283,31.9586],[89.9703,31.9669],[89.8741,31.9625],[89.8589,31.9363],[89.7321,31.9578],[89.5596,32.0275],[89.5333,31.9935],[89.4654,31.9824],[89.3906,32.0076],[89.3952,32.0627],[89.3487,32.0768],[89.3209,32.0447],[89.3376,31.9847],[89.3045,31.9497],[89.1889,31.9505],[89.1869,31.997],[89.0144,31.9875],[88.9992,31.9402],[89.0371,31.6857],[89.1691,31.6081],[89.2877,31.6111],[89.3324,31.5185],[89.3228,31.4607],[89.3559,31.3522],[89.3311,31.2787],[89.2746,31.2623],[89.2439,31.2029],[89.2387,31.1353],[89.2816,31.1133],[89.3455,31.0368],[89.3399,30.9643],[89.3714,30.8905],[89.4471,30.9271],[89.407,30.9843],[89.3986,31.0352],[89.5784,31.1109],[89.6175,31.0931],[89.6387,31.0379],[89.6895,31.0335],[89.6914,30.9383],[89.748,30.894],[89.7877,30.8362],[89.7735,30.7685],[89.7389,30.7363],[89.5698,30.7365],[89.6463,30.668],[89.5961,30.6069],[89.5912,30.5647],[89.5303,30.5128],[89.6164,30.5017],[89.6098,30.4326],[89.5414,30.447],[89.4224,30.4112],[89.427,30.2726],[89.4147,30.2565],[89.4939,30.2577],[89.5509,30.2197],[89.5891,30.2386],[89.6444,30.2068],[89.6829,30.2259],[89.7155,30.176],[89.7835,30.1774],[89.8285,30.1337],[89.8301,30.0597],[89.8774,30.0352],[89.893,29.9788],[90.0367,29.9393],[90.0838,29.9613],[90.0819,30.0193],[90.1586,30.0943],[90.1926,30.1701],[90.2312,30.2018],[90.2432,30.2794],[90.3557,30.3012],[90.3976,30.3453],[90.5658,30.4086],[90.6554,30.4721],[90.5928,30.5617],[90.7063,30.8831],[90.7199,30.9515],[90.755,31.0147],[90.7961,31.0263],[90.8772,30.9899],[90.9196,31.0241],[90.9778,30.9811],[90.9801,30.9399],[91.0882,30.8845],[91.1229,30.9229],[91.1066,31.0233],[91.1915,31.0216],[91.2737,31.0503],[91.2269,31.149],[91.1072,31.2776],[91.1057,31.3268],[90.9909,31.4497]]]},"properties":{"region_code":"CN-54-5406-540627","parent_region_code":"CN-54-5406","name":"班戈县","level":"county","has_children":false,"full_path":"中国 / 西藏自治区 / 那曲市 / 班戈县","source_admin_code":"540627","osm_relation_id":2747064}},
{"type":"Feature","geometry":{"type":"Polygon","coordinates":[[[93.5064,31.9179],[93.6048,31.9149],[93.6134,31.9549],[93.6914,32.0003],[93.7988,31.9406],[93.8222,31.9656],[93.9968,31.9126],[94.0325,31.8401],[94.1325,31.8683],[94.206,31.8465],[94.297,31.843],[94.3492,31.8005],[94.411,31.8102],[94.4757,31.7702],[94.5927,31.7462],[94.6859,31.819],[94.6466,31.8858],[94.6729,31.9427],[94.6526,31.9913],[94.6898,32.0478],[94.6457,32.1004],[94.6676,32.2145],[94.7419,32.263],[94.7586,32.3309],[94.684,32.4112],[94.7063,32.4985],[94.7573,32.532],[94.7205,32.6056],[94.6895,32.6051],[94.6136,32.6756],[94.4151,32.6897],[94.3245,32.7445],[94.3241,32.785],[94.2675,32.8415],[94.152,32.8985],[94.0418,32.9021],[93.9413,32.8694],[93.8528,32.8802],[93.7724,32.9462],[93.7196,32.8011],[93.6275,32.7939],[93.5716,32.7685],[93.5719,32.7209],[93.609,32.653],[93.5805,32.5752],[93.5919,32.515],[93.5147,32.4783],[93.4269,32.4747],[93.4346,32.3761],[93.3383,32.3333],[93.3653,32.3007],[93.3642,32.211],[93.2907,32.1756],[93.1799,32.1859],[93.1567,32.2426],[93.1017,32.275],[93.0479,32.2503],[92.9947,32.13],[93.0463,32.0824],[93.0851,32.0407],[93.1736,32.0207],[93.2363,31.9497],[93.3391,31.9475],[93.391,31.9658],[93.5064,31.9179]]]},"properties":{"region_code":"CN-54-5406-540628","parent_region_code":"CN-54-5406","name":"巴青县","level":"county","has_children":false,"full_path":"中国 / 西藏自治区 / 那曲市 / 巴青县","source_admin_code":"540628","osm_relation_id":2745048}},
{"type":"Feature","geometry":{"type":"MultiPolygon","coordinates":[[[[87.8842,31.6427],[87.818,31.7242],[87.6862,31.7235],[87.55,31.6982],[87.466,31.738],[87.4721,31.7794],[87.3766,31.9417],[87.4193,32.1863],[87.3847,32.2808],[87.4288,32.3078],[87.2811,32.5211],[87.2587,32.6495],[87.2153,32.6558],[87.1896,32.7789],[87.193,32.8376],[87.1605,32.8615],[87.1503,33.0184],[87.2214,33.0735],[87.2567,33.1977],[87.2336,33.2527],[87.2357,33.3937],[87.2093,33.466],[87.1672,33.4796],[87.1171,33.5384],[87.1713,33.6416],[87.149,33.7403],[87.1137,33.814],[87.1232,33.9457],[87.092,33.9783],[87.1103,34.0372],[87.0555,34.1287],[87.1015,34.2447],[87.1266,34.3432],[87.1591,34.3645],[87.1476,34.4204],[87.0877,34.4218],[87.085,34.4643],[87.1839,34.4967],[87.1852,34.5347],[87.0552,34.5871],[87.0525,34.6908],[86.9725,34.7197],[86.9739,34.8922],[87.0172,35.0254],[87.0416,35.0609],[86.9224,35.2338],[86.7815,35.2205],[86.7557,35.3344],[86.8167,35.3499],[86.8086,35.3897],[86.7069,35.3941],[86.7422,35.4979],[86.6511,35.4979],[86.5224,35.5326],[86.4438,35.5329],[86.2873,35.5682],[86.2569,35.5066],[86.25,35.4294],[86.2725,35.3876],[86.2428,35.3489],[86.1726,35.3236],[86.2052,35.2739],[86.2001,35.2096],[86.2295,35.1546],[86.143,35.0076],[86.1331,34.8773],[86.1066,34.8142],[86.0461,34.75],[86.0295,34.6958],[86.0487,34.6551],[86.0228,34.6147],[85.9432,34.5642],[85.9505,34.5079],[86.0629,34.4797],[86.1574,34.407],[86.1654,34.3597],[86.1235,34.2831],[86.1277,34.2105],[86.1953,34.1253],[86.1859,34.0297],[86.269,33.8955],[86.2671,33.849],[86.2065,33.7851],[86.1745,33.7125],[86.1841,33.6529],[86.2439,33.6341],[86.265,33.5954],[86.2628,33.4926],[86.3062,33.4312],[86.2484,33.3886],[86.2401,33.325],[86.1268,33.2734],[86.0294,33.2446],[86.0148,33.1709],[86.0769,33.1574],[86.1682,33.1621],[86.1058,33.0733],[86.0502,32.9098],[86.1046,32.8581],[86.0715,32.8058],[85.971,32.7765],[85.8985,32.7067],[85.7551,32.6915],[85.5869,32.6378],[85.5105,32.5906],[85.3801,32.5753],[85.336,32.5177],[85.2695,32.5007],[85.2169,32.416],[85.2228,32.3788],[85.1741,32.2478],[85.0537,32.1033],[85.0601,32.0647],[85.1358,32.0071],[85.1656,31.8815],[85.1285,31.8382],[85.1414,31.7655],[85.1187,31.6794],[85.1893,31.6761],[85.2811,31.6444],[85.3081,31.5816],[85.3497,31.5596],[85.3959,31.595],[85.4446,31.5398],[85.5581,31.4918],[85.5418,31.4641],[85.6022,31.3645],[85.6423,31.3578],[85.786,31.2933],[85.8613,31.2878],[85.8683,31.2551],[86.0687,31.2061],[86.1295,31.2158],[86.1721,31.1727],[86.1721,31.1126],[86.2013,31.0578],[86.191,31.0065],[86.3125,30.956],[86.3289,30.8491],[86.3992,30.6811],[86.4077,30.5908],[86.4386,30.5631],[86.427,30.4839],[86.5293,30.486],[86.5467,30.4393],[86.6369,30.4298],[86.6907,30.4763],[86.6717,30.5223],[86.7243,30.5538],[86.7766,30.5241],[86.8634,30.5716],[86.9002,30.6639],[86.8083,30.6522],[86.7937,30.7439],[86.7348,30.8328],[86.8187,30.8982],[86.9175,30.9312],[86.9496,30.8408],[86.9072,30.7858],[87.0071,30.801],[87.0218,30.8816],[87.078,30.9407],[87.1165,30.9251],[87.1251,30.8502],[87.0982,30.7983],[87.1657,30.7134],[87.158,30.5859],[87.2581,30.5515],[87.3606,30.5377],[87.4715,30.5533],[87.5307,30.4798],[87.5252,30.3989],[87.6246,30.3798],[87.6625,30.3534],[87.7457,30.335],[87.8068,30.3886],[87.9251,30.369],[87.9682,30.3849],[87.9572,30.4371],[87.8817,30.4615],[87.8836,30.5226],[87.8269,30.5143],[87.8317,30.5944],[87.7862,30.6327],[87.8504,30.6966],[87.836,30.7821],[87.9444,30.8009],[87.9415,30.8475],[88.0193,30.8652],[88.0944,30.9355],[88.1445,30.9466],[88.1168,31.016],[88.0488,31.032],[88.1022,31.1804],[88.096,31.249],[87.9633,31.3631],[87.9799,31.436],[87.9141,31.5177],[87.8842,31.6427]]],[[[85.8232,30.8002],[85.8578,30.7537],[85.9447,30.7702],[85.9876,30.7498],[86.0869,30.8711],[86.1205,30.9709],[86.0957,31.0619],[85.9105,31.0825],[85.8513,31.0741],[85.7686,31.0127],[85.7582,30.9534],[85.844,30.9449],[85.9467,30.8983],[85.8664,30.8692],[85.9101,30.8117],[85.8232,30.8002]]]]},"properties":{"region_code":"CN-54-5406-540629","parent_region_code":"CN-54-5406","name":"尼玛县","level":"county","has_children":false,"full_path":"中国 / 西藏自治区 / 那曲市 / 尼玛县","source_admin_code":"540629","osm_relation_id":2745053}},
{"type":"Feature","geometry":{"type":"Polygon","coordinates":[[[89.2882,36.2337],[89.2315,36.2975],[89.1974,36.2611],[89.1258,36.2541],[89.0307,36.3113],[88.962,36.3197],[88.9308,36.3603],[88.8369,36.3544],[88.7814,36.2927],[88.7078,36.3551],[88.6218,36.3903],[88.5714,36.4614],[88.5108,36.4459],[88.469,36.4828],[88.3642,36.458],[88.2422,36.4703],[88.1299,36.4272],[87.9647,36.4301],[87.9445,36.4002],[87.7661,36.3758],[87.7335,36.3848],[87.5687,36.3443],[87.4684,36.3547],[87.4244,36.4265],[87.3038,36.3642],[87.1902,36.3513],[87.1466,36.2977],[86.9936,36.3091],[86.9285,36.2659],[86.8321,36.2921],[86.7425,36.2922],[86.6973,36.2453],[86.513,36.2058],[86.4527,36.2215],[86.3903,36.2073],[86.3557,36.1691],[86.277,36.1697],[86.1852,36.1311],[86.1974,36.0327],[86.1432,36.0009],[86.0679,35.8413],[86.1347,35.7716],[86.2391,35.72],[86.313,35.6399],[86.2873,35.5682],[86.4438,35.5329],[86.5224,35.5326],[86.6511,35.4979],[86.7422,35.4979],[86.7069,35.3941],[86.8086,35.3897],[86.8167,35.3499],[86.7557,35.3344],[86.7815,35.2205],[86.9224,35.2338],[87.0416,35.0609],[87.0172,35.0254],[86.9739,34.8922],[86.9725,34.7197],[87.0525,34.6908],[87.0552,34.5871],[87.1852,34.5347],[87.1839,34.4967],[87.085,34.4643],[87.0877,34.4218],[87.1476,34.4204],[87.1591,34.3645],[87.1266,34.3432],[87.1015,34.2447],[87.0555,34.1287],[87.1103,34.0372],[87.092,33.9783],[87.1232,33.9457],[87.1137,33.814],[87.149,33.7403],[87.1713,33.6416],[87.1171,33.5384],[87.1672,33.4796],[87.2093,33.466],[87.2357,33.3937],[87.2336,33.2527],[87.2567,33.1977],[87.2214,33.0735],[87.1503,33.0184],[87.1605,32.8615],[87.193,32.8376],[87.1896,32.7789],[87.2153,32.6558],[87.2587,32.6495],[87.2811,32.5211],[87.4288,32.3078],[87.3847,32.2808],[87.4193,32.1863],[87.3766,31.9417],[87.4721,31.7794],[87.466,31.738],[87.55,31.6982],[87.6862,31.7235],[87.818,31.7242],[87.8842,31.6427],[87.8942,31.6944],[88.1425,31.7959],[88.1914,31.8342],[88.1968,31.8986],[88.3373,31.8978],[88.4241,31.9185],[88.4614,31.9635],[88.5604,31.9368],[88.594,31.8477],[88.7806,31.7711],[88.9634,31.821],[88.9786,32.0471],[89.0092,32.1288],[88.9788,32.1999],[89.019,32.2466],[89.019,32.2945],[89.1452,32.2599],[89.1302,32.2278],[89.2005,32.1768],[89.2887,32.161],[89.3487,32.0768],[89.3952,32.0627],[89.3906,32.0076],[89.4654,31.9824],[89.5333,31.9935],[89.5596,32.0275],[89.7321,31.9578],[89.8589,31.9363],[89.8741,31.9625],[89.9703,31.9669],[90.1283,31.9586],[90.1669,32.005],[90.3013,32.0278],[90.3185,32.1413],[90.302,32.2102],[90.3675,32.2256],[90.3752,32.286],[90.34,32.3754],[90.354,32.4191],[90.2918,32.5608],[90.2838,32.6173],[90.0988,32.8147],[90.084,32.8639],[90.1488,32.8919],[90.0885,32.9305],[89.9592,32.9146],[89.9379,32.9447],[89.9758,33.0839],[90.0409,33.2409],[90.002,33.371],[89.9602,33.4065],[89.987,33.4872],[89.9146,33.5873],[89.6461,33.6288],[89.5653,33.6791],[89.595,33.7407],[89.5576,33.7766],[89.4679,33.7682],[89.446,33.8201],[89.4877,33.8781],[89.4932,33.9477],[89.4033,33.9945],[89.4054,34.0639],[89.3548,34.1404],[89.2729,34.1728],[89.2182,34.0574],[89.1521,34.0756],[89.1085,34.2019],[89.0277,34.2438],[89.0323,34.2877],[88.9528,34.3726],[88.9498,34.4739],[88.9119,34.5701],[88.8518,34.6353],[88.7431,34.6775],[88.7105,34.7353],[88.7726,34.8688],[88.7877,34.9534],[88.8763,35.0268],[88.8546,35.1375],[88.8172,35.1783],[88.8507,35.2274],[88.8277,35.3253],[88.8533,35.3671],[88.9384,35.3615],[89.0195,35.3751],[89.1144,35.4139],[89.1121,35.4765],[89.2126,35.5113],[89.249,35.592],[89.23,35.6411],[89.2766,35.7465],[89.2658,35.7854],[89.3279,35.8762],[89.2777,36.0417],[89.2401,36.0515],[89.2083,36.1088],[89.0964,36.1894],[89.1692,36.1948],[89.2636,36.1519],[89.2987,36.1889],[89.2882,36.2337]]]},"properties":{"region_code":"CN-54-5406-540630","parent_region_code":"CN-54-5406","name":"双湖县","level":"county","has_children":false,"full_path":"中国 / 西藏自治区 / 那曲市 / 双湖县","source_admin_code":"540630","osm_relation_id":2747065}}
]}