{"type":"FeatureCollection", "features": [
{"type":"Feature","geometry":{"type":"Polygon","coordinates":[[[105.2606,28.9461],[105.2607,28.9355],[105.2514,28.93],[105.2396,28.9422],[105.2333,28.9355],[105.2225,28.9368],[105.2242,28.9459],[105.2175,28.9589],[105.2013,28.9552],[105.2044,28.9467],[105.2,28.9379],[105.1835,28.9268],[105.1784,28.9339],[105.1654,28.9317],[105.1618,28.9494],[105.1494,28.9528],[105.1438,28.9456],[105.1526,28.9314],[105.1614,28.9308],[105.1724,28.9206],[105.1731,28.9121],[105.1848,28.9014],[105.2008,28.8998],[105.1995,28.8889],[105.2107,28.8638],[105.2092,28.8341],[105.2185,28.8331],[105.2121,28.8216],[105.2225,28.8109],[105.227,28.7978],[105.2235,28.7925],[105.2279,28.7807],[105.2373,28.7781],[105.2263,28.7669],[105.2166,28.7665],[105.211,28.7573],[105.2552,28.735],[105.2668,28.735],[105.3099,28.7589],[105.3303,28.7619],[105.3566,28.7743],[105.3698,28.786],[105.3647,28.8005],[105.3751,28.8093],[105.3751,28.8181],[105.3867,28.8214],[105.3883,28.8381],[105.4006,28.8432],[105.4138,28.8409],[105.4041,28.8317],[105.4203,28.8229],[105.4631,28.7925],[105.4798,28.7843],[105.4865,28.7904],[105.4802,28.7967],[105.4859,28.8046],[105.4845,28.8174],[105.5079,28.8274],[105.5254,28.8174],[105.5302,28.799],[105.5449,28.7929],[105.5554,28.794],[105.5622,28.7798],[105.5791,28.7904],[105.5874,28.7831],[105.5914,28.7727],[105.6054,28.7702],[105.6095,28.7613],[105.6058,28.7523],[105.6133,28.7474],[105.6196,28.7525],[105.6271,28.7774],[105.6258,28.7827],[105.6132,28.7871],[105.6348,28.8057],[105.6452,28.8215],[105.6526,28.8386],[105.666,28.8395],[105.6554,28.8499],[105.6456,28.846],[105.6364,28.8518],[105.637,28.8602],[105.6221,28.8789],[105.6404,28.8967],[105.6458,28.9076],[105.6445,28.9178],[105.6333,28.9265],[105.6104,28.9361],[105.6015,28.9527],[105.5819,28.9623],[105.5658,28.9609],[105.5514,28.9531],[105.547,28.9429],[105.5622,28.9131],[105.564,28.906],[105.5577,28.8982],[105.5497,28.8963],[105.531,28.8797],[105.5085,28.8715],[105.4912,28.8795],[105.4769,28.9072],[105.47,28.9108],[105.4565,28.9108],[105.4302,28.8867],[105.4203,28.8846],[105.4058,28.8885],[105.4116,28.8974],[105.4071,28.9043],[105.3811,28.9075],[105.3722,28.9134],[105.377,28.9234],[105.3746,28.93],[105.3612,28.9313],[105.3561,28.9488],[105.3424,28.9504],[105.3416,28.9406],[105.335,28.9363],[105.3281,28.9219],[105.3039,28.9227],[105.2942,28.9293],[105.2841,28.9235],[105.2771,28.9311],[105.2906,28.9414],[105.2884,28.9518],[105.28,28.9613],[105.2792,28.9715],[105.2692,28.9737],[105.2615,28.9703],[105.2591,28.9594],[105.2647,28.9543],[105.2606,28.9461]]]},"properties":{"region_code":"CN-51-5105-510502","parent_region_code":"CN-51-5105","name":"江阳区","level":"county","has_children":false,"full_path":"中国 / 四川省 / 泸州市 / 江阳区","source_admin_code":"510502","osm_relation_id":2789338}},
{"type":"Feature","geometry":{"type":"Polygon","coordinates":[[[105.211,28.7573],[105.205,28.7514],[105.2141,28.7423],[105.2144,28.7158],[105.2005,28.7122],[105.2079,28.6997],[105.2063,28.6858],[105.2004,28.6786],[105.1865,28.6753],[105.1854,28.6682],[105.173,28.6629],[105.1633,28.6533],[105.1709,28.6275],[105.1691,28.6099],[105.1844,28.5952],[105.1922,28.5812],[105.2044,28.5728],[105.1971,28.5642],[105.2065,28.5574],[105.2095,28.542],[105.223,28.5435],[105.2341,28.5251],[105.2278,28.5051],[105.2307,28.4985],[105.2164,28.4751],[105.208,28.4713],[105.2032,28.46],[105.1967,28.4561],[105.1853,28.4587],[105.1868,28.4488],[105.2167,28.4542],[105.2467,28.4527],[105.2435,28.4629],[105.2454,28.4737],[105.255,28.479],[105.2744,28.4813],[105.2814,28.4779],[105.294,28.4824],[105.3002,28.49],[105.3128,28.4948],[105.3208,28.5031],[105.3245,28.519],[105.3324,28.5195],[105.35,28.5097],[105.3533,28.5013],[105.3815,28.4938],[105.3911,28.4946],[105.4036,28.5118],[105.419,28.5091],[105.4324,28.5035],[105.4334,28.4804],[105.4493,28.4662],[105.4627,28.4708],[105.4681,28.4838],[105.4664,28.5048],[105.4714,28.5098],[105.527,28.5113],[105.5265,28.5275],[105.5368,28.5331],[105.5433,28.5547],[105.5575,28.5555],[105.5619,28.5594],[105.5634,28.5898],[105.5561,28.6075],[105.5453,28.6147],[105.5453,28.62],[105.5581,28.6243],[105.558,28.6324],[105.5487,28.6484],[105.555,28.6524],[105.5594,28.6631],[105.5764,28.6577],[105.5732,28.6717],[105.5582,28.6737],[105.5553,28.6859],[105.5658,28.6934],[105.5692,28.7052],[105.5665,28.7134],[105.5856,28.723],[105.5935,28.7245],[105.5945,28.7369],[105.6025,28.741],[105.6208,28.7427],[105.6196,28.7525],[105.6133,28.7474],[105.6058,28.7523],[105.6095,28.7613],[105.6054,28.7702],[105.5914,28.7727],[105.5874,28.7831],[105.5791,28.7904],[105.5622,28.7798],[105.5554,28.794],[105.5449,28.7929],[105.5302,28.799],[105.5254,28.8174],[105.5079,28.8274],[105.4845,28.8174],[105.4859,28.8046],[105.4802,28.7967],[105.4865,28.7904],[105.4798,28.7843],[105.4631,28.7925],[105.4203,28.8229],[105.4041,28.8317],[105.4138,28.8409],[105.4006,28.8432],[105.3883,28.8381],[105.3867,28.8214],[105.3751,28.8181],[105.3751,28.8093],[105.3647,28.8005],[105.3698,28.786],[105.3566,28.7743],[105.3303,28.7619],[105.3099,28.7589],[105.2668,28.735],[105.2552,28.735],[105.211,28.7573]]]},"properties":{"region_code":"CN-51-5105-510503","parent_region_code":"CN-51-5105","name":"纳溪区","level":"county","has_children":false,"full_path":"中国 / 四川省 / 泸州市 / 纳溪区","source_admin_code":"510503","osm_relation_id":2789341}},
{"type":"Feature","geometry":{"type":"Polygon","coordinates":[[[105.547,28.9429],[105.5397,28.9515],[105.5406,28.9694],[105.5485,28.9822],[105.5571,28.9859],[105.5446,29.0043],[105.5345,29.0078],[105.5197,29.0197],[105.5205,29.0307],[105.5132,29.0331],[105.5077,29.043],[105.4967,29.051],[105.4796,29.0254],[105.4612,29.0153],[105.4451,29.0288],[105.4474,29.0369],[105.4604,29.0424],[105.458,29.0555],[105.4479,29.0699],[105.4205,29.0531],[105.3737,29.0705],[105.3735,29.0496],[105.3677,29.0515],[105.3568,29.0406],[105.3371,29.039],[105.347,29.0235],[105.3354,29.004],[105.3368,28.9961],[105.3254,28.9683],[105.3266,28.9449],[105.335,28.9363],[105.3416,28.9406],[105.3424,28.9504],[105.3561,28.9488],[105.3612,28.9313],[105.3746,28.93],[105.377,28.9234],[105.3722,28.9134],[105.3811,28.9075],[105.4071,28.9043],[105.4116,28.8974],[105.4058,28.8885],[105.4203,28.8846],[105.4302,28.8867],[105.4565,28.9108],[105.47,28.9108],[105.4769,28.9072],[105.4912,28.8795],[105.5085,28.8715],[105.531,28.8797],[105.5497,28.8963],[105.5577,28.8982],[105.564,28.906],[105.5622,28.9131],[105.547,28.9429]]]},"properties":{"region_code":"CN-51-5105-510504","parent_region_code":"CN-51-5105","name":"龙马潭区","level":"county","has_children":false,"full_path":"中国 / 四川省 / 泸州市 / 龙马潭区","source_admin_code":"510504","osm_relation_id":2789339}},
{"type":"Feature","geometry":{"type":"Polygon","coordinates":[[[105.335,28.9363],[105.3266,28.9449],[105.3254,28.9683],[105.3368,28.9961],[105.3354,29.004],[105.347,29.0235],[105.3371,29.039],[105.3568,29.0406],[105.3677,29.0515],[105.3735,29.0496],[105.3737,29.0705],[105.4205,29.0531],[105.4479,29.0699],[105.458,29.0555],[105.4604,29.0424],[105.4474,29.0369],[105.4451,29.0288],[105.4612,29.0153],[105.4796,29.0254],[105.4967,29.051],[105.5077,29.043],[105.5132,29.0331],[105.5205,29.0307],[105.5197,29.0197],[105.5345,29.0078],[105.5446,29.0043],[105.5571,28.9859],[105.5485,28.9822],[105.5406,28.9694],[105.5397,28.9515],[105.547,28.9429],[105.5514,28.9531],[105.5658,28.9609],[105.5819,28.9623],[105.6015,28.9527],[105.6104,28.9361],[105.6333,28.9265],[105.6445,28.9178],[105.6506,28.9208],[105.6833,28.9143],[105.6989,28.9256],[105.7077,28.9359],[105.7142,28.9493],[105.7236,28.9523],[105.7266,28.9619],[105.7256,28.9738],[105.732,28.9768],[105.7393,28.9992],[105.7588,29.0204],[105.7507,29.0272],[105.7395,29.0457],[105.754,29.0721],[105.7413,29.0781],[105.7391,29.0908],[105.7247,29.1012],[105.7287,29.1151],[105.7254,29.1215],[105.7321,29.132],[105.7251,29.1364],[105.7276,29.1495],[105.7247,29.1621],[105.7177,29.1735],[105.7051,29.1809],[105.7106,29.1899],[105.7202,29.1924],[105.7183,29.2004],[105.7028,29.2028],[105.7086,29.2231],[105.7035,29.2238],[105.7055,29.2416],[105.6945,29.2697],[105.6879,29.2729],[105.6888,29.2845],[105.6937,29.293],[105.7136,29.2929],[105.7127,29.2985],[105.6996,29.3017],[105.6814,29.29],[105.6755,29.277],[105.6617,29.2788],[105.6584,29.2727],[105.6679,29.2672],[105.6658,29.2569],[105.6536,29.2544],[105.6441,29.2563],[105.6363,29.2697],[105.6407,29.2803],[105.625,29.2788],[105.6078,29.2728],[105.5932,29.275],[105.5747,29.2743],[105.5547,29.2799],[105.5525,29.2756],[105.5379,29.2764],[105.5183,29.2682],[105.5073,29.2731],[105.5099,29.2847],[105.5029,29.2882],[105.485,29.2811],[105.472,29.282],[105.4621,29.2954],[105.4641,29.3217],[105.4543,29.3314],[105.45,29.3249],[105.3981,29.3149],[105.3965,29.3029],[105.3769,29.2828],[105.3625,29.2931],[105.3423,29.2848],[105.315,29.2666],[105.2964,29.2326],[105.2848,29.2228],[105.2835,29.1954],[105.2782,29.1915],[105.2522,29.1845],[105.2534,29.1778],[105.2668,29.1736],[105.267,29.162],[105.241,29.1381],[105.2417,29.1272],[105.2472,29.1242],[105.2303,29.1021],[105.2134,29.0869],[105.2066,29.075],[105.1908,29.0676],[105.1847,29.0547],[105.1888,29.0462],[105.1833,29.041],[105.1849,29.0267],[105.197,29.022],[105.213,29.0194],[105.235,29.0302],[105.2651,29.01],[105.265,28.9827],[105.2557,28.9792],[105.2392,28.966],[105.2394,28.9558],[105.2606,28.9461],[105.2647,28.9543],[105.2591,28.9594],[105.2615,28.9703],[105.2692,28.9737],[105.2792,28.9715],[105.28,28.9613],[105.2884,28.9518],[105.2906,28.9414],[105.2771,28.9311],[105.2841,28.9235],[105.2942,28.9293],[105.3039,28.9227],[105.3281,28.9219],[105.335,28.9363]]]},"properties":{"region_code":"CN-51-5105-510521","parent_region_code":"CN-51-5105","name":"泸县","level":"county","has_children":false,"full_path":"中国 / 四川省 / 泸州市 / 泸县","source_admin_code":"510521","osm_relation_id":2789340}},
{"type":"Feature","geometry":{"type":"Polygon","coordinates":[[[105.6196,28.7525],[105.6208,28.7427],[105.6025,28.741],[105.5945,28.7369],[105.5935,28.7245],[105.5856,28.723],[105.5665,28.7134],[105.5692,28.7052],[105.5658,28.6934],[105.5553,28.6859],[105.5582,28.6737],[105.5732,28.6717],[105.5764,28.6577],[105.5594,28.6631],[105.555,28.6524],[105.5487,28.6484],[105.558,28.6324],[105.5581,28.6243],[105.5453,28.62],[105.5453,28.6147],[105.5561,28.6075],[105.5634,28.5898],[105.5619,28.5594],[105.5575,28.5555],[105.5433,28.5547],[105.5368,28.5331],[105.5265,28.5275],[105.527,28.5113],[105.533,28.5033],[105.5498,28.4986],[105.5587,28.4837],[105.5677,28.4816],[105.5621,28.4675],[105.5639,28.4563],[105.5863,28.4691],[105.6102,28.4621],[105.6159,28.4649],[105.6058,28.4771],[105.6116,28.4877],[105.6173,28.4884],[105.6244,28.5114],[105.6234,28.5232],[105.6374,28.5208],[105.6614,28.5275],[105.6647,28.5387],[105.6802,28.5379],[105.6781,28.5547],[105.688,28.5687],[105.6894,28.5922],[105.693,28.5958],[105.7079,28.5901],[105.7144,28.5913],[105.7234,28.606],[105.7403,28.6201],[105.7533,28.6052],[105.7537,28.5937],[105.7744,28.6019],[105.7802,28.6138],[105.7971,28.6092],[105.8073,28.6032],[105.8132,28.606],[105.8311,28.6027],[105.8498,28.6086],[105.8555,28.602],[105.8692,28.6081],[105.8809,28.5985],[105.8872,28.6081],[105.8984,28.6091],[105.8919,28.6196],[105.8891,28.6377],[105.8963,28.6537],[105.8866,28.6601],[105.889,28.6752],[105.8993,28.6723],[105.9184,28.6822],[105.9254,28.6812],[105.9336,28.6903],[105.9298,28.7062],[105.9389,28.7138],[105.9528,28.7175],[105.95,28.728],[105.9618,28.739],[105.9622,28.7577],[105.9749,28.7466],[105.9876,28.7425],[106.0015,28.7453],[106.0198,28.7226],[106.0149,28.7117],[106.0314,28.7094],[106.0265,28.6986],[106.0342,28.6926],[106.0409,28.697],[106.0519,28.6895],[106.0707,28.691],[106.0814,28.685],[106.0854,28.6727],[106.0826,28.6627],[106.0908,28.6556],[106.0926,28.6445],[106.1068,28.633],[106.1199,28.6375],[106.1238,28.6465],[106.1343,28.6406],[106.1377,28.6467],[106.1488,28.6393],[106.1605,28.6392],[106.1655,28.6301],[106.1656,28.6161],[106.1798,28.6029],[106.1794,28.5917],[106.1853,28.5824],[106.2017,28.5712],[106.2106,28.5766],[106.218,28.5747],[106.26,28.5402],[106.287,28.5398],[106.2893,28.5303],[106.2981,28.5178],[106.301,28.507],[106.3206,28.4955],[106.3277,28.4845],[106.3369,28.4841],[106.3448,28.4776],[106.3628,28.4829],[106.3735,28.4818],[106.3745,28.5038],[106.3689,28.5181],[106.3724,28.5219],[106.3573,28.5319],[106.3309,28.557],[106.3409,28.5649],[106.3353,28.5701],[106.3437,28.5869],[106.3382,28.5994],[106.3255,28.6078],[106.3218,28.6155],[106.3229,28.642],[106.3026,28.6453],[106.3032,28.6617],[106.3159,28.6673],[106.3018,28.6783],[106.3032,28.6943],[106.297,28.7013],[106.2995,28.7144],[106.2795,28.7377],[106.2673,28.745],[106.267,28.7668],[106.2749,28.7741],[106.259,28.7883],[106.2509,28.7898],[106.2431,28.7974],[106.2428,28.812],[106.2461,28.8222],[106.2414,28.8323],[106.2493,28.8363],[106.2601,28.8488],[106.2491,28.8614],[106.249,28.8685],[106.2306,28.8718],[106.2208,28.8862],[106.2208,28.8939],[106.2106,28.8946],[106.1991,28.9066],[106.1848,28.9152],[106.171,28.9196],[106.1436,28.9067],[106.1287,28.9084],[106.1094,28.9052],[106.1047,28.9018],[106.0878,28.9028],[106.0821,28.9138],[106.0711,28.9164],[106.0683,28.9234],[106.0532,28.9187],[106.0433,28.9093],[106.0332,28.916],[106.0385,28.927],[106.0345,28.9381],[106.0429,28.946],[106.0363,28.9589],[106.0122,28.9565],[105.9912,28.98],[105.978,28.9833],[105.971,28.9743],[105.9853,28.9717],[105.9854,28.9667],[105.96,28.9671],[105.9524,28.9538],[105.9429,28.9442],[105.9161,28.9339],[105.9102,28.9158],[105.9127,28.906],[105.9029,28.9033],[105.8934,28.9122],[105.8825,28.9159],[105.8821,28.9336],[105.8716,28.9388],[105.8548,28.9325],[105.8419,28.934],[105.8264,28.9473],[105.8055,28.9445],[105.7991,28.9379],[105.7904,28.9414],[105.8048,28.9561],[105.784,28.9776],[105.784,28.9824],[105.7622,28.9879],[105.7583,28.9969],[105.7629,29.0169],[105.7588,29.0204],[105.7393,28.9992],[105.732,28.9768],[105.7256,28.9738],[105.7266,28.9619],[105.7236,28.9523],[105.7142,28.9493],[105.7077,28.9359],[105.6989,28.9256],[105.6833,28.9143],[105.6506,28.9208],[105.6445,28.9178],[105.6458,28.9076],[105.6404,28.8967],[105.6221,28.8789],[105.637,28.8602],[105.6364,28.8518],[105.6456,28.846],[105.6554,28.8499],[105.666,28.8395],[105.6526,28.8386],[105.6452,28.8215],[105.6348,28.8057],[105.6132,28.7871],[105.6258,28.7827],[105.6271,28.7774],[105.6196,28.7525]]]},"properties":{"region_code":"CN-51-5105-510522","parent_region_code":"CN-51-5105","name":"合江县","level":"county","has_children":false,"full_path":"中国 / 四川省 / 泸州市 / 合江县","source_admin_code":"510522","osm_relation_id":2789337}},
{"type":"Feature","geometry":{"type":"Polygon","coordinates":[[[105.2467,28.4527],[105.2609,28.4544],[105.2716,28.4517],[105.2918,28.452],[105.2903,28.4389],[105.299,28.4401],[105.3007,28.4316],[105.3187,28.4261],[105.3197,28.4105],[105.3102,28.4014],[105.3173,28.3952],[105.3044,28.3742],[105.2846,28.3726],[105.3023,28.3637],[105.3115,28.3518],[105.3068,28.342],[105.3146,28.3316],[105.3269,28.3271],[105.3334,28.3154],[105.328,28.2948],[105.3356,28.2835],[105.3301,28.2588],[105.333,28.2394],[105.3411,28.2347],[105.3373,28.2222],[105.3242,28.2228],[105.3286,28.1983],[105.3358,28.1846],[105.3399,28.1599],[105.3265,28.1409],[105.3167,28.1384],[105.302,28.1418],[105.292,28.1359],[105.2804,28.1368],[105.2592,28.1334],[105.2503,28.1242],[105.2418,28.1238],[105.2411,28.1153],[105.2225,28.1054],[105.2128,28.0862],[105.2011,28.0763],[105.177,28.0717],[105.183,28.058],[105.1801,28.044],[105.1651,28.029],[105.1671,28.0147],[105.1743,28.0046],[105.1889,27.9962],[105.2177,27.9946],[105.2246,28.0026],[105.2413,28.0123],[105.2443,28.0065],[105.2664,27.9998],[105.2649,27.9843],[105.2799,27.9639],[105.2785,27.9532],[105.2828,27.9417],[105.2768,27.9305],[105.2644,27.9173],[105.2466,27.9171],[105.2304,27.9002],[105.235,27.8885],[105.2366,27.8705],[105.2404,27.8684],[105.2462,27.8454],[105.2372,27.8334],[105.2432,27.8264],[105.2565,27.8314],[105.2639,27.8228],[105.288,27.8191],[105.3001,27.8235],[105.3036,27.8155],[105.2845,27.8105],[105.2858,27.8024],[105.2705,27.7987],[105.2763,27.7806],[105.2868,27.7761],[105.2854,27.7679],[105.2902,27.7551],[105.2846,27.7461],[105.288,27.7343],[105.2868,27.716],[105.3053,27.7085],[105.3154,27.7173],[105.3239,27.7304],[105.3394,27.734],[105.3479,27.7496],[105.4022,27.7686],[105.4202,27.7718],[105.4275,27.7674],[105.4377,27.7789],[105.4455,27.7788],[105.4541,27.7716],[105.4744,27.7783],[105.5056,27.7724],[105.5201,27.7619],[105.5347,27.7569],[105.5346,27.7512],[105.5479,27.7295],[105.5551,27.7239],[105.5746,27.7258],[105.5875,27.7246],[105.6027,27.7186],[105.6,27.7096],[105.6058,27.6969],[105.618,27.6904],[105.6214,27.6693],[105.6259,27.6646],[105.6386,27.663],[105.656,27.6847],[105.6642,27.6876],[105.6605,27.6987],[105.667,27.706],[105.6611,27.7234],[105.6663,27.7281],[105.6662,27.7533],[105.6767,27.7573],[105.6844,27.7698],[105.6991,27.7753],[105.6935,27.7851],[105.6964,27.7927],[105.6877,27.8056],[105.6745,27.8311],[105.7024,27.8325],[105.7047,27.85],[105.6967,27.8566],[105.6984,27.8836],[105.6933,27.9057],[105.6836,27.9139],[105.6897,27.9234],[105.6819,27.9379],[105.6525,27.9457],[105.6447,27.9389],[105.6037,27.9597],[105.5942,27.9734],[105.5898,27.9886],[105.5905,28.0036],[105.5834,28.0149],[105.5664,28.0214],[105.5739,28.03],[105.5687,28.0655],[105.5722,28.0842],[105.5704,28.1059],[105.592,28.1154],[105.6091,28.1206],[105.6195,28.1282],[105.6114,28.1383],[105.6157,28.1499],[105.6223,28.1538],[105.6309,28.1708],[105.6265,28.1826],[105.629,28.1949],[105.6346,28.2012],[105.6289,28.2128],[105.6163,28.2228],[105.6191,28.229],[105.6362,28.2358],[105.6409,28.2407],[105.6597,28.2475],[105.6778,28.2456],[105.6727,28.2543],[105.6538,28.3143],[105.6467,28.3217],[105.6355,28.3256],[105.6488,28.3463],[105.6506,28.3658],[105.6444,28.3955],[105.638,28.4018],[105.6443,28.4116],[105.6425,28.4293],[105.6334,28.4397],[105.6282,28.4354],[105.6076,28.4425],[105.6102,28.4621],[105.5863,28.4691],[105.5639,28.4563],[105.5621,28.4675],[105.5677,28.4816],[105.5587,28.4837],[105.5498,28.4986],[105.533,28.5033],[105.527,28.5113],[105.4714,28.5098],[105.4664,28.5048],[105.4681,28.4838],[105.4627,28.4708],[105.4493,28.4662],[105.4334,28.4804],[105.4324,28.5035],[105.419,28.5091],[105.4036,28.5118],[105.3911,28.4946],[105.3815,28.4938],[105.3533,28.5013],[105.35,28.5097],[105.3324,28.5195],[105.3245,28.519],[105.3208,28.5031],[105.3128,28.4948],[105.3002,28.49],[105.294,28.4824],[105.2814,28.4779],[105.2744,28.4813],[105.255,28.479],[105.2454,28.4737],[105.2435,28.4629],[105.2467,28.4527]]]},"properties":{"region_code":"CN-51-5105-510524","parent_region_code":"CN-51-5105","name":"叙永县","level":"county","has_children":false,"full_path":"中国 / 四川省 / 泸州市 / 叙永县","source_admin_code":"510524","osm_relation_id":2789342}},
{"type":"Feature","geometry":{"type":"Polygon","coordinates":[[[105.6642,27.6876],[105.6826,27.682],[105.6982,27.6803],[105.7172,27.6875],[105.7155,27.6946],[105.7189,27.7092],[105.7285,27.7134],[105.7473,27.7165],[105.7613,27.7214],[105.7763,27.7227],[105.81,27.7148],[105.8276,27.7138],[105.8409,27.7089],[105.8574,27.7206],[105.8647,27.7356],[105.8769,27.7423],[105.8881,27.7395],[105.9055,27.7498],[105.9218,27.7482],[105.927,27.7318],[105.9423,27.7358],[105.9807,27.7518],[106.0001,27.7503],[106.0214,27.751],[106.0377,27.7591],[106.0496,27.7616],[106.0599,27.7677],[106.0557,27.7752],[106.0609,27.7808],[106.102,27.7834],[106.1213,27.7829],[106.1534,27.7715],[106.1628,27.7663],[106.1723,27.7665],[106.191,27.7578],[106.21,27.7675],[106.2226,27.7648],[106.228,27.771],[106.2392,27.7703],[106.2628,27.7839],[106.2838,27.798],[106.2919,27.8062],[106.3069,27.8138],[106.3182,27.8129],[106.3387,27.8238],[106.3155,27.8355],[106.3132,27.8419],[106.3344,27.8607],[106.3347,27.8791],[106.3267,27.8796],[106.3294,27.8913],[106.3221,27.9018],[106.3007,27.903],[106.2965,27.9123],[106.3054,27.9173],[106.3044,27.9405],[106.321,27.9509],[106.3246,27.9611],[106.3134,27.9711],[106.3131,27.9821],[106.2958,27.9951],[106.2907,28.0073],[106.2824,28.0104],[106.2637,28.007],[106.2461,28.0132],[106.2382,28.0248],[106.2396,28.0324],[106.2532,28.0518],[106.262,28.0549],[106.2632,28.0696],[106.2512,28.0837],[106.2468,28.0956],[106.2287,28.1013],[106.2229,28.1194],[106.2078,28.1229],[106.2038,28.1384],[106.1881,28.1403],[106.1738,28.1525],[106.1417,28.1664],[106.1238,28.1697],[106.1054,28.1661],[106.0838,28.1644],[106.0578,28.1464],[106.0342,28.1417],[106.0237,28.1346],[106.033,28.1149],[106.0192,28.1112],[106.0096,28.1233],[105.9916,28.119],[105.982,28.1117],[105.9728,28.1119],[105.9658,28.1357],[105.9576,28.1413],[105.9361,28.1456],[105.9349,28.1357],[105.916,28.1382],[105.9051,28.1368],[105.8892,28.1232],[105.8734,28.1277],[105.8744,28.1427],[105.8629,28.1526],[105.8561,28.1697],[105.866,28.2038],[105.879,28.2174],[105.8811,28.2314],[105.8865,28.2399],[105.8718,28.248],[105.8694,28.2576],[105.8567,28.2527],[105.8469,28.2567],[105.8298,28.2873],[105.8205,28.3099],[105.7974,28.3125],[105.7893,28.3316],[105.7803,28.34],[105.7688,28.335],[105.7674,28.3229],[105.7721,28.3175],[105.7363,28.3086],[105.7323,28.3023],[105.7349,28.2788],[105.7267,28.2751],[105.6844,28.2874],[105.6785,28.3001],[105.6661,28.3151],[105.6538,28.3143],[105.6727,28.2543],[105.6778,28.2456],[105.6597,28.2475],[105.6409,28.2407],[105.6362,28.2358],[105.6191,28.229],[105.6163,28.2228],[105.6289,28.2128],[105.6346,28.2012],[105.629,28.1949],[105.6265,28.1826],[105.6309,28.1708],[105.6223,28.1538],[105.6157,28.1499],[105.6114,28.1383],[105.6195,28.1282],[105.6091,28.1206],[105.592,28.1154],[105.5704,28.1059],[105.5722,28.0842],[105.5687,28.0655],[105.5739,28.03],[105.5664,28.0214],[105.5834,28.0149],[105.5905,28.0036],[105.5898,27.9886],[105.5942,27.9734],[105.6037,27.9597],[105.6447,27.9389],[105.6525,27.9457],[105.6819,27.9379],[105.6897,27.9234],[105.6836,27.9139],[105.6933,27.9057],[105.6984,27.8836],[105.6967,27.8566],[105.7047,27.85],[105.7024,27.8325],[105.6745,27.8311],[105.6877,27.8056],[105.6964,27.7927],[105.6935,27.7851],[105.6991,27.7753],[105.6844,27.7698],[105.6767,27.7573],[105.6662,27.7533],[105.6663,27.7281],[105.6611,27.7234],[105.667,27.706],[105.6605,27.6987],[105.6642,27.6876]]]},"properties":{"region_code":"CN-51-5105-510525","parent_region_code":"CN-51-5105","name":"古蔺县","level":"county","has_children":false,"full_path":"中国 / 四川省 / 泸州市 / 古蔺县","source_admin_code":"510525","osm_relation_id":2194146}}
]}