{"type":"FeatureCollection", "features": [
{"type":"Feature","geometry":{"type":"Polygon","coordinates":[[[106.4842,26.2646],[106.4977,26.2627],[106.5076,26.2389],[106.5451,26.2334],[106.5641,26.2384],[106.5934,26.2335],[106.6308,26.242],[106.6268,26.2734],[106.6605,26.274],[106.6684,26.2911],[106.696,26.2927],[106.7153,26.2762],[106.7372,26.2835],[106.793,26.2559],[106.7901,26.2379],[106.8063,26.2302],[106.8091,26.2041],[106.8269,26.1871],[106.8564,26.1939],[106.8582,26.2075],[106.8863,26.2199],[106.8804,26.2376],[106.8508,26.2405],[106.8504,26.2548],[106.8841,26.2773],[106.8678,26.3196],[106.8277,26.3163],[106.7821,26.3229],[106.7787,26.3369],[106.8169,26.3452],[106.8142,26.3954],[106.7938,26.3713],[106.7673,26.3835],[106.7671,26.407],[106.7855,26.4366],[106.8035,26.4306],[106.829,26.4563],[106.8069,26.4897],[106.834,26.5076],[106.8444,26.5388],[106.8312,26.56],[106.8446,26.5758],[106.876,26.5774],[106.9162,26.5999],[106.9106,26.6151],[106.8886,26.6321],[106.8921,26.6537],[106.9131,26.6426],[106.9573,26.6586],[106.9435,26.6778],[106.9776,26.7051],[106.9615,26.7233],[106.9775,26.7556],[107.0092,26.7586],[107.0452,26.7753],[107.0692,26.8064],[107.0861,26.8037],[107.1024,26.8183],[107.132,26.8265],[107.169,26.8236],[107.1982,26.8082],[107.2058,26.8169],[107.239,26.8071],[107.262,26.8071],[107.2739,26.8764],[107.2461,26.9681],[107.2255,27.0038],[107.1924,27.0144],[107.1909,27.0302],[107.1631,27.0304],[107.1638,27.0915],[107.182,27.1116],[107.1873,27.1577],[107.2093,27.174],[107.2319,27.1686],[107.256,27.2208],[107.1944,27.2471],[107.1565,27.2373],[107.1352,27.2559],[107.1628,27.2659],[107.162,27.2876],[107.1864,27.3059],[107.204,27.334],[107.1915,27.3594],[107.1652,27.3582],[107.1343,27.3479],[107.0991,27.3244],[107.0753,27.328],[107.0485,27.3523],[107.025,27.36],[106.9968,27.3568],[106.9455,27.3102],[106.9304,27.3088],[106.9021,27.2693],[106.8903,27.2649],[106.8622,27.2905],[106.8589,27.3115],[106.832,27.327],[106.7907,27.3158],[106.7944,27.291],[106.7695,27.2557],[106.7502,27.2473],[106.7301,27.2594],[106.7228,27.3004],[106.709,27.3108],[106.6923,27.3147],[106.663,27.3038],[106.6237,27.2984],[106.6085,27.2695],[106.5661,27.2466],[106.5464,27.2444],[106.5195,27.2212],[106.4933,27.2138],[106.4857,27.2017],[106.443,27.1908],[106.4359,27.1602],[106.4118,27.1548],[106.3929,27.1173],[106.3916,27.101],[106.4099,27.0662],[106.4031,27.0497],[106.4268,27.0187],[106.4226,26.9957],[106.3754,26.9789],[106.3512,26.9256],[106.3525,26.8938],[106.3308,26.8824],[106.2994,26.9],[106.2815,26.872],[106.2589,26.8598],[106.2433,26.8711],[106.2288,26.8978],[106.2082,26.8887],[106.1909,26.8677],[106.164,26.8558],[106.1414,26.8555],[106.125,26.834],[106.1214,26.8077],[106.1561,26.7867],[106.1709,26.7645],[106.1598,26.7482],[106.1574,26.7178],[106.1681,26.6727],[106.1247,26.6682],[106.119,26.6551],[106.1441,26.6436],[106.1449,26.6283],[106.1632,26.6204],[106.1623,26.6006],[106.1821,26.5925],[106.1799,26.5571],[106.2042,26.5381],[106.2333,26.5512],[106.2744,26.5605],[106.3067,26.5455],[106.3203,26.5276],[106.3189,26.4926],[106.3421,26.4905],[106.349,26.4771],[106.3397,26.452],[106.363,26.4555],[106.3938,26.4366],[106.4314,26.4628],[106.4401,26.4609],[106.4751,26.399],[106.4967,26.3835],[106.5104,26.3874],[106.5621,26.3771],[106.5535,26.3639],[106.5647,26.3384],[106.5217,26.3098],[106.4841,26.2785],[106.4842,26.2646]]]},"properties":{"region_code":"CN-52-5201","parent_region_code":"CN-52","name":"贵阳市","level":"prefecture","has_children":true,"full_path":"中国 / 贵州省 / 贵阳市","source_admin_code":"5201","osm_relation_id":2782246}},
{"type":"Feature","geometry":{"type":"MultiPolygon","coordinates":[[[[104.7028,26.8059],[104.6997,26.8369],[104.6884,26.8583],[104.655,26.8356],[104.6287,26.8327],[104.5967,26.7994],[104.5937,26.7574],[104.6136,26.7464],[104.6166,26.7259],[104.6478,26.7304],[104.6697,26.757],[104.6786,26.7879],[104.7028,26.8059]]],[[[104.5701,26.5441],[104.5684,26.5287],[104.5927,26.5261],[104.6126,26.513],[104.6382,26.4813],[104.631,26.4545],[104.6628,26.4386],[104.6692,26.3897],[104.6785,26.3671],[104.6585,26.3606],[104.6577,26.3385],[104.5905,26.3198],[104.5794,26.2982],[104.5533,26.2779],[104.5406,26.2572],[104.5476,26.2193],[104.5267,26.1788],[104.5178,26.1724],[104.5166,26.1375],[104.525,26.1053],[104.4974,26.0746],[104.4588,26.0898],[104.4537,26.0806],[104.4712,26.0568],[104.4596,26.0264],[104.4681,26.0139],[104.4605,25.9891],[104.4415,25.9621],[104.4361,25.9308],[104.4123,25.9155],[104.4333,25.8966],[104.4383,25.8725],[104.4217,25.8405],[104.3962,25.7654],[104.3862,25.7639],[104.3704,25.7326],[104.3283,25.7635],[104.3215,25.7523],[104.321,25.7098],[104.307,25.6633],[104.3223,25.6421],[104.3363,25.6014],[104.3647,25.6047],[104.3664,25.5875],[104.4025,25.5975],[104.4264,25.578],[104.4339,25.5235],[104.4269,25.4803],[104.444,25.4779],[104.4487,25.4998],[104.4818,25.4979],[104.5134,25.5244],[104.541,25.524],[104.5531,25.507],[104.5399,25.4628],[104.5365,25.4068],[104.5637,25.4062],[104.613,25.3678],[104.6428,25.3596],[104.6622,25.3808],[104.6816,25.3656],[104.6901,25.3316],[104.7524,25.3433],[104.7813,25.3401],[104.8197,25.345],[104.8414,25.3718],[104.8631,25.3609],[104.8468,25.4067],[104.8514,25.4344],[104.9152,25.5188],[104.9087,25.5585],[104.8873,25.5615],[104.8843,25.5935],[104.8607,25.6176],[104.8684,25.6362],[104.8988,25.6623],[104.9085,25.7073],[104.8752,25.7482],[104.8704,25.8085],[104.8895,25.8421],[104.9073,25.8469],[104.9442,25.8873],[104.9485,25.9235],[104.9275,25.9439],[104.9581,26.0258],[104.9553,26.0461],[104.9718,26.0694],[104.9917,26.0759],[105.0091,26.0948],[104.9927,26.1392],[105.0156,26.1471],[105.0493,26.1759],[105.0886,26.1617],[105.1224,26.1671],[105.1363,26.1527],[105.1529,26.1755],[105.1853,26.1767],[105.1722,26.1252],[105.1905,26.0934],[105.1861,26.0722],[105.2045,26.0486],[105.2253,25.9992],[105.2523,25.99],[105.258,26.0118],[105.2965,26.0113],[105.3557,26.0212],[105.3931,26.0152],[105.4397,26.0205],[105.4956,26.0335],[105.5439,26.0784],[105.564,26.0812],[105.5918,26.0695],[105.6018,26.117],[105.6175,26.1608],[105.6283,26.1447],[105.6694,26.1409],[105.6857,26.1719],[105.719,26.1731],[105.6762,26.204],[105.6532,26.2119],[105.6303,26.2068],[105.5779,26.2315],[105.5353,26.2223],[105.5088,26.2261],[105.4796,26.2602],[105.4545,26.2796],[105.4889,26.309],[105.4937,26.3365],[105.5147,26.3574],[105.5346,26.3632],[105.4981,26.4428],[105.4519,26.4423],[105.425,26.4621],[105.3964,26.4627],[105.3559,26.4737],[105.3155,26.5302],[105.2898,26.5349],[105.2788,26.5219],[105.253,26.5234],[105.2168,26.5369],[105.2044,26.5492],[105.2135,26.5748],[105.1895,26.5881],[105.1879,26.6496],[105.1622,26.6461],[105.1243,26.63],[105.1038,26.6371],[105.0842,26.6565],[105.0887,26.6888],[105.0765,26.6952],[105.0679,26.724],[105.0913,26.7447],[105.0809,26.7626],[105.0486,26.7706],[105.0432,26.7871],[105.0517,26.8048],[105.0219,26.8232],[105.0086,26.8196],[104.9874,26.8474],[105.0251,26.8708],[105.0191,26.885],[105.0275,26.9092],[104.9995,26.9234],[104.9664,26.912],[104.9359,26.8835],[104.9226,26.8581],[104.9337,26.8404],[104.8983,26.8347],[104.8719,26.8479],[104.862,26.8786],[104.8427,26.8936],[104.8093,26.8751],[104.8004,26.838],[104.7517,26.7995],[104.7484,26.7467],[104.7612,26.7236],[104.7606,26.6922],[104.7335,26.6817],[104.7362,26.6556],[104.7462,26.6425],[104.7204,26.6335],[104.6856,26.6065],[104.6904,26.5616],[104.6749,26.5278],[104.6532,26.5223],[104.5971,26.5429],[104.5701,26.5441]]]]},"properties":{"region_code":"CN-52-5202","parent_region_code":"CN-52","name":"六盘水市","level":"prefecture","has_children":true,"full_path":"中国 / 贵州省 / 六盘水市","source_admin_code":"5202","osm_relation_id":2780191}},
{"type":"Feature","geometry":{"type":"Polygon","coordinates":[[[107.1915,27.3594],[107.2327,27.4042],[107.2492,27.409],[107.2639,27.4435],[107.2713,27.4841],[107.2983,27.4672],[107.3545,27.4621],[107.3491,27.449],[107.3913,27.426],[107.3959,27.41],[107.3711,27.3935],[107.3715,27.3688],[107.3938,27.369],[107.4138,27.349],[107.4298,27.3771],[107.447,27.3702],[107.4824,27.3784],[107.494,27.3674],[107.4887,27.3382],[107.4994,27.3193],[107.4726,27.3016],[107.471,27.2853],[107.4539,27.2665],[107.4593,27.2557],[107.5072,27.2069],[107.5281,27.2204],[107.5584,27.2251],[107.5492,27.2483],[107.5559,27.2691],[107.599,27.2643],[107.6387,27.2537],[107.6625,27.2397],[107.6763,27.2421],[107.7047,27.228],[107.7231,27.2297],[107.7764,27.2107],[107.7899,27.1956],[107.8218,27.1896],[107.844,27.1687],[107.8484,27.1526],[107.873,27.1454],[107.8795,27.1815],[107.9046,27.1761],[107.931,27.1977],[107.9593,27.2012],[108,27.2309],[108.029,27.2419],[108.0354,27.2614],[108.0076,27.2779],[107.9932,27.3079],[107.9551,27.3421],[107.9466,27.3576],[107.9161,27.3394],[107.8699,27.3467],[107.8356,27.3292],[107.8086,27.3372],[107.7702,27.3643],[107.7767,27.3767],[107.7662,27.3967],[107.8017,27.4193],[107.7591,27.4466],[107.7496,27.4652],[107.7626,27.4794],[107.8046,27.4923],[107.8291,27.546],[107.8493,27.5575],[107.8721,27.5505],[107.8933,27.5622],[107.9051,27.5791],[107.8972,27.625],[107.9115,27.6601],[107.9347,27.6877],[107.9236,27.7054],[107.9209,27.7366],[107.9451,27.7783],[107.9371,27.7928],[107.9088,27.8131],[107.8843,27.8476],[107.8812,27.8811],[107.8921,27.8983],[107.9132,27.9033],[107.9222,27.9218],[107.9076,27.9535],[107.9111,27.9766],[107.9282,28.012],[107.9106,28.0222],[107.8843,28.0564],[107.8322,28.0348],[107.8056,28.0732],[107.7876,28.0702],[107.7818,28.099],[107.7937,28.1209],[107.8013,28.1817],[107.833,28.188],[107.8573,28.2091],[107.8619,28.2925],[107.8563,28.3256],[107.8615,28.3581],[107.8748,28.3789],[107.9038,28.3803],[107.987,28.3692],[108,28.3906],[108.0327,28.3687],[108.0638,28.4252],[108.0443,28.4473],[108.0557,28.4756],[108.0437,28.4931],[108.0656,28.5197],[108.0538,28.5446],[108.0341,28.5579],[108.0454,28.57],[108.0332,28.596],[108.059,28.6096],[108.076,28.6049],[108.1246,28.6384],[108.1208,28.6572],[108.1588,28.6802],[108.1847,28.7286],[108.1844,28.7493],[108.2077,28.7978],[108.2004,28.8219],[108.1796,28.8162],[108.1523,28.8512],[108.1334,28.86],[108.1243,28.879],[108.1339,28.935],[108.1025,28.9648],[108.1034,28.9788],[108.0693,29.0152],[108.0672,29.0587],[108.0742,29.0729],[108.0647,29.0899],[108.0193,29.0415],[107.9882,29.0376],[107.927,29.0396],[107.9036,29.0093],[107.8804,29.0117],[107.8595,28.9663],[107.8455,28.9651],[107.8055,28.9869],[107.8169,29.0093],[107.8184,29.0348],[107.7815,29.0503],[107.786,29.0862],[107.8069,29.1435],[107.7901,29.1495],[107.7567,29.18],[107.749,29.2016],[107.7279,29.1868],[107.7132,29.1582],[107.6951,29.145],[107.6581,29.1513],[107.6383,29.1637],[107.6038,29.1695],[107.5852,29.1539],[107.5669,29.2197],[107.5553,29.2244],[107.5273,29.1961],[107.51,29.1967],[107.4918,29.1808],[107.4673,29.1738],[107.4595,29.1983],[107.4359,29.2062],[107.3999,29.1833],[107.4084,29.1653],[107.4038,29.1412],[107.4227,29.1323],[107.4064,29.0976],[107.368,29.0966],[107.3738,29.0609],[107.3906,29.0431],[107.3597,29.0125],[107.367,28.9969],[107.3874,28.9985],[107.4122,28.9604],[107.4352,28.9586],[107.4304,28.9378],[107.4105,28.9157],[107.4135,28.8972],[107.3924,28.8789],[107.394,28.8649],[107.3404,28.8321],[107.3229,28.8122],[107.2554,28.7948],[107.2417,28.7636],[107.2132,28.7741],[107.2043,28.817],[107.2101,28.8305],[107.1892,28.8446],[107.1947,28.8656],[107.1701,28.8854],[107.0877,28.8933],[107.0823,28.876],[107.0542,28.869],[107.0101,28.8845],[107.0134,28.8624],[106.9792,28.8541],[106.9854,28.833],[106.9769,28.8166],[106.9827,28.777],[106.9459,28.7822],[106.921,28.8139],[106.8938,28.8047],[106.8701,28.7826],[106.8416,28.7844],[106.8202,28.7576],[106.8273,28.7368],[106.8495,28.7277],[106.8613,28.6936],[106.8807,28.6981],[106.8647,28.6612],[106.8632,28.6282],[106.8301,28.6161],[106.8038,28.5926],[106.7808,28.6302],[106.7535,28.613],[106.7543,28.5929],[106.7757,28.5675],[106.7352,28.558],[106.7216,28.5233],[106.7412,28.4921],[106.7434,28.4699],[106.7224,28.4579],[106.6901,28.4599],[106.6941,28.4802],[106.6633,28.4909],[106.6461,28.483],[106.6179,28.5066],[106.5641,28.4872],[106.5563,28.5166],[106.5845,28.5288],[106.6118,28.5529],[106.603,28.5965],[106.6293,28.6099],[106.6333,28.6277],[106.6151,28.6489],[106.6105,28.684],[106.5837,28.6953],[106.5562,28.7241],[106.5583,28.7598],[106.5303,28.7741],[106.5168,28.7958],[106.4863,28.8122],[106.4722,28.8287],[106.4483,28.8198],[106.4503,28.7795],[106.4598,28.7631],[106.4879,28.7459],[106.5117,28.6919],[106.5244,28.6814],[106.4909,28.6181],[106.4629,28.59],[106.5022,28.5462],[106.4657,28.5373],[106.4374,28.5634],[106.3823,28.5639],[106.3693,28.5411],[106.3735,28.4818],[106.3448,28.4776],[106.301,28.507],[106.287,28.5398],[106.26,28.5402],[106.218,28.5747],[106.1853,28.5824],[106.1656,28.6161],[106.1605,28.6392],[106.1238,28.6465],[106.1068,28.633],[106.0826,28.6627],[106.0814,28.685],[106.0519,28.6895],[106.0015,28.7453],[105.9749,28.7466],[105.9298,28.7062],[105.9336,28.6903],[105.8993,28.6723],[105.8891,28.6377],[105.8919,28.6196],[105.8692,28.6081],[105.8311,28.6027],[105.7802,28.6138],[105.7533,28.6052],[105.7403,28.6201],[105.7144,28.5913],[105.6894,28.5922],[105.6802,28.5379],[105.6244,28.5114],[105.6058,28.4771],[105.6076,28.4425],[105.6425,28.4293],[105.6506,28.3658],[105.6355,28.3256],[105.6661,28.3151],[105.6844,28.2874],[105.7267,28.2751],[105.7363,28.3086],[105.7721,28.3175],[105.8205,28.3099],[105.8469,28.2567],[105.8865,28.2399],[105.866,28.2038],[105.8561,28.1697],[105.8892,28.1232],[105.9051,28.1368],[105.9658,28.1357],[105.9728,28.1119],[106.0096,28.1233],[106.0578,28.1464],[106.0838,28.1644],[106.1238,28.1697],[106.2038,28.1384],[106.2229,28.1194],[106.2287,28.1013],[106.2468,28.0956],[106.2632,28.0696],[106.2396,28.0324],[106.2461,28.0132],[106.2824,28.0104],[106.3131,27.9821],[106.3246,27.9611],[106.3044,27.9405],[106.3007,27.903],[106.3221,27.9018],[106.3347,27.8791],[106.3344,27.8607],[106.3132,27.8419],[106.3387,27.8238],[106.3069,27.8138],[106.2392,27.7703],[106.21,27.7675],[106.191,27.7578],[106.1213,27.7829],[106.0609,27.7808],[106.0599,27.7677],[106.0214,27.751],[106.0001,27.7503],[105.9974,27.7275],[106.0049,27.6952],[105.9989,27.6794],[106.0103,27.6643],[106.0322,27.6711],[106.0913,27.6544],[106.116,27.6172],[106.159,27.5638],[106.2072,27.571],[106.2298,27.5559],[106.2348,27.5783],[106.2728,27.6052],[106.2999,27.6004],[106.3377,27.5769],[106.3443,27.5569],[106.3195,27.5282],[106.3194,27.5119],[106.3361,27.4823],[106.3664,27.4712],[106.3725,27.4838],[106.4118,27.5083],[106.4548,27.5111],[106.4737,27.4886],[106.5191,27.479],[106.5236,27.5088],[106.5859,27.5356],[106.6096,27.5316],[106.6357,27.5157],[106.6411,27.4991],[106.6665,27.4655],[106.6917,27.4682],[106.7029,27.4589],[106.7034,27.4351],[106.7233,27.4086],[106.6898,27.3604],[106.6941,27.34],[106.7091,27.3298],[106.709,27.3108],[106.7228,27.3004],[106.7301,27.2594],[106.7502,27.2473],[106.7695,27.2557],[106.7944,27.291],[106.7907,27.3158],[106.832,27.327],[106.8589,27.3115],[106.8622,27.2905],[106.8903,27.2649],[106.9021,27.2693],[106.9304,27.3088],[106.9455,27.3102],[106.9968,27.3568],[107.025,27.36],[107.0485,27.3523],[107.0753,27.328],[107.0991,27.3244],[107.1343,27.3479],[107.1652,27.3582],[107.1915,27.3594]]]},"properties":{"region_code":"CN-52-5203","parent_region_code":"CN-52","name":"遵义市","level":"prefecture","has_children":true,"full_path":"中国 / 贵州省 / 遵义市","source_admin_code":"5203","osm_relation_id":2778812}},
{"type":"Feature","geometry":{"type":"Polygon","coordinates":[[[106.1449,26.6283],[106.1523,26.595],[106.1395,26.5882],[106.1359,26.5373],[106.1264,26.5295],[106.1279,26.5034],[106.1193,26.4895],[106.051,26.4621],[106.0287,26.4616],[105.9715,26.4426],[105.9755,26.4904],[105.9405,26.5158],[105.9137,26.5248],[105.8301,26.476],[105.776,26.4785],[105.7561,26.4537],[105.7295,26.4642],[105.6718,26.4416],[105.6042,26.4191],[105.5792,26.3874],[105.5346,26.3632],[105.5147,26.3574],[105.4937,26.3365],[105.4889,26.309],[105.4545,26.2796],[105.4796,26.2602],[105.5088,26.2261],[105.5353,26.2223],[105.5779,26.2315],[105.6303,26.2068],[105.6532,26.2119],[105.6762,26.204],[105.719,26.1731],[105.6857,26.1719],[105.6694,26.1409],[105.6283,26.1447],[105.6175,26.1608],[105.6018,26.117],[105.5918,26.0695],[105.564,26.0812],[105.5439,26.0784],[105.4956,26.0335],[105.4397,26.0205],[105.3931,26.0152],[105.3557,26.0212],[105.2965,26.0113],[105.258,26.0118],[105.2523,25.99],[105.2511,25.9609],[105.2619,25.9408],[105.2816,25.9386],[105.2987,25.9152],[105.3447,25.8934],[105.3751,25.8916],[105.3682,25.8438],[105.3771,25.8236],[105.4351,25.782],[105.4505,25.7622],[105.4859,25.7491],[105.5293,25.6949],[105.5544,25.6994],[105.5679,25.7184],[105.6122,25.6916],[105.6236,25.6781],[105.65,25.6778],[105.6793,25.6651],[105.6916,25.6499],[105.6912,25.6315],[105.7344,25.5656],[105.7665,25.5277],[105.7761,25.5055],[105.7809,25.4714],[105.8118,25.4639],[105.8906,25.4254],[105.9026,25.4377],[105.9266,25.434],[105.9267,25.4562],[105.9091,25.488],[105.9134,25.5022],[105.978,25.5416],[105.9818,25.5675],[105.9578,25.5782],[105.9744,25.6012],[105.9885,25.5975],[105.9883,25.5716],[106.0141,25.5741],[106.0437,25.562],[106.0544,25.5875],[106.0768,25.59],[106.0985,25.5715],[106.0874,25.5364],[106.0631,25.531],[106.0857,25.5116],[106.1065,25.5158],[106.1327,25.4836],[106.1187,25.4778],[106.1255,25.4563],[106.1573,25.4682],[106.1927,25.4695],[106.223,25.3969],[106.2465,25.4096],[106.3014,25.3848],[106.3019,25.3689],[106.3283,25.357],[106.3573,25.3688],[106.4149,25.3639],[106.4267,25.3716],[106.4194,25.3959],[106.3929,25.415],[106.4129,25.4282],[106.4186,25.4468],[106.4009,25.4631],[106.4066,25.4892],[106.4314,25.5318],[106.4237,25.5603],[106.4403,25.5879],[106.467,25.6047],[106.4777,25.6535],[106.4548,25.6725],[106.4281,25.6832],[106.4093,25.6496],[106.3631,25.657],[106.2893,25.7018],[106.2747,25.7138],[106.2418,25.7011],[106.2307,25.7156],[106.2557,25.7475],[106.244,25.8092],[106.2476,25.8318],[106.2677,25.854],[106.2923,25.9055],[106.2962,25.9252],[106.2802,25.9448],[106.3114,25.9756],[106.2797,26.0277],[106.2306,26.0258],[106.2303,26.0581],[106.24,26.0842],[106.2915,26.1036],[106.2774,26.1133],[106.2699,26.1455],[106.2796,26.1754],[106.2781,26.2218],[106.2346,26.2306],[106.2516,26.246],[106.2941,26.2399],[106.311,26.2222],[106.3457,26.2369],[106.3508,26.2794],[106.3867,26.2907],[106.4056,26.2771],[106.4359,26.2801],[106.455,26.2694],[106.4842,26.2646],[106.4841,26.2785],[106.5217,26.3098],[106.5647,26.3384],[106.5535,26.3639],[106.5621,26.3771],[106.5104,26.3874],[106.4967,26.3835],[106.4751,26.399],[106.4401,26.4609],[106.4314,26.4628],[106.3938,26.4366],[106.363,26.4555],[106.3397,26.452],[106.349,26.4771],[106.3421,26.4905],[106.3189,26.4926],[106.3203,26.5276],[106.3067,26.5455],[106.2744,26.5605],[106.2333,26.5512],[106.2042,26.5381],[106.1799,26.5571],[106.1821,26.5925],[106.1623,26.6006],[106.1632,26.6204],[106.1449,26.6283]]]},"properties":{"region_code":"CN-52-5204","parent_region_code":"CN-52","name":"安顺市","level":"prefecture","has_children":true,"full_path":"中国 / 贵州省 / 安顺市","source_admin_code":"5204","osm_relation_id":2782250}},
{"type":"Feature","geometry":{"type":"Polygon","coordinates":[[[106.709,27.3108],[106.7091,27.3298],[106.6941,27.34],[106.6898,27.3604],[106.7233,27.4086],[106.7034,27.4351],[106.7029,27.4589],[106.6917,27.4682],[106.6665,27.4655],[106.6411,27.4991],[106.6357,27.5157],[106.6096,27.5316],[106.5859,27.5356],[106.5236,27.5088],[106.5191,27.479],[106.4737,27.4886],[106.4548,27.5111],[106.4118,27.5083],[106.3725,27.4838],[106.3664,27.4712],[106.3361,27.4823],[106.3194,27.5119],[106.3195,27.5282],[106.3443,27.5569],[106.3377,27.5769],[106.2999,27.6004],[106.2728,27.6052],[106.2348,27.5783],[106.2298,27.5559],[106.2072,27.571],[106.159,27.5638],[106.116,27.6172],[106.0913,27.6544],[106.0322,27.6711],[106.0103,27.6643],[105.9989,27.6794],[106.0049,27.6952],[105.9974,27.7275],[106.0001,27.7503],[105.9807,27.7518],[105.927,27.7318],[105.9055,27.7498],[105.8647,27.7356],[105.8409,27.7089],[105.7763,27.7227],[105.7189,27.7092],[105.7172,27.6875],[105.6982,27.6803],[105.661,27.6874],[105.6386,27.663],[105.6214,27.6693],[105.6058,27.6969],[105.6027,27.7186],[105.5551,27.7239],[105.5346,27.7512],[105.5056,27.7724],[105.4744,27.7783],[105.4541,27.7716],[105.4377,27.7789],[105.3479,27.7496],[105.3239,27.7304],[105.2973,27.6975],[105.3064,27.658],[105.2978,27.6329],[105.3024,27.6168],[105.2675,27.5912],[105.244,27.5832],[105.236,27.5608],[105.258,27.5199],[105.2447,27.4978],[105.2303,27.4913],[105.2361,27.4714],[105.2225,27.4447],[105.2218,27.4221],[105.1915,27.387],[105.1291,27.4203],[105.0945,27.4154],[105.0811,27.4234],[105.0274,27.4031],[104.9967,27.3731],[104.9595,27.361],[104.9333,27.3391],[104.9106,27.33],[104.9006,27.3088],[104.8692,27.294],[104.8472,27.3079],[104.8426,27.3458],[104.8219,27.3568],[104.8006,27.3488],[104.772,27.3181],[104.7513,27.3497],[104.7353,27.3383],[104.7164,27.3469],[104.6803,27.3362],[104.6746,27.3224],[104.6372,27.3239],[104.6153,27.3134],[104.589,27.3182],[104.5666,27.3362],[104.5386,27.3406],[104.4864,27.4188],[104.4152,27.4386],[104.4091,27.4576],[104.3608,27.4707],[104.3471,27.4694],[104.3315,27.4495],[104.34,27.4396],[104.3198,27.4109],[104.3054,27.4104],[104.2933,27.3777],[104.2683,27.3637],[104.2459,27.3398],[104.2576,27.3105],[104.1883,27.2815],[104.1718,27.2664],[104.1291,27.3099],[104.1309,27.3277],[104.1122,27.3411],[104.0832,27.3341],[104.0553,27.3596],[104.018,27.3803],[104.013,27.4324],[103.9928,27.4241],[103.9554,27.4282],[103.9313,27.4472],[103.9256,27.4176],[103.9027,27.3866],[103.9016,27.3503],[103.8736,27.3364],[103.871,27.3087],[103.8588,27.2886],[103.7831,27.2421],[103.7628,27.2159],[103.7255,27.1806],[103.71,27.145],[103.696,27.1308],[103.6719,27.1349],[103.6258,27.1208],[103.6186,27.1004],[103.6517,27.096],[103.6462,27.0689],[103.6157,27.0836],[103.6003,27.0618],[103.6269,27.0212],[103.6362,27.0163],[103.6725,27.0547],[103.703,27.0528],[103.7298,27.0236],[103.7521,26.9663],[103.773,26.9549],[103.7753,26.9378],[103.7613,26.9103],[103.7783,26.878],[103.7705,26.8693],[103.72,26.8543],[103.7053,26.8321],[103.7035,26.7984],[103.7179,26.7782],[103.724,26.7462],[103.7444,26.7288],[103.7615,26.7411],[103.7719,26.7219],[103.7572,26.6894],[103.7598,26.6539],[103.7467,26.6272],[103.7687,26.6018],[103.7621,26.5894],[103.7966,26.5708],[103.8129,26.5549],[103.8132,26.5378],[103.8386,26.5354],[103.8632,26.5161],[103.8831,26.5211],[103.9156,26.5153],[103.9542,26.5249],[103.9707,26.5193],[103.9993,26.5236],[104.0085,26.5146],[104.0411,26.5165],[104.0716,26.5259],[104.0624,26.5631],[104.1259,26.6473],[104.1511,26.6499],[104.1714,26.6386],[104.2287,26.6241],[104.289,26.6362],[104.3151,26.6173],[104.3554,26.6292],[104.3634,26.6472],[104.3958,26.6893],[104.3967,26.7117],[104.4192,26.7149],[104.4652,26.6476],[104.4582,26.605],[104.4845,26.5825],[104.501,26.593],[104.5371,26.5899],[104.5541,26.5945],[104.5771,26.5721],[104.5701,26.5441],[104.5971,26.5429],[104.6532,26.5223],[104.6749,26.5278],[104.6904,26.5616],[104.6856,26.6065],[104.7204,26.6335],[104.7462,26.6425],[104.7362,26.6556],[104.7335,26.6817],[104.7606,26.6922],[104.7612,26.7236],[104.7484,26.7467],[104.7517,26.7995],[104.8004,26.838],[104.8093,26.8751],[104.8427,26.8936],[104.862,26.8786],[104.8719,26.8479],[104.8983,26.8347],[104.9337,26.8404],[104.9226,26.8581],[104.9359,26.8835],[104.9664,26.912],[104.9995,26.9234],[105.0275,26.9092],[105.0191,26.885],[105.0251,26.8708],[104.9874,26.8474],[105.0086,26.8196],[105.0219,26.8232],[105.0517,26.8048],[105.0432,26.7871],[105.0486,26.7706],[105.0809,26.7626],[105.0913,26.7447],[105.0679,26.724],[105.0765,26.6952],[105.0887,26.6888],[105.0842,26.6565],[105.1038,26.6371],[105.1243,26.63],[105.1622,26.6461],[105.1879,26.6496],[105.1895,26.5881],[105.2135,26.5748],[105.2044,26.5492],[105.2168,26.5369],[105.253,26.5234],[105.2788,26.5219],[105.2898,26.5349],[105.3155,26.5302],[105.3559,26.4737],[105.3964,26.4627],[105.425,26.4621],[105.4519,26.4423],[105.4981,26.4428],[105.5346,26.3632],[105.5792,26.3874],[105.6042,26.4191],[105.6718,26.4416],[105.7295,26.4642],[105.7561,26.4537],[105.776,26.4785],[105.8301,26.476],[105.9137,26.5248],[105.9405,26.5158],[105.9755,26.4904],[105.9715,26.4426],[106.0287,26.4616],[106.051,26.4621],[106.1193,26.4895],[106.1279,26.5034],[106.1264,26.5295],[106.1359,26.5373],[106.1395,26.5882],[106.1523,26.595],[106.1449,26.6283],[106.1441,26.6436],[106.119,26.6551],[106.1247,26.6682],[106.1681,26.6727],[106.1574,26.7178],[106.1598,26.7482],[106.1709,26.7645],[106.1561,26.7867],[106.1214,26.8077],[106.125,26.834],[106.1414,26.8555],[106.164,26.8558],[106.1909,26.8677],[106.2082,26.8887],[106.2288,26.8978],[106.2433,26.8711],[106.2589,26.8598],[106.2815,26.872],[106.2994,26.9],[106.3308,26.8824],[106.3525,26.8938],[106.3512,26.9256],[106.3754,26.9789],[106.4226,26.9957],[106.4268,27.0187],[106.4031,27.0497],[106.4099,27.0662],[106.3916,27.101],[106.3929,27.1173],[106.4118,27.1548],[106.4359,27.1602],[106.443,27.1908],[106.4857,27.2017],[106.4933,27.2138],[106.5195,27.2212],[106.5464,27.2444],[106.5661,27.2466],[106.6085,27.2695],[106.6237,27.2984],[106.663,27.3038],[106.6923,27.3147],[106.709,27.3108]],[[104.7028,26.8059],[104.6786,26.7879],[104.6697,26.757],[104.6478,26.7304],[104.6166,26.7259],[104.6136,26.7464],[104.5937,26.7574],[104.5967,26.7994],[104.6287,26.8327],[104.655,26.8356],[104.6884,26.8583],[104.6997,26.8369],[104.7028,26.8059]]]},"properties":{"region_code":"CN-52-5205","parent_region_code":"CN-52","name":"毕节市","level":"prefecture","has_children":true,"full_path":"中国 / 贵州省 / 毕节市","source_admin_code":"5205","osm_relation_id":2780074}},
{"type":"Feature","geometry":{"type":"Polygon","coordinates":[[[107.9932,27.3079],[108,27.3202],[108.0605,27.3259],[108.078,27.3337],[108.1263,27.3284],[108.1451,27.3034],[108.175,27.2959],[108.2022,27.3604],[108.2331,27.3689],[108.278,27.3491],[108.3171,27.3528],[108.3511,27.3809],[108.4047,27.4106],[108.4199,27.4272],[108.4569,27.4219],[108.4719,27.4105],[108.4867,27.4262],[108.507,27.4216],[108.5276,27.47],[108.5394,27.4829],[108.5796,27.4838],[108.5902,27.5123],[108.6107,27.5274],[108.6371,27.5146],[108.6628,27.5106],[108.6885,27.5238],[108.7033,27.5213],[108.7352,27.4912],[108.7568,27.4861],[108.7997,27.4909],[108.817,27.5025],[108.8589,27.5006],[108.8875,27.4915],[108.9057,27.496],[108.923,27.523],[108.9424,27.5017],[108.9736,27.4921],[108.948,27.4736],[108.961,27.4559],[109.0019,27.4545],[109.0222,27.4398],[109.0305,27.4159],[109.0141,27.3757],[108.9517,27.3782],[108.9288,27.3646],[108.9058,27.3676],[108.8959,27.3495],[108.879,27.3485],[108.871,27.3704],[108.8563,27.3701],[108.8387,27.3509],[108.8621,27.3103],[108.8435,27.2579],[108.826,27.2429],[108.8215,27.2206],[108.8003,27.2002],[108.8494,27.1784],[108.8544,27.1562],[108.8837,27.1258],[108.9013,27.1369],[108.9093,27.161],[108.9256,27.1833],[108.9051,27.2071],[108.9097,27.2174],[108.9618,27.2394],[108.9867,27.2736],[109.0054,27.2728],[109.0215,27.2855],[109.0361,27.2792],[109.0494,27.2969],[109.0423,27.3297],[109.0996,27.3397],[109.1141,27.3648],[109.1202,27.3918],[109.1097,27.4279],[109.1405,27.4519],[109.1669,27.426],[109.1892,27.4382],[109.2058,27.4613],[109.2205,27.4404],[109.2896,27.4267],[109.3023,27.4377],[109.3019,27.484],[109.3689,27.538],[109.4045,27.5548],[109.4238,27.5499],[109.4389,27.5658],[109.4608,27.6078],[109.47,27.6405],[109.4603,27.6525],[109.4657,27.6832],[109.4536,27.6962],[109.4258,27.7068],[109.4143,27.7239],[109.3699,27.7295],[109.3586,27.7637],[109.3274,27.7949],[109.3387,27.8154],[109.341,27.8407],[109.3139,27.88],[109.3043,27.9128],[109.3089,27.9361],[109.2959,27.9597],[109.3095,27.9698],[109.3138,27.9905],[109.3401,28.0105],[109.3573,28.0097],[109.3735,28.0387],[109.332,28.0669],[109.3186,28.0438],[109.2942,28.0518],[109.3087,28.1047],[109.3236,28.1186],[109.3428,28.1678],[109.3356,28.1862],[109.3412,28.2108],[109.3736,28.2647],[109.3928,28.2712],[109.3299,28.2967],[109.3018,28.2767],[109.2953,28.2929],[109.2704,28.3159],[109.2639,28.3412],[109.2842,28.3762],[109.2629,28.3895],[109.2522,28.4403],[109.2618,28.4855],[109.2263,28.4787],[109.2084,28.4844],[109.1856,28.4728],[109.1705,28.4347],[109.1329,28.3629],[109.1376,28.3304],[109.0958,28.2672],[109.0752,28.2513],[109.0984,28.219],[109.0827,28.1863],[109.0576,28.2053],[109.0375,28.2071],[109.0223,28.2205],[109.0074,28.2007],[109.0143,28.1836],[109.0063,28.1645],[108.9883,28.1617],[108.924,28.1962],[108.9164,28.2207],[108.8903,28.2218],[108.853,28.2049],[108.8357,28.2047],[108.8177,28.2439],[108.7721,28.222],[108.7359,28.2288],[108.735,28.2544],[108.7226,28.286],[108.7439,28.3036],[108.7633,28.3077],[108.7569,28.3288],[108.7725,28.3449],[108.7804,28.3828],[108.7573,28.3992],[108.7778,28.4305],[108.7444,28.4524],[108.7244,28.4746],[108.7195,28.4959],[108.6957,28.4857],[108.6404,28.4732],[108.6368,28.4587],[108.662,28.4463],[108.6846,28.4255],[108.6896,28.3981],[108.6618,28.3877],[108.6513,28.3595],[108.6638,28.3384],[108.6347,28.3369],[108.6127,28.3276],[108.5958,28.3456],[108.5756,28.3471],[108.5723,28.3881],[108.5837,28.4083],[108.6053,28.4108],[108.6067,28.4392],[108.5966,28.445],[108.5859,28.4787],[108.5716,28.5026],[108.5734,28.5388],[108.6077,28.5446],[108.6013,28.597],[108.6326,28.6265],[108.6312,28.6415],[108.6054,28.6383],[108.5629,28.6676],[108.5579,28.6537],[108.5045,28.6414],[108.4968,28.6313],[108.4413,28.635],[108.3863,28.6548],[108.3507,28.678],[108.3282,28.6829],[108.3439,28.7131],[108.3494,28.7417],[108.3822,28.7757],[108.3816,28.8079],[108.3484,28.8172],[108.3413,28.8599],[108.3516,28.8776],[108.3436,28.9431],[108.3217,28.9547],[108.3142,28.9696],[108.3044,29.0218],[108.2939,29.0513],[108.303,29.08],[108.2647,29.0937],[108.256,29.053],[108.2391,29.0314],[108.2261,29.0502],[108.2011,29.0593],[108.1922,29.0748],[108.1496,29.0572],[108.129,29.0557],[108.109,29.0776],[108.0647,29.0899],[108.0742,29.0729],[108.0672,29.0587],[108.0693,29.0152],[108.1034,28.9788],[108.1025,28.9648],[108.1339,28.935],[108.1243,28.879],[108.1334,28.86],[108.1523,28.8512],[108.1796,28.8162],[108.2004,28.8219],[108.2077,28.7978],[108.1844,28.7493],[108.1847,28.7286],[108.1588,28.6802],[108.1208,28.6572],[108.1246,28.6384],[108.076,28.6049],[108.059,28.6096],[108.0332,28.596],[108.0454,28.57],[108.0341,28.5579],[108.0538,28.5446],[108.0656,28.5197],[108.0437,28.4931],[108.0557,28.4756],[108.0443,28.4473],[108.0638,28.4252],[108.0327,28.3687],[108,28.3906],[107.987,28.3692],[107.9038,28.3803],[107.8748,28.3789],[107.8615,28.3581],[107.8563,28.3256],[107.8619,28.2925],[107.8573,28.2091],[107.833,28.188],[107.8013,28.1817],[107.7937,28.1209],[107.7818,28.099],[107.7876,28.0702],[107.8056,28.0732],[107.8322,28.0348],[107.8843,28.0564],[107.9106,28.0222],[107.9282,28.012],[107.9111,27.9766],[107.9076,27.9535],[107.9222,27.9218],[107.9132,27.9033],[107.8921,27.8983],[107.8812,27.8811],[107.8843,27.8476],[107.9088,27.8131],[107.9371,27.7928],[107.9451,27.7783],[107.9209,27.7366],[107.9236,27.7054],[107.9347,27.6877],[107.9115,27.6601],[107.8972,27.625],[107.9051,27.5791],[107.8933,27.5622],[107.8721,27.5505],[107.8493,27.5575],[107.8291,27.546],[107.8046,27.4923],[107.7626,27.4794],[107.7496,27.4652],[107.7591,27.4466],[107.8017,27.4193],[107.7662,27.3967],[107.7767,27.3767],[107.7702,27.3643],[107.8086,27.3372],[107.8356,27.3292],[107.8699,27.3467],[107.9161,27.3394],[107.9466,27.3576],[107.9551,27.3421],[107.9932,27.3079]]]},"properties":{"region_code":"CN-52-5206","parent_region_code":"CN-52","name":"铜仁市","level":"prefecture","has_children":true,"full_path":"中国 / 贵州省 / 铜仁市","source_admin_code":"5206","osm_relation_id":2778223}},
{"type":"Feature","geometry":{"type":"Polygon","coordinates":[[[104.6428,25.3596],[104.6425,25.2955],[104.6923,25.2985],[104.7075,25.2848],[104.7528,25.269],[104.7646,25.2797],[104.7869,25.2578],[104.8093,25.2667],[104.8259,25.2399],[104.8048,25.2294],[104.8063,25.1926],[104.8208,25.1741],[104.7995,25.1671],[104.7757,25.1888],[104.764,25.2087],[104.7453,25.2174],[104.7232,25.1977],[104.7322,25.1753],[104.7161,25.1447],[104.6935,25.126],[104.683,25.081],[104.6514,25.0618],[104.6831,25.0567],[104.6989,25.0398],[104.7117,25.0004],[104.688,24.9925],[104.6848,24.9776],[104.6616,24.9678],[104.6343,24.9074],[104.607,24.8966],[104.5877,24.8798],[104.5702,24.8473],[104.5382,24.8168],[104.5402,24.7583],[104.5274,24.7343],[104.557,24.7311],[104.5708,24.7172],[104.5949,24.7116],[104.5981,24.6997],[104.6306,24.6616],[104.6624,24.6605],[104.6961,24.6527],[104.6955,24.6355],[104.7113,24.6246],[104.7403,24.6242],[104.7475,24.6479],[104.7619,24.6604],[104.8407,24.6804],[104.8579,24.7024],[104.8653,24.7373],[104.9037,24.7587],[104.9856,24.7752],[105.011,24.7891],[105.0309,24.7913],[105.0246,24.8218],[105.0354,24.8382],[105.0369,24.8776],[105.0649,24.8993],[105.0721,24.9195],[105.1135,24.9462],[105.13,24.965],[105.1536,24.9607],[105.1769,24.9875],[105.2098,24.9989],[105.2117,24.9839],[105.2497,24.9713],[105.2622,24.9333],[105.3245,24.9268],[105.3477,24.9422],[105.3849,24.9459],[105.4414,24.9234],[105.4525,24.8757],[105.4678,24.8546],[105.486,24.8445],[105.4952,24.8111],[105.5605,24.8004],[105.596,24.8111],[105.6248,24.7794],[105.6491,24.7748],[105.6744,24.7789],[105.7015,24.7723],[105.736,24.7446],[105.7553,24.7381],[105.7635,24.7229],[105.796,24.7061],[105.8264,24.7067],[105.8612,24.7325],[105.8863,24.7263],[105.9388,24.7282],[105.95,24.6914],[106.0076,24.639],[106.021,24.636],[106.0522,24.6933],[106.1079,24.7142],[106.1359,24.7389],[106.1487,24.7659],[106.1706,24.7641],[106.1947,24.8179],[106.2015,24.8625],[106.1886,24.9],[106.1794,24.9055],[106.1499,24.9643],[106.1837,24.9543],[106.2148,24.9855],[106.2475,24.9738],[106.2784,24.9833],[106.3031,24.9779],[106.3286,24.9912],[106.3518,24.9941],[106.4093,25.0165],[106.4401,25.0233],[106.4591,25.0429],[106.5152,25.0553],[106.534,25.0796],[106.5081,25.1265],[106.4809,25.1541],[106.4599,25.187],[106.4931,25.2052],[106.5028,25.2216],[106.4796,25.2937],[106.453,25.3266],[106.4262,25.329],[106.4149,25.3639],[106.3573,25.3688],[106.3283,25.357],[106.3019,25.3689],[106.3014,25.3848],[106.2465,25.4096],[106.223,25.3969],[106.1927,25.4695],[106.1573,25.4682],[106.1255,25.4563],[106.1187,25.4778],[106.1327,25.4836],[106.1065,25.5158],[106.0857,25.5116],[106.0631,25.531],[106.0874,25.5364],[106.0985,25.5715],[106.0768,25.59],[106.0544,25.5875],[106.0437,25.562],[106.0141,25.5741],[105.9883,25.5716],[105.9885,25.5975],[105.9744,25.6012],[105.9578,25.5782],[105.9818,25.5675],[105.978,25.5416],[105.9134,25.5022],[105.9091,25.488],[105.9267,25.4562],[105.9266,25.434],[105.9026,25.4377],[105.8906,25.4254],[105.8118,25.4639],[105.7809,25.4714],[105.7761,25.5055],[105.7665,25.5277],[105.7344,25.5656],[105.6912,25.6315],[105.6916,25.6499],[105.6793,25.6651],[105.65,25.6778],[105.6236,25.6781],[105.6122,25.6916],[105.5679,25.7184],[105.5544,25.6994],[105.5293,25.6949],[105.4859,25.7491],[105.4505,25.7622],[105.4351,25.782],[105.3771,25.8236],[105.3682,25.8438],[105.3751,25.8916],[105.3447,25.8934],[105.2987,25.9152],[105.2816,25.9386],[105.2619,25.9408],[105.2511,25.9609],[105.2523,25.99],[105.2253,25.9992],[105.2045,26.0486],[105.1861,26.0722],[105.1905,26.0934],[105.1722,26.1252],[105.1853,26.1767],[105.1529,26.1755],[105.1363,26.1527],[105.1224,26.1671],[105.0886,26.1617],[105.0493,26.1759],[105.0156,26.1471],[104.9927,26.1392],[105.0091,26.0948],[104.9917,26.0759],[104.9718,26.0694],[104.9553,26.0461],[104.9581,26.0258],[104.9275,25.9439],[104.9485,25.9235],[104.9442,25.8873],[104.9073,25.8469],[104.8895,25.8421],[104.8704,25.8085],[104.8752,25.7482],[104.9085,25.7073],[104.8988,25.6623],[104.8684,25.6362],[104.8607,25.6176],[104.8843,25.5935],[104.8873,25.5615],[104.9087,25.5585],[104.9152,25.5188],[104.8514,25.4344],[104.8468,25.4067],[104.8631,25.3609],[104.8414,25.3718],[104.8197,25.345],[104.7813,25.3401],[104.7524,25.3433],[104.6901,25.3316],[104.6816,25.3656],[104.6622,25.3808],[104.6428,25.3596]]]},"properties":{"region_code":"CN-52-5223","parent_region_code":"CN-52","name":"黔西南布依族苗族自治州","level":"prefecture","has_children":true,"full_path":"中国 / 贵州省 / 黔西南布依族苗族自治州","source_admin_code":"5223","osm_relation_id":2781292}},
{"type":"Feature","geometry":{"type":"MultiPolygon","coordinates":[[[[109.5735,26.7752],[109.5558,26.7563],[109.5401,26.7246],[109.5636,26.7301],[109.5816,26.7558],[109.5735,26.7752]]],[[[107.6625,27.2397],[107.6489,27.2082],[107.6697,27.2115],[107.6808,27.1983],[107.6759,27.1752],[107.6835,27.1547],[107.7023,27.1466],[107.6856,27.1175],[107.644,27.0713],[107.6298,27.0489],[107.6389,27.0156],[107.6645,26.9953],[107.6424,26.9577],[107.6284,26.9608],[107.5963,26.9147],[107.6422,26.868],[107.6313,26.8477],[107.6447,26.8397],[107.6866,26.8482],[107.6874,26.8689],[107.7345,26.8496],[107.7277,26.8314],[107.7589,26.8273],[107.764,26.8054],[107.7137,26.755],[107.691,26.7389],[107.6889,26.6694],[107.7109,26.6464],[107.7157,26.6148],[107.7418,26.5991],[107.7378,26.5805],[107.7177,26.573],[107.7046,26.5824],[107.6815,26.5745],[107.6577,26.5832],[107.6432,26.604],[107.6068,26.6014],[107.5991,26.5872],[107.5741,26.6079],[107.5607,26.6083],[107.5349,26.5767],[107.5091,26.5726],[107.4919,26.5587],[107.4593,26.5501],[107.4458,26.5841],[107.3955,26.557],[107.3952,26.5409],[107.3624,26.5532],[107.3347,26.5543],[107.3143,26.5279],[107.3212,26.5065],[107.3403,26.5049],[107.3514,26.4906],[107.308,26.4502],[107.3204,26.4414],[107.3353,26.4094],[107.3733,26.4006],[107.3988,26.376],[107.4339,26.3938],[107.4396,26.4108],[107.4963,26.4222],[107.5158,26.4096],[107.5203,26.3857],[107.5148,26.3489],[107.5287,26.3475],[107.5503,26.3712],[107.5788,26.3697],[107.6025,26.349],[107.6178,26.3466],[107.6226,26.323],[107.6463,26.2828],[107.6605,26.3055],[107.6868,26.3008],[107.7164,26.3206],[107.7642,26.3196],[107.7678,26.278],[107.7376,26.2076],[107.7423,26.1821],[107.7595,26.1594],[107.7835,26.146],[107.788,26.1281],[107.8116,26.1035],[107.8365,26.1022],[107.8446,26.1406],[107.8563,26.1437],[107.8829,26.1202],[107.9024,26.1275],[107.9201,26.105],[107.9422,26.1024],[107.9604,26.0785],[108.0185,26.0933],[108.0393,26.0821],[108.0981,26.081],[108.1236,26.0998],[108.1455,26.0984],[108.154,26.0812],[108.1617,26.0369],[108.1835,26.0403],[108.2218,26.0735],[108.2212,26.0538],[108.2352,26.0402],[108.2093,26.0068],[108.212,25.973],[108.1768,25.9565],[108.1347,25.913],[108.1411,25.8859],[108.1072,25.8545],[108.1146,25.8394],[108.0874,25.8131],[108.0775,25.7791],[108.1004,25.7628],[108.0947,25.7045],[108.1093,25.6899],[108.1543,25.7035],[108.1646,25.6797],[108.1645,25.6558],[108.1817,25.6468],[108.1774,25.6207],[108.2125,25.6152],[108.2385,25.6309],[108.2381,25.5957],[108.271,25.5741],[108.2857,25.529],[108.302,25.518],[108.3148,25.5372],[108.3401,25.5413],[108.3529,25.5181],[108.3952,25.4951],[108.415,25.4453],[108.4818,25.4614],[108.5577,25.3886],[108.5585,25.3758],[108.5819,25.3689],[108.5883,25.3372],[108.6088,25.3129],[108.6215,25.3115],[108.6223,25.3498],[108.6105,25.3693],[108.6193,25.3801],[108.6074,25.4112],[108.589,25.4109],[108.5946,25.454],[108.6325,25.4741],[108.6176,25.4964],[108.6296,25.5226],[108.6624,25.5364],[108.654,25.554],[108.6603,25.5926],[108.6831,25.5902],[108.6839,25.6275],[108.7189,25.638],[108.7561,25.6412],[108.7784,25.6324],[108.7765,25.6047],[108.7928,25.5794],[108.7797,25.5626],[108.805,25.5284],[108.8214,25.5535],[108.8498,25.5523],[108.862,25.5621],[108.8854,25.5594],[108.8903,25.5437],[108.9466,25.56],[109.0203,25.5151],[109.0504,25.5281],[109.0764,25.5476],[109.0633,25.5649],[109.0413,25.5772],[109.0368,25.6125],[109.0274,25.6309],[109.0372,25.6605],[109.0704,25.698],[109.074,25.7226],[109.0395,25.7419],[109.025,25.7257],[108.9981,25.7398],[108.9789,25.7234],[108.9746,25.708],[108.9506,25.6867],[108.9147,25.6802],[108.8958,25.6849],[108.8945,25.7193],[108.9332,25.7425],[108.9579,25.734],[108.984,25.7662],[108.9844,25.7821],[109.0117,25.7938],[109.0737,25.7887],[109.0898,25.8055],[109.1303,25.8088],[109.1386,25.7801],[109.1268,25.7645],[109.1439,25.7445],[109.1543,25.7619],[109.1747,25.763],[109.1853,25.7765],[109.2077,25.7636],[109.202,25.7425],[109.228,25.7401],[109.2656,25.721],[109.2971,25.7375],[109.3357,25.7351],[109.322,25.7648],[109.3342,25.8054],[109.3342,25.8376],[109.3638,25.8449],[109.3839,25.873],[109.387,25.8983],[109.4204,25.9189],[109.4295,25.9417],[109.4125,25.9761],[109.4572,25.998],[109.4679,26.009],[109.4748,26.0528],[109.4497,26.056],[109.4436,26.1046],[109.4988,26.1011],[109.5095,26.1331],[109.4666,26.1575],[109.4665,26.1749],[109.4477,26.2128],[109.4467,26.2367],[109.4349,26.2503],[109.4526,26.2793],[109.4761,26.2944],[109.4588,26.315],[109.4245,26.2945],[109.3338,26.2709],[109.2843,26.2949],[109.2679,26.3371],[109.2903,26.352],[109.3222,26.4313],[109.3792,26.469],[109.3598,26.4828],[109.3866,26.5023],[109.3712,26.5223],[109.4025,26.5374],[109.3817,26.5746],[109.3861,26.6021],[109.3558,26.65],[109.3306,26.652],[109.2996,26.6656],[109.284,26.6965],[109.3033,26.7147],[109.3377,26.704],[109.3622,26.7031],[109.3882,26.7215],[109.4141,26.7304],[109.407,26.7451],[109.4357,26.751],[109.437,26.7635],[109.502,26.7663],[109.5182,26.7909],[109.4944,26.8125],[109.494,26.8317],[109.5131,26.8559],[109.5147,26.8794],[109.4705,26.8988],[109.4427,26.863],[109.4347,26.8908],[109.4682,26.916],[109.5053,26.9339],[109.5169,26.9283],[109.5569,26.9554],[109.5424,26.9759],[109.5258,26.9801],[109.5371,27.0146],[109.5131,27.0479],[109.5154,27.0627],[109.4948,27.083],[109.4584,27.0842],[109.4546,27.1123],[109.4607,27.1387],[109.4228,27.1309],[109.4084,27.1575],[109.3796,27.1469],[109.3542,27.1559],[109.3316,27.1416],[109.2631,27.1323],[109.2525,27.153],[109.2338,27.1523],[109.2177,27.125],[109.1606,27.0685],[109.1369,27.0771],[109.1261,27.0675],[109.0966,27.0723],[109.1068,27.0988],[109.1277,27.1133],[109.1079,27.1269],[109.0759,27.1192],[109.0495,27.1014],[109.0221,27.1062],[109.0115,27.0892],[108.9603,27.0578],[108.9358,27.0477],[108.948,27.0222],[108.917,27.0125],[108.8967,27.02],[108.8845,27.0075],[108.8619,27.0331],[108.7861,27.0874],[108.8125,27.1002],[108.821,27.0922],[108.8499,27.1066],[108.8563,27.1187],[108.8837,27.1258],[108.8544,27.1562],[108.8494,27.1784],[108.8003,27.2002],[108.8215,27.2206],[108.826,27.2429],[108.8435,27.2579],[108.8621,27.3103],[108.8387,27.3509],[108.8563,27.3701],[108.871,27.3704],[108.879,27.3485],[108.8959,27.3495],[108.9058,27.3676],[108.9288,27.3646],[108.9517,27.3782],[109.0141,27.3757],[109.0305,27.4159],[109.0222,27.4398],[109.0019,27.4545],[108.961,27.4559],[108.948,27.4736],[108.9736,27.4921],[108.9424,27.5017],[108.923,27.523],[108.9057,27.496],[108.8875,27.4915],[108.8589,27.5006],[108.817,27.5025],[108.7997,27.4909],[108.7568,27.4861],[108.7352,27.4912],[108.7033,27.5213],[108.6885,27.5238],[108.6628,27.5106],[108.6371,27.5146],[108.6107,27.5274],[108.5902,27.5123],[108.5796,27.4838],[108.5394,27.4829],[108.5276,27.47],[108.507,27.4216],[108.4867,27.4262],[108.4719,27.4105],[108.4569,27.4219],[108.4199,27.4272],[108.4047,27.4106],[108.3511,27.3809],[108.3171,27.3528],[108.278,27.3491],[108.2331,27.3689],[108.2022,27.3604],[108.175,27.2959],[108.1451,27.3034],[108.1263,27.3284],[108.078,27.3337],[108.0605,27.3259],[108,27.3202],[107.9932,27.3079],[108.0076,27.2779],[108.0354,27.2614],[108.029,27.2419],[108,27.2309],[107.9593,27.2012],[107.931,27.1977],[107.9046,27.1761],[107.8795,27.1815],[107.873,27.1454],[107.8484,27.1526],[107.844,27.1687],[107.8218,27.1896],[107.7899,27.1956],[107.7764,27.2107],[107.7231,27.2297],[107.7047,27.228],[107.6763,27.2421],[107.6625,27.2397]]]]},"properties":{"region_code":"CN-52-5226","parent_region_code":"CN-52","name":"黔东南苗族侗族自治州","level":"prefecture","has_children":true,"full_path":"中国 / 贵州省 / 黔东南苗族侗族自治州","source_admin_code":"5226","osm_relation_id":2777847}},
{"type":"Feature","geometry":{"type":"Polygon","coordinates":[[[106.4842,26.2646],[106.455,26.2694],[106.4359,26.2801],[106.4056,26.2771],[106.3867,26.2907],[106.3508,26.2794],[106.3457,26.2369],[106.311,26.2222],[106.2941,26.2399],[106.2516,26.246],[106.2346,26.2306],[106.2781,26.2218],[106.2796,26.1754],[106.2699,26.1455],[106.2774,26.1133],[106.2915,26.1036],[106.24,26.0842],[106.2303,26.0581],[106.2306,26.0258],[106.2797,26.0277],[106.3114,25.9756],[106.2802,25.9448],[106.2962,25.9252],[106.2923,25.9055],[106.2677,25.854],[106.2476,25.8318],[106.244,25.8092],[106.2557,25.7475],[106.2307,25.7156],[106.2418,25.7011],[106.2747,25.7138],[106.2893,25.7018],[106.3631,25.657],[106.4093,25.6496],[106.4281,25.6832],[106.4548,25.6725],[106.4777,25.6535],[106.467,25.6047],[106.4403,25.5879],[106.4237,25.5603],[106.4314,25.5318],[106.4066,25.4892],[106.4009,25.4631],[106.4186,25.4468],[106.4129,25.4282],[106.3929,25.415],[106.4194,25.3959],[106.4267,25.3716],[106.4149,25.3639],[106.4262,25.329],[106.453,25.3266],[106.4796,25.2937],[106.5028,25.2216],[106.4931,25.2052],[106.4599,25.187],[106.4809,25.1541],[106.5081,25.1265],[106.534,25.0796],[106.585,25.0888],[106.593,25.1069],[106.6347,25.1349],[106.6366,25.1639],[106.686,25.1824],[106.7243,25.1646],[106.7618,25.1857],[106.7859,25.1735],[106.8544,25.1902],[106.8805,25.1853],[106.8974,25.1994],[106.8983,25.229],[106.9098,25.2465],[106.9491,25.2505],[106.973,25.2368],[106.9815,25.2582],[107.0098,25.2778],[107.0026,25.3111],[107.0103,25.3469],[106.9851,25.3613],[106.9752,25.3782],[106.971,25.4097],[106.9599,25.4402],[106.9775,25.4512],[106.9946,25.4477],[107.0095,25.4978],[107.0653,25.5138],[107.059,25.5446],[107.0755,25.5685],[107.1361,25.566],[107.1809,25.5811],[107.1838,25.5999],[107.2042,25.6133],[107.2365,25.5968],[107.2225,25.5704],[107.2403,25.5456],[107.2774,25.5333],[107.3159,25.487],[107.328,25.4655],[107.322,25.4395],[107.2996,25.4311],[107.3152,25.4054],[107.3652,25.4125],[107.3895,25.407],[107.3911,25.3924],[107.4185,25.3887],[107.397,25.3494],[107.4156,25.3365],[107.4144,25.3095],[107.4225,25.2904],[107.4399,25.2859],[107.4714,25.2977],[107.4823,25.2743],[107.4651,25.24],[107.4746,25.2134],[107.4969,25.2108],[107.5061,25.2226],[107.5353,25.2279],[107.5574,25.2526],[107.6129,25.2717],[107.6087,25.2834],[107.6453,25.3216],[107.6632,25.3225],[107.6606,25.2925],[107.6703,25.2395],[107.6954,25.2246],[107.703,25.2105],[107.7485,25.2428],[107.759,25.2346],[107.7535,25.2022],[107.7792,25.1723],[107.7864,25.145],[107.7588,25.1273],[107.7938,25.1191],[107.8158,25.1313],[107.8348,25.1191],[107.8666,25.133],[107.8682,25.1424],[107.932,25.1634],[108.0074,25.1973],[108.0528,25.2014],[108.0737,25.1972],[108.1033,25.2072],[108.1295,25.2371],[108.1307,25.2605],[108.1425,25.2734],[108.1293,25.2941],[108.1474,25.3126],[108.1317,25.344],[108.1482,25.3556],[108.1458,25.3963],[108.1747,25.393],[108.1881,25.402],[108.1777,25.429],[108.1573,25.4463],[108.1883,25.4604],[108.218,25.4514],[108.2223,25.4285],[108.2482,25.432],[108.2324,25.4514],[108.2588,25.4785],[108.2781,25.4808],[108.302,25.518],[108.2857,25.529],[108.271,25.5741],[108.2381,25.5957],[108.2385,25.6309],[108.2125,25.6152],[108.1774,25.6207],[108.1817,25.6468],[108.1645,25.6558],[108.1646,25.6797],[108.1543,25.7035],[108.1093,25.6899],[108.0947,25.7045],[108.1004,25.7628],[108.0775,25.7791],[108.0874,25.8131],[108.1146,25.8394],[108.1072,25.8545],[108.1411,25.8859],[108.1347,25.913],[108.1768,25.9565],[108.212,25.973],[108.2093,26.0068],[108.2352,26.0402],[108.2212,26.0538],[108.2218,26.0735],[108.1835,26.0403],[108.1617,26.0369],[108.154,26.0812],[108.1455,26.0984],[108.1236,26.0998],[108.0981,26.081],[108.0393,26.0821],[108.0185,26.0933],[107.9604,26.0785],[107.9422,26.1024],[107.9201,26.105],[107.9024,26.1275],[107.8829,26.1202],[107.8563,26.1437],[107.8446,26.1406],[107.8365,26.1022],[107.8116,26.1035],[107.788,26.1281],[107.7835,26.146],[107.7595,26.1594],[107.7423,26.1821],[107.7376,26.2076],[107.7678,26.278],[107.7642,26.3196],[107.7164,26.3206],[107.6868,26.3008],[107.6605,26.3055],[107.6463,26.2828],[107.6226,26.323],[107.6178,26.3466],[107.6025,26.349],[107.5788,26.3697],[107.5503,26.3712],[107.5287,26.3475],[107.5148,26.3489],[107.5203,26.3857],[107.5158,26.4096],[107.4963,26.4222],[107.4396,26.4108],[107.4339,26.3938],[107.3988,26.376],[107.3733,26.4006],[107.3353,26.4094],[107.3204,26.4414],[107.308,26.4502],[107.3514,26.4906],[107.3403,26.5049],[107.3212,26.5065],[107.3143,26.5279],[107.3347,26.5543],[107.3624,26.5532],[107.3952,26.5409],[107.3955,26.557],[107.4458,26.5841],[107.4593,26.5501],[107.4919,26.5587],[107.5091,26.5726],[107.5349,26.5767],[107.5607,26.6083],[107.5741,26.6079],[107.5991,26.5872],[107.6068,26.6014],[107.6432,26.604],[107.6577,26.5832],[107.6815,26.5745],[107.7046,26.5824],[107.7177,26.573],[107.7378,26.5805],[107.7418,26.5991],[107.7157,26.6148],[107.7109,26.6464],[107.6889,26.6694],[107.691,26.7389],[107.7137,26.755],[107.764,26.8054],[107.7589,26.8273],[107.7277,26.8314],[107.7345,26.8496],[107.6874,26.8689],[107.6866,26.8482],[107.6447,26.8397],[107.6313,26.8477],[107.6422,26.868],[107.5963,26.9147],[107.6284,26.9608],[107.6424,26.9577],[107.6645,26.9953],[107.6389,27.0156],[107.6298,27.0489],[107.644,27.0713],[107.6856,27.1175],[107.7023,27.1466],[107.6835,27.1547],[107.6759,27.1752],[107.6808,27.1983],[107.6697,27.2115],[107.6489,27.2082],[107.6625,27.2397],[107.6387,27.2537],[107.599,27.2643],[107.5559,27.2691],[107.5492,27.2483],[107.5584,27.2251],[107.5281,27.2204],[107.5072,27.2069],[107.4593,27.2557],[107.4539,27.2665],[107.471,27.2853],[107.4726,27.3016],[107.4994,27.3193],[107.4887,27.3382],[107.494,27.3674],[107.4824,27.3784],[107.447,27.3702],[107.4298,27.3771],[107.4138,27.349],[107.3938,27.369],[107.3715,27.3688],[107.3711,27.3935],[107.3959,27.41],[107.3913,27.426],[107.3491,27.449],[107.3545,27.4621],[107.2983,27.4672],[107.2713,27.4841],[107.2639,27.4435],[107.2492,27.409],[107.2327,27.4042],[107.1915,27.3594],[107.204,27.334],[107.1864,27.3059],[107.162,27.2876],[107.1628,27.2659],[107.1352,27.2559],[107.1565,27.2373],[107.1944,27.2471],[107.256,27.2208],[107.2319,27.1686],[107.2093,27.174],[107.1873,27.1577],[107.182,27.1116],[107.1638,27.0915],[107.1631,27.0304],[107.1909,27.0302],[107.1924,27.0144],[107.2255,27.0038],[107.2461,26.9681],[107.2739,26.8764],[107.262,26.8071],[107.239,26.8071],[107.2058,26.8169],[107.1982,26.8082],[107.169,26.8236],[107.132,26.8265],[107.1024,26.8183],[107.0861,26.8037],[107.0692,26.8064],[107.0452,26.7753],[107.0092,26.7586],[106.9775,26.7556],[106.9615,26.7233],[106.9776,26.7051],[106.9435,26.6778],[106.9573,26.6586],[106.9131,26.6426],[106.8921,26.6537],[106.8886,26.6321],[106.9106,26.6151],[106.9162,26.5999],[106.876,26.5774],[106.8446,26.5758],[106.8312,26.56],[106.8444,26.5388],[106.834,26.5076],[106.8069,26.4897],[106.829,26.4563],[106.8035,26.4306],[106.7855,26.4366],[106.7671,26.407],[106.7673,26.3835],[106.7938,26.3713],[106.8142,26.3954],[106.8169,26.3452],[106.7787,26.3369],[106.7821,26.3229],[106.8277,26.3163],[106.8678,26.3196],[106.8841,26.2773],[106.8504,26.2548],[106.8508,26.2405],[106.8804,26.2376],[106.8863,26.2199],[106.8582,26.2075],[106.8564,26.1939],[106.8269,26.1871],[106.8091,26.2041],[106.8063,26.2302],[106.7901,26.2379],[106.793,26.2559],[106.7372,26.2835],[106.7153,26.2762],[106.696,26.2927],[106.6684,26.2911],[106.6605,26.274],[106.6268,26.2734],[106.6308,26.242],[106.5934,26.2335],[106.5641,26.2384],[106.5451,26.2334],[106.5076,26.2389],[106.4977,26.2627],[106.4842,26.2646]]]},"properties":{"region_code":"CN-52-5227","parent_region_code":"CN-52","name":"黔南布依族苗族自治州","level":"prefecture","has_children":true,"full_path":"中国 / 贵州省 / 黔南布依族苗族自治州","source_admin_code":"5227","osm_relation_id":2777425}}
]}