{"type":"FeatureCollection", "features": [
{"type":"Feature","geometry":{"type":"Polygon","coordinates":[[[103.9222,27.5866],[103.9349,27.6332],[103.9124,27.6432],[103.871,27.6261],[103.8534,27.6146],[103.8335,27.5843],[103.8337,27.5477],[103.8161,27.5269],[103.7909,27.5039],[103.782,27.505],[103.7793,27.53],[103.7511,27.5309],[103.7277,27.5447],[103.7183,27.5594],[103.6916,27.5541],[103.6656,27.572],[103.6565,27.5899],[103.6597,27.5996],[103.6419,27.5946],[103.6259,27.6061],[103.6134,27.6043],[103.6108,27.5841],[103.5876,27.5938],[103.5897,27.5587],[103.5842,27.539],[103.565,27.5342],[103.5431,27.5421],[103.5374,27.5624],[103.5411,27.576],[103.5262,27.5864],[103.5138,27.5844],[103.507,27.5614],[103.4966,27.5702],[103.4531,27.5844],[103.4487,27.566],[103.4126,27.5639],[103.3781,27.5486],[103.3857,27.5222],[103.365,27.5095],[103.3396,27.5077],[103.2955,27.5376],[103.2796,27.5532],[103.2651,27.5593],[103.26,27.5715],[103.2373,27.5737],[103.2199,27.5692],[103.2076,27.5366],[103.1882,27.5269],[103.1763,27.4995],[103.1572,27.48],[103.1419,27.4543],[103.1406,27.4251],[103.1548,27.3986],[103.1673,27.3981],[103.1985,27.4101],[103.2407,27.4128],[103.2606,27.3992],[103.2775,27.3662],[103.2931,27.3627],[103.3097,27.3307],[103.3223,27.3232],[103.3461,27.3196],[103.3542,27.3398],[103.371,27.3334],[103.3969,27.3378],[103.3817,27.3642],[103.3907,27.39],[103.3834,27.408],[103.3696,27.4221],[103.3621,27.4451],[103.3735,27.4478],[103.3805,27.464],[103.3693,27.4707],[103.361,27.5007],[103.3701,27.5104],[103.3869,27.516],[103.4073,27.5114],[103.4222,27.5012],[103.4351,27.5304],[103.4506,27.5179],[103.4446,27.488],[103.4565,27.4792],[103.476,27.4802],[103.4693,27.4613],[103.4793,27.4444],[103.4722,27.4236],[103.4946,27.3898],[103.4883,27.3634],[103.4968,27.3406],[103.4912,27.3245],[103.4675,27.2904],[103.4568,27.2587],[103.4651,27.2512],[103.4874,27.2611],[103.4989,27.255],[103.5296,27.2579],[103.548,27.2702],[103.5646,27.2576],[103.5901,27.2518],[103.6082,27.2615],[103.6191,27.2367],[103.6113,27.2243],[103.6156,27.2095],[103.6463,27.1999],[103.6662,27.1695],[103.6346,27.1625],[103.6179,27.1336],[103.6258,27.1208],[103.6719,27.1349],[103.696,27.1308],[103.71,27.145],[103.7046,27.1613],[103.718,27.1634],[103.7255,27.1806],[103.7448,27.2022],[103.7469,27.2146],[103.7628,27.2159],[103.7769,27.2278],[103.7831,27.2421],[103.8005,27.255],[103.8031,27.2712],[103.8226,27.2666],[103.8398,27.2766],[103.8443,27.2922],[103.8588,27.2886],[103.871,27.3087],[103.8736,27.3364],[103.9016,27.3503],[103.9044,27.391],[103.8733,27.4176],[103.8832,27.4408],[103.8745,27.4503],[103.8545,27.452],[103.8549,27.4959],[103.8705,27.4969],[103.9224,27.5514],[103.9099,27.5602],[103.9222,27.5866]]]},"properties":{"region_code":"CN-53-5306-530602","parent_region_code":"CN-53-5306","name":"昭阳区","level":"county","has_children":false,"full_path":"中国 / 云南省 / 昭通市 / 昭阳区","source_admin_code":"530602","osm_relation_id":2402036}},
{"type":"Feature","geometry":{"type":"Polygon","coordinates":[[[103.1548,27.3986],[103.1746,27.3843],[103.1939,27.386],[103.2119,27.3747],[103.2242,27.3424],[103.2198,27.3109],[103.2277,27.2915],[103.2238,27.2593],[103.2161,27.2452],[103.199,27.2353],[103.1946,27.2223],[103.2141,27.1993],[103.2164,27.1822],[103.2257,27.1739],[103.2282,27.1571],[103.2414,27.151],[103.2574,27.1297],[103.2938,27.1267],[103.2998,27.1057],[103.2827,27.0561],[103.274,27.0458],[103.2872,27.0292],[103.3141,27.0227],[103.3211,27.0075],[103.3365,27.0087],[103.3551,27.022],[103.3721,27.0535],[103.3894,27.0489],[103.3896,27.0343],[103.4195,27.0288],[103.4239,27.0066],[103.4465,26.9911],[103.4734,26.9995],[103.4819,27.0094],[103.4966,27.0094],[103.5154,26.9966],[103.5521,27.0085],[103.5686,26.9964],[103.5939,26.9913],[103.6096,26.9945],[103.6153,27.0139],[103.6269,27.0212],[103.6003,27.0618],[103.6157,27.0836],[103.6462,27.0689],[103.6577,27.0696],[103.6517,27.096],[103.6388,27.0941],[103.6186,27.1004],[103.6258,27.1208],[103.6179,27.1336],[103.6346,27.1625],[103.6662,27.1695],[103.6463,27.1999],[103.6156,27.2095],[103.6113,27.2243],[103.6191,27.2367],[103.6082,27.2615],[103.5901,27.2518],[103.5646,27.2576],[103.548,27.2702],[103.5296,27.2579],[103.4989,27.255],[103.4874,27.2611],[103.4651,27.2512],[103.4568,27.2587],[103.4675,27.2904],[103.4912,27.3245],[103.4968,27.3406],[103.4883,27.3634],[103.4946,27.3898],[103.4722,27.4236],[103.4793,27.4444],[103.4693,27.4613],[103.476,27.4802],[103.4565,27.4792],[103.4446,27.488],[103.4506,27.5179],[103.4351,27.5304],[103.4222,27.5012],[103.4073,27.5114],[103.3869,27.516],[103.3701,27.5104],[103.361,27.5007],[103.3693,27.4707],[103.3805,27.464],[103.3735,27.4478],[103.3621,27.4451],[103.3696,27.4221],[103.3834,27.408],[103.3907,27.39],[103.3817,27.3642],[103.3969,27.3378],[103.371,27.3334],[103.3542,27.3398],[103.3461,27.3196],[103.3223,27.3232],[103.3097,27.3307],[103.2931,27.3627],[103.2775,27.3662],[103.2606,27.3992],[103.2407,27.4128],[103.1985,27.4101],[103.1673,27.3981],[103.1548,27.3986]]]},"properties":{"region_code":"CN-53-5306-530621","parent_region_code":"CN-53-5306","name":"鲁甸县","level":"county","has_children":false,"full_path":"中国 / 云南省 / 昭通市 / 鲁甸县","source_admin_code":"530621","osm_relation_id":2402646}},
{"type":"Feature","geometry":{"type":"Polygon","coordinates":[[[103.1406,27.4251],[103.109,27.4037],[103.0779,27.4004],[103.0701,27.411],[103.0522,27.4121],[103.0191,27.3834],[102.9832,27.3709],[102.9623,27.3918],[102.9532,27.4165],[102.9424,27.4136],[102.9322,27.3894],[102.9225,27.3788],[102.8981,27.3201],[102.882,27.3023],[102.8815,27.2631],[102.8857,27.2502],[102.899,27.2406],[102.9032,27.223],[102.9003,27.1992],[102.9074,27.1832],[102.904,27.1705],[102.9104,27.1492],[102.9088,27.1199],[102.8976,27.0956],[102.8972,27.0799],[102.8838,27.0636],[102.8695,27.03],[102.894,27.0034],[102.894,26.9806],[102.8876,26.9577],[102.9024,26.9092],[102.9467,26.8473],[102.9627,26.843],[102.9659,26.8266],[102.979,26.8098],[102.978,26.7944],[102.9907,26.7792],[102.983,26.7711],[102.9926,26.7436],[103.0009,26.7385],[102.9961,26.7235],[103.0091,26.7048],[103.0034,26.6822],[103.0255,26.6662],[103.0284,26.6062],[103.0166,26.5971],[103.0289,26.5767],[103.0342,26.5583],[103.0604,26.5533],[103.0687,26.5779],[103.0604,26.6029],[103.0748,26.618],[103.0937,26.6172],[103.1213,26.6403],[103.1655,26.6213],[103.1934,26.6202],[103.2128,26.6344],[103.2096,26.6478],[103.2233,26.6612],[103.2143,26.6734],[103.2313,26.6924],[103.2345,26.7253],[103.2576,26.7235],[103.2747,26.733],[103.2963,26.7305],[103.3251,26.7172],[103.3366,26.7167],[103.3513,26.7303],[103.3645,26.7319],[103.3714,26.7213],[103.4005,26.7111],[103.4045,26.7197],[103.38,26.7392],[103.3901,26.7544],[103.3628,26.7825],[103.3757,26.8016],[103.3895,26.8377],[103.4076,26.8936],[103.4224,26.9272],[103.4377,26.9489],[103.4325,26.9656],[103.441,26.9775],[103.4191,27.0015],[103.4239,27.0066],[103.4195,27.0288],[103.3896,27.0343],[103.3894,27.0489],[103.3721,27.0535],[103.3551,27.022],[103.3365,27.0087],[103.3211,27.0075],[103.3141,27.0227],[103.2872,27.0292],[103.274,27.0458],[103.2827,27.0561],[103.2998,27.1057],[103.2938,27.1267],[103.2574,27.1297],[103.2414,27.151],[103.2282,27.1571],[103.2257,27.1739],[103.2164,27.1822],[103.2141,27.1993],[103.1946,27.2223],[103.199,27.2353],[103.2161,27.2452],[103.2238,27.2593],[103.2277,27.2915],[103.2198,27.3109],[103.2242,27.3424],[103.2119,27.3747],[103.1939,27.386],[103.1746,27.3843],[103.1548,27.3986],[103.1406,27.4251]]]},"properties":{"region_code":"CN-53-5306-530622","parent_region_code":"CN-53-5306","name":"巧家县","level":"county","has_children":false,"full_path":"中国 / 云南省 / 昭通市 / 巧家县","source_admin_code":"530622","osm_relation_id":2402647}},
{"type":"Feature","geometry":{"type":"Polygon","coordinates":[[[104.0833,28.3817],[104.076,28.3607],[104.0487,28.354],[104.0296,28.3572],[104.007,28.3499],[104.0027,28.3399],[104.0164,28.3178],[104.0119,28.2929],[104.0268,28.2721],[103.992,28.2595],[103.9903,28.2458],[104.0183,28.2038],[104.0316,28.2022],[104.0311,28.1622],[104.012,28.1531],[104.0048,28.1061],[104.0165,28.0892],[104.0303,28.0867],[104.0351,28.0633],[104.0532,28.0591],[104.0511,28.0334],[104.0449,28.0083],[104.0305,27.9929],[104.0456,27.9672],[104.0756,27.9672],[104.0719,27.9477],[104.0938,27.9429],[104.1052,27.9089],[104.1279,27.8886],[104.1067,27.8811],[104.1,27.8613],[104.098,27.8426],[104.1228,27.8458],[104.1387,27.8691],[104.1613,27.8923],[104.1828,27.9036],[104.2015,27.9274],[104.2208,27.9382],[104.2407,27.923],[104.2354,27.9155],[104.2494,27.8985],[104.2308,27.8515],[104.2461,27.8382],[104.2561,27.8393],[104.2742,27.8207],[104.2998,27.8369],[104.3176,27.8273],[104.3387,27.8292],[104.3708,27.8552],[104.386,27.8584],[104.3878,27.8707],[104.4027,27.8836],[104.4132,27.8714],[104.4337,27.8595],[104.4381,27.8682],[104.4564,27.8732],[104.4377,27.8889],[104.4393,27.911],[104.4527,27.9271],[104.435,27.9328],[104.4112,27.9536],[104.3954,27.9558],[104.3759,27.9955],[104.3513,28.0233],[104.3244,28.0282],[104.2972,28.0466],[104.3007,28.0542],[104.3289,28.0569],[104.34,28.0623],[104.3724,28.0556],[104.3972,28.0745],[104.3974,28.0975],[104.4251,28.1039],[104.4298,28.1188],[104.4461,28.1174],[104.4511,28.1343],[104.4401,28.1443],[104.4462,28.1573],[104.4306,28.1714],[104.4027,28.1768],[104.3995,28.2034],[104.4156,28.2111],[104.4364,28.2133],[104.4477,28.2228],[104.4487,28.2377],[104.4589,28.2453],[104.4415,28.2612],[104.446,28.2716],[104.4285,28.2774],[104.415,28.2719],[104.3913,28.2963],[104.382,28.3333],[104.3531,28.3414],[104.3344,28.3328],[104.3161,28.3113],[104.2865,28.3165],[104.2987,28.3318],[104.2762,28.3513],[104.2672,28.3866],[104.2581,28.3959],[104.2261,28.3834],[104.199,28.3953],[104.1863,28.3929],[104.1733,28.4054],[104.1337,28.4025],[104.1014,28.3813],[104.0833,28.3817]]]},"properties":{"region_code":"CN-53-5306-530623","parent_region_code":"CN-53-5306","name":"盐津县","level":"county","has_children":false,"full_path":"中国 / 云南省 / 昭通市 / 盐津县","source_admin_code":"530623","osm_relation_id":2402045}},
{"type":"Feature","geometry":{"type":"Polygon","coordinates":[[[103.9222,27.5866],[103.9481,27.5959],[103.9815,27.6232],[103.9939,27.6269],[104.0067,27.6409],[104.0155,27.6617],[104.0144,27.6788],[104.0213,27.6915],[104.0028,27.7205],[104.0132,27.7419],[104.0321,27.7472],[104.0215,27.7832],[104.0232,27.7934],[104.039,27.8009],[104.0496,27.8268],[104.066,27.8361],[104.0628,27.8445],[104.0718,27.8629],[104.0928,27.868],[104.1,27.8613],[104.1067,27.8811],[104.1279,27.8886],[104.1052,27.9089],[104.0938,27.9429],[104.0719,27.9477],[104.0756,27.9672],[104.0456,27.9672],[104.0305,27.9929],[104.0449,28.0083],[104.0511,28.0334],[104.0532,28.0591],[104.0351,28.0633],[104.0303,28.0867],[104.0165,28.0892],[104.0048,28.1061],[104.012,28.1531],[104.0311,28.1622],[104.0316,28.2022],[104.0183,28.2038],[103.9903,28.2458],[103.9694,28.2376],[103.9565,28.2226],[103.9277,28.2353],[103.9014,28.2321],[103.8978,28.2031],[103.9034,28.1651],[103.9178,28.1355],[103.9257,28.128],[103.9197,28.114],[103.9082,28.1092],[103.8864,28.1245],[103.8665,28.1269],[103.8226,28.0981],[103.8111,28.0806],[103.7993,28.0744],[103.7783,28.0801],[103.7622,28.0727],[103.749,28.0801],[103.7363,28.0743],[103.7333,28.0455],[103.698,28.0438],[103.6832,28.0282],[103.7009,28.0097],[103.6915,28.0003],[103.7012,27.9831],[103.7026,27.9637],[103.7271,27.9569],[103.7521,27.9378],[103.7659,27.9383],[103.7722,27.9173],[103.782,27.9061],[103.7896,27.8689],[103.7841,27.8552],[103.7918,27.8398],[103.7716,27.8308],[103.7629,27.8204],[103.7398,27.8255],[103.7242,27.8184],[103.7144,27.8034],[103.7458,27.7575],[103.7376,27.7311],[103.7428,27.687],[103.7638,27.6664],[103.7661,27.6533],[103.7491,27.6244],[103.7131,27.6287],[103.7008,27.6182],[103.6774,27.6113],[103.6553,27.616],[103.6597,27.5996],[103.6565,27.5899],[103.6656,27.572],[103.6916,27.5541],[103.7183,27.5594],[103.7277,27.5447],[103.7511,27.5309],[103.7793,27.53],[103.782,27.505],[103.7909,27.5039],[103.8161,27.5269],[103.8337,27.5477],[103.8335,27.5843],[103.8534,27.6146],[103.871,27.6261],[103.9124,27.6432],[103.9349,27.6332],[103.9222,27.5866]]]},"properties":{"region_code":"CN-53-5306-530624","parent_region_code":"CN-53-5306","name":"大关县","level":"county","has_children":false,"full_path":"中国 / 云南省 / 昭通市 / 大关县","source_admin_code":"530624","osm_relation_id":2402020}},
{"type":"Feature","geometry":{"type":"Polygon","coordinates":[[[103.6597,27.5996],[103.6553,27.616],[103.6774,27.6113],[103.7008,27.6182],[103.7131,27.6287],[103.7491,27.6244],[103.7661,27.6533],[103.7638,27.6664],[103.7428,27.687],[103.7376,27.7311],[103.7458,27.7575],[103.7144,27.8034],[103.7242,27.8184],[103.7398,27.8255],[103.7629,27.8204],[103.7716,27.8308],[103.7918,27.8398],[103.7841,27.8552],[103.7896,27.8689],[103.782,27.9061],[103.7722,27.9173],[103.7659,27.9383],[103.7521,27.9378],[103.7271,27.9569],[103.7026,27.9637],[103.7012,27.9831],[103.6915,28.0003],[103.7009,28.0097],[103.6832,28.0282],[103.698,28.0438],[103.7333,28.0455],[103.7363,28.0743],[103.749,28.0801],[103.7622,28.0727],[103.7783,28.0801],[103.7993,28.0744],[103.8111,28.0806],[103.8226,28.0981],[103.8665,28.1269],[103.8864,28.1245],[103.9082,28.1092],[103.9197,28.114],[103.9257,28.128],[103.9178,28.1355],[103.9034,28.1651],[103.8978,28.2031],[103.9014,28.2321],[103.9277,28.2353],[103.9565,28.2226],[103.9694,28.2376],[103.9903,28.2458],[103.992,28.2595],[104.0268,28.2721],[104.0119,28.2929],[104.0164,28.3178],[104.0027,28.3399],[104.007,28.3499],[104.0042,28.3858],[104.0079,28.3977],[103.9871,28.4238],[103.9563,28.4183],[103.9274,28.4032],[103.9197,28.4102],[103.9252,28.425],[103.9017,28.4474],[103.9007,28.4619],[103.8902,28.4857],[103.8656,28.4869],[103.8646,28.5065],[103.8432,28.5202],[103.8218,28.4751],[103.8287,28.4625],[103.8276,28.4427],[103.8383,28.4225],[103.8509,28.4092],[103.8583,28.3883],[103.8517,28.357],[103.8746,28.3251],[103.8707,28.3062],[103.8412,28.2887],[103.8275,28.2891],[103.8123,28.2689],[103.7843,28.2577],[103.7666,28.2363],[103.7434,28.2399],[103.728,28.2317],[103.7182,28.204],[103.7,28.2028],[103.6926,28.2115],[103.6902,28.2355],[103.6739,28.2419],[103.6372,28.2662],[103.6042,28.2414],[103.5685,28.2327],[103.5626,28.2145],[103.5303,28.1709],[103.5124,28.1601],[103.4988,28.1449],[103.4783,28.1368],[103.4692,28.126],[103.4524,28.1268],[103.4463,28.1191],[103.4562,28.1067],[103.4503,28.0896],[103.43,28.0738],[103.4284,28.0483],[103.4453,28.029],[103.4586,28.0247],[103.4724,28.0351],[103.493,28.028],[103.4932,27.9997],[103.5043,27.9761],[103.5127,27.9694],[103.5356,27.9701],[103.5545,27.9826],[103.5629,27.9683],[103.5579,27.9608],[103.5372,27.9555],[103.5003,27.9134],[103.4988,27.879],[103.5076,27.8466],[103.4973,27.8165],[103.4794,27.7933],[103.4585,27.7822],[103.4467,27.7587],[103.4208,27.748],[103.3887,27.7135],[103.369,27.7125],[103.3532,27.6872],[103.3364,27.6779],[103.2892,27.6375],[103.2785,27.6218],[103.2965,27.6058],[103.2931,27.5686],[103.2801,27.5649],[103.26,27.5715],[103.2651,27.5593],[103.2796,27.5532],[103.2955,27.5376],[103.3396,27.5077],[103.365,27.5095],[103.3857,27.5222],[103.3781,27.5486],[103.4126,27.5639],[103.4487,27.566],[103.4531,27.5844],[103.4966,27.5702],[103.507,27.5614],[103.5138,27.5844],[103.5262,27.5864],[103.5411,27.576],[103.5374,27.5624],[103.5431,27.5421],[103.565,27.5342],[103.5842,27.539],[103.5897,27.5587],[103.5876,27.5938],[103.6108,27.5841],[103.6134,27.6043],[103.6259,27.6061],[103.6419,27.5946],[103.6597,27.5996]]]},"properties":{"region_code":"CN-53-5306-530625","parent_region_code":"CN-53-5306","name":"永善县","level":"county","has_children":false,"full_path":"中国 / 云南省 / 昭通市 / 永善县","source_admin_code":"530625","osm_relation_id":2402060}},
{"type":"Feature","geometry":{"type":"Polygon","coordinates":[[[104.0833,28.3817],[104.0802,28.3948],[104.0618,28.4142],[104.0701,28.4239],[104.0728,28.4438],[104.0917,28.476],[104.0934,28.4958],[104.0876,28.509],[104.0973,28.5266],[104.1187,28.5405],[104.1287,28.5358],[104.1497,28.5379],[104.1713,28.5482],[104.196,28.5755],[104.2132,28.5778],[104.2485,28.5918],[104.2525,28.6063],[104.2728,28.6197],[104.2756,28.6342],[104.2696,28.6358],[104.2475,28.6675],[104.232,28.6396],[104.2141,28.6417],[104.19,28.6372],[104.163,28.6439],[104.1214,28.6401],[104.1107,28.6293],[104.1084,28.6157],[104.0926,28.606],[104.0607,28.6305],[104.0108,28.6228],[103.9461,28.6039],[103.931,28.6282],[103.9119,28.6355],[103.8974,28.6239],[103.8854,28.6235],[103.8691,28.6346],[103.8717,28.6529],[103.862,28.6699],[103.8468,28.6694],[103.8378,28.6499],[103.8413,28.6357],[103.8334,28.6274],[103.8335,28.5858],[103.7993,28.565],[103.8017,28.5386],[103.7797,28.5283],[103.7917,28.5109],[103.8101,28.4971],[103.8218,28.4751],[103.8432,28.5202],[103.8646,28.5065],[103.8656,28.4869],[103.8902,28.4857],[103.9007,28.4619],[103.9017,28.4474],[103.9252,28.425],[103.9197,28.4102],[103.9274,28.4032],[103.9563,28.4183],[103.9871,28.4238],[104.0079,28.3977],[104.0042,28.3858],[104.007,28.3499],[104.0296,28.3572],[104.0487,28.354],[104.076,28.3607],[104.0833,28.3817]]]},"properties":{"region_code":"CN-53-5306-530626","parent_region_code":"CN-53-5306","name":"绥江县","level":"county","has_children":false,"full_path":"中国 / 云南省 / 昭通市 / 绥江县","source_admin_code":"530626","osm_relation_id":2402649}},
{"type":"Feature","geometry":{"type":"Polygon","coordinates":[[[105.2868,27.716],[105.268,27.7313],[105.2325,27.7359],[105.2198,27.7557],[105.2034,27.7655],[105.2018,27.7791],[105.1815,27.7692],[105.1726,27.7567],[105.1504,27.7842],[105.1398,27.7738],[105.1095,27.7577],[105.0969,27.7459],[105.0953,27.7349],[105.0374,27.7168],[105.0188,27.7139],[105.0001,27.7192],[104.9878,27.7296],[104.9528,27.7326],[104.9556,27.7491],[104.9737,27.7518],[104.9916,27.7615],[104.9861,27.785],[104.9572,27.7803],[104.9335,27.7857],[104.8979,27.7832],[104.8778,27.7929],[104.8596,27.7901],[104.84,27.7778],[104.8219,27.7472],[104.808,27.7511],[104.8169,27.7735],[104.8079,27.7913],[104.7943,27.78],[104.7742,27.7765],[104.7572,27.7806],[104.7437,27.7973],[104.7409,27.8118],[104.7281,27.825],[104.7053,27.8248],[104.6738,27.7807],[104.6535,27.7742],[104.6304,27.757],[104.625,27.7411],[104.6004,27.7558],[104.5866,27.7544],[104.5727,27.7375],[104.5549,27.7333],[104.5366,27.7131],[104.5332,27.702],[104.5196,27.6961],[104.4963,27.712],[104.5012,27.7264],[104.4952,27.7346],[104.4656,27.7259],[104.4609,27.7358],[104.4174,27.7278],[104.4166,27.7115],[104.4067,27.6918],[104.3896,27.6979],[104.3632,27.6916],[104.3319,27.6791],[104.3204,27.6865],[104.3028,27.6708],[104.308,27.6543],[104.305,27.6416],[104.3629,27.6383],[104.3841,27.6295],[104.3944,27.6188],[104.4053,27.5839],[104.4027,27.5585],[104.4046,27.5355],[104.4209,27.519],[104.4228,27.5057],[104.4383,27.4937],[104.4373,27.4723],[104.4432,27.4649],[104.4295,27.4368],[104.4648,27.418],[104.4864,27.4188],[104.489,27.4054],[104.5017,27.3999],[104.5204,27.3688],[104.52,27.3576],[104.5386,27.3406],[104.5373,27.3315],[104.5666,27.3362],[104.589,27.3182],[104.6153,27.3134],[104.6372,27.3239],[104.6746,27.3224],[104.6803,27.3362],[104.7164,27.3469],[104.7353,27.3383],[104.7513,27.3497],[104.772,27.3181],[104.8006,27.3488],[104.8219,27.3568],[104.8426,27.3458],[104.8487,27.3296],[104.8472,27.3079],[104.8692,27.294],[104.9006,27.3088],[104.9106,27.33],[104.9333,27.3391],[104.9412,27.35],[104.9595,27.361],[104.9967,27.3731],[105.0274,27.4031],[105.0548,27.4126],[105.0652,27.4221],[105.0811,27.4234],[105.0945,27.4154],[105.1291,27.4203],[105.1915,27.387],[105.2006,27.3932],[105.2218,27.4221],[105.2292,27.4395],[105.2225,27.4447],[105.2361,27.4714],[105.2303,27.4913],[105.2447,27.4978],[105.258,27.5199],[105.2477,27.5455],[105.236,27.5608],[105.2477,27.5716],[105.244,27.5832],[105.2675,27.5912],[105.3024,27.6168],[105.2978,27.6329],[105.3064,27.658],[105.3054,27.675],[105.2973,27.6975],[105.3053,27.7085],[105.2868,27.716]]]},"properties":{"region_code":"CN-53-5306-530627","parent_region_code":"CN-53-5306","name":"镇雄县","level":"county","has_children":false,"full_path":"中国 / 云南省 / 昭通市 / 镇雄县","source_admin_code":"530627","osm_relation_id":2402010}},
{"type":"Feature","geometry":{"type":"Polygon","coordinates":[[[103.9044,27.391],[103.9256,27.4176],[103.9313,27.4472],[103.9554,27.4282],[103.9928,27.4241],[104.013,27.4324],[104.0179,27.4113],[104.018,27.3803],[104.0362,27.3668],[104.0553,27.3596],[104.0605,27.3508],[104.0832,27.3341],[104.1122,27.3411],[104.1309,27.3277],[104.1291,27.3099],[104.1427,27.2922],[104.1718,27.2664],[104.1883,27.2815],[104.207,27.2811],[104.2167,27.2918],[104.2576,27.3105],[104.2459,27.3398],[104.2683,27.3637],[104.2933,27.3777],[104.3054,27.4104],[104.3198,27.4109],[104.34,27.4396],[104.3315,27.4495],[104.3471,27.4694],[104.3608,27.4707],[104.4091,27.4576],[104.4152,27.4386],[104.4295,27.4368],[104.4432,27.4649],[104.4373,27.4723],[104.4383,27.4937],[104.4228,27.5057],[104.4209,27.519],[104.4046,27.5355],[104.4027,27.5585],[104.4053,27.5839],[104.3944,27.6188],[104.3841,27.6295],[104.3629,27.6383],[104.305,27.6416],[104.308,27.6543],[104.3028,27.6708],[104.3204,27.6865],[104.3319,27.6791],[104.3632,27.6916],[104.3896,27.6979],[104.4067,27.6918],[104.4166,27.7115],[104.4174,27.7278],[104.4609,27.7358],[104.4656,27.7259],[104.4952,27.7346],[104.5012,27.7264],[104.4963,27.712],[104.5196,27.6961],[104.5332,27.702],[104.5366,27.7131],[104.5549,27.7333],[104.5727,27.7375],[104.5866,27.7544],[104.6004,27.7558],[104.625,27.7411],[104.6304,27.757],[104.6535,27.7742],[104.6738,27.7807],[104.7053,27.8248],[104.6997,27.835],[104.7126,27.8538],[104.7344,27.8634],[104.7334,27.8841],[104.7466,27.8931],[104.7508,27.9049],[104.6773,27.8856],[104.6319,27.8541],[104.6142,27.8627],[104.5722,27.8437],[104.5584,27.8554],[104.5575,27.8715],[104.5383,27.8891],[104.5261,27.8926],[104.5072,27.8811],[104.4958,27.9001],[104.4702,27.9077],[104.4527,27.9271],[104.4393,27.911],[104.4377,27.8889],[104.4564,27.8732],[104.4381,27.8682],[104.4337,27.8595],[104.4132,27.8714],[104.4027,27.8836],[104.3878,27.8707],[104.386,27.8584],[104.3708,27.8552],[104.3387,27.8292],[104.3176,27.8273],[104.2998,27.8369],[104.2742,27.8207],[104.2561,27.8393],[104.2461,27.8382],[104.2308,27.8515],[104.2494,27.8985],[104.2354,27.9155],[104.2407,27.923],[104.2208,27.9382],[104.2015,27.9274],[104.1828,27.9036],[104.1613,27.8923],[104.1387,27.8691],[104.1228,27.8458],[104.098,27.8426],[104.1,27.8613],[104.0928,27.868],[104.0718,27.8629],[104.0628,27.8445],[104.066,27.8361],[104.0496,27.8268],[104.039,27.8009],[104.0232,27.7934],[104.0215,27.7832],[104.0321,27.7472],[104.0132,27.7419],[104.0028,27.7205],[104.0213,27.6915],[104.0144,27.6788],[104.0155,27.6617],[104.0067,27.6409],[103.9939,27.6269],[103.9815,27.6232],[103.9481,27.5959],[103.9222,27.5866],[103.9099,27.5602],[103.9224,27.5514],[103.8705,27.4969],[103.8549,27.4959],[103.8545,27.452],[103.8745,27.4503],[103.8832,27.4408],[103.8733,27.4176],[103.9044,27.391]]]},"properties":{"region_code":"CN-53-5306-530628","parent_region_code":"CN-53-5306","name":"彝良县","level":"county","has_children":false,"full_path":"中国 / 云南省 / 昭通市 / 彝良县","source_admin_code":"530628","osm_relation_id":2402004}},
{"type":"Feature","geometry":{"type":"Polygon","coordinates":[[[105.2868,27.716],[105.2846,27.7461],[105.2902,27.7551],[105.2868,27.7761],[105.2763,27.7806],[105.2705,27.7987],[105.2845,27.8105],[105.2565,27.8314],[105.2462,27.8454],[105.2304,27.9002],[105.2466,27.9171],[105.2644,27.9173],[105.2828,27.9417],[105.2799,27.9639],[105.2649,27.9843],[105.2664,27.9998],[105.2443,28.0065],[105.2177,27.9946],[105.1889,27.9962],[105.1743,28.0046],[105.1651,28.029],[105.1801,28.044],[105.183,28.058],[105.177,28.0717],[105.1407,28.0698],[105.1159,28.0742],[105.108,28.0824],[105.0409,28.1003],[105.0263,28.0798],[105.0017,28.0662],[104.9791,28.0659],[104.9687,28.0354],[104.9713,28.023],[104.9576,28.0167],[104.9531,28.0043],[104.9276,27.9895],[104.9181,27.974],[104.8994,27.968],[104.9012,27.9529],[104.9103,27.9395],[104.8873,27.9381],[104.8852,27.9168],[104.8732,27.9106],[104.8381,27.9033],[104.8103,27.9059],[104.7597,27.8871],[104.7466,27.8931],[104.7334,27.8841],[104.7344,27.8634],[104.7126,27.8538],[104.6997,27.835],[104.7053,27.8248],[104.7281,27.825],[104.7409,27.8118],[104.7437,27.7973],[104.7572,27.7806],[104.7742,27.7765],[104.7943,27.78],[104.8079,27.7913],[104.8169,27.7735],[104.808,27.7511],[104.8219,27.7472],[104.84,27.7778],[104.8596,27.7901],[104.8778,27.7929],[104.8979,27.7832],[104.9335,27.7857],[104.9572,27.7803],[104.9861,27.785],[104.9916,27.7615],[104.9737,27.7518],[104.9556,27.7491],[104.9528,27.7326],[104.9878,27.7296],[105.0001,27.7192],[105.0188,27.7139],[105.0374,27.7168],[105.0953,27.7349],[105.0969,27.7459],[105.1095,27.7577],[105.1398,27.7738],[105.1504,27.7842],[105.1726,27.7567],[105.1815,27.7692],[105.2018,27.7791],[105.2034,27.7655],[105.2198,27.7557],[105.2325,27.7359],[105.268,27.7313],[105.2868,27.716]]]},"properties":{"region_code":"CN-53-5306-530629","parent_region_code":"CN-53-5306","name":"威信县","level":"county","has_children":false,"full_path":"中国 / 云南省 / 昭通市 / 威信县","source_admin_code":"530629","osm_relation_id":2402040}},
{"type":"Feature","geometry":{"type":"Polygon","coordinates":[[[104.2581,28.3959],[104.2529,28.4134],[104.2653,28.4236],[104.2562,28.4518],[104.2684,28.4706],[104.2582,28.4888],[104.2624,28.5066],[104.2453,28.5151],[104.2475,28.5335],[104.2647,28.5408],[104.287,28.5368],[104.2959,28.5438],[104.3216,28.5448],[104.3282,28.563],[104.3562,28.5605],[104.3659,28.5893],[104.3889,28.6027],[104.4081,28.6002],[104.4196,28.6263],[104.409,28.6406],[104.3713,28.6527],[104.342,28.6443],[104.3197,28.6215],[104.2992,28.6232],[104.2985,28.6369],[104.2756,28.6342],[104.2728,28.6197],[104.2525,28.6063],[104.2485,28.5918],[104.2132,28.5778],[104.196,28.5755],[104.1713,28.5482],[104.1497,28.5379],[104.1287,28.5358],[104.1187,28.5405],[104.0973,28.5266],[104.0876,28.509],[104.0934,28.4958],[104.0917,28.476],[104.0728,28.4438],[104.0701,28.4239],[104.0618,28.4142],[104.0802,28.3948],[104.0833,28.3817],[104.1014,28.3813],[104.1337,28.4025],[104.1733,28.4054],[104.1863,28.3929],[104.199,28.3953],[104.2261,28.3834],[104.2581,28.3959]]]},"properties":{"region_code":"CN-53-5306-530681","parent_region_code":"CN-53-5306","name":"水富市","level":"county","has_children":false,"full_path":"中国 / 云南省 / 昭通市 / 水富市","source_admin_code":"530681","osm_relation_id":2402648}}
]}