{"type":"FeatureCollection", "features": [
{"type":"Feature","geometry":{"type":"Polygon","coordinates":[[[91.5781,29.184],[91.6121,29.1807],[91.6377,29.2014],[91.6745,29.2157],[91.7102,29.1836],[91.717,29.1494],[91.7526,29.1403],[91.7672,29.0664],[91.7622,29.043],[91.79,29.0103],[91.7461,28.9615],[91.7533,28.9415],[91.7393,28.9045],[91.7494,28.8892],[91.7255,28.8549],[91.7671,28.8402],[91.7871,28.8515],[91.858,28.8475],[91.8744,28.8198],[91.8919,28.8207],[91.8888,28.7539],[91.9175,28.7417],[91.9576,28.7745],[91.9701,28.8053],[92.0009,28.8072],[91.9976,28.8337],[92.0281,28.867],[92.0176,28.9144],[92.0212,28.9596],[92.001,29.0077],[91.9743,29.0249],[91.9814,29.0782],[91.9569,29.0952],[91.918,29.1552],[91.9122,29.182],[91.8849,29.1939],[91.8513,29.1936],[91.847,29.2441],[91.8564,29.279],[91.8724,29.2901],[91.8854,29.344],[91.9436,29.3919],[91.9742,29.4093],[91.9904,29.45],[91.9868,29.4862],[91.9718,29.5054],[92.0054,29.5403],[92.0036,29.5547],[91.983,29.577],[91.9466,29.574],[91.8552,29.586],[91.8171,29.58],[91.7946,29.5553],[91.7564,29.5408],[91.7279,29.5416],[91.725,29.5199],[91.6768,29.5249],[91.6554,29.5377],[91.6306,29.5314],[91.6135,29.4636],[91.6202,29.4157],[91.6386,29.3819],[91.6383,29.3266],[91.6178,29.2903],[91.5483,29.275],[91.5639,29.2456],[91.5656,29.2106],[91.5781,29.184]]]},"properties":{"region_code":"CN-54-5405-540502","parent_region_code":"CN-54-5405","name":"乃东区","level":"county","has_children":false,"full_path":"中国 / 西藏自治区 / 山南市 / 乃东区","source_admin_code":"540502","osm_relation_id":2743973}},
{"type":"Feature","geometry":{"type":"Polygon","coordinates":[[[91.6306,29.5314],[91.632,29.5785],[91.5861,29.5711],[91.5489,29.5814],[91.5231,29.5584],[91.4581,29.5255],[91.4272,29.5164],[91.4034,29.4925],[91.3396,29.5029],[91.2831,29.5324],[91.2226,29.5222],[91.2376,29.4479],[91.2134,29.41],[91.2172,29.3643],[91.2336,29.3429],[91.2118,29.3115],[91.2277,29.2707],[91.2105,29.2588],[91.1899,29.2109],[91.2167,29.1696],[91.1856,29.1246],[91.1834,29.0468],[91.1572,29.0231],[91.1605,29.0022],[91.2111,28.9825],[91.2734,28.9774],[91.2968,28.9599],[91.3657,28.9478],[91.3712,29.0076],[91.4218,29.0347],[91.4954,29.0349],[91.513,29.0528],[91.5145,29.1182],[91.5781,29.184],[91.5656,29.2106],[91.5639,29.2456],[91.5483,29.275],[91.6178,29.2903],[91.6383,29.3266],[91.6386,29.3819],[91.6202,29.4157],[91.6135,29.4636],[91.6306,29.5314]]]},"properties":{"region_code":"CN-54-5405-540521","parent_region_code":"CN-54-5405","name":"扎囊县","level":"county","has_children":false,"full_path":"中国 / 西藏自治区 / 山南市 / 扎囊县","source_admin_code":"540521","osm_relation_id":2743977}},
{"type":"Feature","geometry":{"type":"Polygon","coordinates":[[[91.2226,29.5222],[91.1742,29.5135],[91.1535,29.4763],[91.0988,29.4659],[91.0804,29.4344],[91.0366,29.4163],[90.9807,29.3796],[90.9497,29.383],[90.9268,29.3606],[90.8412,29.3403],[90.788,29.3366],[90.768,29.3261],[90.7129,29.3419],[90.6546,29.3159],[90.628,29.2827],[90.5842,29.2739],[90.5707,29.2626],[90.4946,29.2507],[90.4778,29.2305],[90.4707,29.1781],[90.5087,29.19],[90.5882,29.2045],[90.6265,29.1893],[90.6147,29.1689],[90.6653,29.1484],[90.6909,29.1168],[90.6902,29.0637],[90.7217,28.9992],[90.7431,28.9772],[90.8435,28.939],[90.8552,28.974],[90.9031,29.0005],[90.9135,29.0176],[90.9132,29.0519],[90.9454,29.0775],[90.9588,29.0657],[91.002,29.0681],[91.0153,29.0478],[91.0436,29.0342],[91.0499,29.0054],[91.074,28.9924],[91.1539,28.9914],[91.1605,29.0022],[91.1572,29.0231],[91.1834,29.0468],[91.1856,29.1246],[91.2167,29.1696],[91.1899,29.2109],[91.2105,29.2588],[91.2277,29.2707],[91.2118,29.3115],[91.2336,29.3429],[91.2172,29.3643],[91.2134,29.41],[91.2376,29.4479],[91.2226,29.5222]]]},"properties":{"region_code":"CN-54-5405-540522","parent_region_code":"CN-54-5405","name":"贡嘎县","level":"county","has_children":false,"full_path":"中国 / 西藏自治区 / 山南市 / 贡嘎县","source_admin_code":"540522","osm_relation_id":2743968}},
{"type":"Feature","geometry":{"type":"Polygon","coordinates":[[[92.001,29.0077],[92.0831,29.0776],[92.033,29.1544],[92.0643,29.1997],[92.1185,29.2054],[92.1309,29.2359],[92.1788,29.2627],[92.1931,29.2455],[92.2174,29.2526],[92.2707,29.2447],[92.2946,29.2295],[92.3702,29.2244],[92.3874,29.2325],[92.4024,29.2589],[92.4318,29.2509],[92.4833,29.2504],[92.4578,29.3096],[92.4556,29.334],[92.4853,29.3356],[92.5096,29.3629],[92.542,29.3567],[92.5295,29.393],[92.4772,29.4203],[92.5173,29.44],[92.5659,29.4759],[92.604,29.5185],[92.5951,29.5292],[92.5438,29.5458],[92.5066,29.5497],[92.4834,29.5544],[92.4618,29.589],[92.4745,29.6079],[92.4739,29.6398],[92.4883,29.6767],[92.5246,29.7158],[92.5037,29.7361],[92.5077,29.7701],[92.4972,29.801],[92.4689,29.7905],[92.4423,29.8039],[92.3879,29.8089],[92.3608,29.7796],[92.3846,29.6919],[92.3689,29.6705],[92.386,29.6339],[92.3744,29.6222],[92.3173,29.608],[92.2617,29.5773],[92.2458,29.5546],[92.1847,29.5646],[92.1452,29.5438],[92.1259,29.5241],[92.0795,29.5387],[92.0517,29.5318],[92.0411,29.5526],[92.0036,29.5547],[92.0054,29.5403],[91.9718,29.5054],[91.9868,29.4862],[91.9904,29.45],[91.9742,29.4093],[91.9436,29.3919],[91.8854,29.344],[91.8724,29.2901],[91.8564,29.279],[91.847,29.2441],[91.8513,29.1936],[91.8849,29.1939],[91.9122,29.182],[91.918,29.1552],[91.9569,29.0952],[91.9814,29.0782],[91.9743,29.0249],[92.001,29.0077]]]},"properties":{"region_code":"CN-54-5405-540523","parent_region_code":"CN-54-5405","name":"桑日县","level":"county","has_children":false,"full_path":"中国 / 西藏自治区 / 山南市 / 桑日县","source_admin_code":"540523","osm_relation_id":2743976}},
{"type":"Feature","geometry":{"type":"Polygon","coordinates":[[[91.5781,29.184],[91.5145,29.1182],[91.513,29.0528],[91.4954,29.0349],[91.4218,29.0347],[91.3712,29.0076],[91.3657,28.9478],[91.3822,28.928],[91.4233,28.911],[91.4499,28.9126],[91.5185,28.8925],[91.526,28.8745],[91.5681,28.8808],[91.6533,28.8166],[91.704,28.8334],[91.7255,28.8549],[91.7494,28.8892],[91.7393,28.9045],[91.7533,28.9415],[91.7461,28.9615],[91.79,29.0103],[91.7622,29.043],[91.7672,29.0664],[91.7526,29.1403],[91.717,29.1494],[91.7102,29.1836],[91.6745,29.2157],[91.6377,29.2014],[91.6121,29.1807],[91.5781,29.184]]]},"properties":{"region_code":"CN-54-5405-540524","parent_region_code":"CN-54-5405","name":"琼结县","level":"county","has_children":false,"full_path":"中国 / 西藏自治区 / 山南市 / 琼结县","source_admin_code":"540524","osm_relation_id":2743974}},
{"type":"Feature","geometry":{"type":"Polygon","coordinates":[[[91.9576,28.7745],[91.9719,28.7442],[92.053,28.7195],[92.1037,28.6475],[92.1671,28.6283],[92.2015,28.6294],[92.2395,28.6436],[92.2037,28.7165],[92.199,28.7376],[92.2309,28.7496],[92.2749,28.7517],[92.2811,28.7376],[92.3182,28.7217],[92.3374,28.7254],[92.3382,28.7526],[92.3693,28.769],[92.4184,28.8175],[92.4315,28.816],[92.4728,28.8588],[92.4137,28.8822],[92.3987,28.9037],[92.4107,28.9191],[92.402,28.9524],[92.3649,29.0197],[92.3274,29.0561],[92.3257,29.0815],[92.341,29.1335],[92.363,29.1432],[92.4003,29.196],[92.3874,29.2325],[92.3702,29.2244],[92.2946,29.2295],[92.2707,29.2447],[92.2174,29.2526],[92.1931,29.2455],[92.1788,29.2627],[92.1309,29.2359],[92.1185,29.2054],[92.0643,29.1997],[92.033,29.1544],[92.0831,29.0776],[92.001,29.0077],[92.0212,28.9596],[92.0176,28.9144],[92.0281,28.867],[91.9976,28.8337],[92.0009,28.8072],[91.9701,28.8053],[91.9576,28.7745]]]},"properties":{"region_code":"CN-54-5405-540525","parent_region_code":"CN-54-5405","name":"曲松县","level":"county","has_children":false,"full_path":"中国 / 西藏自治区 / 山南市 / 曲松县","source_admin_code":"540525","osm_relation_id":2743975}},
{"type":"Feature","geometry":{"type":"Polygon","coordinates":[[[91.7255,28.8549],[91.704,28.8334],[91.6533,28.8166],[91.5681,28.8808],[91.526,28.8745],[91.5185,28.8925],[91.4499,28.9126],[91.4233,28.911],[91.3822,28.928],[91.3657,28.9478],[91.2968,28.9599],[91.2577,28.8866],[91.2533,28.8526],[91.2662,28.7771],[91.3379,28.7658],[91.3563,28.7506],[91.356,28.7272],[91.323,28.7292],[91.3313,28.6737],[91.2892,28.6265],[91.2826,28.5978],[91.2545,28.5977],[91.2313,28.5705],[91.1872,28.5708],[91.132,28.5436],[91.1056,28.5116],[91.1255,28.492],[91.1166,28.4592],[91.1228,28.4338],[91.1092,28.4121],[91.1378,28.3626],[91.126,28.3249],[91.1388,28.2627],[91.1292,28.2216],[91.1544,28.1947],[91.1963,28.1951],[91.2607,28.2314],[91.3086,28.2376],[91.3556,28.2349],[91.3884,28.2438],[91.4443,28.2207],[91.4749,28.2402],[91.5102,28.2405],[91.5189,28.2624],[91.5232,28.3152],[91.5389,28.336],[91.5334,28.374],[91.5424,28.3854],[91.6051,28.3991],[91.6154,28.4426],[91.6698,28.4634],[91.6979,28.4614],[91.7179,28.4328],[91.7385,28.4289],[91.8243,28.4458],[91.8934,28.4208],[91.9193,28.4468],[91.9683,28.4633],[91.9859,28.53],[91.9509,28.5537],[91.9419,28.578],[91.9207,28.5892],[91.9191,28.6873],[91.8736,28.7209],[91.8888,28.7539],[91.8919,28.8207],[91.8744,28.8198],[91.858,28.8475],[91.7871,28.8515],[91.7671,28.8402],[91.7255,28.8549]]]},"properties":{"region_code":"CN-54-5405-540526","parent_region_code":"CN-54-5405","name":"措美县","level":"county","has_children":false,"full_path":"中国 / 西藏自治区 / 山南市 / 措美县","source_admin_code":"540526","osm_relation_id":2743966}},
{"type":"Feature","geometry":{"type":"Polygon","coordinates":[[[91.1056,28.5116],[91.0437,28.5048],[91.0283,28.512],[91.0097,28.5455],[90.9396,28.5642],[90.911,28.5543],[90.8726,28.5561],[90.8443,28.5361],[90.8436,28.4947],[90.8061,28.4709],[90.7264,28.4701],[90.7068,28.4769],[90.6723,28.4684],[90.6705,28.4418],[90.6502,28.4245],[90.6094,28.4348],[90.5779,28.4321],[90.5506,28.4096],[90.4847,28.418],[90.4682,28.4054],[90.3681,28.4384],[90.3477,28.4162],[90.364,28.3986],[90.3531,28.3381],[90.3588,28.3115],[90.3224,28.2776],[90.3104,28.2394],[90.343,28.1934],[90.2969,28.156],[90.3622,28.0958],[90.372,28.0665],[90.408,28.0714],[90.4429,28.0641],[90.4554,28.0472],[90.4849,28.051],[90.506,28.0668],[90.5572,28.0504],[90.5835,28.0232],[90.6171,28.0476],[90.6623,28.0572],[90.6915,28.0808],[90.7403,28.0547],[90.7811,28.0415],[90.8072,28.004],[90.7794,27.9642],[90.7728,27.9299],[90.8144,27.9175],[90.8476,27.86],[90.8982,27.8626],[90.942,27.9128],[91.0033,27.8753],[91.0636,27.8715],[91.1106,27.8974],[91.0897,27.9448],[91.1453,27.9463],[91.1595,27.9715],[91.2153,27.9921],[91.2518,27.9717],[91.2717,27.9893],[91.2825,28.0211],[91.3072,28.0316],[91.3088,28.0607],[91.3425,28.0616],[91.3853,28.0312],[91.3979,28.031],[91.4145,28.0727],[91.4458,28.1209],[91.4838,28.1329],[91.4644,28.1511],[91.4803,28.1738],[91.4443,28.2207],[91.3884,28.2438],[91.3556,28.2349],[91.3086,28.2376],[91.2607,28.2314],[91.1963,28.1951],[91.1544,28.1947],[91.1292,28.2216],[91.1388,28.2627],[91.126,28.3249],[91.1378,28.3626],[91.1092,28.4121],[91.1228,28.4338],[91.1166,28.4592],[91.1255,28.492],[91.1056,28.5116]]]},"properties":{"region_code":"CN-54-5405-540527","parent_region_code":"CN-54-5405","name":"洛扎县","level":"county","has_children":false,"full_path":"中国 / 西藏自治区 / 山南市 / 洛扎县","source_admin_code":"540527","osm_relation_id":2743970}},
{"type":"Feature","geometry":{"type":"Polygon","coordinates":[[[92.3874,29.2325],[92.4003,29.196],[92.363,29.1432],[92.341,29.1335],[92.3257,29.0815],[92.3274,29.0561],[92.3649,29.0197],[92.402,28.9524],[92.4107,28.9191],[92.3987,28.9037],[92.4137,28.8822],[92.4728,28.8588],[92.4974,28.871],[92.5136,28.85],[92.5962,28.8291],[92.6163,28.8352],[92.659,28.8201],[92.6739,28.844],[92.6714,28.8728],[92.713,28.922],[92.7288,28.9164],[92.7682,28.9492],[92.7592,28.9692],[92.7918,29.0434],[92.7917,29.0671],[92.8316,29.0922],[92.8654,29.1221],[92.9165,29.1276],[92.9424,29.1591],[92.9485,29.1828],[92.9889,29.2233],[93.0186,29.2414],[93.0294,29.2789],[93.0205,29.2989],[93.0459,29.3285],[93.0845,29.3272],[93.1141,29.3557],[93.0938,29.372],[93.0932,29.4067],[93.0745,29.4303],[93.093,29.489],[93.0825,29.5277],[93.0551,29.5602],[93.023,29.5703],[92.9866,29.6127],[92.9976,29.6462],[92.9744,29.6744],[92.929,29.7058],[92.8829,29.7206],[92.8639,29.6979],[92.8397,29.6985],[92.8247,29.6737],[92.7742,29.6729],[92.7487,29.6517],[92.715,29.6523],[92.6956,29.6874],[92.6576,29.6923],[92.619,29.6601],[92.5871,29.6675],[92.5627,29.6541],[92.5412,29.624],[92.5327,29.5835],[92.5076,29.5694],[92.5066,29.5497],[92.5438,29.5458],[92.5951,29.5292],[92.604,29.5185],[92.5659,29.4759],[92.5173,29.44],[92.4772,29.4203],[92.5295,29.393],[92.542,29.3567],[92.5096,29.3629],[92.4853,29.3356],[92.4556,29.334],[92.4578,29.3096],[92.4833,29.2504],[92.4318,29.2509],[92.4024,29.2589],[92.3874,29.2325]]]},"properties":{"region_code":"CN-54-5405-540528","parent_region_code":"CN-54-5405","name":"加查县","level":"county","has_children":false,"full_path":"中国 / 西藏自治区 / 山南市 / 加查县","source_admin_code":"540528","osm_relation_id":2743969}},
{"type":"Feature","geometry":{"type":"Polygon","coordinates":[[[91.8888,28.7539],[91.8736,28.7209],[91.9191,28.6873],[91.9207,28.5892],[91.9419,28.578],[91.9509,28.5537],[91.9859,28.53],[91.9683,28.4633],[91.9193,28.4468],[91.8934,28.4208],[91.9381,28.3825],[91.9708,28.3704],[91.9823,28.3476],[92.0198,28.339],[92.0342,28.3095],[92.0256,28.2823],[92.0666,28.2276],[92.0942,28.2333],[92.1086,28.2528],[92.1981,28.2769],[92.185,28.2962],[92.2062,28.3113],[92.2936,28.3242],[92.3378,28.2989],[92.3491,28.3219],[92.3702,28.3259],[92.4538,28.324],[92.4739,28.315],[92.5139,28.3167],[92.5676,28.3084],[92.5687,28.2788],[92.5414,28.2547],[92.5398,28.2038],[92.5214,28.2],[92.5157,28.1263],[92.5567,28.0992],[92.6614,28.0951],[92.6777,28.1513],[92.7158,28.1679],[92.7391,28.1536],[92.7628,28.1613],[92.7908,28.187],[92.8304,28.1737],[92.8828,28.2009],[92.9227,28.2006],[92.9276,28.2307],[92.945,28.2595],[92.9919,28.2712],[93.006,28.2972],[93.0478,28.3084],[93.1177,28.3461],[93.1518,28.3716],[93.1634,28.4003],[93.1675,28.4537],[93.1891,28.4827],[93.2505,28.5493],[93.2752,28.5586],[93.306,28.5278],[93.3293,28.5216],[93.3634,28.5357],[93.3896,28.5311],[93.3992,28.5655],[93.4443,28.5893],[93.4559,28.6146],[93.5035,28.6296],[93.5108,28.6674],[93.4763,28.6739],[93.4697,28.7005],[93.4139,28.7207],[93.3691,28.707],[93.332,28.7625],[93.3016,28.7517],[93.2754,28.7552],[93.2172,28.7381],[93.1975,28.7253],[93.1705,28.7372],[93.1289,28.7257],[93.0896,28.7235],[92.9918,28.7443],[92.9721,28.7349],[92.9547,28.757],[92.92,28.7733],[92.8886,28.7595],[92.8674,28.705],[92.819,28.701],[92.7992,28.7099],[92.77,28.7506],[92.6557,28.7739],[92.6255,28.7723],[92.5834,28.7855],[92.5552,28.8062],[92.5328,28.784],[92.5303,28.7582],[92.5091,28.723],[92.486,28.7257],[92.4476,28.7542],[92.4184,28.8175],[92.3693,28.769],[92.3382,28.7526],[92.3374,28.7254],[92.3182,28.7217],[92.2811,28.7376],[92.2749,28.7517],[92.2309,28.7496],[92.199,28.7376],[92.2037,28.7165],[92.2395,28.6436],[92.2015,28.6294],[92.1671,28.6283],[92.1037,28.6475],[92.053,28.7195],[91.9719,28.7442],[91.9576,28.7745],[91.9175,28.7417],[91.8888,28.7539]]]},"properties":{"region_code":"CN-54-5405-540529","parent_region_code":"CN-54-5405","name":"隆子县","level":"county","has_children":false,"full_path":"中国 / 西藏自治区 / 山南市 / 隆子县","source_admin_code":"540529","osm_relation_id":2743971}},
{"type":"Feature","geometry":{"type":"Polygon","coordinates":[[[91.1605,29.0022],[91.1539,28.9914],[91.074,28.9924],[91.0499,29.0054],[91.0436,29.0342],[91.0153,29.0478],[91.002,29.0681],[90.9588,29.0657],[90.9454,29.0775],[90.9132,29.0519],[90.9135,29.0176],[90.9031,29.0005],[90.8552,28.974],[90.8435,28.939],[90.7431,28.9772],[90.7217,28.9992],[90.6902,29.0637],[90.6909,29.1168],[90.6653,29.1484],[90.6147,29.1689],[90.6265,29.1893],[90.5882,29.2045],[90.5087,29.19],[90.4707,29.1781],[90.4778,29.2305],[90.4946,29.2507],[90.4763,29.2555],[90.4423,29.2417],[90.4227,29.248],[90.3787,29.2937],[90.345,29.3107],[90.3388,29.2759],[90.3094,29.2669],[90.2999,29.2093],[90.2763,29.1823],[90.2367,29.166],[90.2241,29.1203],[90.2474,29.0838],[90.2478,29.0597],[90.2215,29.0334],[90.213,29.0029],[90.1811,28.9689],[90.1766,28.9311],[90.1948,28.9238],[90.1868,28.8945],[90.2179,28.8374],[90.2217,28.8047],[90.2013,28.7716],[90.1663,28.7564],[90.1776,28.7394],[90.1686,28.7145],[90.1159,28.6869],[90.1139,28.6754],[90.0756,28.6564],[90.0679,28.6234],[90.0919,28.6157],[90.1191,28.5796],[90.1265,28.5066],[90.0789,28.4766],[90.0899,28.4225],[90.0867,28.3979],[90.1305,28.3726],[90.1502,28.3491],[90.2026,28.3355],[90.223,28.3389],[90.2325,28.3073],[90.2047,28.2497],[90.2038,28.2269],[90.1812,28.1805],[90.2092,28.148],[90.259,28.1474],[90.2969,28.156],[90.343,28.1934],[90.3104,28.2394],[90.3224,28.2776],[90.3588,28.3115],[90.3531,28.3381],[90.364,28.3986],[90.3477,28.4162],[90.3681,28.4384],[90.4682,28.4054],[90.4847,28.418],[90.5506,28.4096],[90.5779,28.4321],[90.6094,28.4348],[90.6502,28.4245],[90.6705,28.4418],[90.6723,28.4684],[90.7068,28.4769],[90.7264,28.4701],[90.8061,28.4709],[90.8436,28.4947],[90.8443,28.5361],[90.8726,28.5561],[90.911,28.5543],[90.9396,28.5642],[91.0097,28.5455],[91.0283,28.512],[91.0437,28.5048],[91.1056,28.5116],[91.132,28.5436],[91.1872,28.5708],[91.2313,28.5705],[91.2545,28.5977],[91.2826,28.5978],[91.2892,28.6265],[91.3313,28.6737],[91.323,28.7292],[91.356,28.7272],[91.3563,28.7506],[91.3379,28.7658],[91.2662,28.7771],[91.2533,28.8526],[91.2577,28.8866],[91.2968,28.9599],[91.2734,28.9774],[91.2111,28.9825],[91.1605,29.0022]]]},"properties":{"region_code":"CN-54-5405-540531","parent_region_code":"CN-54-5405","name":"浪卡子县","level":"county","has_children":false,"full_path":"中国 / 西藏自治区 / 山南市 / 浪卡子县","source_admin_code":"540531","osm_relation_id":2743972}},
{"type":"Feature","geometry":{"type":"Polygon","coordinates":[[[91.4443,28.2207],[91.4803,28.1738],[91.4644,28.1511],[91.4838,28.1329],[91.4458,28.1209],[91.4145,28.0727],[91.3979,28.031],[91.4067,28.0208],[91.4653,28.0063],[91.4912,27.9662],[91.4833,27.9447],[91.5478,27.9193],[91.5552,27.8982],[91.5907,27.908],[91.6218,27.8752],[91.6116,27.8587],[91.5757,27.8641],[91.5554,27.8558],[91.5397,27.8295],[91.6135,27.8392],[91.6561,27.831],[91.6894,27.8133],[91.7259,27.7799],[91.7445,27.8],[91.8063,27.7751],[91.8297,27.7905],[91.8735,27.7221],[91.9003,27.7289],[91.9248,27.7166],[91.9654,27.739],[91.9783,27.7788],[92.048,27.7811],[92.11,27.8027],[92.1429,27.835],[92.2139,27.8648],[92.2444,27.8878],[92.2904,27.873],[92.3206,27.7998],[92.3643,27.8044],[92.4218,27.8357],[92.4264,27.803],[92.4563,27.7931],[92.4975,27.848],[92.5814,27.8901],[92.593,27.9107],[92.6413,27.9105],[92.698,27.9636],[92.7327,27.9858],[92.7213,28.001],[92.7376,28.0414],[92.6971,28.0721],[92.6569,28.077],[92.6614,28.0951],[92.5567,28.0992],[92.5157,28.1263],[92.5214,28.2],[92.5398,28.2038],[92.5414,28.2547],[92.5687,28.2788],[92.5676,28.3084],[92.5139,28.3167],[92.4739,28.315],[92.4538,28.324],[92.3702,28.3259],[92.3491,28.3219],[92.3378,28.2989],[92.2936,28.3242],[92.2062,28.3113],[92.185,28.2962],[92.1981,28.2769],[92.1086,28.2528],[92.0942,28.2333],[92.0666,28.2276],[92.0256,28.2823],[92.0342,28.3095],[92.0198,28.339],[91.9823,28.3476],[91.9708,28.3704],[91.9381,28.3825],[91.8934,28.4208],[91.8243,28.4458],[91.7385,28.4289],[91.7179,28.4328],[91.6979,28.4614],[91.6698,28.4634],[91.6154,28.4426],[91.6051,28.3991],[91.5424,28.3854],[91.5334,28.374],[91.5389,28.336],[91.5232,28.3152],[91.5189,28.2624],[91.5102,28.2405],[91.4749,28.2402],[91.4443,28.2207]]]},"properties":{"region_code":"CN-54-5405-540581","parent_region_code":"CN-54-5405","name":"错那市","level":"county","has_children":false,"full_path":"中国 / 西藏自治区 / 山南市 / 错那市","source_admin_code":"540581","osm_relation_id":2743967}}
]}