{"type":"FeatureCollection", "features": [
{"type":"Feature","geometry":{"type":"MultiPolygon","coordinates":[[[[104.7028,26.8059],[104.6997,26.8369],[104.6884,26.8583],[104.6721,26.847],[104.665,26.8361],[104.655,26.8356],[104.646,26.8444],[104.6453,26.8586],[104.6371,26.8629],[104.6352,26.8452],[104.6287,26.8327],[104.6107,26.8135],[104.6101,26.8085],[104.5967,26.7994],[104.5988,26.7718],[104.5937,26.7574],[104.6136,26.7464],[104.6112,26.737],[104.6166,26.7259],[104.6281,26.7295],[104.6478,26.7304],[104.6529,26.7456],[104.6697,26.757],[104.6695,26.7668],[104.6786,26.7879],[104.6946,26.795],[104.7028,26.8059]]],[[[104.7204,26.6335],[104.7395,26.6192],[104.7515,26.5949],[104.7586,26.5877],[104.768,26.5853],[104.7759,26.5722],[104.7729,26.565],[104.7791,26.5587],[104.7884,26.5654],[104.7998,26.5669],[104.8072,26.558],[104.8301,26.5496],[104.8351,26.5431],[104.8738,26.525],[104.9022,26.5183],[104.8971,26.5285],[104.9059,26.5399],[104.908,26.5499],[104.9198,26.555],[104.9183,26.5629],[104.9234,26.5728],[104.9353,26.5709],[104.9424,26.5626],[104.9514,26.5698],[104.9607,26.5689],[104.9755,26.5784],[104.9821,26.591],[104.9761,26.5971],[104.9793,26.6211],[104.9863,26.6299],[104.9681,26.6391],[104.9525,26.639],[104.9417,26.6506],[104.9341,26.6477],[104.9384,26.6334],[104.9338,26.6238],[104.9339,26.6107],[104.9225,26.6072],[104.9116,26.6154],[104.8873,26.6156],[104.878,26.6185],[104.8815,26.6265],[104.8819,26.6498],[104.8882,26.6594],[104.8832,26.6645],[104.8719,26.6597],[104.863,26.6613],[104.8618,26.6783],[104.8702,26.6823],[104.8735,26.7007],[104.8573,26.7038],[104.857,26.7088],[104.8821,26.724],[104.8777,26.7377],[104.8641,26.745],[104.8643,26.7605],[104.8499,26.757],[104.8389,26.7659],[104.8191,26.7619],[104.8077,26.7682],[104.7856,26.7487],[104.7756,26.7518],[104.7779,26.7646],[104.7663,26.7779],[104.7631,26.7915],[104.7569,26.7917],[104.7539,26.7901],[104.7484,26.7467],[104.757,26.7482],[104.7612,26.7236],[104.7523,26.7137],[104.7617,26.7058],[104.7606,26.6922],[104.7466,26.6914],[104.7335,26.6817],[104.7372,26.669],[104.7362,26.6556],[104.7465,26.6503],[104.7462,26.6425],[104.7204,26.6335]]]]},"properties":{"region_code":"CN-52-5202-520201","parent_region_code":"CN-52-5202","name":"钟山区","level":"county","has_children":false,"full_path":"中国 / 贵州省 / 六盘水市 / 钟山区","source_admin_code":"520201","osm_relation_id":2780190}},
{"type":"Feature","geometry":{"type":"Polygon","coordinates":[[[105.253,26.5234],[105.2385,26.5134],[105.222,26.5055],[105.2169,26.4986],[105.2187,26.4906],[105.2349,26.4726],[105.2469,26.469],[105.2549,26.4626],[105.2529,26.4493],[105.2357,26.4316],[105.2166,26.4161],[105.1883,26.4015],[105.1772,26.3797],[105.1842,26.3713],[105.1921,26.3722],[105.2104,26.3808],[105.2253,26.374],[105.2358,26.3557],[105.2377,26.3296],[105.2141,26.3098],[105.2076,26.2896],[105.2034,26.2643],[105.2045,26.2522],[105.19,26.242],[105.1756,26.2186],[105.1591,26.2077],[105.1432,26.2012],[105.1473,26.1925],[105.1354,26.1885],[105.1364,26.1802],[105.1224,26.1671],[105.1363,26.1527],[105.1529,26.1755],[105.1723,26.1794],[105.1853,26.1767],[105.1852,26.1659],[105.1765,26.1608],[105.1787,26.1517],[105.1722,26.1252],[105.1818,26.1091],[105.1882,26.1042],[105.1905,26.0934],[105.1861,26.0722],[105.1879,26.0651],[105.1987,26.0585],[105.2045,26.0486],[105.2253,25.9992],[105.2411,25.9829],[105.2523,25.99],[105.2477,25.9985],[105.258,26.0118],[105.2743,26.0156],[105.2965,26.0113],[105.3557,26.0212],[105.37,26.0162],[105.3931,26.0152],[105.4155,26.0205],[105.4397,26.0205],[105.4956,26.0335],[105.5061,26.0423],[105.5238,26.0639],[105.5439,26.0784],[105.564,26.0812],[105.5793,26.0695],[105.5918,26.0695],[105.5978,26.0861],[105.6018,26.117],[105.6102,26.1386],[105.604,26.1578],[105.6175,26.1608],[105.6283,26.1447],[105.6449,26.1453],[105.6577,26.1394],[105.6694,26.1409],[105.6669,26.1543],[105.6762,26.157],[105.6772,26.1642],[105.6857,26.1719],[105.6979,26.1732],[105.7069,26.1673],[105.719,26.1731],[105.7155,26.1906],[105.7024,26.1842],[105.6958,26.1914],[105.6762,26.204],[105.6532,26.2119],[105.6303,26.2068],[105.6145,26.2117],[105.596,26.2256],[105.5779,26.2315],[105.5353,26.2223],[105.5088,26.2261],[105.4993,26.2329],[105.4796,26.2602],[105.4699,26.2631],[105.4545,26.2796],[105.4591,26.2892],[105.4752,26.295],[105.4889,26.309],[105.4893,26.3218],[105.4937,26.3365],[105.5056,26.3507],[105.5147,26.3574],[105.5346,26.3632],[105.5238,26.3852],[105.511,26.4181],[105.5099,26.4339],[105.4981,26.4428],[105.4519,26.4423],[105.4389,26.4456],[105.425,26.4621],[105.3964,26.4627],[105.3754,26.4674],[105.3651,26.4826],[105.3559,26.4737],[105.339,26.4945],[105.3475,26.5031],[105.3395,26.5116],[105.3283,26.5146],[105.3155,26.5302],[105.3032,26.5352],[105.2898,26.5349],[105.2788,26.5219],[105.253,26.5234]]]},"properties":{"region_code":"CN-52-5202-520203","parent_region_code":"CN-52-5202","name":"六枝特区","level":"county","has_children":false,"full_path":"中国 / 贵州省 / 六盘水市 / 六枝特区","source_admin_code":"520203","osm_relation_id":2780187}},
{"type":"Feature","geometry":{"type":"Polygon","coordinates":[[[104.7204,26.6335],[104.7161,26.6273],[104.6922,26.6132],[104.6856,26.6065],[104.6894,26.584],[104.6904,26.5616],[104.6859,26.5471],[104.6734,26.5449],[104.6681,26.5399],[104.6749,26.5278],[104.6652,26.522],[104.6532,26.5223],[104.6276,26.5328],[104.6174,26.5346],[104.5971,26.5429],[104.5791,26.5455],[104.5677,26.5431],[104.5684,26.5287],[104.5927,26.5261],[104.6126,26.513],[104.6152,26.5069],[104.6291,26.4939],[104.6382,26.4813],[104.631,26.4653],[104.631,26.4545],[104.6393,26.4433],[104.6628,26.4386],[104.6672,26.4138],[104.6636,26.4074],[104.6692,26.3897],[104.6791,26.3827],[104.6821,26.3733],[104.6785,26.3671],[104.6676,26.3678],[104.6585,26.3606],[104.6577,26.3385],[104.6412,26.3326],[104.6203,26.3312],[104.5905,26.3198],[104.5757,26.2949],[104.5967,26.2924],[104.6103,26.2831],[104.6145,26.2703],[104.6022,26.256],[104.6118,26.2401],[104.6264,26.234],[104.6343,26.2161],[104.6293,26.2044],[104.6335,26.1928],[104.6363,26.1644],[104.6447,26.1526],[104.6307,26.1447],[104.6338,26.1374],[104.6494,26.1318],[104.6846,26.1316],[104.6951,26.128],[104.6948,26.1184],[104.7001,26.1006],[104.7008,26.0894],[104.7054,26.0788],[104.724,26.0926],[104.7399,26.0862],[104.758,26.0828],[104.7635,26.0782],[104.7983,26.0802],[104.8117,26.0986],[104.8295,26.1092],[104.8379,26.1048],[104.8552,26.1057],[104.8796,26.1038],[104.8907,26.0965],[104.9028,26.0794],[104.9142,26.0743],[104.9118,26.0594],[104.9185,26.0492],[104.9392,26.0618],[104.9491,26.0641],[104.9638,26.0575],[104.9718,26.0694],[104.9917,26.0759],[105.0091,26.0948],[104.993,26.1332],[104.9927,26.1392],[105.0059,26.1464],[105.0156,26.1471],[105.0422,26.1674],[105.0493,26.1759],[105.0643,26.1735],[105.0683,26.1665],[105.0886,26.1617],[105.1004,26.1677],[105.1083,26.1643],[105.1224,26.1671],[105.1364,26.1802],[105.1354,26.1885],[105.1473,26.1925],[105.1432,26.2012],[105.1591,26.2077],[105.1756,26.2186],[105.19,26.242],[105.2045,26.2522],[105.2034,26.2643],[105.2076,26.2896],[105.2141,26.3098],[105.2377,26.3296],[105.2358,26.3557],[105.2253,26.374],[105.2104,26.3808],[105.1921,26.3722],[105.1842,26.3713],[105.1772,26.3797],[105.1883,26.4015],[105.2166,26.4161],[105.2357,26.4316],[105.2529,26.4493],[105.2549,26.4626],[105.2469,26.469],[105.2349,26.4726],[105.2187,26.4906],[105.2169,26.4986],[105.222,26.5055],[105.2385,26.5134],[105.253,26.5234],[105.2349,26.5316],[105.2168,26.5369],[105.2044,26.5492],[105.2135,26.5748],[105.2066,26.5815],[105.1965,26.5808],[105.1895,26.5881],[105.1854,26.6057],[105.1885,26.6149],[105.1852,26.6234],[105.1955,26.6402],[105.1879,26.6496],[105.1797,26.65],[105.168,26.6428],[105.1622,26.6461],[105.1369,26.6341],[105.1243,26.63],[105.1131,26.6195],[105.1052,26.6265],[105.1038,26.6371],[105.0842,26.6565],[105.0923,26.6675],[105.0887,26.6888],[105.0765,26.6952],[105.0767,26.7085],[105.0685,26.7153],[105.0679,26.724],[105.0913,26.7447],[105.0809,26.7626],[105.0694,26.7609],[105.0486,26.7706],[105.0432,26.7773],[105.0432,26.7871],[105.0592,26.7897],[105.0517,26.8048],[105.0219,26.8232],[105.0086,26.8196],[104.9913,26.826],[104.9974,26.8357],[104.9874,26.8474],[104.9968,26.859],[105.0057,26.8576],[105.0251,26.8708],[105.0191,26.885],[105.0275,26.9092],[105.0241,26.9155],[104.9995,26.9234],[104.9856,26.9165],[104.9664,26.912],[104.945,26.8868],[104.9359,26.8835],[104.9296,26.8716],[104.9298,26.8606],[104.9226,26.8581],[104.9331,26.8458],[104.9337,26.8404],[104.9083,26.8336],[104.8983,26.8347],[104.8719,26.8479],[104.8642,26.8608],[104.862,26.8786],[104.8495,26.8828],[104.8427,26.8936],[104.8345,26.8952],[104.8239,26.8882],[104.823,26.8789],[104.8093,26.8751],[104.8085,26.8662],[104.8007,26.848],[104.8004,26.838],[104.7877,26.8247],[104.7643,26.8067],[104.7517,26.7995],[104.7569,26.7917],[104.7631,26.7915],[104.7663,26.7779],[104.7779,26.7646],[104.7756,26.7518],[104.7856,26.7487],[104.8077,26.7682],[104.8191,26.7619],[104.8389,26.7659],[104.8499,26.757],[104.8643,26.7605],[104.8641,26.745],[104.8777,26.7377],[104.8821,26.724],[104.857,26.7088],[104.8573,26.7038],[104.8735,26.7007],[104.8702,26.6823],[104.8618,26.6783],[104.863,26.6613],[104.8719,26.6597],[104.8832,26.6645],[104.8882,26.6594],[104.8819,26.6498],[104.8815,26.6265],[104.878,26.6185],[104.8873,26.6156],[104.9116,26.6154],[104.9225,26.6072],[104.9339,26.6107],[104.9338,26.6238],[104.9384,26.6334],[104.9341,26.6477],[104.9417,26.6506],[104.9525,26.639],[104.9681,26.6391],[104.9863,26.6299],[104.9793,26.6211],[104.9761,26.5971],[104.9821,26.591],[104.9755,26.5784],[104.9607,26.5689],[104.9514,26.5698],[104.9424,26.5626],[104.9353,26.5709],[104.9234,26.5728],[104.9183,26.5629],[104.9198,26.555],[104.908,26.5499],[104.9059,26.5399],[104.8971,26.5285],[104.9022,26.5183],[104.8738,26.525],[104.8351,26.5431],[104.8301,26.5496],[104.8072,26.558],[104.7998,26.5669],[104.7884,26.5654],[104.7791,26.5587],[104.7729,26.565],[104.7759,26.5722],[104.768,26.5853],[104.7586,26.5877],[104.7515,26.5949],[104.7395,26.6192],[104.7204,26.6335]]]},"properties":{"region_code":"CN-52-5202-520204","parent_region_code":"CN-52-5202","name":"水城区","level":"county","has_children":false,"full_path":"中国 / 贵州省 / 六盘水市 / 水城区","source_admin_code":"520204","osm_relation_id":2780189}},
{"type":"Feature","geometry":{"type":"Polygon","coordinates":[[[104.5757,26.2949],[104.5651,26.2832],[104.5533,26.2779],[104.5406,26.2572],[104.5468,26.2308],[104.5476,26.2193],[104.54,26.2177],[104.5386,26.2049],[104.5267,26.1788],[104.5178,26.1724],[104.5154,26.1561],[104.5166,26.1375],[104.5246,26.1256],[104.525,26.1053],[104.5164,26.0894],[104.5035,26.0847],[104.4974,26.0746],[104.4588,26.0898],[104.4537,26.0806],[104.4634,26.071],[104.4712,26.0568],[104.4668,26.0365],[104.4596,26.0264],[104.4681,26.0139],[104.46,25.9993],[104.4605,25.9891],[104.4415,25.9621],[104.4361,25.9308],[104.4123,25.9155],[104.4198,25.8944],[104.4333,25.8966],[104.4383,25.8725],[104.4264,25.8598],[104.4217,25.8405],[104.4293,25.8247],[104.4141,25.8161],[104.4093,25.7997],[104.402,25.7905],[104.3962,25.7654],[104.3862,25.7639],[104.381,25.7571],[104.3808,25.7466],[104.3704,25.7326],[104.3605,25.7345],[104.3508,25.7419],[104.3505,25.7485],[104.3283,25.7635],[104.3215,25.7523],[104.3252,25.7442],[104.3194,25.7356],[104.3173,25.7204],[104.321,25.7098],[104.3132,25.6877],[104.3147,25.6748],[104.307,25.6633],[104.3164,25.6472],[104.3223,25.6421],[104.3132,25.6328],[104.3231,25.6282],[104.3363,25.6014],[104.3647,25.6047],[104.3664,25.5875],[104.38,25.588],[104.3846,25.5954],[104.4025,25.5975],[104.4076,25.59],[104.4179,25.5879],[104.4264,25.578],[104.4208,25.5671],[104.4318,25.5585],[104.4302,25.5456],[104.4339,25.5235],[104.4288,25.5072],[104.4161,25.5024],[104.4274,25.4918],[104.4269,25.4803],[104.4349,25.4748],[104.444,25.4779],[104.4487,25.4998],[104.4818,25.4979],[104.4985,25.5106],[104.5034,25.5099],[104.5134,25.5244],[104.541,25.524],[104.5472,25.5331],[104.5541,25.5278],[104.5503,25.5181],[104.5531,25.507],[104.548,25.4903],[104.5482,25.4778],[104.5399,25.4628],[104.5426,25.4462],[104.5412,25.4225],[104.5365,25.4068],[104.5574,25.3972],[104.5637,25.4062],[104.5894,25.3927],[104.5885,25.3872],[104.613,25.3678],[104.6303,25.3687],[104.6428,25.3596],[104.6525,25.3631],[104.6572,25.3773],[104.6622,25.3808],[104.6816,25.3656],[104.6881,25.3508],[104.6855,25.3361],[104.6901,25.3316],[104.7079,25.3379],[104.7524,25.3433],[104.7813,25.3401],[104.8197,25.345],[104.8316,25.3519],[104.8377,25.3709],[104.8414,25.3718],[104.8631,25.3609],[104.8815,25.3608],[104.8872,25.3651],[104.8833,25.3744],[104.8649,25.378],[104.8543,25.3834],[104.8468,25.4067],[104.8521,25.4199],[104.8514,25.4344],[104.8596,25.4411],[104.8639,25.4518],[104.8752,25.4685],[104.8858,25.476],[104.8911,25.4901],[104.8989,25.4945],[104.9008,25.5021],[104.9152,25.5188],[104.9091,25.5394],[104.9127,25.5481],[104.9087,25.5585],[104.9003,25.562],[104.8873,25.5615],[104.8776,25.5679],[104.8765,25.5744],[104.8873,25.5782],[104.8843,25.5935],[104.8607,25.6176],[104.8591,25.6247],[104.8684,25.6362],[104.8936,25.6536],[104.8988,25.6623],[104.9073,25.6944],[104.9085,25.7073],[104.8907,25.7264],[104.8752,25.7482],[104.8786,25.7539],[104.8727,25.7692],[104.8734,25.7916],[104.8704,25.8085],[104.8848,25.8249],[104.8895,25.8421],[104.9073,25.8469],[104.9225,25.8629],[104.9313,25.8692],[104.9471,25.8746],[104.9442,25.8873],[104.9472,25.9068],[104.9418,25.9098],[104.9485,25.9235],[104.934,25.9321],[104.9275,25.9439],[104.9394,25.9668],[104.9437,25.9906],[104.9503,25.9991],[104.951,26.0096],[104.9581,26.0258],[104.9553,26.0461],[104.9638,26.0575],[104.9491,26.0641],[104.9392,26.0618],[104.9185,26.0492],[104.9118,26.0594],[104.9142,26.0743],[104.9028,26.0794],[104.8907,26.0965],[104.8796,26.1038],[104.8552,26.1057],[104.8379,26.1048],[104.8295,26.1092],[104.8117,26.0986],[104.7983,26.0802],[104.7635,26.0782],[104.758,26.0828],[104.7399,26.0862],[104.724,26.0926],[104.7054,26.0788],[104.7008,26.0894],[104.7001,26.1006],[104.6948,26.1184],[104.6951,26.128],[104.6846,26.1316],[104.6494,26.1318],[104.6338,26.1374],[104.6307,26.1447],[104.6447,26.1526],[104.6363,26.1644],[104.6335,26.1928],[104.6293,26.2044],[104.6343,26.2161],[104.6264,26.234],[104.6118,26.2401],[104.6022,26.256],[104.6145,26.2703],[104.6103,26.2831],[104.5967,26.2924],[104.5757,26.2949]]]},"properties":{"region_code":"CN-52-5202-520281","parent_region_code":"CN-52-5202","name":"盘州市","level":"county","has_children":false,"full_path":"中国 / 贵州省 / 六盘水市 / 盘州市","source_admin_code":"520281","osm_relation_id":2780188}}
]}