{"type":"FeatureCollection", "features": [
{"type":"Feature","geometry":{"type":"Polygon","coordinates":[[[105.7551,30.3888],[105.7512,30.3931],[105.7541,30.4156],[105.7465,30.4203],[105.7334,30.4076],[105.7165,30.3989],[105.7017,30.402],[105.6931,30.4375],[105.6752,30.4486],[105.6609,30.4403],[105.6425,30.4426],[105.653,30.4544],[105.6567,30.4802],[105.6715,30.4874],[105.6737,30.5202],[105.6833,30.5181],[105.6981,30.506],[105.7047,30.5153],[105.7093,30.5423],[105.706,30.5623],[105.7185,30.5725],[105.7165,30.5823],[105.7349,30.6024],[105.7282,30.6441],[105.7036,30.6546],[105.7011,30.6413],[105.688,30.6391],[105.6795,30.6278],[105.6679,30.6254],[105.6592,30.6323],[105.6482,30.6204],[105.6238,30.6234],[105.6055,30.6341],[105.5945,30.6363],[105.5699,30.6223],[105.5613,30.6221],[105.5498,30.6376],[105.5294,30.6384],[105.5165,30.6518],[105.5078,30.6453],[105.4986,30.6528],[105.4881,30.6492],[105.484,30.6392],[105.4553,30.6329],[105.4395,30.6148],[105.427,30.6248],[105.4226,30.6076],[105.4058,30.5963],[105.3884,30.5687],[105.3997,30.5561],[105.4176,30.5743],[105.4229,30.554],[105.4354,30.5535],[105.4443,30.5315],[105.4586,30.5428],[105.485,30.5453],[105.4942,30.5352],[105.4905,30.5231],[105.497,30.5075],[105.4774,30.5065],[105.4812,30.4978],[105.5007,30.4977],[105.5059,30.4876],[105.4966,30.4725],[105.5058,30.4624],[105.5256,30.4585],[105.5374,30.4485],[105.5394,30.4347],[105.5327,30.427],[105.5448,30.4094],[105.5772,30.3843],[105.6073,30.3829],[105.616,30.3927],[105.6324,30.3927],[105.6447,30.3839],[105.6634,30.3862],[105.6721,30.368],[105.6989,30.3676],[105.7116,30.3765],[105.7215,30.3702],[105.7116,30.36],[105.7268,30.3455],[105.7205,30.3325],[105.7287,30.3222],[105.7389,30.323],[105.7305,30.3391],[105.7505,30.3448],[105.7472,30.3607],[105.7655,30.3786],[105.7551,30.3888]]]},"properties":{"region_code":"CN-51-5109-510903","parent_region_code":"CN-51-5109","name":"船山区","level":"county","has_children":false,"full_path":"中国 / 四川省 / 遂宁市 / 船山区","source_admin_code":"510903","osm_relation_id":2788706}},
{"type":"Feature","geometry":{"type":"Polygon","coordinates":[[[105.3997,30.5561],[105.3984,30.5433],[105.3745,30.5489],[105.3754,30.5372],[105.3636,30.5265],[105.3664,30.5193],[105.3537,30.497],[105.3252,30.493],[105.326,30.4794],[105.3146,30.4635],[105.3049,30.4609],[105.2845,30.4765],[105.2754,30.4736],[105.2776,30.4607],[105.2694,30.4522],[105.2551,30.4495],[105.2425,30.4589],[105.2382,30.4741],[105.223,30.4836],[105.2067,30.4778],[105.1943,30.4811],[105.169,30.4672],[105.1571,30.4746],[105.1389,30.4644],[105.1255,30.4483],[105.1133,30.445],[105.1078,30.4359],[105.0817,30.4299],[105.0876,30.4267],[105.0709,30.4049],[105.0873,30.4042],[105.0974,30.395],[105.0999,30.3832],[105.1174,30.3476],[105.1451,30.3383],[105.1545,30.3251],[105.1732,30.3209],[105.2003,30.3076],[105.2135,30.3096],[105.2182,30.2905],[105.2282,30.2826],[105.2508,30.2832],[105.262,30.2916],[105.2797,30.2878],[105.2895,30.2962],[105.3246,30.3056],[105.3319,30.3139],[105.3541,30.3083],[105.3642,30.2916],[105.3653,30.2809],[105.3784,30.2796],[105.4047,30.2967],[105.415,30.2926],[105.4132,30.2819],[105.4222,30.2624],[105.4428,30.2563],[105.4561,30.2587],[105.4692,30.2515],[105.4855,30.2189],[105.5206,30.2079],[105.5255,30.2225],[105.5442,30.2153],[105.5546,30.1992],[105.5537,30.1892],[105.5781,30.1762],[105.5865,30.1855],[105.6043,30.1812],[105.6144,30.189],[105.6295,30.1866],[105.642,30.1959],[105.6403,30.2064],[105.659,30.213],[105.6506,30.2245],[105.6328,30.2223],[105.6154,30.2381],[105.6202,30.2769],[105.6418,30.2761],[105.6673,30.2568],[105.6802,30.2554],[105.698,30.2606],[105.714,30.2548],[105.7178,30.2645],[105.7306,30.2744],[105.7081,30.2862],[105.7083,30.319],[105.7115,30.326],[105.7287,30.3222],[105.7205,30.3325],[105.7268,30.3455],[105.7116,30.36],[105.7215,30.3702],[105.7116,30.3765],[105.6989,30.3676],[105.6721,30.368],[105.6634,30.3862],[105.6447,30.3839],[105.6324,30.3927],[105.616,30.3927],[105.6073,30.3829],[105.5772,30.3843],[105.5448,30.4094],[105.5327,30.427],[105.5394,30.4347],[105.5374,30.4485],[105.5256,30.4585],[105.5058,30.4624],[105.4966,30.4725],[105.5059,30.4876],[105.5007,30.4977],[105.4812,30.4978],[105.4774,30.5065],[105.497,30.5075],[105.4905,30.5231],[105.4942,30.5352],[105.485,30.5453],[105.4586,30.5428],[105.4443,30.5315],[105.4354,30.5535],[105.4229,30.554],[105.4176,30.5743],[105.3997,30.5561]]]},"properties":{"region_code":"CN-51-5109-510904","parent_region_code":"CN-51-5109","name":"安居区","level":"county","has_children":false,"full_path":"中国 / 四川省 / 遂宁市 / 安居区","source_admin_code":"510904","osm_relation_id":2788705}},
{"type":"Feature","geometry":{"type":"Polygon","coordinates":[[[105.7551,30.3888],[105.7662,30.4066],[105.7829,30.4069],[105.7965,30.4301],[105.8139,30.4393],[105.8271,30.4351],[105.8311,30.4216],[105.8424,30.4124],[105.8343,30.4066],[105.8479,30.3976],[105.859,30.4099],[105.8742,30.4002],[105.8853,30.4085],[105.8959,30.4084],[105.898,30.3892],[105.9135,30.3988],[105.922,30.3881],[105.936,30.3833],[105.9373,30.3751],[105.9624,30.3816],[105.9959,30.3746],[105.9964,30.396],[105.9827,30.3962],[105.9854,30.4101],[105.9766,30.4172],[105.9756,30.43],[105.9599,30.4273],[105.9473,30.4388],[105.9441,30.4509],[105.9523,30.4582],[105.9685,30.4603],[105.9712,30.4704],[105.9654,30.4919],[105.952,30.5158],[105.9352,30.511],[105.9304,30.5195],[105.9123,30.5118],[105.923,30.4972],[105.9426,30.498],[105.9344,30.4863],[105.9193,30.4824],[105.9222,30.4746],[105.9033,30.4619],[105.8888,30.4667],[105.8818,30.4617],[105.8717,30.4708],[105.8844,30.4797],[105.8806,30.499],[105.8639,30.4999],[105.8573,30.4885],[105.8471,30.4909],[105.8411,30.5007],[105.8474,30.5114],[105.8592,30.5152],[105.8614,30.5268],[105.874,30.5502],[105.8677,30.5649],[105.8528,30.5667],[105.8484,30.5785],[105.8363,30.582],[105.8274,30.5998],[105.8202,30.6057],[105.82,30.6218],[105.8054,30.628],[105.8037,30.6415],[105.8102,30.654],[105.7989,30.6732],[105.7951,30.6891],[105.7995,30.6991],[105.789,30.7139],[105.792,30.7365],[105.7788,30.7558],[105.7893,30.7625],[105.7806,30.7757],[105.7786,30.7876],[105.7901,30.7986],[105.7921,30.8094],[105.7808,30.8119],[105.7806,30.8263],[105.7521,30.8453],[105.7477,30.8631],[105.7383,30.8595],[105.7268,30.8793],[105.7412,30.8816],[105.739,30.8941],[105.7285,30.9081],[105.7006,30.9136],[105.6852,30.9384],[105.6652,30.9247],[105.6535,30.9264],[105.6271,30.9206],[105.6086,30.9201],[105.5827,30.8674],[105.5686,30.8319],[105.5534,30.8266],[105.5641,30.8087],[105.5417,30.8055],[105.5323,30.7899],[105.514,30.7858],[105.5247,30.7661],[105.5192,30.7563],[105.502,30.7656],[105.5008,30.7531],[105.4785,30.7449],[105.4752,30.7367],[105.4614,30.7367],[105.4369,30.7246],[105.4393,30.7115],[105.4327,30.6941],[105.4537,30.6885],[105.4537,30.68],[105.4331,30.671],[105.4436,30.661],[105.4555,30.6733],[105.4732,30.6755],[105.4824,30.6703],[105.4881,30.6492],[105.4986,30.6528],[105.5078,30.6453],[105.5165,30.6518],[105.5294,30.6384],[105.5498,30.6376],[105.5613,30.6221],[105.5699,30.6223],[105.5945,30.6363],[105.6055,30.6341],[105.6238,30.6234],[105.6482,30.6204],[105.6592,30.6323],[105.6679,30.6254],[105.6795,30.6278],[105.688,30.6391],[105.7011,30.6413],[105.7036,30.6546],[105.7282,30.6441],[105.7349,30.6024],[105.7165,30.5823],[105.7185,30.5725],[105.706,30.5623],[105.7093,30.5423],[105.7047,30.5153],[105.6981,30.506],[105.6833,30.5181],[105.6737,30.5202],[105.6715,30.4874],[105.6567,30.4802],[105.653,30.4544],[105.6425,30.4426],[105.6609,30.4403],[105.6752,30.4486],[105.6931,30.4375],[105.7017,30.402],[105.7165,30.3989],[105.7334,30.4076],[105.7465,30.4203],[105.7541,30.4156],[105.7512,30.3931],[105.7551,30.3888]]]},"properties":{"region_code":"CN-51-5109-510921","parent_region_code":"CN-51-5109","name":"蓬溪县","level":"county","has_children":false,"full_path":"中国 / 四川省 / 遂宁市 / 蓬溪县","source_admin_code":"510921","osm_relation_id":2788708}},
{"type":"Feature","geometry":{"type":"Polygon","coordinates":[[[105.4881,30.6492],[105.4824,30.6703],[105.4732,30.6755],[105.4555,30.6733],[105.4436,30.661],[105.4331,30.671],[105.4537,30.68],[105.4537,30.6885],[105.4327,30.6941],[105.4093,30.6789],[105.4009,30.685],[105.3894,30.6751],[105.3858,30.6625],[105.3638,30.6603],[105.3657,30.6426],[105.3467,30.6378],[105.3465,30.6535],[105.3355,30.6515],[105.3255,30.6587],[105.3129,30.6564],[105.3054,30.667],[105.2951,30.6649],[105.2779,30.6686],[105.2828,30.676],[105.2844,30.7009],[105.2645,30.7097],[105.2607,30.6925],[105.2457,30.6742],[105.2379,30.6699],[105.2213,30.6768],[105.2084,30.6919],[105.1988,30.6904],[105.195,30.7014],[105.2029,30.7105],[105.2077,30.7298],[105.2001,30.7336],[105.1772,30.7221],[105.1657,30.7083],[105.1613,30.6787],[105.1437,30.6714],[105.1394,30.6556],[105.1452,30.6428],[105.1212,30.6235],[105.1097,30.6005],[105.0982,30.5959],[105.0912,30.5851],[105.0925,30.5745],[105.0827,30.553],[105.0717,30.5501],[105.0668,30.5342],[105.0569,30.5236],[105.0629,30.5125],[105.0803,30.4981],[105.0734,30.4836],[105.0872,30.4621],[105.0889,30.4448],[105.0709,30.445],[105.0659,30.4354],[105.0817,30.4299],[105.1078,30.4359],[105.1133,30.445],[105.1255,30.4483],[105.1389,30.4644],[105.1571,30.4746],[105.169,30.4672],[105.1943,30.4811],[105.2067,30.4778],[105.223,30.4836],[105.2382,30.4741],[105.2425,30.4589],[105.2551,30.4495],[105.2694,30.4522],[105.2776,30.4607],[105.2754,30.4736],[105.2845,30.4765],[105.3049,30.4609],[105.3146,30.4635],[105.326,30.4794],[105.3252,30.493],[105.3537,30.497],[105.3664,30.5193],[105.3636,30.5265],[105.3754,30.5372],[105.3745,30.5489],[105.3984,30.5433],[105.3997,30.5561],[105.3884,30.5687],[105.4058,30.5963],[105.4226,30.6076],[105.427,30.6248],[105.4395,30.6148],[105.4553,30.6329],[105.484,30.6392],[105.4881,30.6492]]]},"properties":{"region_code":"CN-51-5109-510923","parent_region_code":"CN-51-5109","name":"大英县","level":"county","has_children":false,"full_path":"中国 / 四川省 / 遂宁市 / 大英县","source_admin_code":"510923","osm_relation_id":2788707}},
{"type":"Feature","geometry":{"type":"Polygon","coordinates":[[[105.6535,30.9264],[105.6563,30.9448],[105.64,30.9506],[105.6245,30.9762],[105.6152,30.9801],[105.5924,30.9752],[105.5717,30.9902],[105.5618,31.0089],[105.5426,31.0161],[105.5342,31.028],[105.5008,31.0297],[105.5006,31.0395],[105.4837,31.04],[105.4711,31.0659],[105.4502,31.0624],[105.4302,31.0685],[105.4246,31.0779],[105.407,31.0747],[105.404,31.0915],[105.3849,31.1158],[105.386,31.127],[105.378,31.1351],[105.3753,31.1569],[105.3503,31.1628],[105.3385,31.1399],[105.3262,31.1319],[105.3132,31.1162],[105.2975,31.115],[105.2934,31.1086],[105.2728,31.1094],[105.2628,31.1039],[105.2439,31.1068],[105.2144,31.1069],[105.2082,31.0981],[105.1967,31.0993],[105.1899,31.0882],[105.1966,31.0783],[105.1861,31.0565],[105.1713,31.0482],[105.1839,31.0174],[105.1859,31.0001],[105.1913,30.9944],[105.1912,30.9679],[105.174,30.9625],[105.1777,30.9504],[105.1876,30.9378],[105.1911,30.9195],[105.2055,30.9086],[105.1909,30.8994],[105.2007,30.8852],[105.2152,30.8864],[105.2253,30.8798],[105.229,30.8487],[105.2421,30.8332],[105.2571,30.8254],[105.2589,30.8091],[105.2653,30.7913],[105.2625,30.7782],[105.2686,30.7539],[105.2594,30.7443],[105.2453,30.7417],[105.2373,30.729],[105.2116,30.7358],[105.2077,30.7298],[105.2029,30.7105],[105.195,30.7014],[105.1988,30.6904],[105.2084,30.6919],[105.2213,30.6768],[105.2379,30.6699],[105.2457,30.6742],[105.2607,30.6925],[105.2645,30.7097],[105.2844,30.7009],[105.2828,30.676],[105.2779,30.6686],[105.2951,30.6649],[105.3054,30.667],[105.3129,30.6564],[105.3255,30.6587],[105.3355,30.6515],[105.3465,30.6535],[105.3467,30.6378],[105.3657,30.6426],[105.3638,30.6603],[105.3858,30.6625],[105.3894,30.6751],[105.4009,30.685],[105.4093,30.6789],[105.4327,30.6941],[105.4393,30.7115],[105.4369,30.7246],[105.4614,30.7367],[105.4752,30.7367],[105.4785,30.7449],[105.5008,30.7531],[105.502,30.7656],[105.5192,30.7563],[105.5247,30.7661],[105.514,30.7858],[105.5323,30.7899],[105.5417,30.8055],[105.5641,30.8087],[105.5534,30.8266],[105.5686,30.8319],[105.5827,30.8674],[105.6086,30.9201],[105.6271,30.9206],[105.6535,30.9264]]]},"properties":{"region_code":"CN-51-5109-510981","parent_region_code":"CN-51-5109","name":"射洪市","level":"county","has_children":false,"full_path":"中国 / 四川省 / 遂宁市 / 射洪市","source_admin_code":"510981","osm_relation_id":2788709}}
]}