{"type":"FeatureCollection", "features": [
{"type":"Feature","geometry":{"type":"Polygon","coordinates":[[[106.9976,32.0597],[106.9766,32.0543],[106.9651,32.0404],[106.9494,32.0349],[106.8905,31.9946],[106.8572,32.0084],[106.8309,32.0114],[106.7944,31.9887],[106.7647,31.9918],[106.7404,31.9814],[106.7259,31.9822],[106.7115,31.9945],[106.6815,31.984],[106.657,31.9678],[106.6465,31.95],[106.6427,31.9324],[106.6453,31.9131],[106.6385,31.8961],[106.6201,31.8872],[106.6151,31.8703],[106.6152,31.8599],[106.644,31.8484],[106.6497,31.836],[106.6801,31.8378],[106.6959,31.8253],[106.6968,31.8084],[106.6854,31.7912],[106.7164,31.7678],[106.7296,31.7691],[106.7347,31.7538],[106.7308,31.7251],[106.7781,31.7225],[106.7768,31.7095],[106.7608,31.7004],[106.7708,31.6838],[106.805,31.6685],[106.7977,31.6478],[106.783,31.6363],[106.79,31.6201],[106.7798,31.6096],[106.7777,31.5943],[106.7541,31.5909],[106.7284,31.6168],[106.7143,31.6119],[106.7065,31.5874],[106.7108,31.5744],[106.7184,31.5656],[106.7662,31.5706],[106.7632,31.5577],[106.7677,31.538],[106.7813,31.5336],[106.8171,31.5504],[106.8105,31.5187],[106.8381,31.5054],[106.8535,31.5091],[106.8636,31.5382],[106.8894,31.5369],[106.9038,31.5542],[106.9194,31.5493],[106.9306,31.5552],[106.9218,31.5815],[106.9212,31.6131],[106.936,31.6605],[106.9166,31.6633],[106.9162,31.6786],[106.8998,31.695],[106.9237,31.7126],[106.9381,31.712],[106.9318,31.7314],[106.9173,31.7424],[106.9398,31.7696],[106.9367,31.7838],[107.0005,31.7877],[107.0182,31.779],[107.0351,31.7835],[107.0423,31.7995],[107.0624,31.7872],[107.0863,31.7939],[107.0782,31.8023],[107.112,31.817],[107.1101,31.8304],[107.0989,31.8366],[107.0711,31.8549],[107.0669,31.8675],[107.0693,31.889],[107.0495,31.8948],[107.0429,31.9165],[107.0528,31.9258],[107.0529,31.9475],[107.0448,31.9534],[107.0483,32.0161],[107.0406,32.0307],[107.0153,32.0537],[106.9976,32.0597]]]},"properties":{"region_code":"CN-51-5119-511902","parent_region_code":"CN-51-5119","name":"巴州区","level":"county","has_children":false,"full_path":"中国 / 四川省 / 巴中市 / 巴州区","source_admin_code":"511902","osm_relation_id":2787654}},
{"type":"Feature","geometry":{"type":"Polygon","coordinates":[[[106.6151,31.8703],[106.6003,31.8692],[106.5804,31.8857],[106.5818,31.9016],[106.5666,31.9238],[106.5512,31.9311],[106.536,31.9494],[106.5094,31.9482],[106.5,31.9426],[106.4714,31.9432],[106.4606,31.9567],[106.4265,31.926],[106.4246,31.9131],[106.4063,31.8988],[106.4203,31.8931],[106.4036,31.8755],[106.4056,31.8489],[106.4146,31.8364],[106.4047,31.8132],[106.3938,31.8074],[106.4074,31.7587],[106.4012,31.7278],[106.3853,31.7324],[106.3622,31.6997],[106.3958,31.6842],[106.4057,31.6608],[106.4469,31.6488],[106.4547,31.6254],[106.4573,31.5885],[106.4798,31.5866],[106.4878,31.5697],[106.5109,31.5692],[106.5139,31.5781],[106.5339,31.5733],[106.5633,31.5447],[106.5592,31.5255],[106.6029,31.5094],[106.6225,31.5126],[106.6404,31.5424],[106.6299,31.5738],[106.6399,31.5907],[106.6699,31.5912],[106.6676,31.5788],[106.6834,31.5635],[106.7108,31.5744],[106.7065,31.5874],[106.7143,31.6119],[106.7284,31.6168],[106.7541,31.5909],[106.7777,31.5943],[106.7798,31.6096],[106.79,31.6201],[106.783,31.6363],[106.7977,31.6478],[106.805,31.6685],[106.7708,31.6838],[106.7608,31.7004],[106.7768,31.7095],[106.7781,31.7225],[106.7308,31.7251],[106.7347,31.7538],[106.7296,31.7691],[106.7164,31.7678],[106.6854,31.7912],[106.6968,31.8084],[106.6959,31.8253],[106.6801,31.8378],[106.6497,31.836],[106.644,31.8484],[106.6152,31.8599],[106.6151,31.8703]]]},"properties":{"region_code":"CN-51-5119-511903","parent_region_code":"CN-51-5119","name":"恩阳区","level":"county","has_children":false,"full_path":"中国 / 四川省 / 巴中市 / 恩阳区","source_admin_code":"511903","osm_relation_id":8022755}},
{"type":"Feature","geometry":{"type":"Polygon","coordinates":[[[107.0989,31.8366],[107.1116,31.8415],[107.1284,31.8379],[107.1376,31.8553],[107.1591,31.8434],[107.1742,31.8418],[107.1835,31.8273],[107.1751,31.8184],[107.1607,31.821],[107.158,31.8016],[107.1763,31.7563],[107.1957,31.7393],[107.2215,31.739],[107.2351,31.7293],[107.2386,31.6924],[107.2467,31.6754],[107.2625,31.6885],[107.2771,31.6901],[107.2865,31.671],[107.3132,31.6697],[107.3291,31.6571],[107.3458,31.6752],[107.366,31.673],[107.373,31.6839],[107.3901,31.6926],[107.4146,31.6911],[107.375,31.7271],[107.3825,31.744],[107.3623,31.7708],[107.3877,31.7737],[107.4015,31.7946],[107.3869,31.7958],[107.3878,31.812],[107.3764,31.8149],[107.3691,31.8316],[107.3796,31.8472],[107.395,31.8561],[107.4089,31.8416],[107.4356,31.8616],[107.453,31.8469],[107.4787,31.8483],[107.4808,31.8661],[107.4976,31.8637],[107.4919,31.8676],[107.5154,31.8905],[107.5288,31.8793],[107.5451,31.8937],[107.514,31.9203],[107.5174,31.9324],[107.5364,31.9308],[107.5367,31.9462],[107.5652,31.951],[107.5797,31.9653],[107.5647,31.9836],[107.5889,32.0092],[107.6179,32.0168],[107.6379,32.0104],[107.6507,32.0146],[107.67,32.0088],[107.6979,32.0321],[107.7283,32.0418],[107.7593,32.0719],[107.7522,32.088],[107.7379,32.1046],[107.7112,32.1213],[107.7045,32.1193],[107.6761,32.1433],[107.6369,32.1421],[107.6237,32.1539],[107.6248,32.2009],[107.6624,32.2129],[107.6818,32.2307],[107.673,32.2505],[107.697,32.2719],[107.7006,32.2836],[107.6975,32.3163],[107.7108,32.3286],[107.6969,32.3462],[107.6916,32.3761],[107.6674,32.3993],[107.6425,32.4153],[107.6336,32.4065],[107.6076,32.4081],[107.5956,32.4134],[107.5207,32.3836],[107.5041,32.3903],[107.4859,32.4275],[107.4518,32.4199],[107.4545,32.46],[107.435,32.468],[107.4255,32.5043],[107.4335,32.5174],[107.4302,32.536],[107.4013,32.5412],[107.3731,32.541],[107.3426,32.5126],[107.3083,32.5008],[107.2841,32.4797],[107.2744,32.4536],[107.2671,32.4072],[107.2596,32.4036],[107.2277,32.4168],[107.2035,32.4359],[107.1948,32.4588],[107.1721,32.4825],[107.1581,32.4772],[107.1223,32.4811],[107.1076,32.4648],[107.101,32.4486],[107.0602,32.4508],[107.0436,32.3907],[107.0616,32.3883],[107.0712,32.3682],[107.0591,32.3393],[107.0647,32.3152],[107.0961,32.3053],[107.0852,32.2741],[107.0695,32.2697],[107.045,32.2525],[107.0519,32.2378],[107.0689,32.2315],[107.0765,32.207],[107.0579,32.185],[107.0399,32.1338],[107.0314,32.1194],[107.0037,32.1166],[106.986,32.1029],[106.9858,32.0775],[106.9976,32.0597],[107.0153,32.0537],[107.0406,32.0307],[107.0483,32.0161],[107.0448,31.9534],[107.0529,31.9475],[107.0528,31.9258],[107.0429,31.9165],[107.0495,31.8948],[107.0693,31.889],[107.0669,31.8675],[107.0711,31.8549],[107.0989,31.8366]]]},"properties":{"region_code":"CN-51-5119-511921","parent_region_code":"CN-51-5119","name":"通江县","level":"county","has_children":false,"full_path":"中国 / 四川省 / 巴中市 / 通江县","source_admin_code":"511921","osm_relation_id":2787657}},
{"type":"Feature","geometry":{"type":"Polygon","coordinates":[[[106.9976,32.0597],[106.9858,32.0775],[106.986,32.1029],[107.0037,32.1166],[107.0314,32.1194],[107.0399,32.1338],[107.0579,32.185],[107.0765,32.207],[107.0689,32.2315],[107.0519,32.2378],[107.045,32.2525],[107.0695,32.2697],[107.0852,32.2741],[107.0961,32.3053],[107.0647,32.3152],[107.0591,32.3393],[107.0712,32.3682],[107.0616,32.3883],[107.0436,32.3907],[107.0602,32.4508],[107.101,32.4486],[107.1076,32.4648],[107.1223,32.4811],[107.1,32.5178],[107.0803,32.5308],[107.0755,32.5444],[107.0843,32.567],[107.1,32.5929],[107.0968,32.6106],[107.0861,32.6268],[107.0913,32.6525],[107.083,32.6699],[107.0582,32.6776],[107.0554,32.695],[107.0621,32.7099],[107.026,32.7216],[106.9998,32.7217],[106.9825,32.7127],[106.948,32.7184],[106.9378,32.7099],[106.9128,32.7055],[106.8996,32.7158],[106.8684,32.7262],[106.8462,32.7245],[106.8188,32.7065],[106.7898,32.7149],[106.7763,32.7286],[106.7795,32.7384],[106.7439,32.7375],[106.7279,32.7404],[106.6806,32.7105],[106.6584,32.6918],[106.6357,32.6886],[106.6383,32.6453],[106.6572,32.6165],[106.6482,32.6041],[106.6543,32.5764],[106.6507,32.5602],[106.6538,32.5172],[106.6501,32.4998],[106.6708,32.4885],[106.6739,32.4697],[106.6841,32.4604],[106.6796,32.4364],[106.6877,32.406],[106.6849,32.3504],[106.7075,32.3485],[106.7299,32.3279],[106.7409,32.3252],[106.7666,32.3079],[106.7487,32.2872],[106.7129,32.2969],[106.7143,32.2716],[106.6846,32.2686],[106.6707,32.275],[106.6623,32.2492],[106.5825,32.2377],[106.5608,32.23],[106.5554,32.2089],[106.553,32.178],[106.5646,32.1409],[106.5643,32.1281],[106.5355,32.1145],[106.533,32.1],[106.553,32.0898],[106.5443,32.078],[106.5296,32.0841],[106.5139,32.0708],[106.5156,32.0536],[106.4971,32.0512],[106.5011,32.0096],[106.489,32.0082],[106.4776,31.9811],[106.4606,31.9835],[106.4412,31.9793],[106.4606,31.9567],[106.4714,31.9432],[106.5,31.9426],[106.5094,31.9482],[106.536,31.9494],[106.5512,31.9311],[106.5666,31.9238],[106.5818,31.9016],[106.5804,31.8857],[106.6003,31.8692],[106.6151,31.8703],[106.6201,31.8872],[106.6385,31.8961],[106.6453,31.9131],[106.6427,31.9324],[106.6465,31.95],[106.657,31.9678],[106.6815,31.984],[106.7115,31.9945],[106.7259,31.9822],[106.7404,31.9814],[106.7647,31.9918],[106.7944,31.9887],[106.8309,32.0114],[106.8572,32.0084],[106.8905,31.9946],[106.9494,32.0349],[106.9651,32.0404],[106.9766,32.0543],[106.9976,32.0597]]]},"properties":{"region_code":"CN-51-5119-511922","parent_region_code":"CN-51-5119","name":"南江县","level":"county","has_children":false,"full_path":"中国 / 四川省 / 巴中市 / 南江县","source_admin_code":"511922","osm_relation_id":2787655}},
{"type":"Feature","geometry":{"type":"Polygon","coordinates":[[[106.8381,31.5054],[106.842,31.4896],[106.8425,31.4591],[106.8682,31.4281],[106.8798,31.4232],[106.8639,31.4088],[106.8715,31.3966],[106.9135,31.3796],[106.9279,31.3473],[106.9447,31.3395],[106.9302,31.3117],[106.9398,31.2914],[106.9607,31.2946],[106.939,31.272],[106.9587,31.2568],[106.9774,31.2504],[106.9816,31.2628],[106.9999,31.2719],[107.0149,31.3064],[107.035,31.2965],[107.0302,31.3225],[107.049,31.3302],[107.0415,31.3466],[107.0517,31.3632],[107.0797,31.3676],[107.083,31.3541],[107.0965,31.3414],[107.1139,31.3359],[107.1467,31.3566],[107.1403,31.3808],[107.1531,31.3962],[107.1699,31.431],[107.2054,31.4287],[107.2206,31.4364],[107.2213,31.4526],[107.2453,31.4607],[107.2551,31.4472],[107.2681,31.4555],[107.2805,31.481],[107.2816,31.4938],[107.3179,31.4946],[107.3287,31.5138],[107.3268,31.534],[107.3474,31.551],[107.3704,31.5503],[107.3877,31.5686],[107.4076,31.5685],[107.4317,31.5813],[107.4335,31.5916],[107.4585,31.5879],[107.4669,31.5983],[107.4874,31.5991],[107.494,31.6253],[107.5263,31.6618],[107.5281,31.6866],[107.5131,31.6852],[107.4972,31.7004],[107.4884,31.719],[107.4946,31.7332],[107.516,31.7299],[107.5335,31.7378],[107.5291,31.7629],[107.55,31.771],[107.56,31.8123],[107.5714,31.8236],[107.5649,31.8384],[107.4976,31.8637],[107.4808,31.8661],[107.4787,31.8483],[107.453,31.8469],[107.4356,31.8616],[107.4089,31.8416],[107.395,31.8561],[107.3796,31.8472],[107.3691,31.8316],[107.3764,31.8149],[107.3878,31.812],[107.3869,31.7958],[107.4015,31.7946],[107.3877,31.7737],[107.3623,31.7708],[107.3825,31.744],[107.375,31.7271],[107.4146,31.6911],[107.3901,31.6926],[107.373,31.6839],[107.366,31.673],[107.3458,31.6752],[107.3291,31.6571],[107.3132,31.6697],[107.2865,31.671],[107.2771,31.6901],[107.2625,31.6885],[107.2467,31.6754],[107.2386,31.6924],[107.2351,31.7293],[107.2215,31.739],[107.1957,31.7393],[107.1763,31.7563],[107.158,31.8016],[107.1607,31.821],[107.1751,31.8184],[107.1835,31.8273],[107.1742,31.8418],[107.1591,31.8434],[107.1376,31.8553],[107.1284,31.8379],[107.1116,31.8415],[107.0989,31.8366],[107.1101,31.8304],[107.112,31.817],[107.0782,31.8023],[107.0863,31.7939],[107.0624,31.7872],[107.0423,31.7995],[107.0351,31.7835],[107.0182,31.779],[107.0005,31.7877],[106.9367,31.7838],[106.9398,31.7696],[106.9173,31.7424],[106.9318,31.7314],[106.9381,31.712],[106.9237,31.7126],[106.8998,31.695],[106.9162,31.6786],[106.9166,31.6633],[106.936,31.6605],[106.9212,31.6131],[106.9218,31.5815],[106.9306,31.5552],[106.9194,31.5493],[106.9038,31.5542],[106.8894,31.5369],[106.8636,31.5382],[106.8535,31.5091],[106.8381,31.5054]]]},"properties":{"region_code":"CN-51-5119-511923","parent_region_code":"CN-51-5119","name":"平昌县","level":"county","has_children":false,"full_path":"中国 / 四川省 / 巴中市 / 平昌县","source_admin_code":"511923","osm_relation_id":2787656}}
]}