{"type":"FeatureCollection", "features": [
{"type":"Feature","geometry":{"type":"Polygon","coordinates":[[[103.895,29.49],[103.9171,29.5233],[103.9585,29.5613],[103.9622,29.5815],[103.9565,29.5976],[103.9822,29.6151],[103.9697,29.631],[103.9755,29.7046],[103.9866,29.7221],[103.9482,29.7339],[103.9361,29.7522],[103.8959,29.7503],[103.8799,29.7452],[103.8529,29.7485],[103.8402,29.7339],[103.8179,29.7324],[103.802,29.7194],[103.762,29.7098],[103.7532,29.7229],[103.7375,29.7312],[103.7171,29.7191],[103.718,29.7099],[103.695,29.6968],[103.7026,29.6752],[103.6688,29.6538],[103.6444,29.6576],[103.6268,29.6548],[103.6119,29.6335],[103.6184,29.6217],[103.5981,29.5781],[103.572,29.5647],[103.5818,29.5544],[103.5684,29.536],[103.5472,29.532],[103.5585,29.4745],[103.5689,29.4828],[103.578,29.5089],[103.6025,29.5259],[103.6194,29.508],[103.6257,29.489],[103.6625,29.4902],[103.6794,29.472],[103.7162,29.4776],[103.7267,29.5054],[103.7453,29.5135],[103.7773,29.4957],[103.793,29.4983],[103.8419,29.5234],[103.858,29.5176],[103.8706,29.5246],[103.886,29.4924],[103.895,29.49]]]},"properties":{"region_code":"CN-51-5111-511102","parent_region_code":"CN-51-5111","name":"市中区","level":"county","has_children":false,"full_path":"中国 / 四川省 / 乐山市 / 市中区","source_admin_code":"511102","osm_relation_id":2789890}},
{"type":"Feature","geometry":{"type":"Polygon","coordinates":[[[103.5585,29.4745],[103.524,29.4506],[103.5066,29.4261],[103.4877,29.4239],[103.4859,29.4122],[103.4688,29.3978],[103.4644,29.3803],[103.4397,29.3787],[103.4234,29.3572],[103.4306,29.3244],[103.4265,29.3155],[103.4371,29.2904],[103.4587,29.3031],[103.4711,29.3198],[103.5016,29.2604],[103.5244,29.256],[103.5367,29.2653],[103.5524,29.2507],[103.553,29.2365],[103.5674,29.2187],[103.5979,29.1931],[103.65,29.1896],[103.6629,29.1942],[103.6762,29.2205],[103.6766,29.2355],[103.7155,29.2507],[103.6957,29.2953],[103.7386,29.3156],[103.7274,29.3317],[103.7103,29.3438],[103.6885,29.3294],[103.6729,29.35],[103.6764,29.3629],[103.6675,29.3797],[103.6638,29.4146],[103.6676,29.4433],[103.6767,29.4505],[103.6794,29.472],[103.6625,29.4902],[103.6257,29.489],[103.6194,29.508],[103.6025,29.5259],[103.578,29.5089],[103.5689,29.4828],[103.5585,29.4745]]]},"properties":{"region_code":"CN-51-5111-511111","parent_region_code":"CN-51-5111","name":"沙湾区","level":"county","has_children":false,"full_path":"中国 / 四川省 / 乐山市 / 沙湾区","source_admin_code":"511111","osm_relation_id":2789889}},
{"type":"Feature","geometry":{"type":"Polygon","coordinates":[[[103.6794,29.472],[103.6767,29.4505],[103.6676,29.4433],[103.6638,29.4146],[103.6675,29.3797],[103.6764,29.3629],[103.6729,29.35],[103.6885,29.3294],[103.7103,29.3438],[103.7274,29.3317],[103.7386,29.3156],[103.7536,29.3277],[103.762,29.3196],[103.7978,29.3288],[103.8084,29.3213],[103.8439,29.3358],[103.8554,29.3128],[103.8711,29.2946],[103.8824,29.296],[103.8832,29.3205],[103.9142,29.323],[103.9196,29.3341],[103.9058,29.3567],[103.9187,29.3763],[103.9038,29.3916],[103.9216,29.4066],[103.939,29.4006],[103.9477,29.4141],[103.934,29.4222],[103.942,29.4501],[103.9288,29.4652],[103.9083,29.4602],[103.8769,29.4794],[103.895,29.49],[103.886,29.4924],[103.8706,29.5246],[103.858,29.5176],[103.8419,29.5234],[103.793,29.4983],[103.7773,29.4957],[103.7453,29.5135],[103.7267,29.5054],[103.7162,29.4776],[103.6794,29.472]]]},"properties":{"region_code":"CN-51-5111-511112","parent_region_code":"CN-51-5111","name":"五通桥区","level":"county","has_children":false,"full_path":"中国 / 四川省 / 乐山市 / 五通桥区","source_admin_code":"511112","osm_relation_id":2789891}},
{"type":"Feature","geometry":{"type":"Polygon","coordinates":[[[103.178,29.4329],[103.1639,29.4281],[103.1411,29.4324],[103.1313,29.4408],[103.0966,29.4323],[103.0743,29.4309],[103.048,29.4484],[103.0177,29.4519],[102.9926,29.4232],[102.9782,29.4192],[102.9744,29.3988],[102.9944,29.3832],[102.9967,29.3685],[102.9794,29.3483],[102.983,29.325],[103.0014,29.2899],[103.0149,29.2924],[103.0297,29.2813],[103.0204,29.2626],[103.0022,29.2529],[102.9612,29.2577],[102.9714,29.2246],[102.9612,29.1975],[102.9371,29.1948],[102.9404,29.1647],[102.9285,29.1513],[102.9257,29.1324],[102.9383,29.1041],[102.9679,29.0818],[102.973,29.0727],[102.9911,29.0755],[103.0056,29.104],[103.0054,29.1173],[103.0191,29.1224],[103.0411,29.1416],[103.0465,29.1703],[103.0772,29.1897],[103.1166,29.225],[103.1271,29.2401],[103.1234,29.2838],[103.1393,29.2885],[103.18,29.2644],[103.192,29.2475],[103.2104,29.2356],[103.2312,29.2784],[103.225,29.2966],[103.2023,29.309],[103.198,29.3191],[103.1883,29.3247],[103.1868,29.3504],[103.1753,29.3784],[103.1912,29.403],[103.1914,29.4143],[103.178,29.4329]]]},"properties":{"region_code":"CN-51-5111-511113","parent_region_code":"CN-51-5111","name":"金口河区","level":"county","has_children":false,"full_path":"中国 / 四川省 / 乐山市 / 金口河区","source_admin_code":"511113","osm_relation_id":2789885}},
{"type":"Feature","geometry":{"type":"Polygon","coordinates":[[[103.7155,29.2507],[103.7401,29.265],[103.7683,29.2548],[103.7527,29.2321],[103.7522,29.2192],[103.736,29.2038],[103.7632,29.1808],[103.7529,29.1497],[103.8073,29.1305],[103.8128,29.1061],[103.8286,29.0951],[103.8512,29.1008],[103.8818,29.1004],[103.8949,29.0785],[103.8805,29.06],[103.8915,29.0502],[103.9921,29.0452],[104.0293,29.0364],[104.0548,29.0505],[104.0895,29.05],[104.1024,29.0278],[104.1289,29.0225],[104.1475,29.0559],[104.1397,29.0735],[104.149,29.0997],[104.1619,29.1098],[104.1599,29.1211],[104.1729,29.129],[104.171,29.1576],[104.1824,29.1639],[104.1831,29.1779],[104.1483,29.1969],[104.1437,29.2143],[104.1485,29.2308],[104.1453,29.2535],[104.1297,29.2577],[104.1159,29.2392],[104.1072,29.2446],[104.114,29.2667],[104.1442,29.2891],[104.1329,29.3001],[104.1369,29.3101],[104.0892,29.318],[104.0741,29.3263],[104.0809,29.3425],[104.1074,29.3397],[104.158,29.3424],[104.153,29.3554],[104.1605,29.3673],[104.1584,29.3826],[104.1387,29.3772],[104.1326,29.4017],[104.1018,29.3889],[104.0881,29.3893],[104.0886,29.4145],[104.1039,29.4234],[104.0885,29.4421],[104.0561,29.4274],[104.0504,29.46],[104.0132,29.4514],[103.9921,29.4607],[103.942,29.4501],[103.934,29.4222],[103.9477,29.4141],[103.939,29.4006],[103.9216,29.4066],[103.9038,29.3916],[103.9187,29.3763],[103.9058,29.3567],[103.9196,29.3341],[103.9142,29.323],[103.8832,29.3205],[103.8824,29.296],[103.8711,29.2946],[103.8554,29.3128],[103.8439,29.3358],[103.8084,29.3213],[103.7978,29.3288],[103.762,29.3196],[103.7536,29.3277],[103.7386,29.3156],[103.6957,29.2953],[103.7155,29.2507]]]},"properties":{"region_code":"CN-51-5111-511123","parent_region_code":"CN-51-5111","name":"犍为县","level":"county","has_children":false,"full_path":"中国 / 四川省 / 乐山市 / 犍为县","source_admin_code":"511123","osm_relation_id":2789888}},
{"type":"Feature","geometry":{"type":"Polygon","coordinates":[[[103.895,29.49],[103.8769,29.4794],[103.9083,29.4602],[103.9288,29.4652],[103.942,29.4501],[103.9921,29.4607],[104.0132,29.4514],[104.0504,29.46],[104.0524,29.4699],[104.0748,29.4742],[104.0828,29.4654],[104.1241,29.5008],[104.1457,29.4764],[104.1587,29.4821],[104.1638,29.4973],[104.1534,29.5184],[104.1318,29.5297],[104.1554,29.5413],[104.1652,29.5613],[104.1576,29.5744],[104.1435,29.5794],[104.1442,29.5969],[104.1658,29.6005],[104.1661,29.6111],[104.1852,29.6321],[104.202,29.6174],[104.2218,29.6163],[104.2463,29.624],[104.2362,29.6342],[104.2408,29.6516],[104.2153,29.6706],[104.2013,29.6683],[104.1949,29.6868],[104.1851,29.6889],[104.1888,29.7093],[104.155,29.7189],[104.1504,29.7099],[104.1236,29.72],[104.1144,29.736],[104.0979,29.7476],[104.0869,29.7462],[104.0601,29.7804],[104.0693,29.7865],[104.0862,29.8161],[104.0724,29.8279],[104.0466,29.8337],[104.055,29.8598],[104.0267,29.876],[104.0013,29.8727],[103.9807,29.853],[103.9656,29.8593],[103.9392,29.8334],[103.9264,29.8294],[103.9322,29.809],[103.9207,29.7938],[103.9014,29.7866],[103.8959,29.7503],[103.9361,29.7522],[103.9482,29.7339],[103.9866,29.7221],[103.9755,29.7046],[103.9697,29.631],[103.9822,29.6151],[103.9565,29.5976],[103.9622,29.5815],[103.9585,29.5613],[103.9171,29.5233],[103.895,29.49]]]},"properties":{"region_code":"CN-51-5111-511124","parent_region_code":"CN-51-5111","name":"井研县","level":"county","has_children":false,"full_path":"中国 / 四川省 / 乐山市 / 井研县","source_admin_code":"511124","osm_relation_id":2789884}},
{"type":"Feature","geometry":{"type":"Polygon","coordinates":[[[103.7171,29.7191],[103.7038,29.7166],[103.7035,29.74],[103.686,29.7621],[103.7012,29.7743],[103.7434,29.79],[103.7389,29.8138],[103.7266,29.8188],[103.7307,29.837],[103.7214,29.8613],[103.7055,29.8836],[103.6955,29.8847],[103.6763,29.9112],[103.674,29.9232],[103.6506,29.9311],[103.6388,29.9206],[103.618,29.9202],[103.5913,29.9131],[103.5737,29.8924],[103.5827,29.8837],[103.5548,29.8709],[103.5376,29.877],[103.5325,29.8521],[103.5137,29.8464],[103.5015,29.8271],[103.4836,29.8174],[103.4622,29.8242],[103.4306,29.8231],[103.4282,29.7904],[103.4156,29.7766],[103.4002,29.7919],[103.3945,29.8074],[103.3784,29.7952],[103.3569,29.802],[103.3306,29.7954],[103.3136,29.7744],[103.3079,29.7552],[103.3154,29.7477],[103.2974,29.7302],[103.3022,29.7091],[103.294,29.6971],[103.3069,29.6792],[103.3197,29.6857],[103.3408,29.678],[103.3758,29.6725],[103.391,29.6708],[103.4164,29.6971],[103.422,29.7117],[103.4605,29.7243],[103.4904,29.7229],[103.5133,29.7087],[103.5264,29.6899],[103.5938,29.6494],[103.6119,29.6335],[103.6268,29.6548],[103.6444,29.6576],[103.6688,29.6538],[103.7026,29.6752],[103.695,29.6968],[103.718,29.7099],[103.7171,29.7191]]]},"properties":{"region_code":"CN-51-5111-511126","parent_region_code":"CN-51-5111","name":"夹江县","level":"county","has_children":false,"full_path":"中国 / 四川省 / 乐山市 / 夹江县","source_admin_code":"511126","osm_relation_id":2789883}},
{"type":"Feature","geometry":{"type":"Polygon","coordinates":[[[103.5674,29.2187],[103.5574,29.2034],[103.5559,29.1846],[103.5468,29.1609],[103.5592,29.1435],[103.5749,29.144],[103.5851,29.1351],[103.5804,29.1094],[103.5846,29.0869],[103.5597,29.061],[103.5608,29.0418],[103.5772,29.0422],[103.5976,29.0535],[103.5989,29.0262],[103.6424,29.0073],[103.6445,28.9816],[103.6651,28.972],[103.6665,28.9416],[103.6466,28.9116],[103.6476,28.8886],[103.6401,28.8836],[103.6379,28.8619],[103.7102,28.8598],[103.7613,28.8873],[103.7871,28.9053],[103.8023,28.9051],[103.8271,28.8483],[103.8491,28.8347],[103.8644,28.8184],[103.9018,28.7907],[103.9139,28.7778],[103.9345,28.767],[103.9497,28.7725],[103.9533,28.7887],[103.9895,28.7977],[103.9881,28.8275],[103.9982,28.8407],[104.0003,28.8569],[104.0196,28.8489],[104.0319,28.859],[104.0286,28.8884],[104.0636,28.9023],[104.0788,28.916],[104.0634,28.9713],[104.0982,28.9551],[104.1195,28.9643],[104.1197,29.0008],[104.1289,29.0225],[104.1024,29.0278],[104.0895,29.05],[104.0548,29.0505],[104.0293,29.0364],[103.9921,29.0452],[103.8915,29.0502],[103.8805,29.06],[103.8949,29.0785],[103.8818,29.1004],[103.8512,29.1008],[103.8286,29.0951],[103.8128,29.1061],[103.8073,29.1305],[103.7529,29.1497],[103.7632,29.1808],[103.736,29.2038],[103.7522,29.2192],[103.7527,29.2321],[103.7683,29.2548],[103.7401,29.265],[103.7155,29.2507],[103.6766,29.2355],[103.6762,29.2205],[103.6629,29.1942],[103.65,29.1896],[103.5979,29.1931],[103.5674,29.2187]]]},"properties":{"region_code":"CN-51-5111-511129","parent_region_code":"CN-51-5111","name":"沐川县","level":"county","has_children":false,"full_path":"中国 / 四川省 / 乐山市 / 沐川县","source_admin_code":"511129","osm_relation_id":2789887}},
{"type":"Feature","geometry":{"type":"Polygon","coordinates":[[[103.4371,29.2904],[103.4141,29.2911],[103.406,29.3011],[103.3753,29.3115],[103.3604,29.3015],[103.3513,29.284],[103.3325,29.2784],[103.3326,29.3157],[103.3045,29.3259],[103.2804,29.3165],[103.2724,29.3295],[103.233,29.3321],[103.2043,29.327],[103.198,29.3191],[103.2023,29.309],[103.225,29.2966],[103.2312,29.2784],[103.2104,29.2356],[103.192,29.2475],[103.18,29.2644],[103.1393,29.2885],[103.1234,29.2838],[103.1271,29.2401],[103.1166,29.225],[103.0772,29.1897],[103.0465,29.1703],[103.0411,29.1416],[103.0191,29.1224],[103.0054,29.1173],[103.0056,29.104],[102.9911,29.0755],[102.973,29.0727],[102.9399,29.0438],[102.9206,29.0412],[102.9069,29.0325],[102.9048,29.0176],[102.9408,28.9474],[102.9446,28.9234],[102.9265,28.8997],[102.9393,28.8589],[102.9211,28.8123],[102.9237,28.7946],[102.9363,28.7753],[102.935,28.7487],[102.9623,28.6879],[102.9739,28.6784],[102.9929,28.682],[103.0328,28.6668],[103.06,28.675],[103.0748,28.7101],[103.0674,28.7438],[103.0815,28.7575],[103.1036,28.7642],[103.1105,28.7728],[103.1054,28.7905],[103.1093,28.8136],[103.1297,28.828],[103.1517,28.8327],[103.1956,28.8262],[103.2046,28.8151],[103.224,28.8083],[103.2373,28.8153],[103.2323,28.8367],[103.2362,28.848],[103.2302,28.8679],[103.2458,28.8709],[103.2629,28.8879],[103.2664,28.8995],[103.2476,28.9134],[103.2434,28.9374],[103.2557,28.9687],[103.2747,28.9812],[103.2778,28.9945],[103.3152,28.9878],[103.3509,29.0082],[103.3636,29.0306],[103.3775,29.0373],[103.3937,29.0297],[103.4063,29.0465],[103.4311,29.0541],[103.4472,29.0676],[103.4755,29.0681],[103.4981,29.0612],[103.5224,29.071],[103.5597,29.061],[103.5846,29.0869],[103.5804,29.1094],[103.5851,29.1351],[103.5749,29.144],[103.5592,29.1435],[103.5468,29.1609],[103.5559,29.1846],[103.5574,29.2034],[103.5674,29.2187],[103.553,29.2365],[103.5524,29.2507],[103.5367,29.2653],[103.5244,29.256],[103.5016,29.2604],[103.4711,29.3198],[103.4587,29.3031],[103.4371,29.2904]]]},"properties":{"region_code":"CN-51-5111-511132","parent_region_code":"CN-51-5111","name":"峨边彝族自治县","level":"county","has_children":false,"full_path":"中国 / 四川省 / 乐山市 / 峨边彝族自治县","source_admin_code":"511132","osm_relation_id":2789881}},
{"type":"Feature","geometry":{"type":"Polygon","coordinates":[[[103.5597,29.061],[103.5224,29.071],[103.4981,29.0612],[103.4755,29.0681],[103.4472,29.0676],[103.4311,29.0541],[103.4063,29.0465],[103.3937,29.0297],[103.3775,29.0373],[103.3636,29.0306],[103.3509,29.0082],[103.3152,28.9878],[103.2778,28.9945],[103.2747,28.9812],[103.2557,28.9687],[103.2434,28.9374],[103.2476,28.9134],[103.2664,28.8995],[103.2629,28.8879],[103.2458,28.8709],[103.2302,28.8679],[103.2362,28.848],[103.2323,28.8367],[103.2373,28.8153],[103.282,28.8058],[103.2919,28.7917],[103.2925,28.7666],[103.3127,28.761],[103.3336,28.7451],[103.3347,28.7237],[103.314,28.7066],[103.3046,28.6855],[103.2786,28.6493],[103.2783,28.613],[103.2649,28.6148],[103.243,28.595],[103.2482,28.5786],[103.2398,28.5575],[103.2527,28.5445],[103.2862,28.5363],[103.2991,28.5249],[103.3103,28.4912],[103.336,28.4505],[103.3544,28.4432],[103.3688,28.4242],[103.3857,28.4241],[103.4201,28.4528],[103.4412,28.4968],[103.4193,28.5148],[103.4404,28.5466],[103.4978,28.559],[103.5157,28.5719],[103.5298,28.6025],[103.529,28.6155],[103.5638,28.6105],[103.5831,28.6182],[103.6029,28.6083],[103.6201,28.6222],[103.6854,28.6398],[103.7008,28.6685],[103.7183,28.6838],[103.7054,28.7022],[103.7221,28.713],[103.7131,28.7429],[103.6992,28.7488],[103.7081,28.7617],[103.7438,28.7683],[103.7564,28.784],[103.7654,28.8068],[103.7586,28.8188],[103.7704,28.8294],[103.786,28.8251],[103.8006,28.8395],[103.8271,28.8483],[103.8023,28.9051],[103.7871,28.9053],[103.7613,28.8873],[103.7102,28.8598],[103.6379,28.8619],[103.6401,28.8836],[103.6476,28.8886],[103.6466,28.9116],[103.6665,28.9416],[103.6651,28.972],[103.6445,28.9816],[103.6424,29.0073],[103.5989,29.0262],[103.5976,29.0535],[103.5772,29.0422],[103.5608,29.0418],[103.5597,29.061]]]},"properties":{"region_code":"CN-51-5111-511133","parent_region_code":"CN-51-5111","name":"马边彝族自治县","level":"county","has_children":false,"full_path":"中国 / 四川省 / 乐山市 / 马边彝族自治县","source_admin_code":"511133","osm_relation_id":2789886}},
{"type":"Feature","geometry":{"type":"Polygon","coordinates":[[[103.6119,29.6335],[103.5938,29.6494],[103.5264,29.6899],[103.5133,29.7087],[103.4904,29.7229],[103.4605,29.7243],[103.422,29.7117],[103.4164,29.6971],[103.391,29.6708],[103.3758,29.6725],[103.335,29.6543],[103.3366,29.6369],[103.3228,29.6221],[103.3001,29.6113],[103.2968,29.6026],[103.2749,29.6051],[103.2688,29.5765],[103.2544,29.5596],[103.267,29.5374],[103.2577,29.5158],[103.2873,29.5119],[103.2757,29.4884],[103.2569,29.4813],[103.2025,29.4866],[103.1845,29.477],[103.178,29.4329],[103.1914,29.4143],[103.1912,29.403],[103.1753,29.3784],[103.1868,29.3504],[103.1883,29.3247],[103.198,29.3191],[103.2043,29.327],[103.233,29.3321],[103.2724,29.3295],[103.2804,29.3165],[103.3045,29.3259],[103.3326,29.3157],[103.3325,29.2784],[103.3513,29.284],[103.3604,29.3015],[103.3753,29.3115],[103.406,29.3011],[103.4141,29.2911],[103.4371,29.2904],[103.4265,29.3155],[103.4306,29.3244],[103.4234,29.3572],[103.4397,29.3787],[103.4644,29.3803],[103.4688,29.3978],[103.4859,29.4122],[103.4877,29.4239],[103.5066,29.4261],[103.524,29.4506],[103.5585,29.4745],[103.5472,29.532],[103.5684,29.536],[103.5818,29.5544],[103.572,29.5647],[103.5981,29.5781],[103.6184,29.6217],[103.6119,29.6335]]]},"properties":{"region_code":"CN-51-5111-511181","parent_region_code":"CN-51-5111","name":"峨眉山市","level":"county","has_children":false,"full_path":"中国 / 四川省 / 乐山市 / 峨眉山市","source_admin_code":"511181","osm_relation_id":2789882}}
]}