{"type":"FeatureCollection", "features": [
{"type":"Feature","geometry":{"type":"Polygon","coordinates":[[[101.4458,31.935],[101.4738,31.9483],[101.4897,31.971],[101.5665,31.9394],[101.5918,31.9337],[101.6187,31.9089],[101.6677,31.8923],[101.7134,31.8417],[101.7534,31.8497],[101.7819,31.8388],[101.8098,31.8473],[101.846,31.8413],[101.8668,31.8127],[101.9442,31.7865],[101.984,31.7643],[102.0358,31.6931],[102.0233,31.6684],[102.0375,31.6447],[102.0994,31.635],[102.1466,31.6518],[102.2035,31.661],[102.2224,31.6802],[102.2822,31.6889],[102.328,31.7161],[102.3575,31.6895],[102.3695,31.6979],[102.4129,31.6738],[102.431,31.6545],[102.4674,31.6622],[102.4868,31.6068],[102.5346,31.6196],[102.5423,31.5904],[102.5766,31.5959],[102.6028,31.6098],[102.6071,31.6466],[102.6371,31.6743],[102.6379,31.7312],[102.651,31.7605],[102.6356,31.8008],[102.6733,31.8526],[102.6713,31.8796],[102.6569,31.9053],[102.6395,31.9614],[102.6004,31.9541],[102.5823,31.9379],[102.5407,31.991],[102.5098,32.0122],[102.4621,32.0235],[102.484,32.0487],[102.4814,32.0904],[102.4683,32.1083],[102.4042,32.1384],[102.3518,32.1746],[102.3617,32.2134],[102.3409,32.2334],[102.2991,32.2321],[102.2805,32.252],[102.2595,32.2495],[102.2526,32.3014],[102.1847,32.3158],[102.1461,32.3014],[102.1035,32.3176],[102.0848,32.3459],[102.0217,32.3479],[101.9703,32.3612],[101.966,32.3155],[101.9546,32.2837],[101.9111,32.2893],[101.8938,32.3067],[101.8686,32.2976],[101.8519,32.3329],[101.7911,32.3678],[101.775,32.3581],[101.7515,32.3732],[101.7304,32.3677],[101.7302,32.3451],[101.7104,32.312],[101.6842,32.3506],[101.6219,32.3518],[101.5776,32.3695],[101.5556,32.3916],[101.5173,32.4081],[101.4642,32.3764],[101.4462,32.3898],[101.4144,32.3713],[101.4205,32.3526],[101.4659,32.3408],[101.4838,32.3109],[101.466,32.2537],[101.4427,32.2478],[101.417,32.2033],[101.3997,32.1905],[101.3718,32.1356],[101.3461,32.125],[101.323,32.0816],[101.2997,32.0686],[101.2846,32.0344],[101.282,32.0037],[101.3282,32.0115],[101.3498,31.9813],[101.385,31.9878],[101.3835,31.9611],[101.4002,31.9456],[101.436,31.9491],[101.4458,31.935]]]},"properties":{"region_code":"CN-51-5132-513201","parent_region_code":"CN-51-5132","name":"马尔康市","level":"county","has_children":false,"full_path":"中国 / 四川省 / 阿坝藏族羌族自治州 / 马尔康市","source_admin_code":"513201","osm_relation_id":2785344}},
{"type":"Feature","geometry":{"type":"Polygon","coordinates":[[[103.7441,31.4176],[103.689,31.4716],[103.6825,31.5106],[103.6544,31.5127],[103.6296,31.5267],[103.6073,31.5864],[103.6372,31.6236],[103.6465,31.6503],[103.6402,31.6692],[103.6029,31.6705],[103.596,31.6902],[103.5672,31.7093],[103.512,31.7179],[103.475,31.6971],[103.4821,31.6688],[103.5048,31.6568],[103.481,31.5826],[103.506,31.56],[103.479,31.4952],[103.4003,31.4522],[103.3681,31.4128],[103.2909,31.4104],[103.2425,31.3696],[103.2064,31.3708],[103.1865,31.3257],[103.153,31.3023],[103.1233,31.2962],[103.074,31.2671],[103.0564,31.2721],[103.0039,31.3242],[102.9835,31.2862],[102.9612,31.2623],[102.9113,31.2331],[102.8933,31.1993],[102.914,31.1409],[102.9036,31.106],[102.9132,31.0926],[102.9672,31.1045],[102.9536,31.0225],[102.9173,31.0009],[102.9201,30.9672],[102.9076,30.9618],[102.8928,30.9048],[102.8747,30.8225],[102.8623,30.8086],[102.8812,30.7686],[102.9138,30.7608],[102.9488,30.7684],[103.0372,30.8056],[103.0772,30.818],[103.1198,30.794],[103.1728,30.8504],[103.2319,30.8359],[103.2539,30.8434],[103.3045,30.8136],[103.3385,30.8314],[103.3469,30.8469],[103.3814,30.8658],[103.4095,30.8678],[103.45,30.8967],[103.4567,30.9373],[103.5164,30.9767],[103.5175,31.0291],[103.5084,31.0391],[103.5222,31.1021],[103.555,31.1521],[103.5613,31.1762],[103.5814,31.1969],[103.5738,31.2184],[103.5795,31.2487],[103.5674,31.2628],[103.572,31.3],[103.5664,31.3327],[103.6026,31.3534],[103.6262,31.3467],[103.6689,31.358],[103.6976,31.3925],[103.741,31.4029],[103.7441,31.4176]]]},"properties":{"region_code":"CN-51-5132-513221","parent_region_code":"CN-51-5132","name":"汶川县","level":"county","has_children":false,"full_path":"中国 / 四川省 / 阿坝藏族羌族自治州 / 汶川县","source_admin_code":"513221","osm_relation_id":2110260}},
{"type":"Feature","geometry":{"type":"Polygon","coordinates":[[[102.6028,31.6098],[102.6004,31.5942],[102.6205,31.5587],[102.642,31.5783],[102.6715,31.5213],[102.6863,31.5049],[102.6766,31.471],[102.6823,31.4112],[102.692,31.3767],[102.7588,31.3155],[102.75,31.2739],[102.8123,31.2601],[102.8213,31.2415],[102.8077,31.2159],[102.8312,31.2042],[102.8933,31.1993],[102.9113,31.2331],[102.9612,31.2623],[102.9835,31.2862],[103.0039,31.3242],[103.0564,31.2721],[103.074,31.2671],[103.1233,31.2962],[103.153,31.3023],[103.1865,31.3257],[103.2064,31.3708],[103.2425,31.3696],[103.2909,31.4104],[103.3681,31.4128],[103.4003,31.4522],[103.479,31.4952],[103.506,31.56],[103.481,31.5826],[103.5048,31.6568],[103.4821,31.6688],[103.475,31.6971],[103.4448,31.7243],[103.4385,31.7499],[103.407,31.7494],[103.3673,31.7668],[103.3231,31.7467],[103.2803,31.767],[103.2429,31.7534],[103.1649,31.7712],[103.1442,31.8129],[103.1183,31.8042],[103.0595,31.8109],[103.0293,31.8292],[103.0307,31.8566],[102.9982,31.857],[102.9394,31.8773],[102.8948,31.8777],[102.8747,31.902],[102.8479,31.9124],[102.834,31.9],[102.7723,31.9106],[102.7494,31.8935],[102.6829,31.8845],[102.6733,31.8526],[102.6356,31.8008],[102.651,31.7605],[102.6379,31.7312],[102.6371,31.6743],[102.6071,31.6466],[102.6028,31.6098]]]},"properties":{"region_code":"CN-51-5132-513222","parent_region_code":"CN-51-5132","name":"理县","level":"county","has_children":false,"full_path":"中国 / 四川省 / 阿坝藏族羌族自治州 / 理县","source_admin_code":"513222","osm_relation_id":2110258}},
{"type":"Feature","geometry":{"type":"Polygon","coordinates":[[[103.7441,31.4176],[103.7797,31.4345],[103.8006,31.4317],[103.7941,31.4773],[103.8435,31.5187],[103.8505,31.5443],[103.8957,31.5148],[103.9166,31.5378],[103.9059,31.5667],[103.9221,31.6046],[103.9259,31.6417],[103.9554,31.6549],[103.9892,31.6862],[104.0152,31.6804],[104.0393,31.6992],[104.0803,31.6915],[104.141,31.7159],[104.1715,31.7355],[104.173,31.7686],[104.1523,31.8185],[104.1253,31.8313],[104.0788,31.8401],[104.0566,31.8318],[104.0425,31.8522],[104.0128,31.8635],[103.9713,31.8619],[103.9543,31.8839],[103.9559,31.9061],[103.9181,31.9456],[103.8739,31.9203],[103.8405,31.9241],[103.8196,31.941],[103.7489,31.9561],[103.7568,32.0021],[103.7909,32.0472],[103.8223,32.0705],[103.8121,32.1126],[103.7756,32.1417],[103.7195,32.1461],[103.6753,32.1617],[103.6604,32.2133],[103.6429,32.2402],[103.5975,32.2354],[103.5523,32.243],[103.5242,32.2327],[103.4984,32.258],[103.4726,32.2644],[103.4335,32.2311],[103.4277,32.213],[103.3983,32.1884],[103.3732,32.1838],[103.3898,32.1606],[103.4437,32.1074],[103.4903,32.0303],[103.5006,31.989],[103.4711,31.9376],[103.4843,31.9254],[103.4789,31.8978],[103.4455,31.9005],[103.4134,31.891],[103.3506,31.8919],[103.3386,31.9024],[103.2972,31.888],[103.261,31.9172],[103.2412,31.9153],[103.2179,31.9348],[103.1962,31.9294],[103.1681,31.9419],[103.1351,31.9717],[103.1172,31.9616],[103.0583,31.959],[102.9923,31.9228],[102.9739,31.9279],[102.9394,31.8773],[102.9982,31.857],[103.0307,31.8566],[103.0293,31.8292],[103.0595,31.8109],[103.1183,31.8042],[103.1442,31.8129],[103.1649,31.7712],[103.2429,31.7534],[103.2803,31.767],[103.3231,31.7467],[103.3673,31.7668],[103.407,31.7494],[103.4385,31.7499],[103.4448,31.7243],[103.475,31.6971],[103.512,31.7179],[103.5672,31.7093],[103.596,31.6902],[103.6029,31.6705],[103.6402,31.6692],[103.6465,31.6503],[103.6372,31.6236],[103.6073,31.5864],[103.6296,31.5267],[103.6544,31.5127],[103.6825,31.5106],[103.689,31.4716],[103.7441,31.4176]]]},"properties":{"region_code":"CN-51-5132-513223","parent_region_code":"CN-51-5132","name":"茂县","level":"county","has_children":false,"full_path":"中国 / 四川省 / 阿坝藏族羌族自治州 / 茂县","source_admin_code":"513223","osm_relation_id":2139336}},
{"type":"Feature","geometry":{"type":"Polygon","coordinates":[[[103.8121,32.1126],[103.8256,32.134],[103.8557,32.1304],[103.849,32.1643],[103.9184,32.1453],[103.9718,32.1434],[103.9907,32.122],[104.0489,32.1336],[104.0743,32.1281],[104.1508,32.1556],[104.1608,32.1852],[104.2267,32.2194],[104.2547,32.2181],[104.2458,32.2495],[104.218,32.2697],[104.21,32.3004],[104.1758,32.3117],[104.1563,32.2485],[104.1119,32.221],[104.0754,32.2287],[104.0191,32.2702],[103.9788,32.3085],[103.9565,32.3074],[103.904,32.3311],[103.8896,32.3823],[103.9127,32.4359],[103.9033,32.472],[103.9045,32.5134],[103.8433,32.587],[103.8498,32.6128],[103.9078,32.6445],[103.9196,32.6374],[104.0115,32.6427],[104.0361,32.6543],[104.0686,32.6238],[104.0722,32.5926],[104.1099,32.544],[104.1305,32.5307],[104.1267,32.4915],[104.1354,32.472],[104.1723,32.5308],[104.1661,32.5827],[104.1762,32.607],[104.1807,32.6681],[104.1718,32.6885],[104.1285,32.7327],[104.1455,32.7591],[104.1393,32.7804],[104.1043,32.8039],[104.1025,32.8461],[104.0699,32.8489],[104.0003,32.8163],[103.9684,32.8413],[103.9929,32.8612],[103.9901,32.8761],[103.9537,32.8916],[103.9523,32.9093],[103.9212,32.9228],[103.8964,32.9058],[103.8785,32.9441],[103.8557,32.9513],[103.836,32.9728],[103.8197,33.0118],[103.8006,33.0249],[103.8009,33.0469],[103.718,33.0429],[103.6699,33.0631],[103.6632,33.1152],[103.6203,33.1414],[103.5846,33.1292],[103.5674,33.1528],[103.515,33.1178],[103.4924,33.1374],[103.467,33.1226],[103.4465,33.0932],[103.4013,33.0882],[103.3664,33.0247],[103.342,33.0183],[103.3219,32.9929],[103.3047,32.9442],[103.2997,32.8899],[103.27,32.861],[103.1975,32.8249],[103.1439,32.8633],[103.133,32.8835],[103.0937,32.9138],[103.049,32.8902],[103.0366,32.8675],[103.0118,32.8605],[102.9697,32.8647],[102.9509,32.8051],[102.9648,32.7866],[102.9538,32.7215],[102.9293,32.6966],[102.8745,32.6944],[102.8592,32.6728],[102.829,32.661],[102.8166,32.6375],[102.8311,32.5841],[102.811,32.5605],[102.7794,32.507],[102.7914,32.4784],[102.7266,32.4572],[102.7116,32.4289],[102.6687,32.3998],[102.647,32.3452],[102.662,32.3119],[102.7141,32.3457],[102.7349,32.3712],[102.8049,32.4047],[102.8354,32.4247],[102.857,32.4022],[102.8818,32.4053],[102.9243,32.3868],[102.988,32.4281],[103.0363,32.436],[103.0609,32.4099],[103.0936,32.4146],[103.112,32.4019],[103.1307,32.416],[103.1771,32.4169],[103.1824,32.4372],[103.2181,32.4694],[103.2266,32.5144],[103.2482,32.5391],[103.256,32.6096],[103.2779,32.5938],[103.2902,32.5564],[103.3181,32.5279],[103.3117,32.5044],[103.3257,32.4567],[103.3483,32.4415],[103.3485,32.414],[103.3804,32.3619],[103.376,32.3373],[103.3833,32.295],[103.3757,32.2655],[103.344,32.2278],[103.3732,32.1838],[103.3983,32.1884],[103.4277,32.213],[103.4335,32.2311],[103.4726,32.2644],[103.4984,32.258],[103.5242,32.2327],[103.5523,32.243],[103.5975,32.2354],[103.6429,32.2402],[103.6604,32.2133],[103.6753,32.1617],[103.7195,32.1461],[103.7756,32.1417],[103.8121,32.1126]]]},"properties":{"region_code":"CN-51-5132-513224","parent_region_code":"CN-51-5132","name":"松潘县","level":"county","has_children":false,"full_path":"中国 / 四川省 / 阿坝藏族羌族自治州 / 松潘县","source_admin_code":"513224","osm_relation_id":2785348}},
{"type":"Feature","geometry":{"type":"Polygon","coordinates":[[[103.9523,32.9093],[103.9871,33.0386],[104.0012,33.0444],[104.0494,33.0149],[104.105,33.0031],[104.164,32.9541],[104.1896,32.9208],[104.2451,32.8799],[104.2749,32.8933],[104.2832,32.9391],[104.3028,32.9537],[104.3413,32.9429],[104.3712,32.9524],[104.3808,32.9962],[104.4168,33.0104],[104.4126,33.0339],[104.3635,33.0308],[104.3323,33.0468],[104.3574,33.0725],[104.3569,33.101],[104.3741,33.1099],[104.355,33.1468],[104.349,33.1765],[104.3212,33.2265],[104.3267,33.2531],[104.3092,33.3074],[104.3831,33.3011],[104.4109,33.3285],[104.3956,33.3433],[104.3557,33.347],[104.3305,33.331],[104.2935,33.333],[104.2682,33.3948],[104.2426,33.4096],[104.2206,33.4055],[104.2154,33.4441],[104.1775,33.478],[104.1527,33.5442],[104.1788,33.5793],[104.1672,33.6135],[104.1137,33.6585],[104.0463,33.6877],[103.9718,33.676],[103.9279,33.6842],[103.8204,33.681],[103.7669,33.6586],[103.6871,33.6936],[103.6656,33.6859],[103.646,33.7122],[103.5828,33.7158],[103.5607,33.701],[103.5488,33.6732],[103.5264,33.6778],[103.4997,33.6395],[103.5015,33.6277],[103.476,33.5934],[103.5217,33.5561],[103.5308,33.5332],[103.5597,33.5236],[103.5972,33.5423],[103.6292,33.5439],[103.6333,33.5155],[103.619,33.503],[103.6073,33.4614],[103.5678,33.4466],[103.568,33.4324],[103.5375,33.4101],[103.5062,33.3471],[103.5182,33.3365],[103.5129,33.2936],[103.4994,33.2804],[103.5003,33.2455],[103.4666,33.2452],[103.4572,33.2265],[103.4645,33.1725],[103.4849,33.163],[103.4924,33.1374],[103.515,33.1178],[103.5674,33.1528],[103.5846,33.1292],[103.6203,33.1414],[103.6632,33.1152],[103.6699,33.0631],[103.718,33.0429],[103.8009,33.0469],[103.8006,33.0249],[103.8197,33.0118],[103.836,32.9728],[103.8557,32.9513],[103.8785,32.9441],[103.8964,32.9058],[103.9212,32.9228],[103.9523,32.9093]]]},"properties":{"region_code":"CN-51-5132-513225","parent_region_code":"CN-51-5132","name":"九寨沟县","level":"county","has_children":false,"full_path":"中国 / 四川省 / 阿坝藏族羌族自治州 / 九寨沟县","source_admin_code":"513225","osm_relation_id":2111958}},
{"type":"Feature","geometry":{"type":"Polygon","coordinates":[[[101.4458,31.935],[101.4562,31.8866],[101.4035,31.8905],[101.3969,31.8473],[101.4366,31.8307],[101.4497,31.8081],[101.4506,31.7773],[101.4756,31.7593],[101.4263,31.7044],[101.3541,31.6368],[101.3189,31.6232],[101.2198,31.5366],[101.2369,31.5231],[101.2565,31.4867],[101.2617,31.4469],[101.2409,31.3983],[101.2965,31.3624],[101.3171,31.3815],[101.3539,31.374],[101.3855,31.4013],[101.4028,31.4011],[101.4077,31.4336],[101.4481,31.4369],[101.463,31.4132],[101.4535,31.391],[101.4272,31.3732],[101.4236,31.3479],[101.4357,31.3103],[101.4513,31.2972],[101.4806,31.3711],[101.544,31.3819],[101.5759,31.3544],[101.6099,31.3862],[101.6484,31.3836],[101.6829,31.3562],[101.6879,31.3331],[101.7161,31.2928],[101.7488,31.3041],[101.7694,31.2794],[101.8309,31.2864],[101.8582,31.2682],[101.8643,31.2321],[101.8571,31.2131],[101.8791,31.189],[101.8844,31.1631],[101.906,31.1494],[101.9251,31.1681],[101.9762,31.1776],[101.9845,31.158],[102.0137,31.1474],[102.0294,31.0775],[102.0742,31.0829],[102.1291,31.1312],[102.1635,31.1361],[102.1914,31.1478],[102.2126,31.1402],[102.2552,31.1553],[102.2526,31.2085],[102.2667,31.2738],[102.2593,31.3072],[102.2432,31.3235],[102.2543,31.342],[102.23,31.4038],[102.2629,31.443],[102.3069,31.4582],[102.3184,31.4754],[102.3122,31.5209],[102.2894,31.5277],[102.267,31.5763],[102.2799,31.5962],[102.2493,31.6246],[102.2426,31.6528],[102.2035,31.661],[102.1466,31.6518],[102.0994,31.635],[102.0375,31.6447],[102.0233,31.6684],[102.0358,31.6931],[101.984,31.7643],[101.9442,31.7865],[101.8668,31.8127],[101.846,31.8413],[101.8098,31.8473],[101.7819,31.8388],[101.7534,31.8497],[101.7134,31.8417],[101.6677,31.8923],[101.6187,31.9089],[101.5918,31.9337],[101.5665,31.9394],[101.4897,31.971],[101.4738,31.9483],[101.4458,31.935]]]},"properties":{"region_code":"CN-51-5132-513226","parent_region_code":"CN-51-5132","name":"金川县","level":"county","has_children":false,"full_path":"中国 / 四川省 / 阿坝藏族羌族自治州 / 金川县","source_admin_code":"513226","osm_relation_id":2785347}},
{"type":"Feature","geometry":{"type":"Polygon","coordinates":[[[102.2035,31.661],[102.2426,31.6528],[102.2493,31.6246],[102.2799,31.5962],[102.267,31.5763],[102.2894,31.5277],[102.3122,31.5209],[102.3184,31.4754],[102.3069,31.4582],[102.2629,31.443],[102.23,31.4038],[102.2543,31.342],[102.2432,31.3235],[102.2593,31.3072],[102.2667,31.2738],[102.2526,31.2085],[102.2552,31.1553],[102.2126,31.1402],[102.1914,31.1478],[102.1635,31.1361],[102.1616,30.9989],[102.1898,30.9612],[102.1857,30.9009],[102.1122,30.903],[102.0632,30.8776],[102.0688,30.8107],[102.0402,30.7745],[102.0531,30.7378],[102.0364,30.7082],[102.0541,30.7004],[102.0578,30.6691],[102.0963,30.6689],[102.1148,30.6391],[102.1423,30.6151],[102.1604,30.614],[102.2134,30.6441],[102.249,30.6228],[102.2709,30.637],[102.2746,30.6588],[102.3182,30.6821],[102.3471,30.7108],[102.3877,30.7165],[102.4448,30.6852],[102.4779,30.701],[102.4725,30.7436],[102.463,30.7588],[102.5056,30.8009],[102.5632,30.8225],[102.5811,30.8502],[102.6208,30.8467],[102.6848,30.8618],[102.6937,30.9138],[102.7574,30.9298],[102.8257,30.9304],[102.8585,30.9395],[102.8928,30.9048],[102.9076,30.9618],[102.9201,30.9672],[102.9173,31.0009],[102.9536,31.0225],[102.9672,31.1045],[102.9132,31.0926],[102.9036,31.106],[102.914,31.1409],[102.8933,31.1993],[102.8312,31.2042],[102.8077,31.2159],[102.8213,31.2415],[102.8123,31.2601],[102.75,31.2739],[102.7588,31.3155],[102.692,31.3767],[102.6823,31.4112],[102.6766,31.471],[102.6863,31.5049],[102.6715,31.5213],[102.642,31.5783],[102.6205,31.5587],[102.6004,31.5942],[102.6028,31.6098],[102.5766,31.5959],[102.5423,31.5904],[102.5346,31.6196],[102.4868,31.6068],[102.4674,31.6622],[102.431,31.6545],[102.4129,31.6738],[102.3695,31.6979],[102.3575,31.6895],[102.328,31.7161],[102.2822,31.6889],[102.2224,31.6802],[102.2035,31.661]]]},"properties":{"region_code":"CN-51-5132-513227","parent_region_code":"CN-51-5132","name":"小金县","level":"county","has_children":false,"full_path":"中国 / 四川省 / 阿坝藏族羌族自治州 / 小金县","source_admin_code":"513227","osm_relation_id":2116633}},
{"type":"Feature","geometry":{"type":"Polygon","coordinates":[[[102.9394,31.8773],[102.9739,31.9279],[102.9923,31.9228],[103.0583,31.959],[103.1172,31.9616],[103.1351,31.9717],[103.1681,31.9419],[103.1962,31.9294],[103.2179,31.9348],[103.2412,31.9153],[103.261,31.9172],[103.2972,31.888],[103.3386,31.9024],[103.3506,31.8919],[103.4134,31.891],[103.4455,31.9005],[103.4789,31.8978],[103.4843,31.9254],[103.4711,31.9376],[103.5006,31.989],[103.4903,32.0303],[103.4437,32.1074],[103.3898,32.1606],[103.3732,32.1838],[103.344,32.2278],[103.3757,32.2655],[103.3833,32.295],[103.376,32.3373],[103.3804,32.3619],[103.3485,32.414],[103.3483,32.4415],[103.3257,32.4567],[103.3117,32.5044],[103.3181,32.5279],[103.2902,32.5564],[103.2779,32.5938],[103.256,32.6096],[103.2482,32.5391],[103.2266,32.5144],[103.2181,32.4694],[103.1824,32.4372],[103.1771,32.4169],[103.1307,32.416],[103.112,32.4019],[103.0936,32.4146],[103.0609,32.4099],[103.0363,32.436],[102.988,32.4281],[102.9243,32.3868],[102.8818,32.4053],[102.857,32.4022],[102.8354,32.4247],[102.8049,32.4047],[102.7349,32.3712],[102.7141,32.3457],[102.662,32.3119],[102.6685,32.2946],[102.6515,32.2543],[102.6164,32.2605],[102.5943,32.2274],[102.61,32.151],[102.6713,32.0386],[102.6765,31.9782],[102.6884,31.9669],[102.6754,31.9348],[102.6829,31.8845],[102.7494,31.8935],[102.7723,31.9106],[102.834,31.9],[102.8479,31.9124],[102.8747,31.902],[102.8948,31.8777],[102.9394,31.8773]]]},"properties":{"region_code":"CN-51-5132-513228","parent_region_code":"CN-51-5132","name":"黑水县","level":"county","has_children":false,"full_path":"中国 / 四川省 / 阿坝藏族羌族自治州 / 黑水县","source_admin_code":"513228","osm_relation_id":2785345}},
{"type":"Feature","geometry":{"type":"Polygon","coordinates":[[[101.4144,32.3713],[101.3338,32.3868],[101.3107,32.4068],[101.3034,32.4611],[101.239,32.4486],[101.2052,32.4711],[101.209,32.5185],[101.2191,32.5295],[101.1763,32.5605],[101.168,32.609],[101.1564,32.6311],[101.1194,32.635],[101.1129,32.6681],[101.0747,32.6841],[101.0312,32.6624],[100.9996,32.6308],[100.9565,32.6243],[100.9309,32.6029],[100.9143,32.6192],[100.838,32.6509],[100.783,32.6418],[100.6908,32.6778],[100.7201,32.6252],[100.7094,32.6096],[100.6738,32.628],[100.6577,32.6093],[100.6654,32.5263],[100.6183,32.4969],[100.6327,32.4782],[100.615,32.4465],[100.5922,32.4291],[100.5578,32.4194],[100.5294,32.3808],[100.5303,32.3302],[100.5534,32.3062],[100.5513,32.2839],[100.5821,32.2819],[100.5794,32.2576],[100.5941,32.2358],[100.6343,32.2356],[100.6636,32.2246],[100.6841,32.1883],[100.7193,32.1861],[100.7287,32.1665],[100.69,32.1571],[100.6948,32.1353],[100.7415,32.0994],[100.7968,32.0441],[100.7846,32.0118],[100.8116,31.999],[100.8517,31.9657],[100.9512,31.9899],[100.9886,31.9809],[101.0079,31.9466],[100.9819,31.9231],[101.0024,31.8977],[100.9902,31.8667],[100.9487,31.8634],[100.9394,31.8265],[100.8694,31.7926],[100.8502,31.7674],[100.8571,31.7467],[100.8978,31.7403],[100.9344,31.7515],[100.9645,31.719],[100.9668,31.684],[101.0093,31.659],[101.025,31.6381],[101.0588,31.6328],[101.0503,31.5946],[101.0732,31.578],[101.0584,31.5509],[101.0785,31.4954],[101.1038,31.4708],[101.146,31.501],[101.2072,31.5104],[101.2198,31.5366],[101.3189,31.6232],[101.3541,31.6368],[101.4263,31.7044],[101.4756,31.7593],[101.4506,31.7773],[101.4497,31.8081],[101.4366,31.8307],[101.3969,31.8473],[101.4035,31.8905],[101.4562,31.8866],[101.4458,31.935],[101.436,31.9491],[101.4002,31.9456],[101.3835,31.9611],[101.385,31.9878],[101.3498,31.9813],[101.3282,32.0115],[101.282,32.0037],[101.2846,32.0344],[101.2997,32.0686],[101.323,32.0816],[101.3461,32.125],[101.3718,32.1356],[101.3997,32.1905],[101.417,32.2033],[101.4427,32.2478],[101.466,32.2537],[101.4838,32.3109],[101.4659,32.3408],[101.4205,32.3526],[101.4144,32.3713]]]},"properties":{"region_code":"CN-51-5132-513230","parent_region_code":"CN-51-5132","name":"壤塘县","level":"county","has_children":false,"full_path":"中国 / 四川省 / 阿坝藏族羌族自治州 / 壤塘县","source_admin_code":"513230","osm_relation_id":2785349}},
{"type":"Feature","geometry":{"type":"Polygon","coordinates":[[[101.8519,32.3329],[101.864,32.3808],[101.9174,32.4196],[101.9066,32.4297],[101.9115,32.4743],[101.9268,32.5411],[101.9555,32.5753],[101.9907,32.5551],[102.0439,32.6209],[102.0692,32.6096],[102.1037,32.5666],[102.1459,32.5547],[102.1503,32.5366],[102.2005,32.4945],[102.2055,32.5352],[102.2309,32.5448],[102.2541,32.5116],[102.2951,32.53],[102.2903,32.5485],[102.2644,32.5738],[102.2695,32.636],[102.2548,32.6592],[102.2046,32.6717],[102.1921,32.6938],[102.2119,32.7137],[102.195,32.7408],[102.1887,32.7752],[102.2688,32.7919],[102.3144,32.7872],[102.3282,32.8093],[102.3652,32.8234],[102.3945,32.848],[102.4028,32.8946],[102.4602,32.9621],[102.4622,33.003],[102.4751,33.0476],[102.4817,33.0973],[102.5232,33.143],[102.5619,33.1594],[102.5851,33.1847],[102.5271,33.2172],[102.5409,33.2316],[102.5068,33.2491],[102.4917,33.2156],[102.405,33.243],[102.3796,33.2334],[102.3348,33.2414],[102.3093,33.2741],[102.2944,33.2605],[102.2615,33.2826],[102.2227,33.2875],[102.2242,33.3056],[102.2038,33.3219],[102.2007,33.3028],[102.2159,33.2498],[102.2068,33.2268],[102.1606,33.2427],[102.1407,33.2767],[102.1144,33.2859],[102.0811,33.196],[101.9787,33.2033],[101.9332,33.1885],[101.9241,33.1605],[101.8826,33.1359],[101.8636,33.1052],[101.8245,33.1211],[101.8405,33.187],[101.8281,33.2141],[101.7688,33.2488],[101.7688,33.2706],[101.8316,33.2926],[101.8702,33.3302],[101.8857,33.3864],[101.9124,33.4069],[101.9276,33.4719],[101.9053,33.483],[101.8967,33.5178],[101.9062,33.5446],[101.888,33.575],[101.8326,33.5932],[101.8287,33.5569],[101.8075,33.548],[101.7803,33.5574],[101.7738,33.4916],[101.7571,33.4471],[101.6949,33.4363],[101.6617,33.3829],[101.6502,33.321],[101.6766,33.2991],[101.7077,33.3002],[101.7339,33.283],[101.7171,33.2232],[101.6807,33.2013],[101.6845,33.1834],[101.6615,33.1657],[101.6597,33.1384],[101.6318,33.1025],[101.6105,33.1157],[101.501,33.2102],[101.4718,33.225],[101.4301,33.2335],[101.4014,33.2271],[101.3889,33.2095],[101.3925,33.1599],[101.358,33.1828],[101.3277,33.2386],[101.2962,33.2646],[101.2439,33.2644],[101.2253,33.2735],[101.171,33.2646],[101.1693,33.2507],[101.123,33.2235],[101.1141,33.1972],[101.1291,33.171],[101.1549,33.1499],[101.1541,33.1243],[101.168,33.0991],[101.142,33.0875],[101.1449,33.0587],[101.1837,33.0437],[101.1703,33.0105],[101.183,32.9867],[101.1278,32.9916],[101.1327,32.9547],[101.1224,32.9111],[101.1753,32.8957],[101.2181,32.8648],[101.2366,32.8296],[101.2225,32.7727],[101.229,32.7545],[101.2204,32.723],[101.1941,32.6893],[101.1581,32.6619],[101.1291,32.663],[101.1194,32.635],[101.1564,32.6311],[101.168,32.609],[101.1763,32.5605],[101.2191,32.5295],[101.209,32.5185],[101.2052,32.4711],[101.239,32.4486],[101.3034,32.4611],[101.3107,32.4068],[101.3338,32.3868],[101.4144,32.3713],[101.4462,32.3898],[101.4642,32.3764],[101.5173,32.4081],[101.5556,32.3916],[101.5776,32.3695],[101.6219,32.3518],[101.6842,32.3506],[101.7104,32.312],[101.7302,32.3451],[101.7304,32.3677],[101.7515,32.3732],[101.775,32.3581],[101.7911,32.3678],[101.8519,32.3329]]]},"properties":{"region_code":"CN-51-5132-513231","parent_region_code":"CN-51-5132","name":"阿坝县","level":"county","has_children":false,"full_path":"中国 / 四川省 / 阿坝藏族羌族自治州 / 阿坝县","source_admin_code":"513231","osm_relation_id":2785343}},
{"type":"Feature","geometry":{"type":"Polygon","coordinates":[[[103.4924,33.1374],[103.4849,33.163],[103.4645,33.1725],[103.4572,33.2265],[103.4666,33.2452],[103.5003,33.2455],[103.4994,33.2804],[103.5129,33.2936],[103.5182,33.3365],[103.5062,33.3471],[103.5375,33.4101],[103.568,33.4324],[103.5678,33.4466],[103.6073,33.4614],[103.619,33.503],[103.6333,33.5155],[103.6292,33.5439],[103.5972,33.5423],[103.5597,33.5236],[103.5308,33.5332],[103.5217,33.5561],[103.476,33.5934],[103.5015,33.6277],[103.4997,33.6395],[103.5264,33.6778],[103.5269,33.7009],[103.5434,33.7211],[103.5297,33.8015],[103.5183,33.8118],[103.4741,33.8119],[103.4459,33.7847],[103.4388,33.7517],[103.3743,33.7524],[103.3346,33.7398],[103.2758,33.7756],[103.2863,33.7984],[103.2472,33.8168],[103.2248,33.7958],[103.2022,33.7949],[103.1497,33.8169],[103.1631,33.8693],[103.1841,33.904],[103.166,33.9318],[103.1431,33.9268],[103.1164,33.9557],[103.1578,34.0093],[103.1448,34.0397],[103.1211,34.0445],[103.1277,34.0691],[103.1606,34.0741],[103.1782,34.0874],[103.1222,34.1192],[103.1218,34.163],[103.0627,34.2006],[103.038,34.1864],[103.0082,34.1848],[102.9802,34.1971],[102.9839,34.2317],[102.9564,34.2685],[102.9497,34.2924],[102.915,34.3122],[102.8592,34.3041],[102.8545,34.272],[102.7973,34.2744],[102.7761,34.2372],[102.7288,34.2371],[102.6936,34.1995],[102.6586,34.192],[102.6422,34.1692],[102.6232,34.1681],[102.5986,34.1462],[102.6632,34.1128],[102.6458,34.0832],[102.6036,34.103],[102.5645,34.0896],[102.5105,34.0877],[102.473,34.0734],[102.4378,34.0875],[102.4176,34.0432],[102.4028,34.0315],[102.3904,33.972],[102.3423,33.9713],[102.3149,33.995],[102.2849,33.9795],[102.2737,33.9935],[102.2212,33.9656],[102.1656,33.9843],[102.1439,33.978],[102.1543,33.9489],[102.1887,33.9292],[102.1936,33.9149],[102.2325,33.8732],[102.2491,33.8674],[102.2666,33.839],[102.2488,33.7887],[102.3021,33.7831],[102.3213,33.7617],[102.2936,33.7408],[102.2858,33.72],[102.3325,33.7139],[102.3144,33.6766],[102.3467,33.6066],[102.3847,33.6004],[102.4045,33.5821],[102.4475,33.5705],[102.4743,33.5332],[102.4437,33.532],[102.4603,33.5036],[102.4505,33.4853],[102.4818,33.4635],[102.4631,33.4505],[102.4034,33.4282],[102.3946,33.4084],[102.3437,33.414],[102.314,33.3989],[102.3004,33.4119],[102.2701,33.4112],[102.238,33.3923],[102.2337,33.3718],[102.1854,33.3339],[102.2038,33.3219],[102.2242,33.3056],[102.2227,33.2875],[102.2615,33.2826],[102.2944,33.2605],[102.3093,33.2741],[102.3348,33.2414],[102.3796,33.2334],[102.405,33.243],[102.4917,33.2156],[102.5068,33.2491],[102.5409,33.2316],[102.5271,33.2172],[102.5851,33.1847],[102.6218,33.1863],[102.6336,33.2437],[102.66,33.2596],[102.7015,33.2578],[102.7848,33.3175],[102.8367,33.3109],[102.8688,33.3218],[102.9104,33.2968],[103.0622,33.2986],[103.0976,33.2565],[103.1597,33.2592],[103.1708,33.23],[103.1829,33.1681],[103.2545,33.1436],[103.3441,33.0894],[103.334,33.0237],[103.342,33.0183],[103.3664,33.0247],[103.4013,33.0882],[103.4465,33.0932],[103.467,33.1226],[103.4924,33.1374]]]},"properties":{"region_code":"CN-51-5132-513232","parent_region_code":"CN-51-5132","name":"若尔盖县","level":"county","has_children":false,"full_path":"中国 / 四川省 / 阿坝藏族羌族自治州 / 若尔盖县","source_admin_code":"513232","osm_relation_id":2785350}},
{"type":"Feature","geometry":{"type":"Polygon","coordinates":[[[102.6733,31.8526],[102.6829,31.8845],[102.6754,31.9348],[102.6884,31.9669],[102.6765,31.9782],[102.6713,32.0386],[102.61,32.151],[102.5943,32.2274],[102.6164,32.2605],[102.6515,32.2543],[102.6685,32.2946],[102.662,32.3119],[102.647,32.3452],[102.6687,32.3998],[102.7116,32.4289],[102.7266,32.4572],[102.7914,32.4784],[102.7794,32.507],[102.811,32.5605],[102.8311,32.5841],[102.8166,32.6375],[102.829,32.661],[102.8592,32.6728],[102.8745,32.6944],[102.9293,32.6966],[102.9538,32.7215],[102.9648,32.7866],[102.9509,32.8051],[102.9697,32.8647],[103.0118,32.8605],[103.0366,32.8675],[103.049,32.8902],[103.0937,32.9138],[103.133,32.8835],[103.1439,32.8633],[103.1975,32.8249],[103.27,32.861],[103.2997,32.8899],[103.3047,32.9442],[103.3219,32.9929],[103.342,33.0183],[103.334,33.0237],[103.3441,33.0894],[103.2545,33.1436],[103.1829,33.1681],[103.1708,33.23],[103.1597,33.2592],[103.0976,33.2565],[103.0622,33.2986],[102.9104,33.2968],[102.8688,33.3218],[102.8367,33.3109],[102.7848,33.3175],[102.7015,33.2578],[102.66,33.2596],[102.6336,33.2437],[102.6218,33.1863],[102.5851,33.1847],[102.5619,33.1594],[102.5232,33.143],[102.4817,33.0973],[102.4751,33.0476],[102.4622,33.003],[102.4602,32.9621],[102.4028,32.8946],[102.3945,32.848],[102.3652,32.8234],[102.3282,32.8093],[102.3144,32.7872],[102.2688,32.7919],[102.1887,32.7752],[102.195,32.7408],[102.2119,32.7137],[102.1921,32.6938],[102.2046,32.6717],[102.2548,32.6592],[102.2695,32.636],[102.2644,32.5738],[102.2903,32.5485],[102.2951,32.53],[102.2541,32.5116],[102.2309,32.5448],[102.2055,32.5352],[102.2005,32.4945],[102.1503,32.5366],[102.1459,32.5547],[102.1037,32.5666],[102.0692,32.6096],[102.0439,32.6209],[101.9907,32.5551],[101.9555,32.5753],[101.9268,32.5411],[101.9115,32.4743],[101.9066,32.4297],[101.9174,32.4196],[101.864,32.3808],[101.8519,32.3329],[101.8686,32.2976],[101.8938,32.3067],[101.9111,32.2893],[101.9546,32.2837],[101.966,32.3155],[101.9703,32.3612],[102.0217,32.3479],[102.0848,32.3459],[102.1035,32.3176],[102.1461,32.3014],[102.1847,32.3158],[102.2526,32.3014],[102.2595,32.2495],[102.2805,32.252],[102.2991,32.2321],[102.3409,32.2334],[102.3617,32.2134],[102.3518,32.1746],[102.4042,32.1384],[102.4683,32.1083],[102.4814,32.0904],[102.484,32.0487],[102.4621,32.0235],[102.5098,32.0122],[102.5407,31.991],[102.5823,31.9379],[102.6004,31.9541],[102.6395,31.9614],[102.6569,31.9053],[102.6713,31.8796],[102.6733,31.8526]]]},"properties":{"region_code":"CN-51-5132-513233","parent_region_code":"CN-51-5132","name":"红原县","level":"county","has_children":false,"full_path":"中国 / 四川省 / 阿坝藏族羌族自治州 / 红原县","source_admin_code":"513233","osm_relation_id":2785346}}
]}