{"type":"FeatureCollection", "features": [
{"type":"Feature","geometry":{"type":"Polygon","coordinates":[[[99.4011,28.1537],[99.391,28.1224],[99.4111,28.1075],[99.4006,28.0854],[99.4031,28.0475],[99.4127,28.0148],[99.4042,27.9816],[99.4125,27.9659],[99.416,27.9295],[99.4296,27.9242],[99.4443,27.8954],[99.446,27.8649],[99.4613,27.8164],[99.4331,27.7909],[99.4278,27.7662],[99.4421,27.7456],[99.449,27.7209],[99.4681,27.6917],[99.4741,27.666],[99.4919,27.6358],[99.5193,27.6318],[99.5202,27.5953],[99.541,27.5709],[99.5512,27.5669],[99.55,27.5446],[99.5675,27.5281],[99.5594,27.5006],[99.5674,27.476],[99.6059,27.4552],[99.5958,27.4274],[99.6084,27.4194],[99.6141,27.3987],[99.6369,27.3821],[99.659,27.354],[99.6439,27.3435],[99.6401,27.3245],[99.6618,27.3053],[99.6587,27.2929],[99.6988,27.2671],[99.7167,27.2512],[99.7489,27.2125],[99.7684,27.2096],[99.7773,27.1947],[99.7958,27.1873],[99.7998,27.1665],[99.8215,27.1562],[99.8394,27.1329],[99.859,27.0943],[99.8956,27.079],[99.8964,27.0592],[99.9178,27.0421],[99.9273,27.0182],[99.9486,27.0001],[99.9657,26.9654],[99.9567,26.9511],[99.9635,26.8705],[99.9933,26.88],[100.0336,26.9048],[100.0466,26.9335],[100.059,26.9452],[100.0552,26.963],[100.064,26.9927],[100.0745,27.0088],[100.066,27.0352],[100.078,27.0515],[100.0637,27.0793],[100.0547,27.1117],[100.064,27.1649],[100.101,27.1773],[100.155,27.2502],[100.1712,27.2586],[100.2049,27.3029],[100.2336,27.309],[100.2314,27.359],[100.2049,27.3958],[100.2121,27.4094],[100.2047,27.4324],[100.1756,27.4756],[100.1875,27.5062],[100.2156,27.5349],[100.2225,27.5485],[100.2439,27.5627],[100.24,27.5933],[100.2636,27.6024],[100.2568,27.6229],[100.2947,27.6686],[100.2909,27.686],[100.2775,27.6933],[100.2927,27.7151],[100.2959,27.7394],[100.3063,27.7525],[100.3,27.7732],[100.3016,27.7957],[100.2848,27.8093],[100.3073,27.8338],[100.2937,27.873],[100.2567,27.8684],[100.2093,27.8807],[100.1686,27.911],[100.1949,27.9408],[100.1379,27.9979],[100.1215,28.0204],[100.0853,28.0337],[100.0383,28.1345],[100.0213,28.1464],[100.0322,28.1762],[100.0598,28.1961],[100.0872,28.1838],[100.0968,28.2015],[100.1493,28.2099],[100.1686,28.2268],[100.1619,28.2367],[100.1881,28.2557],[100.1489,28.2845],[100.1676,28.2997],[100.1713,28.324],[100.1336,28.3547],[100.0526,28.3793],[100.0737,28.4285],[100.0597,28.4509],[100.0445,28.4492],[99.9961,28.4711],[99.9894,28.4801],[99.9849,28.5285],[99.9639,28.5412],[99.9605,28.5641],[99.9323,28.5925],[99.9068,28.6058],[99.8758,28.6149],[99.8718,28.638],[99.8462,28.6327],[99.8342,28.6473],[99.8408,28.6623],[99.8189,28.6773],[99.7935,28.7034],[99.7579,28.7045],[99.7313,28.725],[99.7302,28.7468],[99.7209,28.7631],[99.7236,28.8145],[99.7183,28.8369],[99.6979,28.8376],[99.6894,28.8195],[99.6758,28.8146],[99.648,28.8204],[99.624,28.8167],[99.6088,28.7888],[99.6067,28.761],[99.6164,28.7446],[99.6021,28.7315],[99.5507,28.7098],[99.5307,28.6848],[99.5432,28.6687],[99.5307,28.6185],[99.4947,28.6198],[99.4959,28.6075],[99.4636,28.5803],[99.4636,28.5546],[99.426,28.5587],[99.4035,28.5505],[99.394,28.5263],[99.3942,28.4963],[99.4133,28.4814],[99.4199,28.4544],[99.404,28.4474],[99.4118,28.4222],[99.4361,28.4115],[99.4224,28.3896],[99.42,28.3707],[99.4044,28.358],[99.4081,28.3327],[99.3918,28.322],[99.4168,28.2867],[99.3937,28.2414],[99.3849,28.207],[99.4011,28.1537]]]},"properties":{"region_code":"CN-53-5334-533401","parent_region_code":"CN-53-5334","name":"香格里拉市","level":"county","has_children":false,"full_path":"中国 / 云南省 / 迪庆藏族自治州 / 香格里拉市","source_admin_code":"533401","osm_relation_id":2729693}},
{"type":"Feature","geometry":{"type":"Polygon","coordinates":[[[99.4011,28.1537],[99.3742,28.1849],[99.3596,28.185],[99.332,28.2201],[99.3056,28.232],[99.3045,28.2508],[99.2889,28.2893],[99.2784,28.3029],[99.2602,28.3068],[99.2379,28.321],[99.2296,28.3529],[99.2006,28.3675],[99.2017,28.3788],[99.1737,28.4056],[99.1642,28.4289],[99.1862,28.4431],[99.1823,28.4748],[99.191,28.4973],[99.1712,28.55],[99.1688,28.5685],[99.1827,28.5917],[99.1636,28.6036],[99.1719,28.6178],[99.1634,28.6376],[99.1459,28.6447],[99.1415,28.681],[99.128,28.6968],[99.1331,28.7373],[99.1135,28.7652],[99.1169,28.7824],[99.1033,28.816],[99.1034,28.8456],[99.1229,28.8932],[99.1314,28.9512],[99.1221,28.9979],[99.1269,29.0219],[99.1184,29.0346],[99.113,29.0755],[99.1172,29.1056],[99.1121,29.1922],[99.1132,29.2247],[99.0914,29.2257],[99.0728,29.2135],[99.0365,29.2106],[99.0241,29.1921],[98.9759,29.2084],[98.9736,29.1851],[98.9614,29.1772],[98.9621,29.1458],[98.969,29.1296],[98.9916,29.1068],[99.0146,29.0554],[99.0081,29.0333],[98.9617,29.01],[98.9548,28.993],[98.9261,28.983],[98.9187,28.9231],[98.9118,28.9134],[98.9174,28.8907],[98.948,28.8758],[98.9727,28.8702],[98.9648,28.8546],[98.9715,28.8373],[98.9423,28.8296],[98.9267,28.8354],[98.9215,28.8096],[98.9128,28.8034],[98.8716,28.8119],[98.851,28.8028],[98.8279,28.8252],[98.8289,28.8495],[98.811,28.9327],[98.8139,28.951],[98.8041,28.9734],[98.7866,28.9885],[98.786,29.0024],[98.7573,29.0072],[98.7503,28.9957],[98.7219,28.9848],[98.703,28.9672],[98.6555,28.9799],[98.6305,28.976],[98.633,28.9608],[98.6564,28.9142],[98.6433,28.897],[98.6532,28.8601],[98.6665,28.8484],[98.652,28.8126],[98.6619,28.7916],[98.6788,28.7755],[98.6823,28.733],[98.6582,28.7112],[98.6385,28.7023],[98.6332,28.6895],[98.5946,28.6859],[98.5991,28.664],[98.6187,28.6277],[98.613,28.6133],[98.6299,28.5768],[98.6251,28.5608],[98.6348,28.5373],[98.62,28.5151],[98.6294,28.4907],[98.675,28.4828],[98.6857,28.4386],[98.7053,28.4207],[98.7194,28.3848],[98.732,28.3753],[98.7352,28.3571],[98.7518,28.344],[98.7456,28.3252],[98.7218,28.3165],[98.7114,28.2934],[98.7164,28.2794],[98.7092,28.2311],[98.6976,28.2264],[98.6885,28.1894],[98.7018,28.1681],[98.7051,28.1404],[98.7269,28.1179],[98.7295,28.0979],[98.7524,28.0993],[98.7651,28.0594],[98.779,28.0578],[98.7937,27.9981],[98.7852,27.9209],[98.7983,27.8581],[98.8134,27.8366],[98.8481,27.8414],[98.8447,27.8162],[98.8593,27.8051],[98.8578,27.7874],[98.8674,27.772],[98.8693,27.7452],[98.8357,27.7303],[98.8324,27.7168],[98.8566,27.6927],[98.8843,27.676],[98.9182,27.6353],[98.9872,27.6389],[99.022,27.6463],[99.0861,27.6337],[99.1052,27.6351],[99.1318,27.6263],[99.1622,27.6634],[99.1849,27.6532],[99.1779,27.6057],[99.1826,27.5826],[99.1954,27.5582],[99.225,27.5638],[99.2317,27.5891],[99.2558,27.6065],[99.2925,27.6083],[99.3111,27.6218],[99.3318,27.6718],[99.3742,27.6649],[99.3868,27.645],[99.4165,27.6483],[99.4356,27.6348],[99.4466,27.6175],[99.4941,27.6095],[99.5193,27.6318],[99.4919,27.6358],[99.4741,27.666],[99.4681,27.6917],[99.449,27.7209],[99.4421,27.7456],[99.4278,27.7662],[99.4331,27.7909],[99.4613,27.8164],[99.446,27.8649],[99.4443,27.8954],[99.4296,27.9242],[99.416,27.9295],[99.4125,27.9659],[99.4042,27.9816],[99.4127,28.0148],[99.4031,28.0475],[99.4006,28.0854],[99.4111,28.1075],[99.391,28.1224],[99.4011,28.1537]]]},"properties":{"region_code":"CN-53-5334-533422","parent_region_code":"CN-53-5334","name":"德钦县","level":"county","has_children":false,"full_path":"中国 / 云南省 / 迪庆藏族自治州 / 德钦县","source_admin_code":"533422","osm_relation_id":2729692}},
{"type":"Feature","geometry":{"type":"Polygon","coordinates":[[[99.5193,27.6318],[99.4941,27.6095],[99.4466,27.6175],[99.4356,27.6348],[99.4165,27.6483],[99.3868,27.645],[99.3742,27.6649],[99.3318,27.6718],[99.3111,27.6218],[99.2925,27.6083],[99.2558,27.6065],[99.2317,27.5891],[99.225,27.5638],[99.1954,27.5582],[99.1826,27.5826],[99.1779,27.6057],[99.1849,27.6532],[99.1622,27.6634],[99.1318,27.6263],[99.1052,27.6351],[99.0861,27.6337],[99.022,27.6463],[98.9872,27.6389],[98.9182,27.6353],[98.8891,27.5974],[98.8801,27.5734],[98.9029,27.5421],[98.9065,27.5256],[98.8908,27.4946],[98.9101,27.4727],[98.9153,27.4394],[98.9018,27.3999],[98.9236,27.3648],[98.9183,27.3395],[98.9379,27.3456],[98.9643,27.3313],[98.9908,27.3349],[99.0023,27.3223],[99.005,27.2821],[98.9885,27.2753],[98.9895,27.2302],[98.9812,27.2075],[98.9652,27.1985],[98.9644,27.1704],[98.9838,27.1655],[98.9758,27.134],[98.979,27.1082],[98.9674,27.0852],[98.9841,27.062],[98.9807,27.0528],[99.0064,27.0421],[98.9933,27.0191],[98.9995,27.0001],[99.0451,26.9888],[99.0883,27.0001],[99.1001,27.0116],[99.1152,27.0016],[99.1471,27.0054],[99.1537,26.9948],[99.1792,26.9954],[99.2147,26.9857],[99.2311,26.9927],[99.2706,27.0266],[99.2537,27.07],[99.2564,27.0785],[99.2847,27.0775],[99.2964,27.0704],[99.3192,27.0353],[99.3578,26.962],[99.3564,26.9437],[99.3716,26.9256],[99.3702,26.9112],[99.4144,26.9316],[99.3958,26.9433],[99.4098,26.9748],[99.4231,26.9624],[99.4437,26.9731],[99.4583,26.9645],[99.4883,26.9686],[99.4881,26.989],[99.4762,26.9989],[99.4691,27.0242],[99.4391,27.0435],[99.427,27.0792],[99.432,27.0998],[99.4275,27.119],[99.4334,27.1523],[99.4171,27.1578],[99.4056,27.18],[99.4106,27.1945],[99.3865,27.2074],[99.3833,27.218],[99.4167,27.2319],[99.3964,27.2863],[99.4119,27.3057],[99.4252,27.337],[99.4407,27.3501],[99.4181,27.3749],[99.4192,27.404],[99.4038,27.4359],[99.4171,27.4501],[99.4108,27.4812],[99.4391,27.4899],[99.4811,27.4936],[99.4983,27.5118],[99.4995,27.543],[99.5437,27.5642],[99.541,27.5709],[99.5202,27.5953],[99.5193,27.6318]]]},"properties":{"region_code":"CN-53-5334-533423","parent_region_code":"CN-53-5334","name":"维西傈僳族自治县","level":"county","has_children":false,"full_path":"中国 / 云南省 / 迪庆藏族自治州 / 维西傈僳族自治县","source_admin_code":"533423","osm_relation_id":2729694}}
]}