{"type":"FeatureCollection", "features": [
{"type":"Feature","geometry":{"type":"Polygon","coordinates":[[[105.6323,32.6783],[105.5977,32.6438],[105.5908,32.6215],[105.5556,32.6171],[105.5395,32.6246],[105.5413,32.5906],[105.5067,32.5909],[105.5048,32.6027],[105.4711,32.5987],[105.4649,32.5756],[105.4753,32.5695],[105.4976,32.5378],[105.5321,32.5184],[105.5382,32.4994],[105.5136,32.4852],[105.5137,32.471],[105.4886,32.4728],[105.4701,32.465],[105.4369,32.478],[105.4357,32.4622],[105.3867,32.4402],[105.3867,32.4076],[105.3771,32.4044],[105.4052,32.3592],[105.4287,32.3779],[105.4563,32.3734],[105.4813,32.3857],[105.4968,32.3724],[105.4866,32.3515],[105.514,32.3366],[105.5315,32.3112],[105.5676,32.3072],[105.5862,32.308],[105.6607,32.3412],[105.6526,32.3723],[105.676,32.3698],[105.6719,32.3871],[105.6912,32.3874],[105.6942,32.3696],[105.7568,32.3605],[105.7684,32.3485],[105.765,32.335],[105.8028,32.3258],[105.8157,32.3025],[105.8295,32.2915],[105.8694,32.2841],[105.888,32.2887],[105.8926,32.3013],[105.911,32.3035],[105.926,32.3221],[105.9253,32.3566],[105.9443,32.3544],[105.9631,32.3827],[105.9794,32.376],[106.0155,32.3364],[106.0257,32.3341],[106.0521,32.3091],[106.0785,32.3148],[106.1015,32.3233],[106.1358,32.3514],[106.0996,32.3705],[106.09,32.3811],[106.0995,32.3952],[106.0749,32.4073],[106.0766,32.4277],[106.0669,32.4417],[106.0965,32.4437],[106.1154,32.4329],[106.1336,32.4539],[106.1559,32.467],[106.1585,32.4961],[106.129,32.5118],[106.1072,32.5085],[106.07,32.521],[106.0381,32.5169],[106.0276,32.5095],[105.9645,32.5145],[105.9703,32.5328],[105.9464,32.5465],[105.9109,32.5349],[105.8644,32.5438],[105.8295,32.5188],[105.8127,32.5239],[105.7853,32.5106],[105.7684,32.4905],[105.7477,32.4817],[105.7118,32.5112],[105.6987,32.5063],[105.6901,32.526],[105.7013,32.5446],[105.7001,32.5629],[105.6816,32.605],[105.6709,32.6121],[105.6794,32.6368],[105.6607,32.6633],[105.6323,32.6783]]]},"properties":{"region_code":"CN-51-5108-510802","parent_region_code":"CN-51-5108","name":"利州区","level":"county","has_children":false,"full_path":"中国 / 四川省 / 广元市 / 利州区","source_admin_code":"510802","osm_relation_id":2787603}},
{"type":"Feature","geometry":{"type":"Polygon","coordinates":[[[105.5676,32.3072],[105.5579,32.298],[105.5955,32.2778],[105.598,32.2552],[105.5872,32.2377],[105.6122,32.2355],[105.6294,32.2176],[105.6465,32.2144],[105.6731,32.1809],[105.6965,32.185],[105.7011,32.1595],[105.6803,32.1469],[105.7154,32.1353],[105.7056,32.0913],[105.6865,32.0751],[105.6982,32.0303],[105.6693,32.0296],[105.6592,32.0134],[105.6678,31.9976],[105.7005,31.9648],[105.702,31.9089],[105.7342,31.9027],[105.7604,31.9207],[105.7701,31.9375],[105.7928,31.9342],[105.8037,31.9455],[105.8152,31.9494],[105.8449,31.9368],[105.834,31.9729],[105.8563,31.9792],[105.8694,32.0149],[105.9098,32.0167],[105.9302,32.0118],[105.9371,31.9988],[105.9542,31.9947],[105.9639,32.0095],[105.9457,32.0149],[105.9469,32.0319],[105.9746,32.0145],[106.0031,32.0492],[106.0073,32.0712],[106.0254,32.1029],[106.0538,32.1097],[106.0605,32.1342],[106.0812,32.1419],[106.1244,32.1486],[106.1093,32.17],[106.0669,32.1519],[106.0558,32.1609],[106.0662,32.207],[106.047,32.215],[105.9782,32.2222],[106.0107,32.273],[106.0475,32.2987],[106.0723,32.3012],[106.0785,32.3148],[106.0521,32.3091],[106.0257,32.3341],[106.0155,32.3364],[105.9794,32.376],[105.9631,32.3827],[105.9443,32.3544],[105.9253,32.3566],[105.926,32.3221],[105.911,32.3035],[105.8926,32.3013],[105.888,32.2887],[105.8694,32.2841],[105.8295,32.2915],[105.8157,32.3025],[105.8028,32.3258],[105.765,32.335],[105.7684,32.3485],[105.7568,32.3605],[105.6942,32.3696],[105.6912,32.3874],[105.6719,32.3871],[105.676,32.3698],[105.6526,32.3723],[105.6607,32.3412],[105.5862,32.308],[105.5676,32.3072]]]},"properties":{"region_code":"CN-51-5108-510811","parent_region_code":"CN-51-5108","name":"昭化区","level":"county","has_children":false,"full_path":"中国 / 四川省 / 广元市 / 昭化区","source_admin_code":"510811","osm_relation_id":2787605}},
{"type":"Feature","geometry":{"type":"Polygon","coordinates":[[[106.1585,32.4961],[106.1772,32.5203],[106.1979,32.5068],[106.2114,32.5085],[106.2306,32.5254],[106.2321,32.5399],[106.26,32.5588],[106.2532,32.6175],[106.2946,32.6238],[106.2882,32.6724],[106.2631,32.676],[106.2557,32.696],[106.2385,32.6932],[106.1721,32.6976],[106.1509,32.7065],[106.1417,32.72],[106.1085,32.7234],[106.1029,32.7374],[106.0693,32.7547],[106.0617,32.7842],[106.0967,32.795],[106.0901,32.8266],[106.0697,32.8264],[106.0484,32.8481],[106.0426,32.8657],[106.018,32.8461],[106.0081,32.8308],[105.9925,32.8294],[105.9613,32.8502],[105.952,32.8394],[105.9241,32.8275],[105.8888,32.8403],[105.8635,32.8324],[105.8515,32.8214],[105.8231,32.8257],[105.8245,32.8037],[105.8007,32.7616],[105.7785,32.7515],[105.7673,32.7696],[105.7451,32.7698],[105.7342,32.7555],[105.7162,32.7603],[105.6741,32.7288],[105.6611,32.728],[105.6234,32.7061],[105.6323,32.6783],[105.6607,32.6633],[105.6794,32.6368],[105.6709,32.6121],[105.6816,32.605],[105.7001,32.5629],[105.7013,32.5446],[105.6901,32.526],[105.6987,32.5063],[105.7118,32.5112],[105.7477,32.4817],[105.7684,32.4905],[105.7853,32.5106],[105.8127,32.5239],[105.8295,32.5188],[105.8644,32.5438],[105.9109,32.5349],[105.9464,32.5465],[105.9703,32.5328],[105.9645,32.5145],[106.0276,32.5095],[106.0381,32.5169],[106.07,32.521],[106.1072,32.5085],[106.129,32.5118],[106.1585,32.4961]]]},"properties":{"region_code":"CN-51-5108-510812","parent_region_code":"CN-51-5108","name":"朝天区","level":"county","has_children":false,"full_path":"中国 / 四川省 / 广元市 / 朝天区","source_admin_code":"510812","osm_relation_id":2787601}},
{"type":"Feature","geometry":{"type":"Polygon","coordinates":[[[106.0785,32.3148],[106.0723,32.3012],[106.0475,32.2987],[106.0107,32.273],[105.9782,32.2222],[106.047,32.215],[106.0662,32.207],[106.0558,32.1609],[106.0669,32.1519],[106.1093,32.17],[106.1244,32.1486],[106.1396,32.1213],[106.1641,32.1257],[106.1952,32.139],[106.2085,32.1313],[106.211,32.1133],[106.2396,32.1081],[106.2682,32.1124],[106.3253,32.1408],[106.346,32.1587],[106.3709,32.1593],[106.3737,32.1484],[106.3966,32.1486],[106.4191,32.1121],[106.4273,32.0815],[106.4484,32.0851],[106.449,32.0429],[106.4684,31.9837],[106.4776,31.9811],[106.489,32.0082],[106.5011,32.0096],[106.4971,32.0512],[106.5156,32.0536],[106.5139,32.0708],[106.5296,32.0841],[106.5355,32.1145],[106.5643,32.1281],[106.553,32.178],[106.5608,32.23],[106.5825,32.2377],[106.6623,32.2492],[106.6707,32.275],[106.6846,32.2686],[106.7143,32.2716],[106.7129,32.2969],[106.7487,32.2872],[106.7666,32.3079],[106.7299,32.3279],[106.7075,32.3485],[106.6849,32.3504],[106.6877,32.406],[106.6796,32.4364],[106.6841,32.4604],[106.6708,32.4885],[106.6501,32.4998],[106.6538,32.5172],[106.6507,32.5602],[106.6543,32.5764],[106.6482,32.6041],[106.6572,32.6165],[106.6383,32.6453],[106.6357,32.6886],[106.6251,32.6836],[106.5855,32.691],[106.5707,32.6807],[106.5139,32.6703],[106.4925,32.6528],[106.4626,32.6547],[106.4173,32.6187],[106.4028,32.6149],[106.3848,32.629],[106.3798,32.6492],[106.3434,32.6731],[106.2969,32.682],[106.2882,32.6724],[106.2946,32.6238],[106.2532,32.6175],[106.26,32.5588],[106.2321,32.5399],[106.2306,32.5254],[106.2114,32.5085],[106.1979,32.5068],[106.1772,32.5203],[106.1585,32.4961],[106.1559,32.467],[106.1336,32.4539],[106.1154,32.4329],[106.0965,32.4437],[106.0669,32.4417],[106.0766,32.4277],[106.0749,32.4073],[106.0995,32.3952],[106.09,32.3811],[106.0996,32.3705],[106.1358,32.3514],[106.1015,32.3233],[106.0785,32.3148]]]},"properties":{"region_code":"CN-51-5108-510821","parent_region_code":"CN-51-5108","name":"旺苍县","level":"county","has_children":false,"full_path":"中国 / 四川省 / 广元市 / 旺苍县","source_admin_code":"510821","osm_relation_id":2787604}},
{"type":"Feature","geometry":{"type":"Polygon","coordinates":[[[105.6323,32.6783],[105.6234,32.7061],[105.5913,32.7049],[105.5855,32.7304],[105.561,32.727],[105.5536,32.7356],[105.5615,32.7701],[105.5502,32.776],[105.5512,32.7961],[105.5311,32.7929],[105.5298,32.8192],[105.5127,32.8614],[105.4959,32.8719],[105.4892,32.8895],[105.4954,32.9132],[105.4633,32.9321],[105.4283,32.9349],[105.4073,32.9215],[105.4076,32.9013],[105.3835,32.875],[105.3931,32.8463],[105.3876,32.8377],[105.4079,32.8158],[105.4287,32.774],[105.4494,32.7703],[105.4557,32.7549],[105.4496,32.7385],[105.4235,32.7357],[105.3909,32.7169],[105.3611,32.7118],[105.3443,32.6869],[105.3055,32.6731],[105.2935,32.656],[105.2614,32.6545],[105.2425,32.6703],[105.2115,32.6623],[105.2105,32.6399],[105.1935,32.6242],[105.1398,32.6026],[105.1051,32.5987],[105.0739,32.6405],[105.024,32.6525],[105.0132,32.6426],[104.9917,32.6418],[104.9099,32.6073],[104.8815,32.6052],[104.8631,32.6364],[104.8264,32.6655],[104.7906,32.6467],[104.7244,32.6462],[104.6932,32.6774],[104.6671,32.666],[104.6402,32.6662],[104.6251,32.6555],[104.6162,32.636],[104.6126,32.6072],[104.6494,32.58],[104.6515,32.5635],[104.6911,32.5601],[104.7435,32.5383],[104.7526,32.531],[104.7468,32.5097],[104.7567,32.4962],[104.7477,32.4657],[104.7589,32.4492],[104.7591,32.4328],[104.7716,32.4213],[104.77,32.4],[104.799,32.3762],[104.8193,32.3745],[104.8378,32.3541],[104.8571,32.3609],[104.8832,32.3571],[104.9089,32.3298],[104.9355,32.3362],[104.9645,32.3257],[104.9569,32.3055],[104.9856,32.282],[104.9856,32.249],[105.0334,32.269],[105.041,32.2914],[105.0804,32.2861],[105.0888,32.3094],[105.1493,32.3115],[105.1765,32.3066],[105.2032,32.3085],[105.2165,32.3186],[105.2411,32.3211],[105.2538,32.3042],[105.2325,32.2895],[105.266,32.2601],[105.2507,32.2375],[105.2499,32.2045],[105.2713,32.1931],[105.2508,32.1736],[105.2721,32.1565],[105.2802,32.1402],[105.3104,32.1641],[105.3455,32.1838],[105.375,32.2052],[105.3867,32.1967],[105.4042,32.211],[105.4006,32.2387],[105.3896,32.2484],[105.4087,32.2784],[105.4195,32.2803],[105.4622,32.3213],[105.4866,32.3515],[105.4968,32.3724],[105.4813,32.3857],[105.4563,32.3734],[105.4287,32.3779],[105.4052,32.3592],[105.3771,32.4044],[105.3867,32.4076],[105.3867,32.4402],[105.4357,32.4622],[105.4369,32.478],[105.4701,32.465],[105.4886,32.4728],[105.5137,32.471],[105.5136,32.4852],[105.5382,32.4994],[105.5321,32.5184],[105.4976,32.5378],[105.4753,32.5695],[105.4649,32.5756],[105.4711,32.5987],[105.5048,32.6027],[105.5067,32.5909],[105.5413,32.5906],[105.5395,32.6246],[105.5556,32.6171],[105.5908,32.6215],[105.5977,32.6438],[105.6323,32.6783]]]},"properties":{"region_code":"CN-51-5108-510822","parent_region_code":"CN-51-5108","name":"青川县","level":"county","has_children":false,"full_path":"中国 / 四川省 / 广元市 / 青川县","source_admin_code":"510822","osm_relation_id":2116385}},
{"type":"Feature","geometry":{"type":"Polygon","coordinates":[[[105.4866,32.3515],[105.4622,32.3213],[105.4195,32.2803],[105.4087,32.2784],[105.3896,32.2484],[105.4006,32.2387],[105.4042,32.211],[105.3867,32.1967],[105.375,32.2052],[105.3455,32.1838],[105.3104,32.1641],[105.2802,32.1402],[105.258,32.1273],[105.2854,32.1146],[105.2492,32.0849],[105.2521,32.0665],[105.2435,32.0543],[105.2609,32.0199],[105.2512,31.9976],[105.2317,32.0177],[105.212,32.0075],[105.1736,31.9961],[105.1844,31.9852],[105.1817,31.9676],[105.2019,31.9478],[105.1798,31.9135],[105.2002,31.9047],[105.2118,31.8804],[105.2018,31.8405],[105.2392,31.8328],[105.2545,31.7856],[105.2686,31.7948],[105.2864,31.793],[105.3046,31.7733],[105.3074,31.7444],[105.2813,31.7423],[105.281,31.7314],[105.2584,31.7193],[105.2599,31.6998],[105.2824,31.7021],[105.3104,31.7193],[105.3158,31.7037],[105.3418,31.6795],[105.3279,31.6323],[105.363,31.6182],[105.3898,31.6203],[105.3863,31.5983],[105.3978,31.565],[105.4117,31.5467],[105.4555,31.5295],[105.4988,31.5678],[105.5058,31.5822],[105.5283,31.5757],[105.5331,31.5649],[105.596,31.5831],[105.6037,31.5552],[105.6139,31.5565],[105.6193,31.5871],[105.6294,31.6031],[105.6577,31.6014],[105.6825,31.6154],[105.6954,31.6521],[105.7104,31.6554],[105.7277,31.7291],[105.7367,31.7406],[105.767,31.7532],[105.7649,31.7852],[105.7584,31.7977],[105.756,31.8294],[105.7848,31.8308],[105.7762,31.8518],[105.7991,31.8819],[105.8063,31.9003],[105.8217,31.915],[105.8037,31.9455],[105.7928,31.9342],[105.7701,31.9375],[105.7604,31.9207],[105.7342,31.9027],[105.702,31.9089],[105.7005,31.9648],[105.6678,31.9976],[105.6592,32.0134],[105.6693,32.0296],[105.6982,32.0303],[105.6865,32.0751],[105.7056,32.0913],[105.7154,32.1353],[105.6803,32.1469],[105.7011,32.1595],[105.6965,32.185],[105.6731,32.1809],[105.6465,32.2144],[105.6294,32.2176],[105.6122,32.2355],[105.5872,32.2377],[105.598,32.2552],[105.5955,32.2778],[105.5579,32.298],[105.5676,32.3072],[105.5315,32.3112],[105.514,32.3366],[105.4866,32.3515]]]},"properties":{"region_code":"CN-51-5108-510823","parent_region_code":"CN-51-5108","name":"剑阁县","level":"county","has_children":false,"full_path":"中国 / 四川省 / 广元市 / 剑阁县","source_admin_code":"510823","osm_relation_id":2787602}},
{"type":"Feature","geometry":{"type":"Polygon","coordinates":[[[105.8037,31.9455],[105.8217,31.915],[105.8063,31.9003],[105.7991,31.8819],[105.7762,31.8518],[105.7848,31.8308],[105.756,31.8294],[105.7584,31.7977],[105.7649,31.7852],[105.767,31.7532],[105.7367,31.7406],[105.7277,31.7291],[105.7456,31.721],[105.7648,31.7376],[105.778,31.7073],[105.8378,31.6599],[105.8414,31.6362],[105.8617,31.6171],[105.8822,31.6316],[105.9069,31.6282],[105.9249,31.6455],[105.9174,31.6578],[105.9545,31.6748],[105.9738,31.6647],[106.0033,31.6869],[106.0285,31.6897],[106.0945,31.731],[106.1087,31.7615],[106.1245,31.7692],[106.1082,31.7946],[106.1163,31.8194],[106.1555,31.8135],[106.183,31.8234],[106.1905,31.788],[106.2111,31.7724],[106.2349,31.7762],[106.2467,31.7857],[106.2627,31.777],[106.2711,31.7997],[106.3066,31.828],[106.3197,31.829],[106.3317,31.8515],[106.3576,31.8483],[106.3802,31.8046],[106.4047,31.8132],[106.4146,31.8364],[106.4056,31.8489],[106.4036,31.8755],[106.4203,31.8931],[106.4265,31.926],[106.4496,31.9499],[106.4552,31.9644],[106.4412,31.9793],[106.4684,31.9837],[106.449,32.0429],[106.4484,32.0851],[106.4273,32.0815],[106.4191,32.1121],[106.3966,32.1486],[106.3737,32.1484],[106.3709,32.1593],[106.346,32.1587],[106.3253,32.1408],[106.2682,32.1124],[106.2396,32.1081],[106.211,32.1133],[106.2085,32.1313],[106.1952,32.139],[106.1641,32.1257],[106.1396,32.1213],[106.1244,32.1486],[106.0812,32.1419],[106.0605,32.1342],[106.0538,32.1097],[106.0254,32.1029],[106.0073,32.0712],[106.0031,32.0492],[105.9746,32.0145],[105.9469,32.0319],[105.9457,32.0149],[105.9639,32.0095],[105.9542,31.9947],[105.9371,31.9988],[105.9302,32.0118],[105.9098,32.0167],[105.8694,32.0149],[105.8563,31.9792],[105.834,31.9729],[105.8449,31.9368],[105.8152,31.9494],[105.8037,31.9455]]]},"properties":{"region_code":"CN-51-5108-510824","parent_region_code":"CN-51-5108","name":"苍溪县","level":"county","has_children":false,"full_path":"中国 / 四川省 / 广元市 / 苍溪县","source_admin_code":"510824","osm_relation_id":2787600}}
]}