{"type":"FeatureCollection", "features": [
{"type":"Feature","geometry":{"type":"Polygon","coordinates":[[[98.7489,26.5138],[98.7568,26.5012],[98.742,26.441],[98.75,26.4283],[98.7413,26.3874],[98.7271,26.3718],[98.7332,26.3527],[98.7088,26.3289],[98.6818,26.3098],[98.6842,26.2931],[98.6722,26.2454],[98.693,26.2372],[98.7116,26.2364],[98.7359,26.19],[98.731,26.1696],[98.7117,26.1598],[98.7183,26.1389],[98.7094,26.1211],[98.6604,26.0909],[98.6566,26.1035],[98.6668,26.1219],[98.6502,26.1462],[98.6306,26.1512],[98.603,26.1328],[98.5896,26.1445],[98.573,26.122],[98.585,26.0988],[98.5866,26.084],[98.6033,26.0534],[98.6034,26.0234],[98.6191,25.975],[98.6419,25.9775],[98.6516,25.9624],[98.6817,25.9417],[98.6893,25.9119],[98.7022,25.9027],[98.7087,25.8771],[98.7079,25.8599],[98.7189,25.8556],[98.7305,25.8372],[98.713,25.8109],[98.7221,25.785],[98.7436,25.7737],[98.7362,25.7585],[98.7369,25.7418],[98.7521,25.736],[98.756,25.719],[98.7464,25.7116],[98.7673,25.6869],[98.757,25.6617],[98.7568,25.6423],[98.7652,25.6338],[98.7554,25.6042],[98.7556,25.5734],[98.7664,25.5585],[98.7938,25.5533],[98.8094,25.5623],[98.8652,25.5555],[98.8827,25.584],[98.8777,25.5939],[98.8898,25.6111],[98.8705,25.6263],[98.8864,25.6365],[98.8914,25.6546],[98.8807,25.6668],[98.882,25.6808],[98.8724,25.6925],[98.8793,25.7124],[98.8729,25.7457],[98.8634,25.7646],[98.8741,25.7808],[98.9044,25.7855],[98.911,25.7619],[98.9425,25.7595],[98.9775,25.7343],[98.9998,25.7291],[99.0508,25.7456],[99.0449,25.7603],[99.0291,25.7714],[99.0176,25.7883],[99.0422,25.8149],[99.0577,25.8193],[99.0625,25.7895],[99.0691,25.7804],[99.0979,25.7913],[99.1254,25.786],[99.1227,25.824],[99.095,25.8848],[99.0884,25.9189],[99.069,25.9467],[99.0583,25.9715],[99.0334,25.9624],[99.0079,25.9652],[99.0011,26.0093],[99.0103,26.0177],[99.0097,26.0368],[99.0006,26.0499],[98.9986,26.0761],[99.0042,26.114],[99.0272,26.1374],[99.0259,26.147],[99.0213,26.1723],[99.0246,26.1854],[99.0163,26.198],[99.0245,26.2213],[99.0225,26.2436],[99.0289,26.2626],[99.0076,26.2791],[99.0147,26.2909],[99.009,26.3476],[99.015,26.3536],[99.0092,26.4094],[99.0211,26.4365],[99.0021,26.4637],[99.0031,26.4816],[98.9656,26.4781],[98.9558,26.482],[98.9182,26.4748],[98.9082,26.4632],[98.8945,26.4684],[98.9022,26.4891],[98.8944,26.4986],[98.8758,26.4986],[98.8554,26.508],[98.8441,26.5061],[98.81,26.5185],[98.7903,26.5154],[98.7842,26.5292],[98.7489,26.5138]]]},"properties":{"region_code":"CN-53-5333-533301","parent_region_code":"CN-53-5333","name":"泸水市","level":"county","has_children":false,"full_path":"中国 / 云南省 / 怒江傈僳族自治州 / 泸水市","source_admin_code":"533301","osm_relation_id":2729767}},
{"type":"Feature","geometry":{"type":"Polygon","coordinates":[[[99.0031,26.4816],[99.0148,26.4939],[99.0102,26.5203],[99.0145,26.5559],[99.0131,26.5892],[99.0203,26.6023],[99.0118,26.6186],[99.0333,26.6482],[99.0243,26.6688],[99.0297,26.6759],[99.0212,26.6984],[99.0295,26.7129],[99.017,26.7288],[99.0262,26.7488],[99.0082,26.7574],[99.009,26.7728],[99.024,26.7783],[99.0317,26.8088],[99.0128,26.8359],[98.9981,26.8674],[98.9865,26.8665],[98.9741,26.8837],[98.9828,26.9366],[98.9692,26.9888],[98.9594,27.0057],[98.9741,27.0471],[98.9812,27.0522],[98.9841,27.062],[98.9674,27.0852],[98.979,27.1082],[98.9758,27.134],[98.9838,27.1655],[98.9644,27.1704],[98.9652,27.1985],[98.9812,27.2075],[98.9895,27.2302],[98.9885,27.2753],[99.005,27.2821],[99.0073,27.2981],[99.0023,27.3223],[98.9908,27.3349],[98.9643,27.3313],[98.9379,27.3456],[98.9183,27.3395],[98.9236,27.3648],[98.9177,27.3806],[98.9018,27.3999],[98.9153,27.4394],[98.9101,27.4727],[98.8908,27.4946],[98.8643,27.5123],[98.823,27.5147],[98.7852,27.5131],[98.7625,27.5055],[98.7183,27.5149],[98.6904,27.5154],[98.6844,27.4885],[98.7038,27.4651],[98.6878,27.4487],[98.6871,27.4267],[98.7021,27.4151],[98.7073,27.3647],[98.7331,27.354],[98.7406,27.3325],[98.7321,27.3021],[98.7338,27.2891],[98.7172,27.274],[98.7148,27.2587],[98.7297,27.2502],[98.6917,27.2],[98.7021,27.1914],[98.7135,27.143],[98.7086,27.1334],[98.7153,27.095],[98.7119,27.0782],[98.7259,27.0704],[98.7401,27.0754],[98.7667,27.0521],[98.763,27.0215],[98.7335,27.0062],[98.7435,26.9946],[98.7367,26.9721],[98.7532,26.9261],[98.7577,26.8859],[98.731,26.8546],[98.749,26.83],[98.7623,26.8022],[98.7561,26.7483],[98.743,26.713],[98.7471,26.7006],[98.7706,26.6927],[98.7617,26.6671],[98.7715,26.6371],[98.7819,26.6225],[98.7818,26.6044],[98.7686,26.5741],[98.754,26.5656],[98.755,26.5275],[98.7489,26.5138],[98.7842,26.5292],[98.7903,26.5154],[98.81,26.5185],[98.8441,26.5061],[98.8554,26.508],[98.8758,26.4986],[98.8944,26.4986],[98.9022,26.4891],[98.8945,26.4684],[98.9082,26.4632],[98.9182,26.4748],[98.9558,26.482],[98.9656,26.4781],[99.0031,26.4816]]]},"properties":{"region_code":"CN-53-5333-533323","parent_region_code":"CN-53-5333","name":"福贡县","level":"county","has_children":false,"full_path":"中国 / 云南省 / 怒江傈僳族自治州 / 福贡县","source_admin_code":"533323","osm_relation_id":2729764}},
{"type":"Feature","geometry":{"type":"Polygon","coordinates":[[[98.8908,27.4946],[98.9065,27.5256],[98.9029,27.5421],[98.8801,27.5734],[98.8891,27.5974],[98.9175,27.637],[98.8843,27.676],[98.8566,27.6927],[98.8324,27.7168],[98.8357,27.7303],[98.8693,27.7452],[98.8674,27.772],[98.8578,27.7874],[98.8593,27.8051],[98.8447,27.8162],[98.8481,27.8414],[98.8365,27.8448],[98.8134,27.8366],[98.7983,27.8581],[98.7852,27.9209],[98.7896,27.9344],[98.7886,27.9678],[98.7937,27.9981],[98.779,28.0578],[98.7651,28.0594],[98.7524,28.0993],[98.7295,28.0979],[98.7269,28.1179],[98.7051,28.1404],[98.7018,28.1681],[98.6885,28.1894],[98.6961,28.2079],[98.6623,28.2134],[98.6383,28.1922],[98.626,28.1691],[98.5962,28.1781],[98.5842,28.1862],[98.5592,28.1872],[98.523,28.1715],[98.5059,28.1476],[98.4951,28.1447],[98.4767,28.1555],[98.464,28.1527],[98.4606,28.137],[98.4335,28.1208],[98.4288,28.1082],[98.3951,28.1089],[98.3874,28.1172],[98.3963,28.1316],[98.388,28.1396],[98.3892,28.1693],[98.3703,28.1867],[98.3794,28.2168],[98.3757,28.2529],[98.3527,28.2871],[98.3369,28.2991],[98.3177,28.3268],[98.3224,28.3481],[98.3022,28.3618],[98.3014,28.3884],[98.2797,28.3971],[98.2706,28.3832],[98.2469,28.3797],[98.2333,28.3692],[98.2259,28.3509],[98.2104,28.3617],[98.2033,28.3482],[98.207,28.333],[98.2326,28.3183],[98.2394,28.3085],[98.2446,28.2807],[98.2643,28.2553],[98.2512,28.2414],[98.2187,28.2167],[98.1997,28.2232],[98.182,28.2209],[98.1668,28.2113],[98.1679,28.1829],[98.1753,28.1714],[98.1497,28.1586],[98.1384,28.1464],[98.1593,28.1061],[98.1606,28.0894],[98.1501,28.0598],[98.1377,28.0447],[98.144,28.0195],[98.1414,27.9972],[98.132,27.9861],[98.1409,27.9556],[98.1555,27.9412],[98.1862,27.9425],[98.2025,27.9031],[98.1997,27.8754],[98.1825,27.8751],[98.1703,27.8542],[98.1759,27.8351],[98.2142,27.8132],[98.2269,27.7965],[98.2179,27.7761],[98.2188,27.7632],[98.243,27.7486],[98.2448,27.7371],[98.2242,27.7265],[98.2344,27.6926],[98.2603,27.6789],[98.2649,27.6641],[98.2838,27.6563],[98.2883,27.6357],[98.302,27.632],[98.2982,27.6168],[98.3108,27.5865],[98.3065,27.5646],[98.3171,27.5231],[98.3366,27.5123],[98.3486,27.5161],[98.3764,27.5109],[98.3934,27.5226],[98.4009,27.5426],[98.4303,27.5536],[98.4345,27.5729],[98.4288,27.6137],[98.4389,27.6278],[98.4301,27.6579],[98.4395,27.6686],[98.4589,27.6582],[98.4752,27.6376],[98.5053,27.6361],[98.536,27.624],[98.537,27.6386],[98.5546,27.6496],[98.5643,27.6404],[98.5732,27.614],[98.5863,27.5928],[98.5897,27.5691],[98.6069,27.5821],[98.6468,27.5684],[98.6589,27.5875],[98.6745,27.5855],[98.6985,27.5488],[98.7047,27.5218],[98.6904,27.5154],[98.7183,27.5149],[98.7625,27.5055],[98.7852,27.5131],[98.823,27.5147],[98.8643,27.5123],[98.8908,27.4946]]]},"properties":{"region_code":"CN-53-5333-533324","parent_region_code":"CN-53-5333","name":"贡山独龙族怒族自治县","level":"county","has_children":false,"full_path":"中国 / 云南省 / 怒江傈僳族自治州 / 贡山独龙族怒族自治县","source_admin_code":"533324","osm_relation_id":2729765}},
{"type":"Feature","geometry":{"type":"Polygon","coordinates":[[[99.0259,26.147],[99.0457,26.1608],[99.0703,26.1549],[99.1022,26.1535],[99.0989,26.1356],[99.12,26.1327],[99.1326,26.1398],[99.1794,26.1272],[99.1573,26.1631],[99.1741,26.1697],[99.2008,26.1981],[99.228,26.2105],[99.2412,26.2298],[99.2554,26.2267],[99.2685,26.2372],[99.293,26.2376],[99.3198,26.2527],[99.3243,26.2621],[99.2996,26.2747],[99.304,26.2935],[99.3201,26.3209],[99.3415,26.3224],[99.3728,26.3334],[99.3869,26.3527],[99.4285,26.3465],[99.4483,26.3632],[99.4566,26.3777],[99.4686,26.3812],[99.4837,26.4047],[99.5112,26.4293],[99.52,26.4523],[99.51,26.4735],[99.4981,26.4795],[99.5033,26.5022],[99.4996,26.5481],[99.4893,26.5618],[99.4903,26.5752],[99.5127,26.588],[99.5729,26.6133],[99.5939,26.6275],[99.6133,26.6243],[99.6212,26.6336],[99.6273,26.6718],[99.6424,26.6808],[99.6251,26.6993],[99.601,26.7075],[99.5984,26.7323],[99.5891,26.746],[99.5702,26.8071],[99.5784,26.8233],[99.5732,26.8583],[99.5595,26.8626],[99.5526,26.8814],[99.5581,26.9036],[99.5428,26.9128],[99.5241,26.9117],[99.5089,26.9364],[99.4962,26.9468],[99.4919,26.9655],[99.4583,26.9645],[99.4437,26.9731],[99.4231,26.9624],[99.4098,26.9748],[99.3958,26.9433],[99.4144,26.9316],[99.3702,26.9112],[99.3716,26.9256],[99.3564,26.9437],[99.3578,26.962],[99.3379,27.0001],[99.3286,27.0088],[99.3192,27.0353],[99.2964,27.0704],[99.2847,27.0775],[99.2564,27.0785],[99.2537,27.07],[99.2706,27.0266],[99.2518,27.014],[99.2311,26.9927],[99.2147,26.9857],[99.1792,26.9954],[99.1537,26.9948],[99.1471,27.0054],[99.1152,27.0016],[99.1001,27.0116],[99.0883,27.0001],[99.0451,26.9888],[98.9995,27.0001],[98.9933,27.0191],[99.0064,27.0421],[98.9812,27.0522],[98.9741,27.0471],[98.9594,27.0057],[98.9692,26.9888],[98.9828,26.9366],[98.9741,26.8837],[98.9865,26.8665],[98.9981,26.8674],[99.0128,26.8359],[99.0317,26.8088],[99.024,26.7783],[99.009,26.7728],[99.0082,26.7574],[99.0262,26.7488],[99.017,26.7288],[99.0295,26.7129],[99.0212,26.6984],[99.0297,26.6759],[99.0243,26.6688],[99.0333,26.6482],[99.0118,26.6186],[99.0203,26.6023],[99.0131,26.5892],[99.0145,26.5559],[99.0102,26.5203],[99.0148,26.4939],[99.0031,26.4816],[99.0021,26.4637],[99.0211,26.4365],[99.0092,26.4094],[99.015,26.3536],[99.009,26.3476],[99.0147,26.2909],[99.0076,26.2791],[99.0289,26.2626],[99.0225,26.2436],[99.0245,26.2213],[99.0163,26.198],[99.0246,26.1854],[99.0213,26.1723],[99.0259,26.147]]]},"properties":{"region_code":"CN-53-5333-533325","parent_region_code":"CN-53-5333","name":"兰坪白族普米族自治县","level":"county","has_children":false,"full_path":"中国 / 云南省 / 怒江傈僳族自治州 / 兰坪白族普米族自治县","source_admin_code":"533325","osm_relation_id":2729766}}
]}