{"type":"FeatureCollection", "features": [
{"type":"Feature","geometry":{"type":"MultiPolygon","coordinates":[[[[103.2246,29.9984],[103.2024,29.9999],[103.1983,29.9921],[103.2175,29.9838],[103.2251,29.9824],[103.2314,29.9965],[103.2246,29.9984]]],[[[103.0693,30.2408],[103.0554,30.2349],[103.0412,30.2241],[103.0287,30.2191],[103.0168,30.2074],[103.0006,30.1809],[102.9934,30.1634],[102.9801,30.143],[102.9789,30.1291],[102.9815,30.1229],[102.9772,30.1056],[102.9674,30.0953],[102.9534,30.073],[102.9499,30.0599],[102.9446,30.0531],[102.925,30.0482],[102.9131,30.0362],[102.9161,30.0283],[102.9055,30.0188],[102.9115,30.011],[102.9097,29.9836],[102.905,29.967],[102.8994,29.9586],[102.886,29.9492],[102.8708,29.9431],[102.8735,29.931],[102.8805,29.9256],[102.8807,29.9198],[102.8871,29.9136],[102.8926,29.8981],[102.8856,29.8807],[102.8745,29.8816],[102.8612,29.8778],[102.8621,29.8679],[102.8714,29.8603],[102.8878,29.8543],[102.8989,29.8594],[102.9017,29.8508],[102.9156,29.8433],[102.9253,29.8421],[102.9314,29.8335],[102.9334,29.8176],[102.9388,29.8158],[102.9424,29.8044],[102.9308,29.7915],[102.9224,29.7875],[102.9218,29.7604],[102.9186,29.7538],[102.9286,29.7352],[102.9334,29.7155],[102.9602,29.726],[102.97,29.7184],[102.9747,29.7107],[102.9867,29.7129],[102.9916,29.7105],[103.0026,29.7139],[103.0046,29.7247],[103.0126,29.7286],[103.0271,29.7204],[103.0318,29.7135],[103.0255,29.707],[103.0314,29.7026],[103.0467,29.7001],[103.0513,29.6776],[103.0674,29.6847],[103.0916,29.6851],[103.0961,29.6961],[103.1065,29.687],[103.1138,29.6866],[103.127,29.6723],[103.1463,29.6712],[103.1447,29.6846],[103.1403,29.6877],[103.1428,29.6965],[103.1416,29.707],[103.1543,29.7205],[103.1446,29.7318],[103.1617,29.743],[103.1577,29.7519],[103.1436,29.7535],[103.1407,29.7614],[103.1565,29.7712],[103.1655,29.7743],[103.1635,29.7947],[103.1539,29.8009],[103.1541,29.8079],[103.1447,29.8193],[103.1404,29.8335],[103.1334,29.844],[103.1328,29.8517],[103.1226,29.8664],[103.1033,29.8768],[103.1018,29.8818],[103.0895,29.8836],[103.0857,29.8986],[103.0979,29.9082],[103.1047,29.9086],[103.1195,29.9173],[103.1494,29.926],[103.1576,29.9267],[103.1611,29.9395],[103.1688,29.9473],[103.18,29.9506],[103.1957,29.9473],[103.1942,29.9583],[103.1888,29.9701],[103.2039,29.9678],[103.211,29.9714],[103.203,29.9711],[103.1929,29.9814],[103.1785,29.9819],[103.1616,29.9885],[103.1509,29.9958],[103.1432,30.0078],[103.1323,30.0132],[103.1396,30.0275],[103.1316,30.0333],[103.1292,30.0395],[103.1185,30.0427],[103.1143,30.0395],[103.1014,30.0423],[103.099,30.0475],[103.0765,30.0467],[103.0679,30.0585],[103.0604,30.0545],[103.0511,30.0573],[103.0408,30.0692],[103.0392,30.0774],[103.0449,30.0836],[103.06,30.0924],[103.061,30.103],[103.0539,30.1096],[103.0593,30.1139],[103.0691,30.1134],[103.0789,30.1168],[103.0828,30.1253],[103.0784,30.129],[103.0849,30.1558],[103.1025,30.1782],[103.1112,30.1837],[103.1215,30.1948],[103.1278,30.2077],[103.1253,30.2131],[103.1091,30.2179],[103.072,30.2229],[103.0762,30.2285],[103.0693,30.2408]]]]},"properties":{"region_code":"CN-51-5118-511802","parent_region_code":"CN-51-5118","name":"雨城区","level":"county","has_children":false,"full_path":"中国 / 四川省 / 雅安市 / 雨城区","source_admin_code":"511802","osm_relation_id":2789730}},
{"type":"Feature","geometry":{"type":"Polygon","coordinates":[[[103.2246,29.9984],[103.2246,30.002],[103.238,30.0052],[103.2415,30.0105],[103.2385,30.0174],[103.2409,30.0241],[103.2573,30.0416],[103.2567,30.0523],[103.27,30.0644],[103.2855,30.0724],[103.2864,30.0772],[103.3018,30.0806],[103.3113,30.0735],[103.321,30.0757],[103.3298,30.0722],[103.3362,30.0757],[103.3399,30.0884],[103.3465,30.0924],[103.3457,30.103],[103.3544,30.0994],[103.3631,30.0813],[103.3733,30.094],[103.3845,30.0916],[103.3925,30.0971],[103.3782,30.1111],[103.373,30.1268],[103.3651,30.1397],[103.3726,30.1521],[103.3617,30.1572],[103.3615,30.1812],[103.3561,30.1919],[103.3686,30.202],[103.3641,30.2084],[103.3708,30.2142],[103.3709,30.228],[103.3603,30.2345],[103.3458,30.2389],[103.3305,30.2383],[103.3226,30.2327],[103.3201,30.241],[103.3204,30.2531],[103.3139,30.2624],[103.3024,30.2679],[103.2889,30.2647],[103.2789,30.2668],[103.2659,30.2591],[103.2394,30.2473],[103.2386,30.2393],[103.233,30.2279],[103.2337,30.2206],[103.2284,30.2103],[103.2203,30.2085],[103.2121,30.2131],[103.2146,30.2223],[103.2112,30.2354],[103.2006,30.2428],[103.1855,30.2457],[103.1776,30.2505],[103.1594,30.2246],[103.1558,30.2161],[103.1478,30.2104],[103.1278,30.2077],[103.1215,30.1948],[103.1112,30.1837],[103.1025,30.1782],[103.0849,30.1558],[103.0784,30.129],[103.0828,30.1253],[103.0789,30.1168],[103.0691,30.1134],[103.0593,30.1139],[103.0539,30.1096],[103.061,30.103],[103.06,30.0924],[103.0449,30.0836],[103.0392,30.0774],[103.0408,30.0692],[103.0511,30.0573],[103.0604,30.0545],[103.0679,30.0585],[103.0765,30.0467],[103.099,30.0475],[103.1014,30.0423],[103.1143,30.0395],[103.1185,30.0427],[103.1292,30.0395],[103.1316,30.0333],[103.1396,30.0275],[103.1323,30.0132],[103.1432,30.0078],[103.1509,29.9958],[103.1616,29.9885],[103.1785,29.9819],[103.1929,29.9814],[103.203,29.9711],[103.211,29.9714],[103.2277,29.9763],[103.2251,29.9824],[103.2175,29.9838],[103.1983,29.9921],[103.2024,29.9999],[103.2246,29.9984]]]},"properties":{"region_code":"CN-51-5118-511803","parent_region_code":"CN-51-5118","name":"名山区","level":"county","has_children":false,"full_path":"中国 / 四川省 / 雅安市 / 名山区","source_admin_code":"511803","osm_relation_id":2789726}},
{"type":"Feature","geometry":{"type":"Polygon","coordinates":[[[102.8807,29.9198],[102.8727,29.9185],[102.8619,29.9101],[102.8508,29.9083],[102.8441,29.9115],[102.838,29.9039],[102.8245,29.8945],[102.8132,29.8903],[102.8015,29.8894],[102.7936,29.8749],[102.7742,29.8597],[102.7599,29.8631],[102.7524,29.876],[102.7268,29.887],[102.7105,29.8973],[102.7088,29.912],[102.6921,29.9187],[102.6909,29.912],[102.675,29.9053],[102.6703,29.9151],[102.6554,29.9243],[102.6452,29.9409],[102.626,29.9418],[102.6165,29.9317],[102.6111,29.9344],[102.599,29.932],[102.5957,29.9391],[102.588,29.9382],[102.58,29.9456],[102.5702,29.9393],[102.545,29.9162],[102.5388,29.9066],[102.5269,29.9063],[102.5179,29.9012],[102.5103,29.9017],[102.4978,29.8979],[102.4989,29.8816],[102.4907,29.877],[102.4757,29.8737],[102.4714,29.8679],[102.4584,29.8646],[102.4515,29.8662],[102.4403,29.8603],[102.4353,29.8532],[102.4265,29.8557],[102.4086,29.857],[102.394,29.8563],[102.3792,29.8335],[102.3726,29.8273],[102.3618,29.8231],[102.3518,29.8237],[102.345,29.8323],[102.3311,29.8329],[102.32,29.829],[102.3235,29.8205],[102.3234,29.8031],[102.3279,29.799],[102.3441,29.7971],[102.344,29.7899],[102.3531,29.7824],[102.3559,29.7748],[102.3489,29.765],[102.3484,29.7566],[102.3388,29.7481],[102.3288,29.7463],[102.3272,29.7372],[102.3353,29.7241],[102.347,29.7152],[102.3572,29.7131],[102.3682,29.7148],[102.3746,29.7197],[102.3809,29.7184],[102.3874,29.7114],[102.3946,29.7101],[102.4105,29.7149],[102.4165,29.7086],[102.4257,29.7044],[102.4318,29.7066],[102.4448,29.7201],[102.4682,29.7224],[102.469,29.7098],[102.4777,29.6978],[102.4901,29.6895],[102.4959,29.6749],[102.5003,29.6712],[102.5122,29.6694],[102.5125,29.658],[102.521,29.6454],[102.5354,29.6469],[102.5398,29.6521],[102.5523,29.6512],[102.5593,29.647],[102.5602,29.6399],[102.5678,29.6385],[102.59,29.645],[102.6002,29.6438],[102.6042,29.6497],[102.6242,29.6491],[102.6306,29.6549],[102.6402,29.6553],[102.6402,29.6484],[102.645,29.6292],[102.6621,29.6141],[102.6704,29.6091],[102.6722,29.5943],[102.684,29.5805],[102.6991,29.5747],[102.706,29.5602],[102.707,29.542],[102.704,29.5351],[102.7175,29.5135],[102.726,29.5075],[102.7374,29.4897],[102.745,29.487],[102.7554,29.4913],[102.7665,29.484],[102.7796,29.48],[102.8017,29.4884],[102.8091,29.4865],[102.8171,29.4762],[102.8285,29.48],[102.8383,29.4862],[102.8385,29.4935],[102.8467,29.5007],[102.8493,29.5113],[102.863,29.523],[102.8669,29.5358],[102.8738,29.5339],[102.8793,29.5403],[102.8894,29.546],[102.897,29.5459],[102.9073,29.5546],[102.9189,29.5581],[102.9232,29.5681],[102.9193,29.5786],[102.9195,29.5872],[102.9238,29.5915],[102.9217,29.6034],[102.9318,29.611],[102.9262,29.6221],[102.9354,29.6424],[102.9231,29.6575],[102.9254,29.6668],[102.938,29.6821],[102.9298,29.6941],[102.9342,29.7005],[102.9334,29.7155],[102.9286,29.7352],[102.9186,29.7538],[102.9218,29.7604],[102.9224,29.7875],[102.9308,29.7915],[102.9424,29.8044],[102.9388,29.8158],[102.9334,29.8176],[102.9314,29.8335],[102.9253,29.8421],[102.9156,29.8433],[102.9017,29.8508],[102.8989,29.8594],[102.8878,29.8543],[102.8714,29.8603],[102.8621,29.8679],[102.8612,29.8778],[102.8745,29.8816],[102.8856,29.8807],[102.8926,29.8981],[102.8871,29.9136],[102.8807,29.9198]]]},"properties":{"region_code":"CN-51-5118-511822","parent_region_code":"CN-51-5118","name":"荥经县","level":"county","has_children":false,"full_path":"中国 / 四川省 / 雅安市 / 荥经县","source_admin_code":"511822","osm_relation_id":2789729}},
{"type":"Feature","geometry":{"type":"Polygon","coordinates":[[[102.3353,29.7241],[102.3211,29.7104],[102.2969,29.6906],[102.2919,29.6728],[102.2941,29.6554],[102.2916,29.6489],[102.2825,29.6393],[102.2895,29.6312],[102.275,29.6115],[102.2802,29.6071],[102.2824,29.5986],[102.2909,29.5903],[102.2928,29.5821],[102.3044,29.5779],[102.3163,29.5654],[102.3198,29.5565],[102.3157,29.55],[102.3117,29.5347],[102.3091,29.5133],[102.3191,29.4988],[102.3168,29.4908],[102.3366,29.4694],[102.3473,29.4695],[102.3611,29.4634],[102.3679,29.4675],[102.3845,29.456],[102.4178,29.4479],[102.4403,29.4473],[102.4472,29.4515],[102.467,29.4504],[102.4772,29.4519],[102.4901,29.4459],[102.4918,29.436],[102.4985,29.4283],[102.5259,29.4188],[102.5411,29.3993],[102.5461,29.3821],[102.5542,29.3769],[102.5602,29.3687],[102.5576,29.3608],[102.5708,29.3456],[102.5665,29.3364],[102.5573,29.3331],[102.5534,29.3244],[102.5535,29.3111],[102.5499,29.3017],[102.5435,29.2946],[102.5311,29.2864],[102.5178,29.2872],[102.5056,29.2836],[102.4945,29.2732],[102.4903,29.2631],[102.4982,29.2542],[102.499,29.2439],[102.5079,29.2314],[102.5178,29.2259],[102.5178,29.2128],[102.5085,29.2008],[102.5039,29.2005],[102.4995,29.1851],[102.5013,29.1795],[102.4962,29.1734],[102.4847,29.1514],[102.4959,29.1388],[102.4968,29.1335],[102.4832,29.1179],[102.486,29.1077],[102.4927,29.1057],[102.5001,29.0954],[102.5133,29.0971],[102.5201,29.1098],[102.5336,29.1188],[102.5525,29.1211],[102.5538,29.1347],[102.5604,29.1383],[102.5587,29.1499],[102.55,29.1566],[102.5644,29.1649],[102.5778,29.166],[102.592,29.1619],[102.599,29.1756],[102.5929,29.1778],[102.5855,29.1874],[102.5876,29.1967],[102.601,29.207],[102.62,29.2097],[102.6332,29.2142],[102.6451,29.1991],[102.6525,29.1924],[102.6462,29.1829],[102.6473,29.1773],[102.6585,29.1716],[102.675,29.1666],[102.6845,29.166],[102.6905,29.1704],[102.7027,29.1669],[102.7173,29.1667],[102.7222,29.1595],[102.7368,29.1553],[102.7468,29.1627],[102.7583,29.1635],[102.7677,29.1604],[102.7749,29.1703],[102.7747,29.1768],[102.7618,29.1982],[102.7629,29.2097],[102.7706,29.2166],[102.7721,29.2229],[102.7826,29.2287],[102.7771,29.2406],[102.7761,29.2488],[102.7843,29.2532],[102.7892,29.2607],[102.803,29.2496],[102.8127,29.2528],[102.8263,29.249],[102.8321,29.2438],[102.831,29.2339],[102.833,29.2136],[102.8415,29.2082],[102.8685,29.2057],[102.8906,29.2146],[102.9045,29.2266],[102.9061,29.2356],[102.9041,29.2462],[102.9087,29.2626],[102.9195,29.2803],[102.9246,29.2853],[102.9286,29.2986],[102.9374,29.3046],[102.9618,29.3034],[102.9833,29.2928],[103.0014,29.2899],[102.9995,29.3006],[102.9925,29.3024],[102.9869,29.3129],[102.9785,29.3193],[102.983,29.325],[102.9792,29.3404],[102.9794,29.3483],[102.9889,29.3616],[102.9967,29.3685],[102.9944,29.3832],[102.9818,29.3909],[102.9744,29.3988],[102.973,29.4082],[102.9476,29.4111],[102.9327,29.4029],[102.9165,29.4156],[102.9016,29.419],[102.9072,29.4329],[102.9055,29.4404],[102.8947,29.4463],[102.892,29.4755],[102.8835,29.4807],[102.869,29.4776],[102.8688,29.4872],[102.8467,29.5007],[102.8385,29.4935],[102.8383,29.4862],[102.8285,29.48],[102.8171,29.4762],[102.8091,29.4865],[102.8017,29.4884],[102.7796,29.48],[102.7665,29.484],[102.7554,29.4913],[102.745,29.487],[102.7374,29.4897],[102.726,29.5075],[102.7175,29.5135],[102.704,29.5351],[102.707,29.542],[102.706,29.5602],[102.6991,29.5747],[102.684,29.5805],[102.6722,29.5943],[102.6704,29.6091],[102.6621,29.6141],[102.645,29.6292],[102.6402,29.6484],[102.6402,29.6553],[102.6306,29.6549],[102.6242,29.6491],[102.6042,29.6497],[102.6002,29.6438],[102.59,29.645],[102.5678,29.6385],[102.5602,29.6399],[102.5593,29.647],[102.5523,29.6512],[102.5398,29.6521],[102.5354,29.6469],[102.521,29.6454],[102.5125,29.658],[102.5122,29.6694],[102.5003,29.6712],[102.4959,29.6749],[102.4901,29.6895],[102.4777,29.6978],[102.469,29.7098],[102.4682,29.7224],[102.4448,29.7201],[102.4318,29.7066],[102.4257,29.7044],[102.4165,29.7086],[102.4105,29.7149],[102.3946,29.7101],[102.3874,29.7114],[102.3809,29.7184],[102.3746,29.7197],[102.3682,29.7148],[102.3572,29.7131],[102.347,29.7152],[102.3353,29.7241]]]},"properties":{"region_code":"CN-51-5118-511823","parent_region_code":"CN-51-5118","name":"汉源县","level":"county","has_children":false,"full_path":"中国 / 四川省 / 雅安市 / 汉源县","source_admin_code":"511823","osm_relation_id":2789724}},
{"type":"Feature","geometry":{"type":"Polygon","coordinates":[[[102.3117,29.5347],[102.3006,29.5257],[102.2884,29.5199],[102.2838,29.5146],[102.2668,29.5037],[102.2599,29.4954],[102.2521,29.4927],[102.2316,29.4793],[102.2216,29.4746],[102.2042,29.4625],[102.1908,29.4638],[102.1927,29.4709],[102.1713,29.469],[102.1692,29.4773],[102.1774,29.4905],[102.1757,29.5027],[102.1767,29.5162],[102.1675,29.516],[102.1641,29.5363],[102.1484,29.5354],[102.1417,29.5283],[102.1435,29.5057],[102.1322,29.5117],[102.1183,29.5111],[102.1061,29.5071],[102.1036,29.5018],[102.0927,29.4976],[102.0708,29.4969],[102.067,29.5003],[102.0568,29.4973],[102.0347,29.5012],[102.0201,29.4952],[102.005,29.4921],[101.987,29.4956],[101.9699,29.4937],[101.9581,29.5038],[101.9495,29.5062],[101.9363,29.5017],[101.9403,29.4946],[101.9415,29.4823],[101.9478,29.4726],[101.9485,29.4606],[101.944,29.4445],[101.9515,29.4404],[101.9675,29.4385],[101.9708,29.4321],[101.9823,29.4286],[101.9765,29.412],[101.9712,29.4051],[101.9749,29.3929],[101.967,29.3768],[101.9582,29.3729],[101.9536,29.3589],[101.9456,29.3507],[101.9549,29.324],[101.9589,29.3164],[101.9753,29.3056],[101.9861,29.3006],[102.0164,29.3005],[102.021,29.2941],[102.0298,29.2936],[102.0498,29.3007],[102.0546,29.2957],[102.0679,29.2925],[102.0719,29.2864],[102.0875,29.2813],[102.1079,29.2584],[102.1135,29.2496],[102.1234,29.2412],[102.1251,29.2357],[102.1144,29.222],[102.1041,29.2203],[102.1004,29.2159],[102.0755,29.2003],[102.065,29.1997],[102.0514,29.1802],[102.0705,29.172],[102.08,29.1721],[102.0975,29.1871],[102.1083,29.1896],[102.1124,29.1852],[102.121,29.1847],[102.1297,29.1773],[102.1279,29.1638],[102.1396,29.1561],[102.1472,29.1468],[102.1527,29.1451],[102.1582,29.1367],[102.156,29.1207],[102.1496,29.1094],[102.1553,29.0863],[102.1679,29.0789],[102.1532,29.0526],[102.1567,29.0417],[102.1708,29.0401],[102.187,29.0282],[102.1785,29.0181],[102.1859,29.0122],[102.1933,28.9978],[102.198,28.9967],[102.2061,28.9771],[102.2203,28.967],[102.2275,28.9673],[102.234,28.9598],[102.2313,28.9498],[102.233,28.9428],[102.2427,28.9388],[102.2488,28.9279],[102.246,28.9136],[102.2603,28.9027],[102.2694,28.9084],[102.2765,28.9023],[102.2886,28.9034],[102.2929,28.8988],[102.3117,28.8952],[102.3155,28.8847],[102.3277,28.8835],[102.3301,28.8756],[102.3447,28.859],[102.3645,28.8557],[102.3792,28.8579],[102.3852,28.8559],[102.4008,28.8578],[102.4304,28.8525],[102.4374,28.861],[102.4416,28.8708],[102.4595,28.8738],[102.4589,28.8916],[102.4614,28.9002],[102.4764,28.9112],[102.482,28.9191],[102.483,28.9412],[102.4758,28.9475],[102.4713,28.9579],[102.4749,28.9635],[102.4692,28.975],[102.4765,28.9928],[102.4871,28.9954],[102.4938,29.0046],[102.501,29.0094],[102.5047,29.0255],[102.5105,29.034],[102.5231,29.0351],[102.5238,29.0449],[102.5156,29.0595],[102.5155,29.0682],[102.5201,29.0714],[102.5235,29.0849],[102.5133,29.0971],[102.5001,29.0954],[102.4927,29.1057],[102.486,29.1077],[102.4832,29.1179],[102.4968,29.1335],[102.4959,29.1388],[102.4847,29.1514],[102.4962,29.1734],[102.5013,29.1795],[102.4995,29.1851],[102.5039,29.2005],[102.5085,29.2008],[102.5178,29.2128],[102.5178,29.2259],[102.5079,29.2314],[102.499,29.2439],[102.4982,29.2542],[102.4903,29.2631],[102.4945,29.2732],[102.5056,29.2836],[102.5178,29.2872],[102.5311,29.2864],[102.5435,29.2946],[102.5499,29.3017],[102.5535,29.3111],[102.5534,29.3244],[102.5573,29.3331],[102.5665,29.3364],[102.5708,29.3456],[102.5576,29.3608],[102.5602,29.3687],[102.5542,29.3769],[102.5461,29.3821],[102.5411,29.3993],[102.5259,29.4188],[102.4985,29.4283],[102.4918,29.436],[102.4901,29.4459],[102.4772,29.4519],[102.467,29.4504],[102.4472,29.4515],[102.4403,29.4473],[102.4178,29.4479],[102.3845,29.456],[102.3679,29.4675],[102.3611,29.4634],[102.3473,29.4695],[102.3366,29.4694],[102.3168,29.4908],[102.3191,29.4988],[102.3091,29.5133],[102.3117,29.5347]]]},"properties":{"region_code":"CN-51-5118-511824","parent_region_code":"CN-51-5118","name":"石棉县","level":"county","has_children":false,"full_path":"中国 / 四川省 / 雅安市 / 石棉县","source_admin_code":"511824","osm_relation_id":2789727}},
{"type":"Feature","geometry":{"type":"Polygon","coordinates":[[[102.9055,30.0188],[102.8982,30.0249],[102.8905,30.025],[102.8888,30.034],[102.8828,30.0383],[102.8882,30.0569],[102.8949,30.0663],[102.8893,30.0719],[102.8889,30.0863],[102.9032,30.0997],[102.9126,30.1037],[102.9128,30.1106],[102.8916,30.1171],[102.8892,30.1254],[102.8796,30.1369],[102.8701,30.1384],[102.8641,30.1471],[102.8753,30.1542],[102.8736,30.1625],[102.8668,30.1685],[102.8705,30.1741],[102.8635,30.1823],[102.8664,30.1946],[102.8654,30.2026],[102.8531,30.207],[102.8401,30.2102],[102.8272,30.2064],[102.8156,30.197],[102.8025,30.173],[102.8021,30.1628],[102.7964,30.1574],[102.7851,30.1534],[102.7811,30.1574],[102.7727,30.1854],[102.7663,30.1889],[102.7552,30.1892],[102.7383,30.1866],[102.7251,30.1939],[102.7188,30.1947],[102.7265,30.2082],[102.7155,30.2212],[102.7256,30.2439],[102.7116,30.2463],[102.7057,30.2564],[102.6991,30.2576],[102.6831,30.254],[102.6694,30.2735],[102.6705,30.281],[102.6662,30.3014],[102.6575,30.3015],[102.6507,30.3115],[102.6388,30.3079],[102.6239,30.3072],[102.6199,30.3117],[102.6077,30.31],[102.6051,30.3168],[102.5948,30.3281],[102.5871,30.3416],[102.5713,30.3549],[102.5491,30.3558],[102.5281,30.3376],[102.5194,30.3328],[102.5042,30.3313],[102.4913,30.3365],[102.4814,30.3368],[102.4753,30.3286],[102.4669,30.3281],[102.4467,30.3201],[102.4391,30.3123],[102.4149,30.3141],[102.4084,30.3091],[102.4136,30.2934],[102.4052,30.2821],[102.4106,30.2756],[102.4061,30.268],[102.4064,30.2601],[102.3965,30.2322],[102.3906,30.2323],[102.3844,30.2242],[102.3714,30.2314],[102.3507,30.2097],[102.348,30.202],[102.3401,30.2067],[102.3298,30.1994],[102.33,30.1928],[102.3227,30.185],[102.3216,30.1701],[102.3116,30.1678],[102.2965,30.1443],[102.2952,30.1324],[102.2915,30.1292],[102.2881,30.1111],[102.2955,30.1003],[102.28,30.0937],[102.2669,30.0804],[102.2723,30.0665],[102.273,30.0561],[102.2773,30.0425],[102.2724,30.0329],[102.2751,30.0035],[102.2868,30.0004],[102.295,29.9939],[102.2942,29.9725],[102.3007,29.9616],[102.3007,29.951],[102.2933,29.9426],[102.2964,29.9322],[102.2842,29.9225],[102.281,29.9072],[102.2834,29.9039],[102.2782,29.894],[102.2689,29.8838],[102.2727,29.8698],[102.2819,29.8615],[102.2906,29.858],[102.2879,29.8421],[102.3107,29.8269],[102.32,29.829],[102.3311,29.8329],[102.345,29.8323],[102.3518,29.8237],[102.3618,29.8231],[102.3726,29.8273],[102.3792,29.8335],[102.394,29.8563],[102.4086,29.857],[102.4265,29.8557],[102.4353,29.8532],[102.4403,29.8603],[102.4515,29.8662],[102.4584,29.8646],[102.4714,29.8679],[102.4757,29.8737],[102.4907,29.877],[102.4989,29.8816],[102.4978,29.8979],[102.5103,29.9017],[102.5179,29.9012],[102.5269,29.9063],[102.5388,29.9066],[102.545,29.9162],[102.5702,29.9393],[102.58,29.9456],[102.588,29.9382],[102.5957,29.9391],[102.599,29.932],[102.6111,29.9344],[102.6165,29.9317],[102.626,29.9418],[102.6452,29.9409],[102.6554,29.9243],[102.6703,29.9151],[102.675,29.9053],[102.6909,29.912],[102.6921,29.9187],[102.7088,29.912],[102.7105,29.8973],[102.7268,29.887],[102.7524,29.876],[102.7599,29.8631],[102.7742,29.8597],[102.7936,29.8749],[102.8015,29.8894],[102.8132,29.8903],[102.8245,29.8945],[102.838,29.9039],[102.8441,29.9115],[102.8508,29.9083],[102.8619,29.9101],[102.8727,29.9185],[102.8807,29.9198],[102.8805,29.9256],[102.8735,29.931],[102.8708,29.9431],[102.886,29.9492],[102.8994,29.9586],[102.905,29.967],[102.9097,29.9836],[102.9115,30.011],[102.9055,30.0188]]]},"properties":{"region_code":"CN-51-5118-511825","parent_region_code":"CN-51-5118","name":"天全县","level":"county","has_children":false,"full_path":"中国 / 四川省 / 雅安市 / 天全县","source_admin_code":"511825","osm_relation_id":2789728}},
{"type":"Feature","geometry":{"type":"Polygon","coordinates":[[[103.0693,30.2408],[103.07,30.261],[103.0587,30.269],[103.0588,30.2764],[103.0669,30.3002],[103.06,30.3055],[103.0626,30.315],[103.0697,30.3168],[103.077,30.3266],[103.0841,30.3262],[103.103,30.3437],[103.1168,30.3591],[103.1265,30.3746],[103.1227,30.3796],[103.1138,30.38],[103.119,30.394],[103.1172,30.412],[103.1134,30.4154],[103.1261,30.4393],[103.1341,30.4393],[103.1386,30.4452],[103.1229,30.4527],[103.1454,30.4777],[103.155,30.4796],[103.1668,30.4866],[103.1742,30.5013],[103.1849,30.513],[103.1785,30.5268],[103.1649,30.5268],[103.1537,30.5315],[103.1623,30.5473],[103.164,30.5644],[103.1472,30.5747],[103.1493,30.5845],[103.1451,30.5883],[103.1329,30.5844],[103.1263,30.5907],[103.1243,30.6162],[103.1338,30.6281],[103.1298,30.642],[103.1298,30.6526],[103.133,30.6594],[103.1234,30.6609],[103.1209,30.6708],[103.114,30.6745],[103.0988,30.6762],[103.0917,30.6856],[103.0887,30.6942],[103.0761,30.7012],[103.0768,30.7142],[103.0688,30.7193],[103.0419,30.7063],[103.0287,30.7067],[103.0332,30.7238],[103.0255,30.7294],[103.0201,30.7383],[103.013,30.74],[103.002,30.7493],[102.9948,30.7653],[102.9957,30.7744],[102.9883,30.7829],[102.9791,30.7809],[102.9642,30.7734],[102.9488,30.7684],[102.9362,30.7714],[102.9141,30.7603],[102.9081,30.7436],[102.9139,30.7303],[102.9297,30.7264],[102.9278,30.7085],[102.9177,30.6957],[102.9222,30.6887],[102.9191,30.6711],[102.9215,30.6668],[102.9313,30.6656],[102.9389,30.6691],[102.9576,30.6677],[102.9632,30.6578],[102.9745,30.6496],[103.0089,30.6392],[103.0233,30.6233],[103.0333,30.6186],[103.0242,30.6113],[103.0248,30.6019],[103.0157,30.5944],[103.0045,30.5905],[103.0008,30.578],[102.991,30.5713],[102.9834,30.5543],[102.9738,30.5503],[102.9723,30.5355],[102.968,30.5252],[102.9703,30.5174],[102.9598,30.5066],[102.953,30.4947],[102.9546,30.4877],[102.9434,30.4778],[102.9392,30.4669],[102.9421,30.4592],[102.9553,30.4413],[102.9509,30.4362],[102.9396,30.4359],[102.9164,30.4316],[102.9082,30.419],[102.8956,30.4115],[102.8901,30.3991],[102.8918,30.39],[102.9214,30.3713],[102.9224,30.3656],[102.9345,30.3527],[102.9289,30.3482],[102.9293,30.3402],[102.9194,30.3264],[102.8931,30.3097],[102.894,30.3051],[102.8755,30.2956],[102.8771,30.287],[102.8663,30.2729],[102.8716,30.2621],[102.8695,30.2521],[102.8726,30.2432],[102.884,30.2449],[102.8883,30.2346],[102.8833,30.2324],[102.8652,30.2313],[102.8581,30.2237],[102.8611,30.212],[102.8531,30.207],[102.8654,30.2026],[102.8664,30.1946],[102.8635,30.1823],[102.8705,30.1741],[102.8668,30.1685],[102.8736,30.1625],[102.8753,30.1542],[102.8641,30.1471],[102.8701,30.1384],[102.8796,30.1369],[102.8892,30.1254],[102.8916,30.1171],[102.9128,30.1106],[102.9126,30.1037],[102.9032,30.0997],[102.8889,30.0863],[102.8893,30.0719],[102.8949,30.0663],[102.8882,30.0569],[102.8828,30.0383],[102.8888,30.034],[102.8905,30.025],[102.8982,30.0249],[102.9055,30.0188],[102.9161,30.0283],[102.9131,30.0362],[102.925,30.0482],[102.9446,30.0531],[102.9499,30.0599],[102.9534,30.073],[102.9674,30.0953],[102.9772,30.1056],[102.9815,30.1229],[102.9789,30.1291],[102.9801,30.143],[102.9934,30.1634],[103.0006,30.1809],[103.0168,30.2074],[103.0287,30.2191],[103.0412,30.2241],[103.0554,30.2349],[103.0693,30.2408]]]},"properties":{"region_code":"CN-51-5118-511826","parent_region_code":"CN-51-5118","name":"芦山县","level":"county","has_children":false,"full_path":"中国 / 四川省 / 雅安市 / 芦山县","source_admin_code":"511826","osm_relation_id":2789725}},
{"type":"Feature","geometry":{"type":"Polygon","coordinates":[[[102.8531,30.207],[102.8611,30.212],[102.8581,30.2237],[102.8652,30.2313],[102.8833,30.2324],[102.8883,30.2346],[102.884,30.2449],[102.8726,30.2432],[102.8695,30.2521],[102.8716,30.2621],[102.8663,30.2729],[102.8771,30.287],[102.8755,30.2956],[102.894,30.3051],[102.8931,30.3097],[102.9194,30.3264],[102.9293,30.3402],[102.9289,30.3482],[102.9345,30.3527],[102.9224,30.3656],[102.9214,30.3713],[102.8918,30.39],[102.8901,30.3991],[102.8956,30.4115],[102.9082,30.419],[102.9164,30.4316],[102.9396,30.4359],[102.9509,30.4362],[102.9553,30.4413],[102.9421,30.4592],[102.9392,30.4669],[102.9434,30.4778],[102.9546,30.4877],[102.953,30.4947],[102.9598,30.5066],[102.9703,30.5174],[102.968,30.5252],[102.9723,30.5355],[102.9738,30.5503],[102.9834,30.5543],[102.991,30.5713],[103.0008,30.578],[103.0045,30.5905],[103.0157,30.5944],[103.0248,30.6019],[103.0242,30.6113],[103.0333,30.6186],[103.0233,30.6233],[103.0089,30.6392],[102.9745,30.6496],[102.9632,30.6578],[102.9576,30.6677],[102.9389,30.6691],[102.9313,30.6656],[102.9215,30.6668],[102.9191,30.6711],[102.9222,30.6887],[102.9177,30.6957],[102.9278,30.7085],[102.9297,30.7264],[102.9139,30.7303],[102.9081,30.7436],[102.9141,30.7603],[102.9079,30.7669],[102.8978,30.765],[102.8812,30.7686],[102.8798,30.7781],[102.8688,30.7951],[102.8673,30.8045],[102.8623,30.8086],[102.8747,30.8225],[102.8737,30.8287],[102.8832,30.8515],[102.8942,30.8993],[102.8928,30.9048],[102.885,30.9085],[102.8774,30.9192],[102.8585,30.9395],[102.8385,30.9372],[102.8311,30.9302],[102.8257,30.9304],[102.8144,30.941],[102.8081,30.9343],[102.7923,30.9314],[102.783,30.9331],[102.7765,30.9215],[102.7574,30.9298],[102.7546,30.9214],[102.7446,30.9124],[102.7271,30.9233],[102.7151,30.9263],[102.7121,30.9196],[102.7027,30.9142],[102.6937,30.9138],[102.6871,30.9054],[102.6842,30.8948],[102.6848,30.8618],[102.6652,30.8528],[102.6528,30.8561],[102.6467,30.8509],[102.6316,30.853],[102.6208,30.8467],[102.609,30.8497],[102.59,30.8515],[102.5811,30.8502],[102.5698,30.8356],[102.5632,30.8225],[102.558,30.8192],[102.5487,30.8217],[102.5347,30.8149],[102.5335,30.8046],[102.5254,30.7963],[102.5056,30.8009],[102.4943,30.7946],[102.4857,30.7831],[102.4755,30.7764],[102.4683,30.7682],[102.4703,30.759],[102.4874,30.7426],[102.4839,30.7308],[102.4846,30.7206],[102.4924,30.7149],[102.4827,30.7034],[102.4841,30.6858],[102.4798,30.6774],[102.4715,30.6747],[102.4714,30.668],[102.4773,30.6633],[102.4714,30.6545],[102.472,30.6451],[102.467,30.636],[102.4488,30.6282],[102.4441,30.6181],[102.4353,30.6122],[102.433,30.5907],[102.4301,30.5831],[102.4236,30.5795],[102.4279,30.5722],[102.4242,30.5476],[102.4154,30.5229],[102.4183,30.5082],[102.4116,30.4963],[102.4178,30.4816],[102.414,30.477],[102.4208,30.468],[102.4168,30.4627],[102.4166,30.4501],[102.4226,30.4444],[102.4237,30.4336],[102.4318,30.4295],[102.4356,30.4212],[102.429,30.4187],[102.4227,30.4095],[102.4176,30.3891],[102.4296,30.3748],[102.4314,30.3577],[102.419,30.344],[102.4199,30.3317],[102.4149,30.3141],[102.4391,30.3123],[102.4467,30.3201],[102.4669,30.3281],[102.4753,30.3286],[102.4814,30.3368],[102.4913,30.3365],[102.5042,30.3313],[102.5194,30.3328],[102.5281,30.3376],[102.5491,30.3558],[102.5713,30.3549],[102.5871,30.3416],[102.5948,30.3281],[102.6051,30.3168],[102.6077,30.31],[102.6199,30.3117],[102.6239,30.3072],[102.6388,30.3079],[102.6507,30.3115],[102.6575,30.3015],[102.6662,30.3014],[102.6705,30.281],[102.6694,30.2735],[102.6831,30.254],[102.6991,30.2576],[102.7057,30.2564],[102.7116,30.2463],[102.7256,30.2439],[102.7155,30.2212],[102.7265,30.2082],[102.7188,30.1947],[102.7251,30.1939],[102.7383,30.1866],[102.7552,30.1892],[102.7663,30.1889],[102.7727,30.1854],[102.7811,30.1574],[102.7851,30.1534],[102.7964,30.1574],[102.8021,30.1628],[102.8025,30.173],[102.8156,30.197],[102.8272,30.2064],[102.8401,30.2102],[102.8531,30.207]]]},"properties":{"region_code":"CN-51-5118-511827","parent_region_code":"CN-51-5118","name":"宝兴县","level":"county","has_children":false,"full_path":"中国 / 四川省 / 雅安市 / 宝兴县","source_admin_code":"511827","osm_relation_id":2789723}}
]}