{"type":"FeatureCollection", "features": [
{"type":"Feature","geometry":{"type":"Polygon","coordinates":[[[109.3221,27.8695],[109.2943,27.8541],[109.243,27.867],[109.2006,27.8425],[109.1683,27.8421],[109.145,27.8672],[109.1193,27.8757],[109.0853,27.8641],[109.1085,27.8499],[109.1057,27.831],[109.0508,27.792],[109.0418,27.8045],[108.9904,27.7835],[108.9644,27.7935],[108.948,27.7885],[108.9339,27.753],[108.9575,27.7237],[108.9666,27.6844],[108.9468,27.6749],[108.9344,27.6524],[108.9435,27.6339],[108.9935,27.6269],[109.014,27.65],[109.0252,27.6452],[109.0392,27.6157],[109.1292,27.632],[109.1385,27.6613],[109.135,27.6838],[109.168,27.7018],[109.1931,27.6793],[109.271,27.6707],[109.2515,27.6476],[109.2081,27.6538],[109.1961,27.6295],[109.2353,27.6102],[109.2604,27.6215],[109.2818,27.6115],[109.3416,27.6261],[109.3568,27.615],[109.3844,27.5446],[109.4045,27.5548],[109.4238,27.5499],[109.4389,27.5658],[109.4608,27.6078],[109.47,27.6405],[109.4603,27.6525],[109.4657,27.6832],[109.4258,27.7068],[109.4143,27.7239],[109.3699,27.7295],[109.3586,27.7637],[109.3274,27.7949],[109.3387,27.8154],[109.341,27.8407],[109.3221,27.8695]]]},"properties":{"region_code":"CN-52-5206-520602","parent_region_code":"CN-52-5206","name":"碧江区","level":"county","has_children":false,"full_path":"中国 / 贵州省 / 铜仁市 / 碧江区","source_admin_code":"520602","osm_relation_id":2778213}},
{"type":"Feature","geometry":{"type":"Polygon","coordinates":[[[108.9935,27.6269],[108.9491,27.5948],[108.9598,27.5838],[108.9389,27.5537],[108.9186,27.5728],[108.8762,27.5858],[108.8751,27.5517],[108.8389,27.5246],[108.8542,27.5005],[108.8875,27.4915],[108.9057,27.496],[108.923,27.523],[108.9424,27.5017],[108.9736,27.4921],[108.948,27.4736],[108.961,27.4559],[108.9861,27.4583],[109.0124,27.4473],[109.0338,27.4575],[109.0508,27.4792],[109.0935,27.519],[109.1224,27.514],[109.1471,27.5219],[109.1457,27.4973],[109.156,27.4818],[109.1491,27.4524],[109.1669,27.426],[109.1892,27.4382],[109.2058,27.4613],[109.2205,27.4404],[109.2896,27.4267],[109.3023,27.4377],[109.3019,27.484],[109.3844,27.5446],[109.3568,27.615],[109.3416,27.6261],[109.2818,27.6115],[109.2604,27.6215],[109.2353,27.6102],[109.1961,27.6295],[109.2081,27.6538],[109.2515,27.6476],[109.271,27.6707],[109.1931,27.6793],[109.168,27.7018],[109.135,27.6838],[109.1385,27.6613],[109.1292,27.632],[109.0392,27.6157],[109.0252,27.6452],[109.014,27.65],[108.9935,27.6269]]]},"properties":{"region_code":"CN-52-5206-520603","parent_region_code":"CN-52-5206","name":"万山区","level":"county","has_children":false,"full_path":"中国 / 贵州省 / 铜仁市 / 万山区","source_admin_code":"520603","osm_relation_id":2778219}},
{"type":"Feature","geometry":{"type":"Polygon","coordinates":[[[109.0853,27.8641],[109.0569,27.8331],[109.0365,27.8526],[109.0685,27.871],[109.0797,27.9007],[109.0435,27.9065],[109.0294,27.8891],[109.0008,27.8912],[108.9918,27.8799],[108.9678,27.8886],[108.939,27.8842],[108.9124,27.909],[108.8827,27.8987],[108.8371,27.8931],[108.8438,27.9097],[108.8153,27.9325],[108.7865,27.929],[108.7613,27.9523],[108.7436,27.9586],[108.6941,27.9235],[108.6411,27.9065],[108.6223,27.8939],[108.5893,27.8874],[108.5617,27.8937],[108.5474,27.859],[108.5439,27.8204],[108.5075,27.8144],[108.4929,27.7811],[108.4955,27.7516],[108.5123,27.7494],[108.5546,27.7585],[108.5726,27.7477],[108.6105,27.683],[108.5869,27.6758],[108.5558,27.632],[108.5416,27.5856],[108.559,27.5676],[108.5378,27.545],[108.5512,27.4986],[108.5455,27.4854],[108.5796,27.4838],[108.5902,27.5123],[108.6107,27.5274],[108.6628,27.5106],[108.7033,27.5213],[108.7352,27.4912],[108.7568,27.4861],[108.7997,27.4909],[108.817,27.5025],[108.8542,27.5005],[108.8389,27.5246],[108.8751,27.5517],[108.8762,27.5858],[108.9186,27.5728],[108.9389,27.5537],[108.9598,27.5838],[108.9491,27.5948],[108.9935,27.6269],[108.9435,27.6339],[108.9344,27.6524],[108.9468,27.6749],[108.9666,27.6844],[108.9575,27.7237],[108.9339,27.753],[108.948,27.7885],[108.9644,27.7935],[108.9904,27.7835],[109.0418,27.8045],[109.0508,27.792],[109.1057,27.831],[109.1085,27.8499],[109.0853,27.8641]]]},"properties":{"region_code":"CN-52-5206-520621","parent_region_code":"CN-52-5206","name":"江口县","level":"county","has_children":false,"full_path":"中国 / 贵州省 / 铜仁市 / 江口县","source_admin_code":"520621","osm_relation_id":2778215}},
{"type":"Feature","geometry":{"type":"Polygon","coordinates":[[[109.0124,27.4473],[109.0305,27.4159],[109.0141,27.3757],[108.9517,27.3782],[108.9288,27.3646],[108.9058,27.3676],[108.8959,27.3495],[108.879,27.3485],[108.8563,27.3701],[108.8387,27.3509],[108.8621,27.3103],[108.8435,27.2579],[108.826,27.2429],[108.8215,27.2206],[108.8003,27.2002],[108.8494,27.1784],[108.8544,27.1562],[108.8827,27.1339],[108.9013,27.1369],[108.9256,27.1833],[108.9051,27.2071],[108.9097,27.2174],[108.9618,27.2394],[108.9867,27.2736],[109.0361,27.2792],[109.0494,27.2969],[109.0423,27.3297],[109.0996,27.3397],[109.1141,27.3648],[109.1202,27.3918],[109.1097,27.4279],[109.1491,27.4524],[109.156,27.4818],[109.1457,27.4973],[109.1471,27.5219],[109.1224,27.514],[109.0935,27.519],[109.0508,27.4792],[109.0338,27.4575],[109.0124,27.4473]]]},"properties":{"region_code":"CN-52-5206-520622","parent_region_code":"CN-52-5206","name":"玉屏侗族自治县","level":"county","has_children":false,"full_path":"中国 / 贵州省 / 铜仁市 / 玉屏侗族自治县","source_admin_code":"520622","osm_relation_id":2778222}},
{"type":"Feature","geometry":{"type":"Polygon","coordinates":[[[108.5558,27.632],[108.5235,27.6188],[108.5084,27.6273],[108.4572,27.61],[108.4388,27.5948],[108.4096,27.5952],[108.3757,27.6199],[108.3462,27.6504],[108.348,27.6627],[108.3223,27.6787],[108.2899,27.6577],[108.2364,27.6871],[108.2512,27.7043],[108.2317,27.7187],[108.2123,27.6941],[108.2041,27.6604],[108.2192,27.6529],[108.2126,27.632],[108.1719,27.6554],[108.1626,27.673],[108.1727,27.6872],[108.1497,27.7012],[108.1262,27.7012],[108.1232,27.6773],[108.0741,27.6231],[108.0634,27.5885],[108.0312,27.5291],[107.9898,27.555],[107.9652,27.5929],[107.9505,27.6],[107.9349,27.6307],[107.9001,27.6359],[107.9051,27.5791],[107.8721,27.5505],[107.8493,27.5575],[107.8291,27.546],[107.8046,27.4923],[107.7626,27.4794],[107.7496,27.4652],[107.7591,27.4466],[107.8017,27.4193],[107.7662,27.3967],[107.7702,27.3643],[107.8086,27.3372],[107.8356,27.3292],[107.8699,27.3467],[107.9161,27.3394],[107.9466,27.3576],[107.973,27.3257],[108,27.3202],[108.0605,27.3259],[108.078,27.3337],[108.1263,27.3284],[108.1451,27.3034],[108.175,27.2959],[108.2022,27.3604],[108.2331,27.3689],[108.278,27.3491],[108.3171,27.3528],[108.3511,27.3809],[108.4047,27.4106],[108.4199,27.4272],[108.4569,27.4219],[108.4719,27.4105],[108.4867,27.4262],[108.507,27.4216],[108.5276,27.47],[108.5455,27.4854],[108.5512,27.4986],[108.5378,27.545],[108.559,27.5676],[108.5416,27.5856],[108.5558,27.632]]]},"properties":{"region_code":"CN-52-5206-520623","parent_region_code":"CN-52-5206","name":"石阡县","level":"county","has_children":false,"full_path":"中国 / 贵州省 / 铜仁市 / 石阡县","source_admin_code":"520623","osm_relation_id":2778216}},
{"type":"Feature","geometry":{"type":"Polygon","coordinates":[[[108.348,27.6627],[108.3703,27.6715],[108.3979,27.6648],[108.427,27.6853],[108.4411,27.7444],[108.4239,27.8151],[108.3884,27.796],[108.3703,27.8253],[108.3542,27.8335],[108.3156,27.8363],[108.3372,27.8822],[108.3657,27.8809],[108.3813,27.9044],[108.3582,27.9133],[108.3577,27.9661],[108.3396,27.9723],[108.3451,28.003],[108.3146,28.0267],[108.3026,28.0621],[108.2851,28.0817],[108.2647,28.0685],[108.2336,28.0728],[108.2088,28.1008],[108.2132,28.1464],[108.1809,28.1482],[108.1727,28.1291],[108.1756,28.1026],[108.1524,28.1037],[108.1177,28.1229],[108.0891,28.0903],[108.0469,28.0614],[107.995,28.0583],[107.9538,28.0467],[107.9621,28.0232],[107.9282,28.012],[107.9111,27.9766],[107.9076,27.9535],[107.9222,27.9218],[107.9132,27.9033],[107.8921,27.8983],[107.8812,27.8811],[107.8843,27.8476],[107.9088,27.8131],[107.9371,27.7928],[107.9451,27.7783],[107.9209,27.7366],[107.9236,27.7054],[107.9347,27.6877],[107.9115,27.6601],[107.9001,27.6359],[107.9349,27.6307],[107.9505,27.6],[107.9652,27.5929],[107.9898,27.555],[108.0312,27.5291],[108.0634,27.5885],[108.0741,27.6231],[108.1232,27.6773],[108.1262,27.7012],[108.1497,27.7012],[108.1727,27.6872],[108.1626,27.673],[108.1719,27.6554],[108.2126,27.632],[108.2192,27.6529],[108.2041,27.6604],[108.2123,27.6941],[108.2317,27.7187],[108.2512,27.7043],[108.2364,27.6871],[108.2899,27.6577],[108.3223,27.6787],[108.348,27.6627]]]},"properties":{"region_code":"CN-52-5206-520624","parent_region_code":"CN-52-5206","name":"思南县","level":"county","has_children":false,"full_path":"中国 / 贵州省 / 铜仁市 / 思南县","source_admin_code":"520624","osm_relation_id":2778217}},
{"type":"Feature","geometry":{"type":"Polygon","coordinates":[[[108.7436,27.9586],[108.7504,27.9902],[108.7469,28.0343],[108.7538,28.0501],[108.7411,28.0658],[108.7496,28.1035],[108.7737,28.1198],[108.8009,28.1695],[108.7659,28.1892],[108.7624,28.1417],[108.7558,28.1341],[108.7152,28.1448],[108.7078,28.1308],[108.6498,28.1461],[108.6545,28.1663],[108.6461,28.1893],[108.642,28.237],[108.6455,28.2738],[108.6364,28.2917],[108.609,28.2878],[108.6,28.3094],[108.5615,28.3233],[108.5447,28.3204],[108.5333,28.3408],[108.5109,28.3332],[108.504,28.2986],[108.477,28.2775],[108.4556,28.2474],[108.4401,28.2138],[108.4218,28.2229],[108.3945,28.1747],[108.3692,28.1652],[108.3361,28.111],[108.3286,28.0824],[108.3026,28.0621],[108.3146,28.0267],[108.3451,28.003],[108.3396,27.9723],[108.3577,27.9661],[108.3582,27.9133],[108.3813,27.9044],[108.3657,27.8809],[108.3372,27.8822],[108.3156,27.8363],[108.3542,27.8335],[108.3703,27.8253],[108.3884,27.796],[108.4239,27.8151],[108.4411,27.7444],[108.427,27.6853],[108.3979,27.6648],[108.3703,27.6715],[108.348,27.6627],[108.3462,27.6504],[108.3757,27.6199],[108.4096,27.5952],[108.4388,27.5948],[108.4572,27.61],[108.5084,27.6273],[108.5235,27.6188],[108.5558,27.632],[108.5869,27.6758],[108.6105,27.683],[108.5726,27.7477],[108.5546,27.7585],[108.5123,27.7494],[108.4955,27.7516],[108.4929,27.7811],[108.5075,27.8144],[108.5439,27.8204],[108.5474,27.859],[108.5617,27.8937],[108.5893,27.8874],[108.6223,27.8939],[108.6411,27.9065],[108.6941,27.9235],[108.7436,27.9586]]]},"properties":{"region_code":"CN-52-5206-520625","parent_region_code":"CN-52-5206","name":"印江土家族苗族自治县","level":"county","has_children":false,"full_path":"中国 / 贵州省 / 铜仁市 / 印江土家族苗族自治县","source_admin_code":"520625","osm_relation_id":2778221}},
{"type":"Feature","geometry":{"type":"Polygon","coordinates":[[[108.3026,28.0621],[108.3286,28.0824],[108.3361,28.111],[108.3692,28.1652],[108.3945,28.1747],[108.4218,28.2229],[108.3936,28.252],[108.3759,28.2574],[108.3323,28.2545],[108.3099,28.2707],[108.294,28.2999],[108.298,28.3219],[108.3177,28.3208],[108.32,28.3502],[108.2764,28.3719],[108.2146,28.3726],[108.2144,28.3875],[108.1947,28.4052],[108.2026,28.4493],[108.1983,28.4871],[108.18,28.5211],[108.1701,28.5536],[108.1323,28.6051],[108.11,28.6181],[108.1192,28.634],[108.076,28.6049],[108.059,28.6096],[108.0332,28.596],[108.0656,28.5197],[108.0437,28.4931],[108.0557,28.4756],[108.0443,28.4473],[108.0638,28.4252],[108.0327,28.3687],[108,28.3906],[107.987,28.3692],[107.9038,28.3803],[107.8748,28.3789],[107.8615,28.3581],[107.8563,28.3256],[107.8619,28.2925],[107.8573,28.2091],[107.833,28.188],[107.8013,28.1817],[107.7937,28.1209],[107.7818,28.099],[107.7876,28.0702],[107.8056,28.0732],[107.8322,28.0348],[107.8843,28.0564],[107.9106,28.0222],[107.9282,28.012],[107.9621,28.0232],[107.9538,28.0467],[107.995,28.0583],[108.0469,28.0614],[108.0891,28.0903],[108.1177,28.1229],[108.1524,28.1037],[108.1756,28.1026],[108.1727,28.1291],[108.1809,28.1482],[108.2132,28.1464],[108.2088,28.1008],[108.2336,28.0728],[108.2647,28.0685],[108.2851,28.0817],[108.3026,28.0621]]]},"properties":{"region_code":"CN-52-5206-520626","parent_region_code":"CN-52-5206","name":"德江县","level":"county","has_children":false,"full_path":"中国 / 贵州省 / 铜仁市 / 德江县","source_admin_code":"520626","osm_relation_id":2778214}},
{"type":"Feature","geometry":{"type":"Polygon","coordinates":[[[108.6,28.3094],[108.6044,28.3283],[108.5958,28.3456],[108.5756,28.3471],[108.5723,28.3881],[108.5837,28.4083],[108.6053,28.4108],[108.6067,28.4392],[108.5966,28.445],[108.5716,28.5026],[108.5734,28.5388],[108.6077,28.5446],[108.6013,28.597],[108.6326,28.6265],[108.6054,28.6383],[108.5629,28.6676],[108.5579,28.6537],[108.5045,28.6414],[108.4968,28.6313],[108.4413,28.635],[108.3863,28.6548],[108.3507,28.678],[108.3282,28.6829],[108.3439,28.7131],[108.3494,28.7417],[108.3822,28.7757],[108.3816,28.8079],[108.3484,28.8172],[108.3413,28.8599],[108.3516,28.8776],[108.3436,28.9431],[108.3142,28.9696],[108.3044,29.0218],[108.2939,29.0513],[108.303,29.08],[108.2647,29.0937],[108.256,29.053],[108.2391,29.0314],[108.2261,29.0502],[108.2011,29.0593],[108.1922,29.0748],[108.1496,29.0572],[108.129,29.0557],[108.109,29.0776],[108.0742,29.0729],[108.0672,29.0587],[108.0693,29.0152],[108.1034,28.9788],[108.1025,28.9648],[108.1339,28.935],[108.1243,28.879],[108.1334,28.86],[108.1523,28.8512],[108.1796,28.8162],[108.2004,28.8219],[108.2077,28.7978],[108.1844,28.7493],[108.1847,28.7286],[108.1588,28.6802],[108.1208,28.6572],[108.1192,28.634],[108.11,28.6181],[108.1323,28.6051],[108.1701,28.5536],[108.18,28.5211],[108.1983,28.4871],[108.2026,28.4493],[108.1947,28.4052],[108.2144,28.3875],[108.2146,28.3726],[108.2764,28.3719],[108.32,28.3502],[108.3177,28.3208],[108.298,28.3219],[108.294,28.2999],[108.3099,28.2707],[108.3323,28.2545],[108.3759,28.2574],[108.3936,28.252],[108.4218,28.2229],[108.4401,28.2138],[108.4556,28.2474],[108.477,28.2775],[108.504,28.2986],[108.5109,28.3332],[108.5333,28.3408],[108.5447,28.3204],[108.5615,28.3233],[108.6,28.3094]]]},"properties":{"region_code":"CN-52-5206-520627","parent_region_code":"CN-52-5206","name":"沿河土家族自治县","level":"county","has_children":false,"full_path":"中国 / 贵州省 / 铜仁市 / 沿河土家族自治县","source_admin_code":"520627","osm_relation_id":2778220}},
{"type":"Feature","geometry":{"type":"Polygon","coordinates":[[[109.3221,27.8695],[109.3043,27.9128],[109.3089,27.9361],[109.2959,27.9597],[109.3138,27.9905],[109.3401,28.0105],[109.3573,28.0097],[109.3735,28.0387],[109.332,28.0669],[109.3186,28.0438],[109.2942,28.0518],[109.3087,28.1047],[109.3236,28.1186],[109.3428,28.1678],[109.3356,28.1862],[109.3412,28.2108],[109.3736,28.2647],[109.3928,28.2712],[109.3299,28.2967],[109.3018,28.2767],[109.2953,28.2929],[109.2704,28.3159],[109.2639,28.3412],[109.2842,28.3762],[109.2629,28.3895],[109.2522,28.4403],[109.2618,28.4855],[109.2263,28.4787],[109.2084,28.4844],[109.1856,28.4728],[109.1705,28.4347],[109.1329,28.3629],[109.1376,28.3304],[109.0958,28.2672],[109.0752,28.2513],[109.0984,28.219],[109.0827,28.1863],[109.0576,28.2053],[109.0223,28.2205],[109.0074,28.2007],[109.0143,28.1836],[109.0063,28.1645],[108.9883,28.1617],[108.924,28.1962],[108.9164,28.2207],[108.8903,28.2218],[108.853,28.2049],[108.8357,28.2047],[108.8177,28.2439],[108.7721,28.222],[108.7359,28.2288],[108.735,28.2544],[108.7226,28.286],[108.7439,28.3036],[108.7633,28.3077],[108.7569,28.3288],[108.7725,28.3449],[108.7804,28.3828],[108.7573,28.3992],[108.7778,28.4305],[108.7444,28.4524],[108.7244,28.4746],[108.7195,28.4959],[108.6957,28.4857],[108.6404,28.4732],[108.6368,28.4587],[108.662,28.4463],[108.6846,28.4255],[108.6896,28.3981],[108.6618,28.3877],[108.6513,28.3595],[108.6638,28.3384],[108.6044,28.3283],[108.6,28.3094],[108.609,28.2878],[108.6364,28.2917],[108.6455,28.2738],[108.642,28.237],[108.6461,28.1893],[108.6545,28.1663],[108.6498,28.1461],[108.7078,28.1308],[108.7152,28.1448],[108.7558,28.1341],[108.7624,28.1417],[108.7659,28.1892],[108.8009,28.1695],[108.7737,28.1198],[108.7496,28.1035],[108.7411,28.0658],[108.7538,28.0501],[108.7469,28.0343],[108.7504,27.9902],[108.7436,27.9586],[108.7613,27.9523],[108.7865,27.929],[108.8153,27.9325],[108.8438,27.9097],[108.8371,27.8931],[108.8827,27.8987],[108.9124,27.909],[108.939,27.8842],[108.9678,27.8886],[108.9918,27.8799],[109.0008,27.8912],[109.0294,27.8891],[109.0435,27.9065],[109.0797,27.9007],[109.0685,27.871],[109.0365,27.8526],[109.0569,27.8331],[109.0853,27.8641],[109.1193,27.8757],[109.145,27.8672],[109.1683,27.8421],[109.2006,27.8425],[109.243,27.867],[109.2943,27.8541],[109.3221,27.8695]]]},"properties":{"region_code":"CN-52-5206-520628","parent_region_code":"CN-52-5206","name":"松桃苗族自治县","level":"county","has_children":false,"full_path":"中国 / 贵州省 / 铜仁市 / 松桃苗族自治县","source_admin_code":"520628","osm_relation_id":2778218}}
]}