{"type":"FeatureCollection", "features": [
{"type":"Feature","geometry":{"type":"Polygon","coordinates":[[[104.4511,31.0315],[104.4781,31.0393],[104.4922,31.0291],[104.5006,31.0334],[104.5079,31.0556],[104.5208,31.0743],[104.5168,31.101],[104.5216,31.1082],[104.5574,31.1035],[104.5688,31.1332],[104.5525,31.1378],[104.5597,31.149],[104.5443,31.163],[104.5586,31.167],[104.5524,31.1771],[104.5845,31.1939],[104.5731,31.2021],[104.552,31.2122],[104.5183,31.2101],[104.5173,31.2229],[104.4949,31.2329],[104.4833,31.2298],[104.4719,31.2484],[104.4534,31.252],[104.4388,31.2739],[104.4377,31.2875],[104.4037,31.3227],[104.3877,31.3226],[104.3628,31.3293],[104.3511,31.3543],[104.3415,31.3562],[104.338,31.3437],[104.3195,31.3332],[104.3212,31.3138],[104.3175,31.3034],[104.2949,31.2771],[104.273,31.2672],[104.2693,31.2399],[104.2469,31.2219],[104.2588,31.2075],[104.2566,31.1887],[104.2689,31.1632],[104.2684,31.1559],[104.2736,31.1507],[104.3062,31.1187],[104.3323,31.088],[104.3504,31.071],[104.3583,31.0532],[104.3772,31.0505],[104.3994,31.0426],[104.4126,31.0242],[104.4416,31.0358],[104.4511,31.0315]]]},"properties":{"region_code":"CN-51-5106-510603","parent_region_code":"CN-51-5106","name":"旌阳区","level":"county","has_children":false,"full_path":"中国 / 四川省 / 德阳市 / 旌阳区","source_admin_code":"510603","osm_relation_id":2787556}},
{"type":"Feature","geometry":{"type":"Polygon","coordinates":[[[104.5731,31.2021],[104.5817,31.2217],[104.6026,31.2453],[104.6223,31.2377],[104.629,31.2238],[104.6456,31.2293],[104.6589,31.2495],[104.6894,31.2483],[104.705,31.2569],[104.7088,31.2727],[104.6764,31.2699],[104.6683,31.2922],[104.6711,31.3008],[104.6572,31.3144],[104.6544,31.3336],[104.6147,31.3464],[104.6036,31.3548],[104.5845,31.3605],[104.59,31.3789],[104.5788,31.4113],[104.5632,31.4132],[104.5559,31.4259],[104.5395,31.4308],[104.5212,31.445],[104.5026,31.4266],[104.4944,31.41],[104.4817,31.4129],[104.475,31.4045],[104.4856,31.3963],[104.4767,31.3876],[104.4474,31.3836],[104.4249,31.3761],[104.3843,31.3849],[104.3731,31.3758],[104.3625,31.3781],[104.3555,31.3884],[104.3378,31.3885],[104.3216,31.3766],[104.3415,31.3562],[104.3511,31.3543],[104.3628,31.3293],[104.3877,31.3226],[104.4037,31.3227],[104.4377,31.2875],[104.4388,31.2739],[104.4534,31.252],[104.4719,31.2484],[104.4833,31.2298],[104.4949,31.2329],[104.5173,31.2229],[104.5183,31.2101],[104.552,31.2122],[104.5731,31.2021]]]},"properties":{"region_code":"CN-51-5106-510604","parent_region_code":"CN-51-5106","name":"罗江区","level":"county","has_children":false,"full_path":"中国 / 四川省 / 德阳市 / 罗江区","source_admin_code":"510604","osm_relation_id":2787557}},
{"type":"Feature","geometry":{"type":"Polygon","coordinates":[[[104.4511,31.0315],[104.4433,31.0278],[104.45,31.0091],[104.4641,31.0085],[104.4777,31.0001],[104.4754,30.9863],[104.4902,30.9756],[104.4849,30.9701],[104.4967,30.9385],[104.5131,30.9376],[104.5165,30.9285],[104.5307,30.9233],[104.5271,30.8987],[104.5175,30.8849],[104.5369,30.883],[104.5672,30.8729],[104.5747,30.8667],[104.5953,30.8684],[104.6043,30.8523],[104.6305,30.8546],[104.6343,30.843],[104.6761,30.834],[104.7025,30.8243],[104.6967,30.8104],[104.7087,30.7974],[104.7151,30.773],[104.7318,30.7766],[104.7402,30.7411],[104.7612,30.7282],[104.764,30.7213],[104.7872,30.7233],[104.7864,30.6944],[104.8012,30.6925],[104.8105,30.6814],[104.819,30.6539],[104.8454,30.6446],[104.8454,30.6344],[104.8304,30.6129],[104.8168,30.6011],[104.813,30.5899],[104.8173,30.5795],[104.83,30.5857],[104.8602,30.5919],[104.8551,30.6052],[104.8672,30.6197],[104.8827,30.623],[104.9005,30.6176],[104.9098,30.6288],[104.928,30.6239],[104.9359,30.6113],[104.9502,30.6136],[104.9681,30.5895],[104.9604,30.5686],[104.9764,30.5363],[104.9829,30.5296],[105.0087,30.5267],[105.0241,30.534],[105.0252,30.5506],[105.0451,30.5489],[105.0591,30.5354],[105.0827,30.553],[105.0925,30.5745],[105.0912,30.5851],[105.0982,30.5959],[105.1097,30.6005],[105.1212,30.6235],[105.1452,30.6428],[105.1394,30.6556],[105.1437,30.6714],[105.1613,30.6787],[105.1697,30.7062],[105.1559,30.7278],[105.1274,30.7491],[105.115,30.7521],[105.1101,30.7626],[105.0777,30.7581],[105.069,30.7735],[105.0431,30.7805],[105.007,30.7965],[104.9898,30.8203],[104.9848,30.845],[104.9882,30.8735],[104.9695,30.8627],[104.9568,30.8667],[104.9619,30.8768],[104.9627,30.8978],[104.9416,30.9],[104.9439,30.9175],[104.9295,30.9476],[104.897,30.9471],[104.8909,30.9403],[104.8539,30.9524],[104.8541,30.968],[104.8431,30.9838],[104.8261,30.9904],[104.8234,31.0011],[104.8358,31.0166],[104.8215,31.0284],[104.8242,31.0531],[104.8138,31.0679],[104.781,31.088],[104.7696,31.0995],[104.7822,31.1101],[104.7899,31.1255],[104.7738,31.137],[104.7573,31.1346],[104.7519,31.1589],[104.7422,31.1699],[104.7197,31.161],[104.7162,31.1939],[104.7215,31.1959],[104.7102,31.221],[104.7272,31.2245],[104.7391,31.2351],[104.7364,31.2532],[104.7471,31.267],[104.748,31.2763],[104.7288,31.2826],[104.7088,31.2727],[104.705,31.2569],[104.6894,31.2483],[104.6589,31.2495],[104.6456,31.2293],[104.629,31.2238],[104.6223,31.2377],[104.6026,31.2453],[104.5817,31.2217],[104.5731,31.2021],[104.5845,31.1939],[104.5524,31.1771],[104.5586,31.167],[104.5443,31.163],[104.5597,31.149],[104.5525,31.1378],[104.5688,31.1332],[104.5574,31.1035],[104.5216,31.1082],[104.5168,31.101],[104.5208,31.0743],[104.5079,31.0556],[104.5006,31.0334],[104.4922,31.0291],[104.4781,31.0393],[104.4511,31.0315]]]},"properties":{"region_code":"CN-51-5106-510623","parent_region_code":"CN-51-5106","name":"中江县","level":"county","has_children":false,"full_path":"中国 / 四川省 / 德阳市 / 中江县","source_admin_code":"510623","osm_relation_id":2787560}},
{"type":"Feature","geometry":{"type":"Polygon","coordinates":[[[104.2736,31.1507],[104.2704,31.1418],[104.2497,31.135],[104.242,31.1393],[104.2278,31.1319],[104.2266,31.1114],[104.2185,31.1017],[104.2075,31.101],[104.2017,31.0891],[104.1924,31.0855],[104.1883,31.0737],[104.1454,31.063],[104.1417,31.0547],[104.1559,31.0466],[104.1687,31.031],[104.1454,31.0272],[104.1192,31.0321],[104.1148,31.0196],[104.1408,31.0136],[104.1654,30.994],[104.1674,30.9718],[104.1643,30.9555],[104.151,30.9441],[104.1448,30.9168],[104.1665,30.9208],[104.1686,30.908],[104.1904,30.9147],[104.2021,30.9145],[104.2264,30.8976],[104.2439,30.8991],[104.2595,30.9077],[104.3076,30.9],[104.3185,30.8941],[104.3293,30.9029],[104.3493,30.9037],[104.3546,30.9192],[104.3699,30.9404],[104.3881,30.9315],[104.422,30.9461],[104.4429,30.9427],[104.461,30.9522],[104.4811,30.9484],[104.4967,30.9385],[104.4849,30.9701],[104.4902,30.9756],[104.4754,30.9863],[104.4777,31.0001],[104.4641,31.0085],[104.45,31.0091],[104.4433,31.0278],[104.4511,31.0315],[104.4416,31.0358],[104.4126,31.0242],[104.3994,31.0426],[104.3772,31.0505],[104.3583,31.0532],[104.3504,31.071],[104.3323,31.088],[104.3062,31.1187],[104.2736,31.1507]]]},"properties":{"region_code":"CN-51-5106-510681","parent_region_code":"CN-51-5106","name":"广汉市","level":"county","has_children":false,"full_path":"中国 / 四川省 / 德阳市 / 广汉市","source_admin_code":"510681","osm_relation_id":2787555}},
{"type":"Feature","geometry":{"type":"Polygon","coordinates":[[[104.2684,31.1559],[104.2256,31.1818],[104.1742,31.1984],[104.1084,31.2324],[104.0841,31.2377],[104.0432,31.2632],[104.04,31.2726],[104.0202,31.2998],[104.0232,31.3232],[104.0432,31.3403],[104.0399,31.3489],[104.0257,31.3523],[104.0275,31.3736],[104.0157,31.3983],[104.0278,31.4212],[103.993,31.4447],[104.0026,31.4642],[103.9931,31.4778],[103.9693,31.498],[103.9568,31.491],[103.9342,31.5021],[103.9268,31.5265],[103.919,31.5404],[103.9102,31.5354],[103.9054,31.5213],[103.8957,31.5148],[103.8756,31.5296],[103.8673,31.5298],[103.8505,31.5443],[103.8435,31.5187],[103.8252,31.511],[103.8213,31.5007],[103.7941,31.4773],[103.7945,31.4507],[103.7986,31.4371],[103.8115,31.4358],[103.8263,31.4156],[103.8538,31.4159],[103.8641,31.4243],[103.8753,31.4153],[103.888,31.4235],[103.8961,31.4179],[103.8944,31.4039],[103.9065,31.3844],[103.9257,31.3619],[103.9229,31.3497],[103.9126,31.3471],[103.8941,31.3306],[103.8903,31.3041],[103.9013,31.2969],[103.9132,31.2795],[103.9254,31.2754],[103.9318,31.2658],[103.9251,31.255],[103.9338,31.2476],[103.9278,31.2325],[103.9473,31.2184],[103.9537,31.2043],[103.9679,31.2098],[104.0055,31.1809],[104.0122,31.17],[104.0068,31.1559],[104.0187,31.1454],[104.0233,31.1259],[104.0194,31.1187],[104.0246,31.1019],[104.0411,31.0931],[104.0416,31.0847],[104.0571,31.0763],[104.0577,31.0664],[104.0766,31.0608],[104.075,31.0524],[104.0902,31.0356],[104.1192,31.0321],[104.1454,31.0272],[104.1687,31.031],[104.1559,31.0466],[104.1417,31.0547],[104.1454,31.063],[104.1883,31.0737],[104.1924,31.0855],[104.2017,31.0891],[104.2075,31.101],[104.2185,31.1017],[104.2266,31.1114],[104.2278,31.1319],[104.242,31.1393],[104.2497,31.135],[104.2704,31.1418],[104.2736,31.1507],[104.2684,31.1559]]]},"properties":{"region_code":"CN-51-5106-510682","parent_region_code":"CN-51-5106","name":"什邡市","level":"county","has_children":false,"full_path":"中国 / 四川省 / 德阳市 / 什邡市","source_admin_code":"510682","osm_relation_id":2787559}},
{"type":"Feature","geometry":{"type":"Polygon","coordinates":[[[104.3415,31.3562],[104.3216,31.3766],[104.3378,31.3885],[104.327,31.3967],[104.316,31.4212],[104.3008,31.4343],[104.2802,31.4419],[104.2691,31.4607],[104.259,31.4645],[104.2476,31.4583],[104.2269,31.4666],[104.2254,31.4794],[104.198,31.5189],[104.1799,31.5245],[104.1697,31.5152],[104.1524,31.5211],[104.1556,31.5306],[104.1489,31.5457],[104.1582,31.5596],[104.1443,31.5658],[104.1425,31.5852],[104.1288,31.5987],[104.1293,31.6089],[104.1132,31.6266],[104.1059,31.6277],[104.0972,31.6528],[104.114,31.6775],[104.111,31.6891],[104.0904,31.6974],[104.0803,31.6915],[104.0607,31.7],[104.0393,31.6992],[104.0267,31.6932],[104.0152,31.6804],[103.9892,31.6862],[103.9687,31.6702],[103.9554,31.6549],[103.9259,31.6417],[103.9175,31.6242],[103.9221,31.6046],[103.9059,31.5667],[103.9103,31.5509],[103.919,31.5404],[103.9268,31.5265],[103.9342,31.5021],[103.9568,31.491],[103.9693,31.498],[103.9931,31.4778],[104.0026,31.4642],[103.993,31.4447],[104.0278,31.4212],[104.0157,31.3983],[104.0275,31.3736],[104.0257,31.3523],[104.0399,31.3489],[104.0432,31.3403],[104.0232,31.3232],[104.0202,31.2998],[104.04,31.2726],[104.0432,31.2632],[104.0841,31.2377],[104.1084,31.2324],[104.1742,31.1984],[104.2256,31.1818],[104.2684,31.1559],[104.2689,31.1632],[104.2566,31.1887],[104.2588,31.2075],[104.2469,31.2219],[104.2693,31.2399],[104.273,31.2672],[104.2949,31.2771],[104.3175,31.3034],[104.3212,31.3138],[104.3195,31.3332],[104.338,31.3437],[104.3415,31.3562]]]},"properties":{"region_code":"CN-51-5106-510683","parent_region_code":"CN-51-5106","name":"绵竹市","level":"county","has_children":false,"full_path":"中国 / 四川省 / 德阳市 / 绵竹市","source_admin_code":"510683","osm_relation_id":2787558}}
]}