{"type":"FeatureCollection", "features": [
{"type":"Feature","geometry":{"type":"MultiPolygon","coordinates":[[[[106.2953,26.2549],[106.311,26.2222],[106.3457,26.2369],[106.3508,26.2794],[106.3441,26.2995],[106.3113,26.3017],[106.2953,26.2549]]],[[[106.0049,26.0115],[106.0744,26.0425],[106.0934,26.0125],[106.1418,26.0039],[106.1661,25.961],[106.1905,25.9706],[106.2183,26.0052],[106.213,26.0236],[106.2199,26.0274],[106.2304,26.0309],[106.2209,26.0372],[106.24,26.0842],[106.2774,26.1133],[106.2699,26.1455],[106.2796,26.1754],[106.2762,26.2504],[106.2863,26.3021],[106.2236,26.2948],[106.1919,26.3148],[106.1721,26.2921],[106.1527,26.3157],[106.178,26.3285],[106.1523,26.3874],[106.1017,26.3941],[106.0864,26.3852],[106.0585,26.4327],[105.9956,26.4211],[105.9886,26.4423],[105.9642,26.4047],[105.928,26.3854],[105.93,26.3707],[105.8607,26.3374],[105.8334,26.2366],[105.7802,26.1842],[105.7445,26.1583],[105.7608,26.1394],[105.8118,26.1386],[105.8349,26.1526],[105.88,26.1413],[105.8447,26.0657],[105.8924,26.0314],[105.9102,26.0024],[105.9881,26.0168],[106.0049,26.0115]]]]},"properties":{"region_code":"CN-52-5204-520402","parent_region_code":"CN-52-5204","name":"西秀区","level":"county","has_children":false,"full_path":"中国 / 贵州省 / 安顺市 / 西秀区","source_admin_code":"520402","osm_relation_id":2782248}},
{"type":"Feature","geometry":{"type":"Polygon","coordinates":[[[106.3508,26.2794],[106.3867,26.2907],[106.4056,26.2771],[106.455,26.2694],[106.4841,26.2785],[106.5647,26.3384],[106.5621,26.3771],[106.4751,26.399],[106.4401,26.4609],[106.3938,26.4366],[106.363,26.4555],[106.3421,26.4905],[106.3189,26.4926],[106.3203,26.5276],[106.2744,26.5605],[106.2042,26.5381],[106.1799,26.5571],[106.1821,26.5925],[106.1395,26.5882],[106.1359,26.5373],[106.1193,26.4895],[106.051,26.4621],[105.9884,26.4457],[105.9886,26.4423],[105.9956,26.4211],[106.0585,26.4327],[106.0864,26.3852],[106.1017,26.3941],[106.1523,26.3874],[106.178,26.3285],[106.1527,26.3157],[106.1721,26.2921],[106.1919,26.3148],[106.2236,26.2948],[106.2863,26.3021],[106.2762,26.2504],[106.2953,26.2549],[106.3113,26.3017],[106.3441,26.2995],[106.3508,26.2794]]]},"properties":{"region_code":"CN-52-5204-520403","parent_region_code":"CN-52-5204","name":"平坝区","level":"county","has_children":false,"full_path":"中国 / 贵州省 / 安顺市 / 平坝区","source_admin_code":"520403","osm_relation_id":2782247}},
{"type":"Feature","geometry":{"type":"Polygon","coordinates":[[[105.9886,26.4423],[105.9884,26.4457],[105.9755,26.4904],[105.9137,26.5248],[105.8301,26.476],[105.776,26.4785],[105.7561,26.4537],[105.7295,26.4642],[105.6042,26.4191],[105.5792,26.3874],[105.5147,26.3574],[105.4937,26.3365],[105.4889,26.309],[105.4545,26.2796],[105.5088,26.2261],[105.5779,26.2315],[105.6303,26.2068],[105.6762,26.204],[105.719,26.1731],[105.7445,26.1583],[105.7802,26.1842],[105.8334,26.2366],[105.8607,26.3374],[105.93,26.3707],[105.928,26.3854],[105.9642,26.4047],[105.9886,26.4423]]]},"properties":{"region_code":"CN-52-5204-520422","parent_region_code":"CN-52-5204","name":"普定县","level":"county","has_children":false,"full_path":"中国 / 贵州省 / 安顺市 / 普定县","source_admin_code":"520422","osm_relation_id":2782275}},
{"type":"Feature","geometry":{"type":"Polygon","coordinates":[[[105.7445,26.1583],[105.719,26.1731],[105.6857,26.1719],[105.6694,26.1409],[105.6283,26.1447],[105.6018,26.117],[105.5873,26.0663],[105.6116,26.0429],[105.6596,26.028],[105.6781,25.971],[105.6722,25.9106],[105.7004,25.8812],[105.7566,25.8516],[105.8002,25.8437],[105.821,25.7949],[105.8129,25.7751],[105.758,25.7893],[105.7549,25.7406],[105.773,25.7287],[105.7749,25.6345],[105.7808,25.6152],[105.7489,25.5658],[105.75,25.5452],[105.7761,25.5055],[105.7809,25.4714],[105.8118,25.4639],[105.8906,25.4254],[105.9266,25.434],[105.9134,25.5022],[105.978,25.5416],[105.9818,25.5675],[105.9578,25.5782],[105.9732,25.618],[105.9398,25.6503],[105.9299,25.6867],[105.9464,25.7131],[105.9267,25.7335],[105.9229,25.8047],[105.929,25.8228],[106.0119,25.8835],[105.9845,25.9422],[106.0135,25.9782],[106.0049,26.0115],[105.9881,26.0168],[105.9102,26.0024],[105.8924,26.0314],[105.8447,26.0657],[105.88,26.1413],[105.8349,26.1526],[105.8118,26.1386],[105.7608,26.1394],[105.7445,26.1583]]]},"properties":{"region_code":"CN-52-5204-520423","parent_region_code":"CN-52-5204","name":"镇宁布依族苗族自治县","level":"county","has_children":false,"full_path":"中国 / 贵州省 / 安顺市 / 镇宁布依族苗族自治县","source_admin_code":"520423","osm_relation_id":2782276}},
{"type":"Feature","geometry":{"type":"Polygon","coordinates":[[[105.5873,26.0663],[105.5439,26.0784],[105.4956,26.0335],[105.3931,26.0152],[105.3557,26.0212],[105.2965,26.0113],[105.258,26.0118],[105.2511,25.9609],[105.2987,25.9152],[105.3447,25.8934],[105.3751,25.8916],[105.3682,25.8438],[105.3771,25.8236],[105.4351,25.782],[105.4505,25.7622],[105.4859,25.7491],[105.5293,25.6949],[105.5679,25.7184],[105.6236,25.6781],[105.6793,25.6651],[105.6912,25.6315],[105.7344,25.5656],[105.7489,25.5658],[105.7808,25.6152],[105.7749,25.6345],[105.773,25.7287],[105.7549,25.7406],[105.758,25.7893],[105.8129,25.7751],[105.821,25.7949],[105.8002,25.8437],[105.7566,25.8516],[105.7004,25.8812],[105.6722,25.9106],[105.6781,25.971],[105.6596,26.028],[105.6116,26.0429],[105.5873,26.0663]]]},"properties":{"region_code":"CN-52-5204-520424","parent_region_code":"CN-52-5204","name":"关岭布依族苗族自治县","level":"county","has_children":false,"full_path":"中国 / 贵州省 / 安顺市 / 关岭布依族苗族自治县","source_admin_code":"520424","osm_relation_id":2782274}},
{"type":"Feature","geometry":{"type":"Polygon","coordinates":[[[106.0049,26.0115],[106.0135,25.9782],[105.9845,25.9422],[106.0119,25.8835],[105.929,25.8228],[105.9229,25.8047],[105.9267,25.7335],[105.9464,25.7131],[105.9299,25.6867],[105.9398,25.6503],[105.9732,25.618],[105.9883,25.5716],[106.0437,25.562],[106.0544,25.5875],[106.0985,25.5715],[106.0857,25.5116],[106.1065,25.5158],[106.1573,25.4682],[106.1927,25.4695],[106.223,25.3969],[106.2465,25.4096],[106.3014,25.3848],[106.3283,25.357],[106.3573,25.3688],[106.4149,25.3639],[106.4194,25.3959],[106.3929,25.415],[106.4186,25.4468],[106.4009,25.4631],[106.4066,25.4892],[106.4314,25.5318],[106.4237,25.5603],[106.4403,25.5879],[106.467,25.6047],[106.4777,25.6535],[106.4281,25.6832],[106.4093,25.6496],[106.3631,25.657],[106.2747,25.7138],[106.2418,25.7011],[106.2307,25.7156],[106.2557,25.7475],[106.244,25.8092],[106.2677,25.854],[106.2962,25.9252],[106.2802,25.9448],[106.3114,25.9756],[106.2797,26.0277],[106.2304,26.0309],[106.2199,26.0274],[106.213,26.0236],[106.2183,26.0052],[106.1905,25.9706],[106.1661,25.961],[106.1418,26.0039],[106.0934,26.0125],[106.0744,26.0425],[106.0049,26.0115]]]},"properties":{"region_code":"CN-52-5204-520425","parent_region_code":"CN-52-5204","name":"紫云苗族布依族自治县","level":"county","has_children":false,"full_path":"中国 / 贵州省 / 安顺市 / 紫云苗族布依族自治县","source_admin_code":"520425","osm_relation_id":2782277}}
]}