{"type":"FeatureCollection", "features": [
{"type":"Feature","geometry":{"type":"Polygon","coordinates":[[[106.5839,30.7422],[106.5758,30.7029],[106.5874,30.6832],[106.5812,30.665],[106.5694,30.6626],[106.5708,30.6397],[106.5805,30.6039],[106.5648,30.6012],[106.5569,30.5863],[106.5422,30.577],[106.5545,30.5491],[106.5438,30.5374],[106.5452,30.5187],[106.5603,30.5086],[106.5669,30.4876],[106.5371,30.4619],[106.5449,30.4348],[106.5403,30.4157],[106.561,30.4036],[106.5676,30.3822],[106.58,30.3721],[106.617,30.3622],[106.6185,30.3715],[106.6345,30.3827],[106.6467,30.3645],[106.6607,30.3579],[106.677,30.3802],[106.6919,30.3836],[106.6982,30.4029],[106.7216,30.4051],[106.7261,30.421],[106.7071,30.4346],[106.7338,30.4472],[106.7308,30.455],[106.7184,30.4688],[106.7017,30.4664],[106.6889,30.4496],[106.661,30.4705],[106.6483,30.5131],[106.6695,30.5128],[106.7027,30.5245],[106.7212,30.5514],[106.7559,30.5507],[106.7603,30.5556],[106.7501,30.5824],[106.7526,30.5937],[106.7799,30.61],[106.7979,30.6016],[106.7921,30.578],[106.8104,30.5709],[106.8178,30.557],[106.8327,30.5609],[106.8357,30.5844],[106.8594,30.5861],[106.8692,30.6171],[106.8806,30.6258],[106.8817,30.638],[106.9024,30.6507],[106.9201,30.6538],[106.9056,30.6596],[106.888,30.702],[106.8998,30.7057],[106.9166,30.6877],[106.9363,30.6941],[106.9452,30.7097],[106.9126,30.709],[106.8923,30.7214],[106.8786,30.7184],[106.8744,30.7372],[106.8558,30.7346],[106.8414,30.7388],[106.792,30.7816],[106.7816,30.7807],[106.766,30.7926],[106.7513,30.7945],[106.7536,30.8109],[106.7347,30.8107],[106.727,30.8344],[106.7043,30.8383],[106.6817,30.8316],[106.6743,30.841],[106.6574,30.8312],[106.6449,30.834],[106.6151,30.8222],[106.612,30.805],[106.6227,30.7928],[106.6143,30.7691],[106.5804,30.7598],[106.5839,30.7422]]]},"properties":{"region_code":"CN-51-5116-511602","parent_region_code":"CN-51-5116","name":"广安区","level":"county","has_children":false,"full_path":"中国 / 四川省 / 广安市 / 广安区","source_admin_code":"511602","osm_relation_id":2787846}},
{"type":"Feature","geometry":{"type":"Polygon","coordinates":[[[106.7308,30.455],[106.7682,30.4556],[106.7772,30.4708],[106.8243,30.4742],[106.8315,30.4597],[106.8634,30.4427],[106.9046,30.4251],[106.9191,30.4389],[106.9356,30.4405],[106.9609,30.4712],[106.979,30.5021],[106.9714,30.5167],[106.9713,30.5379],[106.9819,30.5497],[107.0088,30.5481],[107.0171,30.5614],[107.0171,30.5795],[107.035,30.6276],[107.0373,30.643],[107.0228,30.648],[106.9961,30.638],[106.9787,30.6396],[106.9653,30.648],[106.9504,30.6392],[106.9341,30.6521],[106.9201,30.6538],[106.9024,30.6507],[106.8817,30.638],[106.8806,30.6258],[106.8692,30.6171],[106.8594,30.5861],[106.8357,30.5844],[106.8327,30.5609],[106.8178,30.557],[106.8104,30.5709],[106.7921,30.578],[106.7979,30.6016],[106.7799,30.61],[106.7526,30.5937],[106.7501,30.5824],[106.7603,30.5556],[106.7559,30.5507],[106.7212,30.5514],[106.7027,30.5245],[106.6695,30.5128],[106.6483,30.5131],[106.661,30.4705],[106.6889,30.4496],[106.7017,30.4664],[106.7184,30.4688],[106.7308,30.455]]]},"properties":{"region_code":"CN-51-5116-511603","parent_region_code":"CN-51-5116","name":"前锋区","level":"county","has_children":false,"full_path":"中国 / 四川省 / 广安市 / 前锋区","source_admin_code":"511603","osm_relation_id":8023117}},
{"type":"Feature","geometry":{"type":"Polygon","coordinates":[[[106.5839,30.7422],[106.561,30.747],[106.537,30.7435],[106.5248,30.735],[106.5036,30.7625],[106.5014,30.7817],[106.4836,30.7904],[106.4625,30.7633],[106.444,30.7557],[106.437,30.7295],[106.4167,30.7106],[106.419,30.6956],[106.3984,30.6975],[106.385,30.6822],[106.3559,30.7062],[106.362,30.7169],[106.3505,30.7245],[106.3102,30.7003],[106.2966,30.6887],[106.283,30.7077],[106.254,30.7241],[106.2075,30.7236],[106.2137,30.7072],[106.234,30.7001],[106.2141,30.6816],[106.1741,30.6536],[106.1759,30.6211],[106.1885,30.6153],[106.1833,30.6012],[106.1657,30.6051],[106.1538,30.6004],[106.1495,30.5851],[106.1287,30.5629],[106.1192,30.5357],[106.1433,30.5433],[106.1588,30.5375],[106.1584,30.5197],[106.1368,30.5116],[106.1457,30.4749],[106.1782,30.4512],[106.1823,30.4433],[106.2094,30.4431],[106.2499,30.4535],[106.2796,30.4502],[106.2952,30.4627],[106.3203,30.4712],[106.3579,30.4698],[106.3866,30.4649],[106.388,30.4535],[106.401,30.4476],[106.4037,30.4354],[106.4188,30.4238],[106.4362,30.4178],[106.4329,30.4081],[106.4374,30.3821],[106.4447,30.3788],[106.4405,30.3509],[106.4195,30.3299],[106.436,30.31],[106.495,30.292],[106.5171,30.3026],[106.5416,30.2989],[106.5515,30.3183],[106.5824,30.3059],[106.5899,30.295],[106.6082,30.2954],[106.6298,30.2694],[106.6623,30.2607],[106.6801,30.2782],[106.681,30.2864],[106.7013,30.2884],[106.7077,30.3058],[106.7175,30.3092],[106.7131,30.3291],[106.7008,30.3436],[106.6607,30.3579],[106.6467,30.3645],[106.6345,30.3827],[106.6185,30.3715],[106.617,30.3622],[106.58,30.3721],[106.5676,30.3822],[106.561,30.4036],[106.5403,30.4157],[106.5449,30.4348],[106.5371,30.4619],[106.5669,30.4876],[106.5603,30.5086],[106.5452,30.5187],[106.5438,30.5374],[106.5545,30.5491],[106.5422,30.577],[106.5569,30.5863],[106.5648,30.6012],[106.5805,30.6039],[106.5708,30.6397],[106.5694,30.6626],[106.5812,30.665],[106.5874,30.6832],[106.5758,30.7029],[106.5839,30.7422]]]},"properties":{"region_code":"CN-51-5116-511621","parent_region_code":"CN-51-5116","name":"岳池县","level":"county","has_children":false,"full_path":"中国 / 四川省 / 广安市 / 岳池县","source_admin_code":"511621","osm_relation_id":2787850}},
{"type":"Feature","geometry":{"type":"Polygon","coordinates":[[[106.1192,30.5357],[106.1109,30.5082],[106.09,30.5063],[106.0701,30.4929],[106.0508,30.5116],[106.0348,30.5206],[106.0246,30.5087],[106.0293,30.498],[106.0216,30.4846],[106.0025,30.4939],[105.979,30.4913],[105.9692,30.478],[105.9685,30.4603],[105.9441,30.4509],[105.9473,30.4388],[105.9599,30.4273],[105.9756,30.43],[105.9766,30.4172],[105.995,30.3995],[105.9995,30.3791],[106.0125,30.3738],[106.0276,30.3767],[106.0393,30.3532],[106.0516,30.3503],[106.0677,30.3371],[106.0835,30.3489],[106.0863,30.3297],[106.1017,30.3138],[106.1111,30.3203],[106.1298,30.3199],[106.1663,30.306],[106.1766,30.2733],[106.1683,30.2555],[106.1763,30.2351],[106.198,30.2367],[106.1883,30.2195],[106.2099,30.205],[106.2228,30.2135],[106.2628,30.1946],[106.2926,30.208],[106.2873,30.2197],[106.332,30.238],[106.345,30.2473],[106.3674,30.2505],[106.3992,30.2444],[106.409,30.2469],[106.4161,30.2674],[106.4138,30.2809],[106.436,30.31],[106.4195,30.3299],[106.4405,30.3509],[106.4447,30.3788],[106.4374,30.3821],[106.4329,30.4081],[106.4362,30.4178],[106.4188,30.4238],[106.4037,30.4354],[106.401,30.4476],[106.388,30.4535],[106.3866,30.4649],[106.3579,30.4698],[106.3203,30.4712],[106.2952,30.4627],[106.2796,30.4502],[106.2499,30.4535],[106.2094,30.4431],[106.1823,30.4433],[106.1782,30.4512],[106.1457,30.4749],[106.1368,30.5116],[106.1584,30.5197],[106.1588,30.5375],[106.1433,30.5433],[106.1192,30.5357]]]},"properties":{"region_code":"CN-51-5116-511622","parent_region_code":"CN-51-5116","name":"武胜县","level":"county","has_children":false,"full_path":"中国 / 四川省 / 广安市 / 武胜县","source_admin_code":"511622","osm_relation_id":2787849}},
{"type":"Feature","geometry":{"type":"Polygon","coordinates":[[[106.9046,30.4251],[106.8812,30.3863],[106.8552,30.3572],[106.8434,30.3501],[106.8259,30.32],[106.8102,30.3023],[106.7867,30.2946],[106.779,30.2806],[106.774,30.257],[106.7727,30.2146],[106.76,30.2001],[106.7451,30.1937],[106.7287,30.1627],[106.7187,30.1602],[106.7131,30.1373],[106.6989,30.1209],[106.6924,30.1005],[106.6987,30.0954],[106.6959,30.0763],[106.7228,30.0565],[106.7197,30.0471],[106.7277,30.0294],[106.7645,30.0183],[106.7836,30.0205],[106.7952,30.0331],[106.8216,30.0337],[106.8375,30.0518],[106.858,30.0321],[106.8994,30.0332],[106.9294,30.0412],[106.9525,30.0561],[106.9525,30.0698],[106.9657,30.0847],[106.9799,30.088],[106.9982,30.0559],[107.0107,30.0546],[107.0198,30.037],[107.0338,30.0453],[107.037,30.0572],[107.0626,30.0481],[107.0807,30.0668],[107.0682,30.0832],[107.0783,30.097],[107.1068,30.1033],[107.1085,30.1204],[107.1272,30.1235],[107.1323,30.1378],[107.1551,30.1567],[107.1796,30.1836],[107.1951,30.1939],[107.2377,30.2443],[107.2561,30.276],[107.2546,30.2851],[107.2732,30.3145],[107.2828,30.3372],[107.3004,30.3573],[107.2845,30.3662],[107.2709,30.3584],[107.2781,30.339],[107.2676,30.3245],[107.2571,30.328],[107.2451,30.3495],[107.2253,30.3436],[107.2274,30.3604],[107.2218,30.3816],[107.2054,30.3922],[107.2117,30.3994],[107.215,30.4391],[107.1888,30.4329],[107.1819,30.4526],[107.1624,30.4595],[107.1882,30.4911],[107.208,30.5062],[107.1988,30.5282],[107.1707,30.5057],[107.1504,30.5117],[107.138,30.5228],[107.1127,30.5176],[107.0957,30.5231],[107.0924,30.5028],[107.1111,30.5],[107.127,30.4891],[107.1228,30.4719],[107.1039,30.485],[107.0795,30.4929],[107.0724,30.5164],[107.0363,30.5164],[107.0188,30.5266],[107.0057,30.5226],[106.9969,30.5076],[106.979,30.5021],[106.9609,30.4712],[106.9356,30.4405],[106.9191,30.4389],[106.9046,30.4251]]]},"properties":{"region_code":"CN-51-5116-511623","parent_region_code":"CN-51-5116","name":"邻水县","level":"county","has_children":false,"full_path":"中国 / 四川省 / 广安市 / 邻水县","source_admin_code":"511623","osm_relation_id":2787848}},
{"type":"Feature","geometry":{"type":"Polygon","coordinates":[[[106.6607,30.3579],[106.7008,30.3436],[106.7131,30.3291],[106.7175,30.3092],[106.7077,30.3058],[106.7013,30.2884],[106.681,30.2864],[106.6801,30.2782],[106.6623,30.2607],[106.6298,30.2694],[106.6399,30.2507],[106.6274,30.2484],[106.608,30.2308],[106.6222,30.2262],[106.6226,30.2015],[106.6434,30.1919],[106.6354,30.1827],[106.6739,30.1604],[106.668,30.1271],[106.6989,30.1209],[106.7131,30.1373],[106.7187,30.1602],[106.7287,30.1627],[106.7451,30.1937],[106.76,30.2001],[106.7727,30.2146],[106.774,30.257],[106.779,30.2806],[106.7867,30.2946],[106.8102,30.3023],[106.8259,30.32],[106.8434,30.3501],[106.8552,30.3572],[106.8812,30.3863],[106.9046,30.4251],[106.8634,30.4427],[106.8315,30.4597],[106.8243,30.4742],[106.7772,30.4708],[106.7682,30.4556],[106.7308,30.455],[106.7338,30.4472],[106.7071,30.4346],[106.7261,30.421],[106.7216,30.4051],[106.6982,30.4029],[106.6919,30.3836],[106.677,30.3802],[106.6607,30.3579]]]},"properties":{"region_code":"CN-51-5116-511681","parent_region_code":"CN-51-5116","name":"华蓥市","level":"county","has_children":false,"full_path":"中国 / 四川省 / 广安市 / 华蓥市","source_admin_code":"511681","osm_relation_id":2787847}}
]}