{"type":"FeatureCollection", "features": [
{"type":"Feature","geometry":{"type":"Polygon","coordinates":[[[104.8418,31.3536],[104.8124,31.3654],[104.8138,31.4028],[104.7839,31.4249],[104.7849,31.4579],[104.7647,31.4599],[104.7511,31.4708],[104.7422,31.5023],[104.7335,31.5138],[104.7094,31.5232],[104.7122,31.5661],[104.7003,31.5985],[104.7136,31.6094],[104.6994,31.6113],[104.6717,31.5981],[104.6522,31.5799],[104.6661,31.5745],[104.6602,31.5529],[104.6365,31.5427],[104.6363,31.5227],[104.5977,31.4996],[104.5778,31.4736],[104.5511,31.486],[104.5335,31.4786],[104.4964,31.51],[104.4796,31.5087],[104.4732,31.4927],[104.502,31.4758],[104.5,31.4603],[104.5212,31.445],[104.5395,31.4308],[104.5559,31.4259],[104.5632,31.4132],[104.5788,31.4113],[104.59,31.3789],[104.5845,31.3605],[104.6147,31.3464],[104.6544,31.3336],[104.6572,31.3144],[104.6711,31.3008],[104.6764,31.2699],[104.7247,31.2749],[104.7313,31.2827],[104.8026,31.3046],[104.8065,31.3236],[104.8203,31.3253],[104.8379,31.3398],[104.8418,31.3536]]]},"properties":{"region_code":"CN-51-5107-510703","parent_region_code":"CN-51-5107","name":"涪城区","level":"county","has_children":false,"full_path":"中国 / 四川省 / 绵阳市 / 涪城区","source_admin_code":"510703","osm_relation_id":2787458}},
{"type":"Feature","geometry":{"type":"Polygon","coordinates":[[[104.8418,31.3536],[104.8687,31.3874],[104.9209,31.4177],[104.9416,31.4196],[104.9708,31.4096],[104.9755,31.3948],[104.9899,31.3932],[105.0295,31.3572],[105.0564,31.3467],[105.0783,31.3609],[105.1056,31.3716],[105.1107,31.3984],[105.1371,31.4083],[105.1486,31.42],[105.147,31.4421],[105.1095,31.4609],[105.0987,31.4453],[105.0681,31.4472],[105.0544,31.4568],[105.057,31.4761],[105.0527,31.4928],[105.0622,31.5246],[105.0533,31.5522],[105.0424,31.5563],[105.0429,31.5793],[105.0225,31.5863],[105.03,31.6066],[105.0209,31.6249],[105.006,31.623],[105.001,31.6409],[105.0056,31.6601],[105.0255,31.6636],[105.0212,31.7056],[105.0129,31.7132],[104.9922,31.714],[104.9711,31.7229],[104.9458,31.7121],[104.9401,31.7005],[104.8922,31.7072],[104.8741,31.6904],[104.8582,31.7062],[104.8423,31.7127],[104.8299,31.7004],[104.811,31.6936],[104.8152,31.6678],[104.8247,31.6513],[104.79,31.6422],[104.7726,31.6483],[104.7753,31.6261],[104.7402,31.6279],[104.7331,31.6105],[104.7136,31.6094],[104.7003,31.5985],[104.7122,31.5661],[104.7094,31.5232],[104.7335,31.5138],[104.7422,31.5023],[104.7511,31.4708],[104.7647,31.4599],[104.7849,31.4579],[104.7839,31.4249],[104.8138,31.4028],[104.8124,31.3654],[104.8418,31.3536]]]},"properties":{"region_code":"CN-51-5107-510704","parent_region_code":"CN-51-5107","name":"游仙区","level":"county","has_children":false,"full_path":"中国 / 四川省 / 绵阳市 / 游仙区","source_admin_code":"510704","osm_relation_id":2787461}},
{"type":"Feature","geometry":{"type":"Polygon","coordinates":[[[104.6365,31.5427],[104.6228,31.5431],[104.6154,31.5629],[104.5932,31.5693],[104.6097,31.6012],[104.5968,31.6153],[104.5736,31.625],[104.5485,31.6225],[104.5522,31.6447],[104.5112,31.6766],[104.5015,31.6501],[104.513,31.6349],[104.5069,31.6196],[104.4892,31.6122],[104.4627,31.5907],[104.4492,31.5667],[104.4254,31.5734],[104.4044,31.5599],[104.3928,31.5955],[104.3921,31.6124],[104.3615,31.6308],[104.3673,31.6386],[104.3526,31.6583],[104.3787,31.6731],[104.3683,31.71],[104.3441,31.7125],[104.3477,31.7378],[104.335,31.7369],[104.3044,31.76],[104.2972,31.791],[104.263,31.7825],[104.2343,31.7566],[104.2123,31.7419],[104.1853,31.73],[104.1715,31.7355],[104.1504,31.7299],[104.141,31.7159],[104.1158,31.7089],[104.1,31.7129],[104.0913,31.697],[104.111,31.6891],[104.114,31.6775],[104.0972,31.6528],[104.1059,31.6277],[104.1293,31.6089],[104.1288,31.5987],[104.1425,31.5852],[104.1443,31.5658],[104.1582,31.5596],[104.1489,31.5457],[104.1524,31.5211],[104.1697,31.5152],[104.1799,31.5245],[104.198,31.5189],[104.2254,31.4794],[104.2269,31.4666],[104.2476,31.4583],[104.2691,31.4607],[104.2802,31.4419],[104.3008,31.4343],[104.316,31.4212],[104.3234,31.4012],[104.3441,31.3842],[104.3555,31.3884],[104.3731,31.3758],[104.3843,31.3849],[104.4249,31.3761],[104.4474,31.3836],[104.4767,31.3876],[104.5026,31.4266],[104.5212,31.445],[104.5,31.4603],[104.502,31.4758],[104.4732,31.4927],[104.4796,31.5087],[104.4964,31.51],[104.5335,31.4786],[104.5511,31.486],[104.5778,31.4736],[104.5977,31.4996],[104.6363,31.5227],[104.6365,31.5427]]]},"properties":{"region_code":"CN-51-5107-510705","parent_region_code":"CN-51-5107","name":"安州区","level":"county","has_children":false,"full_path":"中国 / 四川省 / 绵阳市 / 安州区","source_admin_code":"510705","osm_relation_id":2787456}},
{"type":"Feature","geometry":{"type":"Polygon","coordinates":[[[104.7313,31.2827],[104.748,31.2763],[104.7364,31.2532],[104.7391,31.2351],[104.7272,31.2245],[104.7102,31.221],[104.7197,31.161],[104.7422,31.1699],[104.7519,31.1589],[104.7573,31.1346],[104.7738,31.137],[104.7899,31.1255],[104.7696,31.0995],[104.781,31.088],[104.8138,31.0679],[104.8242,31.0531],[104.8215,31.0284],[104.8358,31.0166],[104.8234,31.0011],[104.8261,30.9904],[104.8431,30.9838],[104.8541,30.968],[104.8539,30.9524],[104.8909,30.9403],[104.897,30.9471],[104.9295,30.9476],[104.9439,30.9175],[104.9416,30.9],[104.9627,30.8978],[104.9619,30.8768],[104.9695,30.8627],[104.9882,30.8735],[104.9848,30.845],[104.9898,30.8203],[105.007,30.7965],[105.0431,30.7805],[105.069,30.7735],[105.0777,30.7581],[105.1101,30.7626],[105.1559,30.7278],[105.1657,30.7083],[105.1772,30.7221],[105.2116,30.7358],[105.2373,30.729],[105.2453,30.7417],[105.2686,30.7539],[105.2625,30.7782],[105.2653,30.7913],[105.2571,30.8254],[105.2421,30.8332],[105.229,30.8487],[105.2253,30.8798],[105.2007,30.8852],[105.1909,30.8994],[105.2055,30.9086],[105.1911,30.9195],[105.1876,30.9378],[105.174,30.9625],[105.1912,30.9679],[105.1913,30.9944],[105.1713,31.0482],[105.1861,31.0565],[105.1966,31.0783],[105.1967,31.0993],[105.2144,31.1069],[105.2628,31.1039],[105.2979,31.1151],[105.2957,31.1444],[105.2801,31.1678],[105.2962,31.1816],[105.271,31.1842],[105.2648,31.2053],[105.254,31.2159],[105.2886,31.2344],[105.2732,31.2548],[105.256,31.2668],[105.2593,31.2914],[105.247,31.326],[105.2636,31.329],[105.2677,31.3469],[105.253,31.3564],[105.2334,31.3584],[105.2097,31.3784],[105.2198,31.4017],[105.2034,31.4168],[105.2092,31.4425],[105.1956,31.4329],[105.1799,31.4339],[105.1706,31.4443],[105.147,31.4421],[105.1486,31.42],[105.1371,31.4083],[105.1107,31.3984],[105.1056,31.3716],[105.0783,31.3609],[105.0564,31.3467],[105.0295,31.3572],[104.9899,31.3932],[104.9755,31.3948],[104.9708,31.4096],[104.9416,31.4196],[104.9209,31.4177],[104.8687,31.3874],[104.8418,31.3536],[104.8379,31.3398],[104.8203,31.3253],[104.8065,31.3236],[104.8026,31.3046],[104.7313,31.2827]]]},"properties":{"region_code":"CN-51-5107-510722","parent_region_code":"CN-51-5107","name":"三台县","level":"county","has_children":false,"full_path":"中国 / 四川省 / 绵阳市 / 三台县","source_admin_code":"510722","osm_relation_id":2787459}},
{"type":"Feature","geometry":{"type":"Polygon","coordinates":[[[105.2979,31.1151],[105.3132,31.1162],[105.3385,31.1399],[105.3503,31.1628],[105.3753,31.1569],[105.3849,31.1158],[105.404,31.0915],[105.407,31.0747],[105.4246,31.0779],[105.4302,31.0685],[105.4502,31.0624],[105.4711,31.0659],[105.4837,31.04],[105.5008,31.0297],[105.5342,31.028],[105.5426,31.0161],[105.5618,31.0089],[105.5717,30.9902],[105.5924,30.9752],[105.6152,30.9801],[105.6118,30.9948],[105.6293,31.0055],[105.6588,31.0028],[105.6607,31.0222],[105.6888,31.0253],[105.7103,31.0422],[105.708,31.0614],[105.7178,31.0876],[105.7126,31.1319],[105.718,31.1519],[105.6957,31.1742],[105.67,31.1742],[105.6741,31.1997],[105.6707,31.2262],[105.6632,31.237],[105.6711,31.2583],[105.6438,31.2599],[105.6347,31.2854],[105.6123,31.2981],[105.5895,31.3044],[105.6054,31.3273],[105.6006,31.3393],[105.6258,31.3484],[105.6289,31.3643],[105.6412,31.3806],[105.6392,31.397],[105.6226,31.4074],[105.6088,31.399],[105.5665,31.3997],[105.5502,31.4047],[105.5213,31.3937],[105.496,31.4046],[105.4766,31.4277],[105.4803,31.4399],[105.497,31.4598],[105.4762,31.4846],[105.4544,31.477],[105.4408,31.4823],[105.4347,31.4568],[105.4017,31.441],[105.3465,31.4741],[105.3284,31.4564],[105.3175,31.4651],[105.2975,31.4562],[105.2843,31.4711],[105.2498,31.4769],[105.2345,31.4632],[105.2217,31.4828],[105.2123,31.47],[105.2178,31.4566],[105.2092,31.4425],[105.2034,31.4168],[105.2198,31.4017],[105.2097,31.3784],[105.2334,31.3584],[105.253,31.3564],[105.2677,31.3469],[105.2636,31.329],[105.247,31.326],[105.2593,31.2914],[105.256,31.2668],[105.2732,31.2548],[105.2886,31.2344],[105.254,31.2159],[105.2648,31.2053],[105.271,31.1842],[105.2962,31.1816],[105.2801,31.1678],[105.2957,31.1444],[105.2979,31.1151]]]},"properties":{"region_code":"CN-51-5107-510723","parent_region_code":"CN-51-5107","name":"盐亭县","level":"county","has_children":false,"full_path":"中国 / 四川省 / 绵阳市 / 盐亭县","source_admin_code":"510723","osm_relation_id":2787460}},
{"type":"Feature","geometry":{"type":"Polygon","coordinates":[[[105.147,31.4421],[105.1706,31.4443],[105.1799,31.4339],[105.1956,31.4329],[105.2092,31.4425],[105.2178,31.4566],[105.2123,31.47],[105.2217,31.4828],[105.2345,31.4632],[105.2498,31.4769],[105.2843,31.4711],[105.2975,31.4562],[105.3175,31.4651],[105.3284,31.4564],[105.3465,31.4741],[105.4017,31.441],[105.4347,31.4568],[105.4408,31.4823],[105.4585,31.5004],[105.4541,31.5268],[105.4403,31.5387],[105.4117,31.5467],[105.4121,31.5614],[105.3978,31.565],[105.3863,31.5983],[105.3898,31.6203],[105.363,31.6182],[105.3279,31.6323],[105.3351,31.6559],[105.344,31.6599],[105.3418,31.6795],[105.3158,31.7037],[105.3104,31.7193],[105.2824,31.7021],[105.2599,31.6998],[105.2584,31.7193],[105.281,31.7314],[105.2813,31.7423],[105.3074,31.7444],[105.3046,31.7733],[105.2924,31.7776],[105.2864,31.793],[105.2686,31.7948],[105.2545,31.7856],[105.2426,31.7946],[105.2487,31.8066],[105.2392,31.8328],[105.2018,31.8405],[105.2114,31.8637],[105.2118,31.8804],[105.2002,31.9047],[105.1813,31.9048],[105.1587,31.8983],[105.1432,31.9122],[105.1284,31.9026],[105.1144,31.9057],[105.0902,31.8751],[105.0633,31.8677],[105.0365,31.8441],[105.0164,31.8328],[104.9834,31.8263],[104.9663,31.7986],[104.9862,31.7909],[104.9795,31.781],[104.9913,31.7666],[104.962,31.7657],[104.956,31.7457],[104.9711,31.7229],[104.9922,31.714],[105.0129,31.7132],[105.0212,31.7056],[105.0255,31.6636],[105.0056,31.6601],[105.001,31.6409],[105.006,31.623],[105.0209,31.6249],[105.03,31.6066],[105.0225,31.5863],[105.0429,31.5793],[105.0424,31.5563],[105.0533,31.5522],[105.0622,31.5246],[105.0527,31.4928],[105.057,31.4761],[105.0544,31.4568],[105.0681,31.4472],[105.0987,31.4453],[105.1095,31.4609],[105.147,31.4421]]]},"properties":{"region_code":"CN-51-5107-510725","parent_region_code":"CN-51-5107","name":"梓潼县","level":"county","has_children":false,"full_path":"中国 / 四川省 / 绵阳市 / 梓潼县","source_admin_code":"510725","osm_relation_id":2787462}},
{"type":"Feature","geometry":{"type":"Polygon","coordinates":[[[104.5112,31.6766],[104.5134,31.6836],[104.5377,31.6891],[104.5602,31.7007],[104.5905,31.7229],[104.5977,31.7343],[104.5792,31.7523],[104.6007,31.7653],[104.5836,31.7804],[104.5885,31.8258],[104.5723,31.8315],[104.5696,31.8419],[104.548,31.8495],[104.5603,31.8699],[104.5811,31.8689],[104.5934,31.8822],[104.6061,31.8847],[104.6364,31.9057],[104.6598,31.8922],[104.6755,31.872],[104.6932,31.8799],[104.7158,31.9013],[104.7077,31.9187],[104.689,31.9343],[104.7045,31.9795],[104.7219,31.9936],[104.7048,32.019],[104.6705,32.0057],[104.6614,32.0164],[104.6383,32.0258],[104.6371,32.0409],[104.6178,32.0521],[104.6083,32.0498],[104.5558,32.0617],[104.533,32.0772],[104.4979,32.0856],[104.4854,32.101],[104.4577,32.1101],[104.4613,32.0879],[104.4419,32.0816],[104.4281,32.0585],[104.4052,32.0592],[104.4019,32.0698],[104.378,32.0786],[104.3705,32.0954],[104.3196,32.112],[104.2937,32.1475],[104.2606,32.1468],[104.2408,32.1651],[104.2443,32.1915],[104.2559,32.2163],[104.2267,32.2194],[104.1971,32.2089],[104.1608,32.1852],[104.1508,32.1556],[104.1258,32.1434],[104.0743,32.1281],[104.0489,32.1336],[104.0244,32.131],[103.9907,32.122],[103.9718,32.1434],[103.9571,32.1418],[103.938,32.1508],[103.9184,32.1453],[103.8776,32.1601],[103.849,32.1643],[103.8586,32.1394],[103.8557,32.1304],[103.8256,32.134],[103.8231,32.117],[103.8121,32.1126],[103.8131,32.0961],[103.8223,32.0705],[103.8141,32.0561],[103.7909,32.0472],[103.7817,32.028],[103.7568,32.0021],[103.7489,31.9561],[103.8196,31.941],[103.8405,31.9241],[103.8739,31.9203],[103.8824,31.9316],[103.9086,31.9379],[103.9181,31.9456],[103.9559,31.9061],[103.9543,31.8839],[103.9641,31.8817],[103.9713,31.8619],[104.0128,31.8635],[104.0291,31.8487],[104.0425,31.8522],[104.0566,31.8318],[104.0788,31.8401],[104.1253,31.8313],[104.1373,31.8169],[104.1523,31.8185],[104.1502,31.7958],[104.1609,31.7933],[104.173,31.7686],[104.1679,31.7632],[104.1715,31.7355],[104.1853,31.73],[104.2123,31.7419],[104.2343,31.7566],[104.263,31.7825],[104.2972,31.791],[104.3044,31.76],[104.335,31.7369],[104.3477,31.7378],[104.3441,31.7125],[104.3683,31.71],[104.3787,31.6731],[104.3526,31.6583],[104.3673,31.6386],[104.3615,31.6308],[104.3921,31.6124],[104.3928,31.5955],[104.4044,31.5599],[104.4254,31.5734],[104.4492,31.5667],[104.4627,31.5907],[104.4892,31.6122],[104.5069,31.6196],[104.513,31.6349],[104.5015,31.6501],[104.5112,31.6766]],[[104.5664,31.7626],[104.5707,31.7487],[104.5574,31.7393],[104.5404,31.7558],[104.5664,31.7626]]]},"properties":{"region_code":"CN-51-5107-510726","parent_region_code":"CN-51-5107","name":"北川羌族自治县","level":"county","has_children":false,"full_path":"中国 / 四川省 / 绵阳市 / 北川羌族自治县","source_admin_code":"510726","osm_relation_id":2787457}},
{"type":"Feature","geometry":{"type":"Polygon","coordinates":[[[104.7219,31.9936],[104.7409,31.9959],[104.7427,32.0067],[104.7723,32.015],[104.7838,31.9975],[104.8231,32.0115],[104.8449,32.0352],[104.8503,32.0497],[104.8787,32.0492],[104.8914,32.0641],[104.8884,32.0945],[104.8986,32.1373],[104.9174,32.1569],[104.9337,32.1642],[104.9246,32.1863],[104.9312,32.2239],[104.9506,32.2317],[104.9628,32.2471],[104.9856,32.249],[104.9856,32.282],[104.9569,32.3055],[104.9645,32.3257],[104.9355,32.3362],[104.9089,32.3298],[104.8832,32.3571],[104.8571,32.3609],[104.8378,32.3541],[104.8193,32.3745],[104.799,32.3762],[104.77,32.4],[104.7716,32.4213],[104.7591,32.4328],[104.7589,32.4492],[104.7477,32.4657],[104.7567,32.4962],[104.7468,32.5097],[104.7526,32.531],[104.7435,32.5383],[104.6911,32.5601],[104.6515,32.5635],[104.6494,32.58],[104.6126,32.6072],[104.6162,32.636],[104.6321,32.6736],[104.6093,32.6906],[104.5886,32.7002],[104.5811,32.7242],[104.551,32.7362],[104.5319,32.7272],[104.5118,32.7464],[104.5084,32.7563],[104.4891,32.7586],[104.4622,32.7505],[104.4251,32.7706],[104.3691,32.8096],[104.3563,32.8263],[104.332,32.8263],[104.2919,32.8382],[104.2873,32.8733],[104.2815,32.8837],[104.2451,32.8799],[104.2354,32.8929],[104.2175,32.8978],[104.2075,32.9185],[104.1896,32.9208],[104.164,32.9541],[104.1308,32.9774],[104.105,33.0031],[104.0917,32.9998],[104.0494,33.0149],[104.0367,33.0295],[104.0012,33.0444],[103.9871,33.0386],[103.9796,33.0228],[103.9733,32.9908],[103.9653,32.9763],[103.9597,32.9447],[103.9649,32.9246],[103.9501,32.9032],[103.9537,32.8916],[103.9736,32.8883],[103.9901,32.8761],[103.9929,32.8612],[103.9761,32.8549],[103.9684,32.8413],[104.0003,32.8163],[104.0308,32.8256],[104.0321,32.8349],[104.0699,32.8489],[104.0752,32.859],[104.1025,32.8461],[104.1005,32.8184],[104.1043,32.8039],[104.1181,32.8017],[104.127,32.7848],[104.1393,32.7804],[104.1455,32.7591],[104.131,32.7467],[104.1285,32.7327],[104.1543,32.71],[104.1718,32.6885],[104.1807,32.6681],[104.1763,32.6392],[104.1762,32.607],[104.1661,32.5827],[104.1723,32.5308],[104.1649,32.5232],[104.1354,32.472],[104.0928,32.4692],[104.1267,32.4915],[104.1333,32.5139],[104.1305,32.5307],[104.1099,32.544],[104.0722,32.5926],[104.0686,32.6238],[104.0361,32.6543],[104.0115,32.6427],[103.992,32.6503],[103.972,32.643],[103.9196,32.6374],[103.9078,32.6445],[103.8857,32.6419],[103.8859,32.6316],[103.8656,32.6175],[103.8498,32.6128],[103.8433,32.587],[103.8498,32.5726],[103.8714,32.5559],[103.8852,32.5285],[103.9045,32.5134],[103.9033,32.472],[103.9127,32.4359],[103.8896,32.3823],[103.8901,32.3654],[103.904,32.3311],[103.919,32.3193],[103.9334,32.3188],[103.9565,32.3074],[103.9788,32.3085],[103.9995,32.2912],[104.0056,32.2757],[104.0191,32.2702],[104.0242,32.2535],[104.0477,32.2513],[104.0541,32.2387],[104.0754,32.2287],[104.0942,32.2287],[104.1119,32.221],[104.1311,32.2269],[104.1371,32.2401],[104.1563,32.2485],[104.1704,32.2811],[104.1758,32.3117],[104.21,32.3004],[104.2074,32.2888],[104.218,32.2697],[104.2458,32.2495],[104.2559,32.2163],[104.2443,32.1915],[104.2408,32.1651],[104.2606,32.1468],[104.2937,32.1475],[104.3196,32.112],[104.3705,32.0954],[104.378,32.0786],[104.4019,32.0698],[104.4052,32.0592],[104.4281,32.0585],[104.4419,32.0816],[104.4613,32.0879],[104.4577,32.1101],[104.4854,32.101],[104.4979,32.0856],[104.533,32.0772],[104.5558,32.0617],[104.6083,32.0498],[104.6178,32.0521],[104.6371,32.0409],[104.6383,32.0258],[104.6614,32.0164],[104.6705,32.0057],[104.7048,32.019],[104.7219,31.9936]]]},"properties":{"region_code":"CN-51-5107-510727","parent_region_code":"CN-51-5107","name":"平武县","level":"county","has_children":false,"full_path":"中国 / 四川省 / 绵阳市 / 平武县","source_admin_code":"510727","osm_relation_id":2167812}},
{"type":"Feature","geometry":{"type":"MultiPolygon","coordinates":[[[[104.5664,31.7626],[104.5404,31.7558],[104.5574,31.7393],[104.5707,31.7487],[104.5664,31.7626]]],[[[104.7136,31.6094],[104.7331,31.6105],[104.7402,31.6279],[104.7753,31.6261],[104.7726,31.6483],[104.79,31.6422],[104.8247,31.6513],[104.8152,31.6678],[104.811,31.6936],[104.8299,31.7004],[104.8423,31.7127],[104.8582,31.7062],[104.8741,31.6904],[104.8922,31.7072],[104.9401,31.7005],[104.9458,31.7121],[104.9711,31.7229],[104.956,31.7457],[104.962,31.7657],[104.9913,31.7666],[104.9795,31.781],[104.9862,31.7909],[104.9663,31.7986],[104.9834,31.8263],[105.0164,31.8328],[105.0365,31.8441],[105.0633,31.8677],[105.0902,31.8751],[105.1144,31.9057],[105.1284,31.9026],[105.1432,31.9122],[105.1587,31.8983],[105.1813,31.9048],[105.1798,31.9135],[105.2019,31.9478],[105.1817,31.9676],[105.1844,31.9852],[105.1736,31.9961],[105.212,32.0075],[105.2317,32.0177],[105.2432,31.9973],[105.2512,31.9976],[105.2609,32.0199],[105.2435,32.0543],[105.2521,32.0665],[105.2492,32.0849],[105.2854,32.1146],[105.2756,32.1325],[105.2721,32.1565],[105.2508,32.1736],[105.2713,32.1931],[105.2499,32.2045],[105.2507,32.2375],[105.266,32.2601],[105.2614,32.2787],[105.2473,32.2762],[105.2325,32.2895],[105.2538,32.3042],[105.2411,32.3211],[105.2165,32.3186],[105.2032,32.3085],[105.1765,32.3066],[105.1493,32.3115],[105.0888,32.3094],[105.0804,32.2861],[105.041,32.2914],[105.0334,32.269],[104.9856,32.249],[104.9628,32.2471],[104.9506,32.2317],[104.9312,32.2239],[104.9246,32.1863],[104.9337,32.1642],[104.9174,32.1569],[104.8986,32.1373],[104.8884,32.0945],[104.8914,32.0641],[104.8787,32.0492],[104.8503,32.0497],[104.8449,32.0352],[104.8231,32.0115],[104.7838,31.9975],[104.7723,32.015],[104.7427,32.0067],[104.7409,31.9959],[104.7219,31.9936],[104.7045,31.9795],[104.689,31.9343],[104.7077,31.9187],[104.7158,31.9013],[104.6932,31.8799],[104.6755,31.872],[104.6598,31.8922],[104.6364,31.9057],[104.6061,31.8847],[104.5934,31.8822],[104.5811,31.8689],[104.5603,31.8699],[104.548,31.8495],[104.5696,31.8419],[104.5723,31.8315],[104.5885,31.8258],[104.5836,31.7804],[104.6007,31.7653],[104.5792,31.7523],[104.5977,31.7343],[104.5905,31.7229],[104.5602,31.7007],[104.5377,31.6891],[104.5134,31.6836],[104.5112,31.6766],[104.5522,31.6447],[104.5485,31.6225],[104.5736,31.625],[104.5968,31.6153],[104.6097,31.6012],[104.5932,31.5693],[104.6154,31.5629],[104.6228,31.5431],[104.6365,31.5427],[104.6602,31.5529],[104.6661,31.5745],[104.6522,31.5799],[104.6717,31.5981],[104.6994,31.6113],[104.7136,31.6094]]]]},"properties":{"region_code":"CN-51-5107-510781","parent_region_code":"CN-51-5107","name":"江油市","level":"county","has_children":false,"full_path":"中国 / 四川省 / 绵阳市 / 江油市","source_admin_code":"510781","osm_relation_id":2172152}}
]}