{"type":"FeatureCollection", "features": [
{"type":"Feature","geometry":{"type":"Polygon","coordinates":[[[100.688,38.8044],[100.7001,38.8139],[100.7079,38.8229],[100.7125,38.8298],[100.7171,38.8342],[100.7223,38.8413],[100.7358,38.866],[100.7173,38.8735],[100.7201,38.8799],[100.7307,38.8897],[100.7385,38.8945],[100.7512,38.9039],[100.7656,38.917],[100.7687,38.9191],[100.7733,38.927],[100.7829,38.933],[100.7892,38.938],[100.793,38.942],[100.7993,38.9514],[100.808,38.9599],[100.8125,38.9615],[100.8129,38.9653],[100.8219,38.9682],[100.8228,38.9703],[100.8277,38.9725],[100.8298,38.9786],[100.8351,38.9861],[100.8424,38.9847],[100.8467,38.9864],[100.846,38.9901],[100.8488,38.992],[100.8475,38.9975],[100.8435,39.0038],[100.8457,39.0089],[100.8449,39.0179],[100.8288,39.0276],[100.8302,39.064],[100.8268,39.0728],[100.8609,39.1054],[100.8665,39.1097],[100.8642,39.1165],[100.8619,39.119],[100.8644,39.1243],[100.8553,39.1429],[100.8549,39.1472],[100.8521,39.154],[100.8504,39.1553],[100.8495,39.165],[100.8469,39.172],[100.8444,39.1763],[100.8442,39.1824],[100.8466,39.1921],[100.8462,39.1946],[100.8409,39.1991],[100.8382,39.2067],[100.8338,39.3064],[100.8325,39.3497],[100.8298,39.4041],[100.8006,39.4038],[100.7504,39.4038],[100.7417,39.402],[100.7273,39.4021],[100.7137,39.4044],[100.7037,39.4039],[100.6926,39.4003],[100.6866,39.3996],[100.6792,39.397],[100.6613,39.3926],[100.6421,39.3901],[100.6346,39.39],[100.624,39.3875],[100.609,39.387],[100.5907,39.3897],[100.5765,39.3922],[100.5725,39.3937],[100.5646,39.3929],[100.5597,39.396],[100.5506,39.3953],[100.5386,39.3981],[100.5293,39.3998],[100.5164,39.3995],[100.4968,39.3998],[100.4965,39.3973],[100.4998,39.3507],[100.5001,39.344],[100.5016,39.3337],[100.5019,39.3161],[100.4975,39.3013],[100.4955,39.2917],[100.4947,39.284],[100.4955,39.2775],[100.493,39.2719],[100.4926,39.2648],[100.4893,39.2568],[100.4841,39.2466],[100.4827,39.2424],[100.4767,39.2368],[100.4761,39.2325],[100.4699,39.2277],[100.464,39.2248],[100.4658,39.2227],[100.4637,39.2186],[100.4599,39.2175],[100.4622,39.2102],[100.4592,39.2083],[100.4604,39.2056],[100.4506,39.1997],[100.4538,39.1944],[100.4513,39.1882],[100.4394,39.1848],[100.4354,39.1824],[100.4389,39.178],[100.439,39.1702],[100.4439,39.162],[100.4441,39.1585],[100.44,39.1544],[100.4418,39.1492],[100.4347,39.1466],[100.4306,39.1407],[100.4273,39.1393],[100.4244,39.1362],[100.4097,39.126],[100.4008,39.1264],[100.3987,39.1319],[100.3995,39.1341],[100.3926,39.1403],[100.3903,39.1438],[100.3859,39.1458],[100.3813,39.1453],[100.3769,39.1467],[100.3751,39.1501],[100.365,39.1524],[100.357,39.1555],[100.3483,39.1559],[100.3461,39.158],[100.3276,39.1589],[100.3216,39.1619],[100.3102,39.1708],[100.3087,39.1744],[100.3057,39.1768],[100.2976,39.1785],[100.2829,39.1808],[100.2782,39.1874],[100.2754,39.1928],[100.2755,39.1972],[100.2719,39.2032],[100.2663,39.2101],[100.2209,39.2124],[100.2195,39.2044],[100.2168,39.2022],[100.2187,39.1969],[100.2176,39.1937],[100.2218,39.1879],[100.2204,39.1832],[100.2221,39.1783],[100.2211,39.1764],[100.2239,39.1735],[100.2219,39.1679],[100.2195,39.1644],[100.2151,39.1619],[100.2144,39.1587],[100.2102,39.1571],[100.208,39.1528],[100.2023,39.1466],[100.1985,39.146],[100.1922,39.1425],[100.1903,39.1372],[100.1919,39.1332],[100.1908,39.1294],[100.1882,39.126],[100.1867,39.1171],[100.1836,39.1131],[100.1816,39.1071],[100.1885,39.1051],[100.197,39.1004],[100.1957,39.0962],[100.1962,39.0871],[100.1919,39.0849],[100.1992,39.0734],[100.2036,39.0679],[100.2029,39.062],[100.211,39.0646],[100.2135,39.0623],[100.2239,39.0351],[100.2199,39.028],[100.2247,39.026],[100.2274,39.0206],[100.2286,39.0114],[100.2266,39.0084],[100.2249,38.9988],[100.2269,38.9959],[100.2214,38.9938],[100.2159,38.9929],[100.1453,38.9918],[100.1065,38.9914],[100.1049,38.988],[100.0978,38.9843],[100.0973,38.9825],[100.1071,38.9742],[100.1069,38.9688],[100.11,38.963],[100.1107,38.9565],[100.1095,38.9513],[100.1103,38.9464],[100.1084,38.9444],[100.1117,38.9412],[100.1154,38.9356],[100.1294,38.9341],[100.1359,38.9329],[100.1433,38.9279],[100.144,38.9241],[100.1387,38.9176],[100.1363,38.9107],[100.136,38.9057],[100.1338,38.8987],[100.1304,38.894],[100.1285,38.877],[100.1253,38.8717],[100.1207,38.8669],[100.1208,38.864],[100.1264,38.8593],[100.133,38.8595],[100.1347,38.8582],[100.1361,38.8534],[100.1427,38.8482],[100.1425,38.8434],[100.1454,38.8416],[100.1474,38.8365],[100.1561,38.8257],[100.1562,38.8231],[100.1623,38.8154],[100.1628,38.8134],[100.1573,38.808],[100.1518,38.8061],[100.1586,38.802],[100.1613,38.7919],[100.1626,38.7839],[100.1736,38.7807],[100.1771,38.7805],[100.1781,38.7742],[100.1837,38.7654],[100.1855,38.7586],[100.1877,38.7559],[100.1838,38.7522],[100.1816,38.7483],[100.1801,38.7426],[100.1824,38.7404],[100.1785,38.7365],[100.1783,38.7329],[100.1762,38.728],[100.1783,38.7241],[100.1787,38.7189],[100.1763,38.7167],[100.1822,38.7113],[100.1881,38.7099],[100.195,38.7056],[100.2053,38.7058],[100.2163,38.7037],[100.2219,38.7035],[100.2316,38.7019],[100.2372,38.7024],[100.241,38.7007],[100.2442,38.6945],[100.2444,38.6854],[100.2427,38.6831],[100.2431,38.6787],[100.246,38.6727],[100.2485,38.674],[100.2577,38.6731],[100.2596,38.6713],[100.2667,38.6747],[100.2722,38.6724],[100.2762,38.6721],[100.2897,38.6681],[100.2905,38.6608],[100.2971,38.658],[100.3016,38.6582],[100.2997,38.6533],[100.2947,38.6465],[100.2988,38.6409],[100.2972,38.6355],[100.3022,38.6322],[100.3026,38.628],[100.314,38.6248],[100.312,38.6198],[100.3138,38.6174],[100.3174,38.6188],[100.3163,38.6099],[100.3214,38.6075],[100.3206,38.6051],[100.3268,38.6022],[100.3399,38.5979],[100.3438,38.595],[100.3495,38.5934],[100.3564,38.5929],[100.359,38.5937],[100.3654,38.5906],[100.36,38.5847],[100.3594,38.5794],[100.3649,38.5725],[100.365,38.5692],[100.3707,38.5654],[100.371,38.5615],[100.3746,38.5592],[100.3843,38.5572],[100.3829,38.5533],[100.3862,38.5509],[100.3852,38.5444],[100.3909,38.5475],[100.3954,38.5514],[100.4034,38.5537],[100.4069,38.5559],[100.412,38.5607],[100.4165,38.5629],[100.4245,38.5689],[100.4334,38.5721],[100.4433,38.5787],[100.4509,38.5809],[100.4555,38.5836],[100.4608,38.5891],[100.4614,38.5931],[100.4704,38.6027],[100.4952,38.6177],[100.5011,38.6254],[100.5035,38.6301],[100.5081,38.6309],[100.5115,38.6347],[100.5163,38.6485],[100.5157,38.6529],[100.5178,38.6594],[100.5145,38.661],[100.5081,38.6562],[100.507,38.6573],[100.514,38.6678],[100.5131,38.6688],[100.5032,38.6713],[100.4998,38.6837],[100.4995,38.6901],[100.5024,38.6912],[100.512,38.6971],[100.5163,38.7007],[100.5218,38.7076],[100.5251,38.7277],[100.5249,38.7318],[100.5276,38.7337],[100.5669,38.7358],[100.5711,38.7352],[100.5854,38.7358],[100.5972,38.7355],[100.6009,38.7379],[100.6046,38.7332],[100.6072,38.7336],[100.6097,38.7387],[100.6129,38.7409],[100.6202,38.7485],[100.6294,38.7571],[100.633,38.7624],[100.6904,38.7937],[100.688,38.8044]]]},"properties":{"region_code":"CN-62-6207-620702","parent_region_code":"CN-62-6207","name":"甘州区","level":"county","has_children":false,"full_path":"中国 / 甘肃省 / 张掖市 / 甘州区","source_admin_code":"620702","osm_relation_id":2706353}},
{"type":"Feature","geometry":{"type":"MultiPolygon","coordinates":[[[[100.7119,38.2532],[100.7171,38.2581],[100.7233,38.2598],[100.7259,38.263],[100.7319,38.264],[100.7374,38.2673],[100.7469,38.2741],[100.7519,38.269],[100.7545,38.2678],[100.7569,38.2631],[100.7619,38.2589],[100.7666,38.2609],[100.776,38.2618],[100.78,38.2641],[100.7818,38.2671],[100.7868,38.2675],[100.7896,38.2708],[100.7889,38.2737],[100.791,38.2772],[100.794,38.2793],[100.8018,38.2804],[100.808,38.283],[100.8103,38.2851],[100.8157,38.286],[100.8241,38.294],[100.8224,38.2965],[100.8266,38.2997],[100.8266,38.3034],[100.8293,38.3125],[100.8284,38.317],[100.8308,38.328],[100.8284,38.3311],[100.8279,38.3362],[100.8245,38.3445],[100.8203,38.3486],[100.8232,38.3542],[100.8201,38.3666],[100.8175,38.3705],[100.8136,38.3691],[100.8121,38.3668],[100.8081,38.366],[100.8029,38.3604],[100.7931,38.3599],[100.7903,38.3586],[100.7872,38.3549],[100.7804,38.3633],[100.7774,38.3712],[100.7721,38.3705],[100.7709,38.3664],[100.7642,38.3648],[100.7629,38.3633],[100.7577,38.3646],[100.757,38.3615],[100.7531,38.3571],[100.7423,38.3625],[100.7455,38.3686],[100.7414,38.3725],[100.7395,38.3769],[100.7346,38.3755],[100.73,38.3766],[100.7273,38.3807],[100.7336,38.3835],[100.7364,38.3865],[100.7364,38.3894],[100.7336,38.3927],[100.7355,38.3949],[100.7275,38.4033],[100.7247,38.4036],[100.7219,38.3956],[100.714,38.4037],[100.7045,38.4019],[100.7025,38.3976],[100.6965,38.3943],[100.6943,38.3895],[100.6888,38.3853],[100.6847,38.3782],[100.6869,38.3756],[100.6838,38.3737],[100.6806,38.3697],[100.6768,38.3674],[100.6776,38.3609],[100.6739,38.3563],[100.6726,38.3531],[100.6737,38.3487],[100.6715,38.3421],[100.6644,38.331],[100.6668,38.3261],[100.6649,38.321],[100.668,38.3191],[100.6646,38.3144],[100.6588,38.3135],[100.656,38.3113],[100.6544,38.3065],[100.6483,38.3045],[100.6436,38.3062],[100.6412,38.3024],[100.6421,38.2991],[100.6405,38.2967],[100.6397,38.2903],[100.6373,38.2888],[100.6349,38.2831],[100.6349,38.2786],[100.6298,38.2731],[100.6261,38.2667],[100.6291,38.2659],[100.6393,38.2609],[100.6468,38.2608],[100.6551,38.2588],[100.6579,38.2569],[100.6645,38.2555],[100.6687,38.2573],[100.6749,38.2547],[100.6785,38.2515],[100.6824,38.2514],[100.6858,38.2489],[100.6907,38.2476],[100.7032,38.2479],[100.7067,38.2496],[100.71,38.2533],[100.7119,38.2532]]],[[[99.2369,39.4593],[99.3502,39.3845],[99.3926,39.3565],[99.4227,39.347],[99.4917,39.3899],[99.5663,39.3965],[99.5659,39.4536],[99.5539,39.5146],[99.5203,39.6087],[99.4977,39.6462],[99.4576,39.6502],[99.4284,39.6475],[99.3755,39.6622],[99.3674,39.6381],[99.3326,39.6281],[99.1994,39.6714],[99.1565,39.7114],[99.1333,39.7124],[99.0655,39.7217],[99.0339,39.7389],[98.9584,39.7793],[98.9587,39.7751],[98.9517,39.7219],[98.9449,39.7139],[98.9406,39.6953],[98.9541,39.676],[98.9477,39.6636],[98.9073,39.6677],[98.8706,39.6672],[98.8555,39.6684],[98.8407,39.672],[98.8366,39.6725],[98.8292,39.6756],[98.8239,39.6757],[98.8197,39.6723],[98.8164,39.6605],[98.8114,39.6505],[98.8071,39.643],[98.8039,39.6318],[98.8035,39.6281],[98.8056,39.6185],[98.8035,39.615],[98.804,39.6119],[98.7999,39.6027],[98.8086,39.602],[98.8108,39.5988],[98.8149,39.5985],[98.8155,39.5909],[98.8564,39.5908],[98.8681,39.5885],[98.8702,39.5939],[98.889,39.5915],[98.9108,39.5848],[98.9377,39.5771],[98.9427,39.5888],[98.9463,39.594],[98.9644,39.6079],[98.9768,39.6184],[99.016,39.6295],[99.018,39.6307],[99.0273,39.6323],[99.0462,39.6271],[99.0717,39.6154],[99.0545,39.5892],[99.0682,39.565],[99.0699,39.5632],[99.0702,39.5537],[99.074,39.5479],[99.0787,39.5438],[99.0904,39.5319],[99.0947,39.5195],[99.0985,39.5146],[99.1057,39.5089],[99.1102,39.5069],[99.126,39.5034],[99.1612,39.4852],[99.1664,39.4807],[99.2325,39.4579],[99.2369,39.4593]]],[[[101.4424,37.8674],[101.448,37.8658],[101.4526,37.867],[101.457,37.8656],[101.4575,37.8615],[101.4617,37.8567],[101.468,37.8547],[101.4729,37.8553],[101.4808,37.853],[101.4862,37.856],[101.495,37.8549],[101.4984,37.8575],[101.5072,37.8548],[101.5206,37.8488],[101.5238,37.8465],[101.5407,37.8386],[101.5497,37.8355],[101.5544,37.8353],[101.5569,37.8372],[101.561,37.8361],[101.5729,37.835],[101.5841,37.8302],[101.5901,37.8296],[101.5965,37.8271],[101.6001,37.8193],[101.6024,37.8167],[101.6062,37.8154],[101.6172,37.8096],[101.6177,37.8052],[101.6291,37.7873],[101.6389,37.7755],[101.6471,37.7734],[101.6558,37.7686],[101.6594,37.764],[101.6675,37.7585],[101.6684,37.7539],[101.664,37.7479],[101.6569,37.7407],[101.6573,37.733],[101.6661,37.7286],[101.6767,37.7275],[101.6884,37.7238],[101.7001,37.7196],[101.7481,37.7062],[101.7871,37.6967],[101.7898,37.6956],[101.7967,37.6874],[101.8018,37.6857],[101.8117,37.6812],[101.8087,37.6732],[101.8094,37.6632],[101.8116,37.658],[101.8116,37.6552],[101.8142,37.6539],[101.8272,37.6556],[101.84,37.6595],[101.8446,37.6623],[101.8525,37.6643],[101.858,37.6605],[101.8623,37.6677],[101.8676,37.6723],[101.8672,37.6746],[101.8705,37.6818],[101.8706,37.6854],[101.8755,37.6865],[101.8797,37.6908],[101.8832,37.692],[101.8925,37.7006],[101.8955,37.7023],[101.899,37.7014],[101.9028,37.7035],[101.9071,37.7034],[101.9125,37.7074],[101.9205,37.7121],[101.9232,37.7164],[101.9294,37.7215],[101.9388,37.7247],[101.9446,37.7278],[101.9558,37.7285],[101.9666,37.7253],[101.9717,37.7267],[101.9795,37.7272],[101.9932,37.7247],[101.9971,37.7246],[101.9972,37.7194],[101.9997,37.7157],[102.0034,37.7135],[102.0078,37.7136],[102.0142,37.7066],[102.0131,37.7025],[102.0139,37.6974],[102.017,37.6941],[102.0313,37.6879],[102.0341,37.6845],[102.0344,37.6792],[102.0319,37.672],[102.0322,37.6669],[102.0359,37.6593],[102.0395,37.656],[102.0452,37.6537],[102.0466,37.6498],[102.044,37.6416],[102.0367,37.6333],[102.0333,37.627],[102.0383,37.6291],[102.0386,37.6321],[102.0429,37.6342],[102.0478,37.6388],[102.051,37.6436],[102.0521,37.6541],[102.0467,37.6595],[102.0459,37.6633],[102.0495,37.6703],[102.0516,37.676],[102.0508,37.6832],[102.0588,37.6846],[102.0605,37.6899],[102.0643,37.691],[102.0697,37.6886],[102.0729,37.6884],[102.077,37.6932],[102.0752,37.6963],[102.0772,37.7011],[102.075,37.7064],[102.0768,37.7092],[102.0854,37.7108],[102.0826,37.7164],[102.0819,37.7236],[102.0827,37.7266],[102.0888,37.7332],[102.0902,37.7379],[102.0969,37.7432],[102.1022,37.744],[102.1063,37.7473],[102.1098,37.7531],[102.1095,37.7561],[102.1118,37.7589],[102.116,37.7607],[102.1229,37.7617],[102.1273,37.7653],[102.1268,37.7691],[102.1235,37.7737],[102.1279,37.7778],[102.137,37.7775],[102.1438,37.7881],[102.151,37.8008],[102.1564,37.8056],[102.1566,37.8115],[102.1611,37.8154],[102.1639,37.8152],[102.1665,37.8193],[102.173,37.8214],[102.1857,37.828],[102.1897,37.8316],[102.1987,37.8314],[102.1993,37.8371],[102.1983,37.8409],[102.2016,37.8457],[102.2024,37.8534],[102.2037,37.8578],[102.2022,37.8594],[102.1937,37.8615],[102.1873,37.8621],[102.1796,37.8602],[102.1773,37.8618],[102.1767,37.8665],[102.1707,37.8667],[102.1645,37.8683],[102.1555,37.8732],[102.1532,37.8735],[102.1533,37.8776],[102.15,37.8805],[102.1519,37.8845],[102.1542,37.8852],[102.1589,37.8896],[102.1644,37.8925],[102.1692,37.8921],[102.1731,37.8982],[102.1724,37.9004],[102.1646,37.9099],[102.1642,37.9153],[102.1611,37.9256],[102.1694,37.9292],[102.1713,37.9412],[102.1697,37.9513],[102.1715,37.9598],[102.17,37.9632],[102.1647,37.9642],[102.1604,37.9672],[102.1548,37.9667],[102.1509,37.968],[102.1494,37.9721],[102.1501,37.9761],[102.1469,37.9803],[102.1373,37.984],[102.1319,37.9871],[102.1305,37.992],[102.127,37.9956],[102.123,37.9977],[102.1227,38.0016],[102.1256,38.0041],[102.1199,38.0086],[102.1131,38.0099],[102.1088,38.0097],[102.1038,38.0197],[102.1055,38.0247],[102.0992,38.0261],[102.0965,38.0306],[102.0914,38.0335],[102.0883,38.0311],[102.0884,38.0272],[102.0821,38.0247],[102.079,38.027],[102.0808,38.0287],[102.075,38.0314],[102.0694,38.0285],[102.0635,38.0298],[102.059,38.0264],[102.0573,38.0223],[102.0491,38.0248],[102.0416,38.0249],[102.036,38.029],[102.0357,38.0316],[102.0297,38.0384],[102.0244,38.042],[102.0234,38.0472],[102.0245,38.0498],[102.0235,38.0535],[102.0246,38.0556],[102.0214,38.0613],[102.0184,38.0629],[102.0157,38.0667],[102.0138,38.0729],[102.0154,38.0766],[102.0146,38.0811],[102.0087,38.0822],[102.0046,38.0869],[102.0013,38.0871],[101.9978,38.0905],[101.9848,38.0936],[101.9812,38.0938],[101.9768,38.0912],[101.9742,38.0851],[101.9713,38.0815],[101.9638,38.0822],[101.9601,38.0783],[101.9478,38.0776],[101.9388,38.0785],[101.9364,38.0811],[101.9266,38.0833],[101.9242,38.0849],[101.9161,38.0863],[101.912,38.0908],[101.9114,38.0937],[101.899,38.0958],[101.8841,38.1009],[101.8791,38.0987],[101.8707,38.0975],[101.8656,38.0981],[101.863,38.0959],[101.8584,38.0959],[101.8524,38.0978],[101.8496,38.0948],[101.8445,38.0932],[101.8373,38.0867],[101.8355,38.0804],[101.8312,38.0747],[101.8311,38.073],[101.826,38.0721],[101.8247,38.0692],[101.8197,38.0656],[101.8147,38.0633],[101.8045,38.0621],[101.7989,38.0628],[101.7945,38.0652],[101.7924,38.0678],[101.7865,38.0695],[101.7796,38.0703],[101.7763,38.0723],[101.776,38.075],[101.7706,38.0752],[101.7622,38.077],[101.7579,38.0827],[101.7577,38.0854],[101.753,38.0869],[101.7388,38.087],[101.7364,38.0942],[101.7338,38.0919],[101.7303,38.0923],[101.727,38.0902],[101.7149,38.0881],[101.707,38.0897],[101.7029,38.0884],[101.6971,38.0837],[101.6924,38.0781],[101.6894,38.0727],[101.6878,38.0646],[101.6832,38.0699],[101.675,38.0723],[101.6696,38.0761],[101.6675,38.0792],[101.6622,38.0827],[101.6531,38.0852],[101.6478,38.0882],[101.6455,38.0862],[101.6376,38.0824],[101.6378,38.0785],[101.6357,38.0768],[101.6352,38.0725],[101.6331,38.0678],[101.6267,38.0617],[101.6235,38.0603],[101.6192,38.0637],[101.6129,38.0649],[101.6046,38.0617],[101.602,38.0582],[101.5912,38.0581],[101.5894,38.057],[101.5734,38.0556],[101.5672,38.0573],[101.5612,38.0572],[101.5606,38.059],[101.5555,38.0606],[101.5454,38.0624],[101.5367,38.061],[101.5335,38.064],[101.525,38.0654],[101.5184,38.0621],[101.5129,38.0604],[101.5062,38.0673],[101.5018,38.0662],[101.5006,38.0682],[101.4953,38.0681],[101.4954,38.0653],[101.4981,38.0634],[101.4977,38.0594],[101.4916,38.0538],[101.4816,38.053],[101.4782,38.0498],[101.481,38.0439],[101.4797,38.0421],[101.4709,38.0411],[101.4654,38.0386],[101.4528,38.0366],[101.4502,38.0339],[101.4449,38.0341],[101.4401,38.0307],[101.4303,38.0298],[101.4272,38.0234],[101.4201,38.0229],[101.4142,38.0216],[101.4117,38.0175],[101.405,38.0181],[101.3963,38.0147],[101.3944,38.0127],[101.3854,38.0088],[101.3736,38.0023],[101.3713,38.0002],[101.3615,37.997],[101.3566,37.9933],[101.3534,37.9876],[101.3538,37.9795],[101.3672,37.9616],[101.3705,37.9511],[101.3715,37.9433],[101.3731,37.9367],[101.3736,37.93],[101.3665,37.9159],[101.3872,37.8998],[101.4424,37.8674]]],[[[100.0973,38.9825],[100.0962,38.9744],[100.0915,38.9671],[100.0878,38.9638],[100.0691,38.9606],[100.0592,38.9622],[100.054,38.9653],[100.0435,38.9614],[100.0382,38.9574],[100.0294,38.9616],[100.0287,38.9644],[100.0223,38.9673],[100.0165,38.967],[100.0074,38.9593],[99.995,38.9634],[99.9902,38.9665],[99.9967,38.9735],[99.997,38.9763],[100.0075,38.9858],[100.0009,38.9887],[99.9989,38.9936],[100.0023,38.9956],[100.0012,38.9977],[100.0104,39.0002],[100.0079,39.0048],[100.0099,39.0069],[100.0091,39.011],[100.0131,39.0122],[100.0224,39.0127],[100.0257,39.0152],[100.0312,39.0169],[100.0318,39.0199],[100.0293,39.0234],[100.0236,39.0278],[100.0268,39.0306],[100.0311,39.0315],[100.0382,39.0352],[100.0394,39.0406],[100.0339,39.0449],[100.0338,39.0472],[100.0288,39.0516],[100.0251,39.061],[100.0215,39.0628],[100.0164,39.0633],[100.0057,39.0607],[100.0027,39.0583],[99.9995,39.0596],[99.9965,39.0636],[99.9944,39.0642],[99.9951,39.0699],[99.9889,39.0729],[99.995,39.0785],[99.995,39.0834],[99.9878,39.0894],[99.9833,39.0895],[99.9795,39.0913],[99.9736,39.0922],[99.973,39.096],[99.9657,39.099],[99.9616,39.1057],[99.954,39.1092],[99.9526,39.1116],[99.9431,39.1104],[99.9427,39.1139],[99.9355,39.1191],[99.9265,39.12],[99.9225,39.1266],[99.917,39.1326],[99.9148,39.1374],[99.91,39.1405],[99.9091,39.1426],[99.9042,39.1458],[99.9014,39.1456],[99.8946,39.1496],[99.8957,39.1518],[99.8938,39.1546],[99.8855,39.1544],[99.8824,39.1563],[99.8865,39.1617],[99.8832,39.1642],[99.877,39.1661],[99.8718,39.1632],[99.8672,39.1647],[99.8624,39.1648],[99.8565,39.1691],[99.8521,39.1727],[99.8432,39.1743],[99.8377,39.1738],[99.8337,39.1787],[99.8262,39.1854],[99.8209,39.1877],[99.8134,39.1876],[99.8096,39.1902],[99.807,39.189],[99.7997,39.1937],[99.7933,39.1933],[99.7907,39.1948],[99.7863,39.1944],[99.7803,39.1914],[99.7715,39.1972],[99.7672,39.2053],[99.7602,39.2105],[99.7565,39.2147],[99.7463,39.2175],[99.7415,39.2235],[99.7279,39.2294],[99.7242,39.2322],[99.7228,39.2353],[99.7152,39.2354],[99.7146,39.2404],[99.7123,39.2427],[99.7081,39.2419],[99.7056,39.2429],[99.6995,39.243],[99.6957,39.2407],[99.6881,39.2414],[99.6838,39.2399],[99.6795,39.2361],[99.6418,39.2417],[99.6376,39.2452],[99.602,39.2498],[99.594,39.2532],[99.575,39.2563],[99.5497,39.2509],[99.544,39.1615],[99.5326,39.1709],[99.5164,39.1418],[99.5053,39.1272],[99.4852,39.1099],[99.4812,39.0969],[99.4606,39.1127],[99.4245,39.1138],[99.4199,39.0998],[99.4311,39.0833],[99.4228,39.0864],[99.3938,39.0763],[99.3719,39.0763],[99.3655,39.0728],[99.338,39.0738],[99.3328,39.0717],[99.3299,39.0735],[99.3309,39.0808],[99.3284,39.0858],[99.3225,39.0867],[99.3204,39.0899],[99.3065,39.0964],[99.2935,39.1011],[99.2844,39.1093],[99.2775,39.1124],[99.2742,39.1153],[99.2631,39.145],[99.2407,39.1566],[99.2101,39.1585],[99.1905,39.154],[99.1858,39.157],[99.1844,39.1604],[99.1799,39.1635],[99.1771,39.167],[99.1722,39.1697],[99.1724,39.1644],[99.1714,39.1598],[99.1643,39.1539],[99.1607,39.154],[99.1577,39.1513],[99.1534,39.1529],[99.1524,39.1558],[99.159,39.1585],[99.1649,39.1619],[99.1629,39.1632],[99.1626,39.17],[99.1676,39.1739],[99.175,39.1768],[99.1794,39.1808],[99.1614,39.194],[99.1478,39.2032],[99.1381,39.2071],[99.1409,39.2117],[99.1398,39.2454],[99.1215,39.2593],[99.0966,39.2594],[99.0847,39.2665],[99.0753,39.2654],[99.0614,39.255],[99.0583,39.2622],[99.0409,39.2941],[99.0214,39.3013],[99.0184,39.3086],[98.9973,39.3069],[98.9981,39.3153],[98.9788,39.3163],[98.9687,39.3333],[98.9077,39.3321],[98.9013,39.3158],[98.8847,39.3297],[98.8641,39.3265],[98.862,39.3332],[98.853,39.3468],[98.8285,39.3493],[98.8165,39.3522],[98.7995,39.3597],[98.7823,39.3707],[98.7782,39.3719],[98.7628,39.3831],[98.7517,39.389],[98.7309,39.3966],[98.7277,39.3985],[98.7175,39.4078],[98.7097,39.4141],[98.703,39.4169],[98.68,39.4239],[98.6736,39.4271],[98.6599,39.4358],[98.6452,39.4396],[98.6357,39.4414],[98.6307,39.4414],[98.6154,39.4441],[98.6095,39.444],[98.6079,39.4489],[98.5952,39.4527],[98.57,39.459],[98.5616,39.4633],[98.5644,39.468],[98.571,39.4708],[98.5747,39.4737],[98.5754,39.4796],[98.58,39.4828],[98.5737,39.4832],[98.5593,39.471],[98.5255,39.4664],[98.5116,39.4732],[98.5157,39.4776],[98.5322,39.4767],[98.5421,39.477],[98.544,39.4832],[98.5307,39.4859],[98.5466,39.5099],[98.4335,39.575],[98.4104,39.5509],[98.4027,39.5368],[98.4018,39.5283],[98.4041,39.5245],[98.4022,39.5131],[98.4006,39.5107],[98.3895,39.5065],[98.3795,39.5015],[98.3786,39.5041],[98.3836,39.5077],[98.3913,39.5115],[98.3942,39.5149],[98.3958,39.5334],[98.3939,39.539],[98.3836,39.5364],[98.3624,39.5399],[98.3286,39.567],[98.3392,39.5919],[98.3458,39.6089],[98.3514,39.6209],[98.3558,39.6321],[98.3643,39.6432],[98.3694,39.6488],[98.3682,39.6524],[98.3545,39.6577],[98.3519,39.6579],[98.3412,39.6612],[98.3253,39.6671],[98.3162,39.6695],[98.3058,39.674],[98.297,39.6786],[98.2911,39.6843],[98.2795,39.6912],[98.2715,39.6897],[98.2604,39.693],[98.2582,39.7008],[98.2404,39.7055],[98.2435,39.7082],[98.2437,39.7112],[98.2487,39.7171],[98.2455,39.7194],[98.2406,39.717],[98.225,39.7248],[98.2175,39.7261],[98.1944,39.7255],[98.1813,39.7234],[98.1756,39.72],[98.1678,39.7133],[98.1606,39.7045],[98.1585,39.6963],[98.1565,39.6952],[98.0367,39.6974],[97.9831,39.6651],[97.9804,39.666],[97.9685,39.6623],[97.9574,39.672],[97.9388,39.6969],[97.9209,39.6984],[97.9141,39.701],[97.907,39.7002],[97.8889,39.7052],[97.8802,39.7093],[97.8573,39.7099],[97.8566,39.7106],[97.8451,39.7009],[97.841,39.6958],[97.8332,39.6904],[97.8295,39.6842],[97.8231,39.6829],[97.8129,39.6826],[97.811,39.6789],[97.8088,39.6788],[97.8006,39.6823],[97.7947,39.6834],[97.7941,39.6814],[97.7895,39.6809],[97.7871,39.6787],[97.7743,39.6838],[97.7657,39.6859],[97.7543,39.6878],[97.7483,39.6857],[97.7413,39.6877],[97.7355,39.6876],[97.7262,39.6892],[97.724,39.691],[97.7174,39.6923],[97.7077,39.6932],[97.7006,39.6968],[97.6936,39.6907],[97.6937,39.6874],[97.6917,39.6825],[97.6831,39.6806],[97.6758,39.6779],[97.6732,39.674],[97.6723,39.666],[97.6705,39.6618],[97.6669,39.6595],[97.6629,39.6507],[97.6556,39.6307],[97.6285,39.626],[97.6181,39.6339],[97.61,39.6204],[97.5875,39.6055],[97.5687,39.5606],[97.5467,39.5487],[97.5327,39.5441],[97.5197,39.5392],[97.5142,39.5243],[97.5153,39.5171],[97.52,39.51],[97.517,39.5078],[97.5147,39.4978],[97.5049,39.4935],[97.5025,39.4915],[97.4895,39.4901],[97.4811,39.4803],[97.4767,39.4716],[97.4818,39.4636],[97.4806,39.4592],[97.4905,39.4479],[97.4873,39.4343],[97.4774,39.3741],[97.4539,39.3527],[97.4295,39.3491],[97.4198,39.3355],[97.408,39.3284],[97.3934,39.312],[97.404,39.2503],[97.4289,39.2056],[97.4251,39.2012],[97.4127,39.1901],[97.4062,39.1853],[97.397,39.1752],[97.3937,39.167],[97.394,39.1597],[97.3986,39.1484],[97.4004,39.1459],[97.4259,39.1246],[97.4316,39.1274],[97.4393,39.121],[97.4626,39.1189],[97.4745,39.1075],[97.4766,39.0978],[97.4872,39.0917],[97.489,39.0806],[97.5092,39.0751],[97.5159,39.0764],[97.528,39.0712],[97.5383,39.071],[97.5497,39.0681],[97.5584,39.0573],[97.5741,39.0539],[97.5871,39.0489],[97.5938,39.0412],[97.6022,39.0376],[97.6219,39.0309],[97.6373,39.0271],[97.6472,39.0192],[97.657,39.0172],[97.6645,39.012],[97.6722,39.0109],[97.6897,39.0065],[97.6869,39.0007],[97.688,38.9899],[97.6832,38.9883],[97.6815,38.9842],[97.6821,38.9775],[97.6855,38.9704],[97.6939,38.969],[97.7033,38.969],[97.7247,38.9671],[97.7364,38.9569],[97.746,38.9572],[97.7517,38.9557],[97.7536,38.9488],[97.7608,38.944],[97.7667,38.9441],[97.7717,38.9412],[97.7822,38.9391],[97.7933,38.9422],[97.8029,38.9358],[97.8119,38.9397],[97.8208,38.9329],[97.8298,38.93],[97.8439,38.921],[97.8648,38.9088],[97.8716,38.9023],[97.8814,38.8986],[97.8903,38.8993],[97.9007,38.8875],[97.9172,38.8788],[97.9253,38.8822],[97.9433,38.8767],[97.9473,38.8738],[97.9553,38.8738],[97.9587,38.8698],[97.9713,38.8636],[97.983,38.8603],[97.9949,38.8617],[98.013,38.8593],[98.0286,38.8437],[98.0294,38.8348],[98.032,38.8314],[98.0453,38.8273],[98.0445,38.8228],[98.0518,38.8189],[98.059,38.8203],[98.066,38.8187],[98.0803,38.7977],[98.0927,38.7859],[98.0976,38.7877],[98.1029,38.7949],[98.1154,38.7976],[98.1187,38.8087],[98.1314,38.8121],[98.1509,38.8194],[98.1687,38.8413],[98.2025,38.8562],[98.2245,38.8736],[98.2393,38.8791],[98.2511,38.8887],[98.2515,38.907],[98.237,38.9143],[98.2359,38.9197],[98.2363,38.9416],[98.2447,38.959],[98.2483,38.9713],[98.2571,38.9907],[98.2642,39.0274],[98.2629,39.0418],[98.2747,39.0418],[98.2854,39.0388],[98.2889,39.0359],[98.3164,39.0372],[98.3401,39.0332],[98.3618,39.0298],[98.3718,39.029],[98.3801,39.0323],[98.3904,39.0249],[98.4008,39.0228],[98.3989,39.0133],[98.4003,39.0008],[98.4074,38.9977],[98.4253,38.9996],[98.4299,38.9972],[98.4335,38.9889],[98.4314,38.9813],[98.43,38.9705],[98.4563,38.9585],[98.4694,38.9568],[98.4932,38.9457],[98.5012,38.9532],[98.5182,38.9553],[98.5402,38.9574],[98.561,38.9429],[98.5739,38.9317],[98.5812,38.928],[98.5896,38.9312],[98.5958,38.945],[98.6152,38.9476],[98.6239,38.9566],[98.6126,38.9798],[98.6633,38.9948],[98.6725,39.008],[98.6918,39.0213],[98.7039,39.0428],[98.7192,39.0483],[98.7218,39.0539],[98.7309,39.0574],[98.7433,39.0756],[98.7442,39.087],[98.7591,39.0904],[98.7671,39.0855],[98.7785,39.0886],[98.8117,39.0867],[98.8165,39.0851],[98.8166,39.0797],[98.8232,39.0728],[98.8188,39.0658],[98.8395,39.054],[98.8467,39.0553],[98.8553,39.0529],[98.8576,39.0473],[98.8735,39.049],[98.8868,39.0323],[98.8979,39.0203],[98.9015,39.0107],[98.9174,39.0035],[98.9408,38.9948],[98.9564,38.9842],[98.9829,38.9851],[98.993,38.9773],[99.0042,38.9781],[99.0133,38.9851],[99.0219,38.9828],[99.0412,38.9793],[99.0578,38.9759],[99.0655,38.9623],[99.0793,38.9532],[99.0927,38.9551],[99.1026,38.9527],[99.106,38.9512],[99.1009,38.9431],[99.0631,38.9112],[99.0604,38.9062],[99.0772,38.8937],[99.0873,38.8901],[99.0933,38.88],[99.1002,38.8785],[99.1197,38.864],[99.1465,38.8494],[99.1566,38.8382],[99.1577,38.8316],[99.1748,38.8303],[99.1786,38.8166],[99.1909,38.8158],[99.1999,38.8093],[99.2044,38.8019],[99.218,38.7899],[99.2541,38.7832],[99.2859,38.7676],[99.3301,38.738],[99.3369,38.7365],[99.3495,38.7367],[99.3526,38.7246],[99.3606,38.7177],[99.3763,38.7092],[99.3736,38.6952],[99.3808,38.6874],[99.3985,38.6717],[99.4147,38.6695],[99.4151,38.6605],[99.4277,38.6466],[99.4345,38.6185],[99.4464,38.6049],[99.4655,38.6048],[99.4844,38.6107],[99.4961,38.613],[99.5059,38.6114],[99.5095,38.6081],[99.5108,38.6018],[99.5129,38.599],[99.5124,38.5901],[99.5135,38.578],[99.5131,38.5675],[99.5237,38.5514],[99.5485,38.5343],[99.5554,38.5199],[99.5806,38.5058],[99.5815,38.4996],[99.5953,38.4962],[99.5991,38.4892],[99.6183,38.4826],[99.6288,38.4739],[99.6422,38.4762],[99.6463,38.4725],[99.6517,38.4708],[99.6585,38.4653],[99.6579,38.4603],[99.6602,38.4559],[99.6559,38.4524],[99.6559,38.4406],[99.6632,38.4374],[99.6741,38.434],[99.6757,38.4305],[99.6912,38.4277],[99.7045,38.4267],[99.7135,38.4236],[99.7209,38.4198],[99.7235,38.4149],[99.7239,38.4115],[99.7311,38.409],[99.7401,38.4087],[99.7449,38.4109],[99.757,38.4099],[99.7582,38.4068],[99.7725,38.4057],[99.7788,38.3977],[99.7764,38.3911],[99.7861,38.3876],[99.7966,38.387],[99.8067,38.3782],[99.8084,38.373],[99.8152,38.3668],[99.8199,38.3679],[99.8289,38.3666],[99.8344,38.3672],[99.8423,38.36],[99.8607,38.3581],[99.8709,38.3536],[99.8817,38.3519],[99.8868,38.3466],[99.8989,38.3471],[99.9013,38.3433],[99.9091,38.3438],[99.9139,38.3371],[99.9215,38.3352],[99.9291,38.3355],[99.9387,38.341],[99.9427,38.3408],[99.9443,38.3314],[99.9557,38.3184],[99.9579,38.315],[99.965,38.3176],[99.9767,38.3161],[99.9882,38.3135],[100.0064,38.3125],[100.0084,38.3083],[100.0151,38.3054],[100.0166,38.3027],[100.0155,38.2989],[100.0285,38.2961],[100.0352,38.2885],[100.0468,38.2851],[100.0569,38.2805],[100.0648,38.2839],[100.073,38.2846],[100.0821,38.2805],[100.0917,38.2726],[100.0947,38.2633],[100.0971,38.2612],[100.1073,38.2551],[100.1192,38.2533],[100.1178,38.2464],[100.1262,38.2321],[100.1519,38.2215],[100.159,38.2103],[100.1632,38.2083],[100.1693,38.2083],[100.176,38.2108],[100.179,38.2142],[100.181,38.2231],[100.183,38.2247],[100.1835,38.2287],[100.1807,38.2342],[100.1814,38.2384],[100.1803,38.2414],[100.1807,38.2463],[100.1742,38.2538],[100.1754,38.2582],[100.1714,38.2607],[100.1655,38.2677],[100.1666,38.2811],[100.1644,38.2831],[100.1635,38.2871],[100.1599,38.2893],[100.1593,38.2926],[100.1623,38.296],[100.1634,38.2994],[100.1597,38.3033],[100.1558,38.3101],[100.159,38.3139],[100.1652,38.3167],[100.1673,38.3205],[100.164,38.3229],[100.1628,38.3272],[100.1455,38.3312],[100.1397,38.332],[100.1309,38.3367],[100.129,38.3392],[100.1253,38.3409],[100.1236,38.3437],[100.1172,38.3424],[100.1164,38.3438],[100.1221,38.3471],[100.1206,38.3488],[100.114,38.3497],[100.1129,38.3527],[100.1194,38.3547],[100.1177,38.3593],[100.1158,38.3604],[100.1159,38.364],[100.1095,38.3704],[100.1084,38.3755],[100.1095,38.3771],[100.1038,38.3839],[100.0995,38.386],[100.0923,38.3959],[100.0929,38.4009],[100.0907,38.4071],[100.0806,38.405],[100.0764,38.4097],[100.0751,38.4139],[100.0702,38.4138],[100.067,38.4182],[100.0603,38.4202],[100.0568,38.4155],[100.0524,38.4196],[100.047,38.4208],[100.0475,38.4235],[100.0455,38.4273],[100.0458,38.4304],[100.0399,38.4301],[100.0394,38.4274],[100.0352,38.4276],[100.0341,38.4307],[100.029,38.4318],[100.0247,38.4305],[100.0204,38.4331],[100.0218,38.4386],[100.0291,38.4434],[100.0249,38.4449],[100.0264,38.4483],[100.0248,38.4506],[100.0151,38.4492],[100.0162,38.4539],[100.0096,38.4568],[100.008,38.4599],[99.9998,38.4668],[100.0231,38.4979],[100.0231,38.5076],[100.0275,38.5102],[100.0339,38.5093],[100.0485,38.5127],[100.0577,38.5186],[100.062,38.519],[100.0701,38.5034],[100.0766,38.5009],[100.0874,38.4933],[100.1117,38.4961],[100.1236,38.4861],[100.1502,38.4782],[100.1619,38.459],[100.2115,38.4549],[100.2186,38.4472],[100.2289,38.4467],[100.2387,38.4408],[100.2397,38.439],[100.2397,38.4327],[100.2452,38.4222],[100.2462,38.3735],[100.2577,38.3671],[100.2696,38.3793],[100.2817,38.3768],[100.2957,38.3897],[100.3016,38.3832],[100.3279,38.3504],[100.3264,38.3452],[100.3316,38.3399],[100.3158,38.3281],[100.3312,38.3194],[100.3583,38.3083],[100.3742,38.3079],[100.38,38.3066],[100.3791,38.2982],[100.3944,38.2936],[100.422,38.3055],[100.4387,38.2937],[100.4296,38.2716],[100.4352,38.2693],[100.4403,38.2704],[100.4608,38.2657],[100.4661,38.2719],[100.4669,38.281],[100.4734,38.2869],[100.4804,38.2848],[100.4844,38.2807],[100.492,38.2792],[100.4956,38.2737],[100.5083,38.2731],[100.5114,38.279],[100.5139,38.2816],[100.5175,38.2882],[100.5162,38.2938],[100.5183,38.2959],[100.5165,38.3025],[100.5206,38.3066],[100.5265,38.3059],[100.5297,38.3085],[100.5342,38.309],[100.5473,38.3148],[100.5485,38.3212],[100.5471,38.3245],[100.5494,38.3308],[100.5596,38.3442],[100.5649,38.3472],[100.5679,38.3477],[100.5696,38.3507],[100.5823,38.3523],[100.5885,38.3522],[100.5931,38.3639],[100.5931,38.3672],[100.5955,38.368],[100.6,38.3724],[100.6023,38.3767],[100.6041,38.3771],[100.6071,38.382],[100.6119,38.3845],[100.6153,38.3877],[100.614,38.3911],[100.616,38.3945],[100.6133,38.4013],[100.6186,38.4079],[100.6168,38.4102],[100.6154,38.4169],[100.6116,38.4247],[100.6089,38.4275],[100.6055,38.4287],[100.6035,38.4331],[100.5994,38.4355],[100.5952,38.4357],[100.5911,38.4382],[100.585,38.4384],[100.5867,38.441],[100.583,38.4444],[100.579,38.4417],[100.5769,38.4381],[100.5723,38.443],[100.5709,38.4474],[100.5718,38.4532],[100.57,38.455],[100.564,38.4566],[100.5606,38.4597],[100.5557,38.4625],[100.5538,38.4665],[100.5489,38.4702],[100.5465,38.4685],[100.5398,38.4717],[100.5345,38.47],[100.5309,38.4657],[100.5279,38.4655],[100.5228,38.4624],[100.5188,38.4642],[100.5126,38.4638],[100.5055,38.4605],[100.4994,38.4597],[100.498,38.4571],[100.4937,38.4575],[100.4942,38.4616],[100.4967,38.4646],[100.4896,38.4651],[100.4878,38.4674],[100.4873,38.475],[100.4842,38.479],[100.4853,38.484],[100.4844,38.4866],[100.4792,38.491],[100.471,38.4933],[100.4681,38.4881],[100.4617,38.4896],[100.4603,38.4974],[100.4543,38.4932],[100.4505,38.498],[100.4455,38.4999],[100.4403,38.4998],[100.4436,38.5049],[100.4417,38.5077],[100.4423,38.5139],[100.4412,38.5164],[100.4437,38.5198],[100.4462,38.5205],[100.4513,38.5265],[100.4443,38.5269],[100.4375,38.5169],[100.4298,38.5179],[100.4234,38.5132],[100.4227,38.5114],[100.4131,38.5108],[100.4084,38.5089],[100.4022,38.51],[100.3909,38.5167],[100.387,38.5216],[100.3867,38.5287],[100.3884,38.5401],[100.3852,38.5444],[100.3862,38.5509],[100.3829,38.5533],[100.3843,38.5572],[100.3746,38.5592],[100.371,38.5615],[100.3707,38.5654],[100.365,38.5692],[100.3649,38.5725],[100.3594,38.5794],[100.36,38.5847],[100.3654,38.5906],[100.359,38.5937],[100.3564,38.5929],[100.3495,38.5934],[100.3438,38.595],[100.3399,38.5979],[100.3268,38.6022],[100.3206,38.6051],[100.3214,38.6075],[100.3163,38.6099],[100.3174,38.6188],[100.3138,38.6174],[100.312,38.6198],[100.314,38.6248],[100.3026,38.628],[100.3022,38.6322],[100.2972,38.6355],[100.2988,38.6409],[100.2947,38.6465],[100.2997,38.6533],[100.3016,38.6582],[100.2971,38.658],[100.2905,38.6608],[100.2897,38.6681],[100.2762,38.6721],[100.2722,38.6724],[100.2667,38.6747],[100.2596,38.6713],[100.2577,38.6731],[100.2485,38.674],[100.246,38.6727],[100.2431,38.6787],[100.2427,38.6831],[100.2444,38.6854],[100.2442,38.6945],[100.241,38.7007],[100.2372,38.7024],[100.2316,38.7019],[100.2219,38.7035],[100.2163,38.7037],[100.2053,38.7058],[100.195,38.7056],[100.1881,38.7099],[100.1822,38.7113],[100.1763,38.7167],[100.1787,38.7189],[100.1783,38.7241],[100.1762,38.728],[100.1783,38.7329],[100.1785,38.7365],[100.1824,38.7404],[100.1801,38.7426],[100.1816,38.7483],[100.1838,38.7522],[100.1877,38.7559],[100.1855,38.7586],[100.1837,38.7654],[100.1781,38.7742],[100.1771,38.7805],[100.1736,38.7807],[100.1626,38.7839],[100.1613,38.7919],[100.1586,38.802],[100.1518,38.8061],[100.1573,38.808],[100.1628,38.8134],[100.1623,38.8154],[100.1562,38.8231],[100.1561,38.8257],[100.1474,38.8365],[100.1454,38.8416],[100.1425,38.8434],[100.1427,38.8482],[100.1361,38.8534],[100.1347,38.8582],[100.133,38.8595],[100.1264,38.8593],[100.1208,38.864],[100.1207,38.8669],[100.1253,38.8717],[100.1285,38.877],[100.1304,38.894],[100.1338,38.8987],[100.136,38.9057],[100.1363,38.9107],[100.1387,38.9176],[100.144,38.9241],[100.1433,38.9279],[100.1359,38.9329],[100.1294,38.9341],[100.1154,38.9356],[100.1117,38.9412],[100.1084,38.9444],[100.1103,38.9464],[100.1095,38.9513],[100.1107,38.9565],[100.11,38.963],[100.1069,38.9688],[100.1071,38.9742],[100.0973,38.9825]]]]},"properties":{"region_code":"CN-62-6207-620721","parent_region_code":"CN-62-6207","name":"肃南裕固族自治县","level":"county","has_children":false,"full_path":"中国 / 甘肃省 / 张掖市 / 肃南裕固族自治县","source_admin_code":"620721","osm_relation_id":165824}},
{"type":"Feature","geometry":{"type":"Polygon","coordinates":[[[100.3852,38.5444],[100.3884,38.5401],[100.3867,38.5287],[100.387,38.5216],[100.3909,38.5167],[100.4022,38.51],[100.4084,38.5089],[100.4131,38.5108],[100.4227,38.5114],[100.4234,38.5132],[100.4298,38.5179],[100.4375,38.5169],[100.4443,38.5269],[100.4513,38.5265],[100.4462,38.5205],[100.4437,38.5198],[100.4412,38.5164],[100.4423,38.5139],[100.4417,38.5077],[100.4436,38.5049],[100.4403,38.4998],[100.4455,38.4999],[100.4505,38.498],[100.4543,38.4932],[100.4603,38.4974],[100.4617,38.4896],[100.4681,38.4881],[100.471,38.4933],[100.4792,38.491],[100.4844,38.4866],[100.4853,38.484],[100.4842,38.479],[100.4873,38.475],[100.4878,38.4674],[100.4896,38.4651],[100.4967,38.4646],[100.4942,38.4616],[100.4937,38.4575],[100.498,38.4571],[100.4994,38.4597],[100.5055,38.4605],[100.5126,38.4638],[100.5188,38.4642],[100.5228,38.4624],[100.5279,38.4655],[100.5309,38.4657],[100.5345,38.47],[100.5398,38.4717],[100.5465,38.4685],[100.5489,38.4702],[100.5538,38.4665],[100.5557,38.4625],[100.5606,38.4597],[100.564,38.4566],[100.57,38.455],[100.5718,38.4532],[100.5709,38.4474],[100.5723,38.443],[100.5769,38.4381],[100.579,38.4417],[100.583,38.4444],[100.5867,38.441],[100.585,38.4384],[100.5911,38.4382],[100.5952,38.4357],[100.5994,38.4355],[100.6035,38.4331],[100.6055,38.4287],[100.6089,38.4275],[100.6116,38.4247],[100.6154,38.4169],[100.6168,38.4102],[100.6186,38.4079],[100.6133,38.4013],[100.616,38.3945],[100.614,38.3911],[100.6153,38.3877],[100.6119,38.3845],[100.6071,38.382],[100.6041,38.3771],[100.6023,38.3767],[100.6,38.3724],[100.5955,38.368],[100.5931,38.3672],[100.5931,38.3639],[100.5885,38.3522],[100.5823,38.3523],[100.5696,38.3507],[100.5679,38.3477],[100.5649,38.3472],[100.5596,38.3442],[100.5494,38.3308],[100.5471,38.3245],[100.5485,38.3212],[100.5473,38.3148],[100.5342,38.309],[100.5297,38.3085],[100.5265,38.3059],[100.5206,38.3066],[100.5165,38.3025],[100.5183,38.2959],[100.5162,38.2938],[100.5175,38.2882],[100.5139,38.2816],[100.5114,38.279],[100.5083,38.2731],[100.5115,38.2747],[100.5173,38.2744],[100.5192,38.2732],[100.5195,38.2678],[100.5241,38.2641],[100.5288,38.2636],[100.5343,38.2572],[100.5399,38.254],[100.543,38.2465],[100.546,38.2457],[100.5507,38.25],[100.5546,38.2481],[100.5604,38.2475],[100.5649,38.2503],[100.5746,38.2504],[100.5884,38.2439],[100.5941,38.2429],[100.599,38.2493],[100.5983,38.2554],[100.6037,38.2561],[100.6088,38.2602],[100.6171,38.264],[100.6202,38.2664],[100.6261,38.2667],[100.6298,38.2731],[100.6349,38.2786],[100.6349,38.2831],[100.6373,38.2888],[100.6397,38.2903],[100.6405,38.2967],[100.6421,38.2991],[100.6412,38.3024],[100.6436,38.3062],[100.6483,38.3045],[100.6544,38.3065],[100.656,38.3113],[100.6588,38.3135],[100.6646,38.3144],[100.668,38.3191],[100.6649,38.321],[100.6668,38.3261],[100.6644,38.331],[100.6715,38.3421],[100.6737,38.3487],[100.6726,38.3531],[100.6739,38.3563],[100.6776,38.3609],[100.6768,38.3674],[100.6806,38.3697],[100.6838,38.3737],[100.6869,38.3756],[100.6847,38.3782],[100.6888,38.3853],[100.6943,38.3895],[100.6965,38.3943],[100.7025,38.3976],[100.7045,38.4019],[100.714,38.4037],[100.7219,38.3956],[100.7247,38.4036],[100.7275,38.4033],[100.7355,38.3949],[100.7336,38.3927],[100.7364,38.3894],[100.7364,38.3865],[100.7336,38.3835],[100.7273,38.3807],[100.73,38.3766],[100.7346,38.3755],[100.7395,38.3769],[100.7414,38.3725],[100.7455,38.3686],[100.7423,38.3625],[100.7531,38.3571],[100.757,38.3615],[100.7577,38.3646],[100.7629,38.3633],[100.7642,38.3648],[100.7709,38.3664],[100.7721,38.3705],[100.7774,38.3712],[100.7804,38.3633],[100.7872,38.3549],[100.7903,38.3586],[100.7931,38.3599],[100.8029,38.3604],[100.8081,38.366],[100.8121,38.3668],[100.8136,38.3691],[100.8175,38.3705],[100.8201,38.3666],[100.8232,38.3542],[100.8203,38.3486],[100.8245,38.3445],[100.8279,38.3362],[100.8284,38.3311],[100.8308,38.328],[100.8284,38.317],[100.8293,38.3125],[100.8266,38.3034],[100.8266,38.2997],[100.8224,38.2965],[100.8241,38.294],[100.8157,38.286],[100.8103,38.2851],[100.808,38.283],[100.8018,38.2804],[100.794,38.2793],[100.791,38.2772],[100.7889,38.2737],[100.7896,38.2708],[100.7868,38.2675],[100.7818,38.2671],[100.78,38.2641],[100.776,38.2618],[100.7666,38.2609],[100.7619,38.2589],[100.7569,38.2631],[100.7545,38.2678],[100.7519,38.269],[100.7469,38.2741],[100.7374,38.2673],[100.7319,38.264],[100.7259,38.263],[100.7233,38.2598],[100.7171,38.2581],[100.7119,38.2532],[100.717,38.2513],[100.7262,38.2459],[100.7323,38.2444],[100.7387,38.2376],[100.7458,38.2403],[100.7498,38.2394],[100.7552,38.2355],[100.7718,38.2186],[100.7779,38.2113],[100.7776,38.2061],[100.7792,38.2039],[100.7844,38.2029],[100.7858,38.201],[100.7854,38.197],[100.7868,38.1931],[100.7993,38.1848],[100.8035,38.1842],[100.8057,38.1822],[100.8117,38.1712],[100.8161,38.1671],[100.8186,38.1615],[100.822,38.1589],[100.8296,38.1561],[100.8313,38.154],[100.8403,38.1503],[100.8429,38.1477],[100.8481,38.1482],[100.8563,38.147],[100.859,38.1474],[100.8634,38.1527],[100.869,38.1571],[100.8797,38.1615],[100.8827,38.1659],[100.8902,38.1679],[100.8935,38.1743],[100.8998,38.1794],[100.9102,38.1781],[100.9169,38.1735],[100.917,38.1863],[100.9182,38.1945],[100.9214,38.2075],[100.9277,38.213],[100.9442,38.2164],[100.951,38.2199],[100.9545,38.2323],[100.9595,38.2555],[100.9664,38.2908],[100.9735,38.2926],[100.9955,38.2932],[101.0065,38.294],[101.0113,38.2977],[101.0053,38.3102],[101.002,38.3111],[100.9974,38.3165],[100.9929,38.3074],[100.989,38.3082],[100.9934,38.3144],[100.9906,38.3156],[100.9877,38.3132],[100.9857,38.3087],[100.9816,38.3099],[100.9831,38.3138],[100.9811,38.3174],[100.9833,38.3238],[100.9879,38.326],[100.9874,38.3286],[100.9911,38.3312],[100.9922,38.3337],[100.9976,38.3385],[100.9987,38.3458],[100.9916,38.3529],[100.984,38.3541],[100.978,38.3627],[100.9761,38.3666],[100.9732,38.368],[100.9715,38.3715],[100.9651,38.3736],[100.9657,38.3766],[100.9601,38.3838],[100.9666,38.3868],[100.9651,38.3937],[100.971,38.3998],[100.9759,38.3993],[100.9793,38.4039],[100.9808,38.4145],[100.9824,38.4197],[100.9827,38.4252],[100.9861,38.4238],[100.9873,38.4204],[100.9875,38.4146],[100.9901,38.4119],[101.0002,38.4118],[101.0037,38.4226],[101.0016,38.4277],[101.0075,38.4273],[101.0081,38.43],[101.0029,38.4337],[101.0055,38.4396],[101.008,38.4422],[101.0049,38.4464],[101.0068,38.4483],[101.004,38.4507],[101.0067,38.4536],[101.0031,38.4568],[101.0032,38.4603],[101.0012,38.4625],[101.002,38.466],[100.9999,38.4711],[100.9969,38.4738],[100.9972,38.4775],[100.9943,38.4797],[100.9993,38.4824],[101.0026,38.4867],[100.997,38.4915],[100.9935,38.5034],[100.9976,38.5119],[100.9981,38.5227],[100.9933,38.5304],[100.9937,38.5329],[100.9903,38.5366],[100.9886,38.542],[100.9837,38.5478],[100.9779,38.5529],[100.9725,38.5555],[100.9711,38.5602],[100.9682,38.5642],[100.966,38.5643],[100.9661,38.5686],[100.9695,38.5721],[100.9678,38.5762],[100.9692,38.5786],[100.9661,38.5847],[100.9679,38.5864],[100.969,38.5918],[100.968,38.5941],[100.9635,38.5971],[100.9639,38.6003],[100.9612,38.6112],[100.9619,38.6147],[100.9587,38.6164],[100.9605,38.6197],[100.9608,38.6246],[100.9629,38.6251],[100.9626,38.6302],[100.9572,38.6329],[100.9584,38.6361],[100.959,38.6442],[100.962,38.6474],[100.9591,38.6497],[100.9605,38.6535],[100.9575,38.6567],[100.9589,38.6588],[100.9496,38.6698],[100.9509,38.6738],[100.9487,38.6767],[100.9516,38.6804],[100.9516,38.6878],[100.9503,38.6905],[100.9552,38.6959],[100.9601,38.6984],[100.9671,38.7045],[100.9628,38.7064],[100.9558,38.7143],[100.9543,38.7178],[100.9484,38.722],[100.9474,38.7264],[100.9449,38.7303],[100.9402,38.7318],[100.9377,38.7411],[100.9344,38.7472],[100.9318,38.7492],[100.9305,38.753],[100.9247,38.7593],[100.9153,38.7555],[100.9,38.7545],[100.89,38.755],[100.8844,38.7526],[100.8815,38.7539],[100.8772,38.7529],[100.8725,38.7557],[100.8672,38.7532],[100.8617,38.755],[100.8603,38.7567],[100.8241,38.7635],[100.7963,38.769],[100.7593,38.7668],[100.7518,38.7726],[100.7482,38.7772],[100.7168,38.7957],[100.688,38.8044],[100.6904,38.7937],[100.633,38.7624],[100.6294,38.7571],[100.6202,38.7485],[100.6129,38.7409],[100.6097,38.7387],[100.6072,38.7336],[100.6046,38.7332],[100.6009,38.7379],[100.5972,38.7355],[100.5854,38.7358],[100.5711,38.7352],[100.5669,38.7358],[100.5276,38.7337],[100.5249,38.7318],[100.5251,38.7277],[100.5218,38.7076],[100.5163,38.7007],[100.512,38.6971],[100.5024,38.6912],[100.4995,38.6901],[100.4998,38.6837],[100.5032,38.6713],[100.5131,38.6688],[100.514,38.6678],[100.507,38.6573],[100.5081,38.6562],[100.5145,38.661],[100.5178,38.6594],[100.5157,38.6529],[100.5163,38.6485],[100.5115,38.6347],[100.5081,38.6309],[100.5035,38.6301],[100.5011,38.6254],[100.4952,38.6177],[100.4704,38.6027],[100.4614,38.5931],[100.4608,38.5891],[100.4555,38.5836],[100.4509,38.5809],[100.4433,38.5787],[100.4334,38.5721],[100.4245,38.5689],[100.4165,38.5629],[100.412,38.5607],[100.4069,38.5559],[100.4034,38.5537],[100.3954,38.5514],[100.3909,38.5475],[100.3852,38.5444]]]},"properties":{"region_code":"CN-62-6207-620722","parent_region_code":"CN-62-6207","name":"民乐县","level":"county","has_children":false,"full_path":"中国 / 甘肃省 / 张掖市 / 民乐县","source_admin_code":"620722","osm_relation_id":2706356}},
{"type":"Feature","geometry":{"type":"Polygon","coordinates":[[[100.4968,39.3998],[100.4969,39.4178],[100.4978,39.48],[100.4976,39.4803],[100.4456,39.4846],[100.4345,39.4864],[100.3236,39.5083],[100.2981,39.5718],[100.3081,39.5998],[100.3108,39.6081],[100.2602,39.6661],[100.2568,39.6695],[100.2449,39.684],[100.1893,39.6927],[100.1143,39.7048],[100.1123,39.6803],[100.1073,39.6789],[100.1006,39.6751],[100.0993,39.6731],[100.0946,39.6714],[100.0874,39.6716],[100.0725,39.6647],[100.0647,39.6582],[100.0601,39.6562],[100.0555,39.6556],[100.0491,39.652],[100.0452,39.6521],[100.0345,39.6492],[100.0272,39.6455],[100.0224,39.6463],[100.0173,39.6444],[100.0096,39.6435],[100.0019,39.6376],[100.0033,39.6297],[99.9955,39.6223],[99.9903,39.6193],[99.9814,39.6106],[99.976,39.6066],[99.9677,39.5938],[99.9499,39.5758],[99.9486,39.569],[99.9505,39.5617],[99.9575,39.5492],[99.954,39.5054],[99.9415,39.4099],[99.9413,39.3753],[99.9374,39.367],[99.9391,39.3647],[99.9531,39.3612],[99.9608,39.3616],[99.9608,39.3548],[99.9549,39.3556],[99.9465,39.355],[99.9394,39.3527],[99.9361,39.3532],[99.9268,39.3505],[99.9209,39.347],[99.9245,39.3454],[99.9298,39.3453],[99.9329,39.3328],[99.9397,39.3204],[99.9506,39.3137],[99.9619,39.3041],[99.967,39.3017],[99.9517,39.2978],[99.9435,39.293],[99.9249,39.2915],[99.9272,39.2673],[99.9329,39.2632],[99.9432,39.253],[99.9295,39.2393],[99.9247,39.2326],[99.9188,39.2263],[99.9124,39.2321],[99.9094,39.2313],[99.9093,39.2266],[99.9023,39.2164],[99.8788,39.1922],[99.8565,39.1691],[99.8624,39.1648],[99.8672,39.1647],[99.8718,39.1632],[99.877,39.1661],[99.8832,39.1642],[99.8865,39.1617],[99.8824,39.1563],[99.8855,39.1544],[99.8938,39.1546],[99.8957,39.1518],[99.8946,39.1496],[99.9014,39.1456],[99.9042,39.1458],[99.9091,39.1426],[99.91,39.1405],[99.9148,39.1374],[99.917,39.1326],[99.9225,39.1266],[99.9265,39.12],[99.9355,39.1191],[99.9427,39.1139],[99.9431,39.1104],[99.9526,39.1116],[99.954,39.1092],[99.9616,39.1057],[99.9657,39.099],[99.973,39.096],[99.9736,39.0922],[99.9795,39.0913],[99.9833,39.0895],[99.9878,39.0894],[99.995,39.0834],[99.995,39.0785],[99.9889,39.0729],[99.9951,39.0699],[99.9944,39.0642],[99.9965,39.0636],[99.9995,39.0596],[100.0027,39.0583],[100.0057,39.0607],[100.0164,39.0633],[100.0215,39.0628],[100.0251,39.061],[100.0288,39.0516],[100.0338,39.0472],[100.0339,39.0449],[100.0394,39.0406],[100.0382,39.0352],[100.0311,39.0315],[100.0268,39.0306],[100.0236,39.0278],[100.0293,39.0234],[100.0318,39.0199],[100.0312,39.0169],[100.0257,39.0152],[100.0224,39.0127],[100.0131,39.0122],[100.0091,39.011],[100.0099,39.0069],[100.0079,39.0048],[100.0104,39.0002],[100.0012,38.9977],[100.0023,38.9956],[99.9989,38.9936],[100.0009,38.9887],[100.0075,38.9858],[99.997,38.9763],[99.9967,38.9735],[99.9902,38.9665],[99.995,38.9634],[100.0074,38.9593],[100.0165,38.967],[100.0223,38.9673],[100.0287,38.9644],[100.0294,38.9616],[100.0382,38.9574],[100.0435,38.9614],[100.054,38.9653],[100.0592,38.9622],[100.0691,38.9606],[100.0878,38.9638],[100.0915,38.9671],[100.0962,38.9744],[100.0973,38.9825],[100.0978,38.9843],[100.1049,38.988],[100.1065,38.9914],[100.1453,38.9918],[100.2159,38.9929],[100.2214,38.9938],[100.2269,38.9959],[100.2249,38.9988],[100.2266,39.0084],[100.2286,39.0114],[100.2274,39.0206],[100.2247,39.026],[100.2199,39.028],[100.2239,39.0351],[100.2135,39.0623],[100.211,39.0646],[100.2029,39.062],[100.2036,39.0679],[100.1992,39.0734],[100.1919,39.0849],[100.1962,39.0871],[100.1957,39.0962],[100.197,39.1004],[100.1885,39.1051],[100.1816,39.1071],[100.1836,39.1131],[100.1867,39.1171],[100.1882,39.126],[100.1908,39.1294],[100.1919,39.1332],[100.1903,39.1372],[100.1922,39.1425],[100.1985,39.146],[100.2023,39.1466],[100.208,39.1528],[100.2102,39.1571],[100.2144,39.1587],[100.2151,39.1619],[100.2195,39.1644],[100.2219,39.1679],[100.2239,39.1735],[100.2211,39.1764],[100.2221,39.1783],[100.2204,39.1832],[100.2218,39.1879],[100.2176,39.1937],[100.2187,39.1969],[100.2168,39.2022],[100.2195,39.2044],[100.2209,39.2124],[100.2663,39.2101],[100.2719,39.2032],[100.2755,39.1972],[100.2754,39.1928],[100.2782,39.1874],[100.2829,39.1808],[100.2976,39.1785],[100.3057,39.1768],[100.3087,39.1744],[100.3102,39.1708],[100.3216,39.1619],[100.3276,39.1589],[100.3461,39.158],[100.3483,39.1559],[100.357,39.1555],[100.365,39.1524],[100.3751,39.1501],[100.3769,39.1467],[100.3813,39.1453],[100.3859,39.1458],[100.3903,39.1438],[100.3926,39.1403],[100.3995,39.1341],[100.3987,39.1319],[100.4008,39.1264],[100.4097,39.126],[100.4244,39.1362],[100.4273,39.1393],[100.4306,39.1407],[100.4347,39.1466],[100.4418,39.1492],[100.44,39.1544],[100.4441,39.1585],[100.4439,39.162],[100.439,39.1702],[100.4389,39.178],[100.4354,39.1824],[100.4394,39.1848],[100.4513,39.1882],[100.4538,39.1944],[100.4506,39.1997],[100.4604,39.2056],[100.4592,39.2083],[100.4622,39.2102],[100.4599,39.2175],[100.4637,39.2186],[100.4658,39.2227],[100.464,39.2248],[100.4699,39.2277],[100.4761,39.2325],[100.4767,39.2368],[100.4827,39.2424],[100.4841,39.2466],[100.4893,39.2568],[100.4926,39.2648],[100.493,39.2719],[100.4955,39.2775],[100.4947,39.284],[100.4955,39.2917],[100.4975,39.3013],[100.5019,39.3161],[100.5016,39.3337],[100.5001,39.344],[100.4998,39.3507],[100.4965,39.3973],[100.4968,39.3998]]]},"properties":{"region_code":"CN-62-6207-620723","parent_region_code":"CN-62-6207","name":"临泽县","level":"county","has_children":false,"full_path":"中国 / 甘肃省 / 张掖市 / 临泽县","source_admin_code":"620723","osm_relation_id":2706355}},
{"type":"Feature","geometry":{"type":"Polygon","coordinates":[[[99.2369,39.4593],[99.3036,39.3515],[99.2982,39.3309],[99.2882,39.291],[99.1949,39.2844],[99.1931,39.2787],[99.1956,39.273],[99.2003,39.2685],[99.2007,39.2616],[99.2033,39.256],[99.209,39.2515],[99.2095,39.2479],[99.2086,39.2415],[99.2094,39.2368],[99.2085,39.2342],[99.2116,39.2289],[99.2096,39.2272],[99.2112,39.223],[99.2098,39.219],[99.2104,39.2157],[99.2051,39.2083],[99.2034,39.2046],[99.1998,39.2014],[99.1968,39.1961],[99.188,39.1892],[99.1835,39.1805],[99.1787,39.1756],[99.1738,39.1725],[99.1722,39.1697],[99.1771,39.167],[99.1799,39.1635],[99.1844,39.1604],[99.1858,39.157],[99.1905,39.154],[99.2101,39.1585],[99.2407,39.1566],[99.2631,39.145],[99.2742,39.1153],[99.2775,39.1124],[99.2844,39.1093],[99.2935,39.1011],[99.3065,39.0964],[99.3204,39.0899],[99.3225,39.0867],[99.3284,39.0858],[99.3309,39.0808],[99.3299,39.0735],[99.3328,39.0717],[99.338,39.0738],[99.3655,39.0728],[99.3719,39.0763],[99.3938,39.0763],[99.4228,39.0864],[99.4311,39.0833],[99.4199,39.0998],[99.4245,39.1138],[99.4606,39.1127],[99.4812,39.0969],[99.4852,39.1099],[99.5053,39.1272],[99.5164,39.1418],[99.5326,39.1709],[99.544,39.1615],[99.5497,39.2509],[99.575,39.2563],[99.594,39.2532],[99.602,39.2498],[99.6376,39.2452],[99.6418,39.2417],[99.6795,39.2361],[99.6838,39.2399],[99.6881,39.2414],[99.6957,39.2407],[99.6995,39.243],[99.7056,39.2429],[99.7081,39.2419],[99.7123,39.2427],[99.7146,39.2404],[99.7152,39.2354],[99.7228,39.2353],[99.7242,39.2322],[99.7279,39.2294],[99.7415,39.2235],[99.7463,39.2175],[99.7565,39.2147],[99.7602,39.2105],[99.7672,39.2053],[99.7715,39.1972],[99.7803,39.1914],[99.7863,39.1944],[99.7907,39.1948],[99.7933,39.1933],[99.7997,39.1937],[99.807,39.189],[99.8096,39.1902],[99.8134,39.1876],[99.8209,39.1877],[99.8262,39.1854],[99.8337,39.1787],[99.8377,39.1738],[99.8432,39.1743],[99.8521,39.1727],[99.8565,39.1691],[99.8788,39.1922],[99.9023,39.2164],[99.9093,39.2266],[99.9094,39.2313],[99.9124,39.2321],[99.9188,39.2263],[99.9247,39.2326],[99.9295,39.2393],[99.9432,39.253],[99.9329,39.2632],[99.9272,39.2673],[99.9249,39.2915],[99.9435,39.293],[99.9517,39.2978],[99.967,39.3017],[99.9619,39.3041],[99.9506,39.3137],[99.9397,39.3204],[99.9329,39.3328],[99.9298,39.3453],[99.9245,39.3454],[99.9209,39.347],[99.9268,39.3505],[99.9361,39.3532],[99.9394,39.3527],[99.9465,39.355],[99.9549,39.3556],[99.9608,39.3548],[99.9608,39.3616],[99.9531,39.3612],[99.9391,39.3647],[99.9374,39.367],[99.9413,39.3753],[99.9415,39.4099],[99.954,39.5054],[99.9575,39.5492],[99.9505,39.5617],[99.9486,39.569],[99.9499,39.5758],[99.9677,39.5938],[99.976,39.6066],[99.9814,39.6106],[99.9903,39.6193],[99.9955,39.6223],[100.0033,39.6297],[100.0019,39.6376],[100.0096,39.6435],[100.0173,39.6444],[100.0224,39.6463],[100.0272,39.6455],[100.0345,39.6492],[100.0452,39.6521],[100.0491,39.652],[100.0555,39.6556],[100.0601,39.6562],[100.0647,39.6582],[100.0725,39.6647],[100.0874,39.6716],[100.0946,39.6714],[100.0993,39.6731],[100.1006,39.6751],[100.1073,39.6789],[100.1123,39.6803],[100.1143,39.7048],[100.0349,39.7554],[100.0002,39.7609],[99.9646,39.7669],[99.9037,39.7874],[99.8913,39.7981],[99.8687,39.8184],[99.8422,39.8426],[99.8202,39.8622],[99.8114,39.865],[99.7995,39.8653],[99.7709,39.8685],[99.7582,39.8707],[99.7389,39.8749],[99.7241,39.8758],[99.7084,39.8794],[99.6862,39.8868],[99.6734,39.8885],[99.6575,39.8884],[99.65,39.8875],[99.6134,39.8852],[99.5661,39.8821],[99.452,39.8747],[99.4505,39.8793],[99.4484,39.8812],[99.4395,39.8841],[99.4328,39.8832],[99.4301,39.8815],[99.4232,39.8826],[99.4165,39.8806],[99.406,39.8818],[99.3989,39.88],[99.3899,39.8801],[99.3739,39.8692],[99.3666,39.8654],[99.3474,39.8562],[99.3225,39.8458],[99.2656,39.8375],[99.2461,39.833],[99.2458,39.8363],[99.2424,39.843],[99.2369,39.8496],[99.2286,39.8511],[99.2274,39.8458],[99.2215,39.8442],[99.2197,39.8387],[99.2142,39.8364],[99.2075,39.8301],[99.1947,39.8047],[99.1854,39.8065],[99.1406,39.7957],[99.1129,39.8359],[99.1086,39.8361],[99.1028,39.8414],[99.0921,39.8397],[99.0866,39.8394],[99.0817,39.837],[99.0796,39.8405],[99.0705,39.8457],[99.0692,39.8501],[99.0533,39.8502],[99.0467,39.853],[99.0391,39.8525],[99.0344,39.8539],[99.0298,39.8538],[99.0271,39.855],[98.9839,39.8302],[98.9801,39.8234],[98.961,39.7916],[98.9584,39.7793],[99.0339,39.7389],[99.0655,39.7217],[99.1333,39.7124],[99.1565,39.7114],[99.1994,39.6714],[99.3326,39.6281],[99.3674,39.6381],[99.3755,39.6622],[99.4284,39.6475],[99.4576,39.6502],[99.4977,39.6462],[99.5203,39.6087],[99.5539,39.5146],[99.5659,39.4536],[99.5663,39.3965],[99.4917,39.3899],[99.4227,39.347],[99.3926,39.3565],[99.3502,39.3845],[99.2369,39.4593]]]},"properties":{"region_code":"CN-62-6207-620724","parent_region_code":"CN-62-6207","name":"高台县","level":"county","has_children":false,"full_path":"中国 / 甘肃省 / 张掖市 / 高台县","source_admin_code":"620724","osm_relation_id":2706354}},
{"type":"Feature","geometry":{"type":"Polygon","coordinates":[[[100.688,38.8044],[100.7168,38.7957],[100.7482,38.7772],[100.7518,38.7726],[100.7593,38.7668],[100.7963,38.769],[100.8241,38.7635],[100.8603,38.7567],[100.8617,38.755],[100.8672,38.7532],[100.8725,38.7557],[100.8772,38.7529],[100.8815,38.7539],[100.8844,38.7526],[100.89,38.755],[100.9,38.7545],[100.9153,38.7555],[100.9247,38.7593],[100.9305,38.753],[100.9318,38.7492],[100.9344,38.7472],[100.9377,38.7411],[100.9402,38.7318],[100.9449,38.7303],[100.9474,38.7264],[100.9484,38.722],[100.9543,38.7178],[100.9558,38.7143],[100.9628,38.7064],[100.9671,38.7045],[100.9601,38.6984],[100.9552,38.6959],[100.9503,38.6905],[100.9516,38.6878],[100.9516,38.6804],[100.9487,38.6767],[100.9509,38.6738],[100.9496,38.6698],[100.9589,38.6588],[100.9575,38.6567],[100.9605,38.6535],[100.9591,38.6497],[100.962,38.6474],[100.959,38.6442],[100.9584,38.6361],[100.9572,38.6329],[100.9626,38.6302],[100.9629,38.6251],[100.9608,38.6246],[100.9605,38.6197],[100.9587,38.6164],[100.9619,38.6147],[100.9612,38.6112],[100.9639,38.6003],[100.9635,38.5971],[100.968,38.5941],[100.969,38.5918],[100.9679,38.5864],[100.9661,38.5847],[100.9692,38.5786],[100.9678,38.5762],[100.9695,38.5721],[100.9661,38.5686],[100.966,38.5643],[100.9682,38.5642],[100.9711,38.5602],[100.9725,38.5555],[100.9779,38.5529],[100.9837,38.5478],[100.9886,38.542],[100.9903,38.5366],[100.9937,38.5329],[100.9933,38.5304],[100.9981,38.5227],[100.9976,38.5119],[100.9935,38.5034],[100.997,38.4915],[101.0026,38.4867],[100.9993,38.4824],[100.9943,38.4797],[100.9972,38.4775],[100.9969,38.4738],[100.9999,38.4711],[101.002,38.466],[101.0012,38.4625],[101.0032,38.4603],[101.0031,38.4568],[101.0067,38.4536],[101.004,38.4507],[101.0068,38.4483],[101.0049,38.4464],[101.008,38.4422],[101.0055,38.4396],[101.0029,38.4337],[101.0081,38.43],[101.0075,38.4273],[101.0016,38.4277],[101.0037,38.4226],[101.0002,38.4118],[100.9901,38.4119],[100.9875,38.4146],[100.9873,38.4204],[100.9861,38.4238],[100.9827,38.4252],[100.9824,38.4197],[100.9808,38.4145],[100.9793,38.4039],[100.9759,38.3993],[100.971,38.3998],[100.9651,38.3937],[100.9666,38.3868],[100.9601,38.3838],[100.9657,38.3766],[100.9651,38.3736],[100.9715,38.3715],[100.9732,38.368],[100.9761,38.3666],[100.978,38.3627],[100.984,38.3541],[100.9916,38.3529],[100.9987,38.3458],[100.9976,38.3385],[100.9922,38.3337],[100.9911,38.3312],[100.9874,38.3286],[100.9879,38.326],[100.9833,38.3238],[100.9811,38.3174],[100.9831,38.3138],[100.9816,38.3099],[100.9857,38.3087],[100.9877,38.3132],[100.9906,38.3156],[100.9934,38.3144],[100.989,38.3082],[100.9929,38.3074],[100.9974,38.3165],[101.002,38.3111],[101.0053,38.3102],[101.0113,38.2977],[101.0065,38.294],[100.9955,38.2932],[100.9735,38.2926],[100.9664,38.2908],[100.9595,38.2555],[100.9545,38.2323],[100.951,38.2199],[100.9442,38.2164],[100.9277,38.213],[100.9214,38.2075],[100.9182,38.1945],[100.917,38.1863],[100.9169,38.1735],[100.9277,38.1686],[100.9323,38.1634],[100.937,38.1601],[100.9312,38.1527],[100.9275,38.1515],[100.9227,38.1481],[100.9224,38.1396],[100.9211,38.1384],[100.9205,38.1322],[100.9181,38.1285],[100.9165,38.1159],[100.9194,38.1044],[100.9227,38.0946],[100.9229,38.0904],[100.9215,38.085],[100.9176,38.083],[100.9137,38.0829],[100.908,38.0773],[100.9068,38.0727],[100.9017,38.0691],[100.897,38.0639],[100.8925,38.0631],[100.8861,38.0548],[100.8869,38.0465],[100.8889,38.0425],[100.8903,38.0364],[100.8962,38.0295],[100.8963,38.0245],[100.8945,38.0171],[100.8961,38.0125],[100.899,38.0096],[100.9165,37.9992],[100.92,38.0003],[100.9251,38.0062],[100.935,38.0068],[100.9417,38.0023],[100.9443,38.0046],[100.9555,38.0076],[100.9587,38.0114],[100.9647,38.0098],[100.9662,38.0079],[100.9713,38.0064],[100.9762,38.0074],[100.9793,38.0026],[100.9831,37.9992],[100.9906,37.9985],[100.9941,37.9902],[100.9967,37.9879],[101.0036,37.9854],[101.0079,37.9818],[101.0108,37.9811],[101.0187,37.9757],[101.0257,37.9737],[101.0318,37.9762],[101.0354,37.9748],[101.0399,37.9659],[101.0483,37.9622],[101.0515,37.9625],[101.0578,37.9589],[101.0587,37.9549],[101.0634,37.9518],[101.0641,37.949],[101.0687,37.947],[101.0709,37.9438],[101.075,37.9415],[101.0817,37.9419],[101.0874,37.9393],[101.0909,37.9398],[101.0933,37.944],[101.101,37.9465],[101.1093,37.9366],[101.1117,37.9308],[101.1129,37.9228],[101.112,37.92],[101.1177,37.9148],[101.1238,37.9159],[101.131,37.911],[101.1323,37.9061],[101.1372,37.9029],[101.1396,37.8995],[101.1433,37.899],[101.1482,37.8956],[101.1504,37.8925],[101.1504,37.8812],[101.148,37.8764],[101.1563,37.874],[101.1578,37.8673],[101.1654,37.8692],[101.1699,37.866],[101.171,37.86],[101.1752,37.8608],[101.1816,37.8596],[101.1832,37.856],[101.1912,37.8551],[101.1965,37.8485],[101.2014,37.8467],[101.2071,37.8469],[101.2184,37.8456],[101.2243,37.8415],[101.2331,37.8437],[101.24,37.8416],[101.2471,37.837],[101.2506,37.8359],[101.2557,37.8325],[101.2627,37.8321],[101.2666,37.8344],[101.2742,37.8364],[101.2795,37.8349],[101.2811,37.833],[101.281,37.8284],[101.2899,37.8242],[101.3003,37.8247],[101.3024,37.8219],[101.3031,37.8166],[101.3091,37.8147],[101.3102,37.8098],[101.3162,37.8111],[101.3245,37.8077],[101.3282,37.8044],[101.337,37.8034],[101.3405,37.7991],[101.3461,37.7993],[101.3476,37.7956],[101.3539,37.7897],[101.361,37.7914],[101.3625,37.7946],[101.3659,37.7971],[101.374,37.7994],[101.375,37.8021],[101.3724,37.805],[101.3752,37.8124],[101.3776,37.8155],[101.3762,37.8173],[101.3778,37.8213],[101.3825,37.8232],[101.3873,37.8276],[101.3934,37.8281],[101.401,37.8309],[101.4012,37.8375],[101.4086,37.8447],[101.4181,37.8468],[101.4351,37.8606],[101.4344,37.8635],[101.4369,37.8674],[101.4424,37.8674],[101.3872,37.8998],[101.3665,37.9159],[101.3736,37.93],[101.3731,37.9367],[101.3715,37.9433],[101.3705,37.9511],[101.3672,37.9616],[101.3538,37.9795],[101.3534,37.9876],[101.3566,37.9933],[101.3615,37.997],[101.3713,38.0002],[101.3736,38.0023],[101.3854,38.0088],[101.3944,38.0127],[101.3963,38.0147],[101.405,38.0181],[101.4117,38.0175],[101.4142,38.0216],[101.4201,38.0229],[101.4272,38.0234],[101.4303,38.0298],[101.4401,38.0307],[101.4449,38.0341],[101.4502,38.0339],[101.4528,38.0366],[101.4654,38.0386],[101.4709,38.0411],[101.4797,38.0421],[101.481,38.0439],[101.4782,38.0498],[101.4816,38.053],[101.4916,38.0538],[101.4977,38.0594],[101.4981,38.0634],[101.4954,38.0653],[101.4953,38.0681],[101.4934,38.0724],[101.4875,38.0768],[101.4827,38.0783],[101.4795,38.0845],[101.4725,38.0826],[101.4651,38.0844],[101.4595,38.0869],[101.4596,38.09],[101.4548,38.0965],[101.4472,38.1027],[101.4476,38.1133],[101.4418,38.1138],[101.4387,38.1153],[101.4331,38.1142],[101.4249,38.1175],[101.4152,38.1182],[101.4088,38.1231],[101.4046,38.1251],[101.406,38.1299],[101.4041,38.1318],[101.4041,38.1376],[101.4092,38.1446],[101.4077,38.1484],[101.4105,38.1517],[101.4091,38.153],[101.414,38.1591],[101.4201,38.1622],[101.4224,38.1648],[101.4259,38.1649],[101.4349,38.1737],[101.442,38.1799],[101.4569,38.1916],[101.461,38.1964],[101.4649,38.1991],[101.4702,38.2112],[101.4743,38.2185],[101.4825,38.2276],[101.4841,38.2311],[101.4829,38.2332],[101.4737,38.239],[101.465,38.2427],[101.459,38.2525],[101.4448,38.2604],[101.4286,38.2666],[101.4159,38.2729],[101.413,38.2757],[101.4133,38.2833],[101.4028,38.2832],[101.396,38.2852],[101.395,38.2911],[101.3946,38.3034],[101.3899,38.3135],[101.3896,38.3193],[101.3426,38.3202],[101.3424,38.324],[101.339,38.3329],[101.3386,38.3414],[101.3394,38.3455],[101.3382,38.36],[101.3324,38.3668],[101.3346,38.3682],[101.3409,38.3692],[101.355,38.3636],[101.3576,38.367],[101.3622,38.3693],[101.3686,38.3702],[101.366,38.3749],[101.3655,38.3786],[101.3628,38.3838],[101.3668,38.3844],[101.3689,38.3886],[101.3765,38.3871],[101.3878,38.3898],[101.3915,38.3881],[101.409,38.3927],[101.4113,38.3989],[101.4169,38.399],[101.4199,38.3954],[101.4276,38.395],[101.4377,38.3894],[101.4435,38.3893],[101.4502,38.3874],[101.4513,38.3932],[101.4602,38.3937],[101.4668,38.3931],[101.4728,38.3981],[101.4746,38.4041],[101.4782,38.4071],[101.4845,38.417],[101.5145,38.4376],[101.5263,38.4566],[101.5283,38.4626],[101.523,38.4659],[101.5143,38.4636],[101.5111,38.4654],[101.5028,38.4659],[101.5057,38.4687],[101.5022,38.4758],[101.5034,38.4808],[101.5012,38.4823],[101.5022,38.4855],[101.4999,38.4873],[101.5007,38.4934],[101.5048,38.4971],[101.5125,38.497],[101.5177,38.4916],[101.5244,38.4899],[101.5259,38.4919],[101.5343,38.4913],[101.5411,38.4928],[101.5453,38.4923],[101.5494,38.4954],[101.5462,38.5033],[101.5466,38.512],[101.5412,38.5223],[101.5416,38.5261],[101.5369,38.5324],[101.5319,38.5413],[101.5185,38.5555],[101.5377,38.5618],[101.567,38.5784],[101.5613,38.6115],[101.5766,38.6272],[101.5972,38.6473],[101.6035,38.6485],[101.5867,38.6691],[101.5657,38.7012],[101.5578,38.7129],[101.5016,38.7294],[101.4901,38.7336],[101.4855,38.7361],[101.4814,38.7355],[101.4787,38.7368],[101.4748,38.7363],[101.4653,38.7409],[101.4596,38.746],[101.451,38.7481],[101.4463,38.7509],[101.4404,38.751],[101.4394,38.754],[101.4273,38.759],[101.422,38.7591],[101.4165,38.7628],[101.4072,38.7624],[101.4048,38.7668],[101.3965,38.7704],[101.3948,38.7723],[101.3866,38.7713],[101.3794,38.7682],[101.3682,38.7723],[101.3577,38.7718],[101.3446,38.7747],[101.3403,38.7778],[101.337,38.7784],[101.3266,38.7763],[101.3221,38.7785],[101.3191,38.7817],[101.3153,38.7825],[101.3061,38.7873],[101.3056,38.7929],[101.3041,38.7949],[101.3037,38.801],[101.3139,38.8033],[101.3206,38.8038],[101.3273,38.8073],[101.333,38.8084],[101.3316,38.8127],[101.3348,38.8181],[101.3376,38.8196],[101.3402,38.825],[101.3374,38.8277],[101.3376,38.8343],[101.3348,38.8376],[101.3333,38.8434],[101.331,38.8475],[101.3015,38.8497],[101.2774,38.8488],[101.2583,38.8587],[101.2362,38.8584],[101.2338,38.8887],[101.2346,38.8937],[101.2324,38.901],[101.2329,38.9067],[101.2126,38.9288],[101.1953,38.947],[101.2176,38.9993],[101.226,39.0208],[101.1797,39.0003],[101.17,38.9957],[101.1338,38.9794],[101.1275,38.9773],[101.116,38.9746],[100.9737,38.9459],[100.9615,38.9437],[100.9627,38.9463],[100.9688,38.9666],[100.9642,39.0003],[100.9578,39.0057],[100.9304,39.017],[100.9001,39.0301],[100.8898,39.0119],[100.8833,38.9999],[100.8805,38.9957],[100.8449,39.0179],[100.8457,39.0089],[100.8435,39.0038],[100.8475,38.9975],[100.8488,38.992],[100.846,38.9901],[100.8467,38.9864],[100.8424,38.9847],[100.8351,38.9861],[100.8298,38.9786],[100.8277,38.9725],[100.8228,38.9703],[100.8219,38.9682],[100.8129,38.9653],[100.8125,38.9615],[100.808,38.9599],[100.7993,38.9514],[100.793,38.942],[100.7892,38.938],[100.7829,38.933],[100.7733,38.927],[100.7687,38.9191],[100.7656,38.917],[100.7512,38.9039],[100.7385,38.8945],[100.7307,38.8897],[100.7201,38.8799],[100.7173,38.8735],[100.7358,38.866],[100.7223,38.8413],[100.7171,38.8342],[100.7125,38.8298],[100.7079,38.8229],[100.7001,38.8139],[100.688,38.8044]]]},"properties":{"region_code":"CN-62-6207-620725","parent_region_code":"CN-62-6207","name":"山丹县","level":"county","has_children":false,"full_path":"中国 / 甘肃省 / 张掖市 / 山丹县","source_admin_code":"620725","osm_relation_id":2706357}}
]}