{"type":"FeatureCollection", "features": [
{"type":"Feature","geometry":{"type":"Polygon","coordinates":[[[105.4439,37.7001],[105.3774,37.7118],[105.3623,37.7156],[105.2631,37.6868],[105.2367,37.6727],[105.1986,37.6705],[105.1666,37.6626],[105.0908,37.6172],[105.0207,37.5797],[104.9236,37.5715],[104.9016,37.5669],[104.8635,37.5666],[104.8312,37.5557],[104.8021,37.5388],[104.7303,37.5328],[104.618,37.5223],[104.5562,37.5195],[104.4307,37.5154],[104.4172,37.5112],[104.4063,37.481],[104.4044,37.4644],[104.3894,37.4605],[104.3697,37.4618],[104.3547,37.4499],[104.338,37.444],[104.3194,37.4483],[104.3008,37.442],[104.2857,37.4311],[104.2843,37.4209],[104.2945,37.4136],[104.3443,37.42],[104.3619,37.4176],[104.3839,37.4265],[104.4019,37.4378],[104.4331,37.4458],[104.443,37.4345],[104.446,37.4233],[104.4568,37.4194],[104.4929,37.4199],[104.5117,37.428],[104.5177,37.4345],[104.5341,37.4292],[104.5423,37.423],[104.5839,37.4246],[104.6186,37.4161],[104.6347,37.4197],[104.659,37.411],[104.6705,37.4106],[104.6629,37.3783],[104.6572,37.3723],[104.6647,37.3559],[104.6979,37.3446],[104.7146,37.3501],[104.7111,37.3294],[104.7004,37.3299],[104.6847,37.3187],[104.6751,37.3191],[104.663,37.3102],[104.6618,37.299],[104.6472,37.2901],[104.6297,37.2985],[104.6171,37.2905],[104.6217,37.2784],[104.6091,37.2779],[104.5982,37.258],[104.5969,37.2446],[104.6065,37.2271],[104.6353,37.2015],[104.6423,37.2045],[104.6812,37.2028],[104.7154,37.2095],[104.7452,37.2292],[104.7465,37.2344],[104.7635,37.2393],[104.7736,37.2461],[104.7828,37.2408],[104.7902,37.2287],[104.8065,37.2309],[104.824,37.2276],[104.8289,37.2224],[104.855,37.2112],[104.8548,37.1838],[104.8617,37.1723],[104.8852,37.1585],[104.8904,37.1444],[104.8967,37.14],[104.8957,37.1273],[104.9083,37.1221],[104.9178,37.1098],[104.9133,37.0946],[104.9287,37.0862],[104.9512,37.0781],[104.9513,37.0396],[104.9625,37.0312],[105.0012,37.0351],[105.0102,37.0316],[105.0076,37.0167],[105.0357,37.0063],[105.0459,37.0196],[105.0544,37.0225],[105.0657,37.0157],[105.0866,37.0092],[105.1073,36.9997],[105.1253,36.9959],[105.1616,36.9946],[105.1653,36.967],[105.174,36.959],[105.1758,36.9469],[105.1823,36.9414],[105.1739,36.929],[105.1803,36.9014],[105.1881,36.8917],[105.2029,36.8976],[105.2242,36.8871],[105.2366,36.8966],[105.2716,36.8701],[105.2759,36.8517],[105.2938,36.8435],[105.2886,36.8351],[105.3018,36.8187],[105.3303,36.8016],[105.3315,36.7841],[105.3376,36.7645],[105.3294,36.7622],[105.3269,36.752],[105.3189,36.7447],[105.3065,36.7409],[105.2892,36.7496],[105.2714,36.7518],[105.2692,36.7412],[105.2352,36.741],[105.2359,36.7332],[105.2126,36.7291],[105.1991,36.7051],[105.2151,36.7051],[105.2429,36.6932],[105.2546,36.6945],[105.2751,36.6836],[105.2856,36.6902],[105.304,36.7106],[105.3124,36.7071],[105.312,36.6967],[105.3214,36.6806],[105.3438,36.6779],[105.3491,36.6657],[105.3587,36.6682],[105.3663,36.6856],[105.402,36.7053],[105.3967,36.7179],[105.4059,36.7246],[105.4338,36.7109],[105.4493,36.71],[105.4541,36.7285],[105.4717,36.7341],[105.4943,36.751],[105.5083,36.7653],[105.5153,36.7549],[105.5384,36.7506],[105.5487,36.7583],[105.5637,36.7599],[105.553,36.7795],[105.5665,36.7925],[105.587,36.7872],[105.5971,36.7787],[105.6054,36.7818],[105.6148,36.7726],[105.6368,36.7902],[105.6544,36.7899],[105.6683,36.7934],[105.6744,36.8119],[105.6882,36.8194],[105.6774,36.8301],[105.667,36.8284],[105.6509,36.8449],[105.6263,36.8335],[105.599,36.8371],[105.5872,36.8596],[105.5608,36.8699],[105.551,36.8707],[105.5378,36.8895],[105.5343,36.8992],[105.5006,36.896],[105.4965,36.8854],[105.4785,36.8808],[105.4693,36.8869],[105.4518,36.8825],[105.4484,36.8877],[105.4315,36.8927],[105.4215,36.9045],[105.4125,36.8906],[105.3968,36.8872],[105.3831,36.8796],[105.369,36.8787],[105.3631,36.8913],[105.3517,36.9021],[105.3669,36.9233],[105.3775,36.9452],[105.3781,36.9626],[105.3662,36.9589],[105.3568,36.9719],[105.323,36.9858],[105.3079,37.0235],[105.3,37.0277],[105.2867,37.0193],[105.2732,37.0554],[105.2841,37.0632],[105.3079,37.0864],[105.3119,37.1028],[105.3271,37.1002],[105.349,37.1002],[105.3715,37.1165],[105.3967,37.1208],[105.4212,37.1113],[105.4515,37.1161],[105.4641,37.1319],[105.4692,37.143],[105.4856,37.1474],[105.494,37.1716],[105.5133,37.1931],[105.5256,37.2249],[105.542,37.2352],[105.5479,37.2497],[105.5739,37.2901],[105.568,37.2984],[105.5696,37.3165],[105.5796,37.3216],[105.5849,37.3386],[105.5665,37.3543],[105.5548,37.3686],[105.543,37.3734],[105.5277,37.3877],[105.4961,37.397],[105.4941,37.4367],[105.5191,37.4369],[105.5189,37.4532],[105.5293,37.4516],[105.5399,37.4706],[105.5321,37.479],[105.5367,37.487],[105.5486,37.4924],[105.5349,37.5005],[105.5211,37.4961],[105.5007,37.5017],[105.4956,37.4955],[105.4815,37.4977],[105.4619,37.4959],[105.4547,37.4993],[105.4542,37.5324],[105.4441,37.5539],[105.4657,37.5756],[105.4647,37.5943],[105.4597,37.6055],[105.4644,37.6226],[105.4577,37.6391],[105.4647,37.6587],[105.4634,37.6708],[105.4556,37.6795],[105.4377,37.6873],[105.4439,37.7001]]]},"properties":{"region_code":"CN-64-6405-640502","parent_region_code":"CN-64-6405","name":"沙坡头区","level":"county","has_children":false,"full_path":"中国 / 宁夏回族自治区 / 中卫市 / 沙坡头区","source_admin_code":"640502","osm_relation_id":2793620}},
{"type":"Feature","geometry":{"type":"Polygon","coordinates":[[[105.6774,36.8301],[105.6736,36.8339],[105.6927,36.8462],[105.6861,36.8627],[105.6947,36.865],[105.7085,36.8355],[105.7195,36.8347],[105.7334,36.8239],[105.7327,36.8615],[105.7432,36.8654],[105.7413,36.8819],[105.7512,36.8938],[105.7514,36.9094],[105.7793,36.9232],[105.7815,36.9298],[105.8042,36.9411],[105.8262,36.9586],[105.8286,36.9755],[105.8423,36.9818],[105.8005,37.0296],[105.7863,37.0711],[105.7746,37.085],[105.7462,37.0847],[105.7402,37.0872],[105.7086,37.1151],[105.6897,37.1223],[105.6785,37.1303],[105.6649,37.1511],[105.6683,37.1623],[105.6644,37.191],[105.6326,37.1884],[105.612,37.1979],[105.5782,37.1963],[105.5557,37.2158],[105.5777,37.2214],[105.606,37.2206],[105.6413,37.2544],[105.6438,37.2605],[105.6579,37.2687],[105.6702,37.2701],[105.6795,37.2575],[105.6878,37.236],[105.6805,37.2284],[105.6838,37.208],[105.6999,37.1991],[105.7082,37.1851],[105.7698,37.1903],[105.7796,37.198],[105.7714,37.2062],[105.7649,37.2364],[105.7533,37.2428],[105.7403,37.2783],[105.7296,37.2895],[105.7723,37.3018],[105.7966,37.3176],[105.9208,37.3067],[105.9446,37.3273],[105.9403,37.3353],[105.927,37.3434],[105.9068,37.3481],[105.8852,37.3589],[105.8706,37.3595],[105.8509,37.3717],[105.8401,37.3817],[105.8439,37.3968],[105.8694,37.3917],[105.8817,37.3966],[105.8729,37.4147],[105.8795,37.4248],[105.9095,37.4322],[105.9204,37.4252],[105.9337,37.4312],[105.9329,37.4458],[105.98,37.4502],[105.9726,37.4607],[105.9609,37.4686],[105.9799,37.4786],[105.9897,37.4737],[106.0028,37.4776],[106.0093,37.4847],[106.0117,37.498],[106.0277,37.506],[106.0306,37.5178],[106.0424,37.5167],[106.0634,37.5263],[106.0638,37.5371],[106.052,37.548],[106.0348,37.5502],[106.0263,37.563],[106.0038,37.5861],[106.0033,37.596],[106.0221,37.6122],[106.0178,37.6275],[106.0207,37.6454],[106.0067,37.6466],[106.0018,37.6551],[105.9871,37.654],[105.9763,37.6588],[105.9427,37.6596],[105.9285,37.6632],[105.9261,37.6519],[105.9113,37.635],[105.9002,37.6134],[105.8796,37.618],[105.8899,37.6279],[105.8815,37.644],[105.8775,37.66],[105.8849,37.6786],[105.8837,37.699],[105.8888,37.7158],[105.8986,37.7277],[105.8691,37.74],[105.8564,37.7491],[105.8408,37.7294],[105.8169,37.7354],[105.7809,37.738],[105.7539,37.7271],[105.7121,37.7318],[105.6928,37.726],[105.6796,37.7261],[105.6481,37.7155],[105.645,37.7097],[105.6065,37.7066],[105.5957,37.6989],[105.568,37.7004],[105.4638,37.703],[105.4439,37.7001],[105.4377,37.6873],[105.4556,37.6795],[105.4634,37.6708],[105.4647,37.6587],[105.4577,37.6391],[105.4644,37.6226],[105.4597,37.6055],[105.4647,37.5943],[105.4657,37.5756],[105.4441,37.5539],[105.4542,37.5324],[105.4547,37.4993],[105.4619,37.4959],[105.4815,37.4977],[105.4956,37.4955],[105.5007,37.5017],[105.5211,37.4961],[105.5349,37.5005],[105.5486,37.4924],[105.5367,37.487],[105.5321,37.479],[105.5399,37.4706],[105.5293,37.4516],[105.5189,37.4532],[105.5191,37.4369],[105.4941,37.4367],[105.4961,37.397],[105.5277,37.3877],[105.543,37.3734],[105.5548,37.3686],[105.5665,37.3543],[105.5849,37.3386],[105.5796,37.3216],[105.5696,37.3165],[105.568,37.2984],[105.5739,37.2901],[105.5479,37.2497],[105.542,37.2352],[105.5256,37.2249],[105.5133,37.1931],[105.494,37.1716],[105.4856,37.1474],[105.4692,37.143],[105.4641,37.1319],[105.4515,37.1161],[105.4212,37.1113],[105.3967,37.1208],[105.3715,37.1165],[105.349,37.1002],[105.3271,37.1002],[105.3119,37.1028],[105.3079,37.0864],[105.2841,37.0632],[105.2732,37.0554],[105.2867,37.0193],[105.3,37.0277],[105.3079,37.0235],[105.323,36.9858],[105.3568,36.9719],[105.3662,36.9589],[105.3781,36.9626],[105.3775,36.9452],[105.3669,36.9233],[105.3517,36.9021],[105.3631,36.8913],[105.369,36.8787],[105.3831,36.8796],[105.3968,36.8872],[105.4125,36.8906],[105.4215,36.9045],[105.4315,36.8927],[105.4484,36.8877],[105.4518,36.8825],[105.4693,36.8869],[105.4785,36.8808],[105.4965,36.8854],[105.5006,36.896],[105.5343,36.8992],[105.5378,36.8895],[105.551,36.8707],[105.5608,36.8699],[105.5872,36.8596],[105.599,36.8371],[105.6263,36.8335],[105.6509,36.8449],[105.667,36.8284],[105.6774,36.8301]]]},"properties":{"region_code":"CN-64-6405-640521","parent_region_code":"CN-64-6405","name":"中宁县","level":"county","has_children":false,"full_path":"中国 / 宁夏回族自治区 / 中卫市 / 中宁县","source_admin_code":"640521","osm_relation_id":2793621}},
{"type":"Feature","geometry":{"type":"Polygon","coordinates":[[[105.1991,36.7051],[105.1989,36.6923],[105.2035,36.6806],[105.2243,36.6589],[105.2161,36.6338],[105.2381,36.6257],[105.2461,36.6017],[105.2577,36.6023],[105.2615,36.5892],[105.2693,36.5791],[105.2719,36.5632],[105.2465,36.5513],[105.2564,36.5339],[105.283,36.5262],[105.3011,36.5253],[105.3162,36.5365],[105.3573,36.498],[105.3641,36.4864],[105.3618,36.471],[105.3669,36.4614],[105.3597,36.4447],[105.3663,36.4368],[105.3787,36.441],[105.395,36.4298],[105.3932,36.4068],[105.3978,36.3851],[105.4102,36.3839],[105.4117,36.3706],[105.3967,36.3693],[105.4065,36.3507],[105.4208,36.34],[105.4214,36.3304],[105.4304,36.325],[105.4504,36.3223],[105.4562,36.3075],[105.4717,36.2936],[105.4686,36.275],[105.4551,36.268],[105.4611,36.2507],[105.4535,36.237],[105.4575,36.2216],[105.4655,36.2201],[105.4777,36.2084],[105.4768,36.201],[105.4919,36.1893],[105.5083,36.2068],[105.5145,36.2028],[105.5354,36.2146],[105.5551,36.2166],[105.5654,36.2296],[105.5847,36.2356],[105.5991,36.2308],[105.6032,36.2167],[105.6207,36.2021],[105.6215,36.1953],[105.6352,36.1869],[105.6415,36.176],[105.6546,36.1681],[105.6588,36.1602],[105.6728,36.1577],[105.6872,36.1495],[105.7019,36.1647],[105.7202,36.1749],[105.7402,36.1727],[105.7553,36.1801],[105.7713,36.1698],[105.7707,36.1493],[105.7566,36.141],[105.8081,36.1365],[105.8089,36.1263],[105.8165,36.124],[105.8366,36.1437],[105.8545,36.1537],[105.858,36.1666],[105.8648,36.1685],[105.8736,36.183],[105.8826,36.1824],[105.8762,36.2016],[105.8801,36.2161],[105.8975,36.2199],[105.9327,36.223],[105.9582,36.2146],[105.9657,36.2086],[105.9826,36.2035],[105.9899,36.1929],[105.9996,36.2013],[106.0002,36.2099],[105.992,36.2342],[105.9807,36.2534],[105.9765,36.2695],[105.9632,36.2931],[105.979,36.3128],[105.9941,36.3073],[106.0096,36.3164],[106.0205,36.3284],[106.0417,36.3272],[106.0493,36.3323],[106.07,36.3236],[106.0862,36.3349],[106.0988,36.3153],[106.1156,36.3223],[106.1297,36.3206],[106.1491,36.3303],[106.1689,36.3354],[106.2037,36.3299],[106.2093,36.3463],[106.1935,36.3494],[106.1992,36.3579],[106.2176,36.3707],[106.244,36.3842],[106.2651,36.3809],[106.2757,36.4133],[106.3123,36.41],[106.3104,36.4374],[106.3188,36.4448],[106.3082,36.4528],[106.3104,36.467],[106.3034,36.483],[106.3272,36.4894],[106.3311,36.502],[106.3419,36.4992],[106.3497,36.5128],[106.3643,36.5178],[106.3753,36.5161],[106.3913,36.5063],[106.4096,36.5042],[106.4069,36.5197],[106.4143,36.5276],[106.4021,36.5376],[106.397,36.5471],[106.3706,36.5474],[106.3571,36.5721],[106.3639,36.5775],[106.3853,36.5583],[106.3952,36.5752],[106.4254,36.559],[106.4411,36.5573],[106.4546,36.5666],[106.4484,36.5774],[106.4573,36.5807],[106.4514,36.5955],[106.4427,36.5979],[106.4409,36.6256],[106.4316,36.6316],[106.397,36.6217],[106.3833,36.6249],[106.374,36.6086],[106.3589,36.6101],[106.351,36.6034],[106.3266,36.5949],[106.3075,36.5943],[106.2872,36.6112],[106.2728,36.6054],[106.2707,36.6189],[106.2567,36.6216],[106.2409,36.6095],[106.2086,36.6085],[106.2087,36.5849],[106.1944,36.5911],[106.1634,36.5791],[106.145,36.5857],[106.1476,36.6007],[106.1399,36.6082],[106.1517,36.6133],[106.1503,36.6229],[106.1346,36.6297],[106.1317,36.6419],[106.1116,36.6496],[106.1182,36.6605],[106.1085,36.6687],[106.1038,36.6958],[106.0868,36.7046],[106.0735,36.7204],[106.0731,36.7296],[106.0637,36.7391],[106.0707,36.761],[106.0589,36.7654],[106.0587,36.7745],[106.0296,36.7909],[106.0368,36.8055],[106.0295,36.8159],[106.0308,36.826],[106.006,36.8323],[105.9864,36.8468],[105.9758,36.839],[105.9811,36.8692],[105.9661,36.8838],[105.9692,36.8954],[105.9561,36.9107],[105.9369,36.9235],[105.9267,36.9358],[105.9137,36.9323],[105.9177,36.9231],[105.888,36.9142],[105.8919,36.9012],[105.8906,36.8891],[105.8974,36.8816],[105.8726,36.8371],[105.8647,36.839],[105.8523,36.8334],[105.8502,36.8201],[105.8339,36.8026],[105.822,36.7946],[105.8157,36.8039],[105.8156,36.8181],[105.8001,36.8334],[105.7887,36.8388],[105.7817,36.8331],[105.7564,36.8362],[105.7425,36.8223],[105.7334,36.8239],[105.7195,36.8347],[105.7085,36.8355],[105.6947,36.865],[105.6861,36.8627],[105.6927,36.8462],[105.6736,36.8339],[105.6774,36.8301],[105.6882,36.8194],[105.6744,36.8119],[105.6683,36.7934],[105.6544,36.7899],[105.6368,36.7902],[105.6148,36.7726],[105.6054,36.7818],[105.5971,36.7787],[105.587,36.7872],[105.5665,36.7925],[105.553,36.7795],[105.5637,36.7599],[105.5487,36.7583],[105.5384,36.7506],[105.5153,36.7549],[105.5083,36.7653],[105.4943,36.751],[105.4717,36.7341],[105.4541,36.7285],[105.4493,36.71],[105.4338,36.7109],[105.4059,36.7246],[105.3967,36.7179],[105.402,36.7053],[105.3663,36.6856],[105.3587,36.6682],[105.3491,36.6657],[105.3438,36.6779],[105.3214,36.6806],[105.312,36.6967],[105.3124,36.7071],[105.304,36.7106],[105.2856,36.6902],[105.2751,36.6836],[105.2546,36.6945],[105.2429,36.6932],[105.2151,36.7051],[105.1991,36.7051]]]},"properties":{"region_code":"CN-64-6405-640522","parent_region_code":"CN-64-6405","name":"海原县","level":"county","has_children":false,"full_path":"中国 / 宁夏回族自治区 / 中卫市 / 海原县","source_admin_code":"640522","osm_relation_id":2793619}}
]}