{"type":"FeatureCollection", "features": [
{"type":"Feature","geometry":{"type":"Polygon","coordinates":[[[101.6692,36.2297],[101.7035,36.2501],[101.7142,36.2774],[101.7423,36.3011],[101.7689,36.2888],[101.8172,36.2932],[101.8264,36.325],[101.8517,36.3585],[101.8447,36.3875],[101.852,36.4358],[101.8667,36.4667],[101.8943,36.4906],[101.8898,36.5333],[101.9093,36.549],[101.9106,36.5732],[101.8775,36.6139],[101.8297,36.6504],[101.7997,36.6531],[101.7747,36.6726],[101.7894,36.7057],[101.7784,36.7322],[101.7887,36.7468],[101.8032,36.8233],[101.7985,36.8499],[101.8125,36.9258],[101.8396,36.9447],[101.8468,36.9673],[101.8337,36.9984],[101.8907,37.0837],[101.8792,37.1263],[101.9075,37.1332],[101.9109,37.1509],[101.8791,37.1744],[101.8311,37.1891],[101.7983,37.2183],[101.7624,37.2181],[101.751,37.2394],[101.7167,37.2358],[101.6773,37.2521],[101.6394,37.254],[101.5657,37.2792],[101.5304,37.2975],[101.5325,37.3227],[101.4698,37.3437],[101.4383,37.3388],[101.3971,37.3506],[101.3479,37.3472],[101.2836,37.3819],[101.2486,37.365],[101.113,37.3879],[101.0821,37.3863],[100.9873,37.431],[100.9521,37.4697],[100.8858,37.4325],[100.871,37.349],[100.9115,37.3164],[100.9133,37.2883],[100.9309,37.2578],[100.9642,37.2403],[101.0136,37.2452],[101.0465,37.2195],[101.0762,37.229],[101.1292,37.2052],[101.1742,37.1234],[101.2233,37.1105],[101.2551,37.066],[101.2887,36.9972],[101.2762,36.9645],[101.2856,36.9521],[101.2885,36.9019],[101.2261,36.9152],[101.1762,36.8869],[101.1776,36.869],[101.1418,36.8549],[101.0812,36.8015],[101.0219,36.7828],[100.9634,36.8215],[100.906,36.8001],[100.9209,36.7401],[100.9237,36.7177],[100.9515,36.6551],[100.9883,36.6265],[100.9979,36.5982],[100.9927,36.5646],[101.0279,36.5092],[101.0742,36.4813],[101.0827,36.4415],[101.1115,36.4318],[101.128,36.3926],[101.1835,36.3715],[101.1882,36.3506],[101.2266,36.3224],[101.2478,36.3257],[101.2827,36.3621],[101.3254,36.3811],[101.3457,36.4031],[101.3822,36.3841],[101.436,36.3718],[101.4547,36.3525],[101.5332,36.3269],[101.5763,36.3294],[101.601,36.322],[101.6148,36.2846],[101.6429,36.2665],[101.6692,36.2297]]]},"properties":{"region_code":"CN-63-6301","parent_region_code":"CN-63","name":"西宁市","level":"prefecture","has_children":true,"full_path":"中国 / 青海省 / 西宁市","source_admin_code":"6301","osm_relation_id":2707990}},
{"type":"Feature","geometry":{"type":"Polygon","coordinates":[[[101.6692,36.2297],[101.6617,36.1616],[101.7129,36.1644],[101.7524,36.1504],[101.7803,36.1553],[101.7886,36.1223],[101.8719,36.1131],[101.8973,36.0732],[101.945,36.0592],[101.9505,36.0322],[101.9802,36.0283],[101.9824,36.0084],[102.0354,35.9781],[102.0326,35.955],[102.0769,35.9473],[102.0397,35.9277],[102.0519,35.9084],[102.0859,35.9194],[102.1048,35.9064],[102.1085,35.8734],[102.0754,35.8645],[102.0879,35.8253],[102.0808,35.8023],[102.1219,35.7732],[102.1399,35.7479],[102.131,35.7326],[102.1603,35.6941],[102.2102,35.7087],[102.2297,35.649],[102.266,35.6247],[102.3017,35.6244],[102.3478,35.6093],[102.3522,35.5907],[102.4056,35.5389],[102.4242,35.5371],[102.4207,35.4913],[102.4022,35.4708],[102.4361,35.4557],[102.4636,35.5022],[102.4807,35.5133],[102.5072,35.5694],[102.5297,35.5809],[102.5502,35.5598],[102.5856,35.5424],[102.6935,35.529],[102.7422,35.4953],[102.7771,35.5207],[102.7459,35.529],[102.7435,35.5464],[102.7807,35.5497],[102.7984,35.5748],[102.7636,35.6],[102.7629,35.62],[102.7409,35.6463],[102.7274,35.6861],[102.6987,35.6996],[102.6831,35.7735],[102.7135,35.817],[102.7382,35.8212],[102.7847,35.8626],[102.8602,35.8451],[102.9138,35.8458],[102.9485,35.8375],[102.9537,35.8609],[102.9401,35.928],[102.9477,35.9635],[102.9686,35.9941],[102.9502,36.0234],[102.9679,36.0426],[102.9277,36.05],[102.9058,36.088],[102.9387,36.1054],[102.9437,36.1332],[102.9653,36.1521],[102.9854,36.1888],[103.0183,36.2049],[103.0467,36.1994],[103.0601,36.2195],[103.0286,36.2338],[103.0221,36.2572],[102.9927,36.2633],[102.9698,36.2834],[102.9206,36.2991],[102.8943,36.3325],[102.8435,36.3324],[102.8062,36.4099],[102.7686,36.4728],[102.7913,36.4994],[102.7511,36.5263],[102.7327,36.562],[102.7595,36.5685],[102.7164,36.6024],[102.6274,36.6539],[102.6075,36.6782],[102.5997,36.7102],[102.6122,36.7389],[102.6431,36.7342],[102.6924,36.7753],[102.7018,36.792],[102.6751,36.8084],[102.6386,36.8519],[102.585,36.8705],[102.5596,36.9054],[102.4981,36.9545],[102.4611,36.9571],[102.4653,36.9893],[102.5035,37.0237],[102.4877,37.0773],[102.4047,37.104],[102.3662,37.1043],[102.3384,37.0947],[102.3089,37.1004],[102.2878,37.0809],[102.2593,37.0858],[102.2343,37.0754],[102.1921,37.0764],[102.1617,37.0553],[102.1161,37.061],[102.0417,37.0943],[101.9967,37.1012],[101.9625,37.1274],[101.9109,37.1509],[101.9075,37.1332],[101.8792,37.1263],[101.8907,37.0837],[101.8337,36.9984],[101.8468,36.9673],[101.8396,36.9447],[101.8125,36.9258],[101.7985,36.8499],[101.8032,36.8233],[101.7887,36.7468],[101.7784,36.7322],[101.7894,36.7057],[101.7747,36.6726],[101.7997,36.6531],[101.8297,36.6504],[101.8775,36.6139],[101.9106,36.5732],[101.9093,36.549],[101.8898,36.5333],[101.8943,36.4906],[101.8667,36.4667],[101.852,36.4358],[101.8447,36.3875],[101.8517,36.3585],[101.8264,36.325],[101.8172,36.2932],[101.7689,36.2888],[101.7423,36.3011],[101.7142,36.2774],[101.7035,36.2501],[101.6692,36.2297]]]},"properties":{"region_code":"CN-63-6302","parent_region_code":"CN-63","name":"海东市","level":"prefecture","has_children":true,"full_path":"中国 / 青海省 / 海东市","source_admin_code":"6302","osm_relation_id":2707988}},
{"type":"Feature","geometry":{"type":"Polygon","coordinates":[[[101.9109,37.1509],[101.9625,37.1274],[101.9967,37.1012],[102.0417,37.0943],[102.1161,37.061],[102.1617,37.0553],[102.1921,37.0764],[102.2343,37.0754],[102.2593,37.0858],[102.2878,37.0809],[102.3089,37.1004],[102.3384,37.0947],[102.3662,37.1043],[102.4047,37.104],[102.4877,37.0773],[102.5811,37.104],[102.6212,37.1034],[102.6259,37.1278],[102.5998,37.1738],[102.578,37.1723],[102.5313,37.2171],[102.486,37.2251],[102.4587,37.2462],[102.4486,37.2712],[102.4237,37.2867],[102.4262,37.3077],[102.3662,37.3271],[102.2972,37.3695],[102.2947,37.3917],[102.2692,37.3924],[102.2472,37.4109],[102.1959,37.4197],[102.1766,37.4564],[102.1013,37.4923],[102.1201,37.5153],[102.1288,37.546],[102.0992,37.5741],[102.0716,37.5829],[102.0602,37.6105],[102.0334,37.6281],[102.0452,37.6537],[102.0313,37.6879],[101.9795,37.7272],[101.9446,37.7278],[101.8925,37.7006],[101.8525,37.6643],[101.8142,37.6539],[101.8117,37.6812],[101.7871,37.6967],[101.6573,37.733],[101.6684,37.7539],[101.6389,37.7755],[101.5965,37.8271],[101.5407,37.8386],[101.4984,37.8575],[101.4808,37.853],[101.4369,37.8674],[101.401,37.8309],[101.3778,37.8213],[101.3539,37.7897],[101.2742,37.8364],[101.2014,37.8467],[101.1578,37.8673],[101.1504,37.8925],[101.1093,37.9366],[101.075,37.9415],[101.0578,37.9589],[100.9587,38.0114],[100.9165,37.9992],[100.899,38.0096],[100.8861,38.0548],[100.9227,38.0946],[100.9227,38.1481],[100.9102,38.1781],[100.859,38.1474],[100.8186,38.1615],[100.7552,38.2355],[100.7112,38.2534],[100.6907,38.2476],[100.6202,38.2664],[100.5941,38.2429],[100.5399,38.254],[100.5192,38.2732],[100.4734,38.2869],[100.4608,38.2657],[100.4296,38.2716],[100.4387,38.2937],[100.422,38.3055],[100.3944,38.2936],[100.3158,38.3281],[100.3279,38.3504],[100.2957,38.3897],[100.2817,38.3768],[100.2462,38.3735],[100.2387,38.4408],[100.2115,38.4549],[100.1619,38.459],[100.1502,38.4782],[100.1117,38.4961],[100.0874,38.4933],[100.062,38.519],[100.0231,38.5076],[99.9998,38.4668],[100.0248,38.4506],[100.0204,38.4331],[100.0751,38.4139],[100.1095,38.3771],[100.1253,38.3409],[100.1628,38.3272],[100.1558,38.3101],[100.1835,38.2287],[100.179,38.2142],[100.1262,38.2321],[100.073,38.2846],[100.0569,38.2805],[100.0155,38.2989],[100.0064,38.3125],[99.965,38.3176],[99.8344,38.3672],[99.8152,38.3668],[99.7725,38.4057],[99.7239,38.4115],[99.7045,38.4267],[99.6559,38.4406],[99.6585,38.4653],[99.6288,38.4739],[99.5554,38.5199],[99.5131,38.5675],[99.5129,38.599],[99.4961,38.613],[99.4464,38.6049],[99.4277,38.6466],[99.3736,38.6952],[99.3763,38.7092],[99.2859,38.7676],[99.218,38.7899],[99.1748,38.8303],[99.0604,38.9062],[99.1009,38.9431],[99.0578,38.9759],[99.0133,38.9851],[98.9564,38.9842],[98.9015,39.0107],[98.8735,39.049],[98.8188,39.0658],[98.8117,39.0867],[98.7591,39.0904],[98.7309,39.0574],[98.7039,39.0428],[98.6633,38.9948],[98.6126,38.9798],[98.6239,38.9566],[98.5812,38.928],[98.5402,38.9574],[98.4932,38.9457],[98.43,38.9705],[98.4253,38.9996],[98.4008,39.0228],[98.2629,39.0418],[98.2571,38.9907],[98.2363,38.9416],[98.2511,38.8887],[98.2025,38.8562],[98.1687,38.8413],[98.1509,38.8194],[98.1187,38.8087],[98.0927,38.7859],[98.1376,38.7469],[98.1396,38.7027],[98.1818,38.6671],[98.295,38.6628],[98.3857,38.6074],[98.5384,38.5793],[98.5619,38.5529],[98.6081,38.5267],[98.6952,38.529],[98.7349,38.485],[98.8719,38.4766],[98.9433,38.4464],[98.9647,38.4285],[98.9825,38.3931],[98.9407,38.3881],[98.9085,38.3634],[98.9091,38.3501],[98.9434,38.3333],[98.9092,38.3032],[98.9072,38.2897],[98.953,38.2719],[98.9955,38.2765],[99.0321,38.2554],[99.1275,38.2697],[99.1603,38.2867],[99.184,38.3124],[99.2287,38.3302],[99.2578,38.3095],[99.2471,38.2963],[99.2677,38.27],[99.3454,38.2485],[99.4078,38.2568],[99.4444,38.2491],[99.5,38.2532],[99.5076,38.2179],[99.548,38.2096],[99.585,38.188],[99.593,38.1621],[99.5795,38.1057],[99.6786,38.067],[99.6471,38.0551],[99.602,38.05],[99.5712,38.0328],[99.4994,38.0327],[99.4425,38.0175],[99.412,38.0254],[99.3818,38.0072],[99.3573,37.9696],[99.3924,37.9477],[99.3752,37.9234],[99.4426,37.8938],[99.4721,37.8694],[99.4821,37.8383],[99.514,37.8564],[99.6006,37.8394],[99.6067,37.8277],[99.6616,37.8094],[99.6456,37.7905],[99.6595,37.7313],[99.6899,37.716],[99.6919,37.6738],[99.6346,37.6538],[99.5895,37.6107],[99.5504,37.6056],[99.5384,37.5912],[99.5418,37.5632],[99.4996,37.5437],[99.4622,37.4821],[99.4759,37.4147],[99.4354,37.3966],[99.4048,37.3952],[99.4114,37.3454],[99.4458,37.3088],[99.4257,37.2487],[99.4341,37.2282],[99.4324,37.1793],[99.4528,37.1572],[99.5179,37.1344],[99.6673,37.063],[99.6888,37.044],[99.7367,37.0376],[99.7393,37.0203],[99.7742,37.016],[99.7996,36.9888],[99.821,36.9875],[99.844,36.9639],[99.8815,36.9463],[100.1415,36.8994],[100.272,36.8697],[100.6958,36.7754],[100.72,36.7543],[100.8031,36.7582],[100.8627,36.7809],[100.917,36.7507],[100.9209,36.7401],[100.906,36.8001],[100.9634,36.8215],[101.0219,36.7828],[101.0812,36.8015],[101.1418,36.8549],[101.1776,36.869],[101.1762,36.8869],[101.2261,36.9152],[101.2885,36.9019],[101.2856,36.9521],[101.2762,36.9645],[101.2887,36.9972],[101.2551,37.066],[101.2233,37.1105],[101.1742,37.1234],[101.1292,37.2052],[101.0762,37.229],[101.0465,37.2195],[101.0136,37.2452],[100.9642,37.2403],[100.9309,37.2578],[100.9133,37.2883],[100.9115,37.3164],[100.871,37.349],[100.8858,37.4325],[100.9521,37.4697],[100.9873,37.431],[101.0821,37.3863],[101.113,37.3879],[101.2486,37.365],[101.2836,37.3819],[101.3479,37.3472],[101.3971,37.3506],[101.4383,37.3388],[101.4698,37.3437],[101.5325,37.3227],[101.5304,37.2975],[101.5657,37.2792],[101.6394,37.254],[101.6773,37.2521],[101.7167,37.2358],[101.751,37.2394],[101.7624,37.2181],[101.7983,37.2183],[101.8311,37.1891],[101.8791,37.1744],[101.9109,37.1509]]]},"properties":{"region_code":"CN-63-6322","parent_region_code":"CN-63","name":"海北藏族自治州","level":"prefecture","has_children":true,"full_path":"中国 / 青海省 / 海北藏族自治州","source_admin_code":"6322","osm_relation_id":2707655}},
{"type":"Feature","geometry":{"type":"Polygon","coordinates":[[[101.6617,36.1616],[101.6442,36.1531],[101.6304,36.1078],[101.6447,36.0906],[101.6521,36.025],[101.642,36.002],[101.6781,35.9658],[101.6764,35.9283],[101.7202,35.8914],[101.6623,35.8161],[101.6565,35.7861],[101.6792,35.7582],[101.7421,35.7552],[101.7641,35.7474],[101.7591,35.7233],[101.7723,35.705],[101.7575,35.6632],[101.7251,35.6443],[101.6989,35.6105],[101.6935,35.5826],[101.6757,35.578],[101.6406,35.5139],[101.6006,35.5022],[101.5608,35.5013],[101.5225,35.4702],[101.4915,35.4922],[101.4691,35.4729],[101.441,35.4882],[101.3884,35.4983],[101.3934,35.4546],[101.4533,35.4038],[101.4763,35.3515],[101.4403,35.3366],[101.4241,35.3427],[101.3743,35.3347],[101.3139,35.3656],[101.2879,35.3615],[101.2376,35.371],[101.2205,35.3847],[101.1784,35.3903],[101.1546,35.4036],[101.0408,35.4139],[100.9658,35.4],[100.9367,35.4143],[100.8299,35.4299],[100.8169,35.4116],[100.772,35.423],[100.6917,35.4183],[100.7009,35.3717],[100.7316,35.3427],[100.7915,35.3354],[100.8126,35.3203],[100.8479,35.3259],[100.9154,35.297],[100.8752,35.2516],[100.8262,35.219],[100.7846,35.1842],[100.754,35.1753],[100.695,35.1197],[100.6973,35.0779],[100.7507,35.0403],[100.8136,35.0057],[100.8474,35.0056],[100.8958,34.9951],[100.9265,34.9755],[100.9479,34.9458],[101.0057,34.9179],[101.0241,34.9201],[101.0544,34.8912],[101.0935,34.8931],[101.1291,34.8847],[101.1466,34.8363],[101.1241,34.8051],[101.0865,34.8027],[101.0754,34.7831],[101.1032,34.7446],[101.0891,34.7154],[101.0561,34.7039],[101.0566,34.6686],[101.0306,34.6491],[100.9925,34.6441],[100.9588,34.6638],[100.8928,34.6567],[100.9158,34.6247],[100.9181,34.567],[100.9444,34.5404],[100.9667,34.5337],[100.9772,34.4818],[100.9771,34.4473],[100.9603,34.4226],[100.9485,34.3845],[100.985,34.3758],[101.059,34.3297],[101.1382,34.3283],[101.1686,34.3204],[101.1904,34.339],[101.2338,34.3279],[101.2263,34.2989],[101.2649,34.2942],[101.2687,34.2799],[101.3268,34.2667],[101.3389,34.2502],[101.4419,34.2223],[101.4865,34.2179],[101.4892,34.1977],[101.5379,34.2136],[101.5589,34.1923],[101.5806,34.1977],[101.6034,34.1766],[101.6504,34.1561],[101.6488,34.1264],[101.6828,34.1092],[101.7139,34.1087],[101.7162,34.0845],[101.7464,34.0889],[101.7609,34.125],[101.7852,34.1334],[101.873,34.1317],[101.8925,34.1361],[101.9542,34.1112],[101.965,34.1704],[102.0017,34.1639],[102.0219,34.2155],[102.0637,34.2363],[102.061,34.2859],[102.0694,34.294],[102.1452,34.2732],[102.1594,34.3265],[102.179,34.3601],[102.2192,34.341],[102.2574,34.3575],[102.2209,34.3861],[102.1958,34.4332],[102.1672,34.4596],[102.1701,34.4778],[102.1204,34.5239],[102.0906,34.5373],[102.0006,34.539],[101.9736,34.5494],[101.9548,34.5855],[101.9227,34.6083],[101.9171,34.669],[101.9305,34.6849],[101.9151,34.7233],[101.915,34.7879],[101.9271,34.8049],[101.9301,34.8433],[101.9164,34.8779],[101.9363,34.8893],[102.0179,34.8995],[102.0507,34.8927],[102.06,34.9443],[102.0933,34.9886],[102.1308,35.016],[102.1564,35.012],[102.1722,35.0329],[102.2119,35.0368],[102.2171,35.0598],[102.2494,35.0492],[102.2928,35.0709],[102.3092,35.1288],[102.3375,35.1415],[102.348,35.166],[102.3795,35.1637],[102.4016,35.1792],[102.3783,35.2141],[102.3689,35.2626],[102.337,35.284],[102.3083,35.283],[102.2786,35.3033],[102.3093,35.3142],[102.3155,35.3412],[102.2843,35.3673],[102.2915,35.4253],[102.3129,35.4349],[102.4061,35.4108],[102.4458,35.4376],[102.4361,35.4557],[102.4022,35.4708],[102.4207,35.4913],[102.4242,35.5371],[102.4056,35.5389],[102.3522,35.5907],[102.3478,35.6093],[102.3017,35.6244],[102.266,35.6247],[102.2297,35.649],[102.2102,35.7087],[102.1603,35.6941],[102.131,35.7326],[102.1399,35.7479],[102.1219,35.7732],[102.0808,35.8023],[102.0879,35.8253],[102.0754,35.8645],[102.1085,35.8734],[102.1048,35.9064],[102.0859,35.9194],[102.0519,35.9084],[102.0397,35.9277],[102.0769,35.9473],[102.0326,35.955],[102.0354,35.9781],[101.9824,36.0084],[101.9802,36.0283],[101.9505,36.0322],[101.945,36.0592],[101.8973,36.0732],[101.8719,36.1131],[101.7886,36.1223],[101.7803,36.1553],[101.7524,36.1504],[101.7129,36.1644],[101.6617,36.1616]],[[101.4039,35.2313],[101.4179,35.1875],[101.3972,35.1722],[101.3468,35.1829],[101.3529,35.2086],[101.3401,35.2779],[101.4162,35.2935],[101.4521,35.2856],[101.4871,35.3026],[101.5046,35.3288],[101.5472,35.3146],[101.538,35.2862],[101.5493,35.2592],[101.4914,35.2214],[101.4585,35.2195],[101.4448,35.2559],[101.4227,35.2549],[101.4039,35.2313]]]},"properties":{"region_code":"CN-63-6323","parent_region_code":"CN-63","name":"黄南藏族自治州","level":"prefecture","has_children":true,"full_path":"中国 / 青海省 / 黄南藏族自治州","source_admin_code":"6323","osm_relation_id":2707864}},
{"type":"Feature","geometry":{"type":"MultiPolygon","coordinates":[[[[101.4039,35.2313],[101.4227,35.2549],[101.4448,35.2559],[101.4585,35.2195],[101.4914,35.2214],[101.5493,35.2592],[101.538,35.2862],[101.5472,35.3146],[101.5046,35.3288],[101.4871,35.3026],[101.4521,35.2856],[101.4162,35.2935],[101.3401,35.2779],[101.3529,35.2086],[101.3468,35.1829],[101.3972,35.1722],[101.4179,35.1875],[101.4039,35.2313]]],[[[100.9209,36.7401],[100.917,36.7507],[100.8627,36.7809],[100.8031,36.7582],[100.72,36.7543],[100.6958,36.7754],[100.272,36.8697],[100.1415,36.8994],[99.8815,36.9463],[99.844,36.9639],[99.821,36.9875],[99.7996,36.9888],[99.7742,37.016],[99.7393,37.0203],[99.7367,37.0376],[99.6888,37.044],[99.6673,37.063],[99.5179,37.1344],[99.4528,37.1572],[99.3642,37.1769],[99.3541,37.1339],[99.2842,37.1062],[99.2462,37.0359],[99.2303,36.979],[99.1967,36.9636],[99.151,36.9759],[99.1539,36.956],[99.1947,36.9337],[99.2723,36.9049],[99.295,36.8446],[99.3224,36.8481],[99.4356,36.7648],[99.4269,36.7248],[99.4665,36.6878],[99.1161,36.5522],[99.089,36.5328],[99.0512,36.5269],[98.9977,36.506],[98.9196,36.4899],[98.9273,36.449],[98.9554,36.4214],[98.9926,36.4114],[99.0061,36.3824],[99.0332,36.376],[99.0737,36.3011],[99.0518,36.2812],[99.0535,36.2303],[99.0236,36.2198],[98.9988,36.1898],[98.987,36.1607],[98.9335,36.1507],[98.9678,36.1321],[98.9842,36.1043],[99.0171,36.0804],[99.0106,36.0586],[99.0597,36.0309],[99.084,36.0269],[99.0677,35.9686],[99.0874,35.9559],[99.1166,35.9084],[99.1008,35.8879],[99.1264,35.8598],[99.1272,35.8313],[99.1096,35.8129],[99.1639,35.7869],[99.2093,35.723],[99.2057,35.6789],[99.158,35.6212],[99.1752,35.6044],[99.1977,35.6154],[99.2949,35.5615],[99.3145,35.5463],[99.3308,35.5085],[99.2788,35.4953],[99.2662,35.4706],[99.214,35.4753],[99.2024,35.4557],[99.2357,35.4437],[99.2775,35.442],[99.3132,35.4075],[99.2982,35.3763],[99.2556,35.3652],[99.2091,35.3279],[99.1796,35.2962],[99.1827,35.266],[99.227,35.2359],[99.2292,35.2199],[99.2627,35.2121],[99.3295,35.1357],[99.347,35.1015],[99.3689,35.0998],[99.3768,35.0727],[99.4083,35.0475],[99.4327,35.0157],[99.4819,34.9679],[99.5193,34.9554],[99.5526,34.9609],[99.612,34.9313],[99.6498,34.9405],[99.6645,34.9116],[99.7238,34.8891],[99.735,34.8648],[99.7939,34.8527],[99.8193,34.83],[99.849,34.8303],[99.8748,34.8438],[99.9262,34.8195],[99.9788,34.8053],[100.0402,34.8154],[100.0724,34.83],[100.0967,34.8764],[100.1293,34.8874],[100.1565,34.881],[100.1791,34.8931],[100.2103,34.8862],[100.2515,34.8919],[100.2972,34.9106],[100.3219,34.8647],[100.32,34.8417],[100.3596,34.8187],[100.4595,34.8094],[100.5043,34.7873],[100.5633,34.732],[100.5896,34.7302],[100.598,34.7058],[100.6406,34.7335],[100.684,34.6916],[100.6938,34.6735],[100.7451,34.6781],[100.7699,34.6692],[100.7949,34.6921],[100.8476,34.7161],[100.8694,34.7187],[100.8928,34.6567],[100.9588,34.6638],[100.9925,34.6441],[101.0306,34.6491],[101.0566,34.6686],[101.0561,34.7039],[101.0891,34.7154],[101.1032,34.7446],[101.0754,34.7831],[101.0865,34.8027],[101.1241,34.8051],[101.1466,34.8363],[101.1291,34.8847],[101.0935,34.8931],[101.0544,34.8912],[101.0241,34.9201],[101.0057,34.9179],[100.9479,34.9458],[100.9265,34.9755],[100.8958,34.9951],[100.8474,35.0056],[100.8136,35.0057],[100.7507,35.0403],[100.6973,35.0779],[100.695,35.1197],[100.754,35.1753],[100.7846,35.1842],[100.8262,35.219],[100.8752,35.2516],[100.9154,35.297],[100.8479,35.3259],[100.8126,35.3203],[100.7915,35.3354],[100.7316,35.3427],[100.7009,35.3717],[100.6917,35.4183],[100.772,35.423],[100.8169,35.4116],[100.8299,35.4299],[100.9367,35.4143],[100.9658,35.4],[101.0408,35.4139],[101.1546,35.4036],[101.1784,35.3903],[101.2205,35.3847],[101.2376,35.371],[101.2879,35.3615],[101.3139,35.3656],[101.3743,35.3347],[101.4241,35.3427],[101.4403,35.3366],[101.4763,35.3515],[101.4533,35.4038],[101.3934,35.4546],[101.3884,35.4983],[101.441,35.4882],[101.4691,35.4729],[101.4915,35.4922],[101.5225,35.4702],[101.5608,35.5013],[101.6006,35.5022],[101.6406,35.5139],[101.6757,35.578],[101.6935,35.5826],[101.6989,35.6105],[101.7251,35.6443],[101.7575,35.6632],[101.7723,35.705],[101.7591,35.7233],[101.7641,35.7474],[101.7421,35.7552],[101.6792,35.7582],[101.6565,35.7861],[101.6623,35.8161],[101.7202,35.8914],[101.6764,35.9283],[101.6781,35.9658],[101.642,36.002],[101.6521,36.025],[101.6447,36.0906],[101.6304,36.1078],[101.6442,36.1531],[101.6617,36.1616],[101.6692,36.2297],[101.6429,36.2665],[101.6148,36.2846],[101.601,36.322],[101.5763,36.3294],[101.5332,36.3269],[101.4547,36.3525],[101.436,36.3718],[101.3822,36.3841],[101.3457,36.4031],[101.3254,36.3811],[101.2827,36.3621],[101.2478,36.3257],[101.2266,36.3224],[101.1882,36.3506],[101.1835,36.3715],[101.128,36.3926],[101.1115,36.4318],[101.0827,36.4415],[101.0742,36.4813],[101.0279,36.5092],[100.9927,36.5646],[100.9979,36.5982],[100.9883,36.6265],[100.9515,36.6551],[100.9237,36.7177],[100.9209,36.7401]]]]},"properties":{"region_code":"CN-63-6325","parent_region_code":"CN-63","name":"海南藏族自治州","level":"prefecture","has_children":true,"full_path":"中国 / 青海省 / 海南藏族自治州","source_admin_code":"6325","osm_relation_id":2707863}},
{"type":"Feature","geometry":{"type":"Polygon","coordinates":[[[100.8928,34.6567],[100.8694,34.7187],[100.8476,34.7161],[100.7949,34.6921],[100.7699,34.6692],[100.7451,34.6781],[100.6938,34.6735],[100.684,34.6916],[100.6406,34.7335],[100.598,34.7058],[100.5896,34.7302],[100.5633,34.732],[100.5043,34.7873],[100.4595,34.8094],[100.3596,34.8187],[100.32,34.8417],[100.3219,34.8647],[100.2972,34.9106],[100.2515,34.8919],[100.2103,34.8862],[100.1791,34.8931],[100.1565,34.881],[100.1293,34.8874],[100.0967,34.8764],[100.0724,34.83],[100.0402,34.8154],[99.9788,34.8053],[99.9262,34.8195],[99.8748,34.8438],[99.849,34.8303],[99.8193,34.83],[99.7939,34.8527],[99.735,34.8648],[99.7238,34.8891],[99.6645,34.9116],[99.6498,34.9405],[99.612,34.9313],[99.5526,34.9609],[99.5193,34.9554],[99.4819,34.9679],[99.4327,35.0157],[99.4083,35.0475],[99.3768,35.0727],[99.3689,35.0998],[99.347,35.1015],[99.3295,35.1357],[99.2627,35.2121],[99.2292,35.2199],[99.227,35.2359],[99.1827,35.266],[99.1796,35.2962],[99.2091,35.3279],[99.2556,35.3652],[99.2982,35.3763],[99.3132,35.4075],[99.2775,35.442],[99.2357,35.4437],[99.2024,35.4557],[99.214,35.4753],[99.2662,35.4706],[99.2788,35.4953],[99.3308,35.5085],[99.3145,35.5463],[99.2949,35.5615],[99.1977,35.6154],[99.1752,35.6044],[99.158,35.6212],[99.1253,35.6177],[99.0896,35.5887],[99.0277,35.6015],[99.0097,35.5852],[98.9088,35.5998],[98.9117,35.5818],[98.8643,35.5694],[98.8268,35.5964],[98.8039,35.6026],[98.7687,35.595],[98.7622,35.5455],[98.7315,35.5192],[98.6779,35.5191],[98.6256,35.4868],[98.5975,35.4627],[98.5577,35.4525],[98.5018,35.4477],[98.4529,35.47],[98.4206,35.4738],[98.4063,35.4625],[98.3533,35.4591],[98.2969,35.4782],[98.3114,35.5009],[98.2616,35.5178],[98.2199,35.4712],[98.2203,35.4252],[98.2055,35.4175],[98.1731,35.3203],[98.1293,35.334],[98.0937,35.3266],[98.0531,35.2991],[98.0202,35.2866],[97.9528,35.2856],[97.8534,35.3102],[97.8183,35.3268],[97.8033,35.3183],[97.7589,35.3384],[97.6727,35.3504],[97.6704,35.3811],[97.6286,35.3861],[97.6137,35.3741],[97.6056,35.3346],[97.619,35.274],[97.5933,35.2562],[97.5609,35.2723],[97.5346,35.2674],[97.4248,35.2981],[97.3683,35.3061],[97.3465,35.2967],[97.343,35.2621],[97.3708,35.2344],[97.3364,35.2106],[97.276,35.1505],[97.2422,35.0809],[97.224,35.0769],[97.2032,35.0443],[97.2171,35.0302],[97.2126,35.0025],[97.1229,34.9541],[97.0722,34.9088],[97.0482,34.9153],[97.0105,34.9037],[97.022,34.8735],[96.9966,34.8423],[96.9936,34.8245],[96.965,34.8189],[96.9387,34.795],[96.9492,34.7515],[96.9766,34.7317],[97.0104,34.758],[97.0752,34.7471],[97.1122,34.7252],[97.135,34.7231],[97.1191,34.688],[97.0716,34.676],[97.0648,34.6607],[97.104,34.6311],[97.132,34.6332],[97.1481,34.6201],[97.1951,34.6096],[97.1993,34.5654],[97.1813,34.5268],[97.1453,34.5051],[97.1724,34.4849],[97.2233,34.4964],[97.2842,34.4833],[97.3239,34.4661],[97.3347,34.436],[97.3026,34.3984],[97.3151,34.3765],[97.3483,34.3726],[97.3996,34.3289],[97.4123,34.2962],[97.4678,34.2766],[97.4753,34.2446],[97.4906,34.2321],[97.4952,34.2041],[97.5264,34.2011],[97.5468,34.1713],[97.5755,34.171],[97.5797,34.1929],[97.6198,34.214],[97.6272,34.1834],[97.6521,34.1375],[97.6654,34.1287],[97.7829,34.1699],[97.7952,34.1971],[97.8192,34.2093],[97.889,34.2063],[97.9011,34.2111],[97.9541,34.1922],[98.0497,34.1162],[98.0974,34.1244],[98.1429,34.1059],[98.1567,34.1089],[98.2058,34.0858],[98.2558,34.0848],[98.3381,34.0963],[98.4012,34.0892],[98.3911,34.0578],[98.4275,34.0305],[98.4399,33.9828],[98.4149,33.9586],[98.4096,33.9272],[98.4249,33.9145],[98.405,33.868],[98.4328,33.8494],[98.4615,33.8507],[98.4811,33.8241],[98.4943,33.7705],[98.5147,33.7754],[98.5304,33.754],[98.5823,33.7319],[98.6104,33.685],[98.6493,33.6598],[98.6435,33.6432],[98.6155,33.6371],[98.6208,33.6122],[98.662,33.5897],[98.6471,33.5593],[98.6702,33.545],[98.7419,33.48],[98.734,33.4107],[98.7797,33.3724],[98.7822,33.3463],[98.7635,33.3241],[98.773,33.3035],[98.7586,33.2797],[98.8022,33.2723],[98.8128,33.2519],[98.8022,33.2218],[98.8302,33.1996],[98.8294,33.1827],[98.8596,33.1513],[98.9048,33.125],[98.9673,33.1171],[98.97,33.1015],[99.016,33.0825],[99.0613,33.0887],[99.0715,33.0779],[99.1337,33.0529],[99.178,33.0466],[99.2022,33.0292],[99.2144,32.9901],[99.2682,32.8802],[99.3068,32.8795],[99.3535,32.8874],[99.3821,32.9033],[99.45,32.8638],[99.5301,32.8505],[99.5584,32.8404],[99.6062,32.7831],[99.6406,32.7924],[99.6492,32.7726],[99.7071,32.7635],[99.7166,32.7348],[99.7627,32.7795],[99.7726,32.8502],[99.7919,32.8865],[99.772,32.9504],[99.8035,32.9433],[99.8317,32.9524],[99.8504,32.9426],[99.8771,32.9946],[99.8781,33.0476],[99.9069,33.044],[99.908,33.0221],[99.9482,32.9863],[99.9562,32.9494],[99.971,32.9405],[100.04,32.9328],[100.0263,32.8993],[100.066,32.8969],[100.0873,32.8662],[100.1103,32.8628],[100.1185,32.7861],[100.135,32.7457],[100.1251,32.7167],[100.0874,32.6724],[100.1118,32.6413],[100.129,32.6338],[100.1903,32.6318],[100.2136,32.6174],[100.2296,32.655],[100.2294,32.6949],[100.2381,32.7241],[100.2609,32.7438],[100.3366,32.7197],[100.3716,32.7452],[100.4201,32.732],[100.4435,32.6972],[100.4706,32.6948],[100.4762,32.6734],[100.5156,32.6343],[100.5103,32.6116],[100.5435,32.5727],[100.6152,32.5466],[100.6453,32.5279],[100.6599,32.5602],[100.6577,32.6093],[100.6738,32.628],[100.7094,32.6096],[100.7201,32.6252],[100.6908,32.6778],[100.783,32.6418],[100.838,32.6509],[100.9143,32.6192],[100.9309,32.6029],[100.9565,32.6243],[100.9996,32.6308],[101.0312,32.6624],[101.0747,32.6841],[101.0837,32.6737],[101.1581,32.6619],[101.1941,32.6893],[101.2204,32.723],[101.229,32.7545],[101.2225,32.7727],[101.2366,32.8296],[101.2181,32.8648],[101.1753,32.8957],[101.1224,32.9111],[101.1327,32.9547],[101.1278,32.9916],[101.183,32.9867],[101.1703,33.0105],[101.1837,33.0437],[101.1449,33.0587],[101.142,33.0875],[101.168,33.0991],[101.1541,33.1243],[101.1549,33.1499],[101.1291,33.171],[101.1141,33.1972],[101.123,33.2235],[101.1693,33.2507],[101.171,33.2646],[101.2253,33.2735],[101.2439,33.2644],[101.2962,33.2646],[101.3277,33.2386],[101.358,33.1828],[101.3925,33.1599],[101.3889,33.2095],[101.4014,33.2271],[101.4301,33.2335],[101.4718,33.225],[101.501,33.2102],[101.6105,33.1157],[101.6318,33.1025],[101.6597,33.1384],[101.6615,33.1657],[101.6845,33.1834],[101.6807,33.2013],[101.7171,33.2232],[101.7339,33.283],[101.7077,33.3002],[101.6766,33.2991],[101.6502,33.321],[101.6617,33.3829],[101.6949,33.4363],[101.7571,33.4471],[101.7738,33.4916],[101.7748,33.5389],[101.7594,33.5372],[101.7337,33.4982],[101.6229,33.501],[101.61,33.5659],[101.6162,33.6025],[101.6032,33.6316],[101.5841,33.6463],[101.5801,33.6774],[101.5019,33.7047],[101.4655,33.6868],[101.4261,33.6801],[101.4136,33.6525],[101.3852,33.6463],[101.3082,33.666],[101.2866,33.6627],[101.2318,33.686],[101.2147,33.6699],[101.1647,33.6646],[101.1631,33.7236],[101.1855,33.7458],[101.1909,33.7932],[101.1491,33.8262],[101.1513,33.8467],[101.0508,33.8655],[101.0216,33.898],[100.9939,33.8924],[100.9648,33.949],[100.9261,33.9784],[100.9323,33.9926],[100.8817,34.0375],[100.8689,34.0844],[100.848,34.0924],[100.8067,34.1566],[100.7629,34.1789],[100.7817,34.1984],[100.8065,34.2491],[100.7955,34.2646],[100.8158,34.3154],[100.8678,34.3352],[100.8974,34.3798],[100.9485,34.3845],[100.9603,34.4226],[100.9771,34.4473],[100.9772,34.4818],[100.9667,34.5337],[100.9444,34.5404],[100.9181,34.567],[100.9158,34.6247],[100.8928,34.6567]]]},"properties":{"region_code":"CN-63-6326","parent_region_code":"CN-63","name":"果洛藏族自治州","level":"prefecture","has_children":true,"full_path":"中国 / 青海省 / 果洛藏族自治州","source_admin_code":"6326","osm_relation_id":2707987}},
{"type":"Feature","geometry":{"type":"Polygon","coordinates":[[[97.3465,35.2967],[97.3205,35.2998],[97.2989,35.3358],[97.2637,35.3143],[97.2185,35.3324],[97.1824,35.3322],[97.1103,35.3489],[97.073,35.3889],[97.0452,35.4081],[97.0459,35.4341],[96.9938,35.4799],[96.9622,35.4885],[96.9371,35.4759],[96.8804,35.4841],[96.8532,35.495],[96.785,35.5067],[96.7717,35.5268],[96.7121,35.5647],[96.7073,35.5848],[96.6744,35.5919],[96.5896,35.5798],[96.5419,35.6148],[96.5182,35.6122],[96.4596,35.6239],[96.4415,35.636],[96.3533,35.6525],[96.3384,35.6342],[96.2918,35.6482],[96.2409,35.6467],[96.2228,35.6298],[96.1786,35.633],[96.1351,35.6477],[96.0981,35.6158],[96.0721,35.6128],[96.0537,35.5579],[95.994,35.5327],[95.9758,35.5355],[95.9474,35.5701],[95.9248,35.6204],[95.8914,35.6356],[95.778,35.6423],[95.741,35.6357],[95.7365,35.652],[95.6487,35.6463],[95.6357,35.6575],[95.5619,35.6539],[95.4965,35.6556],[95.4685,35.6509],[95.457,35.6141],[95.4312,35.6012],[95.3714,35.6029],[95.3569,35.6269],[95.3188,35.6416],[95.2779,35.6392],[95.2413,35.6483],[95.1437,35.6302],[95.1576,35.5944],[95.1422,35.5736],[95.1169,35.5805],[95.1282,35.5387],[95.0962,35.5202],[95.0825,35.5475],[95.0103,35.5463],[94.9768,35.5732],[94.947,35.5661],[94.8951,35.5906],[94.83,35.577],[94.8156,35.6106],[94.786,35.5912],[94.7589,35.6068],[94.7168,35.6084],[94.6825,35.5881],[94.6209,35.6019],[94.5802,35.6017],[94.5046,35.6102],[94.462,35.6077],[94.4359,35.6227],[94.379,35.6187],[94.3142,35.6385],[94.2797,35.6337],[94.2404,35.6627],[94.2126,35.6494],[94.1873,35.6657],[94.1565,35.6708],[94.1187,35.6398],[94.0368,35.6482],[94.0077,35.6739],[93.9358,35.7056],[93.8831,35.7028],[93.8346,35.7228],[93.7807,35.7314],[93.7609,35.757],[93.6962,35.7521],[93.6805,35.7656],[93.6418,35.7547],[93.5752,35.7711],[93.5479,35.7834],[93.5113,35.759],[93.4486,35.774],[93.2682,35.7782],[93.2283,35.7911],[93.1884,35.7903],[93.0841,35.809],[93.0698,35.8419],[93.0152,35.8489],[92.9911,35.8329],[92.8429,35.8686],[92.6189,35.8795],[92.5835,35.8784],[92.5018,35.8957],[92.4393,35.8996],[92.4063,35.9166],[92.3483,35.9003],[92.3144,35.9156],[92.2127,35.9016],[92.1161,35.943],[92.0532,35.9613],[92.0182,35.9626],[92.0016,35.9806],[91.9726,35.9753],[91.9667,36.0071],[91.8859,36.0218],[91.84,36.0156],[91.8117,36.0037],[91.7134,36.0144],[91.6507,36.0467],[91.6303,36.0386],[91.5929,36.0517],[91.5476,36.0959],[91.5688,36.1531],[91.5264,36.1336],[91.5222,36.1211],[91.4758,36.0921],[91.4013,36.0676],[91.3472,36.0712],[91.3039,36.0831],[91.2792,36.1003],[91.1064,36.153],[91.1231,36.1158],[91.1102,36.0953],[91.0796,36.0887],[90.9935,36.1082],[90.9613,36.0936],[90.9487,36.0598],[90.926,36.0319],[90.8455,36.0175],[90.8049,36.0446],[90.7748,36.0868],[90.7409,36.0964],[90.7127,36.1156],[90.6616,36.1345],[90.6143,36.1271],[90.5675,36.133],[90.5256,36.1491],[90.478,36.1327],[90.4221,36.1343],[90.37,36.1481],[90.3435,36.1436],[90.3275,36.1582],[90.235,36.161],[90.1963,36.1879],[90.1281,36.2081],[90.1264,36.247],[90.0256,36.2602],[90.0071,36.1847],[89.9815,36.1571],[89.9354,36.1307],[89.9469,36.0995],[89.9405,36.0681],[89.9113,36.0801],[89.8102,36.0801],[89.7909,36.0715],[89.6871,36.0913],[89.6396,36.0659],[89.636,36.0506],[89.514,36.0256],[89.4707,36.023],[89.416,36.0458],[89.4024,36.0217],[89.4269,35.991],[89.4331,35.9485],[89.4258,35.918],[89.4663,35.9018],[89.4861,35.9039],[89.5399,35.8823],[89.5287,35.8704],[89.5946,35.8556],[89.6213,35.8597],[89.6523,35.8486],[89.707,35.8496],[89.7727,35.8621],[89.7999,35.849],[89.7661,35.7994],[89.7799,35.7663],[89.7448,35.7532],[89.7392,35.7159],[89.743,35.6588],[89.7229,35.6543],[89.7614,35.5924],[89.7452,35.5797],[89.711,35.5827],[89.6996,35.5474],[89.7057,35.5112],[89.7424,35.507],[89.7617,35.4833],[89.7344,35.4711],[89.688,35.4217],[89.6338,35.4193],[89.5825,35.3845],[89.5307,35.3711],[89.5053,35.3747],[89.5112,35.3319],[89.4917,35.2987],[89.5284,35.2772],[89.4566,35.2408],[89.4519,35.2317],[89.5187,35.1364],[89.5881,35.1144],[89.5896,35.0335],[89.5688,35.0153],[89.5762,34.9966],[89.5593,34.9356],[89.5866,34.8983],[89.6167,34.8979],[89.6345,34.8837],[89.6601,34.8887],[89.7056,34.9179],[89.7406,34.9083],[89.7803,34.9222],[89.8275,34.8998],[89.8694,34.9041],[89.9009,34.872],[89.9342,34.8811],[89.9556,34.9026],[89.9916,34.8996],[90.0097,34.9128],[90.0478,34.9132],[90.0892,34.9011],[90.1173,34.8675],[90.177,34.8867],[90.1771,34.9094],[90.2052,34.9401],[90.2475,34.945],[90.2623,34.9313],[90.3021,34.9226],[90.3259,34.9361],[90.3723,34.9326],[90.4142,34.9404],[90.4411,34.9302],[90.632,34.9212],[90.6491,34.8991],[90.6919,34.9064],[90.736,34.885],[90.7814,34.8911],[90.9187,34.8359],[90.9254,34.8107],[90.9476,34.7994],[90.9425,34.7668],[90.9834,34.7471],[91.0177,34.7661],[91.0617,34.7621],[91.0562,34.7913],[91.1161,34.7922],[91.1262,34.7827],[91.1624,34.8008],[91.2248,34.8065],[91.2738,34.7881],[91.3372,34.7896],[91.3459,34.7696],[91.3906,34.7595],[91.4573,34.7272],[91.5198,34.7195],[91.6875,34.6583],[91.7088,34.674],[91.7468,34.6544],[91.773,34.6182],[91.8135,34.6206],[91.8291,34.6003],[91.9383,34.5877],[91.9568,34.5545],[91.9117,34.4964],[91.9814,34.4762],[91.9978,34.4785],[92.0487,34.4542],[92.0852,34.4479],[92.1324,34.4209],[92.2126,34.3954],[92.2197,34.3815],[92.2556,34.3872],[92.3312,34.389],[92.3699,34.383],[92.4256,34.3874],[92.4854,34.3757],[92.5098,34.4132],[92.5507,34.4137],[92.5364,34.3901],[92.5387,34.3631],[92.5716,34.3156],[92.5737,34.301],[92.6025,34.2711],[92.6043,34.254],[92.6491,34.1706],[92.6596,34.1357],[92.6891,34.0867],[92.7122,34.0725],[92.7517,34.0701],[92.7961,34.0839],[92.8322,34.0809],[92.8688,34.0923],[92.9118,34.0907],[92.9017,34.0712],[92.8282,34.033],[92.7839,34.0386],[92.7575,34.0053],[92.7382,33.9968],[92.7085,33.951],[92.7285,33.9362],[92.7746,33.9375],[92.7995,33.8861],[92.8455,33.8185],[92.9169,33.7791],[92.9548,33.7786],[93.0049,33.8075],[93.0405,33.7974],[93.1098,33.7908],[93.1309,33.7766],[93.2916,33.7663],[93.356,33.7555],[93.3956,33.7552],[93.4344,33.7048],[93.4318,33.6894],[93.4984,33.6827],[93.5321,33.6484],[93.506,33.602],[93.4827,33.4715],[93.5149,33.428],[93.5204,33.3873],[93.4998,33.3672],[93.504,33.3282],[93.4792,33.2766],[93.4689,33.2059],[93.4424,33.1744],[93.4626,33.1477],[93.5063,33.1127],[93.5823,33.0772],[93.6172,33.0444],[93.6451,33.031],[93.7106,33.0127],[93.7724,32.9462],[93.8026,32.9277],[93.8528,32.8802],[93.9413,32.8694],[93.9829,32.8856],[94.01,32.883],[94.0418,32.9021],[94.1024,32.906],[94.152,32.8985],[94.2181,32.8678],[94.2284,32.8536],[94.2675,32.8415],[94.3032,32.8173],[94.3241,32.785],[94.3245,32.7445],[94.3667,32.7027],[94.4151,32.6897],[94.4604,32.7064],[94.4944,32.6853],[94.5652,32.69],[94.6136,32.6756],[94.6375,32.6469],[94.6895,32.6051],[94.7205,32.6056],[94.7561,32.5475],[94.7848,32.5269],[94.8034,32.494],[94.8499,32.4672],[94.8909,32.474],[94.9117,32.4183],[94.9791,32.4117],[94.993,32.4233],[95.0558,32.3971],[95.1302,32.3889],[95.13,32.4012],[95.1896,32.3895],[95.2153,32.3985],[95.2458,32.3452],[95.1924,32.3347],[95.1528,32.3347],[95.0956,32.3245],[95.0783,32.2829],[95.1052,32.2611],[95.1776,32.2848],[95.2065,32.3012],[95.2134,32.3239],[95.2401,32.321],[95.2384,32.2895],[95.2554,32.2568],[95.2689,32.1972],[95.3117,32.1514],[95.3423,32.1571],[95.3878,32.1883],[95.4395,32.1598],[95.4328,32.1224],[95.4486,32.1148],[95.4529,32.0636],[95.4161,32.0479],[95.421,32.0325],[95.4516,32.0124],[95.4308,32.0005],[95.3954,32.0034],[95.3764,31.9933],[95.3603,31.961],[95.3656,31.9303],[95.4072,31.9208],[95.4068,31.8967],[95.4538,31.8055],[95.4776,31.798],[95.5129,31.75],[95.5677,31.7415],[95.5804,31.77],[95.607,31.7694],[95.6284,31.7847],[95.7785,31.7519],[95.8136,31.6888],[95.8338,31.6884],[95.8519,31.7171],[95.8458,31.7371],[95.8989,31.8196],[95.9807,31.8189],[95.9878,31.7879],[96.0471,31.734],[96.1059,31.7026],[96.1458,31.6912],[96.1475,31.6334],[96.1571,31.6041],[96.194,31.6085],[96.2256,31.6269],[96.2236,31.6559],[96.2468,31.661],[96.2525,31.6964],[96.2226,31.7336],[96.2309,31.7524],[96.1764,31.7787],[96.1747,31.8278],[96.2008,31.8423],[96.2136,31.8665],[96.1878,31.9062],[96.2191,31.9081],[96.2532,31.9326],[96.2682,31.9259],[96.3531,31.9166],[96.3886,31.9222],[96.4014,31.8948],[96.4128,31.8361],[96.4345,31.7984],[96.4685,31.7722],[96.5164,31.7523],[96.5661,31.7153],[96.616,31.7388],[96.639,31.7151],[96.6609,31.7082],[96.6786,31.7296],[96.7346,31.6802],[96.7738,31.6761],[96.7943,31.704],[96.8231,31.7022],[96.8402,31.723],[96.8187,31.7469],[96.8,31.7929],[96.7662,31.8215],[96.7606,31.8634],[96.7957,31.8711],[96.81,31.9008],[96.7846,31.9147],[96.7738,31.9425],[96.7526,31.948],[96.74,31.9812],[96.7424,32.0037],[96.7981,32.0213],[96.8407,32],[96.8472,31.9839],[96.8887,32.0042],[96.9563,31.9971],[96.9363,32.0493],[96.9725,32.0707],[97.008,32.0698],[97.0284,32.0508],[97.076,32.0514],[97.1002,32.0393],[97.132,32.0455],[97.1601,32.0308],[97.1908,32.0594],[97.2133,32.0468],[97.2334,32.0667],[97.2004,32.0932],[97.2198,32.1117],[97.2405,32.087],[97.2746,32.0734],[97.3084,32.0789],[97.294,32.0989],[97.3146,32.1333],[97.2714,32.142],[97.2644,32.1857],[97.2749,32.2074],[97.2883,32.284],[97.3245,32.3067],[97.3715,32.2753],[97.4172,32.3031],[97.416,32.3586],[97.387,32.4294],[97.3411,32.445],[97.3496,32.4668],[97.3858,32.5041],[97.351,32.5192],[97.3305,32.5399],[97.358,32.5654],[97.3745,32.5486],[97.4443,32.5891],[97.4629,32.5583],[97.502,32.5334],[97.5396,32.5388],[97.578,32.5255],[97.5946,32.5297],[97.67,32.5197],[97.6764,32.5494],[97.6306,32.5775],[97.6079,32.6152],[97.5437,32.6241],[97.5122,32.6515],[97.4824,32.6561],[97.4224,32.7081],[97.4133,32.7378],[97.3807,32.7969],[97.3929,32.8324],[97.3719,32.8762],[97.3544,32.8896],[97.3685,32.9293],[97.3607,32.9489],[97.4466,32.9783],[97.5057,32.9835],[97.5152,33.0236],[97.5416,33.0397],[97.5164,33.0996],[97.4872,33.1087],[97.4977,33.1385],[97.4943,33.1697],[97.5762,33.2255],[97.6088,33.2703],[97.6057,33.2855],[97.6212,33.3363],[97.6364,33.3466],[97.6756,33.343],[97.6758,33.3595],[97.7083,33.3675],[97.7529,33.412],[97.6252,33.4635],[97.6042,33.4538],[97.5799,33.4719],[97.5522,33.4676],[97.5417,33.4946],[97.5115,33.5213],[97.5193,33.5679],[97.5102,33.5843],[97.4611,33.5833],[97.415,33.6071],[97.4052,33.6301],[97.4345,33.684],[97.4216,33.7111],[97.4224,33.7565],[97.3999,33.8056],[97.368,33.8257],[97.3711,33.8435],[97.3973,33.8498],[97.3888,33.8814],[97.46,33.8889],[97.503,33.9137],[97.5245,33.9044],[97.6015,33.9319],[97.629,33.9216],[97.6594,33.9581],[97.6523,34.0002],[97.6869,34.0184],[97.7026,34.0598],[97.6631,34.1162],[97.6654,34.1287],[97.6521,34.1375],[97.6272,34.1834],[97.6198,34.214],[97.5797,34.1929],[97.5755,34.171],[97.5468,34.1713],[97.5264,34.2011],[97.4952,34.2041],[97.4906,34.2321],[97.4753,34.2446],[97.4678,34.2766],[97.4123,34.2962],[97.3996,34.3289],[97.3483,34.3726],[97.3151,34.3765],[97.3026,34.3984],[97.3347,34.436],[97.3239,34.4661],[97.2842,34.4833],[97.2233,34.4964],[97.1724,34.4849],[97.1453,34.5051],[97.1813,34.5268],[97.1993,34.5654],[97.1951,34.6096],[97.1481,34.6201],[97.132,34.6332],[97.104,34.6311],[97.0648,34.6607],[97.0716,34.676],[97.1191,34.688],[97.135,34.7231],[97.1122,34.7252],[97.0752,34.7471],[97.0104,34.758],[96.9766,34.7317],[96.9492,34.7515],[96.9387,34.795],[96.965,34.8189],[96.9936,34.8245],[96.9966,34.8423],[97.022,34.8735],[97.0105,34.9037],[97.0482,34.9153],[97.0722,34.9088],[97.1229,34.9541],[97.2126,35.0025],[97.2171,35.0302],[97.2032,35.0443],[97.224,35.0769],[97.2422,35.0809],[97.276,35.1505],[97.3364,35.2106],[97.3708,35.2344],[97.343,35.2621],[97.3465,35.2967]]]},"properties":{"region_code":"CN-63-6327","parent_region_code":"CN-63","name":"玉树藏族自治州","level":"prefecture","has_children":true,"full_path":"中国 / 青海省 / 玉树藏族自治州","source_admin_code":"6327","osm_relation_id":2707991}},
{"type":"Feature","geometry":{"type":"MultiPolygon","coordinates":[[[[92.0487,34.4542],[92.0527,34.4374],[92.0943,34.3859],[92.0963,34.3604],[92.1169,34.3264],[92.1169,34.2879],[92.3497,34.0399],[92.3816,33.9915],[92.3574,33.9553],[92.3883,33.8969],[92.4511,33.8904],[92.5223,33.8681],[92.601,33.8798],[92.6257,33.9362],[92.6439,33.9465],[92.7085,33.951],[92.7382,33.9968],[92.7575,34.0053],[92.7839,34.0386],[92.8282,34.033],[92.9017,34.0712],[92.9118,34.0907],[92.8688,34.0923],[92.8322,34.0809],[92.7961,34.0839],[92.7517,34.0701],[92.7122,34.0725],[92.6891,34.0867],[92.6596,34.1357],[92.6491,34.1706],[92.6043,34.254],[92.6025,34.2711],[92.5737,34.301],[92.5716,34.3156],[92.5387,34.3631],[92.5364,34.3901],[92.5507,34.4137],[92.5098,34.4132],[92.4854,34.3757],[92.4256,34.3874],[92.3699,34.383],[92.3312,34.389],[92.2556,34.3872],[92.2197,34.3815],[92.2126,34.3954],[92.1324,34.4209],[92.0852,34.4479],[92.0487,34.4542]]],[[[98.0927,38.7859],[98.066,38.8187],[98.032,38.8314],[98.013,38.8593],[97.983,38.8603],[97.9553,38.8738],[97.9172,38.8788],[97.8119,38.9397],[97.7608,38.944],[97.7247,38.9671],[97.6855,38.9704],[97.6897,39.0065],[97.5584,39.0573],[97.5497,39.0681],[97.489,39.0806],[97.4626,39.1189],[97.4259,39.1246],[97.4004,39.1459],[97.3706,39.14],[97.3465,39.1666],[97.3144,39.1639],[97.2001,39.1932],[97.1614,39.1907],[97.0635,39.2011],[97.0142,39.2142],[96.9608,39.195],[96.9832,39.1794],[97.0131,39.1412],[96.9715,39.1014],[96.9557,39.0459],[96.9712,39.0263],[96.9349,38.9756],[96.948,38.9375],[96.9379,38.9101],[96.9512,38.8898],[96.9825,38.8703],[96.993,38.8352],[96.9864,38.7913],[96.9989,38.7608],[97.0225,38.7548],[97.0084,38.7025],[97.018,38.6862],[97.0515,38.6805],[97.047,38.6547],[97.0548,38.5931],[96.9901,38.5621],[96.9612,38.5572],[96.9077,38.5639],[96.8496,38.5917],[96.7939,38.6077],[96.8039,38.5702],[96.7663,38.552],[96.7993,38.5188],[96.772,38.5024],[96.703,38.5046],[96.6574,38.4814],[96.6994,38.4575],[96.6882,38.419],[96.6257,38.355],[96.6236,38.3413],[96.6634,38.2591],[96.6648,38.2231],[96.4452,38.2785],[96.3774,38.2778],[96.3357,38.2467],[96.3104,38.1999],[96.3127,38.1612],[96.2631,38.145],[96.2541,38.1677],[96.2114,38.1686],[96.2069,38.1475],[96.1439,38.1769],[96.0732,38.189],[96.0483,38.1779],[95.9987,38.21],[95.9383,38.2364],[95.9331,38.2565],[95.8947,38.2902],[95.8563,38.2825],[95.8365,38.3365],[95.7223,38.378],[95.7024,38.3996],[95.6715,38.3876],[95.6255,38.3453],[95.581,38.3414],[95.5187,38.2968],[95.4882,38.3155],[95.4551,38.2908],[95.442,38.3088],[95.3874,38.3022],[95.3593,38.3133],[95.3099,38.3123],[95.266,38.2962],[95.2308,38.3285],[95.2041,38.329],[95.1872,38.3636],[95.164,38.3879],[95.1388,38.3929],[95.1207,38.4163],[95.0746,38.4038],[95.0458,38.4172],[94.9729,38.4305],[94.8813,38.4146],[94.8767,38.3998],[94.8097,38.3863],[94.723,38.3879],[94.6527,38.3834],[94.5941,38.3737],[94.55,38.3496],[94.5288,38.3598],[94.5255,38.4262],[94.509,38.4436],[94.4584,38.5658],[94.3687,38.7632],[94.3364,38.755],[94.2807,38.7595],[93.9722,38.7256],[93.9377,38.7161],[93.8698,38.7233],[93.7992,38.7503],[93.7698,38.7748],[93.7599,38.8031],[93.7688,38.8209],[93.8821,38.8262],[93.8832,38.8678],[93.834,38.8677],[93.729,38.9243],[93.4622,38.9162],[93.3338,38.9053],[93.2749,38.8956],[93.2382,38.9164],[93.1795,38.9237],[93.1978,39.0466],[93.165,39.0918],[93.1319,39.1092],[93.1365,39.1544],[93.1152,39.1792],[93.0438,39.1468],[92.9951,39.1516],[92.9376,39.1694],[92.8875,39.1602],[92.867,39.1398],[92.784,39.14],[92.7272,39.121],[92.7129,39.1286],[92.6616,39.1102],[92.642,39.1194],[92.6128,39.1094],[92.5446,39.1104],[92.4926,39.103],[92.4594,39.0633],[92.4598,39.0438],[92.4237,39.0479],[92.4169,39.0151],[92.3812,38.9994],[92.2566,39.0016],[92.1915,38.9813],[92.1731,38.9608],[92.1187,38.961],[92.0314,38.9476],[91.9652,38.9311],[91.9202,38.9089],[91.8786,38.8988],[91.8779,38.8824],[91.8098,38.8736],[91.7845,38.8616],[91.751,38.8689],[91.6923,38.8656],[91.6423,38.8549],[91.6114,38.8383],[91.5006,38.8149],[91.4454,38.8129],[91.3597,38.7743],[91.269,38.7449],[91.2485,38.7521],[91.1907,38.7316],[91.089,38.7093],[90.9911,38.6941],[90.9672,38.697],[90.8317,38.6683],[90.7235,38.6576],[90.6598,38.6738],[90.6181,38.6638],[90.6441,38.6342],[90.6055,38.6107],[90.6096,38.5952],[90.5596,38.5928],[90.5331,38.5659],[90.4986,38.5547],[90.462,38.5562],[90.4641,38.5213],[90.4237,38.4918],[90.3563,38.4808],[90.3134,38.5012],[90.1251,38.4913],[90.1087,38.4688],[90.1124,38.4139],[90.1771,38.3968],[90.1465,38.3297],[90.2792,38.238],[90.3495,38.2353],[90.3595,38.3001],[90.4003,38.3112],[90.529,38.3196],[90.5131,38.2069],[90.5165,37.9576],[90.5165,37.7288],[90.5664,37.725],[90.6114,37.7024],[90.6615,37.7041],[90.6769,37.6867],[90.7854,37.6432],[90.8147,37.612],[90.849,37.6048],[90.8784,37.5772],[90.859,37.5373],[90.9099,37.5179],[90.9581,37.4784],[90.9982,37.4942],[91.0691,37.4767],[91.0968,37.4486],[91.1075,37.4231],[91.1075,37.3864],[91.1265,37.3732],[91.1347,37.3203],[91.1564,37.3141],[91.1659,37.285],[91.1913,37.2769],[91.1883,37.2063],[91.2171,37.1998],[91.2322,37.1792],[91.2785,37.1627],[91.2849,37.1044],[91.2995,37.0902],[91.3013,37.0619],[91.2884,37.0485],[91.3093,37.0142],[91.2136,37.009],[91.1936,37.0227],[91.1317,37.0068],[91.1127,36.9704],[91.0457,36.9652],[91.0364,36.9298],[90.9862,36.9137],[90.927,36.9209],[90.8574,36.9191],[90.7911,36.8607],[90.7885,36.8449],[90.7575,36.8263],[90.729,36.8263],[90.7185,36.7951],[90.7364,36.7397],[90.7539,36.7183],[90.7149,36.7082],[90.7046,36.6858],[90.7117,36.6624],[90.7337,36.6453],[90.7178,36.6113],[90.7302,36.5914],[90.7633,36.5836],[90.8109,36.5871],[90.8286,36.5615],[90.8981,36.5634],[91.0278,36.537],[91.0345,36.4828],[91.0236,36.4497],[91.0512,36.4305],[91.033,36.4046],[91.022,36.3309],[91.0502,36.3047],[91.0721,36.3002],[91.0406,36.2599],[91.0573,36.2322],[91.0932,36.215],[91.0887,36.1687],[91.1064,36.153],[91.2792,36.1003],[91.3039,36.0831],[91.3472,36.0712],[91.4013,36.0676],[91.4758,36.0921],[91.5222,36.1211],[91.5264,36.1336],[91.5688,36.1531],[91.5476,36.0959],[91.5929,36.0517],[91.6303,36.0386],[91.6507,36.0467],[91.7134,36.0144],[91.8117,36.0037],[91.84,36.0156],[91.8859,36.0218],[91.9667,36.0071],[91.9726,35.9753],[92.0016,35.9806],[92.0182,35.9626],[92.0532,35.9613],[92.1161,35.943],[92.2127,35.9016],[92.3144,35.9156],[92.3483,35.9003],[92.4063,35.9166],[92.4393,35.8996],[92.5018,35.8957],[92.5835,35.8784],[92.6189,35.8795],[92.8429,35.8686],[92.9911,35.8329],[93.0152,35.8489],[93.0698,35.8419],[93.0841,35.809],[93.1884,35.7903],[93.2283,35.7911],[93.2682,35.7782],[93.4486,35.774],[93.5113,35.759],[93.5479,35.7834],[93.5752,35.7711],[93.6418,35.7547],[93.6805,35.7656],[93.6962,35.7521],[93.7609,35.757],[93.7807,35.7314],[93.8346,35.7228],[93.8831,35.7028],[93.9358,35.7056],[94.0077,35.6739],[94.0368,35.6482],[94.1187,35.6398],[94.1565,35.6708],[94.1873,35.6657],[94.2126,35.6494],[94.2404,35.6627],[94.2797,35.6337],[94.3142,35.6385],[94.379,35.6187],[94.4359,35.6227],[94.462,35.6077],[94.5046,35.6102],[94.5802,35.6017],[94.6209,35.6019],[94.6825,35.5881],[94.7168,35.6084],[94.7589,35.6068],[94.786,35.5912],[94.8156,35.6106],[94.83,35.577],[94.8951,35.5906],[94.947,35.5661],[94.9768,35.5732],[95.0103,35.5463],[95.0825,35.5475],[95.0962,35.5202],[95.1282,35.5387],[95.1169,35.5805],[95.1422,35.5736],[95.1576,35.5944],[95.1437,35.6302],[95.2413,35.6483],[95.2779,35.6392],[95.3188,35.6416],[95.3569,35.6269],[95.3714,35.6029],[95.4312,35.6012],[95.457,35.6141],[95.4685,35.6509],[95.4965,35.6556],[95.5619,35.6539],[95.6357,35.6575],[95.6487,35.6463],[95.7365,35.652],[95.741,35.6357],[95.778,35.6423],[95.8914,35.6356],[95.9248,35.6204],[95.9474,35.5701],[95.9758,35.5355],[95.994,35.5327],[96.0537,35.5579],[96.0721,35.6128],[96.0981,35.6158],[96.1351,35.6477],[96.1786,35.633],[96.2228,35.6298],[96.2409,35.6467],[96.2918,35.6482],[96.3384,35.6342],[96.3533,35.6525],[96.4415,35.636],[96.4596,35.6239],[96.5182,35.6122],[96.5419,35.6148],[96.5896,35.5798],[96.6744,35.5919],[96.7073,35.5848],[96.7121,35.5647],[96.7717,35.5268],[96.785,35.5067],[96.8532,35.495],[96.8804,35.4841],[96.9371,35.4759],[96.9622,35.4885],[96.9938,35.4799],[97.0459,35.4341],[97.0452,35.4081],[97.073,35.3889],[97.1103,35.3489],[97.1824,35.3322],[97.2185,35.3324],[97.2637,35.3143],[97.2989,35.3358],[97.3205,35.2998],[97.3465,35.2967],[97.3683,35.3061],[97.4248,35.2981],[97.5346,35.2674],[97.5609,35.2723],[97.5933,35.2562],[97.619,35.274],[97.6056,35.3346],[97.6137,35.3741],[97.6286,35.3861],[97.6704,35.3811],[97.6727,35.3504],[97.7589,35.3384],[97.8033,35.3183],[97.8183,35.3268],[97.8534,35.3102],[97.9528,35.2856],[98.0202,35.2866],[98.0531,35.2991],[98.0937,35.3266],[98.1293,35.334],[98.1731,35.3203],[98.2055,35.4175],[98.2203,35.4252],[98.2199,35.4712],[98.2616,35.5178],[98.3114,35.5009],[98.2969,35.4782],[98.3533,35.4591],[98.4063,35.4625],[98.4206,35.4738],[98.4529,35.47],[98.5018,35.4477],[98.5577,35.4525],[98.5975,35.4627],[98.6256,35.4868],[98.6779,35.5191],[98.7315,35.5192],[98.7622,35.5455],[98.7687,35.595],[98.8039,35.6026],[98.8268,35.5964],[98.8643,35.5694],[98.9117,35.5818],[98.9088,35.5998],[99.0097,35.5852],[99.0277,35.6015],[99.0896,35.5887],[99.1253,35.6177],[99.158,35.6212],[99.2057,35.6789],[99.2093,35.723],[99.1639,35.7869],[99.1096,35.8129],[99.1272,35.8313],[99.1264,35.8598],[99.1008,35.8879],[99.1166,35.9084],[99.0874,35.9559],[99.0677,35.9686],[99.084,36.0269],[99.0597,36.0309],[99.0106,36.0586],[99.0171,36.0804],[98.9842,36.1043],[98.9678,36.1321],[98.9335,36.1507],[98.987,36.1607],[98.9988,36.1898],[99.0236,36.2198],[99.0535,36.2303],[99.0518,36.2812],[99.0737,36.3011],[99.0332,36.376],[99.0061,36.3824],[98.9926,36.4114],[98.9554,36.4214],[98.9273,36.449],[98.9196,36.4899],[98.9977,36.506],[99.0512,36.5269],[99.089,36.5328],[99.1161,36.5522],[99.4665,36.6878],[99.4269,36.7248],[99.4356,36.7648],[99.3224,36.8481],[99.295,36.8446],[99.2723,36.9049],[99.1947,36.9337],[99.1539,36.956],[99.151,36.9759],[99.1967,36.9636],[99.2303,36.979],[99.2462,37.0359],[99.2842,37.1062],[99.3541,37.1339],[99.3642,37.1769],[99.4528,37.1572],[99.4324,37.1793],[99.4341,37.2282],[99.4257,37.2487],[99.4458,37.3088],[99.4114,37.3454],[99.4048,37.3952],[99.4354,37.3966],[99.4759,37.4147],[99.4622,37.4821],[99.4996,37.5437],[99.5418,37.5632],[99.5384,37.5912],[99.5504,37.6056],[99.5895,37.6107],[99.6346,37.6538],[99.6919,37.6738],[99.6899,37.716],[99.6595,37.7313],[99.6456,37.7905],[99.6616,37.8094],[99.6067,37.8277],[99.6006,37.8394],[99.514,37.8564],[99.4821,37.8383],[99.4721,37.8694],[99.4426,37.8938],[99.3752,37.9234],[99.3924,37.9477],[99.3573,37.9696],[99.3818,38.0072],[99.412,38.0254],[99.4425,38.0175],[99.4994,38.0327],[99.5712,38.0328],[99.602,38.05],[99.6471,38.0551],[99.6786,38.067],[99.5795,38.1057],[99.593,38.1621],[99.585,38.188],[99.548,38.2096],[99.5076,38.2179],[99.5,38.2532],[99.4444,38.2491],[99.4078,38.2568],[99.3454,38.2485],[99.2677,38.27],[99.2471,38.2963],[99.2578,38.3095],[99.2287,38.3302],[99.184,38.3124],[99.1603,38.2867],[99.1275,38.2697],[99.0321,38.2554],[98.9955,38.2765],[98.953,38.2719],[98.9072,38.2897],[98.9092,38.3032],[98.9434,38.3333],[98.9091,38.3501],[98.9085,38.3634],[98.9407,38.3881],[98.9825,38.3931],[98.9647,38.4285],[98.9433,38.4464],[98.8719,38.4766],[98.7349,38.485],[98.6952,38.529],[98.6081,38.5267],[98.5619,38.5529],[98.5384,38.5793],[98.3857,38.6074],[98.295,38.6628],[98.1818,38.6671],[98.1396,38.7027],[98.1376,38.7469],[98.0927,38.7859]]]]},"properties":{"region_code":"CN-63-6328","parent_region_code":"CN-63","name":"海西蒙古族藏族自治州","level":"prefecture","has_children":true,"full_path":"中国 / 青海省 / 海西蒙古族藏族自治州","source_admin_code":"6328","osm_relation_id":2707989}}
]}