{"type":"FeatureCollection", "features": [
{"type":"Feature","geometry":{"type":"MultiPolygon","coordinates":[[[[104.5456,36.6837],[104.5464,36.6815],[104.5503,36.6806],[104.556,36.6825],[104.5544,36.6853],[104.5558,36.6884],[104.5583,36.6885],[104.561,36.6901],[104.5619,36.6927],[104.5643,36.6953],[104.5679,36.6969],[104.5702,36.7001],[104.5736,36.7027],[104.5822,36.7022],[104.5844,36.7047],[104.5827,36.7057],[104.583,36.7078],[104.5796,36.708],[104.5779,36.7072],[104.5743,36.7073],[104.5715,36.7059],[104.5695,36.7032],[104.5671,36.7019],[104.5662,36.6999],[104.5641,36.6992],[104.5633,36.6971],[104.5645,36.6957],[104.5612,36.6942],[104.5605,36.6902],[104.5578,36.6887],[104.556,36.6887],[104.5516,36.6874],[104.5456,36.6837]]],[[[104.4016,36.3897],[104.4025,36.3937],[104.3994,36.4005],[104.3926,36.4069],[104.3893,36.4106],[104.3888,36.4124],[104.388,36.4196],[104.3889,36.4233],[104.3901,36.4253],[104.3937,36.4282],[104.4007,36.4306],[104.4139,36.4364],[104.4098,36.4402],[104.4088,36.4497],[104.4091,36.4522],[104.4053,36.4625],[104.4035,36.4639],[104.4022,36.4692],[104.3997,36.471],[104.3958,36.4722],[104.3936,36.476],[104.3882,36.4815],[104.3857,36.4801],[104.3823,36.4803],[104.3824,36.4825],[104.3795,36.4833],[104.3787,36.4846],[104.3746,36.4876],[104.3751,36.4898],[104.3703,36.4906],[104.3676,36.4892],[104.3602,36.4903],[104.3552,36.4936],[104.3538,36.4957],[104.3539,36.4975],[104.351,36.4981],[104.3472,36.5013],[104.3474,36.5036],[104.3455,36.504],[104.3428,36.5064],[104.3388,36.5083],[104.3391,36.5104],[104.336,36.5139],[104.335,36.5189],[104.3327,36.5211],[104.3317,36.5262],[104.3241,36.5351],[104.3209,36.5354],[104.3162,36.5378],[104.3138,36.5433],[104.3149,36.5465],[104.3162,36.5477],[104.3103,36.549],[104.3075,36.5535],[104.3048,36.5568],[104.3056,36.5604],[104.3036,36.5631],[104.304,36.5664],[104.3032,36.57],[104.3014,36.5712],[104.3021,36.5738],[104.3001,36.5739],[104.2997,36.576],[104.2956,36.574],[104.2933,36.5749],[104.2925,36.5768],[104.2859,36.5817],[104.2864,36.5845],[104.288,36.5874],[104.2855,36.5894],[104.2856,36.5916],[104.2822,36.5927],[104.2773,36.5961],[104.2716,36.6009],[104.2687,36.6026],[104.2675,36.6044],[104.2602,36.6101],[104.2591,36.6163],[104.2599,36.6173],[104.2593,36.6205],[104.2603,36.6269],[104.2622,36.6303],[104.2627,36.6355],[104.2668,36.6397],[104.2695,36.6395],[104.2719,36.6384],[104.2777,36.6405],[104.2814,36.6458],[104.2823,36.6499],[104.2836,36.652],[104.283,36.655],[104.2857,36.6585],[104.2849,36.6616],[104.2874,36.6648],[104.2888,36.6655],[104.2946,36.6658],[104.2949,36.6696],[104.2923,36.6717],[104.2914,36.6745],[104.2887,36.6743],[104.283,36.6774],[104.2826,36.6789],[104.2796,36.6804],[104.2774,36.6832],[104.2771,36.6856],[104.2795,36.6871],[104.2779,36.6912],[104.2737,36.694],[104.2747,36.6974],[104.271,36.701],[104.271,36.7038],[104.2702,36.7066],[104.2711,36.7083],[104.2696,36.7104],[104.2697,36.7125],[104.2666,36.7178],[104.2668,36.721],[104.2684,36.7234],[104.2728,36.7243],[104.276,36.7242],[104.2776,36.7261],[104.2786,36.7309],[104.2755,36.7332],[104.2737,36.7373],[104.2696,36.7372],[104.2669,36.7385],[104.2609,36.7388],[104.2575,36.7367],[104.2574,36.7351],[104.2525,36.734],[104.251,36.7346],[104.2472,36.7329],[104.2433,36.7335],[104.242,36.7325],[104.2331,36.732],[104.2321,36.7301],[104.2269,36.728],[104.2224,36.7306],[104.219,36.7303],[104.219,36.736],[104.2164,36.7363],[104.2122,36.7397],[104.2121,36.7431],[104.214,36.7476],[104.2155,36.7495],[104.2168,36.7528],[104.2194,36.7562],[104.2233,36.7579],[104.226,36.7602],[104.2256,36.7634],[104.2204,36.7708],[104.215,36.7739],[104.2118,36.7727],[104.2091,36.7729],[104.2044,36.7759],[104.2003,36.7758],[104.1962,36.7806],[104.1939,36.7824],[104.1871,36.7846],[104.1805,36.7841],[104.1792,36.785],[104.1725,36.7849],[104.1676,36.7834],[104.1636,36.7842],[104.1588,36.7833],[104.1555,36.7818],[104.1519,36.7848],[104.1264,36.7847],[104.1204,36.7824],[104.1185,36.7799],[104.1146,36.7777],[104.1119,36.7776],[104.1094,36.7764],[104.1053,36.7767],[104.104,36.7746],[104.1041,36.7722],[104.1018,36.7714],[104.1016,36.7689],[104.0999,36.7673],[104.0967,36.7671],[104.0962,36.7654],[104.0938,36.764],[104.0911,36.7635],[104.0778,36.7595],[104.0762,36.7622],[104.0716,36.7629],[104.0666,36.76],[104.0641,36.7613],[104.0579,36.7616],[104.0585,36.7562],[104.0565,36.7559],[104.0524,36.7568],[104.0517,36.7542],[104.0496,36.7547],[104.0481,36.7531],[104.0441,36.7544],[104.0412,36.7519],[104.0412,36.7493],[104.0375,36.7486],[104.0345,36.7502],[104.0293,36.7491],[104.0214,36.7491],[104.0161,36.7514],[104.0112,36.7527],[104.0097,36.7524],[104.0036,36.7533],[103.9993,36.7544],[103.9961,36.7519],[103.9979,36.7473],[103.9903,36.7444],[103.9895,36.7435],[103.9906,36.7398],[103.9891,36.7388],[103.9881,36.7364],[103.9885,36.7339],[103.9866,36.7283],[103.984,36.7288],[103.9756,36.7271],[103.9748,36.7301],[103.9721,36.7324],[103.9712,36.7342],[103.9739,36.7361],[103.9744,36.7393],[103.9713,36.7387],[103.9646,36.7387],[103.9576,36.7396],[103.9556,36.7374],[103.95,36.7354],[103.9488,36.7329],[103.9453,36.7307],[103.945,36.7291],[103.9423,36.7263],[103.9363,36.7246],[103.9324,36.7244],[103.9325,36.7231],[103.9283,36.72],[103.9247,36.7209],[103.9222,36.72],[103.9181,36.7204],[103.9164,36.723],[103.9139,36.7232],[103.9074,36.7206],[103.9052,36.7187],[103.9013,36.718],[103.8955,36.7164],[103.8934,36.7134],[103.8904,36.7112],[103.8925,36.7084],[103.8956,36.7069],[103.894,36.7047],[103.8978,36.7037],[103.8992,36.7013],[103.9016,36.7007],[103.9044,36.6985],[103.905,36.6967],[103.9076,36.6946],[103.9131,36.6934],[103.9105,36.6884],[103.9085,36.6869],[103.905,36.6864],[103.9038,36.6848],[103.9054,36.6805],[103.9048,36.6775],[103.9009,36.6744],[103.8973,36.6726],[103.9014,36.67],[103.9062,36.6693],[103.9028,36.6621],[103.9068,36.6606],[103.9122,36.6596],[103.914,36.6583],[103.9197,36.6572],[103.9233,36.6558],[103.9245,36.6488],[103.9323,36.6447],[103.9327,36.6418],[103.9374,36.6393],[103.9383,36.6367],[103.9427,36.6341],[103.9513,36.6298],[103.9539,36.6278],[103.9592,36.6254],[103.9548,36.6211],[103.9548,36.6185],[103.9532,36.6161],[103.951,36.6152],[103.949,36.6113],[103.9563,36.6091],[103.9557,36.6067],[103.9585,36.604],[103.9591,36.602],[103.9593,36.5968],[103.9639,36.5943],[103.9632,36.5916],[103.9643,36.5896],[103.9669,36.5891],[103.9695,36.5875],[103.9717,36.5845],[103.9759,36.5841],[103.9828,36.5825],[103.9832,36.5814],[103.9881,36.5795],[103.9911,36.5791],[103.9944,36.5808],[103.9965,36.584],[103.9984,36.5829],[104.0012,36.5842],[104.0039,36.583],[104.0053,36.5803],[104.0092,36.5815],[104.0132,36.5814],[104.0141,36.5795],[104.0121,36.5767],[104.0159,36.5737],[104.0175,36.5732],[104.0269,36.5729],[104.0287,36.5737],[104.0334,36.5727],[104.0368,36.5738],[104.0398,36.5724],[104.0379,36.5677],[104.0345,36.5658],[104.034,36.5635],[104.0314,36.5626],[104.03,36.5586],[104.026,36.5551],[104.0252,36.5508],[104.027,36.5486],[104.0249,36.5469],[104.0232,36.5428],[104.0244,36.5396],[104.0264,36.5382],[104.0296,36.5379],[104.0317,36.5356],[104.0287,36.5333],[104.0274,36.5285],[104.0242,36.5277],[104.023,36.5239],[104.0208,36.524],[104.0194,36.5217],[104.0196,36.5178],[104.0186,36.5149],[104.0185,36.512],[104.0165,36.5104],[104.0168,36.5083],[104.0151,36.5038],[104.0173,36.5019],[104.0174,36.5002],[104.0135,36.4956],[104.0152,36.4919],[104.0168,36.4909],[104.0174,36.4889],[104.021,36.4869],[104.0243,36.486],[104.024,36.4848],[104.0271,36.4838],[104.0309,36.4844],[104.0352,36.4833],[104.036,36.482],[104.0396,36.4812],[104.0407,36.4789],[104.0397,36.4774],[104.0426,36.4736],[104.0444,36.4725],[104.0445,36.4702],[104.0474,36.4645],[104.0483,36.464],[104.0481,36.4598],[104.0414,36.4569],[104.0401,36.4554],[104.0423,36.4529],[104.0402,36.4486],[104.0417,36.4462],[104.0382,36.4429],[104.0421,36.4391],[104.0452,36.4383],[104.0456,36.4344],[104.0445,36.4312],[104.0457,36.4303],[104.0458,36.4258],[104.0485,36.4226],[104.049,36.4198],[104.0464,36.4145],[104.0492,36.4132],[104.0555,36.414],[104.0609,36.4121],[104.0593,36.4095],[104.057,36.408],[104.0591,36.4069],[104.0622,36.4033],[104.0612,36.402],[104.0658,36.3965],[104.0663,36.3949],[104.0702,36.3957],[104.0705,36.391],[104.0729,36.39],[104.0766,36.3897],[104.0789,36.385],[104.0811,36.383],[104.0864,36.3815],[104.0898,36.3826],[104.0924,36.3809],[104.0923,36.3712],[104.0967,36.3665],[104.1002,36.3621],[104.1032,36.3597],[104.1046,36.3556],[104.1072,36.3532],[104.1131,36.3503],[104.1173,36.3442],[104.1201,36.3437],[104.122,36.3423],[104.1248,36.3419],[104.1266,36.3375],[104.1254,36.3351],[104.123,36.3337],[104.119,36.3328],[104.1164,36.3309],[104.1141,36.3307],[104.1074,36.3269],[104.1069,36.3237],[104.1106,36.3222],[104.111,36.3194],[104.1103,36.317],[104.1137,36.3159],[104.114,36.3117],[104.1118,36.3099],[104.1108,36.307],[104.1144,36.3062],[104.1162,36.3047],[104.1234,36.3048],[104.1261,36.3043],[104.1275,36.3026],[104.1245,36.2994],[104.1228,36.2986],[104.1212,36.2956],[104.1214,36.2927],[104.1193,36.2906],[104.1182,36.2873],[104.1193,36.2841],[104.1172,36.2804],[104.1153,36.2791],[104.1139,36.2753],[104.1139,36.2721],[104.1126,36.2719],[104.1142,36.2681],[104.1143,36.2655],[104.1169,36.2622],[104.1146,36.2605],[104.1143,36.2589],[104.1184,36.2555],[104.121,36.2551],[104.1222,36.2536],[104.1272,36.2508],[104.1322,36.2549],[104.1331,36.2574],[104.1317,36.2583],[104.1299,36.2621],[104.1306,36.2676],[104.1345,36.2754],[104.1352,36.2795],[104.1345,36.283],[104.1371,36.2876],[104.1384,36.2935],[104.1497,36.2981],[104.1572,36.3026],[104.1599,36.303],[104.1617,36.3075],[104.1614,36.3116],[104.1617,36.3157],[104.1627,36.32],[104.1623,36.3233],[104.1645,36.3251],[104.1722,36.3274],[104.1749,36.3293],[104.1772,36.3322],[104.1799,36.3389],[104.1819,36.3421],[104.1837,36.3433],[104.1902,36.3432],[104.1911,36.3427],[104.1924,36.3384],[104.1937,36.3365],[104.1967,36.3362],[104.2002,36.3376],[104.2096,36.3363],[104.2159,36.3368],[104.2195,36.3383],[104.2204,36.3425],[104.2166,36.3452],[104.2155,36.3495],[104.216,36.3514],[104.2193,36.3546],[104.2233,36.3567],[104.2277,36.3576],[104.2367,36.3574],[104.2424,36.3588],[104.2491,36.3612],[104.2558,36.3625],[104.2583,36.3626],[104.2645,36.361],[104.2737,36.3565],[104.2776,36.3554],[104.2808,36.3555],[104.2896,36.3542],[104.296,36.3553],[104.2991,36.3576],[104.3118,36.3646],[104.3132,36.3676],[104.3137,36.3725],[104.3151,36.377],[104.3174,36.3792],[104.3235,36.3795],[104.3287,36.3785],[104.335,36.3781],[104.3382,36.3766],[104.3434,36.3752],[104.3466,36.3757],[104.3517,36.3782],[104.3596,36.3783],[104.3657,36.3804],[104.3756,36.3823],[104.3805,36.3846],[104.3908,36.3852],[104.397,36.3867],[104.3997,36.3878],[104.4016,36.3897]]]]},"properties":{"region_code":"CN-62-6204-620402","parent_region_code":"CN-62-6204","name":"白银区","level":"county","has_children":false,"full_path":"中国 / 甘肃省 / 白银市 / 白银区","source_admin_code":"620402","osm_relation_id":2702850}},
{"type":"Feature","geometry":{"type":"Polygon","coordinates":[[[105.4214,36.3304],[105.4204,36.336],[105.4208,36.34],[105.4179,36.3403],[105.4151,36.3437],[105.4143,36.3465],[105.4095,36.3486],[105.4065,36.3507],[105.4043,36.3566],[105.4009,36.3593],[105.3996,36.3616],[105.4001,36.3641],[105.3975,36.3671],[105.3967,36.3693],[105.3988,36.37],[105.4015,36.3695],[105.4052,36.3701],[105.4074,36.3691],[105.4117,36.3706],[105.4127,36.374],[105.4153,36.3774],[105.4102,36.3839],[105.3978,36.3851],[105.3968,36.3925],[105.3957,36.395],[105.3958,36.3991],[105.3948,36.4011],[105.3932,36.4068],[105.3935,36.414],[105.3933,36.419],[105.3941,36.422],[105.396,36.4243],[105.395,36.4298],[105.3921,36.4323],[105.3872,36.4343],[105.3849,36.4385],[105.3787,36.441],[105.3775,36.439],[105.3743,36.4396],[105.3663,36.4368],[105.3667,36.4324],[105.3636,36.4328],[105.3591,36.4385],[105.3587,36.4412],[105.3597,36.4447],[105.3624,36.4476],[105.3621,36.4488],[105.3659,36.4545],[105.3659,36.4598],[105.3669,36.4614],[105.3637,36.4656],[105.3618,36.471],[105.3628,36.4749],[105.3648,36.4775],[105.3642,36.48],[105.3641,36.4864],[105.3629,36.4891],[105.3573,36.498],[105.3525,36.5036],[105.3503,36.5051],[105.3469,36.509],[105.3415,36.513],[105.3406,36.5151],[105.3382,36.5158],[105.3377,36.5174],[105.3341,36.5177],[105.3305,36.5226],[105.3272,36.5238],[105.3264,36.5261],[105.3221,36.5295],[105.3179,36.5363],[105.3162,36.5365],[105.3116,36.5344],[105.3043,36.5304],[105.3011,36.5253],[105.2967,36.524],[105.2922,36.5267],[105.2889,36.5259],[105.287,36.5269],[105.283,36.5262],[105.278,36.5226],[105.2755,36.5264],[105.2711,36.5262],[105.2678,36.5315],[105.2631,36.5316],[105.2607,36.5347],[105.2564,36.5339],[105.2549,36.5375],[105.2551,36.5393],[105.2539,36.5437],[105.2519,36.5449],[105.2477,36.546],[105.2457,36.5473],[105.2465,36.5513],[105.249,36.5548],[105.2508,36.5542],[105.2545,36.5558],[105.2582,36.5581],[105.2602,36.5578],[105.2636,36.5592],[105.2665,36.5618],[105.2695,36.5617],[105.2719,36.5632],[105.2688,36.5693],[105.2705,36.5739],[105.2693,36.5791],[105.263,36.5854],[105.2632,36.5875],[105.2615,36.5892],[105.2634,36.5915],[105.2671,36.593],[105.2651,36.5959],[105.2577,36.6023],[105.2548,36.6027],[105.2503,36.6018],[105.2461,36.6017],[105.2441,36.6053],[105.2411,36.6128],[105.2379,36.6132],[105.2379,36.6177],[105.2385,36.6199],[105.2381,36.6257],[105.2349,36.6261],[105.2318,36.6255],[105.2293,36.626],[105.2277,36.6284],[105.2244,36.6294],[105.2215,36.6316],[105.2185,36.6301],[105.2164,36.6313],[105.2161,36.6338],[105.2183,36.6364],[105.2182,36.6403],[105.2201,36.646],[105.2201,36.6517],[105.2212,36.6542],[105.2243,36.6589],[105.2237,36.6628],[105.2218,36.6632],[105.2193,36.6669],[105.213,36.6715],[105.2103,36.6727],[105.2101,36.6754],[105.206,36.6778],[105.2035,36.6806],[105.203,36.6846],[105.1989,36.6923],[105.1988,36.6987],[105.1982,36.7016],[105.1991,36.7051],[105.1971,36.7069],[105.1946,36.7074],[105.1921,36.7101],[105.1889,36.7104],[105.1872,36.7125],[105.1835,36.7117],[105.1807,36.7147],[105.1769,36.7157],[105.1757,36.7182],[105.1718,36.7191],[105.1704,36.7207],[105.1669,36.7218],[105.1668,36.7248],[105.1635,36.7267],[105.1605,36.7299],[105.1527,36.734],[105.1509,36.733],[105.1474,36.7354],[105.1419,36.7338],[105.1399,36.732],[105.1378,36.7348],[105.1359,36.7355],[105.1345,36.7381],[105.1307,36.7407],[105.128,36.7409],[105.1271,36.7421],[105.1237,36.7429],[105.1215,36.7456],[105.1203,36.7493],[105.1174,36.7507],[105.1129,36.7552],[105.1078,36.7554],[105.1068,36.7569],[105.1036,36.7582],[105.0988,36.7574],[105.0931,36.7608],[105.0911,36.7597],[105.0839,36.7592],[105.0809,36.757],[105.0807,36.7551],[105.0785,36.7547],[105.0755,36.7528],[105.0754,36.7515],[105.0724,36.7487],[105.0701,36.749],[105.0653,36.7511],[105.0621,36.7504],[105.0593,36.7509],[105.0551,36.7549],[105.0526,36.7566],[105.0507,36.7562],[105.0469,36.7526],[105.0405,36.7528],[105.0324,36.7577],[105.0273,36.7579],[105.0238,36.7598],[105.0226,36.7591],[105.0189,36.7592],[105.0139,36.7605],[105.0106,36.76],[105.0085,36.7612],[105.005,36.7612],[105.0019,36.7636],[105.0016,36.7662],[105.0038,36.7709],[105.0061,36.7735],[105.0057,36.7752],[105.008,36.7778],[105.0068,36.7805],[105.0062,36.7851],[105.0046,36.787],[105.001,36.7867],[104.9984,36.7878],[104.9942,36.7881],[104.992,36.7889],[104.9865,36.7873],[104.985,36.7909],[104.9863,36.7926],[104.9847,36.7967],[104.9808,36.8008],[104.9777,36.8024],[104.9669,36.8048],[104.9615,36.8052],[104.9558,36.8062],[104.9546,36.8072],[104.9536,36.811],[104.9522,36.8127],[104.9474,36.8134],[104.9399,36.8131],[104.9379,36.8145],[104.9362,36.8136],[104.9325,36.8179],[104.9298,36.8183],[104.9282,36.8203],[104.9262,36.8202],[104.9216,36.8179],[104.9183,36.8147],[104.914,36.8163],[104.9083,36.8196],[104.9046,36.8231],[104.898,36.8269],[104.8944,36.8242],[104.8922,36.8238],[104.8909,36.8253],[104.8859,36.8264],[104.8824,36.826],[104.8776,36.8264],[104.8765,36.8276],[104.8731,36.8283],[104.8683,36.8305],[104.8592,36.8351],[104.8517,36.837],[104.849,36.8384],[104.8468,36.8374],[104.8453,36.8397],[104.8429,36.8412],[104.8403,36.8407],[104.8347,36.8416],[104.8327,36.8429],[104.83,36.843],[104.8247,36.846],[104.8211,36.8522],[104.8224,36.8543],[104.8282,36.8548],[104.8298,36.8557],[104.8308,36.8579],[104.837,36.8615],[104.8416,36.8682],[104.8446,36.8766],[104.8419,36.8805],[104.8408,36.8876],[104.8399,36.8902],[104.8437,36.8998],[104.848,36.903],[104.8582,36.915],[104.8615,36.9179],[104.8628,36.9204],[104.8631,36.9235],[104.8615,36.9322],[104.8615,36.9372],[104.8621,36.9405],[104.8594,36.9461],[104.8566,36.9476],[104.8558,36.949],[104.8498,36.9526],[104.8402,36.954],[104.8362,36.9523],[104.8253,36.9492],[104.8159,36.9431],[104.8141,36.9427],[104.8039,36.9439],[104.8032,36.9445],[104.8041,36.9488],[104.809,36.9546],[104.8103,36.9574],[104.8102,36.9602],[104.8075,36.9647],[104.8064,36.9707],[104.8042,36.971],[104.8026,36.9728],[104.8028,36.9745],[104.801,36.976],[104.8007,36.9797],[104.805,36.9858],[104.8044,36.9874],[104.8004,36.9896],[104.7956,36.9899],[104.7891,36.9883],[104.7839,36.9854],[104.7766,36.9794],[104.7731,36.9779],[104.7692,36.9771],[104.7665,36.9802],[104.7668,36.9829],[104.7649,36.9879],[104.7658,36.9907],[104.7641,36.9945],[104.7608,36.9952],[104.7587,36.9946],[104.7524,36.9947],[104.7506,36.9936],[104.747,36.9938],[104.7446,36.9926],[104.7418,36.9928],[104.7404,36.991],[104.7344,36.9916],[104.7264,36.9937],[104.7225,36.9928],[104.7166,36.9931],[104.7161,36.9926],[104.7068,36.9916],[104.702,36.9901],[104.699,36.9906],[104.6925,36.9897],[104.6878,36.9877],[104.6852,36.9886],[104.6815,36.9871],[104.6802,36.988],[104.6774,36.9877],[104.675,36.9861],[104.6735,36.9871],[104.667,36.9871],[104.6653,36.9849],[104.6596,36.9852],[104.6549,36.9864],[104.6542,36.9852],[104.6498,36.9869],[104.6424,36.9864],[104.6393,36.9853],[104.6351,36.9824],[104.6321,36.9828],[104.6307,36.9817],[104.6281,36.9842],[104.626,36.9832],[104.6223,36.9842],[104.6185,36.9799],[104.6166,36.9792],[104.6138,36.9758],[104.6088,36.9788],[104.6041,36.9829],[104.5954,36.9829],[104.5919,36.9846],[104.5856,36.9854],[104.5828,36.9865],[104.5817,36.9882],[104.5735,36.9895],[104.5698,36.9894],[104.5686,36.9907],[104.5653,36.9912],[104.5619,36.9897],[104.5594,36.9894],[104.558,36.9872],[104.5626,36.9808],[104.5618,36.9781],[104.5642,36.9727],[104.5663,36.9697],[104.5684,36.9633],[104.5715,36.9604],[104.5724,36.9581],[104.5721,36.955],[104.5731,36.9517],[104.5725,36.9492],[104.5702,36.9504],[104.5689,36.9492],[104.5626,36.9501],[104.56,36.948],[104.5567,36.9423],[104.5546,36.9407],[104.5506,36.9446],[104.5462,36.9454],[104.5399,36.946],[104.5371,36.9481],[104.5341,36.9513],[104.5311,36.9509],[104.5272,36.952],[104.525,36.9505],[104.5239,36.9469],[104.524,36.9421],[104.5212,36.9391],[104.518,36.9382],[104.5171,36.9364],[104.5171,36.9285],[104.5187,36.9267],[104.5174,36.9231],[104.5177,36.9193],[104.5226,36.9182],[104.5203,36.9159],[104.518,36.9116],[104.5186,36.9096],[104.5155,36.9032],[104.5165,36.9009],[104.512,36.896],[104.5108,36.8933],[104.5115,36.89],[104.509,36.8849],[104.5092,36.8837],[104.505,36.88],[104.5056,36.8779],[104.5074,36.8779],[104.5075,36.8744],[104.505,36.8726],[104.5048,36.87],[104.4927,36.8683],[104.4867,36.8694],[104.4727,36.874],[104.4704,36.8741],[104.4655,36.8755],[104.4608,36.8759],[104.4542,36.8771],[104.4445,36.8744],[104.4436,36.8734],[104.4326,36.8723],[104.4279,36.8713],[104.4195,36.8701],[104.415,36.8656],[104.4108,36.8579],[104.4104,36.8545],[104.4108,36.8482],[104.4133,36.8443],[104.4119,36.8402],[104.4106,36.839],[104.4105,36.8364],[104.4083,36.8357],[104.4024,36.832],[104.4039,36.8299],[104.4067,36.8292],[104.4084,36.8273],[104.4127,36.8259],[104.4173,36.8235],[104.4207,36.8199],[104.4219,36.8168],[104.4211,36.8149],[104.423,36.813],[104.4262,36.8073],[104.425,36.8037],[104.4227,36.8021],[104.4228,36.7992],[104.4212,36.7946],[104.4217,36.7926],[104.4212,36.7889],[104.4225,36.7872],[104.4236,36.7835],[104.4264,36.7791],[104.4283,36.7781],[104.4306,36.7792],[104.4316,36.782],[104.431,36.785],[104.4345,36.792],[104.4388,36.7962],[104.4424,36.7978],[104.4471,36.7982],[104.451,36.7958],[104.4554,36.7964],[104.4564,36.798],[104.4601,36.7992],[104.4637,36.7983],[104.466,36.7991],[104.4709,36.7985],[104.476,36.7961],[104.4783,36.7965],[104.4842,36.7953],[104.4874,36.7957],[104.4918,36.7948],[104.4966,36.7946],[104.5004,36.7963],[104.5053,36.7949],[104.507,36.793],[104.5076,36.7896],[104.5124,36.7894],[104.5135,36.7868],[104.5185,36.7838],[104.5185,36.783],[104.5227,36.7773],[104.5254,36.7762],[104.5276,36.774],[104.5277,36.7705],[104.5307,36.7695],[104.5359,36.7645],[104.5381,36.7635],[104.543,36.7655],[104.5452,36.767],[104.5446,36.7692],[104.5508,36.7674],[104.5565,36.7672],[104.5562,36.7685],[104.5616,36.7674],[104.5648,36.7705],[104.5692,36.7706],[104.5692,36.7719],[104.5719,36.7728],[104.5753,36.7767],[104.5796,36.7769],[104.5823,36.7763],[104.5849,36.7788],[104.5855,36.7806],[104.5931,36.7859],[104.5965,36.7864],[104.5991,36.7814],[104.6068,36.7783],[104.6084,36.7769],[104.612,36.7684],[104.6144,36.7661],[104.6198,36.763],[104.6227,36.762],[104.6286,36.7577],[104.6335,36.7553],[104.6366,36.7519],[104.6369,36.749],[104.638,36.7479],[104.6433,36.7456],[104.6475,36.7433],[104.6509,36.7406],[104.6552,36.7395],[104.6622,36.7386],[104.6661,36.7368],[104.6674,36.7349],[104.6656,36.7283],[104.6659,36.7235],[104.6688,36.7203],[104.6746,36.718],[104.6839,36.7155],[104.6945,36.7135],[104.6979,36.7121],[104.7005,36.7086],[104.7037,36.7084],[104.7071,36.7118],[104.7113,36.7208],[104.7148,36.729],[104.7231,36.7475],[104.7265,36.7594],[104.7278,36.7611],[104.731,36.7628],[104.7415,36.763],[104.7449,36.7627],[104.749,36.7607],[104.7514,36.7585],[104.7528,36.7397],[104.7536,36.7365],[104.7578,36.7322],[104.7683,36.7271],[104.7703,36.7205],[104.7722,36.7169],[104.7771,36.7102],[104.7767,36.7097],[104.7744,36.7011],[104.7761,36.6972],[104.7758,36.6931],[104.7744,36.6861],[104.7691,36.6846],[104.7658,36.6806],[104.7667,36.6777],[104.7694,36.6795],[104.7714,36.6788],[104.7719,36.6752],[104.7775,36.6701],[104.7828,36.6696],[104.785,36.6683],[104.7928,36.6561],[104.795,36.6576],[104.7992,36.6591],[104.8086,36.6618],[104.8164,36.6631],[104.8219,36.6633],[104.821,36.6608],[104.8218,36.6588],[104.821,36.6559],[104.8216,36.6541],[104.8167,36.6523],[104.816,36.6493],[104.8164,36.647],[104.8156,36.6442],[104.8178,36.6385],[104.8225,36.6312],[104.8299,36.6247],[104.8306,36.6217],[104.8364,36.6176],[104.8446,36.615],[104.8498,36.6164],[104.8541,36.6122],[104.8543,36.6102],[104.8524,36.6046],[104.8523,36.6015],[104.8537,36.5957],[104.8524,36.5881],[104.8532,36.5846],[104.8526,36.5808],[104.8509,36.5774],[104.8518,36.5752],[104.8522,36.5713],[104.8514,36.5684],[104.8514,36.5641],[104.8542,36.5609],[104.8581,36.5593],[104.8612,36.5607],[104.8657,36.5608],[104.8702,36.5637],[104.8739,36.5642],[104.8777,36.5673],[104.8817,36.5694],[104.889,36.5745],[104.8902,36.5762],[104.8938,36.5778],[104.8998,36.5789],[104.9026,36.5788],[104.9079,36.5755],[104.9104,36.5756],[104.9134,36.5769],[104.9157,36.5789],[104.9161,36.5809],[104.9183,36.5856],[104.9217,36.5879],[104.925,36.592],[104.9308,36.5942],[104.933,36.5936],[104.9383,36.595],[104.9403,36.5977],[104.9423,36.5978],[104.9471,36.5968],[104.9516,36.5966],[104.9587,36.5952],[104.9611,36.5908],[104.9639,36.5892],[104.9699,36.5878],[104.9766,36.5837],[104.9785,36.5805],[104.9823,36.5787],[104.9856,36.5752],[104.9897,36.5723],[104.9901,36.5713],[104.998,36.5643],[105.0007,36.5637],[105.003,36.5602],[105.0046,36.5565],[105.0073,36.5562],[105.0132,36.5537],[105.0152,36.5534],[105.0218,36.5503],[105.0278,36.5498],[105.0312,36.5522],[105.038,36.5508],[105.0463,36.5505],[105.0482,36.5511],[105.0544,36.5515],[105.057,36.5499],[105.0589,36.5505],[105.0645,36.5464],[105.0647,36.5447],[105.0668,36.5442],[105.0723,36.5417],[105.0782,36.5413],[105.0829,36.5425],[105.0854,36.5447],[105.0874,36.5487],[105.0885,36.5494],[105.0935,36.5486],[105.0959,36.5461],[105.0973,36.543],[105.0988,36.5424],[105.1131,36.5408],[105.1126,36.538],[105.1108,36.5356],[105.1095,36.5324],[105.1096,36.5269],[105.1079,36.5239],[105.1097,36.5218],[105.1149,36.5175],[105.1215,36.5126],[105.1246,36.5115],[105.1328,36.5115],[105.1363,36.5105],[105.1413,36.5069],[105.1483,36.4999],[105.1528,36.4924],[105.1534,36.4897],[105.1531,36.4851],[105.1554,36.4823],[105.1636,36.4814],[105.1652,36.4795],[105.1666,36.4762],[105.1714,36.4714],[105.1807,36.4634],[105.1857,36.4586],[105.1956,36.4515],[105.1959,36.4487],[105.2013,36.4465],[105.2039,36.4446],[105.2056,36.4397],[105.207,36.4385],[105.2135,36.4374],[105.2162,36.4361],[105.2183,36.4318],[105.2177,36.4358],[105.2222,36.4352],[105.2241,36.4321],[105.2279,36.4304],[105.2294,36.4316],[105.2351,36.4299],[105.239,36.4311],[105.2414,36.4342],[105.2463,36.4362],[105.2487,36.4332],[105.2504,36.4344],[105.2515,36.4313],[105.2538,36.4291],[105.2567,36.429],[105.2581,36.4278],[105.2591,36.4231],[105.2579,36.4194],[105.2591,36.4164],[105.2607,36.4153],[105.2617,36.4116],[105.2647,36.409],[105.2687,36.4089],[105.2686,36.4062],[105.2719,36.4048],[105.273,36.4014],[105.2728,36.3972],[105.2756,36.3952],[105.2765,36.391],[105.2767,36.3873],[105.2783,36.3844],[105.2829,36.3862],[105.2855,36.385],[105.29,36.386],[105.2945,36.3847],[105.2967,36.3847],[105.2991,36.3819],[105.3012,36.3761],[105.3014,36.3698],[105.3005,36.3657],[105.3017,36.3625],[105.3055,36.3607],[105.3074,36.355],[105.3067,36.3502],[105.3089,36.3495],[105.3125,36.35],[105.3156,36.3445],[105.3161,36.3424],[105.3196,36.3418],[105.3195,36.3403],[105.3214,36.3385],[105.3231,36.3384],[105.3264,36.3408],[105.3287,36.3388],[105.3311,36.3384],[105.3305,36.342],[105.3326,36.3423],[105.336,36.3413],[105.3399,36.3432],[105.3395,36.3396],[105.3408,36.3389],[105.3423,36.3348],[105.3451,36.3358],[105.3508,36.3332],[105.3553,36.3341],[105.3598,36.3334],[105.361,36.3309],[105.3653,36.3335],[105.366,36.3368],[105.3655,36.3406],[105.366,36.3429],[105.3701,36.3447],[105.3754,36.3497],[105.3782,36.3533],[105.3787,36.3561],[105.3805,36.3584],[105.3826,36.356],[105.3859,36.3548],[105.3875,36.3512],[105.3915,36.3465],[105.3979,36.3406],[105.3998,36.3408],[105.4043,36.3434],[105.4104,36.34],[105.414,36.337],[105.4178,36.3318],[105.4214,36.3304]]]},"properties":{"region_code":"CN-62-6204-620403","parent_region_code":"CN-62-6204","name":"平川区","level":"county","has_children":false,"full_path":"中国 / 甘肃省 / 白银市 / 平川区","source_admin_code":"620403","osm_relation_id":2702849}},
{"type":"Feature","geometry":{"type":"MultiPolygon","coordinates":[[[[104.4016,36.3897],[104.4045,36.3891],[104.409,36.3909],[104.4126,36.3913],[104.4164,36.3904],[104.42,36.387],[104.4236,36.3863],[104.4262,36.3867],[104.4289,36.3882],[104.4318,36.3937],[104.4379,36.3964],[104.4395,36.3983],[104.438,36.4013],[104.4372,36.4059],[104.4361,36.4074],[104.4381,36.4095],[104.4476,36.4132],[104.4495,36.4142],[104.4537,36.4152],[104.4537,36.418],[104.4573,36.4192],[104.4588,36.4222],[104.4584,36.425],[104.4592,36.4267],[104.4615,36.4264],[104.4641,36.428],[104.4752,36.4312],[104.4772,36.4336],[104.4779,36.4386],[104.4832,36.4431],[104.4866,36.4433],[104.4886,36.4417],[104.4908,36.4385],[104.4949,36.4378],[104.499,36.4334],[104.5018,36.4323],[104.5041,36.4285],[104.5021,36.4255],[104.5047,36.4224],[104.5041,36.4197],[104.5062,36.4166],[104.5058,36.4125],[104.5074,36.4095],[104.5045,36.4063],[104.5067,36.4028],[104.5051,36.4006],[104.5034,36.3952],[104.5071,36.3922],[104.5059,36.3902],[104.5067,36.3869],[104.5078,36.3858],[104.5055,36.3812],[104.507,36.3804],[104.5083,36.3767],[104.5054,36.3747],[104.5075,36.373],[104.5044,36.3697],[104.5048,36.3686],[104.5027,36.3664],[104.5035,36.3638],[104.5024,36.359],[104.5001,36.3553],[104.5007,36.3526],[104.4984,36.3502],[104.4982,36.347],[104.5,36.3426],[104.4997,36.3402],[104.5016,36.3363],[104.5012,36.3326],[104.5037,36.3294],[104.5019,36.3269],[104.5024,36.3231],[104.5003,36.3226],[104.5004,36.3202],[104.4989,36.3179],[104.4997,36.3136],[104.5011,36.311],[104.5021,36.3076],[104.5059,36.3052],[104.5057,36.3022],[104.5071,36.3012],[104.5075,36.2974],[104.5114,36.2938],[104.5146,36.2902],[104.5139,36.288],[104.5144,36.2857],[104.5161,36.2849],[104.5167,36.2809],[104.5152,36.2777],[104.5166,36.2771],[104.5152,36.2749],[104.516,36.2704],[104.5179,36.2677],[104.5196,36.2673],[104.5208,36.2648],[104.5196,36.2628],[104.5216,36.2612],[104.5246,36.2627],[104.5275,36.2621],[104.5295,36.2605],[104.5304,36.257],[104.5295,36.2547],[104.5319,36.2534],[104.5331,36.251],[104.536,36.2529],[104.5395,36.2515],[104.5405,36.2491],[104.5379,36.2472],[104.5369,36.2429],[104.5392,36.241],[104.54,36.2381],[104.5382,36.236],[104.5382,36.2303],[104.5362,36.2287],[104.5316,36.226],[104.528,36.2226],[104.5268,36.2205],[104.5249,36.2208],[104.5235,36.218],[104.5218,36.2171],[104.5161,36.2167],[104.514,36.2143],[104.5103,36.2142],[104.5082,36.2101],[104.5099,36.206],[104.5089,36.2044],[104.5099,36.2015],[104.5136,36.1995],[104.5137,36.197],[104.5156,36.1971],[104.5159,36.1945],[104.5179,36.1934],[104.5213,36.1868],[104.5212,36.1853],[104.5238,36.1793],[104.5248,36.1786],[104.5265,36.1742],[104.5282,36.1682],[104.5313,36.1695],[104.5362,36.17],[104.5433,36.1723],[104.544,36.1718],[104.5493,36.172],[104.5519,36.1715],[104.5544,36.1721],[104.5568,36.1713],[104.56,36.1688],[104.5688,36.1687],[104.5727,36.1695],[104.5746,36.1684],[104.5728,36.1733],[104.5692,36.1757],[104.5668,36.1751],[104.5649,36.1762],[104.5621,36.1763],[104.5587,36.1781],[104.5553,36.1772],[104.5556,36.1827],[104.5596,36.1855],[104.5602,36.1877],[104.5625,36.1895],[104.5638,36.1939],[104.5709,36.1953],[104.5735,36.1979],[104.588,36.2036],[104.5961,36.2094],[104.6031,36.2127],[104.616,36.216],[104.6217,36.2164],[104.6267,36.2162],[104.632,36.2153],[104.6357,36.2142],[104.6432,36.2159],[104.6501,36.2186],[104.6647,36.2253],[104.6671,36.2276],[104.6695,36.2311],[104.6719,36.2337],[104.6763,36.2371],[104.6798,36.2358],[104.6818,36.2367],[104.6898,36.2348],[104.6946,36.2352],[104.6985,36.2362],[104.7026,36.2359],[104.7046,36.2347],[104.7077,36.2369],[104.7099,36.2369],[104.7113,36.2388],[104.7153,36.2399],[104.7209,36.2439],[104.7243,36.2451],[104.7261,36.2486],[104.7317,36.2522],[104.7374,36.2545],[104.743,36.2557],[104.7493,36.2599],[104.7547,36.2601],[104.7583,36.2617],[104.7626,36.2669],[104.767,36.2672],[104.7711,36.2714],[104.7762,36.2747],[104.7788,36.2756],[104.781,36.2788],[104.7834,36.2808],[104.7923,36.2851],[104.7934,36.2885],[104.7974,36.287],[104.7995,36.2881],[104.8014,36.293],[104.8063,36.2982],[104.8118,36.3024],[104.8154,36.3059],[104.8207,36.3091],[104.8246,36.3123],[104.8244,36.3142],[104.826,36.316],[104.8285,36.317],[104.8287,36.3192],[104.8324,36.3222],[104.8327,36.3239],[104.8356,36.3254],[104.8356,36.3278],[104.8368,36.3299],[104.8422,36.333],[104.8428,36.3353],[104.8452,36.3353],[104.8486,36.3372],[104.8493,36.3387],[104.8521,36.3398],[104.8545,36.3395],[104.855,36.3361],[104.8579,36.3344],[104.8577,36.332],[104.8587,36.3294],[104.8607,36.3287],[104.864,36.3254],[104.8655,36.3248],[104.8693,36.3251],[104.8709,36.3214],[104.8717,36.3141],[104.8744,36.3121],[104.8813,36.3155],[104.8964,36.3211],[104.8997,36.3215],[104.9063,36.3235],[104.9158,36.3243],[104.9261,36.3233],[104.9301,36.3255],[104.9296,36.3295],[104.9326,36.3315],[104.9337,36.3363],[104.9385,36.3429],[104.9413,36.3455],[104.9477,36.3458],[104.9533,36.3474],[104.9621,36.3482],[104.9704,36.3499],[104.9762,36.3503],[104.9834,36.3514],[104.9895,36.3509],[104.9919,36.3499],[104.9904,36.346],[104.9905,36.3443],[104.9877,36.3404],[104.9877,36.3383],[104.9919,36.3391],[104.9949,36.3402],[104.9982,36.3426],[105.0012,36.3427],[105.0031,36.3439],[105.0047,36.3474],[105.008,36.3486],[105.0111,36.3484],[105.0127,36.3461],[105.0158,36.344],[105.0205,36.3423],[105.0235,36.3447],[105.0245,36.3465],[105.0285,36.3502],[105.0314,36.3491],[105.031,36.3472],[105.0271,36.3446],[105.0256,36.3423],[105.0233,36.3414],[105.0227,36.3387],[105.0275,36.3334],[105.0286,36.3299],[105.0329,36.3309],[105.0419,36.3294],[105.0492,36.3272],[105.0498,36.3265],[105.0552,36.3244],[105.0598,36.3244],[105.0622,36.3235],[105.0651,36.3245],[105.0734,36.3243],[105.0798,36.3223],[105.0849,36.3219],[105.0884,36.3209],[105.0898,36.3186],[105.0946,36.3209],[105.0966,36.32],[105.0991,36.3211],[105.0987,36.3244],[105.1058,36.3243],[105.1102,36.3257],[105.1114,36.3292],[105.1112,36.3323],[105.1084,36.3357],[105.1019,36.3395],[105.101,36.3412],[105.1029,36.3443],[105.1019,36.3482],[105.1026,36.3514],[105.1006,36.3544],[105.1019,36.3571],[105.1067,36.3595],[105.1067,36.3606],[105.1138,36.3605],[105.1182,36.3539],[105.1229,36.3502],[105.1309,36.3488],[105.1351,36.3468],[105.1375,36.3449],[105.1396,36.3451],[105.1409,36.3466],[105.1429,36.3463],[105.1443,36.3485],[105.1464,36.3483],[105.1484,36.3506],[105.1474,36.3551],[105.1489,36.3567],[105.1529,36.3572],[105.154,36.3629],[105.1564,36.3629],[105.1585,36.3642],[105.1562,36.3686],[105.1547,36.3689],[105.1534,36.3712],[105.143,36.3703],[105.1426,36.372],[105.1488,36.3749],[105.1507,36.3774],[105.1528,36.3783],[105.1565,36.3773],[105.1587,36.378],[105.1601,36.3768],[105.1637,36.3769],[105.164,36.38],[105.1668,36.3815],[105.1699,36.382],[105.1722,36.3841],[105.1714,36.3885],[105.1746,36.39],[105.179,36.3907],[105.1863,36.3946],[105.1918,36.395],[105.1954,36.3961],[105.1971,36.3997],[105.1947,36.405],[105.1985,36.4091],[105.2016,36.4113],[105.2007,36.414],[105.1989,36.4141],[105.1985,36.418],[105.2025,36.4192],[105.204,36.4189],[105.2044,36.422],[105.2035,36.4243],[105.2063,36.4256],[105.2077,36.4238],[105.2124,36.4213],[105.2159,36.4237],[105.2189,36.4248],[105.2183,36.4318],[105.2162,36.4361],[105.2135,36.4374],[105.207,36.4385],[105.2056,36.4397],[105.2039,36.4446],[105.2013,36.4465],[105.1959,36.4487],[105.1956,36.4515],[105.1857,36.4586],[105.1807,36.4634],[105.1714,36.4714],[105.1666,36.4762],[105.1652,36.4795],[105.1636,36.4814],[105.1554,36.4823],[105.1531,36.4851],[105.1534,36.4897],[105.1528,36.4924],[105.1483,36.4999],[105.1413,36.5069],[105.1363,36.5105],[105.1328,36.5115],[105.1246,36.5115],[105.1215,36.5126],[105.1149,36.5175],[105.1097,36.5218],[105.1079,36.5239],[105.1096,36.5269],[105.1095,36.5324],[105.1108,36.5356],[105.1126,36.538],[105.1131,36.5408],[105.0988,36.5424],[105.0973,36.543],[105.0959,36.5461],[105.0935,36.5486],[105.0885,36.5494],[105.0874,36.5487],[105.0854,36.5447],[105.0829,36.5425],[105.0782,36.5413],[105.0723,36.5417],[105.0668,36.5442],[105.0647,36.5447],[105.0645,36.5464],[105.0589,36.5505],[105.057,36.5499],[105.0544,36.5515],[105.0482,36.5511],[105.0463,36.5505],[105.038,36.5508],[105.0312,36.5522],[105.0278,36.5498],[105.0218,36.5503],[105.0152,36.5534],[105.0132,36.5537],[105.0073,36.5562],[105.0046,36.5565],[105.003,36.5602],[105.0007,36.5637],[104.998,36.5643],[104.9901,36.5713],[104.9897,36.5723],[104.9856,36.5752],[104.9823,36.5787],[104.9785,36.5805],[104.9766,36.5837],[104.9699,36.5878],[104.9639,36.5892],[104.9611,36.5908],[104.9587,36.5952],[104.9516,36.5966],[104.9471,36.5968],[104.9423,36.5978],[104.9403,36.5977],[104.9383,36.595],[104.933,36.5936],[104.9308,36.5942],[104.925,36.592],[104.9217,36.5879],[104.9183,36.5856],[104.9161,36.5809],[104.9157,36.5789],[104.9134,36.5769],[104.9104,36.5756],[104.9079,36.5755],[104.9026,36.5788],[104.8998,36.5789],[104.8938,36.5778],[104.8902,36.5762],[104.889,36.5745],[104.8817,36.5694],[104.8777,36.5673],[104.8739,36.5642],[104.8702,36.5637],[104.8657,36.5608],[104.8612,36.5607],[104.8581,36.5593],[104.8542,36.5609],[104.8514,36.5641],[104.8514,36.5684],[104.8522,36.5713],[104.8518,36.5752],[104.8509,36.5774],[104.8526,36.5808],[104.8532,36.5846],[104.8524,36.5881],[104.8537,36.5957],[104.8523,36.6015],[104.8524,36.6046],[104.8543,36.6102],[104.8541,36.6122],[104.8498,36.6164],[104.8446,36.615],[104.8364,36.6176],[104.8306,36.6217],[104.8299,36.6247],[104.8225,36.6312],[104.8178,36.6385],[104.8156,36.6442],[104.8164,36.647],[104.816,36.6493],[104.8167,36.6523],[104.8216,36.6541],[104.821,36.6559],[104.8218,36.6588],[104.821,36.6608],[104.8219,36.6633],[104.8164,36.6631],[104.8086,36.6618],[104.7992,36.6591],[104.795,36.6576],[104.7928,36.6561],[104.785,36.6683],[104.7828,36.6696],[104.7775,36.6701],[104.7719,36.6752],[104.7714,36.6788],[104.7694,36.6795],[104.7667,36.6777],[104.7658,36.6806],[104.7691,36.6846],[104.7744,36.6861],[104.7758,36.6931],[104.7761,36.6972],[104.7744,36.7011],[104.7767,36.7097],[104.7771,36.7102],[104.7722,36.7169],[104.7703,36.7205],[104.7683,36.7271],[104.7578,36.7322],[104.7536,36.7365],[104.7528,36.7397],[104.7514,36.7585],[104.749,36.7607],[104.7449,36.7627],[104.7415,36.763],[104.731,36.7628],[104.7278,36.7611],[104.7265,36.7594],[104.7231,36.7475],[104.7148,36.729],[104.7113,36.7208],[104.7071,36.7118],[104.7037,36.7084],[104.7005,36.7086],[104.6979,36.7121],[104.6945,36.7135],[104.6839,36.7155],[104.6746,36.718],[104.6688,36.7203],[104.6659,36.7235],[104.6656,36.7283],[104.6674,36.7349],[104.6661,36.7368],[104.6622,36.7386],[104.6552,36.7395],[104.6509,36.7406],[104.6475,36.7433],[104.6433,36.7456],[104.638,36.7479],[104.6369,36.749],[104.6366,36.7519],[104.6335,36.7553],[104.6286,36.7577],[104.6227,36.762],[104.6198,36.763],[104.6144,36.7661],[104.612,36.7684],[104.6084,36.7769],[104.6068,36.7783],[104.5991,36.7814],[104.5965,36.7864],[104.5931,36.7859],[104.5855,36.7806],[104.5849,36.7788],[104.5823,36.7763],[104.5796,36.7769],[104.5753,36.7767],[104.5719,36.7728],[104.5692,36.7719],[104.5692,36.7706],[104.5648,36.7705],[104.5616,36.7674],[104.5562,36.7685],[104.5565,36.7672],[104.5508,36.7674],[104.5446,36.7692],[104.5452,36.767],[104.543,36.7655],[104.5381,36.7635],[104.5359,36.7645],[104.5307,36.7695],[104.5277,36.7705],[104.5276,36.774],[104.5254,36.7762],[104.5227,36.7773],[104.5185,36.783],[104.5185,36.7838],[104.5135,36.7868],[104.5124,36.7894],[104.5076,36.7896],[104.507,36.793],[104.5053,36.7949],[104.5004,36.7963],[104.4966,36.7946],[104.4918,36.7948],[104.4874,36.7957],[104.4842,36.7953],[104.4783,36.7965],[104.476,36.7961],[104.4709,36.7985],[104.466,36.7991],[104.4637,36.7983],[104.4601,36.7992],[104.4564,36.798],[104.4554,36.7964],[104.451,36.7958],[104.4471,36.7982],[104.4424,36.7978],[104.4388,36.7962],[104.4345,36.792],[104.431,36.785],[104.4316,36.782],[104.4306,36.7792],[104.4283,36.7781],[104.4264,36.7791],[104.4236,36.7835],[104.4245,36.7805],[104.4208,36.7795],[104.4179,36.7776],[104.4187,36.7754],[104.4153,36.766],[104.415,36.7625],[104.4123,36.7596],[104.4099,36.7536],[104.4104,36.7504],[104.4088,36.7459],[104.4058,36.7433],[104.4009,36.7437],[104.3978,36.7407],[104.3913,36.7411],[104.3909,36.738],[104.3881,36.7386],[104.3859,36.7374],[104.3823,36.7378],[104.3808,36.7353],[104.3762,36.7337],[104.3753,36.7308],[104.3682,36.7294],[104.3673,36.7282],[104.36,36.7291],[104.3573,36.7266],[104.3529,36.728],[104.3521,36.7304],[104.3483,36.7345],[104.349,36.7365],[104.3462,36.7394],[104.3415,36.7397],[104.3393,36.7449],[104.3399,36.7475],[104.3373,36.7504],[104.337,36.7525],[104.3382,36.7551],[104.3367,36.7612],[104.334,36.7626],[104.3287,36.7684],[104.3239,36.7653],[104.3181,36.7633],[104.32,36.761],[104.3197,36.7575],[104.3181,36.7552],[104.3163,36.7558],[104.3145,36.7541],[104.3112,36.753],[104.3111,36.7493],[104.3133,36.7482],[104.3136,36.746],[104.3112,36.743],[104.3114,36.7403],[104.3102,36.7366],[104.3085,36.7356],[104.3069,36.7325],[104.3054,36.7313],[104.3002,36.7336],[104.2962,36.7343],[104.2948,36.7335],[104.2942,36.7301],[104.2951,36.7277],[104.2915,36.726],[104.289,36.7301],[104.2874,36.731],[104.2811,36.7312],[104.2786,36.7309],[104.2776,36.7261],[104.276,36.7242],[104.2728,36.7243],[104.2684,36.7234],[104.2668,36.721],[104.2666,36.7178],[104.2697,36.7125],[104.2696,36.7104],[104.2711,36.7083],[104.2702,36.7066],[104.271,36.7038],[104.271,36.701],[104.2747,36.6974],[104.2737,36.694],[104.2779,36.6912],[104.2795,36.6871],[104.2771,36.6856],[104.2774,36.6832],[104.2796,36.6804],[104.2826,36.6789],[104.283,36.6774],[104.2887,36.6743],[104.2914,36.6745],[104.2923,36.6717],[104.2949,36.6696],[104.2946,36.6658],[104.2888,36.6655],[104.2874,36.6648],[104.2849,36.6616],[104.2857,36.6585],[104.283,36.655],[104.2836,36.652],[104.2823,36.6499],[104.2814,36.6458],[104.2777,36.6405],[104.2719,36.6384],[104.2695,36.6395],[104.2668,36.6397],[104.2627,36.6355],[104.2622,36.6303],[104.2603,36.6269],[104.2593,36.6205],[104.2599,36.6173],[104.2591,36.6163],[104.2602,36.6101],[104.2675,36.6044],[104.2687,36.6026],[104.2716,36.6009],[104.2773,36.5961],[104.2822,36.5927],[104.2856,36.5916],[104.2855,36.5894],[104.288,36.5874],[104.2864,36.5845],[104.2859,36.5817],[104.2925,36.5768],[104.2933,36.5749],[104.2956,36.574],[104.2997,36.576],[104.3001,36.5739],[104.3021,36.5738],[104.3014,36.5712],[104.3032,36.57],[104.304,36.5664],[104.3036,36.5631],[104.3056,36.5604],[104.3048,36.5568],[104.3075,36.5535],[104.3103,36.549],[104.3162,36.5477],[104.3149,36.5465],[104.3138,36.5433],[104.3162,36.5378],[104.3209,36.5354],[104.3241,36.5351],[104.3317,36.5262],[104.3327,36.5211],[104.335,36.5189],[104.336,36.5139],[104.3391,36.5104],[104.3388,36.5083],[104.3428,36.5064],[104.3455,36.504],[104.3474,36.5036],[104.3472,36.5013],[104.351,36.4981],[104.3539,36.4975],[104.3538,36.4957],[104.3552,36.4936],[104.3602,36.4903],[104.3676,36.4892],[104.3703,36.4906],[104.3751,36.4898],[104.3746,36.4876],[104.3787,36.4846],[104.3795,36.4833],[104.3824,36.4825],[104.3823,36.4803],[104.3857,36.4801],[104.3882,36.4815],[104.3936,36.476],[104.3958,36.4722],[104.3997,36.471],[104.4022,36.4692],[104.4035,36.4639],[104.4053,36.4625],[104.4091,36.4522],[104.4088,36.4497],[104.4098,36.4402],[104.4139,36.4364],[104.4007,36.4306],[104.3937,36.4282],[104.3901,36.4253],[104.3889,36.4233],[104.388,36.4196],[104.3888,36.4124],[104.3893,36.4106],[104.3926,36.4069],[104.3994,36.4005],[104.4025,36.3937],[104.4016,36.3897]],[[104.5456,36.6837],[104.5516,36.6874],[104.556,36.6887],[104.5578,36.6887],[104.5605,36.6902],[104.5612,36.6942],[104.5645,36.6957],[104.5633,36.6971],[104.5641,36.6992],[104.5662,36.6999],[104.5671,36.7019],[104.5695,36.7032],[104.5715,36.7059],[104.5743,36.7073],[104.5779,36.7072],[104.5796,36.708],[104.583,36.7078],[104.5827,36.7057],[104.5844,36.7047],[104.5822,36.7022],[104.5736,36.7027],[104.5702,36.7001],[104.5679,36.6969],[104.5643,36.6953],[104.5619,36.6927],[104.561,36.6901],[104.5583,36.6885],[104.5558,36.6884],[104.5544,36.6853],[104.556,36.6825],[104.5503,36.6806],[104.5464,36.6815],[104.5456,36.6837]]],[[[105.1991,36.7051],[105.2059,36.7148],[105.2079,36.7196],[105.211,36.7246],[105.2126,36.7291],[105.2161,36.7299],[105.2184,36.7314],[105.2207,36.7315],[105.2237,36.7337],[105.2255,36.7314],[105.2281,36.7321],[105.231,36.7314],[105.2351,36.7323],[105.2359,36.7332],[105.2352,36.741],[105.2369,36.7415],[105.2429,36.7408],[105.2478,36.7407],[105.2503,36.7416],[105.2574,36.741],[105.2627,36.7391],[105.2679,36.739],[105.2692,36.7412],[105.2686,36.7446],[105.2701,36.7458],[105.2714,36.7518],[105.2741,36.7528],[105.275,36.7517],[105.2803,36.75],[105.2892,36.7496],[105.2976,36.7459],[105.3022,36.7424],[105.3065,36.7409],[105.3126,36.7421],[105.3189,36.7447],[105.3245,36.7492],[105.3269,36.752],[105.3271,36.755],[105.3294,36.7622],[105.3334,36.7624],[105.3376,36.7645],[105.336,36.7716],[105.3334,36.7769],[105.333,36.7798],[105.3315,36.7841],[105.3324,36.7895],[105.3302,36.7956],[105.3309,36.7983],[105.3303,36.8016],[105.3278,36.8061],[105.325,36.8048],[105.323,36.8052],[105.3145,36.8102],[105.31,36.8142],[105.3064,36.8166],[105.3018,36.8187],[105.2976,36.8222],[105.2949,36.826],[105.2948,36.8322],[105.2902,36.8336],[105.2886,36.8351],[105.2894,36.8395],[105.2918,36.839],[105.2938,36.8435],[105.2759,36.8517],[105.2777,36.8559],[105.2758,36.8621],[105.2768,36.8658],[105.2753,36.8696],[105.2716,36.8701],[105.2561,36.8819],[105.2486,36.8882],[105.2448,36.8917],[105.2416,36.8887],[105.2387,36.8904],[105.2419,36.8939],[105.2366,36.8966],[105.2333,36.894],[105.2315,36.8941],[105.2242,36.8871],[105.2226,36.8862],[105.2214,36.8893],[105.2207,36.8939],[105.2161,36.8911],[105.2146,36.8928],[105.207,36.8955],[105.2029,36.8976],[105.1996,36.896],[105.1949,36.8971],[105.1939,36.8948],[105.19,36.8935],[105.1881,36.8917],[105.1883,36.8871],[105.1868,36.8861],[105.1751,36.8921],[105.1785,36.8976],[105.1747,36.899],[105.1755,36.9003],[105.1794,36.8986],[105.1803,36.9014],[105.1795,36.9104],[105.1781,36.9165],[105.1739,36.929],[105.183,36.926],[105.1803,36.9289],[105.1818,36.9307],[105.1828,36.9358],[105.181,36.9364],[105.1823,36.9414],[105.1782,36.9436],[105.1797,36.9451],[105.1758,36.9469],[105.1756,36.9498],[105.174,36.9557],[105.174,36.959],[105.1711,36.9626],[105.1653,36.967],[105.1645,36.9708],[105.1624,36.9766],[105.1613,36.9813],[105.1611,36.9886],[105.1616,36.9946],[105.156,36.9963],[105.1506,36.9963],[105.1435,36.995],[105.1398,36.9952],[105.1353,36.9963],[105.1301,36.9957],[105.1253,36.9959],[105.118,36.9974],[105.1139,36.9995],[105.1073,36.9997],[105.1035,37.001],[105.0965,37.0041],[105.0922,37.0052],[105.0866,37.0092],[105.0792,37.0119],[105.0748,37.0125],[105.0726,37.0119],[105.0709,37.0136],[105.0657,37.0157],[105.0611,37.0184],[105.0565,37.0219],[105.0544,37.0225],[105.0489,37.0192],[105.0459,37.0196],[105.0429,37.0166],[105.0399,37.0143],[105.0376,37.0107],[105.0357,37.0063],[105.0278,37.0065],[105.0246,37.01],[105.0204,37.0113],[105.0119,37.0152],[105.0076,37.0167],[105.0094,37.0261],[105.0102,37.0316],[105.0078,37.0321],[105.0012,37.0351],[104.9883,37.0344],[104.9858,37.0382],[104.9844,37.0371],[104.9827,37.0332],[104.9771,37.0327],[104.968,37.0313],[104.9669,37.0303],[104.9625,37.0312],[104.9513,37.0396],[104.9515,37.0529],[104.9514,37.0738],[104.9503,37.0761],[104.9512,37.0781],[104.9452,37.0821],[104.9411,37.0835],[104.9287,37.0862],[104.922,37.091],[104.9173,37.0924],[104.9162,37.094],[104.9133,37.0946],[104.9126,37.0982],[104.9114,37.1003],[104.913,37.1014],[104.9132,37.1043],[104.9172,37.1068],[104.9178,37.1098],[104.9168,37.1114],[104.9144,37.1126],[104.913,37.1167],[104.9094,37.1196],[104.9083,37.1221],[104.9052,37.123],[104.904,37.1252],[104.901,37.1253],[104.8957,37.1273],[104.895,37.1287],[104.8964,37.1312],[104.8948,37.1346],[104.8971,37.1363],[104.8967,37.14],[104.8904,37.1444],[104.8908,37.1466],[104.8899,37.1496],[104.8872,37.1539],[104.8852,37.1585],[104.8805,37.1598],[104.8799,37.1613],[104.8775,37.1623],[104.8769,37.1643],[104.8723,37.1667],[104.8701,37.1669],[104.8668,37.1696],[104.8649,37.1697],[104.8617,37.1723],[104.8621,37.1782],[104.8608,37.1802],[104.858,37.1813],[104.8548,37.1838],[104.8547,37.1871],[104.8557,37.19],[104.8547,37.1927],[104.8556,37.1958],[104.8539,37.1976],[104.8558,37.2002],[104.8554,37.2041],[104.8533,37.2067],[104.855,37.2112],[104.8519,37.2129],[104.8493,37.2128],[104.8474,37.2138],[104.8447,37.2172],[104.8379,37.219],[104.8289,37.2224],[104.824,37.2276],[104.8152,37.2292],[104.8117,37.2304],[104.8065,37.2309],[104.8035,37.2341],[104.7973,37.2307],[104.7933,37.2303],[104.7902,37.2287],[104.7897,37.2312],[104.7878,37.2324],[104.7875,37.2352],[104.7833,37.2396],[104.7828,37.2408],[104.7781,37.244],[104.7736,37.2461],[104.7711,37.246],[104.7698,37.2441],[104.7635,37.2393],[104.759,37.2375],[104.7552,37.2385],[104.7528,37.2358],[104.7492,37.2368],[104.7465,37.2344],[104.7453,37.2316],[104.7452,37.2292],[104.7384,37.2257],[104.7344,37.2211],[104.7297,37.2205],[104.7274,37.2188],[104.7265,37.2151],[104.7222,37.2123],[104.7154,37.2095],[104.7158,37.2073],[104.711,37.2086],[104.7074,37.2084],[104.7068,37.2074],[104.7005,37.2077],[104.6987,37.2057],[104.693,37.2055],[104.6893,37.2043],[104.6863,37.2059],[104.6825,37.2048],[104.6812,37.2028],[104.6774,37.2029],[104.6751,37.205],[104.6656,37.2034],[104.6629,37.2065],[104.6604,37.2083],[104.6586,37.2082],[104.6572,37.2046],[104.6549,37.2047],[104.6518,37.2032],[104.6462,37.2042],[104.6423,37.2045],[104.6397,37.2024],[104.6353,37.2015],[104.6331,37.2023],[104.6282,37.2027],[104.6243,37.2046],[104.6226,37.2065],[104.6222,37.2122],[104.6194,37.2147],[104.6167,37.2157],[104.6147,37.2189],[104.6121,37.221],[104.6071,37.2222],[104.6065,37.2271],[104.6036,37.2302],[104.604,37.2315],[104.6014,37.2371],[104.5991,37.2383],[104.5994,37.2406],[104.5969,37.2446],[104.5992,37.2475],[104.5982,37.258],[104.6084,37.2721],[104.6088,37.2775],[104.606,37.2758],[104.6022,37.2721],[104.5901,37.2689],[104.5865,37.266],[104.5835,37.2647],[104.5799,37.2647],[104.5754,37.2629],[104.5724,37.2611],[104.5608,37.2646],[104.5584,37.2663],[104.5552,37.2659],[104.553,37.2642],[104.5531,37.2619],[104.5553,37.2585],[104.5594,37.2553],[104.5602,37.252],[104.5566,37.2482],[104.5545,37.2474],[104.5506,37.2476],[104.5409,37.2508],[104.5351,37.2522],[104.5325,37.2518],[104.5317,37.2501],[104.5322,37.2466],[104.5354,37.2408],[104.5359,37.2384],[104.5351,37.2346],[104.534,37.2336],[104.5302,37.2348],[104.5278,37.2392],[104.5231,37.2401],[104.5176,37.2366],[104.5163,37.2328],[104.5149,37.2309],[104.5121,37.2302],[104.5089,37.2332],[104.5052,37.2356],[104.5035,37.2356],[104.5024,37.2332],[104.5042,37.2301],[104.5087,37.2271],[104.5091,37.2242],[104.5072,37.2225],[104.504,37.2215],[104.4997,37.2228],[104.4978,37.224],[104.4881,37.2266],[104.4837,37.2262],[104.4823,37.2248],[104.4809,37.2211],[104.4809,37.2164],[104.4783,37.2105],[104.474,37.2042],[104.4688,37.2012],[104.4658,37.199],[104.46,37.1971],[104.4512,37.1948],[104.4417,37.1939],[104.4374,37.196],[104.4319,37.1973],[104.4259,37.1975],[104.4224,37.1945],[104.4166,37.1922],[104.4139,37.1934],[104.411,37.1958],[104.4046,37.1959],[104.4022,37.1978],[104.3986,37.196],[104.3936,37.1897],[104.3893,37.1865],[104.3834,37.1832],[104.3794,37.1822],[104.3717,37.1848],[104.3667,37.184],[104.3609,37.1796],[104.3576,37.1785],[104.3527,37.1781],[104.349,37.1786],[104.3372,37.1822],[104.3336,37.1822],[104.326,37.1813],[104.3216,37.1799],[104.3171,37.1778],[104.3065,37.1743],[104.2997,37.1727],[104.2969,37.1716],[104.2941,37.1696],[104.29,37.1632],[104.2902,37.161],[104.2964,37.1533],[104.299,37.1526],[104.3038,37.1546],[104.3114,37.1554],[104.3183,37.1558],[104.3215,37.1543],[104.3237,37.1509],[104.3277,37.1425],[104.3303,37.1384],[104.3325,37.1366],[104.3414,37.1329],[104.3515,37.1272],[104.3515,37.1245],[104.3467,37.1222],[104.3408,37.123],[104.3334,37.1247],[104.3261,37.1271],[104.3198,37.1318],[104.3151,37.1347],[104.3106,37.1364],[104.3049,37.1366],[104.3001,37.1355],[104.2974,37.1331],[104.2965,37.129],[104.2971,37.1259],[104.3003,37.1191],[104.3004,37.1151],[104.2995,37.1129],[104.2949,37.1074],[104.2915,37.1051],[104.2903,37.1016],[104.2912,37.0986],[104.2935,37.0944],[104.2944,37.0888],[104.2908,37.0869],[104.2852,37.0868],[104.2825,37.0861],[104.2798,37.0835],[104.2795,37.081],[104.2823,37.0744],[104.2816,37.0716],[104.2779,37.0696],[104.2738,37.0699],[104.2708,37.0693],[104.27,37.0675],[104.2741,37.0624],[104.2718,37.0595],[104.2729,37.0571],[104.273,37.0515],[104.2695,37.0471],[104.2774,37.0408],[104.2795,37.0355],[104.2788,37.0328],[104.2796,37.0271],[104.2819,37.0233],[104.2867,37.0226],[104.2923,37.0202],[104.2973,37.0206],[104.3001,37.0196],[104.3024,37.0198],[104.3048,37.0179],[104.3123,37.0182],[104.3142,37.0153],[104.3163,37.0137],[104.3192,37.0133],[104.3224,37.0113],[104.3247,37.0077],[104.3264,37.0036],[104.3268,36.9999],[104.3281,36.997],[104.3278,36.991],[104.3254,36.9893],[104.3226,36.985],[104.3192,36.9812],[104.3145,36.9784],[104.3119,36.9759],[104.3112,36.974],[104.3119,36.9698],[104.3078,36.9653],[104.3089,36.9606],[104.3156,36.9555],[104.3181,36.9498],[104.3175,36.9457],[104.3153,36.9418],[104.3161,36.9393],[104.32,36.937],[104.321,36.9303],[104.3207,36.9268],[104.3195,36.9241],[104.3196,36.922],[104.321,36.9183],[104.3203,36.9157],[104.3153,36.9133],[104.3081,36.9113],[104.3027,36.9086],[104.3021,36.9037],[104.3029,36.9025],[104.3099,36.8993],[104.3187,36.898],[104.3235,36.8982],[104.3314,36.9014],[104.3357,36.9046],[104.3434,36.909],[104.3485,36.9122],[104.354,36.9133],[104.3578,36.913],[104.3609,36.9117],[104.361,36.9092],[104.3634,36.9082],[104.3646,36.9059],[104.3658,36.9004],[104.3652,36.8984],[104.3704,36.895],[104.3743,36.8912],[104.3811,36.8905],[104.3835,36.8885],[104.3859,36.8826],[104.3859,36.8797],[104.3872,36.8763],[104.3888,36.8756],[104.3929,36.8759],[104.3939,36.8727],[104.395,36.8718],[104.3945,36.8687],[104.3987,36.8666],[104.3998,36.8611],[104.4024,36.8549],[104.4046,36.8537],[104.4066,36.8545],[104.4085,36.8516],[104.4087,36.8491],[104.4108,36.8482],[104.4104,36.8545],[104.4108,36.8579],[104.415,36.8656],[104.4195,36.8701],[104.4279,36.8713],[104.4326,36.8723],[104.4436,36.8734],[104.4445,36.8744],[104.4542,36.8771],[104.4608,36.8759],[104.4655,36.8755],[104.4704,36.8741],[104.4727,36.874],[104.4867,36.8694],[104.4927,36.8683],[104.5048,36.87],[104.505,36.8726],[104.5075,36.8744],[104.5074,36.8779],[104.5056,36.8779],[104.505,36.88],[104.5092,36.8837],[104.509,36.8849],[104.5115,36.89],[104.5108,36.8933],[104.512,36.896],[104.5165,36.9009],[104.5155,36.9032],[104.5186,36.9096],[104.518,36.9116],[104.5203,36.9159],[104.5226,36.9182],[104.5177,36.9193],[104.5174,36.9231],[104.5187,36.9267],[104.5171,36.9285],[104.5171,36.9364],[104.518,36.9382],[104.5212,36.9391],[104.524,36.9421],[104.5239,36.9469],[104.525,36.9505],[104.5272,36.952],[104.5311,36.9509],[104.5341,36.9513],[104.5371,36.9481],[104.5399,36.946],[104.5462,36.9454],[104.5506,36.9446],[104.5546,36.9407],[104.5567,36.9423],[104.56,36.948],[104.5626,36.9501],[104.5689,36.9492],[104.5702,36.9504],[104.5725,36.9492],[104.5731,36.9517],[104.5721,36.955],[104.5724,36.9581],[104.5715,36.9604],[104.5684,36.9633],[104.5663,36.9697],[104.5642,36.9727],[104.5618,36.9781],[104.5626,36.9808],[104.558,36.9872],[104.5594,36.9894],[104.5619,36.9897],[104.5653,36.9912],[104.5686,36.9907],[104.5698,36.9894],[104.5735,36.9895],[104.5817,36.9882],[104.5828,36.9865],[104.5856,36.9854],[104.5919,36.9846],[104.5954,36.9829],[104.6041,36.9829],[104.6088,36.9788],[104.6138,36.9758],[104.6166,36.9792],[104.6185,36.9799],[104.6223,36.9842],[104.626,36.9832],[104.6281,36.9842],[104.6307,36.9817],[104.6321,36.9828],[104.6351,36.9824],[104.6393,36.9853],[104.6424,36.9864],[104.6498,36.9869],[104.6542,36.9852],[104.6549,36.9864],[104.6596,36.9852],[104.6653,36.9849],[104.667,36.9871],[104.6735,36.9871],[104.675,36.9861],[104.6774,36.9877],[104.6802,36.988],[104.6815,36.9871],[104.6852,36.9886],[104.6878,36.9877],[104.6925,36.9897],[104.699,36.9906],[104.702,36.9901],[104.7068,36.9916],[104.7161,36.9926],[104.7166,36.9931],[104.7225,36.9928],[104.7264,36.9937],[104.7344,36.9916],[104.7404,36.991],[104.7418,36.9928],[104.7446,36.9926],[104.747,36.9938],[104.7506,36.9936],[104.7524,36.9947],[104.7587,36.9946],[104.7608,36.9952],[104.7641,36.9945],[104.7658,36.9907],[104.7649,36.9879],[104.7668,36.9829],[104.7665,36.9802],[104.7692,36.9771],[104.7731,36.9779],[104.7766,36.9794],[104.7839,36.9854],[104.7891,36.9883],[104.7956,36.9899],[104.8004,36.9896],[104.8044,36.9874],[104.805,36.9858],[104.8007,36.9797],[104.801,36.976],[104.8028,36.9745],[104.8026,36.9728],[104.8042,36.971],[104.8064,36.9707],[104.8075,36.9647],[104.8102,36.9602],[104.8103,36.9574],[104.809,36.9546],[104.8041,36.9488],[104.8032,36.9445],[104.8039,36.9439],[104.8141,36.9427],[104.8159,36.9431],[104.8253,36.9492],[104.8362,36.9523],[104.8402,36.954],[104.8498,36.9526],[104.8558,36.949],[104.8566,36.9476],[104.8594,36.9461],[104.8621,36.9405],[104.8615,36.9372],[104.8615,36.9322],[104.8631,36.9235],[104.8628,36.9204],[104.8615,36.9179],[104.8582,36.915],[104.848,36.903],[104.8437,36.8998],[104.8399,36.8902],[104.8408,36.8876],[104.8419,36.8805],[104.8446,36.8766],[104.8416,36.8682],[104.837,36.8615],[104.8308,36.8579],[104.8298,36.8557],[104.8282,36.8548],[104.8224,36.8543],[104.8211,36.8522],[104.8247,36.846],[104.83,36.843],[104.8327,36.8429],[104.8347,36.8416],[104.8403,36.8407],[104.8429,36.8412],[104.8453,36.8397],[104.8468,36.8374],[104.849,36.8384],[104.8517,36.837],[104.8592,36.8351],[104.8683,36.8305],[104.8731,36.8283],[104.8765,36.8276],[104.8776,36.8264],[104.8824,36.826],[104.8859,36.8264],[104.8909,36.8253],[104.8922,36.8238],[104.8944,36.8242],[104.898,36.8269],[104.9046,36.8231],[104.9083,36.8196],[104.914,36.8163],[104.9183,36.8147],[104.9216,36.8179],[104.9262,36.8202],[104.9282,36.8203],[104.9298,36.8183],[104.9325,36.8179],[104.9362,36.8136],[104.9379,36.8145],[104.9399,36.8131],[104.9474,36.8134],[104.9522,36.8127],[104.9536,36.811],[104.9546,36.8072],[104.9558,36.8062],[104.9615,36.8052],[104.9669,36.8048],[104.9777,36.8024],[104.9808,36.8008],[104.9847,36.7967],[104.9863,36.7926],[104.985,36.7909],[104.9865,36.7873],[104.992,36.7889],[104.9942,36.7881],[104.9984,36.7878],[105.001,36.7867],[105.0046,36.787],[105.0062,36.7851],[105.0068,36.7805],[105.008,36.7778],[105.0057,36.7752],[105.0061,36.7735],[105.0038,36.7709],[105.0016,36.7662],[105.0019,36.7636],[105.005,36.7612],[105.0085,36.7612],[105.0106,36.76],[105.0139,36.7605],[105.0189,36.7592],[105.0226,36.7591],[105.0238,36.7598],[105.0273,36.7579],[105.0324,36.7577],[105.0405,36.7528],[105.0469,36.7526],[105.0507,36.7562],[105.0526,36.7566],[105.0551,36.7549],[105.0593,36.7509],[105.0621,36.7504],[105.0653,36.7511],[105.0701,36.749],[105.0724,36.7487],[105.0754,36.7515],[105.0755,36.7528],[105.0785,36.7547],[105.0807,36.7551],[105.0809,36.757],[105.0839,36.7592],[105.0911,36.7597],[105.0931,36.7608],[105.0988,36.7574],[105.1036,36.7582],[105.1068,36.7569],[105.1078,36.7554],[105.1129,36.7552],[105.1174,36.7507],[105.1203,36.7493],[105.1215,36.7456],[105.1237,36.7429],[105.1271,36.7421],[105.128,36.7409],[105.1307,36.7407],[105.1345,36.7381],[105.1359,36.7355],[105.1378,36.7348],[105.1399,36.732],[105.1419,36.7338],[105.1474,36.7354],[105.1509,36.733],[105.1527,36.734],[105.1605,36.7299],[105.1635,36.7267],[105.1668,36.7248],[105.1669,36.7218],[105.1704,36.7207],[105.1718,36.7191],[105.1757,36.7182],[105.1769,36.7157],[105.1807,36.7147],[105.1835,36.7117],[105.1872,36.7125],[105.1889,36.7104],[105.1921,36.7101],[105.1946,36.7074],[105.1971,36.7069],[105.1991,36.7051]]]]},"properties":{"region_code":"CN-62-6204-620421","parent_region_code":"CN-62-6204","name":"靖远县","level":"county","has_children":false,"full_path":"中国 / 甘肃省 / 白银市 / 靖远县","source_admin_code":"620421","osm_relation_id":2702853}},
{"type":"Feature","geometry":{"type":"Polygon","coordinates":[[[105.2183,36.4318],[105.2189,36.4248],[105.2159,36.4237],[105.2124,36.4213],[105.2077,36.4238],[105.2063,36.4256],[105.2035,36.4243],[105.2044,36.422],[105.204,36.4189],[105.2025,36.4192],[105.1985,36.418],[105.1989,36.4141],[105.2007,36.414],[105.2016,36.4113],[105.1985,36.4091],[105.1947,36.405],[105.1971,36.3997],[105.1954,36.3961],[105.1918,36.395],[105.1863,36.3946],[105.179,36.3907],[105.1746,36.39],[105.1714,36.3885],[105.1722,36.3841],[105.1699,36.382],[105.1668,36.3815],[105.164,36.38],[105.1637,36.3769],[105.1601,36.3768],[105.1587,36.378],[105.1565,36.3773],[105.1528,36.3783],[105.1507,36.3774],[105.1488,36.3749],[105.1426,36.372],[105.143,36.3703],[105.1534,36.3712],[105.1547,36.3689],[105.1562,36.3686],[105.1585,36.3642],[105.1564,36.3629],[105.154,36.3629],[105.1529,36.3572],[105.1489,36.3567],[105.1474,36.3551],[105.1484,36.3506],[105.1464,36.3483],[105.1443,36.3485],[105.1429,36.3463],[105.1409,36.3466],[105.1396,36.3451],[105.1375,36.3449],[105.1351,36.3468],[105.1309,36.3488],[105.1229,36.3502],[105.1182,36.3539],[105.1138,36.3605],[105.1067,36.3606],[105.1067,36.3595],[105.1019,36.3571],[105.1006,36.3544],[105.1026,36.3514],[105.1019,36.3482],[105.1029,36.3443],[105.101,36.3412],[105.1019,36.3395],[105.1084,36.3357],[105.1112,36.3323],[105.1114,36.3292],[105.1102,36.3257],[105.1058,36.3243],[105.0987,36.3244],[105.0991,36.3211],[105.0966,36.32],[105.0946,36.3209],[105.0898,36.3186],[105.0884,36.3209],[105.0849,36.3219],[105.0798,36.3223],[105.0734,36.3243],[105.0651,36.3245],[105.0622,36.3235],[105.0598,36.3244],[105.0552,36.3244],[105.0498,36.3265],[105.0492,36.3272],[105.0419,36.3294],[105.0329,36.3309],[105.0286,36.3299],[105.0275,36.3334],[105.0227,36.3387],[105.0233,36.3414],[105.0256,36.3423],[105.0271,36.3446],[105.031,36.3472],[105.0314,36.3491],[105.0285,36.3502],[105.0245,36.3465],[105.0235,36.3447],[105.0205,36.3423],[105.0158,36.344],[105.0127,36.3461],[105.0111,36.3484],[105.008,36.3486],[105.0047,36.3474],[105.0031,36.3439],[105.0012,36.3427],[104.9982,36.3426],[104.9949,36.3402],[104.9919,36.3391],[104.9877,36.3383],[104.9877,36.3404],[104.9905,36.3443],[104.9904,36.346],[104.9919,36.3499],[104.9895,36.3509],[104.9834,36.3514],[104.9762,36.3503],[104.9704,36.3499],[104.9621,36.3482],[104.9533,36.3474],[104.9477,36.3458],[104.9413,36.3455],[104.9385,36.3429],[104.9337,36.3363],[104.9326,36.3315],[104.9296,36.3295],[104.9301,36.3255],[104.9261,36.3233],[104.9158,36.3243],[104.9063,36.3235],[104.8997,36.3215],[104.8964,36.3211],[104.8813,36.3155],[104.8744,36.3121],[104.8717,36.3141],[104.8709,36.3214],[104.8693,36.3251],[104.8655,36.3248],[104.864,36.3254],[104.8607,36.3287],[104.8587,36.3294],[104.8577,36.332],[104.8579,36.3344],[104.855,36.3361],[104.8545,36.3395],[104.8521,36.3398],[104.8493,36.3387],[104.8486,36.3372],[104.8452,36.3353],[104.8428,36.3353],[104.8422,36.333],[104.8368,36.3299],[104.8356,36.3278],[104.8356,36.3254],[104.8327,36.3239],[104.8324,36.3222],[104.8287,36.3192],[104.8285,36.317],[104.826,36.316],[104.8244,36.3142],[104.8246,36.3123],[104.8207,36.3091],[104.8154,36.3059],[104.8118,36.3024],[104.8063,36.2982],[104.8014,36.293],[104.7995,36.2881],[104.7974,36.287],[104.7934,36.2885],[104.7923,36.2851],[104.7834,36.2808],[104.781,36.2788],[104.7788,36.2756],[104.7762,36.2747],[104.7711,36.2714],[104.767,36.2672],[104.7626,36.2669],[104.7583,36.2617],[104.7547,36.2601],[104.7493,36.2599],[104.743,36.2557],[104.7374,36.2545],[104.7317,36.2522],[104.7261,36.2486],[104.7243,36.2451],[104.7209,36.2439],[104.7153,36.2399],[104.7113,36.2388],[104.7099,36.2369],[104.7077,36.2369],[104.7046,36.2347],[104.7026,36.2359],[104.6985,36.2362],[104.6946,36.2352],[104.6898,36.2348],[104.6818,36.2367],[104.6798,36.2358],[104.6763,36.2371],[104.6719,36.2337],[104.6695,36.2311],[104.6671,36.2276],[104.6647,36.2253],[104.6501,36.2186],[104.6432,36.2159],[104.6357,36.2142],[104.632,36.2153],[104.6267,36.2162],[104.6217,36.2164],[104.616,36.216],[104.6031,36.2127],[104.5961,36.2094],[104.588,36.2036],[104.5735,36.1979],[104.5709,36.1953],[104.5638,36.1939],[104.5625,36.1895],[104.5602,36.1877],[104.5596,36.1855],[104.5556,36.1827],[104.5553,36.1772],[104.5587,36.1781],[104.5621,36.1763],[104.5649,36.1762],[104.5668,36.1751],[104.5692,36.1757],[104.5728,36.1733],[104.5746,36.1684],[104.5756,36.1677],[104.5742,36.1645],[104.5691,36.1633],[104.5695,36.1431],[104.5587,36.1325],[104.5651,36.1175],[104.561,36.1106],[104.5632,36.0977],[104.5364,36.0881],[104.5323,36.0743],[104.5167,36.0619],[104.5234,36.0443],[104.5052,36.0383],[104.4978,36.0202],[104.5005,36.0186],[104.502,36.0161],[104.5064,36.0154],[104.5079,36.017],[104.5118,36.0171],[104.5132,36.016],[104.5155,36.0164],[104.5196,36.0159],[104.5234,36.0144],[104.5265,36.0158],[104.5299,36.0147],[104.5335,36.0183],[104.5408,36.0211],[104.5488,36.0234],[104.5523,36.0247],[104.5584,36.0281],[104.5619,36.0282],[104.5644,36.0266],[104.5635,36.0251],[104.5681,36.0246],[104.5717,36.0257],[104.5764,36.0255],[104.5776,36.0265],[104.5826,36.0273],[104.5821,36.0298],[104.5865,36.0327],[104.5902,36.0366],[104.594,36.0394],[104.5969,36.0403],[104.6,36.0426],[104.6032,36.0412],[104.6089,36.0432],[104.6109,36.045],[104.6162,36.0447],[104.6169,36.0404],[104.6187,36.0375],[104.6227,36.0357],[104.6268,36.0375],[104.6313,36.0358],[104.6352,36.0377],[104.6367,36.0368],[104.6417,36.0382],[104.6444,36.0401],[104.6501,36.0411],[104.6548,36.0409],[104.6608,36.0417],[104.6618,36.0399],[104.6648,36.0396],[104.6692,36.0377],[104.6732,36.0352],[104.6779,36.0339],[104.6781,36.0274],[104.6756,36.0261],[104.6732,36.0232],[104.6708,36.0226],[104.6658,36.0239],[104.6606,36.0216],[104.6581,36.0175],[104.6559,36.0164],[104.6556,36.0136],[104.653,36.0138],[104.6508,36.0111],[104.6488,36.0101],[104.6459,36.011],[104.6432,36.0064],[104.6412,36.0053],[104.6388,36.006],[104.6365,36.0055],[104.6366,36.0035],[104.6402,36.0002],[104.6452,35.9941],[104.6478,35.9931],[104.6503,35.9893],[104.6538,35.9873],[104.6602,35.9904],[104.6691,35.9913],[104.673,35.9879],[104.6731,35.9863],[104.6771,35.9829],[104.6779,35.9814],[104.6839,35.9762],[104.6842,35.9725],[104.6865,35.9709],[104.6864,35.9695],[104.6885,35.9661],[104.6909,35.9642],[104.695,35.963],[104.6972,35.961],[104.6989,35.9578],[104.6998,35.9544],[104.7018,35.9519],[104.7029,35.9484],[104.707,35.9486],[104.709,35.951],[104.7106,35.9549],[104.7148,35.954],[104.719,35.9509],[104.7216,35.9503],[104.7232,35.9526],[104.7247,35.9527],[104.7291,35.9497],[104.7321,35.9454],[104.7359,35.9414],[104.7347,35.9386],[104.7357,35.936],[104.7347,35.9326],[104.7422,35.93],[104.7456,35.9299],[104.7474,35.927],[104.7512,35.9233],[104.7594,35.9209],[104.762,35.9191],[104.7664,35.9181],[104.769,35.9152],[104.7705,35.9121],[104.7688,35.9089],[104.7672,35.9041],[104.7654,35.9013],[104.7628,35.9007],[104.7621,35.8952],[104.7624,35.8904],[104.7673,35.889],[104.7687,35.8875],[104.7724,35.8879],[104.775,35.8864],[104.7797,35.8877],[104.781,35.8865],[104.7906,35.8851],[104.7923,35.8822],[104.7977,35.8801],[104.7988,35.8815],[104.8019,35.8782],[104.8046,35.8781],[104.8073,35.8791],[104.81,35.8787],[104.811,35.8768],[104.8136,35.8772],[104.8143,35.8737],[104.8139,35.8683],[104.817,35.8657],[104.8246,35.8659],[104.8296,35.8674],[104.8291,35.8652],[104.8294,35.8603],[104.829,35.8545],[104.8276,35.8516],[104.8291,35.8503],[104.8313,35.8526],[104.8338,35.8538],[104.8351,35.8515],[104.8387,35.8522],[104.8404,35.8507],[104.8437,35.8498],[104.8465,35.8527],[104.8485,35.8534],[104.8509,35.8527],[104.8569,35.8529],[104.8576,35.852],[104.8577,35.8445],[104.8608,35.8345],[104.8633,35.8167],[104.8651,35.8143],[104.8667,35.8088],[104.8634,35.8001],[104.8627,35.7971],[104.8661,35.7961],[104.874,35.7954],[104.8757,35.792],[104.8784,35.7896],[104.882,35.7882],[104.8829,35.7849],[104.8849,35.7828],[104.8853,35.7735],[104.8864,35.7711],[104.8864,35.7675],[104.8876,35.7653],[104.8892,35.7593],[104.8917,35.7584],[104.8943,35.7597],[104.8955,35.7584],[104.8981,35.7591],[104.8981,35.7569],[104.9011,35.7572],[104.9025,35.7556],[104.9025,35.7529],[104.9057,35.7507],[104.9114,35.7454],[104.9168,35.7436],[104.9212,35.74],[104.9215,35.7382],[104.9255,35.7338],[104.9314,35.735],[104.9345,35.7364],[104.9392,35.7347],[104.9426,35.7327],[104.9475,35.7326],[104.9498,35.7297],[104.9524,35.7295],[104.9545,35.7307],[104.9607,35.7293],[104.9659,35.7252],[104.9675,35.7232],[104.9685,35.7201],[104.9734,35.7177],[104.9778,35.7125],[104.9781,35.7095],[104.9797,35.7059],[104.9799,35.7028],[104.9879,35.6968],[104.9899,35.6908],[104.9911,35.6887],[104.989,35.6822],[104.9827,35.6781],[104.9839,35.6699],[104.9863,35.6617],[104.9881,35.6528],[104.9833,35.6453],[104.9836,35.6405],[104.9878,35.6328],[104.9793,35.6226],[104.9756,35.6221],[104.9731,35.6206],[104.971,35.6174],[104.9671,35.6149],[104.9652,35.613],[104.9633,35.6076],[104.965,35.6022],[104.9633,35.5987],[104.9613,35.5916],[104.9588,35.5853],[104.959,35.583],[104.9573,35.5786],[104.9545,35.5764],[104.952,35.572],[104.9525,35.5691],[104.9505,35.561],[104.9519,35.558],[104.9503,35.5555],[104.9509,35.5522],[104.9482,35.5489],[104.9391,35.5485],[104.936,35.546],[104.9338,35.5457],[104.9338,35.5406],[104.932,35.5367],[104.9343,35.5331],[104.9339,35.5305],[104.9318,35.5293],[104.9318,35.5271],[104.9287,35.5244],[104.9284,35.5216],[104.9312,35.5199],[104.9329,35.513],[104.9295,35.5103],[104.9311,35.5082],[104.9342,35.507],[104.9326,35.5052],[104.9346,35.5021],[104.9349,35.5002],[104.937,35.4965],[104.943,35.4917],[104.9452,35.4932],[104.9479,35.4936],[104.957,35.4912],[104.9591,35.4898],[104.9639,35.4899],[104.9662,35.4836],[104.9689,35.4812],[104.9699,35.4792],[104.9729,35.4773],[104.9791,35.4754],[104.9871,35.475],[104.9936,35.4727],[104.9957,35.4697],[104.995,35.4621],[104.9966,35.4595],[104.9985,35.4588],[105.0002,35.4565],[105.0053,35.4544],[105.0105,35.4504],[105.0136,35.4487],[105.0171,35.4451],[105.0186,35.4452],[105.0325,35.4549],[105.0331,35.4534],[105.0319,35.449],[105.0359,35.4516],[105.0384,35.4523],[105.039,35.4551],[105.044,35.4589],[105.0503,35.4567],[105.0538,35.4567],[105.0569,35.4552],[105.0629,35.4559],[105.0649,35.4549],[105.0683,35.4546],[105.0694,35.4516],[105.0676,35.4505],[105.0683,35.4474],[105.066,35.4423],[105.0673,35.4406],[105.0674,35.4372],[105.0693,35.4357],[105.0728,35.4346],[105.0758,35.4309],[105.0752,35.4286],[105.0782,35.4255],[105.0829,35.416],[105.0884,35.4154],[105.0918,35.4136],[105.097,35.4127],[105.0997,35.4192],[105.1037,35.4204],[105.11,35.4208],[105.1125,35.4185],[105.1187,35.4183],[105.1209,35.4229],[105.1205,35.4256],[105.1226,35.4309],[105.1165,35.4363],[105.1145,35.4386],[105.1176,35.4426],[105.1199,35.4439],[105.1286,35.4437],[105.1367,35.4457],[105.1381,35.4469],[105.1422,35.4474],[105.1455,35.4489],[105.1489,35.4459],[105.1538,35.446],[105.1585,35.4421],[105.1623,35.4434],[105.169,35.4432],[105.1739,35.4393],[105.1787,35.4384],[105.1812,35.4407],[105.1837,35.4441],[105.1848,35.4477],[105.1877,35.4493],[105.1893,35.454],[105.1914,35.4555],[105.1961,35.457],[105.1979,35.4586],[105.2026,35.4591],[105.2056,35.4602],[105.2064,35.4615],[105.2064,35.4655],[105.2082,35.4689],[105.2109,35.4708],[105.2148,35.4746],[105.2157,35.4802],[105.2196,35.4824],[105.2253,35.4816],[105.2261,35.4793],[105.2342,35.4826],[105.2424,35.4866],[105.2447,35.487],[105.2485,35.4858],[105.2502,35.4836],[105.2536,35.4817],[105.2569,35.4768],[105.2591,35.4761],[105.2623,35.4776],[105.2642,35.4773],[105.2712,35.4786],[105.2711,35.481],[105.2699,35.4835],[105.2723,35.485],[105.2758,35.486],[105.2789,35.4916],[105.2835,35.494],[105.2856,35.4983],[105.2881,35.4986],[105.2925,35.4975],[105.2968,35.4982],[105.2979,35.4933],[105.2997,35.4894],[105.2997,35.4874],[105.3046,35.4887],[105.311,35.4875],[105.3148,35.4894],[105.3186,35.4895],[105.32,35.4902],[105.3202,35.4946],[105.3231,35.4955],[105.3265,35.495],[105.3294,35.4929],[105.3329,35.4929],[105.3389,35.4915],[105.3405,35.4919],[105.3423,35.4884],[105.3447,35.4888],[105.348,35.4912],[105.3511,35.4956],[105.3548,35.4953],[105.3621,35.4965],[105.3662,35.492],[105.3778,35.4885],[105.3833,35.489],[105.3876,35.4908],[105.3894,35.4922],[105.3951,35.4923],[105.4009,35.4947],[105.4063,35.4931],[105.4084,35.4939],[105.4111,35.4922],[105.414,35.4928],[105.4102,35.5],[105.4076,35.5026],[105.4003,35.513],[105.3994,35.5155],[105.4071,35.518],[105.4095,35.5196],[105.4092,35.5229],[105.4103,35.5255],[105.4077,35.528],[105.406,35.5313],[105.408,35.5355],[105.4122,35.536],[105.4254,35.5319],[105.4305,35.5339],[105.431,35.5377],[105.4324,35.541],[105.4406,35.5448],[105.4453,35.5442],[105.4515,35.5473],[105.4603,35.5436],[105.4707,35.5488],[105.4696,35.5556],[105.4709,35.5603],[105.4686,35.5679],[105.4694,35.5697],[105.4731,35.5734],[105.4721,35.5793],[105.4731,35.5905],[105.4746,35.5962],[105.4742,35.6023],[105.4819,35.6041],[105.4869,35.6047],[105.4895,35.6038],[105.494,35.6035],[105.4933,35.608],[105.4956,35.6083],[105.4974,35.6108],[105.5008,35.6081],[105.5011,35.6067],[105.5099,35.6072],[105.512,35.6069],[105.5172,35.6084],[105.5214,35.6089],[105.5235,35.6119],[105.5258,35.6162],[105.5253,35.6173],[105.5188,35.6168],[105.5153,35.6146],[105.5067,35.6151],[105.5043,35.6197],[105.4991,35.6247],[105.4916,35.6312],[105.4899,35.6336],[105.4858,35.636],[105.4847,35.6382],[105.4816,35.6401],[105.4812,35.6465],[105.4786,35.6485],[105.4775,35.652],[105.4713,35.6536],[105.4693,35.6588],[105.4696,35.6613],[105.4623,35.6645],[105.4591,35.6713],[105.4621,35.6741],[105.4611,35.6766],[105.4535,35.6814],[105.4539,35.6899],[105.4506,35.6967],[105.447,35.6995],[105.4491,35.7072],[105.4511,35.7133],[105.4519,35.7176],[105.4552,35.7208],[105.4596,35.722],[105.4695,35.7208],[105.475,35.7231],[105.4775,35.7276],[105.4742,35.7322],[105.4723,35.7394],[105.469,35.7509],[105.4634,35.753],[105.4589,35.7521],[105.4537,35.7474],[105.4492,35.7475],[105.4505,35.7588],[105.4529,35.7706],[105.452,35.774],[105.4509,35.775],[105.4472,35.776],[105.4461,35.7783],[105.4435,35.7808],[105.4414,35.7808],[105.4363,35.7791],[105.4334,35.7807],[105.4304,35.7862],[105.4285,35.788],[105.4276,35.7947],[105.4264,35.8136],[105.4249,35.8187],[105.4226,35.8202],[105.4205,35.8195],[105.4159,35.8144],[105.413,35.8151],[105.4112,35.8231],[105.4094,35.8238],[105.403,35.8223],[105.3907,35.8086],[105.3889,35.8035],[105.3877,35.8028],[105.385,35.7983],[105.3825,35.7969],[105.3802,35.7926],[105.3769,35.7932],[105.3755,35.7954],[105.3751,35.7988],[105.3711,35.8038],[105.3713,35.8073],[105.3744,35.8093],[105.3822,35.8177],[105.3804,35.8182],[105.3765,35.8161],[105.3733,35.8156],[105.3714,35.8166],[105.3718,35.8185],[105.3745,35.8228],[105.3746,35.825],[105.3726,35.8334],[105.3712,35.8367],[105.3675,35.8421],[105.367,35.8443],[105.3688,35.8459],[105.3764,35.8502],[105.379,35.8527],[105.3814,35.8537],[105.3838,35.8502],[105.3872,35.8469],[105.3906,35.8465],[105.3934,35.8494],[105.3944,35.8552],[105.3918,35.8609],[105.3885,35.8652],[105.3868,35.8665],[105.3752,35.8722],[105.3702,35.8709],[105.3665,35.8712],[105.3607,35.8738],[105.3539,35.8793],[105.3518,35.8767],[105.3463,35.8761],[105.337,35.8799],[105.3306,35.8865],[105.324,35.9014],[105.3233,35.9049],[105.3254,35.908],[105.3291,35.9099],[105.3312,35.9099],[105.3349,35.9083],[105.3364,35.9094],[105.3336,35.9169],[105.333,35.9205],[105.3326,35.9279],[105.3301,35.9321],[105.3222,35.9388],[105.3209,35.9436],[105.3226,35.9444],[105.3242,35.9485],[105.3277,35.9515],[105.3295,35.962],[105.3299,35.9662],[105.3294,35.9706],[105.3298,35.9763],[105.3307,35.9815],[105.3304,35.9918],[105.3295,35.9946],[105.3287,35.9999],[105.3292,36.0009],[105.3339,36.0048],[105.3378,36.0046],[105.337,36.0126],[105.3376,36.0147],[105.3346,36.0174],[105.3354,36.0208],[105.3374,36.0247],[105.3373,36.0278],[105.3386,36.0291],[105.3397,36.0335],[105.3432,36.0322],[105.3459,36.0331],[105.3478,36.0328],[105.3518,36.0339],[105.3543,36.0354],[105.3567,36.0345],[105.3613,36.0344],[105.3585,36.0401],[105.3565,36.0412],[105.3562,36.0442],[105.3589,36.0487],[105.3645,36.0537],[105.3673,36.0531],[105.3697,36.0558],[105.3705,36.0586],[105.3739,36.0611],[105.3797,36.0627],[105.3822,36.0622],[105.3828,36.066],[105.3851,36.0642],[105.387,36.0659],[105.3864,36.0686],[105.387,36.0744],[105.3879,36.0764],[105.3929,36.0766],[105.3959,36.0797],[105.4018,36.0743],[105.4037,36.0757],[105.4097,36.0829],[105.4107,36.0854],[105.4143,36.0893],[105.4203,36.0931],[105.4212,36.0955],[105.4256,36.1015],[105.426,36.1036],[105.429,36.1041],[105.4322,36.1024],[105.4353,36.1027],[105.4369,36.0997],[105.4385,36.1023],[105.4453,36.1037],[105.446,36.1017],[105.4486,36.1009],[105.451,36.1043],[105.4537,36.1063],[105.459,36.1067],[105.4605,36.1038],[105.4638,36.1008],[105.4653,36.1018],[105.4674,36.1001],[105.4714,36.1001],[105.474,36.1019],[105.4761,36.099],[105.4795,36.0995],[105.4817,36.0983],[105.4835,36.0995],[105.4842,36.1018],[105.487,36.1007],[105.4883,36.1052],[105.4913,36.1104],[105.4959,36.1205],[105.4961,36.1232],[105.4934,36.1309],[105.5011,36.1282],[105.5028,36.1363],[105.5048,36.1408],[105.5072,36.1429],[105.5107,36.1473],[105.5099,36.1495],[105.5067,36.1519],[105.5036,36.155],[105.4987,36.1568],[105.4967,36.1584],[105.4956,36.1615],[105.4961,36.1643],[105.4904,36.1674],[105.4912,36.1703],[105.4896,36.1755],[105.4839,36.1849],[105.485,36.1884],[105.4836,36.1913],[105.48,36.1959],[105.4804,36.2017],[105.4768,36.201],[105.4777,36.2084],[105.475,36.2128],[105.4714,36.2139],[105.4655,36.2201],[105.4575,36.2216],[105.4556,36.2271],[105.4535,36.237],[105.4557,36.243],[105.4611,36.2507],[105.4563,36.2627],[105.4551,36.268],[105.4595,36.2719],[105.4639,36.2743],[105.4686,36.275],[105.4732,36.284],[105.4736,36.2886],[105.4717,36.2936],[105.4638,36.3043],[105.4562,36.3075],[105.4521,36.3137],[105.4504,36.3223],[105.4421,36.3254],[105.4304,36.325],[105.4214,36.3304],[105.4178,36.3318],[105.414,36.337],[105.4104,36.34],[105.4043,36.3434],[105.3998,36.3408],[105.3979,36.3406],[105.3915,36.3465],[105.3875,36.3512],[105.3859,36.3548],[105.3826,36.356],[105.3805,36.3584],[105.3787,36.3561],[105.3782,36.3533],[105.3754,36.3497],[105.3701,36.3447],[105.366,36.3429],[105.3655,36.3406],[105.366,36.3368],[105.3653,36.3335],[105.361,36.3309],[105.3598,36.3334],[105.3553,36.3341],[105.3508,36.3332],[105.3451,36.3358],[105.3423,36.3348],[105.3408,36.3389],[105.3395,36.3396],[105.3399,36.3432],[105.336,36.3413],[105.3326,36.3423],[105.3305,36.342],[105.3311,36.3384],[105.3287,36.3388],[105.3264,36.3408],[105.3231,36.3384],[105.3214,36.3385],[105.3195,36.3403],[105.3196,36.3418],[105.3161,36.3424],[105.3156,36.3445],[105.3125,36.35],[105.3089,36.3495],[105.3067,36.3502],[105.3074,36.355],[105.3055,36.3607],[105.3017,36.3625],[105.3005,36.3657],[105.3014,36.3698],[105.3012,36.3761],[105.2991,36.3819],[105.2967,36.3847],[105.2945,36.3847],[105.29,36.386],[105.2855,36.385],[105.2829,36.3862],[105.2783,36.3844],[105.2767,36.3873],[105.2765,36.391],[105.2756,36.3952],[105.2728,36.3972],[105.273,36.4014],[105.2719,36.4048],[105.2686,36.4062],[105.2687,36.4089],[105.2647,36.409],[105.2617,36.4116],[105.2607,36.4153],[105.2591,36.4164],[105.2579,36.4194],[105.2591,36.4231],[105.2581,36.4278],[105.2567,36.429],[105.2538,36.4291],[105.2515,36.4313],[105.2504,36.4344],[105.2487,36.4332],[105.2463,36.4362],[105.2414,36.4342],[105.239,36.4311],[105.2351,36.4299],[105.2294,36.4316],[105.2279,36.4304],[105.2241,36.4321],[105.2222,36.4352],[105.2177,36.4358],[105.2183,36.4318]]]},"properties":{"region_code":"CN-62-6204-620422","parent_region_code":"CN-62-6204","name":"会宁县","level":"county","has_children":false,"full_path":"中国 / 甘肃省 / 白银市 / 会宁县","source_admin_code":"620422","osm_relation_id":2702851}},
{"type":"Feature","geometry":{"type":"Polygon","coordinates":[[[104.2786,36.7309],[104.2811,36.7312],[104.2874,36.731],[104.289,36.7301],[104.2915,36.726],[104.2951,36.7277],[104.2942,36.7301],[104.2948,36.7335],[104.2962,36.7343],[104.3002,36.7336],[104.3054,36.7313],[104.3069,36.7325],[104.3085,36.7356],[104.3102,36.7366],[104.3114,36.7403],[104.3112,36.743],[104.3136,36.746],[104.3133,36.7482],[104.3111,36.7493],[104.3112,36.753],[104.3145,36.7541],[104.3163,36.7558],[104.3181,36.7552],[104.3197,36.7575],[104.32,36.761],[104.3181,36.7633],[104.3239,36.7653],[104.3287,36.7684],[104.334,36.7626],[104.3367,36.7612],[104.3382,36.7551],[104.337,36.7525],[104.3373,36.7504],[104.3399,36.7475],[104.3393,36.7449],[104.3415,36.7397],[104.3462,36.7394],[104.349,36.7365],[104.3483,36.7345],[104.3521,36.7304],[104.3529,36.728],[104.3573,36.7266],[104.36,36.7291],[104.3673,36.7282],[104.3682,36.7294],[104.3753,36.7308],[104.3762,36.7337],[104.3808,36.7353],[104.3823,36.7378],[104.3859,36.7374],[104.3881,36.7386],[104.3909,36.738],[104.3913,36.7411],[104.3978,36.7407],[104.4009,36.7437],[104.4058,36.7433],[104.4088,36.7459],[104.4104,36.7504],[104.4099,36.7536],[104.4123,36.7596],[104.415,36.7625],[104.4153,36.766],[104.4187,36.7754],[104.4179,36.7776],[104.4208,36.7795],[104.4245,36.7805],[104.4236,36.7835],[104.4225,36.7872],[104.4212,36.7889],[104.4217,36.7926],[104.4212,36.7946],[104.4228,36.7992],[104.4227,36.8021],[104.425,36.8037],[104.4262,36.8073],[104.423,36.813],[104.4211,36.8149],[104.4219,36.8168],[104.4207,36.8199],[104.4173,36.8235],[104.4127,36.8259],[104.4084,36.8273],[104.4067,36.8292],[104.4039,36.8299],[104.4024,36.832],[104.4083,36.8357],[104.4105,36.8364],[104.4106,36.839],[104.4119,36.8402],[104.4133,36.8443],[104.4108,36.8482],[104.4087,36.8491],[104.4085,36.8516],[104.4066,36.8545],[104.4046,36.8537],[104.4024,36.8549],[104.3998,36.8611],[104.3987,36.8666],[104.3945,36.8687],[104.395,36.8718],[104.3939,36.8727],[104.3929,36.8759],[104.3888,36.8756],[104.3872,36.8763],[104.3859,36.8797],[104.3859,36.8826],[104.3835,36.8885],[104.3811,36.8905],[104.3743,36.8912],[104.3704,36.895],[104.3652,36.8984],[104.3658,36.9004],[104.3646,36.9059],[104.3634,36.9082],[104.361,36.9092],[104.3609,36.9117],[104.3578,36.913],[104.354,36.9133],[104.3485,36.9122],[104.3434,36.909],[104.3357,36.9046],[104.3314,36.9014],[104.3235,36.8982],[104.3187,36.898],[104.3099,36.8993],[104.3029,36.9025],[104.3021,36.9037],[104.3027,36.9086],[104.3081,36.9113],[104.3153,36.9133],[104.3203,36.9157],[104.321,36.9183],[104.3196,36.922],[104.3195,36.9241],[104.3207,36.9268],[104.321,36.9303],[104.32,36.937],[104.3161,36.9393],[104.3153,36.9418],[104.3175,36.9457],[104.3181,36.9498],[104.3156,36.9555],[104.3089,36.9606],[104.3078,36.9653],[104.3119,36.9698],[104.3112,36.974],[104.3119,36.9759],[104.3145,36.9784],[104.3192,36.9812],[104.3226,36.985],[104.3254,36.9893],[104.3278,36.991],[104.3281,36.997],[104.3268,36.9999],[104.3264,37.0036],[104.3247,37.0077],[104.3224,37.0113],[104.3192,37.0133],[104.3163,37.0137],[104.3142,37.0153],[104.3123,37.0182],[104.3048,37.0179],[104.3024,37.0198],[104.3001,37.0196],[104.2973,37.0206],[104.2923,37.0202],[104.2867,37.0226],[104.2819,37.0233],[104.2796,37.0271],[104.2788,37.0328],[104.2795,37.0355],[104.2774,37.0408],[104.2695,37.0471],[104.273,37.0515],[104.2729,37.0571],[104.2718,37.0595],[104.2741,37.0624],[104.27,37.0675],[104.2708,37.0693],[104.2738,37.0699],[104.2779,37.0696],[104.2816,37.0716],[104.2823,37.0744],[104.2795,37.081],[104.2798,37.0835],[104.2825,37.0861],[104.2852,37.0868],[104.2908,37.0869],[104.2944,37.0888],[104.2935,37.0944],[104.2912,37.0986],[104.2903,37.1016],[104.2915,37.1051],[104.2949,37.1074],[104.2995,37.1129],[104.3004,37.1151],[104.3003,37.1191],[104.2971,37.1259],[104.2965,37.129],[104.2974,37.1331],[104.3001,37.1355],[104.3049,37.1366],[104.3106,37.1364],[104.3151,37.1347],[104.3198,37.1318],[104.3261,37.1271],[104.3334,37.1247],[104.3408,37.123],[104.3467,37.1222],[104.3515,37.1245],[104.3515,37.1272],[104.3414,37.1329],[104.3325,37.1366],[104.3303,37.1384],[104.3277,37.1425],[104.3237,37.1509],[104.3215,37.1543],[104.3183,37.1558],[104.3114,37.1554],[104.3038,37.1546],[104.299,37.1526],[104.2964,37.1533],[104.2902,37.161],[104.29,37.1632],[104.2941,37.1696],[104.2969,37.1716],[104.2997,37.1727],[104.3065,37.1743],[104.3171,37.1778],[104.3216,37.1799],[104.326,37.1813],[104.3336,37.1822],[104.3372,37.1822],[104.349,37.1786],[104.3527,37.1781],[104.3576,37.1785],[104.3609,37.1796],[104.3667,37.184],[104.3717,37.1848],[104.3794,37.1822],[104.3834,37.1832],[104.3893,37.1865],[104.3936,37.1897],[104.3986,37.196],[104.4022,37.1978],[104.4046,37.1959],[104.411,37.1958],[104.4139,37.1934],[104.4166,37.1922],[104.4224,37.1945],[104.4259,37.1975],[104.4319,37.1973],[104.4374,37.196],[104.4417,37.1939],[104.4512,37.1948],[104.46,37.1971],[104.4658,37.199],[104.4688,37.2012],[104.474,37.2042],[104.4783,37.2105],[104.4809,37.2164],[104.4809,37.2211],[104.4823,37.2248],[104.4837,37.2262],[104.4881,37.2266],[104.4978,37.224],[104.4997,37.2228],[104.504,37.2215],[104.5072,37.2225],[104.5091,37.2242],[104.5087,37.2271],[104.5042,37.2301],[104.5024,37.2332],[104.5035,37.2356],[104.5052,37.2356],[104.5089,37.2332],[104.5121,37.2302],[104.5149,37.2309],[104.5163,37.2328],[104.5176,37.2366],[104.5231,37.2401],[104.5278,37.2392],[104.5302,37.2348],[104.534,37.2336],[104.5351,37.2346],[104.5359,37.2384],[104.5354,37.2408],[104.5322,37.2466],[104.5317,37.2501],[104.5325,37.2518],[104.5351,37.2522],[104.5409,37.2508],[104.5506,37.2476],[104.5545,37.2474],[104.5566,37.2482],[104.5602,37.252],[104.5594,37.2553],[104.5553,37.2585],[104.5531,37.2619],[104.553,37.2642],[104.5552,37.2659],[104.5584,37.2663],[104.5608,37.2646],[104.5724,37.2611],[104.5754,37.2629],[104.5799,37.2647],[104.5835,37.2647],[104.5865,37.266],[104.5901,37.2689],[104.6022,37.2721],[104.606,37.2758],[104.6088,37.2775],[104.6128,37.2784],[104.6196,37.2777],[104.6217,37.2784],[104.6231,37.2825],[104.6223,37.2859],[104.6171,37.2905],[104.6168,37.2937],[104.6175,37.2952],[104.6209,37.2978],[104.6244,37.2987],[104.6297,37.2985],[104.6342,37.2963],[104.6399,37.2919],[104.6425,37.2906],[104.6472,37.2901],[104.6497,37.2907],[104.6526,37.2926],[104.654,37.2953],[104.6594,37.2973],[104.6618,37.299],[104.663,37.3102],[104.6663,37.3143],[104.6688,37.3163],[104.6751,37.3191],[104.6784,37.3186],[104.6847,37.3187],[104.6967,37.3268],[104.7004,37.3299],[104.7067,37.3289],[104.7111,37.3294],[104.7123,37.3336],[104.7148,37.338],[104.7151,37.3421],[104.7142,37.3449],[104.7146,37.3501],[104.7087,37.3494],[104.7069,37.3479],[104.7044,37.3477],[104.7038,37.3456],[104.6979,37.3446],[104.6922,37.346],[104.688,37.3486],[104.6826,37.3497],[104.6788,37.3521],[104.6704,37.3536],[104.6658,37.355],[104.6647,37.3559],[104.6632,37.3613],[104.6593,37.3671],[104.6572,37.3723],[104.6577,37.3747],[104.6593,37.3762],[104.6593,37.3782],[104.6629,37.3783],[104.6654,37.3806],[104.6647,37.383],[104.6657,37.3852],[104.6676,37.3925],[104.6667,37.3951],[104.6682,37.3964],[104.6682,37.3999],[104.6714,37.4001],[104.6739,37.4011],[104.6763,37.406],[104.6755,37.4085],[104.6724,37.4082],[104.6705,37.4106],[104.6654,37.412],[104.6622,37.4119],[104.659,37.411],[104.6514,37.4132],[104.6487,37.4168],[104.6439,37.4171],[104.6415,37.4183],[104.6384,37.4186],[104.637,37.4179],[104.6347,37.4197],[104.6294,37.4162],[104.6219,37.4157],[104.6186,37.4161],[104.6147,37.4184],[104.6049,37.4189],[104.6,37.421],[104.5947,37.4206],[104.5909,37.4222],[104.589,37.4205],[104.5839,37.4246],[104.5785,37.4242],[104.5712,37.4257],[104.5676,37.4243],[104.5587,37.4242],[104.5549,37.4259],[104.5482,37.4257],[104.5423,37.423],[104.5353,37.4279],[104.5341,37.4292],[104.5311,37.4289],[104.5292,37.4297],[104.5293,37.4325],[104.5274,37.4339],[104.5236,37.4322],[104.5198,37.433],[104.5177,37.4345],[104.5163,37.4304],[104.5117,37.428],[104.506,37.4288],[104.5053,37.4255],[104.5019,37.4226],[104.4929,37.4199],[104.4906,37.4208],[104.4867,37.4204],[104.4832,37.4223],[104.4782,37.4219],[104.4776,37.4206],[104.4731,37.4209],[104.4675,37.4204],[104.464,37.4192],[104.4568,37.4194],[104.446,37.4233],[104.443,37.4345],[104.4362,37.443],[104.4348,37.4455],[104.4331,37.4458],[104.4279,37.4436],[104.4212,37.4419],[104.4019,37.4378],[104.3963,37.4338],[104.392,37.4322],[104.388,37.4316],[104.3839,37.4265],[104.379,37.4265],[104.3737,37.425],[104.3711,37.4235],[104.3699,37.4216],[104.3668,37.419],[104.3619,37.4176],[104.3536,37.418],[104.3493,37.4186],[104.3443,37.42],[104.335,37.4186],[104.3088,37.4144],[104.2945,37.4136],[104.2893,37.4185],[104.2843,37.4209],[104.2845,37.4273],[104.2825,37.43],[104.2351,37.4114],[104.1944,37.4078],[104.1802,37.4066],[104.1549,37.4223],[104.1299,37.4381],[104.1237,37.4418],[104.1049,37.4537],[104.0761,37.4718],[104.0372,37.4996],[104.0145,37.5157],[104.0003,37.5261],[103.9865,37.5357],[103.9575,37.5558],[103.9455,37.5642],[103.9351,37.5712],[103.9092,37.5848],[103.8993,37.5898],[103.872,37.6042],[103.8672,37.6066],[103.8437,37.6285],[103.8398,37.6319],[103.808,37.6032],[103.8053,37.6013],[103.8033,37.5989],[103.8017,37.5992],[103.7969,37.5965],[103.7968,37.5947],[103.7946,37.5926],[103.7896,37.5912],[103.7869,37.5915],[103.7867,37.5893],[103.7845,37.5885],[103.7834,37.5846],[103.784,37.5814],[103.7796,37.5779],[103.7784,37.5763],[103.7784,37.5725],[103.7758,37.5675],[103.7736,37.5664],[103.7737,37.5634],[103.7668,37.5566],[103.7666,37.5548],[103.7634,37.5508],[103.7634,37.5476],[103.7593,37.5413],[103.756,37.5382],[103.755,37.5284],[103.7535,37.5268],[103.7544,37.5206],[103.7537,37.5175],[103.7567,37.5151],[103.7617,37.5142],[103.7632,37.5118],[103.7635,37.5046],[103.7655,37.5003],[103.768,37.4978],[103.7717,37.4981],[103.7732,37.4947],[103.7733,37.4927],[103.7757,37.4912],[103.7786,37.4883],[103.7757,37.484],[103.7731,37.4756],[103.7718,37.4691],[103.7696,37.4662],[103.7656,37.4596],[103.7637,37.453],[103.7614,37.4489],[103.761,37.4462],[103.7628,37.4448],[103.7637,37.44],[103.7654,37.438],[103.7658,37.435],[103.7674,37.4331],[103.7675,37.4286],[103.7653,37.4251],[103.7641,37.4249],[103.7594,37.4262],[103.7532,37.4286],[103.7449,37.4231],[103.7441,37.4186],[103.7414,37.4145],[103.7414,37.413],[103.7384,37.4084],[103.7384,37.4058],[103.7336,37.4024],[103.7338,37.4005],[103.7326,37.3972],[103.7289,37.3929],[103.7297,37.3898],[103.7315,37.3886],[103.733,37.386],[103.7297,37.3829],[103.7323,37.3809],[103.7336,37.3774],[103.7373,37.3769],[103.739,37.3756],[103.7437,37.3741],[103.7446,37.3728],[103.7487,37.3721],[103.7518,37.3686],[103.7549,37.3667],[103.7572,37.3665],[103.7602,37.3625],[103.7627,37.3623],[103.7654,37.3577],[103.7677,37.3557],[103.7619,37.3473],[103.7628,37.3446],[103.7611,37.3418],[103.7609,37.3393],[103.7671,37.3358],[103.7664,37.3342],[103.7744,37.3284],[103.7748,37.3253],[103.7722,37.3242],[103.7681,37.3191],[103.7681,37.3169],[103.7664,37.3145],[103.7655,37.308],[103.7631,37.3062],[103.7639,37.3038],[103.7606,37.3004],[103.7577,37.3024],[103.756,37.3065],[103.7564,37.308],[103.7536,37.3118],[103.7479,37.3092],[103.7461,37.3091],[103.7448,37.306],[103.7456,37.3022],[103.7506,37.299],[103.7543,37.2945],[103.7545,37.291],[103.7563,37.2868],[103.7544,37.2847],[103.7551,37.2834],[103.755,37.2761],[103.7534,37.2745],[103.7507,37.2751],[103.7494,37.2771],[103.7464,37.2792],[103.7439,37.2824],[103.7417,37.2832],[103.7389,37.2823],[103.7334,37.2768],[103.7325,37.275],[103.7323,37.2712],[103.7287,37.2677],[103.7282,37.2662],[103.7237,37.264],[103.7216,37.2621],[103.7197,37.2591],[103.7195,37.2568],[103.7256,37.257],[103.7261,37.253],[103.7278,37.2506],[103.7323,37.2484],[103.7359,37.2474],[103.7411,37.247],[103.7428,37.2461],[103.7439,37.2425],[103.7382,37.2387],[103.7342,37.2335],[103.7283,37.2308],[103.7268,37.2296],[103.7219,37.2288],[103.7155,37.2316],[103.7123,37.2308],[103.7106,37.2279],[103.7069,37.2286],[103.7006,37.2338],[103.6939,37.2368],[103.692,37.2384],[103.687,37.2366],[103.6852,37.2346],[103.6828,37.2297],[103.6818,37.2252],[103.6818,37.2216],[103.6808,37.2209],[103.6805,37.2163],[103.6796,37.2152],[103.6796,37.2099],[103.6776,37.2089],[103.6751,37.2033],[103.6729,37.2018],[103.6724,37.1977],[103.6705,37.1892],[103.6683,37.1875],[103.6651,37.181],[103.6631,37.1788],[103.6635,37.1772],[103.6618,37.1736],[103.6599,37.1724],[103.6573,37.1678],[103.6546,37.166],[103.654,37.162],[103.6527,37.1603],[103.6515,37.1567],[103.6526,37.1522],[103.6515,37.1487],[103.65,37.1402],[103.6509,37.1366],[103.6496,37.1344],[103.645,37.1328],[103.6409,37.1298],[103.6365,37.1289],[103.6339,37.1301],[103.6267,37.1295],[103.6237,37.126],[103.6176,37.1249],[103.6227,37.122],[103.6253,37.1216],[103.6265,37.1193],[103.6286,37.1189],[103.6289,37.1159],[103.6303,37.1138],[103.6324,37.1128],[103.6318,37.1013],[103.6302,37.099],[103.6301,37.0932],[103.6317,37.0883],[103.6316,37.0868],[103.6335,37.0851],[103.6336,37.0823],[103.6324,37.0801],[103.6282,37.0789],[103.6282,37.0753],[103.6259,37.0751],[103.6212,37.0716],[103.617,37.0708],[103.6176,37.0685],[103.6174,37.0639],[103.6161,37.0633],[103.596,37.0705],[103.5852,37.0675],[103.5863,37.0657],[103.5815,37.0559],[103.5829,37.0526],[103.5789,37.051],[103.5785,37.0456],[103.5724,37.0382],[103.5668,37.0352],[103.5649,37.0319],[103.5558,37.0259],[103.5565,37.0236],[103.5603,37.0218],[103.5613,37.0231],[103.5639,37.0223],[103.5662,37.0172],[103.568,37.0152],[103.5718,37.0129],[103.5741,37.0075],[103.5768,37.0054],[103.5787,37.0026],[103.5758,36.9945],[103.5766,36.9911],[103.5757,36.9886],[103.5761,36.9853],[103.5726,36.9837],[103.5716,36.9812],[103.5686,36.9765],[103.5665,36.9746],[103.5637,36.9747],[103.5585,36.9708],[103.5585,36.9649],[103.5558,36.9627],[103.5547,36.9592],[103.5531,36.9567],[103.5496,36.9567],[103.5451,36.9497],[103.5485,36.9401],[103.5594,36.9349],[103.5599,36.9317],[103.5615,36.9297],[103.5633,36.9301],[103.5651,36.9273],[103.5678,36.9279],[103.5696,36.9251],[103.5713,36.9251],[103.573,36.9231],[103.5727,36.9203],[103.5752,36.9154],[103.5751,36.9115],[103.5784,36.9116],[103.5814,36.9069],[103.5832,36.9019],[103.5812,36.8982],[103.5826,36.8934],[103.585,36.8901],[103.5872,36.8894],[103.5896,36.8851],[103.5897,36.8831],[103.5934,36.88],[103.597,36.8762],[103.5996,36.8753],[103.6047,36.8713],[103.6082,36.8716],[103.6105,36.8701],[103.6213,36.8688],[103.6214,36.8668],[103.6151,36.8618],[103.614,36.8588],[103.6114,36.8572],[103.6079,36.8567],[103.6085,36.8551],[103.606,36.852],[103.6043,36.8521],[103.6023,36.85],[103.6018,36.848],[103.6071,36.8416],[103.6076,36.8384],[103.6111,36.8363],[103.6117,36.834],[103.6164,36.8282],[103.6198,36.8271],[103.6248,36.8226],[103.6298,36.8214],[103.6351,36.821],[103.6353,36.8191],[103.6389,36.8173],[103.6407,36.8193],[103.6438,36.8195],[103.6483,36.8187],[103.6498,36.8176],[103.6496,36.8153],[103.652,36.8129],[103.6566,36.8138],[103.6581,36.8154],[103.6615,36.8165],[103.6654,36.8143],[103.6676,36.8121],[103.6681,36.8098],[103.6704,36.8058],[103.6722,36.8006],[103.6737,36.7979],[103.6745,36.7909],[103.672,36.7886],[103.6778,36.7885],[103.6814,36.7916],[103.6838,36.7914],[103.6893,36.7897],[103.6918,36.7895],[103.6965,36.7867],[103.6997,36.784],[103.7051,36.7851],[103.7098,36.784],[103.7124,36.7892],[103.7149,36.7923],[103.7158,36.7945],[103.7184,36.7975],[103.7208,36.7988],[103.7247,36.8028],[103.7268,36.803],[103.7285,36.8051],[103.7328,36.8015],[103.7363,36.8015],[103.7382,36.7997],[103.7422,36.7992],[103.7456,36.7998],[103.7505,36.7974],[103.7544,36.7969],[103.7585,36.7983],[103.7616,36.7986],[103.7681,36.7968],[103.7704,36.7954],[103.7724,36.7965],[103.7739,36.7942],[103.7788,36.7955],[103.782,36.7944],[103.7838,36.7928],[103.7855,36.7935],[103.7893,36.7925],[103.7931,36.7925],[103.7945,36.7911],[103.7979,36.7917],[103.7977,36.7942],[103.7941,36.8011],[103.7929,36.8052],[103.7885,36.8093],[103.7851,36.8078],[103.7836,36.8101],[103.779,36.8122],[103.7788,36.8143],[103.7764,36.8162],[103.7749,36.8161],[103.7705,36.8183],[103.7704,36.8218],[103.769,36.823],[103.7664,36.8225],[103.7647,36.8253],[103.7593,36.8281],[103.759,36.8319],[103.7618,36.8333],[103.76,36.8355],[103.7605,36.8372],[103.7565,36.8387],[103.7566,36.842],[103.7554,36.8446],[103.758,36.8455],[103.7598,36.8477],[103.7619,36.8489],[103.7629,36.8511],[103.7674,36.8535],[103.7689,36.8514],[103.7748,36.8513],[103.7768,36.8475],[103.7771,36.8447],[103.7804,36.8363],[103.7849,36.8339],[103.7864,36.8323],[103.7872,36.8297],[103.7897,36.8297],[103.7924,36.8309],[103.7971,36.8284],[103.8002,36.8256],[103.8026,36.8256],[103.8044,36.8268],[103.8056,36.8241],[103.8092,36.8237],[103.8123,36.8222],[103.8143,36.819],[103.8154,36.8154],[103.8169,36.8142],[103.817,36.811],[103.8148,36.8087],[103.8132,36.8052],[103.8155,36.8023],[103.8218,36.7988],[103.8244,36.7987],[103.8251,36.8015],[103.8287,36.8033],[103.8287,36.8054],[103.8301,36.8065],[103.8299,36.813],[103.8333,36.8135],[103.835,36.8147],[103.8402,36.8135],[103.8418,36.8101],[103.8447,36.8092],[103.8469,36.8056],[103.8484,36.8059],[103.8545,36.8051],[103.8566,36.8036],[103.8589,36.8039],[103.8601,36.8058],[103.8629,36.8056],[103.8661,36.8067],[103.8693,36.8052],[103.8785,36.8076],[103.8803,36.8055],[103.8854,36.8055],[103.8874,36.8046],[103.8873,36.8029],[103.8901,36.8022],[103.8925,36.8033],[103.8953,36.8017],[103.8976,36.8049],[103.8997,36.8048],[103.9016,36.8027],[103.9037,36.795],[103.9033,36.7925],[103.9009,36.7913],[103.8919,36.7894],[103.8902,36.7877],[103.8879,36.7872],[103.8868,36.7851],[103.8877,36.78],[103.8902,36.7784],[103.8912,36.7728],[103.8955,36.7703],[103.8989,36.7717],[103.9027,36.7715],[103.9041,36.7731],[103.9086,36.7734],[103.9107,36.7719],[103.9106,36.7703],[103.9151,36.7673],[103.9195,36.7662],[103.9224,36.763],[103.9217,36.7612],[103.9196,36.7599],[103.9196,36.7573],[103.9209,36.7546],[103.9199,36.7525],[103.9267,36.7485],[103.9292,36.7477],[103.934,36.7473],[103.938,36.749],[103.9405,36.7474],[103.9402,36.7403],[103.9379,36.7382],[103.9344,36.7379],[103.9323,36.735],[103.9321,36.7318],[103.9296,36.7271],[103.9324,36.7244],[103.9363,36.7246],[103.9423,36.7263],[103.945,36.7291],[103.9453,36.7307],[103.9488,36.7329],[103.95,36.7354],[103.9556,36.7374],[103.9576,36.7396],[103.9646,36.7387],[103.9713,36.7387],[103.9744,36.7393],[103.9739,36.7361],[103.9712,36.7342],[103.9721,36.7324],[103.9748,36.7301],[103.9756,36.7271],[103.984,36.7288],[103.9866,36.7283],[103.9885,36.7339],[103.9881,36.7364],[103.9891,36.7388],[103.9906,36.7398],[103.9895,36.7435],[103.9903,36.7444],[103.9979,36.7473],[103.9961,36.7519],[103.9993,36.7544],[104.0036,36.7533],[104.0097,36.7524],[104.0112,36.7527],[104.0161,36.7514],[104.0214,36.7491],[104.0293,36.7491],[104.0345,36.7502],[104.0375,36.7486],[104.0412,36.7493],[104.0412,36.7519],[104.0441,36.7544],[104.0481,36.7531],[104.0496,36.7547],[104.0517,36.7542],[104.0524,36.7568],[104.0565,36.7559],[104.0585,36.7562],[104.0579,36.7616],[104.0641,36.7613],[104.0666,36.76],[104.0716,36.7629],[104.0762,36.7622],[104.0778,36.7595],[104.0911,36.7635],[104.0938,36.764],[104.0962,36.7654],[104.0967,36.7671],[104.0999,36.7673],[104.1016,36.7689],[104.1018,36.7714],[104.1041,36.7722],[104.104,36.7746],[104.1053,36.7767],[104.1094,36.7764],[104.1119,36.7776],[104.1146,36.7777],[104.1185,36.7799],[104.1204,36.7824],[104.1264,36.7847],[104.1519,36.7848],[104.1555,36.7818],[104.1588,36.7833],[104.1636,36.7842],[104.1676,36.7834],[104.1725,36.7849],[104.1792,36.785],[104.1805,36.7841],[104.1871,36.7846],[104.1939,36.7824],[104.1962,36.7806],[104.2003,36.7758],[104.2044,36.7759],[104.2091,36.7729],[104.2118,36.7727],[104.215,36.7739],[104.2204,36.7708],[104.2256,36.7634],[104.226,36.7602],[104.2233,36.7579],[104.2194,36.7562],[104.2168,36.7528],[104.2155,36.7495],[104.214,36.7476],[104.2121,36.7431],[104.2122,36.7397],[104.2164,36.7363],[104.219,36.736],[104.219,36.7303],[104.2224,36.7306],[104.2269,36.728],[104.2321,36.7301],[104.2331,36.732],[104.242,36.7325],[104.2433,36.7335],[104.2472,36.7329],[104.251,36.7346],[104.2525,36.734],[104.2574,36.7351],[104.2575,36.7367],[104.2609,36.7388],[104.2669,36.7385],[104.2696,36.7372],[104.2737,36.7373],[104.2755,36.7332],[104.2786,36.7309]]]},"properties":{"region_code":"CN-62-6204-620423","parent_region_code":"CN-62-6204","name":"景泰县","level":"county","has_children":false,"full_path":"中国 / 甘肃省 / 白银市 / 景泰县","source_admin_code":"620423","osm_relation_id":2702852}}
]}