{"type":"FeatureCollection", "features": [
{"type":"Feature","geometry":{"type":"Polygon","coordinates":[[[106.8964,34.2899],[106.9343,34.2696],[106.9381,34.2506],[106.9515,34.2406],[106.9807,34.2374],[106.9892,34.2294],[107.0031,34.2261],[107.0128,34.2016],[107.0302,34.1987],[107.0279,34.186],[107.0354,34.1693],[107.0421,34.1633],[107.0531,34.1656],[107.059,34.1549],[107.0556,34.1408],[107.0759,34.1349],[107.0839,34.1215],[107.1006,34.1322],[107.0977,34.1482],[107.1056,34.1584],[107.1258,34.1645],[107.1481,34.1565],[107.1744,34.1571],[107.224,34.1498],[107.2434,34.1501],[107.2559,34.1599],[107.2636,34.1713],[107.2862,34.1668],[107.3003,34.1978],[107.2989,34.2083],[107.3072,34.22],[107.303,34.2331],[107.3088,34.2482],[107.3136,34.2854],[107.3196,34.2963],[107.3216,34.3201],[107.3081,34.3306],[107.2986,34.3505],[107.2863,34.353],[107.2726,34.3558],[107.253,34.3532],[107.2277,34.3594],[107.2158,34.3544],[107.1937,34.3554],[107.177,34.3508],[107.1559,34.3554],[107.155,34.3653],[107.1615,34.3737],[107.1288,34.3769],[107.11,34.3677],[107.0984,34.3748],[107.0729,34.3714],[107.0587,34.3728],[107.0436,34.3873],[107.0335,34.3894],[107.0156,34.4237],[106.9961,34.4298],[106.9781,34.4518],[106.9765,34.4642],[106.9688,34.476],[106.9606,34.4784],[106.9365,34.4776],[106.9299,34.4736],[106.9349,34.4667],[106.9345,34.4541],[106.9279,34.4437],[106.9371,34.4147],[106.9434,34.4023],[106.9351,34.3972],[106.9332,34.3855],[106.9176,34.3719],[106.9098,34.3557],[106.9036,34.335],[106.8957,34.3224],[106.9052,34.3131],[106.8964,34.2899]]]},"properties":{"region_code":"CN-61-6103-610302","parent_region_code":"CN-61-6103","name":"渭滨区","level":"county","has_children":false,"full_path":"中国 / 陕西省 / 宝鸡市 / 渭滨区","source_admin_code":"610302","osm_relation_id":3048918}},
{"type":"Feature","geometry":{"type":"Polygon","coordinates":[[[107.2863,34.353],[107.2875,34.3673],[107.2634,34.3763],[107.2566,34.3942],[107.243,34.4024],[107.2335,34.422],[107.2131,34.4238],[107.191,34.4396],[107.1525,34.4473],[107.1353,34.4797],[107.128,34.4863],[107.11,34.4787],[107.0887,34.4648],[107.0727,34.4866],[107.0434,34.5137],[107.0301,34.5111],[106.99,34.5118],[106.9547,34.522],[106.9423,34.5187],[106.9306,34.5078],[106.915,34.5118],[106.9074,34.4889],[106.9299,34.4736],[106.9365,34.4776],[106.9606,34.4784],[106.9688,34.476],[106.9765,34.4642],[106.9781,34.4518],[106.9961,34.4298],[107.0156,34.4237],[107.0335,34.3894],[107.0436,34.3873],[107.0587,34.3728],[107.0729,34.3714],[107.0984,34.3748],[107.11,34.3677],[107.1288,34.3769],[107.1615,34.3737],[107.155,34.3653],[107.1559,34.3554],[107.177,34.3508],[107.1937,34.3554],[107.2158,34.3544],[107.2277,34.3594],[107.253,34.3532],[107.2726,34.3558],[107.2863,34.353]]]},"properties":{"region_code":"CN-61-6103-610303","parent_region_code":"CN-61-6103","name":"金台区","level":"county","has_children":false,"full_path":"中国 / 陕西省 / 宝鸡市 / 金台区","source_admin_code":"610303","osm_relation_id":3048912}},
{"type":"Feature","geometry":{"type":"Polygon","coordinates":[[[106.9299,34.4736],[106.9074,34.4889],[106.915,34.5118],[106.9306,34.5078],[106.9423,34.5187],[106.9547,34.522],[106.99,34.5118],[107.0301,34.5111],[107.0434,34.5137],[107.0727,34.4866],[107.0887,34.4648],[107.11,34.4787],[107.128,34.4863],[107.1353,34.4797],[107.1525,34.4473],[107.191,34.4396],[107.2131,34.4238],[107.2335,34.422],[107.243,34.4024],[107.2566,34.3942],[107.2634,34.3763],[107.2875,34.3673],[107.2863,34.353],[107.2986,34.3505],[107.3081,34.3306],[107.3216,34.3201],[107.3196,34.2963],[107.3136,34.2854],[107.3088,34.2482],[107.303,34.2331],[107.3072,34.22],[107.2989,34.2083],[107.3003,34.1978],[107.2862,34.1668],[107.3196,34.1575],[107.3421,34.1649],[107.3457,34.1568],[107.3624,34.1559],[107.3809,34.1686],[107.39,34.1594],[107.4061,34.1567],[107.423,34.1443],[107.4263,34.1371],[107.4412,34.1282],[107.4562,34.1312],[107.4586,34.1398],[107.4876,34.1459],[107.502,34.152],[107.5284,34.1587],[107.536,34.171],[107.54,34.1898],[107.5397,34.2119],[107.5492,34.2249],[107.5543,34.2383],[107.5629,34.2462],[107.5757,34.248],[107.5776,34.2579],[107.5704,34.2676],[107.5824,34.2894],[107.5784,34.2968],[107.5824,34.3153],[107.5758,34.3231],[107.5776,34.3431],[107.563,34.3466],[107.5389,34.3457],[107.4984,34.3522],[107.4742,34.3751],[107.4832,34.3987],[107.4713,34.3957],[107.4618,34.4002],[107.4649,34.4164],[107.452,34.4244],[107.4246,34.4256],[107.4103,34.4331],[107.3869,34.4354],[107.3791,34.4289],[107.3568,34.429],[107.3431,34.4158],[107.335,34.4158],[107.3157,34.4289],[107.302,34.4168],[107.2855,34.4284],[107.2797,34.4411],[107.2495,34.4361],[107.2229,34.4669],[107.2107,34.4775],[107.1957,34.5002],[107.1995,34.5178],[107.181,34.5215],[107.1763,34.5326],[107.191,34.5345],[107.2034,34.5564],[107.1683,34.5559],[107.1611,34.5638],[107.1629,34.5725],[107.1518,34.5755],[107.1374,34.5577],[107.1248,34.5594],[107.1055,34.59],[107.0939,34.5918],[107.0639,34.6095],[107.0612,34.6212],[107.0374,34.6335],[107.0203,34.6346],[107.01,34.6582],[106.9916,34.6663],[106.9876,34.6818],[106.9688,34.6942],[106.9782,34.7073],[106.9563,34.7142],[106.9442,34.7236],[106.9295,34.7241],[106.8986,34.7491],[106.8831,34.7344],[106.8822,34.7228],[106.8539,34.714],[106.8322,34.683],[106.8328,34.6692],[106.8206,34.6432],[106.8242,34.6352],[106.8398,34.6254],[106.8348,34.6103],[106.8363,34.5962],[106.8304,34.5858],[106.8096,34.6008],[106.8016,34.612],[106.7868,34.6153],[106.7711,34.6077],[106.7639,34.5962],[106.7554,34.6099],[106.7427,34.6051],[106.7366,34.6111],[106.7368,34.6234],[106.7281,34.6359],[106.711,34.6443],[106.6849,34.6464],[106.6839,34.6246],[106.6739,34.6149],[106.6658,34.6191],[106.6543,34.6084],[106.6328,34.6122],[106.6119,34.6274],[106.6032,34.6241],[106.5862,34.6275],[106.5684,34.6201],[106.5595,34.6108],[106.5444,34.6224],[106.5516,34.6303],[106.5165,34.6513],[106.4951,34.654],[106.4906,34.6587],[106.471,34.6576],[106.4695,34.6495],[106.4611,34.6383],[106.4421,34.6378],[106.4211,34.6553],[106.4149,34.6443],[106.4005,34.6395],[106.3904,34.6275],[106.3741,34.6254],[106.3634,34.6115],[106.3184,34.5909],[106.3098,34.5804],[106.325,34.5768],[106.3368,34.5693],[106.3403,34.5579],[106.3352,34.5452],[106.3383,34.5377],[106.3307,34.5194],[106.3444,34.5209],[106.3605,34.5135],[106.3767,34.522],[106.3828,34.512],[106.3967,34.5116],[106.4028,34.524],[106.4209,34.5246],[106.4303,34.5289],[106.4413,34.5246],[106.4653,34.5305],[106.4729,34.5228],[106.4976,34.5128],[106.5091,34.5137],[106.51,34.4992],[106.5653,34.4864],[106.5639,34.4768],[106.5766,34.4752],[106.5867,34.4577],[106.6066,34.4561],[106.6211,34.4122],[106.636,34.4024],[106.6344,34.3929],[106.6476,34.3932],[106.6602,34.3827],[106.6756,34.3854],[106.6773,34.3753],[106.7039,34.3776],[106.7122,34.3708],[106.7108,34.3507],[106.6873,34.3449],[106.6801,34.3318],[106.6928,34.3291],[106.7006,34.3124],[106.6935,34.2885],[106.7045,34.2856],[106.7283,34.2755],[106.7435,34.2745],[106.7576,34.2904],[106.7737,34.2971],[106.7964,34.2967],[106.8256,34.2893],[106.8523,34.2778],[106.8648,34.2797],[106.873,34.2936],[106.8964,34.2899],[106.9052,34.3131],[106.8957,34.3224],[106.9036,34.335],[106.9098,34.3557],[106.9176,34.3719],[106.9332,34.3855],[106.9351,34.3972],[106.9434,34.4023],[106.9371,34.4147],[106.9279,34.4437],[106.9345,34.4541],[106.9349,34.4667],[106.9299,34.4736]]]},"properties":{"region_code":"CN-61-6103-610304","parent_region_code":"CN-61-6103","name":"陈仓区","level":"county","has_children":false,"full_path":"中国 / 陕西省 / 宝鸡市 / 陈仓区","source_admin_code":"610304","osm_relation_id":3048908}},
{"type":"Feature","geometry":{"type":"Polygon","coordinates":[[[107.563,34.3466],[107.5707,34.3559],[107.5639,34.3626],[107.5591,34.4006],[107.565,34.4127],[107.562,34.4274],[107.5673,34.4462],[107.5794,34.4593],[107.5733,34.4708],[107.5674,34.493],[107.5785,34.5118],[107.5918,34.5117],[107.6044,34.5266],[107.6059,34.5385],[107.6022,34.5582],[107.5901,34.5689],[107.5816,34.5668],[107.5671,34.5741],[107.5673,34.5801],[107.5873,34.5939],[107.6137,34.5914],[107.6334,34.6035],[107.6243,34.6219],[107.6338,34.6274],[107.6407,34.6446],[107.6327,34.6599],[107.6217,34.6709],[107.6208,34.6821],[107.6132,34.6932],[107.6011,34.6934],[107.5921,34.7015],[107.59,34.7119],[107.5538,34.7447],[107.5251,34.7468],[107.5149,34.7396],[107.4939,34.7387],[107.4926,34.7285],[107.45,34.7309],[107.4555,34.7384],[107.4427,34.7446],[107.4367,34.7371],[107.4166,34.7428],[107.4003,34.7303],[107.3983,34.7234],[107.3857,34.7131],[107.3702,34.7179],[107.3742,34.7303],[107.3631,34.7332],[107.356,34.7267],[107.3452,34.7344],[107.3298,34.711],[107.3231,34.7198],[107.3256,34.7345],[107.3108,34.7341],[107.312,34.724],[107.2922,34.7094],[107.2872,34.7009],[107.2874,34.6811],[107.2805,34.6651],[107.2654,34.6486],[107.2428,34.6285],[107.2339,34.6093],[107.2115,34.6015],[107.1978,34.5886],[107.2034,34.5564],[107.191,34.5345],[107.1763,34.5326],[107.181,34.5215],[107.1995,34.5178],[107.1957,34.5002],[107.2107,34.4775],[107.2229,34.4669],[107.2495,34.4361],[107.2797,34.4411],[107.2855,34.4284],[107.302,34.4168],[107.3157,34.4289],[107.335,34.4158],[107.3431,34.4158],[107.3568,34.429],[107.3791,34.4289],[107.3869,34.4354],[107.4103,34.4331],[107.4246,34.4256],[107.452,34.4244],[107.4649,34.4164],[107.4618,34.4002],[107.4713,34.3957],[107.4832,34.3987],[107.4742,34.3751],[107.4984,34.3522],[107.5389,34.3457],[107.563,34.3466]]]},"properties":{"region_code":"CN-61-6103-610305","parent_region_code":"CN-61-6103","name":"凤翔区","level":"county","has_children":false,"full_path":"中国 / 陕西省 / 宝鸡市 / 凤翔区","source_admin_code":"610305","osm_relation_id":3048910}},
{"type":"Feature","geometry":{"type":"Polygon","coordinates":[[[107.5284,34.1587],[107.5356,34.1495],[107.5544,34.1616],[107.5664,34.1579],[107.574,34.1663],[107.5826,34.1614],[107.5747,34.1514],[107.5847,34.1448],[107.5898,34.1338],[107.6033,34.1399],[107.6177,34.1319],[107.6351,34.1382],[107.644,34.1475],[107.6453,34.159],[107.6635,34.1844],[107.6792,34.2175],[107.6836,34.2309],[107.6705,34.249],[107.6727,34.2597],[107.6669,34.2723],[107.6533,34.2852],[107.6576,34.3055],[107.6775,34.3053],[107.683,34.3211],[107.7104,34.3192],[107.7167,34.3225],[107.7333,34.3185],[107.7422,34.3107],[107.7539,34.3173],[107.7509,34.339],[107.7614,34.3645],[107.7677,34.3718],[107.7611,34.3782],[107.7726,34.3944],[107.787,34.3964],[107.7893,34.4085],[107.8167,34.4054],[107.8405,34.3912],[107.8554,34.4027],[107.8707,34.403],[107.8761,34.4224],[107.8643,34.4395],[107.8441,34.456],[107.8395,34.4665],[107.8472,34.4728],[107.8483,34.4834],[107.8425,34.5034],[107.8311,34.5007],[107.822,34.5159],[107.8214,34.5267],[107.8118,34.535],[107.8071,34.5559],[107.803,34.5712],[107.789,34.5859],[107.7726,34.5847],[107.7611,34.5932],[107.7473,34.5869],[107.7293,34.5894],[107.7322,34.5978],[107.7256,34.6055],[107.711,34.6072],[107.7038,34.6021],[107.6975,34.5852],[107.6847,34.5867],[107.6831,34.5967],[107.67,34.5972],[107.6589,34.6116],[107.6426,34.6137],[107.6334,34.6035],[107.6137,34.5914],[107.5873,34.5939],[107.5673,34.5801],[107.5671,34.5741],[107.5816,34.5668],[107.5901,34.5689],[107.6022,34.5582],[107.6059,34.5385],[107.6044,34.5266],[107.5918,34.5117],[107.5785,34.5118],[107.5674,34.493],[107.5733,34.4708],[107.5794,34.4593],[107.5673,34.4462],[107.562,34.4274],[107.565,34.4127],[107.5591,34.4006],[107.5639,34.3626],[107.5707,34.3559],[107.563,34.3466],[107.5776,34.3431],[107.5758,34.3231],[107.5824,34.3153],[107.5784,34.2968],[107.5824,34.2894],[107.5704,34.2676],[107.5776,34.2579],[107.5757,34.248],[107.5629,34.2462],[107.5543,34.2383],[107.5492,34.2249],[107.5397,34.2119],[107.54,34.1898],[107.536,34.171],[107.5284,34.1587]]]},"properties":{"region_code":"CN-61-6103-610323","parent_region_code":"CN-61-6103","name":"岐山县","level":"county","has_children":false,"full_path":"中国 / 陕西省 / 宝鸡市 / 岐山县","source_admin_code":"610323","osm_relation_id":3048916}},
{"type":"Feature","geometry":{"type":"Polygon","coordinates":[[[107.7539,34.3173],[107.7613,34.3111],[107.8004,34.3038],[107.8058,34.2968],[107.8222,34.2966],[107.8371,34.2917],[107.8549,34.2543],[107.8475,34.2338],[107.8653,34.2307],[107.8721,34.2336],[107.882,34.2237],[107.8996,34.2157],[107.916,34.2139],[107.9498,34.2231],[107.9841,34.2248],[107.9873,34.2421],[107.9855,34.2569],[107.9911,34.2667],[107.9693,34.2698],[107.9641,34.2874],[107.9466,34.2885],[107.9459,34.3092],[107.9495,34.3226],[107.9651,34.324],[107.9838,34.3144],[107.9978,34.3288],[108.0276,34.3156],[108.0492,34.3251],[108.0459,34.3462],[108.0306,34.3517],[108.0242,34.3873],[108.0302,34.4102],[108.0203,34.4258],[108.0075,34.4385],[108.0136,34.4456],[108.0113,34.4608],[108.0237,34.4773],[108.017,34.4837],[107.9962,34.4867],[107.9888,34.4982],[108,34.5066],[107.9987,34.5296],[108.0048,34.535],[107.9968,34.5542],[107.9856,34.5701],[107.9746,34.5752],[107.99,34.6143],[107.9769,34.6135],[107.9618,34.6263],[107.9383,34.6133],[107.8985,34.6127],[107.867,34.605],[107.8688,34.5927],[107.8556,34.5714],[107.8432,34.5642],[107.828,34.5629],[107.8071,34.5559],[107.8118,34.535],[107.8214,34.5267],[107.822,34.5159],[107.8311,34.5007],[107.8425,34.5034],[107.8483,34.4834],[107.8472,34.4728],[107.8395,34.4665],[107.8441,34.456],[107.8643,34.4395],[107.8761,34.4224],[107.8707,34.403],[107.8554,34.4027],[107.8405,34.3912],[107.8167,34.4054],[107.7893,34.4085],[107.787,34.3964],[107.7726,34.3944],[107.7611,34.3782],[107.7677,34.3718],[107.7614,34.3645],[107.7509,34.339],[107.7539,34.3173]],[[107.8962,34.2318],[107.9345,34.2351],[107.9158,34.2234],[107.8962,34.2318]]]},"properties":{"region_code":"CN-61-6103-610324","parent_region_code":"CN-61-6103","name":"扶风县","level":"county","has_children":false,"full_path":"中国 / 陕西省 / 宝鸡市 / 扶风县","source_admin_code":"610324","osm_relation_id":3048911}},
{"type":"Feature","geometry":{"type":"MultiPolygon","coordinates":[[[[107.8962,34.2318],[107.9158,34.2234],[107.9345,34.2351],[107.8962,34.2318]]],[[[107.6453,34.159],[107.6674,34.1507],[107.7027,34.1222],[107.6943,34.0977],[107.6972,34.0875],[107.6897,34.078],[107.6987,34.057],[107.7069,34.0466],[107.7157,34.044],[107.7216,34.0337],[107.7192,34.023],[107.7327,34.0068],[107.7383,33.989],[107.7607,33.9861],[107.7779,33.9805],[107.7953,33.9866],[107.806,33.9968],[107.8258,33.9896],[107.8352,33.9781],[107.854,33.9793],[107.8741,33.9958],[107.894,34.0009],[107.9047,33.9998],[107.9082,33.9897],[107.9165,33.9851],[107.9437,33.9844],[107.9441,33.9979],[107.938,34.0089],[107.9356,34.0254],[107.939,34.043],[107.9678,34.0627],[107.9664,34.0767],[107.9816,34.0873],[107.9957,34.1019],[107.9925,34.1144],[107.995,34.1239],[107.9974,34.1571],[108.0064,34.1619],[108.0112,34.1778],[108.0208,34.1807],[108.0175,34.1917],[108.0258,34.21],[108.0326,34.2156],[108.0249,34.2289],[108.0026,34.2288],[107.9841,34.2248],[107.9498,34.2231],[107.916,34.2139],[107.8996,34.2157],[107.882,34.2237],[107.8721,34.2336],[107.8653,34.2307],[107.8475,34.2338],[107.8549,34.2543],[107.8371,34.2917],[107.8222,34.2966],[107.8058,34.2968],[107.8004,34.3038],[107.7613,34.3111],[107.7539,34.3173],[107.7422,34.3107],[107.7333,34.3185],[107.7167,34.3225],[107.7104,34.3192],[107.683,34.3211],[107.6775,34.3053],[107.6576,34.3055],[107.6533,34.2852],[107.6669,34.2723],[107.6727,34.2597],[107.6705,34.249],[107.6836,34.2309],[107.6792,34.2175],[107.6635,34.1844],[107.6453,34.159]]]]},"properties":{"region_code":"CN-61-6103-610326","parent_region_code":"CN-61-6103","name":"眉县","level":"county","has_children":false,"full_path":"中国 / 陕西省 / 宝鸡市 / 眉县","source_admin_code":"610326","osm_relation_id":3048835}},
{"type":"Feature","geometry":{"type":"Polygon","coordinates":[[[106.9442,34.7236],[106.9532,34.7267],[106.9598,34.7394],[106.9605,34.7545],[106.9754,34.7716],[106.9892,34.7692],[106.9924,34.7804],[107.0286,34.7889],[107.0257,34.7976],[107.0442,34.8264],[107.0531,34.8335],[107.045,34.8519],[107.0537,34.8682],[107.0577,34.905],[107.0772,34.9131],[107.0904,34.903],[107.102,34.9018],[107.1099,34.909],[107.1092,34.9189],[107.1287,34.9302],[107.1331,34.9455],[107.1156,34.9507],[107.0993,34.9604],[107.0848,34.9774],[107.0935,35.0052],[107.0785,35.0249],[107.0442,35.0292],[107.0469,35.0417],[107.0273,35.0302],[107.0092,35.0302],[107.0025,35.048],[106.9921,35.06],[106.9774,35.0707],[106.9598,35.0651],[106.9458,35.0677],[106.9401,35.0811],[106.9265,35.076],[106.9086,35.0804],[106.9067,35.0881],[106.8959,35.0953],[106.8842,35.0895],[106.878,35.0939],[106.8573,35.0932],[106.8341,35.0807],[106.7948,35.0877],[106.7615,35.0978],[106.7292,35.1021],[106.7066,35.1013],[106.7099,35.0926],[106.7021,35.0827],[106.6607,35.0763],[106.6388,35.0786],[106.6362,35.0723],[106.6109,35.072],[106.5799,35.0882],[106.5716,35.0901],[106.566,35.0801],[106.5558,35.0909],[106.5378,35.0843],[106.5417,35.0711],[106.5323,35.0581],[106.5165,35.0284],[106.4981,35.0341],[106.4842,35.0223],[106.494,35.0169],[106.4906,35.0066],[106.4922,34.989],[106.4787,34.9806],[106.4886,34.9625],[106.4889,34.942],[106.506,34.926],[106.5134,34.8949],[106.5206,34.8798],[106.5518,34.8625],[106.5559,34.8529],[106.5477,34.8251],[106.5537,34.8127],[106.5606,34.81],[106.5612,34.7979],[106.5741,34.7899],[106.5709,34.771],[106.5446,34.7622],[106.5482,34.7527],[106.5397,34.7469],[106.502,34.7479],[106.4965,34.7447],[106.4883,34.7218],[106.4735,34.7111],[106.4556,34.7086],[106.4385,34.6891],[106.4411,34.6706],[106.466,34.6552],[106.4695,34.6495],[106.471,34.6576],[106.4906,34.6587],[106.4951,34.654],[106.5165,34.6513],[106.5516,34.6303],[106.5444,34.6224],[106.5595,34.6108],[106.5684,34.6201],[106.5862,34.6275],[106.6032,34.6241],[106.6119,34.6274],[106.6328,34.6122],[106.6543,34.6084],[106.6658,34.6191],[106.6739,34.6149],[106.6839,34.6246],[106.6849,34.6464],[106.711,34.6443],[106.7281,34.6359],[106.7368,34.6234],[106.7366,34.6111],[106.7427,34.6051],[106.7554,34.6099],[106.7639,34.5962],[106.7711,34.6077],[106.7868,34.6153],[106.8016,34.612],[106.8096,34.6008],[106.8304,34.5858],[106.8363,34.5962],[106.8348,34.6103],[106.8398,34.6254],[106.8242,34.6352],[106.8206,34.6432],[106.8328,34.6692],[106.8322,34.683],[106.8539,34.714],[106.8822,34.7228],[106.8831,34.7344],[106.8986,34.7491],[106.9295,34.7241],[106.9442,34.7236]]]},"properties":{"region_code":"CN-61-6103-610327","parent_region_code":"CN-61-6103","name":"陇县","level":"county","has_children":false,"full_path":"中国 / 陕西省 / 宝鸡市 / 陇县","source_admin_code":"610327","osm_relation_id":3048914}},
{"type":"Feature","geometry":{"type":"Polygon","coordinates":[[[107.2034,34.5564],[107.1978,34.5886],[107.2115,34.6015],[107.2339,34.6093],[107.2428,34.6285],[107.2654,34.6486],[107.2805,34.6651],[107.2874,34.6811],[107.2872,34.7009],[107.2922,34.7094],[107.312,34.724],[107.3108,34.7341],[107.3256,34.7345],[107.3334,34.754],[107.3307,34.7629],[107.3351,34.7759],[107.3535,34.7912],[107.349,34.805],[107.359,34.8184],[107.3561,34.828],[107.3599,34.8454],[107.3789,34.867],[107.3663,34.8871],[107.3689,34.8977],[107.3577,34.901],[107.3639,34.9186],[107.3545,34.9208],[107.3454,34.9349],[107.3182,34.9389],[107.2912,34.9372],[107.2818,34.9328],[107.2782,34.9127],[107.258,34.9061],[107.2478,34.8821],[107.2286,34.8905],[107.2182,34.8791],[107.1962,34.8826],[107.1848,34.8942],[107.1751,34.9291],[107.1575,34.9449],[107.1331,34.9455],[107.1287,34.9302],[107.1092,34.9189],[107.1099,34.909],[107.102,34.9018],[107.0904,34.903],[107.0772,34.9131],[107.0577,34.905],[107.0537,34.8682],[107.045,34.8519],[107.0531,34.8335],[107.0442,34.8264],[107.0257,34.7976],[107.0286,34.7889],[106.9924,34.7804],[106.9892,34.7692],[106.9754,34.7716],[106.9605,34.7545],[106.9598,34.7394],[106.9532,34.7267],[106.9442,34.7236],[106.9563,34.7142],[106.9782,34.7073],[106.9688,34.6942],[106.9876,34.6818],[106.9916,34.6663],[107.01,34.6582],[107.0203,34.6346],[107.0374,34.6335],[107.0612,34.6212],[107.0639,34.6095],[107.0939,34.5918],[107.1055,34.59],[107.1248,34.5594],[107.1374,34.5577],[107.1518,34.5755],[107.1629,34.5725],[107.1611,34.5638],[107.1683,34.5559],[107.2034,34.5564]]]},"properties":{"region_code":"CN-61-6103-610328","parent_region_code":"CN-61-6103","name":"千阳县","level":"county","has_children":false,"full_path":"中国 / 陕西省 / 宝鸡市 / 千阳县","source_admin_code":"610328","osm_relation_id":3048915}},
{"type":"Feature","geometry":{"type":"Polygon","coordinates":[[[107.6334,34.6035],[107.6426,34.6137],[107.6589,34.6116],[107.67,34.5972],[107.6831,34.5967],[107.6847,34.5867],[107.6975,34.5852],[107.7038,34.6021],[107.711,34.6072],[107.7256,34.6055],[107.7322,34.5978],[107.7293,34.5894],[107.7473,34.5869],[107.7611,34.5932],[107.7726,34.5847],[107.789,34.5859],[107.803,34.5712],[107.8071,34.5559],[107.828,34.5629],[107.8432,34.5642],[107.8556,34.5714],[107.8688,34.5927],[107.867,34.605],[107.8985,34.6127],[107.9383,34.6133],[107.9618,34.6263],[107.9769,34.6135],[107.99,34.6143],[108.0134,34.6239],[108.0316,34.6267],[108.029,34.6477],[108.0222,34.6601],[108.0286,34.6653],[108.0166,34.6972],[108.0181,34.7182],[108.0098,34.729],[108.0105,34.7392],[107.994,34.785],[107.9887,34.7902],[107.9759,34.7859],[107.9609,34.7927],[107.953,34.806],[107.9519,34.8496],[107.9444,34.8599],[107.9357,34.8629],[107.9253,34.8489],[107.8918,34.8424],[107.8508,34.8471],[107.8538,34.8627],[107.8383,34.8891],[107.8453,34.8978],[107.8229,34.9291],[107.8255,34.9486],[107.8172,34.9583],[107.8161,34.9752],[107.8025,34.975],[107.7926,34.9616],[107.7735,34.9656],[107.7397,34.954],[107.7198,34.9567],[107.6997,34.9515],[107.6709,34.9525],[107.6492,34.9343],[107.6342,34.9365],[107.6324,34.9214],[107.6218,34.9233],[107.6299,34.9521],[107.6157,34.9659],[107.601,34.9598],[107.568,34.9726],[107.5569,34.9667],[107.5469,34.9427],[107.5331,34.9335],[107.5322,34.9161],[107.5204,34.9108],[107.4926,34.9154],[107.4764,34.9209],[107.4505,34.9176],[107.4213,34.9292],[107.3962,34.9343],[107.3873,34.9335],[107.3639,34.9186],[107.3577,34.901],[107.3689,34.8977],[107.3663,34.8871],[107.3789,34.867],[107.3599,34.8454],[107.3561,34.828],[107.359,34.8184],[107.349,34.805],[107.3535,34.7912],[107.3351,34.7759],[107.3307,34.7629],[107.3334,34.754],[107.3256,34.7345],[107.3231,34.7198],[107.3298,34.711],[107.3452,34.7344],[107.356,34.7267],[107.3631,34.7332],[107.3742,34.7303],[107.3702,34.7179],[107.3857,34.7131],[107.3983,34.7234],[107.4003,34.7303],[107.4166,34.7428],[107.4367,34.7371],[107.4427,34.7446],[107.4555,34.7384],[107.45,34.7309],[107.4926,34.7285],[107.4939,34.7387],[107.5149,34.7396],[107.5251,34.7468],[107.5538,34.7447],[107.59,34.7119],[107.5921,34.7015],[107.6011,34.6934],[107.6132,34.6932],[107.6208,34.6821],[107.6217,34.6709],[107.6327,34.6599],[107.6407,34.6446],[107.6338,34.6274],[107.6243,34.6219],[107.6334,34.6035]]]},"properties":{"region_code":"CN-61-6103-610329","parent_region_code":"CN-61-6103","name":"麟游县","level":"county","has_children":false,"full_path":"中国 / 陕西省 / 宝鸡市 / 麟游县","source_admin_code":"610329","osm_relation_id":3048913}},
{"type":"Feature","geometry":{"type":"Polygon","coordinates":[[[106.8964,34.2899],[106.873,34.2936],[106.8648,34.2797],[106.8523,34.2778],[106.8256,34.2893],[106.7964,34.2967],[106.7737,34.2971],[106.7576,34.2904],[106.7435,34.2745],[106.7283,34.2755],[106.7045,34.2856],[106.6918,34.2747],[106.678,34.2691],[106.6756,34.2567],[106.6619,34.2499],[106.6421,34.249],[106.6233,34.2582],[106.6164,34.2661],[106.5993,34.2632],[106.5851,34.2517],[106.5787,34.2614],[106.5731,34.2826],[106.5519,34.2828],[106.5221,34.2938],[106.4989,34.2648],[106.4842,34.2505],[106.4973,34.2433],[106.5141,34.2436],[106.5221,34.2572],[106.5388,34.2486],[106.5524,34.2249],[106.5521,34.2073],[106.5603,34.2],[106.5567,34.1882],[106.5663,34.1743],[106.5683,34.1619],[106.5812,34.1502],[106.5641,34.1275],[106.5566,34.1119],[106.5391,34.1157],[106.5294,34.1096],[106.5018,34.1136],[106.4947,34.1021],[106.505,34.0764],[106.4943,34.0624],[106.4823,34.0405],[106.4653,34.0305],[106.4745,33.9966],[106.4664,33.9786],[106.469,33.9712],[106.461,33.9619],[106.4386,33.952],[106.4442,33.9419],[106.4305,33.931],[106.4176,33.916],[106.405,33.9092],[106.4139,33.896],[106.4107,33.8852],[106.4259,33.8681],[106.4494,33.8711],[106.4565,33.8795],[106.4701,33.8774],[106.4727,33.8675],[106.4931,33.8523],[106.4823,33.8355],[106.471,33.8334],[106.4598,33.8371],[106.4498,33.8113],[106.4538,33.8082],[106.4582,33.7876],[106.4761,33.7883],[106.481,33.7716],[106.4784,33.7609],[106.4846,33.7454],[106.4757,33.7149],[106.4997,33.7037],[106.5188,33.702],[106.5346,33.6815],[106.5488,33.6756],[106.5466,33.6616],[106.5609,33.6513],[106.5617,33.6423],[106.5746,33.6339],[106.5788,33.6137],[106.5775,33.5928],[106.5864,33.5788],[106.5966,33.579],[106.6104,33.5883],[106.6174,33.5992],[106.6258,33.6214],[106.6479,33.6365],[106.6499,33.6461],[106.6386,33.6615],[106.6471,33.6643],[106.6667,33.6629],[106.6824,33.6672],[106.7013,33.6786],[106.6927,33.6864],[106.6833,33.7036],[106.7158,33.6945],[106.7459,33.691],[106.7674,33.6812],[106.791,33.6772],[106.7971,33.6792],[106.8024,33.6958],[106.7965,33.7017],[106.7984,33.7134],[106.7949,33.7278],[106.8024,33.7374],[106.808,33.7605],[106.8008,33.7965],[106.8031,33.8128],[106.8133,33.8338],[106.8349,33.8288],[106.8413,33.8437],[106.8495,33.8514],[106.8525,33.8702],[106.8599,33.8791],[106.8678,33.8672],[106.8841,33.8628],[106.8918,33.8458],[106.9051,33.8487],[106.9238,33.835],[106.9292,33.8264],[106.9458,33.8218],[106.9725,33.8023],[106.99,33.7933],[107.0231,33.7893],[107.0301,33.8003],[107.0403,33.8032],[107.0401,33.8233],[107.0292,33.8435],[107.0357,33.8472],[107.0386,33.8641],[107.0348,33.8692],[107.0454,33.8785],[107.0582,33.8784],[107.0657,33.93],[107.0706,33.9428],[107.0845,33.9509],[107.1022,33.9521],[107.1189,33.9619],[107.1152,33.9755],[107.1018,33.992],[107.0852,34.0299],[107.0867,34.0423],[107.0929,34.0471],[107.0927,34.075],[107.0989,34.0941],[107.0895,34.1055],[107.0839,34.1215],[107.0759,34.1349],[107.0556,34.1408],[107.059,34.1549],[107.0531,34.1656],[107.0421,34.1633],[107.0354,34.1693],[107.0279,34.186],[107.0302,34.1987],[107.0128,34.2016],[107.0031,34.2261],[106.9892,34.2294],[106.9807,34.2374],[106.9515,34.2406],[106.9381,34.2506],[106.9343,34.2696],[106.8964,34.2899]]]},"properties":{"region_code":"CN-61-6103-610330","parent_region_code":"CN-61-6103","name":"凤县","level":"county","has_children":false,"full_path":"中国 / 陕西省 / 宝鸡市 / 凤县","source_admin_code":"610330","osm_relation_id":3048909}},
{"type":"Feature","geometry":{"type":"Polygon","coordinates":[[[107.0839,34.1215],[107.0895,34.1055],[107.0989,34.0941],[107.0927,34.075],[107.0929,34.0471],[107.0867,34.0423],[107.0852,34.0299],[107.1018,33.992],[107.1152,33.9755],[107.1189,33.9619],[107.1022,33.9521],[107.0845,33.9509],[107.0706,33.9428],[107.0657,33.93],[107.0582,33.8784],[107.0543,33.8683],[107.0556,33.8535],[107.0646,33.8309],[107.0783,33.821],[107.1005,33.8236],[107.1052,33.8142],[107.1301,33.8184],[107.1264,33.8042],[107.1288,33.796],[107.1479,33.7873],[107.1558,33.7918],[107.1688,33.7751],[107.1758,33.7734],[107.181,33.7606],[107.197,33.7521],[107.2101,33.7525],[107.2247,33.7593],[107.2273,33.7699],[107.2524,33.7816],[107.2682,33.7922],[107.2702,33.8005],[107.2942,33.7949],[107.3027,33.7999],[107.3171,33.821],[107.3369,33.8162],[107.3322,33.8028],[107.321,33.7956],[107.3177,33.7773],[107.3001,33.7684],[107.2956,33.7572],[107.2985,33.7382],[107.3035,33.7324],[107.3005,33.7106],[107.3148,33.6975],[107.3547,33.6845],[107.3664,33.6906],[107.3804,33.6796],[107.384,33.6695],[107.3946,33.6609],[107.3924,33.6523],[107.4113,33.6468],[107.4305,33.6528],[107.4432,33.6606],[107.4532,33.6598],[107.4697,33.672],[107.4801,33.6736],[107.4866,33.6838],[107.4987,33.6884],[107.5204,33.6838],[107.534,33.6904],[107.5579,33.7087],[107.5808,33.701],[107.5992,33.7163],[107.6215,33.7209],[107.6313,33.7197],[107.6411,33.7086],[107.6517,33.7045],[107.6762,33.7083],[107.6849,33.7328],[107.6828,33.7475],[107.6596,33.7641],[107.6815,33.7966],[107.6749,33.811],[107.6906,33.8177],[107.7011,33.839],[107.6988,33.8596],[107.7054,33.8686],[107.7132,33.9119],[107.7095,33.9276],[107.7375,33.9446],[107.7583,33.9502],[107.7726,33.9688],[107.7779,33.9805],[107.7607,33.9861],[107.7383,33.989],[107.7327,34.0068],[107.7192,34.023],[107.7216,34.0337],[107.7157,34.044],[107.7069,34.0466],[107.6987,34.057],[107.6897,34.078],[107.6972,34.0875],[107.6943,34.0977],[107.7027,34.1222],[107.6674,34.1507],[107.6453,34.159],[107.644,34.1475],[107.6351,34.1382],[107.6177,34.1319],[107.6033,34.1399],[107.5898,34.1338],[107.5847,34.1448],[107.5747,34.1514],[107.5826,34.1614],[107.574,34.1663],[107.5664,34.1579],[107.5544,34.1616],[107.5356,34.1495],[107.5284,34.1587],[107.502,34.152],[107.4876,34.1459],[107.4586,34.1398],[107.4562,34.1312],[107.4412,34.1282],[107.4263,34.1371],[107.423,34.1443],[107.4061,34.1567],[107.39,34.1594],[107.3809,34.1686],[107.3624,34.1559],[107.3457,34.1568],[107.3421,34.1649],[107.3196,34.1575],[107.2862,34.1668],[107.2636,34.1713],[107.2559,34.1599],[107.2434,34.1501],[107.224,34.1498],[107.1744,34.1571],[107.1481,34.1565],[107.1258,34.1645],[107.1056,34.1584],[107.0977,34.1482],[107.1006,34.1322],[107.0839,34.1215]]]},"properties":{"region_code":"CN-61-6103-610331","parent_region_code":"CN-61-6103","name":"太白县","level":"county","has_children":false,"full_path":"中国 / 陕西省 / 宝鸡市 / 太白县","source_admin_code":"610331","osm_relation_id":3048917}}
]}