{"type":"FeatureCollection", "features": [
{"type":"Feature","geometry":{"type":"Polygon","coordinates":[[[80.6894,44.6734],[80.6871,44.6586],[80.6751,44.6424],[80.6583,44.6365],[80.6584,44.6284],[80.6715,44.624],[80.6967,44.6094],[80.7048,44.6008],[80.7238,44.6074],[80.7317,44.6036],[80.7515,44.6096],[80.7682,44.6046],[80.7846,44.591],[80.8125,44.5833],[80.829,44.5723],[80.8768,44.582],[80.8876,44.5795],[80.8795,44.5541],[80.8872,44.5299],[80.917,44.5379],[80.9318,44.5317],[80.9451,44.536],[80.9733,44.5375],[80.9956,44.5348],[81.0004,44.5233],[81.0136,44.5114],[81.0567,44.5018],[81.0672,44.5065],[81.1065,44.5062],[81.1361,44.4921],[81.1455,44.4945],[81.1769,44.4812],[81.1797,44.4732],[81.2044,44.4691],[81.2085,44.462],[81.242,44.4592],[81.2579,44.4538],[81.2699,44.4564],[81.2924,44.4504],[81.3228,44.4532],[81.3619,44.4449],[81.4058,44.4398],[81.45,44.4436],[81.4814,44.4345],[81.4989,44.4322],[81.5244,44.4335],[81.5493,44.4296],[81.5672,44.4212],[81.5858,44.4205],[81.6029,44.4276],[81.625,44.4099],[81.6613,44.3943],[81.6949,44.3942],[81.7065,44.3887],[81.7023,44.3755],[81.7162,44.3641],[81.7347,44.361],[81.7395,44.3473],[81.7503,44.3469],[81.7495,44.3594],[81.7661,44.37],[81.7766,44.3714],[81.7974,44.4002],[81.8162,44.419],[81.8237,44.4213],[81.8335,44.4356],[81.8474,44.4403],[81.9008,44.4345],[81.9304,44.4443],[81.9731,44.4457],[81.9987,44.4563],[81.9748,44.4781],[81.9775,44.4824],[82.0109,44.4969],[82.037,44.4992],[82.0809,44.5132],[82.0831,44.5226],[82.0743,44.54],[82.0756,44.5524],[82.0929,44.562],[82.0809,44.5701],[82.0563,44.5724],[82.0124,44.5689],[81.9831,44.5698],[81.9597,44.5839],[81.9553,44.5962],[81.9628,44.6021],[81.9761,44.6337],[82.0098,44.6324],[82.0102,44.673],[82.0028,44.6877],[81.9767,44.6917],[81.9613,44.6837],[81.9432,44.683],[81.9557,44.7006],[81.9663,44.7224],[81.9826,44.7368],[81.9987,44.7445],[81.9926,44.7623],[82.0367,44.7709],[82.0557,44.78],[82.0584,44.7634],[82.0802,44.7276],[82.0738,44.6965],[82.1124,44.6866],[82.1228,44.6803],[82.1563,44.7008],[82.1698,44.7122],[82.1894,44.7517],[82.1993,44.7363],[82.2218,44.7272],[82.2346,44.7267],[82.2317,44.7144],[82.2327,44.6806],[82.2486,44.6906],[82.2717,44.6861],[82.2973,44.6766],[82.3063,44.6772],[82.332,44.6664],[82.3554,44.6668],[82.3741,44.6712],[82.3916,44.6688],[82.3983,44.6644],[82.4308,44.6744],[82.4427,44.6851],[82.4656,44.6893],[82.4796,44.6769],[82.4988,44.6912],[82.5148,44.6827],[82.5431,44.6839],[82.5292,44.6989],[82.5403,44.7083],[82.5353,44.7262],[82.5405,44.7394],[82.517,44.7366],[82.4932,44.7416],[82.476,44.7531],[82.4611,44.7576],[82.4519,44.7537],[82.4263,44.7589],[82.419,44.768],[82.3832,44.784],[82.3612,44.7893],[82.3361,44.8011],[82.3097,44.8026],[82.2657,44.8312],[82.2035,44.8207],[82.1499,44.8291],[82.1422,44.8165],[82.1187,44.8053],[82.0849,44.8328],[82.0929,44.8515],[82.1021,44.8558],[82.1344,44.8421],[82.1591,44.8608],[82.1578,44.8638],[82.121,44.8736],[82.0979,44.8724],[82.0809,44.8937],[82.095,44.8939],[82.1349,44.8838],[82.1426,44.8955],[82.2203,44.8881],[82.2398,44.8802],[82.2757,44.86],[82.3093,44.8803],[82.3316,44.8856],[82.3514,44.9004],[82.4537,44.8811],[82.4801,44.8803],[82.4933,44.8829],[82.4936,44.903],[82.5342,44.9025],[82.5966,44.9225],[82.6301,44.9312],[82.6395,44.9433],[82.658,44.9436],[82.6386,44.9768],[82.6226,44.9957],[82.5915,45.0269],[82.5818,45.0442],[82.5651,45.054],[82.4928,45.1162],[82.4772,45.125],[82.4413,45.16],[82.4295,45.1562],[82.4114,45.1646],[82.411,45.1715],[82.3871,45.1886],[82.3764,45.1869],[82.3252,45.2097],[82.314,45.2207],[82.2983,45.2233],[82.2802,45.2399],[82.2677,45.2413],[82.2574,45.2339],[82.2331,45.235],[82.2013,45.2291],[82.1852,45.2288],[82.1721,45.2213],[82.1512,45.2218],[82.1239,45.2109],[82.1126,45.2017],[82.1001,45.2023],[82.0818,45.2229],[82.088,45.2429],[82.065,45.2465],[82.0443,45.2542],[82.0391,45.2457],[82.0092,45.2336],[81.9967,45.2324],[81.9782,45.2381],[81.9707,45.2339],[81.9418,45.2362],[81.922,45.2289],[81.9093,45.2431],[81.8787,45.2837],[81.8554,45.2952],[81.8301,45.3181],[81.8311,45.3274],[81.8086,45.3517],[81.8084,45.358],[81.785,45.3798],[81.7741,45.3861],[81.7586,45.3722],[81.7371,45.373],[81.7337,45.3657],[81.7137,45.3589],[81.6952,45.3692],[81.6794,45.3645],[81.6783,45.3562],[81.6503,45.3505],[81.6324,45.3566],[81.6194,45.3516],[81.6127,45.3419],[81.5921,45.3405],[81.5869,45.3323],[81.5688,45.3253],[81.5734,45.3074],[81.5996,45.3028],[81.604,45.2961],[81.6379,45.2929],[81.6571,45.2781],[81.6714,45.2541],[81.6667,45.2407],[81.6744,45.2212],[81.6635,45.2136],[81.6721,45.1966],[81.6648,45.1847],[81.666,45.1635],[81.6728,45.1454],[81.6645,45.1381],[81.6736,45.1091],[81.6655,45.101],[81.6633,45.0677],[81.6682,45.0645],[81.6694,45.0341],[81.7017,45.0384],[81.711,45.0283],[81.717,45.0067],[81.7436,44.9996],[81.7565,44.9885],[81.7525,44.969],[81.7211,44.9778],[81.7195,44.9721],[81.6777,44.9711],[81.6407,44.9728],[81.6467,44.959],[81.6298,44.9458],[81.6073,44.9045],[81.5852,44.8835],[81.5647,44.8736],[81.5536,44.861],[81.5284,44.8115],[81.5381,44.7812],[81.5281,44.7555],[81.5058,44.739],[81.5053,44.7218],[81.4915,44.7137],[81.4786,44.7173],[81.4593,44.7136],[81.4368,44.7036],[81.4111,44.7055],[81.4012,44.6968],[81.3731,44.6894],[81.3524,44.689],[81.3371,44.6969],[81.321,44.6879],[81.3059,44.6956],[81.285,44.7003],[81.2609,44.7018],[81.2474,44.7081],[81.2466,44.7167],[81.2314,44.7254],[81.2094,44.7226],[81.2037,44.7359],[81.1864,44.7505],[81.1643,44.7517],[81.1486,44.7419],[81.1281,44.7553],[81.115,44.7479],[81.0859,44.757],[81.058,44.735],[81.04,44.732],[81.0006,44.739],[80.9764,44.7379],[80.9285,44.7452],[80.8787,44.7345],[80.8497,44.7188],[80.8518,44.7129],[80.8147,44.6997],[80.8086,44.6944],[80.7846,44.6915],[80.7658,44.6858],[80.7463,44.6966],[80.7286,44.689],[80.7148,44.691],[80.6894,44.6734]],[[82.1439,44.7849],[82.1618,44.7906],[82.1813,44.7884],[82.1776,44.7778],[82.1524,44.7698],[82.1439,44.7849]],[[82.2941,44.7531],[82.3005,44.736],[82.2887,44.7309],[82.2777,44.7393],[82.2587,44.7669],[82.2818,44.7606],[82.2941,44.7531]],[[82.2318,45.1226],[82.2071,45.1232],[82.2194,45.1466],[82.2352,45.1448],[82.2318,45.1226]],[[82.4343,45.006],[82.272,45.0286],[82.2833,45.0457],[82.2784,45.0678],[82.2732,45.0695],[82.2699,45.0897],[82.2945,45.1051],[82.4499,45.0675],[82.4343,45.006]],[[82.2067,44.9267],[82.1874,44.9177],[82.1761,44.9177],[82.1086,44.927],[82.0873,44.9315],[82.0614,44.9329],[82.055,44.9523],[82.0425,44.9695],[82.0246,44.9754],[81.9801,44.9634],[81.9671,44.9779],[81.9502,44.9852],[81.9376,45.008],[81.964,45.0074],[81.9722,45.0219],[82.0158,45.0266],[82.0576,45.0397],[82.1306,45.0361],[82.1859,44.9938],[82.1974,44.987],[82.1916,44.9728],[82.2073,44.9458],[82.2067,44.9267]]]},"properties":{"region_code":"CN-65-6527-652701","parent_region_code":"CN-65-6527","name":"博乐市","level":"county","has_children":false,"full_path":"中国 / 新疆维吾尔自治区 / 博尔塔拉蒙古自治州 / 博乐市","source_admin_code":"652701","osm_relation_id":2751052}},
{"type":"Feature","geometry":{"type":"Polygon","coordinates":[[[82.5818,45.0442],[82.5843,45.0572],[82.6111,45.1072],[82.6243,45.1241],[82.6591,45.1379],[82.6728,45.1393],[82.6788,45.1527],[82.6459,45.171],[82.6092,45.1992],[82.6077,45.2042],[82.5802,45.2185],[82.5601,45.2035],[82.4749,45.177],[82.4558,45.1873],[82.4282,45.1877],[82.4165,45.1923],[82.3977,45.193],[82.3837,45.1996],[82.3626,45.2011],[82.3407,45.2091],[82.3109,45.2269],[82.3061,45.2346],[82.2802,45.2399],[82.2983,45.2233],[82.314,45.2207],[82.3252,45.2097],[82.3764,45.1869],[82.3871,45.1886],[82.411,45.1715],[82.4114,45.1646],[82.4295,45.1562],[82.4413,45.16],[82.4772,45.125],[82.4928,45.1162],[82.5651,45.054],[82.5818,45.0442]]]},"properties":{"region_code":"CN-65-6527-652702","parent_region_code":"CN-65-6527","name":"阿拉山口市","level":"county","has_children":false,"full_path":"中国 / 新疆维吾尔自治区 / 博尔塔拉蒙古自治州 / 阿拉山口市","source_admin_code":"652702","osm_relation_id":9068418}},
{"type":"Feature","geometry":{"type":"Polygon","coordinates":[[[82.658,44.9436],[82.6669,44.9265],[82.6726,44.8991],[82.6839,44.8756],[82.7006,44.8597],[82.7438,44.8566],[82.7325,44.8396],[82.7274,44.8242],[82.7032,44.8189],[82.7022,44.8112],[82.6864,44.7974],[82.672,44.791],[82.6633,44.7707],[82.6532,44.7683],[82.6252,44.7507],[82.6101,44.7323],[82.5938,44.7222],[82.5768,44.7196],[82.5526,44.7051],[82.5403,44.7083],[82.5292,44.6989],[82.5431,44.6839],[82.5148,44.6827],[82.4988,44.6912],[82.4796,44.6769],[82.4656,44.6893],[82.4427,44.6851],[82.4308,44.6744],[82.3983,44.6644],[82.3916,44.6688],[82.3741,44.6712],[82.3554,44.6668],[82.332,44.6664],[82.3063,44.6772],[82.2973,44.6766],[82.2717,44.6861],[82.2486,44.6906],[82.2327,44.6806],[82.2174,44.6794],[82.1888,44.6613],[82.1691,44.6613],[82.1539,44.6686],[82.1358,44.6602],[82.1255,44.6363],[82.1083,44.6413],[82.0976,44.6318],[82.0776,44.6428],[82.0854,44.6645],[82.1152,44.6826],[82.1228,44.6803],[82.1124,44.6866],[82.0738,44.6965],[82.0802,44.7276],[82.0584,44.7634],[82.0557,44.78],[82.0367,44.7709],[81.9926,44.7623],[81.9987,44.7445],[81.9826,44.7368],[81.9663,44.7224],[81.9557,44.7006],[81.9432,44.683],[81.9613,44.6837],[81.9767,44.6917],[82.0028,44.6877],[82.0102,44.673],[82.0098,44.6324],[81.9761,44.6337],[81.9628,44.6021],[81.9553,44.5962],[81.9597,44.5839],[81.9831,44.5698],[82.0124,44.5689],[82.0563,44.5724],[82.0809,44.5701],[82.0929,44.562],[82.0756,44.5524],[82.0743,44.54],[82.0831,44.5226],[82.0809,44.5132],[82.037,44.4992],[82.0109,44.4969],[81.9775,44.4824],[81.9748,44.4781],[81.9987,44.4563],[81.9731,44.4457],[81.9304,44.4443],[81.9008,44.4345],[81.8474,44.4403],[81.8335,44.4356],[81.8237,44.4213],[81.8162,44.419],[81.7974,44.4002],[81.7766,44.3714],[81.7661,44.37],[81.7495,44.3594],[81.7503,44.3469],[81.7874,44.3466],[81.8207,44.3359],[81.8447,44.3313],[81.8962,44.3114],[81.9408,44.3029],[81.9875,44.2911],[82.0053,44.2928],[82.0232,44.2873],[82.043,44.2868],[82.0699,44.2916],[82.1072,44.2819],[82.1433,44.2756],[82.1603,44.2636],[82.2122,44.255],[82.2476,44.2559],[82.2751,44.2488],[82.3085,44.251],[82.3369,44.2611],[82.3567,44.2544],[82.3605,44.2444],[82.4066,44.2079],[82.4281,44.1788],[82.4454,44.1712],[82.5212,44.1536],[82.5599,44.1344],[82.5782,44.1297],[82.6291,44.1257],[82.6471,44.1205],[82.6728,44.1041],[82.6912,44.0822],[82.7058,44.0757],[82.7285,44.0732],[82.7755,44.0813],[82.8132,44.0714],[82.8507,44.0649],[82.8679,44.0574],[82.8913,44.0539],[82.9074,44.068],[82.98,44.0916],[83.0264,44.0844],[83.1043,44.0916],[83.1313,44.0906],[83.1554,44.0846],[83.1963,44.0796],[83.2198,44.0807],[83.2375,44.0749],[83.2762,44.0267],[83.3072,44.0071],[83.3209,44.0055],[83.3605,44.0074],[83.4033,44.0156],[83.4413,44.0334],[83.4679,44.0428],[83.4615,44.0512],[83.4599,44.0709],[83.4458,44.0753],[83.4419,44.1204],[83.4363,44.1347],[83.417,44.1546],[83.4085,44.1677],[83.4122,44.1865],[83.4289,44.2075],[83.4339,44.2327],[83.418,44.2455],[83.4288,44.2514],[83.4458,44.2533],[83.434,44.2736],[83.4363,44.2809],[83.4673,44.2981],[83.4829,44.3161],[83.4726,44.3243],[83.4879,44.3372],[83.4821,44.3534],[83.4862,44.3661],[83.5032,44.3813],[83.5074,44.3926],[83.5279,44.4104],[83.5096,44.4553],[83.5144,44.4664],[83.5426,44.4601],[83.5969,44.4615],[83.6268,44.4674],[83.6356,44.4738],[83.7197,44.4625],[83.7496,44.4607],[83.79,44.4656],[83.7949,44.4954],[83.7885,44.5194],[83.7715,44.5357],[83.7423,44.5515],[83.7529,44.5848],[83.7512,44.6076],[83.756,44.6318],[83.7673,44.6623],[83.7673,44.6733],[83.7923,44.72],[83.7958,44.7341],[83.792,44.7583],[83.771,44.7699],[83.7662,44.7805],[83.7482,44.7806],[83.727,44.8015],[83.7043,44.8361],[83.7042,44.8432],[83.677,44.8779],[83.6559,44.8858],[83.6141,44.8948],[83.5994,44.9001],[83.5952,44.913],[83.582,44.9187],[83.574,44.9289],[83.5508,44.9314],[83.5391,44.9377],[83.5103,44.9387],[83.4947,44.9484],[83.4939,44.9602],[83.4799,44.9635],[83.4613,44.9789],[83.4427,44.9814],[83.4087,44.9787],[83.3886,44.9797],[83.3495,44.9891],[83.2952,44.9932],[83.2596,44.9978],[83.147,45.016],[83.0659,45.0339],[83.0014,45.0493],[82.9524,45.067],[82.9001,45.0832],[82.8506,45.1012],[82.8263,45.1162],[82.7991,45.1266],[82.755,45.1513],[82.717,45.1596],[82.6788,45.1527],[82.6728,45.1393],[82.6591,45.1379],[82.6243,45.1241],[82.6111,45.1072],[82.5843,45.0572],[82.5818,45.0442],[82.5915,45.0269],[82.6226,44.9957],[82.6386,44.9768],[82.658,44.9436]]]},"properties":{"region_code":"CN-65-6527-652722","parent_region_code":"CN-65-6527","name":"精河县","level":"county","has_children":false,"full_path":"中国 / 新疆维吾尔自治区 / 博尔塔拉蒙古自治州 / 精河县","source_admin_code":"652722","osm_relation_id":2751053}},
{"type":"Feature","geometry":{"type":"Polygon","coordinates":[[[81.5734,45.3074],[81.5347,45.3059],[81.5215,45.2825],[81.4986,45.2813],[81.4518,45.2622],[81.4373,45.268],[81.435,45.2795],[81.4077,45.2805],[81.3821,45.2642],[81.3782,45.2538],[81.3608,45.2605],[81.3071,45.2541],[81.2819,45.2394],[81.2593,45.2367],[81.2385,45.2406],[81.2035,45.2368],[81.1814,45.227],[81.1665,45.2243],[81.1698,45.2128],[81.1558,45.2052],[81.1196,45.2152],[81.0995,45.1996],[81.0835,45.1946],[81.0698,45.1723],[81.0554,45.1778],[81.0247,45.1635],[80.9966,45.1583],[80.9569,45.1676],[80.9296,45.1577],[80.9214,45.1452],[80.9066,45.137],[80.8983,45.1251],[80.8754,45.13],[80.8495,45.1277],[80.8352,45.1396],[80.787,45.1501],[80.7726,45.1439],[80.7631,45.1517],[80.7398,45.1617],[80.728,45.1712],[80.7164,45.1698],[80.7245,45.1503],[80.7048,45.1434],[80.6979,45.1335],[80.6552,45.1213],[80.6243,45.1178],[80.6144,45.1085],[80.6009,45.1046],[80.5758,45.1102],[80.5471,45.1109],[80.5174,45.1056],[80.509,45.1069],[80.4889,45.1265],[80.4769,45.1138],[80.4627,45.1126],[80.4374,45.0972],[80.4434,45.0872],[80.4379,45.075],[80.4196,45.0619],[80.4073,45.0577],[80.4033,45.0476],[80.3821,45.04],[80.3449,45.0411],[80.3307,45.0548],[80.3254,45.0696],[80.2934,45.0665],[80.2667,45.0536],[80.2403,45.0277],[80.2325,45.0332],[80.2135,45.0233],[80.1916,45.0284],[80.178,45.0416],[80.1679,45.0388],[80.1524,45.0527],[80.1386,45.0523],[80.118,45.0413],[80.0897,45.0467],[80.0912,45.0375],[80.0714,45.0334],[80.0618,45.036],[80.0567,45.0141],[80.0185,44.9903],[80.013,44.9802],[79.9888,44.9786],[79.9857,44.969],[79.9557,44.9614],[79.9475,44.944],[79.935,44.9329],[79.9027,44.9245],[79.882,44.9107],[79.8886,44.9025],[79.9147,44.9007],[79.9322,44.8875],[79.9533,44.882],[79.9461,44.8663],[79.9447,44.85],[79.959,44.8437],[79.9996,44.816],[79.9954,44.7921],[80.0063,44.7902],[80.034,44.8041],[80.0451,44.8006],[80.0594,44.8078],[80.0961,44.8136],[80.1142,44.8098],[80.1278,44.8231],[80.1462,44.8267],[80.1568,44.8416],[80.1671,44.8275],[80.1832,44.8235],[80.1944,44.827],[80.2084,44.8211],[80.2266,44.8212],[80.2604,44.8427],[80.2824,44.8379],[80.2981,44.8265],[80.2887,44.819],[80.3013,44.8113],[80.3469,44.8194],[80.3501,44.8015],[80.3604,44.798],[80.3754,44.777],[80.3951,44.766],[80.4356,44.7631],[80.4606,44.7533],[80.4745,44.7407],[80.5407,44.733],[80.5596,44.7263],[80.5724,44.7282],[80.588,44.7231],[80.6046,44.733],[80.6149,44.7281],[80.6338,44.7305],[80.6361,44.7099],[80.6649,44.6995],[80.6685,44.6835],[80.6894,44.6734],[80.7148,44.691],[80.7286,44.689],[80.7463,44.6966],[80.7658,44.6858],[80.7846,44.6915],[80.8086,44.6944],[80.8147,44.6997],[80.8518,44.7129],[80.8497,44.7188],[80.8787,44.7345],[80.9285,44.7452],[80.9764,44.7379],[81.0006,44.739],[81.04,44.732],[81.058,44.735],[81.0859,44.757],[81.115,44.7479],[81.1281,44.7553],[81.1486,44.7419],[81.1643,44.7517],[81.1864,44.7505],[81.2037,44.7359],[81.2094,44.7226],[81.2314,44.7254],[81.2466,44.7167],[81.2474,44.7081],[81.2609,44.7018],[81.285,44.7003],[81.3059,44.6956],[81.321,44.6879],[81.3371,44.6969],[81.3524,44.689],[81.3731,44.6894],[81.4012,44.6968],[81.4111,44.7055],[81.4368,44.7036],[81.4593,44.7136],[81.4786,44.7173],[81.4915,44.7137],[81.5053,44.7218],[81.5058,44.739],[81.5281,44.7555],[81.5381,44.7812],[81.5284,44.8115],[81.5536,44.861],[81.5647,44.8736],[81.5852,44.8835],[81.6073,44.9045],[81.6298,44.9458],[81.6467,44.959],[81.6407,44.9728],[81.6777,44.9711],[81.7195,44.9721],[81.7211,44.9778],[81.7525,44.969],[81.7565,44.9885],[81.7436,44.9996],[81.717,45.0067],[81.711,45.0283],[81.7017,45.0384],[81.6694,45.0341],[81.6682,45.0645],[81.6633,45.0677],[81.6655,45.101],[81.6736,45.1091],[81.6645,45.1381],[81.6728,45.1454],[81.666,45.1635],[81.6648,45.1847],[81.6721,45.1966],[81.6635,45.2136],[81.6744,45.2212],[81.6667,45.2407],[81.6714,45.2541],[81.6571,45.2781],[81.6379,45.2929],[81.604,45.2961],[81.5996,45.3028],[81.5734,45.3074]]]},"properties":{"region_code":"CN-65-6527-652723","parent_region_code":"CN-65-6527","name":"温泉县","level":"county","has_children":false,"full_path":"中国 / 新疆维吾尔自治区 / 博尔塔拉蒙古自治州 / 温泉县","source_admin_code":"652723","osm_relation_id":2751054}}
]}