{"type":"FeatureCollection", "features": [
{"type":"Feature","geometry":{"type":"Polygon","coordinates":[[[102.7914,36.4271],[102.7865,36.4465],[102.7712,36.4553],[102.7686,36.4728],[102.7873,36.4825],[102.7913,36.4994],[102.7694,36.5217],[102.7511,36.5263],[102.7327,36.562],[102.7595,36.5685],[102.7164,36.6024],[102.7226,36.6141],[102.6871,36.6179],[102.6274,36.6539],[102.6075,36.6782],[102.5998,36.7135],[102.5592,36.7036],[102.5303,36.7125],[102.5214,36.7242],[102.4628,36.7399],[102.4681,36.7673],[102.4397,36.7801],[102.4255,36.8089],[102.3513,36.842],[102.3428,36.82],[102.365,36.7968],[102.3713,36.7741],[102.3664,36.7089],[102.3459,36.7128],[102.3068,36.6964],[102.2984,36.6754],[102.2811,36.679],[102.2695,36.658],[102.242,36.6448],[102.2277,36.6294],[102.2011,36.6319],[102.194,36.5645],[102.1829,36.5334],[102.1591,36.4385],[102.1283,36.4028],[102.0994,36.3778],[102.125,36.334],[102.1158,36.3199],[102.1301,36.3051],[102.1579,36.2949],[102.1525,36.2589],[102.172,36.2349],[102.21,36.2253],[102.2383,36.2392],[102.2883,36.2281],[102.3072,36.2437],[102.3261,36.2445],[102.3453,36.226],[102.3742,36.228],[102.4064,36.2067],[102.4448,36.2008],[102.4733,36.2041],[102.4844,36.236],[102.5097,36.2568],[102.5062,36.2736],[102.5235,36.2944],[102.5404,36.3341],[102.5822,36.3534],[102.7132,36.3714],[102.7109,36.3839],[102.7316,36.4067],[102.7202,36.4187],[102.7252,36.4416],[102.7501,36.4372],[102.7359,36.4201],[102.7452,36.4081],[102.7914,36.4271]]]},"properties":{"region_code":"CN-63-6302-630202","parent_region_code":"CN-63-6302","name":"乐都区","level":"county","has_children":false,"full_path":"中国 / 青海省 / 海东市 / 乐都区","source_admin_code":"630202","osm_relation_id":4470186}},
{"type":"Feature","geometry":{"type":"Polygon","coordinates":[[[102.1829,36.5334],[102.1811,36.5493],[102.1617,36.5624],[102.1389,36.5369],[102.096,36.5134],[102.0258,36.5058],[102.0036,36.5236],[101.9455,36.5533],[101.912,36.5627],[101.8898,36.5333],[101.8943,36.4906],[101.8667,36.4667],[101.852,36.4358],[101.8447,36.3875],[101.8587,36.3799],[101.8517,36.3585],[101.8264,36.325],[101.8172,36.2932],[101.8424,36.2989],[101.876,36.2867],[101.919,36.2884],[101.9537,36.2967],[101.9807,36.289],[101.9812,36.2691],[102.0253,36.2628],[102.0273,36.2951],[102.0482,36.2858],[102.0507,36.2533],[102.0847,36.2508],[102.1525,36.2589],[102.1579,36.2949],[102.1301,36.3051],[102.1158,36.3199],[102.125,36.334],[102.0994,36.3778],[102.1283,36.4028],[102.1591,36.4385],[102.1829,36.5334]]]},"properties":{"region_code":"CN-63-6302-630203","parent_region_code":"CN-63-6302","name":"平安区","level":"county","has_children":false,"full_path":"中国 / 青海省 / 海东市 / 平安区","source_admin_code":"630203","osm_relation_id":4470188}},
{"type":"Feature","geometry":{"type":"Polygon","coordinates":[[[102.4448,36.2008],[102.4537,36.1781],[102.4939,36.1637],[102.5168,36.1712],[102.5345,36.1568],[102.5522,36.1584],[102.5737,36.135],[102.5935,36.1305],[102.612,36.1096],[102.6394,36.1066],[102.636,36.0785],[102.6421,36.0535],[102.6689,36.0395],[102.699,36.0005],[102.6582,35.9487],[102.6608,35.9284],[102.6833,35.899],[102.658,35.8792],[102.6822,35.8731],[102.6693,35.8517],[102.6949,35.842],[102.7135,35.817],[102.7382,35.8212],[102.7531,35.8394],[102.7847,35.8626],[102.8182,35.8506],[102.8445,35.8558],[102.8602,35.8451],[102.8844,35.8495],[102.9138,35.8458],[102.9199,35.8346],[102.9485,35.8375],[102.9537,35.8609],[102.9457,35.8859],[102.9489,35.9082],[102.9401,35.928],[102.9477,35.9635],[102.9686,35.9941],[102.9502,36.0234],[102.9679,36.0426],[102.9277,36.05],[102.9166,36.0663],[102.8939,36.066],[102.9058,36.088],[102.9387,36.1054],[102.9437,36.1332],[102.9653,36.1521],[102.9854,36.1888],[103.0183,36.2049],[103.0467,36.1994],[103.0601,36.2195],[103.0286,36.2338],[103.0221,36.2572],[102.9927,36.2633],[102.9698,36.2834],[102.9206,36.2991],[102.8943,36.3325],[102.8435,36.3324],[102.8191,36.3848],[102.8241,36.4051],[102.8062,36.4099],[102.7914,36.4271],[102.7452,36.4081],[102.7359,36.4201],[102.7501,36.4372],[102.7252,36.4416],[102.7202,36.4187],[102.7316,36.4067],[102.7109,36.3839],[102.7132,36.3714],[102.5822,36.3534],[102.5404,36.3341],[102.5235,36.2944],[102.5062,36.2736],[102.5097,36.2568],[102.4844,36.236],[102.4733,36.2041],[102.4448,36.2008]]]},"properties":{"region_code":"CN-63-6302-630222","parent_region_code":"CN-63-6302","name":"民和回族土族自治县","level":"county","has_children":false,"full_path":"中国 / 青海省 / 海东市 / 民和回族土族自治县","source_admin_code":"630222","osm_relation_id":4470187}},
{"type":"Feature","geometry":{"type":"Polygon","coordinates":[[[102.5998,36.7135],[102.6122,36.7389],[102.6431,36.7342],[102.6673,36.7588],[102.6924,36.7753],[102.7018,36.792],[102.6751,36.8084],[102.6386,36.8519],[102.585,36.8705],[102.5596,36.9054],[102.5596,36.9192],[102.5263,36.9276],[102.4981,36.9545],[102.4611,36.9571],[102.4653,36.9893],[102.5035,37.0237],[102.4923,37.0434],[102.4895,37.0749],[102.4719,37.0854],[102.4047,37.104],[102.3662,37.1043],[102.3384,37.0947],[102.3089,37.1004],[102.2878,37.0809],[102.2593,37.0858],[102.2343,37.0754],[102.1921,37.0764],[102.1617,37.0553],[102.1161,37.061],[102.0417,37.0943],[101.9967,37.1012],[101.9625,37.1274],[101.9109,37.1509],[101.9075,37.1332],[101.8792,37.1263],[101.8907,37.0837],[101.8803,37.0457],[101.8687,37.0455],[101.8337,36.9984],[101.8292,36.9822],[101.8468,36.9673],[101.8396,36.9447],[101.8125,36.9258],[101.7985,36.8499],[101.8032,36.8233],[101.7892,36.8087],[101.7984,36.7936],[101.7887,36.7468],[101.7784,36.7322],[101.7894,36.7057],[101.7747,36.6726],[101.7997,36.6531],[101.8297,36.6504],[101.8775,36.6139],[101.9042,36.5844],[101.912,36.5627],[101.9455,36.5533],[102.0036,36.5236],[102.0258,36.5058],[102.096,36.5134],[102.1389,36.5369],[102.1617,36.5624],[102.1811,36.5493],[102.1829,36.5334],[102.194,36.5645],[102.2011,36.6319],[102.2277,36.6294],[102.242,36.6448],[102.2695,36.658],[102.2811,36.679],[102.2984,36.6754],[102.3068,36.6964],[102.3459,36.7128],[102.3664,36.7089],[102.3713,36.7741],[102.365,36.7968],[102.3428,36.82],[102.3513,36.842],[102.4255,36.8089],[102.4397,36.7801],[102.4681,36.7673],[102.4628,36.7399],[102.5214,36.7242],[102.5303,36.7125],[102.5592,36.7036],[102.5998,36.7135]]]},"properties":{"region_code":"CN-63-6302-630223","parent_region_code":"CN-63-6302","name":"互助土族自治县","level":"county","has_children":false,"full_path":"中国 / 青海省 / 海东市 / 互助土族自治县","source_admin_code":"630223","osm_relation_id":4470185}},
{"type":"Feature","geometry":{"type":"Polygon","coordinates":[[[102.1525,36.2589],[102.0847,36.2508],[102.0507,36.2533],[102.0482,36.2858],[102.0273,36.2951],[102.0253,36.2628],[101.9812,36.2691],[101.9807,36.289],[101.9537,36.2967],[101.919,36.2884],[101.876,36.2867],[101.8424,36.2989],[101.8172,36.2932],[101.7689,36.2888],[101.7423,36.3011],[101.7318,36.2773],[101.7142,36.2774],[101.7035,36.2501],[101.6692,36.2297],[101.6617,36.1616],[101.7129,36.1644],[101.7524,36.1504],[101.7803,36.1553],[101.7886,36.1223],[101.8719,36.1131],[101.8857,36.0966],[101.9088,36.087],[101.8973,36.0732],[101.945,36.0592],[101.9505,36.0322],[101.9802,36.0283],[101.9824,36.0084],[102.008,36.0003],[102.0354,35.9781],[102.0326,35.955],[102.0769,35.9473],[102.0397,35.9277],[102.0519,35.9084],[102.0859,35.9194],[102.1048,35.9064],[102.1085,35.8734],[102.0754,35.8645],[102.0768,35.8456],[102.1007,35.8308],[102.1329,35.8288],[102.161,35.8364],[102.182,35.8562],[102.2072,35.8623],[102.2373,35.8813],[102.2762,35.8714],[102.3312,35.8665],[102.3467,35.8787],[102.362,35.8711],[102.3951,35.8701],[102.4073,35.8824],[102.4125,35.9126],[102.4428,35.8982],[102.469,35.9113],[102.5019,35.9136],[102.5103,35.8918],[102.5558,35.8704],[102.5678,35.88],[102.57,35.9039],[102.6065,35.9213],[102.658,35.8792],[102.6833,35.899],[102.6608,35.9284],[102.6582,35.9487],[102.699,36.0005],[102.6689,36.0395],[102.6421,36.0535],[102.636,36.0785],[102.6394,36.1066],[102.612,36.1096],[102.5935,36.1305],[102.5737,36.135],[102.5522,36.1584],[102.5345,36.1568],[102.5168,36.1712],[102.4939,36.1637],[102.4537,36.1781],[102.4448,36.2008],[102.4064,36.2067],[102.3742,36.228],[102.3453,36.226],[102.3261,36.2445],[102.3072,36.2437],[102.2883,36.2281],[102.2383,36.2392],[102.21,36.2253],[102.172,36.2349],[102.1525,36.2589]]]},"properties":{"region_code":"CN-63-6302-630224","parent_region_code":"CN-63-6302","name":"化隆回族自治县","level":"county","has_children":false,"full_path":"中国 / 青海省 / 海东市 / 化隆回族自治县","source_admin_code":"630224","osm_relation_id":4470184}},
{"type":"Feature","geometry":{"type":"Polygon","coordinates":[[[102.658,35.8792],[102.6065,35.9213],[102.57,35.9039],[102.5678,35.88],[102.5558,35.8704],[102.5103,35.8918],[102.5019,35.9136],[102.469,35.9113],[102.4428,35.8982],[102.4125,35.9126],[102.4073,35.8824],[102.3951,35.8701],[102.362,35.8711],[102.3467,35.8787],[102.3312,35.8665],[102.2762,35.8714],[102.2373,35.8813],[102.2072,35.8623],[102.182,35.8562],[102.161,35.8364],[102.1329,35.8288],[102.1007,35.8308],[102.0809,35.8173],[102.0878,35.7937],[102.1219,35.7732],[102.1399,35.7479],[102.131,35.7326],[102.1502,35.7163],[102.1603,35.6941],[102.2102,35.7087],[102.2228,35.6799],[102.2193,35.6622],[102.2297,35.649],[102.266,35.6247],[102.3017,35.6244],[102.3478,35.6093],[102.3522,35.5907],[102.3873,35.5612],[102.4056,35.5389],[102.4242,35.5371],[102.4207,35.4913],[102.4022,35.4708],[102.4361,35.4557],[102.4636,35.5022],[102.4807,35.5133],[102.5072,35.5694],[102.5297,35.5809],[102.5502,35.5598],[102.5856,35.5424],[102.6935,35.529],[102.7422,35.4953],[102.7771,35.5207],[102.7702,35.5332],[102.7459,35.529],[102.7435,35.5464],[102.7807,35.5497],[102.7984,35.5748],[102.7636,35.6],[102.7629,35.62],[102.7409,35.6463],[102.7274,35.6861],[102.6987,35.6996],[102.6919,35.7514],[102.6831,35.7735],[102.6936,35.7967],[102.7135,35.817],[102.6949,35.842],[102.6693,35.8517],[102.6822,35.8731],[102.658,35.8792]]]},"properties":{"region_code":"CN-63-6302-630225","parent_region_code":"CN-63-6302","name":"循化撒拉族自治县","level":"county","has_children":false,"full_path":"中国 / 青海省 / 海东市 / 循化撒拉族自治县","source_admin_code":"630225","osm_relation_id":4470189}}
]}