{"type":"FeatureCollection", "features": [
{"type":"Feature","geometry":{"type":"Polygon","coordinates":[[[101.2174,36.3268],[101.1835,36.3715],[101.128,36.3926],[101.1115,36.4318],[101.0827,36.4415],[101.0742,36.4813],[101.0279,36.5092],[100.9927,36.5646],[100.9883,36.6265],[100.9515,36.6551],[100.917,36.7507],[100.8627,36.7809],[100.8031,36.7582],[100.72,36.7543],[100.6958,36.7754],[100.1415,36.8994],[99.8815,36.9463],[99.7996,36.9888],[99.7367,37.0376],[99.6888,37.044],[99.6673,37.063],[99.5179,37.1344],[99.4468,37.1606],[99.3642,37.1769],[99.3541,37.1339],[99.2842,37.1062],[99.2462,37.0359],[99.2303,36.979],[99.1967,36.9636],[99.1947,36.9337],[99.2723,36.9049],[99.295,36.8446],[99.3224,36.8481],[99.4356,36.7648],[99.4269,36.7248],[99.4665,36.6878],[99.1161,36.5522],[99.089,36.5328],[98.9977,36.506],[98.9196,36.4899],[98.9273,36.449],[98.9554,36.4214],[98.9926,36.4114],[99.0061,36.3824],[99.0332,36.376],[99.0737,36.3011],[99.0518,36.2812],[99.0535,36.2303],[99.0236,36.2198],[98.9678,36.1321],[98.9842,36.1043],[99.0152,36.0871],[99.0383,36.0976],[99.1059,36.0751],[99.1394,36.1138],[99.1608,36.1002],[99.22,36.1202],[99.2845,36.1062],[99.3782,36.1132],[99.4242,36.088],[99.4414,36.0211],[99.4693,35.9983],[99.5179,36.0342],[99.5297,36.0561],[99.5895,36.0072],[99.6011,35.9821],[99.6341,35.9729],[99.672,35.9993],[99.6583,36.0313],[99.7036,36.0767],[99.7431,36.0894],[99.7624,36.136],[99.8188,36.2039],[99.8941,36.2531],[99.9545,36.2102],[100.0236,36.1098],[100.071,36.1058],[100.0995,36.068],[100.171,36.0048],[100.1971,35.9894],[100.2685,35.829],[100.2942,35.7633],[100.3563,35.7857],[100.4137,35.7936],[100.4339,35.8177],[100.4912,35.8476],[100.5292,35.8827],[100.5643,35.8807],[100.6313,35.9132],[100.6987,35.9767],[100.7727,36.1191],[100.8279,36.1334],[100.9069,36.1162],[100.9783,36.1346],[100.9673,36.206],[100.9847,36.2465],[101.0554,36.2837],[101.1059,36.2652],[101.1622,36.2775],[101.2174,36.3268]]]},"properties":{"region_code":"CN-63-6325-632521","parent_region_code":"CN-63-6325","name":"共和县","level":"county","has_children":false,"full_path":"中国 / 青海省 / 海南藏族自治州 / 共和县","source_admin_code":"632521","osm_relation_id":4479119}},
{"type":"Feature","geometry":{"type":"Polygon","coordinates":[[[100.6917,35.4183],[100.5765,35.4024],[100.5156,35.4051],[100.4629,35.4188],[100.4295,35.471],[100.3726,35.4921],[100.2916,35.4821],[100.278,35.5624],[100.2978,35.5815],[100.2609,35.6241],[100.2217,35.6415],[100.2036,35.6284],[100.1876,35.5675],[100.1489,35.5372],[100.134,35.4839],[100.174,35.4488],[100.1896,35.3997],[100.2092,35.3817],[100.2104,35.3385],[100.2679,35.3233],[100.2651,35.2977],[100.2374,35.2857],[100.2235,35.2474],[100.2349,35.2225],[100.2489,35.1429],[100.2415,35.0374],[100.2593,35.0143],[100.2933,35.003],[100.2972,34.9106],[100.3219,34.8647],[100.32,34.8417],[100.3596,34.8187],[100.4595,34.8094],[100.5043,34.7873],[100.598,34.7058],[100.6406,34.7335],[100.6938,34.6735],[100.7451,34.6781],[100.7699,34.6692],[100.7949,34.6921],[100.8694,34.7187],[100.8928,34.6567],[100.9588,34.6638],[100.9925,34.6441],[101.0306,34.6491],[101.0566,34.6686],[101.0561,34.7039],[101.0891,34.7154],[101.1032,34.7446],[101.0754,34.7831],[101.0865,34.8027],[101.1241,34.8051],[101.1466,34.8363],[101.1291,34.8847],[101.0544,34.8912],[100.9479,34.9458],[100.8958,34.9951],[100.8136,35.0057],[100.6973,35.0779],[100.695,35.1197],[100.754,35.1753],[100.7846,35.1842],[100.8752,35.2516],[100.9154,35.297],[100.8479,35.3259],[100.8126,35.3203],[100.7915,35.3354],[100.7316,35.3427],[100.7009,35.3717],[100.6917,35.4183]]]},"properties":{"region_code":"CN-63-6325-632522","parent_region_code":"CN-63-6325","name":"同德县","level":"county","has_children":false,"full_path":"中国 / 青海省 / 海南藏族自治州 / 同德县","source_admin_code":"632522","osm_relation_id":4478821}},
{"type":"Feature","geometry":{"type":"Polygon","coordinates":[[[100.9783,36.1346],[101.0543,36.0736],[101.0953,36.0817],[101.1458,36.0502],[101.1819,36.0704],[101.2467,36.0687],[101.2461,35.9735],[101.2875,35.9465],[101.2805,35.9207],[101.333,35.9279],[101.3523,35.9143],[101.3222,35.8696],[101.3542,35.8323],[101.3405,35.7628],[101.3422,35.6963],[101.3801,35.7001],[101.4503,35.6495],[101.4754,35.6006],[101.4786,35.5609],[101.5605,35.5026],[101.6406,35.5139],[101.6757,35.578],[101.7251,35.6443],[101.7575,35.6632],[101.7723,35.705],[101.7641,35.7474],[101.6792,35.7582],[101.6565,35.7861],[101.6623,35.8161],[101.7202,35.8914],[101.6764,35.9283],[101.6781,35.9658],[101.642,36.002],[101.6521,36.025],[101.6447,36.0906],[101.6304,36.1078],[101.6442,36.1531],[101.6617,36.1616],[101.6734,36.2116],[101.6148,36.2846],[101.601,36.322],[101.5332,36.3269],[101.4547,36.3525],[101.436,36.3718],[101.3822,36.3841],[101.3457,36.4031],[101.2827,36.3621],[101.2478,36.3257],[101.2174,36.3268],[101.1622,36.2775],[101.1059,36.2652],[101.0554,36.2837],[100.9847,36.2465],[100.9673,36.206],[100.9783,36.1346]]]},"properties":{"region_code":"CN-63-6325-632523","parent_region_code":"CN-63-6325","name":"贵德县","level":"county","has_children":false,"full_path":"中国 / 青海省 / 海南藏族自治州 / 贵德县","source_admin_code":"632523","osm_relation_id":4478884}},
{"type":"Feature","geometry":{"type":"Polygon","coordinates":[[[99.0152,36.0871],[99.0106,36.0586],[99.084,36.0269],[99.0677,35.9686],[99.0874,35.9559],[99.1166,35.9084],[99.1008,35.8879],[99.1264,35.8598],[99.1096,35.8129],[99.1639,35.7869],[99.2093,35.723],[99.2057,35.6789],[99.158,35.6212],[99.1977,35.6154],[99.3145,35.5463],[99.3308,35.5085],[99.2788,35.4953],[99.2662,35.4706],[99.214,35.4753],[99.2024,35.4557],[99.2775,35.442],[99.3132,35.4075],[99.2982,35.3763],[99.2556,35.3652],[99.1796,35.2962],[99.1827,35.266],[99.2627,35.2121],[99.3295,35.1357],[99.347,35.1015],[99.4819,34.9679],[99.5193,34.9554],[99.5526,34.9609],[99.612,34.9313],[99.6498,34.9405],[99.6645,34.9116],[99.7238,34.8891],[99.735,34.8648],[99.7939,34.8527],[99.8193,34.83],[99.8748,34.8438],[99.9262,34.8195],[99.9788,34.8053],[100.0402,34.8154],[100.0724,34.83],[100.0967,34.8764],[100.1791,34.8931],[100.2515,34.8919],[100.2972,34.9106],[100.2933,35.003],[100.2593,35.0143],[100.2415,35.0374],[100.2489,35.1429],[100.2349,35.2225],[100.2235,35.2474],[100.2374,35.2857],[100.2651,35.2977],[100.2679,35.3233],[100.2104,35.3385],[100.2092,35.3817],[100.1896,35.3997],[100.174,35.4488],[100.134,35.4839],[100.1489,35.5372],[100.1876,35.5675],[100.2036,35.6284],[100.2217,35.6415],[100.2692,35.7139],[100.2942,35.7633],[100.2685,35.829],[100.1971,35.9894],[100.171,36.0048],[100.0995,36.068],[100.071,36.1058],[100.0236,36.1098],[99.9545,36.2102],[99.8941,36.2531],[99.8188,36.2039],[99.7624,36.136],[99.7431,36.0894],[99.7036,36.0767],[99.6583,36.0313],[99.672,35.9993],[99.6341,35.9729],[99.6011,35.9821],[99.5895,36.0072],[99.5297,36.0561],[99.5179,36.0342],[99.4693,35.9983],[99.4414,36.0211],[99.4242,36.088],[99.3782,36.1132],[99.2845,36.1062],[99.22,36.1202],[99.1608,36.1002],[99.1394,36.1138],[99.1059,36.0751],[99.0383,36.0976],[99.0152,36.0871]]]},"properties":{"region_code":"CN-63-6325-632524","parent_region_code":"CN-63-6325","name":"兴海县","level":"county","has_children":false,"full_path":"中国 / 青海省 / 海南藏族自治州 / 兴海县","source_admin_code":"632524","osm_relation_id":4479112}},
{"type":"Feature","geometry":{"type":"MultiPolygon","coordinates":[[[[101.4039,35.2313],[101.4448,35.2559],[101.4585,35.2195],[101.4914,35.2214],[101.5493,35.2592],[101.5472,35.3146],[101.5046,35.3288],[101.4871,35.3026],[101.4521,35.2856],[101.4162,35.2935],[101.3401,35.2779],[101.3529,35.2086],[101.3468,35.1829],[101.3972,35.1722],[101.4179,35.1875],[101.4039,35.2313]]],[[[100.2942,35.7633],[100.2692,35.7139],[100.2217,35.6415],[100.2609,35.6241],[100.2978,35.5815],[100.278,35.5624],[100.2916,35.4821],[100.3726,35.4921],[100.4295,35.471],[100.4629,35.4188],[100.5156,35.4051],[100.5765,35.4024],[100.6917,35.4183],[100.772,35.423],[100.8169,35.4116],[100.8299,35.4299],[100.9367,35.4143],[100.9658,35.4],[101.0408,35.4139],[101.1546,35.4036],[101.2205,35.3847],[101.2376,35.371],[101.3139,35.3656],[101.3743,35.3347],[101.4763,35.3515],[101.4533,35.4038],[101.3934,35.4546],[101.3884,35.4983],[101.4691,35.4729],[101.4915,35.4922],[101.5225,35.4702],[101.5605,35.5026],[101.4786,35.5609],[101.4754,35.6006],[101.4503,35.6495],[101.3801,35.7001],[101.3422,35.6963],[101.3405,35.7628],[101.3542,35.8323],[101.3222,35.8696],[101.3523,35.9143],[101.333,35.9279],[101.2805,35.9207],[101.2875,35.9465],[101.2461,35.9735],[101.2467,36.0687],[101.1819,36.0704],[101.1458,36.0502],[101.0953,36.0817],[101.0543,36.0736],[100.9783,36.1346],[100.9069,36.1162],[100.8279,36.1334],[100.7727,36.1191],[100.6987,35.9767],[100.6313,35.9132],[100.5643,35.8807],[100.5292,35.8827],[100.4912,35.8476],[100.4339,35.8177],[100.4137,35.7936],[100.3563,35.7857],[100.2942,35.7633]]]]},"properties":{"region_code":"CN-63-6325-632525","parent_region_code":"CN-63-6325","name":"贵南县","level":"county","has_children":false,"full_path":"中国 / 青海省 / 海南藏族自治州 / 贵南县","source_admin_code":"632525","osm_relation_id":4477905}}
]}