{"type":"FeatureCollection", "features": [
{"type":"Feature","geometry":{"type":"Polygon","coordinates":[[[103.2735,35.5962],[103.2675,35.6121],[103.2808,35.6337],[103.2617,35.6382],[103.2539,35.6548],[103.2387,35.652],[103.1894,35.5989],[103.1659,35.5908],[103.1294,35.568],[103.0917,35.5506],[103.1176,35.5375],[103.107,35.5301],[103.1156,35.5149],[103.1915,35.5566],[103.2237,35.5725],[103.2405,35.5701],[103.2552,35.5929],[103.2735,35.5962]]]},"properties":{"region_code":"CN-62-6229-622901","parent_region_code":"CN-62-6229","name":"临夏市","level":"county","has_children":false,"full_path":"中国 / 甘肃省 / 临夏回族自治州 / 临夏市","source_admin_code":"622901","osm_relation_id":5910317}},
{"type":"Feature","geometry":{"type":"Polygon","coordinates":[[[103.2539,35.6548],[103.2658,35.6686],[103.2716,35.6887],[103.2271,35.7212],[103.2086,35.7449],[103.1971,35.7487],[103.1538,35.7984],[103.1341,35.7806],[103.0914,35.7621],[103.0913,35.7411],[103.1042,35.7187],[103.0971,35.6475],[103.0742,35.6143],[103.0592,35.6195],[103.0307,35.6078],[103.0021,35.576],[102.9923,35.599],[102.9756,35.5882],[102.9119,35.5754],[102.9057,35.5632],[102.8591,35.5642],[102.8002,35.5879],[102.7636,35.6],[102.7984,35.5748],[102.7807,35.5497],[102.7435,35.5464],[102.7459,35.529],[102.7702,35.5332],[102.7771,35.5207],[102.7558,35.5109],[102.7422,35.4953],[102.7484,35.4849],[102.7859,35.4692],[102.8211,35.4645],[102.832,35.4411],[102.8611,35.4136],[102.8858,35.4066],[102.9096,35.4305],[102.9337,35.423],[102.9497,35.4043],[102.9575,35.3852],[102.9931,35.3946],[102.9969,35.3857],[103.0227,35.3623],[103.0676,35.3447],[103.1091,35.3541],[103.1275,35.3667],[103.1178,35.3926],[103.1519,35.4174],[103.1605,35.4391],[103.1495,35.456],[103.1749,35.4953],[103.192,35.497],[103.2269,35.5111],[103.2537,35.5144],[103.2702,35.4974],[103.2835,35.5068],[103.2735,35.5254],[103.2949,35.5578],[103.2799,35.5695],[103.2735,35.5962],[103.2552,35.5929],[103.2405,35.5701],[103.2237,35.5725],[103.1915,35.5566],[103.1156,35.5149],[103.107,35.5301],[103.1176,35.5375],[103.0917,35.5506],[103.1294,35.568],[103.1659,35.5908],[103.1894,35.5989],[103.2387,35.652],[103.2539,35.6548]]]},"properties":{"region_code":"CN-62-6229-622921","parent_region_code":"CN-62-6229","name":"临夏县","level":"county","has_children":false,"full_path":"中国 / 甘肃省 / 临夏回族自治州 / 临夏县","source_admin_code":"622921","osm_relation_id":2700760}},
{"type":"Feature","geometry":{"type":"Polygon","coordinates":[[[103.4292,35.2831],[103.422,35.2665],[103.4298,35.2587],[103.4555,35.2582],[103.4675,35.2375],[103.5186,35.2326],[103.5198,35.2249],[103.5531,35.2142],[103.5719,35.2025],[103.5896,35.2005],[103.6239,35.169],[103.6619,35.0748],[103.6821,35.071],[103.7008,35.058],[103.675,35.0528],[103.678,35.0382],[103.7,35.0421],[103.7272,35.0119],[103.7019,35.0088],[103.7055,34.9989],[103.7272,35.0051],[103.7305,34.9794],[103.7102,34.9611],[103.682,34.9544],[103.667,34.9368],[103.6677,34.9204],[103.6823,34.909],[103.7009,34.9168],[103.7365,34.9218],[103.7548,34.9281],[103.8013,34.9301],[103.831,34.9159],[103.8457,34.955],[103.8317,34.9807],[103.8114,34.9941],[103.7882,34.9972],[103.784,35.0153],[103.7454,35.0384],[103.7442,35.0566],[103.7356,35.0673],[103.745,35.0925],[103.7345,35.0999],[103.7434,35.1199],[103.7137,35.1367],[103.709,35.1501],[103.7172,35.1687],[103.7102,35.1844],[103.6877,35.1971],[103.6866,35.2202],[103.7005,35.2357],[103.7085,35.2566],[103.7298,35.2741],[103.7279,35.2934],[103.7459,35.3129],[103.7515,35.3283],[103.7733,35.3581],[103.7815,35.3928],[103.799,35.3999],[103.8135,35.4156],[103.7987,35.4368],[103.7708,35.433],[103.7567,35.4481],[103.7372,35.4531],[103.6472,35.4453],[103.5571,35.412],[103.5412,35.4033],[103.4773,35.344],[103.4411,35.2904],[103.4292,35.2831]]]},"properties":{"region_code":"CN-62-6229-622922","parent_region_code":"CN-62-6229","name":"康乐县","level":"county","has_children":false,"full_path":"中国 / 甘肃省 / 临夏回族自治州 / 康乐县","source_admin_code":"622922","osm_relation_id":2700759}},
{"type":"Feature","geometry":{"type":"Polygon","coordinates":[[[103.1538,35.7984],[103.2182,35.8505],[103.266,35.8592],[103.2978,35.8708],[103.3144,35.8994],[103.3256,35.9028],[103.3475,35.9243],[103.3548,35.914],[103.3952,35.9277],[103.422,35.9192],[103.4427,35.8958],[103.4663,35.8794],[103.483,35.9117],[103.5162,35.9463],[103.5522,35.9322],[103.5591,35.9064],[103.5772,35.9033],[103.5997,35.91],[103.6068,35.9314],[103.6219,35.9348],[103.615,35.9599],[103.6321,35.9827],[103.6177,35.9972],[103.6311,36.0148],[103.619,36.0264],[103.5994,36.0654],[103.5726,36.0641],[103.5729,36.0821],[103.5379,36.1046],[103.4811,36.0986],[103.4589,36.1025],[103.4557,36.0858],[103.4366,36.0689],[103.4072,36.0787],[103.4112,36.1201],[103.3955,36.1286],[103.367,36.1206],[103.345,36.1226],[103.3287,36.1396],[103.3079,36.1516],[103.2947,36.1457],[103.2297,36.1603],[103.2287,36.1673],[103.1989,36.1698],[103.1898,36.1803],[103.169,36.1748],[103.1537,36.1895],[103.1226,36.1948],[103.1004,36.212],[103.0467,36.1994],[103.0183,36.2049],[102.9854,36.1888],[102.968,36.1657],[102.9653,36.1521],[102.9437,36.1332],[102.9387,36.1054],[102.9058,36.088],[102.8932,36.0923],[102.8939,36.066],[102.9166,36.0663],[102.9277,36.05],[102.9423,36.0514],[102.9679,36.0426],[102.9502,36.0234],[102.9686,35.9941],[102.9477,35.9635],[102.9401,35.928],[102.9489,35.9082],[102.9457,35.8859],[102.9537,35.8609],[102.9485,35.8375],[102.9794,35.832],[102.9994,35.8098],[103.0355,35.7984],[103.0538,35.787],[103.0684,35.7669],[103.0914,35.7621],[103.1341,35.7806],[103.1538,35.7984]]]},"properties":{"region_code":"CN-62-6229-622923","parent_region_code":"CN-62-6229","name":"永靖县","level":"county","has_children":false,"full_path":"中国 / 甘肃省 / 临夏回族自治州 / 永靖县","source_admin_code":"622923","osm_relation_id":2700761}},
{"type":"Feature","geometry":{"type":"Polygon","coordinates":[[[103.7987,35.4368],[103.819,35.4417],[103.8305,35.4674],[103.8472,35.4757],[103.8485,35.4872],[103.8296,35.5085],[103.8165,35.5362],[103.8084,35.5352],[103.7872,35.5663],[103.7818,35.6005],[103.7668,35.6226],[103.7453,35.6358],[103.7363,35.6322],[103.7059,35.5986],[103.7175,35.5572],[103.6959,35.5535],[103.6434,35.5319],[103.5934,35.5178],[103.543,35.5076],[103.5314,35.4982],[103.4973,35.5103],[103.4749,35.5097],[103.4396,35.4987],[103.4444,35.4819],[103.4271,35.4583],[103.4036,35.4544],[103.3958,35.414],[103.4376,35.3964],[103.4279,35.3456],[103.4198,35.3454],[103.4176,35.3186],[103.4292,35.2831],[103.4411,35.2904],[103.4773,35.344],[103.5412,35.4033],[103.5571,35.412],[103.6472,35.4453],[103.7372,35.4531],[103.7567,35.4481],[103.7708,35.433],[103.7987,35.4368]]]},"properties":{"region_code":"CN-62-6229-622924","parent_region_code":"CN-62-6229","name":"广河县","level":"county","has_children":false,"full_path":"中国 / 甘肃省 / 临夏回族自治州 / 广河县","source_admin_code":"622924","osm_relation_id":2700757}},
{"type":"Feature","geometry":{"type":"Polygon","coordinates":[[[102.9575,35.3852],[102.9582,35.3589],[102.946,35.3037],[102.9534,35.2623],[102.9697,35.2516],[102.9789,35.2577],[102.988,35.282],[102.9974,35.2889],[103.0203,35.2807],[103.0367,35.2827],[103.0493,35.2707],[103.0845,35.2742],[103.0906,35.2448],[103.1045,35.2364],[103.1376,35.2283],[103.1714,35.1999],[103.2203,35.1952],[103.2485,35.188],[103.2714,35.1891],[103.3116,35.1758],[103.3233,35.164],[103.359,35.1439],[103.3969,35.1405],[103.4069,35.144],[103.4418,35.1385],[103.465,35.1281],[103.4848,35.1257],[103.4889,35.1469],[103.4987,35.1514],[103.5199,35.1452],[103.5771,35.1124],[103.6198,35.0965],[103.6236,35.0845],[103.6483,35.072],[103.675,35.0528],[103.7008,35.058],[103.6821,35.071],[103.6619,35.0748],[103.6239,35.169],[103.5896,35.2005],[103.5719,35.2025],[103.5531,35.2142],[103.5198,35.2249],[103.5186,35.2326],[103.4675,35.2375],[103.4555,35.2582],[103.4298,35.2587],[103.422,35.2665],[103.4292,35.2831],[103.4176,35.3186],[103.4198,35.3454],[103.4279,35.3456],[103.4376,35.3964],[103.3958,35.414],[103.4036,35.4544],[103.4271,35.4583],[103.4444,35.4819],[103.4396,35.4987],[103.4288,35.5129],[103.4358,35.5315],[103.3871,35.5221],[103.3715,35.511],[103.3602,35.5176],[103.3072,35.51],[103.2937,35.4946],[103.2835,35.5068],[103.2702,35.4974],[103.2537,35.5144],[103.2269,35.5111],[103.192,35.497],[103.1749,35.4953],[103.1495,35.456],[103.1605,35.4391],[103.1519,35.4174],[103.1178,35.3926],[103.1275,35.3667],[103.1091,35.3541],[103.0676,35.3447],[103.0227,35.3623],[102.9969,35.3857],[102.9931,35.3946],[102.9575,35.3852]]]},"properties":{"region_code":"CN-62-6229-622925","parent_region_code":"CN-62-6229","name":"和政县","level":"county","has_children":false,"full_path":"中国 / 甘肃省 / 临夏回族自治州 / 和政县","source_admin_code":"622925","osm_relation_id":2700758}},
{"type":"Feature","geometry":{"type":"Polygon","coordinates":[[[103.2735,35.5962],[103.2799,35.5695],[103.2949,35.5578],[103.2735,35.5254],[103.2835,35.5068],[103.2937,35.4946],[103.3072,35.51],[103.3602,35.5176],[103.3715,35.511],[103.3871,35.5221],[103.4358,35.5315],[103.4288,35.5129],[103.4396,35.4987],[103.4749,35.5097],[103.4973,35.5103],[103.5314,35.4982],[103.543,35.5076],[103.5934,35.5178],[103.6434,35.5319],[103.6959,35.5535],[103.7175,35.5572],[103.7059,35.5986],[103.7363,35.6322],[103.7453,35.6358],[103.7268,35.6561],[103.6744,35.686],[103.6388,35.7325],[103.6255,35.7397],[103.6213,35.7536],[103.5924,35.7581],[103.5945,35.7766],[103.5832,35.7938],[103.5498,35.8032],[103.5332,35.8213],[103.5131,35.8538],[103.4992,35.8574],[103.4833,35.8723],[103.4663,35.8794],[103.4427,35.8958],[103.422,35.9192],[103.3952,35.9277],[103.3548,35.914],[103.3475,35.9243],[103.3256,35.9028],[103.3144,35.8994],[103.2978,35.8708],[103.266,35.8592],[103.2182,35.8505],[103.1538,35.7984],[103.1971,35.7487],[103.2086,35.7449],[103.2271,35.7212],[103.2716,35.6887],[103.2658,35.6686],[103.2539,35.6548],[103.2617,35.6382],[103.2808,35.6337],[103.2675,35.6121],[103.2735,35.5962]]]},"properties":{"region_code":"CN-62-6229-622926","parent_region_code":"CN-62-6229","name":"东乡族自治县","level":"county","has_children":false,"full_path":"中国 / 甘肃省 / 临夏回族自治州 / 东乡族自治县","source_admin_code":"622926","osm_relation_id":2700756}},
{"type":"Feature","geometry":{"type":"Polygon","coordinates":[[[103.0914,35.7621],[103.0684,35.7669],[103.0538,35.787],[103.0355,35.7984],[102.9994,35.8098],[102.9794,35.832],[102.9485,35.8375],[102.9199,35.8346],[102.9138,35.8458],[102.8844,35.8495],[102.8602,35.8451],[102.8445,35.8558],[102.8182,35.8506],[102.7847,35.8626],[102.7531,35.8394],[102.7382,35.8212],[102.7135,35.817],[102.7082,35.8028],[102.6936,35.7967],[102.6831,35.7735],[102.6919,35.7514],[102.6987,35.6996],[102.7111,35.7023],[102.7274,35.6861],[102.7409,35.6463],[102.7629,35.62],[102.7636,35.6],[102.8002,35.5879],[102.8591,35.5642],[102.9057,35.5632],[102.9119,35.5754],[102.9756,35.5882],[102.9923,35.599],[103.0021,35.576],[103.0307,35.6078],[103.0592,35.6195],[103.0742,35.6143],[103.0971,35.6475],[103.1042,35.7187],[103.0913,35.7411],[103.0914,35.7621]]]},"properties":{"region_code":"CN-62-6229-622927","parent_region_code":"CN-62-6229","name":"积石山保安族东乡族撒拉族自治县","level":"county","has_children":false,"full_path":"中国 / 甘肃省 / 临夏回族自治州 / 积石山保安族东乡族撒拉族自治县","source_admin_code":"622927","osm_relation_id":2697554}}
]}