{"type":"FeatureCollection", "features": [
{"type":"Feature","geometry":{"type":"Polygon","coordinates":[[[105.847,38.2608],[105.8916,38.2568],[105.9035,38.2442],[105.9639,38.2232],[105.9655,38.2164],[105.9308,38.151],[105.9609,38.1443],[105.9821,38.1868],[105.9985,38.1795],[106.0152,38.1844],[106.037,38.1755],[106.0729,38.2102],[106.072,38.1836],[106.1207,38.1689],[106.1393,38.1584],[106.1712,38.1499],[106.2145,38.126],[106.2244,38.1001],[106.2088,38.0871],[106.2048,38.0666],[106.2347,38.0448],[106.2618,38.0426],[106.26,38.0045],[106.3099,37.9671],[106.2977,37.9543],[106.3003,37.9419],[106.3307,37.9425],[106.3323,37.9233],[106.3493,37.9241],[106.3543,37.8861],[106.3427,37.875],[106.2828,37.8704],[106.2746,37.8568],[106.2793,37.835],[106.2976,37.8163],[106.3319,37.8072],[106.3572,37.7865],[106.3881,37.7707],[106.4369,37.774],[106.4802,37.8002],[106.5064,37.7785],[106.5291,37.7808],[106.5374,37.7683],[106.5573,37.6869],[106.5862,37.6902],[106.5785,37.6544],[106.5989,37.6536],[106.6396,37.6417],[106.6442,37.6572],[106.7109,37.6413],[106.7701,37.6413],[106.7606,37.7192],[106.7642,37.7411],[106.797,37.7498],[106.8249,37.7631],[106.8527,37.7971],[106.8778,37.8541],[106.8775,37.8653],[106.8356,37.8684],[106.8154,37.8755],[106.8094,37.9196],[106.8131,37.946],[106.7741,37.9406],[106.7621,37.956],[106.7557,37.981],[106.7591,38.0101],[106.7776,38.04],[106.8215,38.0348],[106.8472,38.0479],[106.8065,38.1123],[106.8024,38.1436],[106.8191,38.1615],[106.7879,38.1658],[106.7449,38.1828],[106.7241,38.2025],[106.6498,38.2282],[106.6147,38.2344],[106.5413,38.268],[106.5112,38.2973],[106.4852,38.3052],[106.4777,38.3187],[106.5895,38.3858],[106.6436,38.492],[106.6597,38.5698],[106.6571,38.6005],[106.6379,38.6181],[106.6369,38.6423],[106.6117,38.6545],[106.5885,38.6573],[106.598,38.6814],[106.5374,38.6859],[106.5247,38.6976],[106.4899,38.6986],[106.4582,38.7093],[106.4367,38.6906],[106.4103,38.7181],[106.394,38.7255],[106.3924,38.7522],[106.3712,38.7538],[106.3596,38.7716],[106.3328,38.7765],[106.3212,38.7716],[106.2987,38.7848],[106.2865,38.7778],[106.2526,38.7995],[106.2406,38.797],[106.2241,38.8136],[106.1922,38.81],[106.1352,38.8177],[106.1213,38.8388],[106.0873,38.8424],[106.0483,38.8664],[106,38.8747],[105.9881,38.8539],[105.9646,38.8429],[105.9169,38.7961],[105.8917,38.7869],[105.904,38.7454],[105.9025,38.7282],[105.8832,38.7168],[105.8922,38.6937],[105.8676,38.6708],[105.8475,38.6334],[105.8532,38.6116],[105.875,38.5826],[105.8545,38.578],[105.8505,38.5626],[105.8585,38.549],[105.8574,38.5228],[105.8435,38.5107],[105.8459,38.4959],[105.8313,38.4736],[105.8453,38.4448],[105.8275,38.4266],[105.8244,38.406],[105.8319,38.3849],[105.8149,38.3599],[105.8628,38.2955],[105.847,38.2608]]]},"properties":{"region_code":"CN-64-6401","parent_region_code":"CN-64","name":"银川市","level":"prefecture","has_children":true,"full_path":"中国 / 宁夏回族自治区 / 银川市","source_admin_code":"6401","osm_relation_id":3307138}},
{"type":"Feature","geometry":{"type":"Polygon","coordinates":[[[106.6571,38.6005],[106.696,38.699],[106.705,38.7167],[106.7381,38.7342],[106.7995,38.8176],[106.9494,38.944],[106.9651,39.0327],[106.9576,39.0548],[106.9252,39.0762],[106.8838,39.0875],[106.8602,39.0988],[106.8369,39.1455],[106.819,39.197],[106.8111,39.2017],[106.7885,39.2521],[106.8007,39.27],[106.7971,39.2933],[106.8023,39.3167],[106.7884,39.3377],[106.7946,39.3458],[106.7734,39.3717],[106.728,39.379],[106.6854,39.3646],[106.6715,39.3539],[106.6378,39.3568],[106.624,39.3675],[106.5959,39.3711],[106.528,39.3027],[106.5078,39.2707],[106.4354,39.286],[106.2827,39.2714],[106.2755,39.2613],[106.2844,39.2194],[106.2757,39.1963],[106.287,39.1846],[106.2924,39.1581],[106.2764,39.1385],[106.2508,39.1272],[106.2341,39.1368],[106.2136,39.1323],[106.1462,39.1563],[106.1175,39.1222],[106.0919,39.0838],[106.0794,39.051],[106.0833,39.0039],[106.0655,38.9908],[106.055,38.9668],[106.0306,38.9603],[105.9968,38.9368],[105.9651,38.8912],[105.9828,38.8731],[106,38.8747],[106.0483,38.8664],[106.0873,38.8424],[106.1213,38.8388],[106.1352,38.8177],[106.1922,38.81],[106.2241,38.8136],[106.2406,38.797],[106.2526,38.7995],[106.2865,38.7778],[106.2987,38.7848],[106.3212,38.7716],[106.3328,38.7765],[106.3596,38.7716],[106.3712,38.7538],[106.3924,38.7522],[106.394,38.7255],[106.4103,38.7181],[106.4367,38.6906],[106.4582,38.7093],[106.4899,38.6986],[106.5247,38.6976],[106.5374,38.6859],[106.598,38.6814],[106.5885,38.6573],[106.6117,38.6545],[106.6369,38.6423],[106.6379,38.6181],[106.6571,38.6005]]]},"properties":{"region_code":"CN-64-6402","parent_region_code":"CN-64","name":"石嘴山市","level":"prefecture","has_children":true,"full_path":"中国 / 宁夏回族自治区 / 石嘴山市","source_admin_code":"6402","osm_relation_id":3307098}},
{"type":"Feature","geometry":{"type":"Polygon","coordinates":[[[105.847,38.2608],[105.8334,38.2317],[105.8153,38.2209],[105.7772,38.2105],[105.7609,38.1214],[105.768,38.1142],[105.7842,38.0693],[105.8407,38.0044],[105.81,37.966],[105.7987,37.9453],[105.7928,37.9087],[105.8007,37.8927],[105.8014,37.8589],[105.7691,37.8199],[105.7679,37.7968],[105.7404,37.7985],[105.6923,37.7834],[105.6587,37.7692],[105.6334,37.7818],[105.6181,37.7784],[105.6128,37.7554],[105.6116,37.7186],[105.6065,37.7066],[105.645,37.7097],[105.6796,37.7261],[105.7121,37.7318],[105.7539,37.7271],[105.7809,37.738],[105.8408,37.7294],[105.8564,37.7491],[105.8986,37.7277],[105.8837,37.699],[105.8849,37.6786],[105.8775,37.66],[105.8899,37.6279],[105.9113,37.635],[105.9261,37.6519],[105.9427,37.6596],[106.0018,37.6551],[106.0207,37.6454],[106.0221,37.6122],[106.0033,37.596],[106.0038,37.5861],[106.0348,37.5502],[106.052,37.548],[106.0634,37.5263],[106.0117,37.498],[106.0093,37.4847],[105.9897,37.4737],[105.9609,37.4686],[105.98,37.4502],[105.9329,37.4458],[105.9337,37.4312],[105.9095,37.4322],[105.8795,37.4248],[105.8729,37.4147],[105.8817,37.3966],[105.8694,37.3917],[105.8439,37.3968],[105.8401,37.3817],[105.8706,37.3595],[105.8852,37.3589],[105.927,37.3434],[105.9446,37.3273],[105.9208,37.3067],[105.7966,37.3176],[105.7723,37.3018],[105.7296,37.2895],[105.7403,37.2783],[105.7533,37.2428],[105.7649,37.2364],[105.7698,37.1903],[105.7082,37.1851],[105.6838,37.208],[105.6878,37.236],[105.6702,37.2701],[105.6579,37.2687],[105.606,37.2206],[105.5777,37.2214],[105.5557,37.2158],[105.5782,37.1963],[105.612,37.1979],[105.6326,37.1884],[105.6644,37.191],[105.6649,37.1511],[105.6785,37.1303],[105.7086,37.1151],[105.7402,37.0872],[105.7746,37.085],[105.7863,37.0711],[105.8005,37.0296],[105.8423,36.9818],[105.8286,36.9755],[105.8262,36.9586],[105.7793,36.9232],[105.7514,36.9094],[105.7512,36.8938],[105.7327,36.8615],[105.7319,36.8423],[105.7425,36.8223],[105.7564,36.8362],[105.8001,36.8334],[105.8156,36.8181],[105.822,36.7946],[105.8502,36.8201],[105.8523,36.8334],[105.8726,36.8371],[105.8974,36.8816],[105.888,36.9142],[105.9369,36.9235],[105.9692,36.8954],[105.9661,36.8838],[105.9811,36.8692],[105.9864,36.8468],[106.006,36.8323],[106.0308,36.826],[106.0368,36.8055],[106.0296,36.7909],[106.0587,36.7745],[106.0707,36.761],[106.0637,36.7391],[106.0868,36.7046],[106.1038,36.6958],[106.1116,36.6496],[106.1317,36.6419],[106.1503,36.6229],[106.145,36.5857],[106.1634,36.5791],[106.1944,36.5911],[106.2086,36.6085],[106.2409,36.6095],[106.2567,36.6216],[106.2872,36.6112],[106.3075,36.5943],[106.3266,36.5949],[106.3589,36.6101],[106.374,36.6086],[106.3833,36.6249],[106.397,36.6217],[106.4316,36.6316],[106.4409,36.6256],[106.4643,36.6206],[106.4888,36.6314],[106.4943,36.6503],[106.4873,36.6865],[106.5094,36.693],[106.5101,36.7164],[106.5377,36.7316],[106.5588,36.7341],[106.5715,36.7476],[106.5892,36.7504],[106.6293,36.7235],[106.6239,36.7518],[106.6354,36.773],[106.6383,36.802],[106.6542,36.8205],[106.6367,36.8304],[106.638,36.8542],[106.6254,36.859],[106.6357,36.8831],[106.6225,36.8927],[106.6062,36.8806],[106.5967,36.892],[106.6057,36.9085],[106.5767,36.9307],[106.5455,36.9418],[106.5508,36.9539],[106.5763,36.9483],[106.5855,36.9603],[106.6331,36.9636],[106.6425,37.0013],[106.6626,37.0174],[106.6471,37.0355],[106.6413,37.0659],[106.6163,37.0969],[106.6012,37.1279],[106.6148,37.1355],[106.6358,37.1186],[106.6567,37.1256],[106.6938,37.1178],[106.724,37.1204],[106.734,37.0998],[106.7521,37.0998],[106.768,37.1222],[106.7614,37.1341],[106.7771,37.1581],[106.8502,37.1135],[106.8662,37.1155],[106.8871,37.0976],[106.9063,37.112],[106.8968,37.1329],[106.9008,37.151],[106.9176,37.1466],[106.9488,37.1273],[106.9563,37.1133],[106.992,37.106],[107.0226,37.1108],[107.021,37.1318],[107.0572,37.1239],[107.0734,37.1286],[107.0907,37.1156],[107.1315,37.1348],[107.177,37.1422],[107.2297,37.0964],[107.2434,37.1068],[107.2646,37.0991],[107.2852,37.1148],[107.306,37.1096],[107.3258,37.1294],[107.3317,37.1661],[107.3164,37.1957],[107.2631,37.2281],[107.3019,37.2499],[107.2865,37.2763],[107.2631,37.2896],[107.2511,37.3308],[107.2575,37.3487],[107.2543,37.3699],[107.264,37.3893],[107.2766,37.4375],[107.2778,37.4813],[107.342,37.5189],[107.3548,37.539],[107.3681,37.5802],[107.3637,37.5876],[107.326,37.5833],[107.3219,37.6057],[107.3566,37.6126],[107.3918,37.6519],[107.4161,37.65],[107.4162,37.6658],[107.3857,37.6706],[107.3826,37.6908],[107.4039,37.6927],[107.4212,37.6836],[107.4597,37.6898],[107.4809,37.7056],[107.494,37.7651],[107.519,37.7724],[107.5674,37.776],[107.5948,37.7909],[107.6175,37.7758],[107.6364,37.7955],[107.6525,37.8429],[107.6466,37.8643],[107.5558,37.8933],[107.5001,37.9305],[107.4882,37.945],[107.4545,37.9418],[107.4446,37.9323],[107.414,37.9404],[107.4009,37.9628],[107.4282,37.9968],[107.357,38.0452],[107.3286,38.0906],[107.2586,38.0981],[107.1673,38.1578],[107.1363,38.158],[107.1071,38.136],[107.0742,38.1418],[107.0118,38.1195],[106.9532,38.128],[106.9073,38.1383],[106.8911,38.1455],[106.8191,38.1615],[106.8024,38.1436],[106.8065,38.1123],[106.8472,38.0479],[106.8215,38.0348],[106.7776,38.04],[106.7591,38.0101],[106.7557,37.981],[106.7621,37.956],[106.7741,37.9406],[106.8131,37.946],[106.8094,37.9196],[106.8154,37.8755],[106.8356,37.8684],[106.8775,37.8653],[106.8778,37.8541],[106.8527,37.7971],[106.8249,37.7631],[106.797,37.7498],[106.7642,37.7411],[106.7606,37.7192],[106.7701,37.6413],[106.7109,37.6413],[106.6442,37.6572],[106.6396,37.6417],[106.5989,37.6536],[106.5785,37.6544],[106.5862,37.6902],[106.5573,37.6869],[106.5374,37.7683],[106.5291,37.7808],[106.5064,37.7785],[106.4802,37.8002],[106.4369,37.774],[106.3881,37.7707],[106.3572,37.7865],[106.3319,37.8072],[106.2976,37.8163],[106.2793,37.835],[106.2746,37.8568],[106.2828,37.8704],[106.3427,37.875],[106.3543,37.8861],[106.3493,37.9241],[106.3323,37.9233],[106.3307,37.9425],[106.3003,37.9419],[106.2977,37.9543],[106.3099,37.9671],[106.26,38.0045],[106.2618,38.0426],[106.2347,38.0448],[106.2048,38.0666],[106.2088,38.0871],[106.2244,38.1001],[106.2145,38.126],[106.1712,38.1499],[106.1393,38.1584],[106.1207,38.1689],[106.072,38.1836],[106.0729,38.2102],[106.037,38.1755],[106.0152,38.1844],[105.9985,38.1795],[105.9821,38.1868],[105.9609,38.1443],[105.9308,38.151],[105.9655,38.2164],[105.9639,38.2232],[105.9035,38.2442],[105.8916,38.2568],[105.847,38.2608]]]},"properties":{"region_code":"CN-64-6403","parent_region_code":"CN-64","name":"吴忠市","level":"prefecture","has_children":true,"full_path":"中国 / 宁夏回族自治区 / 吴忠市","source_admin_code":"6403","osm_relation_id":3307137}},
{"type":"Feature","geometry":{"type":"MultiPolygon","coordinates":[[[[105.9345,35.4603],[105.9226,35.4517],[105.8947,35.4524],[105.8868,35.4455],[105.8906,35.4145],[105.9615,35.4274],[105.9895,35.4382],[106.0301,35.4708],[106.0441,35.4531],[106.054,35.4898],[106.031,35.49],[105.9345,35.4603]]],[[[105.4848,36.1905],[105.4904,36.1674],[105.5107,36.1473],[105.487,36.1007],[105.459,36.1067],[105.429,36.1041],[105.4037,36.0757],[105.3739,36.0611],[105.3397,36.0335],[105.3287,35.9999],[105.3299,35.9662],[105.3209,35.9436],[105.3364,35.9094],[105.3233,35.9049],[105.3306,35.8865],[105.3463,35.8761],[105.3868,35.8665],[105.3675,35.8421],[105.3746,35.825],[105.3711,35.8038],[105.3802,35.7926],[105.403,35.8223],[105.4264,35.8136],[105.4285,35.788],[105.4529,35.7706],[105.4492,35.7475],[105.469,35.7509],[105.4742,35.7322],[105.5066,35.7198],[105.5249,35.7276],[105.5515,35.7264],[105.5681,35.7149],[105.5939,35.7198],[105.6648,35.7497],[105.6725,35.7397],[105.6974,35.7334],[105.754,35.7271],[105.7365,35.6987],[105.7249,35.7013],[105.715,35.7258],[105.7021,35.7035],[105.6882,35.7002],[105.6876,35.6845],[105.7125,35.6836],[105.7198,35.6729],[105.71,35.6554],[105.7212,35.6394],[105.7583,35.6028],[105.7738,35.5999],[105.7811,35.5746],[105.7961,35.5659],[105.8121,35.5749],[105.8305,35.5409],[105.833,35.4962],[105.8441,35.4923],[105.8629,35.5332],[105.8986,35.5484],[105.91,35.5411],[105.9685,35.5346],[106.0115,35.522],[106.0151,35.4944],[106.0509,35.5002],[106.066,35.4889],[106.0644,35.4568],[106.0757,35.4355],[106.0769,35.4135],[106.0976,35.4032],[106.0994,35.3813],[106.1209,35.3792],[106.1314,35.3988],[106.1563,35.4198],[106.169,35.4371],[106.1825,35.4282],[106.1907,35.4102],[106.2337,35.4098],[106.2459,35.3685],[106.2384,35.3532],[106.2553,35.3311],[106.271,35.3285],[106.2952,35.288],[106.3197,35.2766],[106.3151,35.2679],[106.3316,35.2515],[106.3592,35.2388],[106.3724,35.2511],[106.3646,35.2651],[106.4122,35.2768],[106.4256,35.2934],[106.4706,35.3123],[106.4864,35.3294],[106.4873,35.3485],[106.5045,35.3598],[106.4919,35.3757],[106.4904,35.3945],[106.4996,35.4154],[106.4792,35.4516],[106.4863,35.4798],[106.4617,35.4817],[106.4594,35.5018],[106.4364,35.5265],[106.4501,35.5376],[106.4463,35.5538],[106.4557,35.5784],[106.4716,35.5826],[106.4625,35.6204],[106.4483,35.6358],[106.4419,35.6624],[106.4296,35.6877],[106.444,35.6944],[106.4613,35.7182],[106.4824,35.7232],[106.4887,35.7336],[106.5261,35.742],[106.5597,35.7402],[106.5933,35.7282],[106.6184,35.7424],[106.6287,35.7153],[106.6598,35.7075],[106.6771,35.7298],[106.6883,35.7153],[106.7268,35.6916],[106.7507,35.6915],[106.7474,35.7173],[106.7608,35.7291],[106.803,35.7101],[106.8268,35.7435],[106.8631,35.7387],[106.8652,35.7755],[106.9078,35.7692],[106.91,35.7916],[106.9233,35.8072],[106.9075,35.8319],[106.8955,35.8276],[106.871,35.8571],[106.8695,35.8785],[106.8462,35.8868],[106.8694,35.9068],[106.9085,35.9326],[106.9243,35.9256],[106.9415,35.9409],[106.9344,35.953],[106.9144,35.9408],[106.8981,35.9436],[106.8877,35.9663],[106.9136,35.9621],[106.9237,35.9769],[106.9411,35.9854],[106.9459,36.0045],[106.9243,36.0118],[106.9381,36.033],[106.9351,36.0634],[106.9529,36.0772],[106.953,36.0925],[106.9379,36.1005],[106.9379,36.1184],[106.9252,36.1295],[106.9043,36.1328],[106.8943,36.1695],[106.8643,36.1836],[106.8602,36.1957],[106.8256,36.225],[106.7953,36.2164],[106.7717,36.2237],[106.7589,36.2156],[106.7426,36.2287],[106.7063,36.2364],[106.6842,36.2692],[106.6525,36.2667],[106.6452,36.2589],[106.6114,36.2771],[106.5824,36.2783],[106.5803,36.2877],[106.5525,36.2869],[106.5565,36.2724],[106.5464,36.2577],[106.498,36.2722],[106.4821,36.2834],[106.466,36.3121],[106.4936,36.3137],[106.5023,36.3291],[106.5025,36.3782],[106.5221,36.3732],[106.5228,36.3911],[106.5001,36.4018],[106.4875,36.4225],[106.5201,36.4661],[106.5144,36.4811],[106.4799,36.4815],[106.4689,36.4974],[106.4523,36.4974],[106.4292,36.5186],[106.4069,36.5197],[106.3913,36.5063],[106.3753,36.5161],[106.3497,36.5128],[106.3272,36.4894],[106.3034,36.483],[106.3123,36.41],[106.2757,36.4133],[106.2651,36.3809],[106.244,36.3842],[106.1992,36.3579],[106.2093,36.3463],[106.2037,36.3299],[106.1689,36.3354],[106.1297,36.3206],[106.0988,36.3153],[106.0862,36.3349],[106.07,36.3236],[106.0493,36.3323],[106.0205,36.3284],[105.9941,36.3073],[105.979,36.3128],[105.9632,36.2931],[105.9765,36.2695],[106.0002,36.2099],[105.9826,36.2035],[105.9327,36.223],[105.8801,36.2161],[105.8736,36.183],[105.8545,36.1537],[105.8165,36.124],[105.8081,36.1365],[105.7707,36.1493],[105.7713,36.1698],[105.7553,36.1801],[105.7402,36.1727],[105.7202,36.1749],[105.6872,36.1495],[105.6588,36.1602],[105.5847,36.2356],[105.5654,36.2296],[105.5551,36.2166],[105.5354,36.2146],[105.4919,36.1893],[105.4848,36.1905]]]]},"properties":{"region_code":"CN-64-6404","parent_region_code":"CN-64","name":"固原市","level":"prefecture","has_children":true,"full_path":"中国 / 宁夏回族自治区 / 固原市","source_admin_code":"6404","osm_relation_id":2793583}},
{"type":"Feature","geometry":{"type":"Polygon","coordinates":[[[105.6065,37.7066],[105.5957,37.6989],[105.4638,37.703],[105.4439,37.7001],[105.3623,37.7156],[105.2631,37.6868],[105.2367,37.6727],[105.1986,37.6705],[105.1666,37.6626],[105.0908,37.6172],[105.0207,37.5797],[104.9236,37.5715],[104.9016,37.5669],[104.8635,37.5666],[104.8312,37.5557],[104.8021,37.5388],[104.618,37.5223],[104.4307,37.5154],[104.4172,37.5112],[104.4044,37.4644],[104.3697,37.4618],[104.338,37.444],[104.3194,37.4483],[104.2857,37.4311],[104.2945,37.4136],[104.3443,37.42],[104.3619,37.4176],[104.4019,37.4378],[104.4331,37.4458],[104.446,37.4233],[104.4929,37.4199],[104.5177,37.4345],[104.5423,37.423],[104.5839,37.4246],[104.6186,37.4161],[104.6347,37.4197],[104.6705,37.4106],[104.6629,37.3783],[104.6647,37.3559],[104.6979,37.3446],[104.7004,37.3299],[104.663,37.3102],[104.6472,37.2901],[104.6297,37.2985],[104.6171,37.2905],[104.5982,37.258],[104.6065,37.2271],[104.6353,37.2015],[104.6812,37.2028],[104.7154,37.2095],[104.7736,37.2461],[104.7902,37.2287],[104.8065,37.2309],[104.855,37.2112],[104.8548,37.1838],[104.8617,37.1723],[104.8852,37.1585],[104.8967,37.14],[104.8957,37.1273],[104.9178,37.1098],[104.9133,37.0946],[104.9512,37.0781],[104.9513,37.0396],[104.9625,37.0312],[105.0012,37.0351],[105.0076,37.0167],[105.0357,37.0063],[105.0459,37.0196],[105.1073,36.9997],[105.1616,36.9946],[105.1653,36.967],[105.1823,36.9414],[105.1739,36.929],[105.1803,36.9014],[105.2242,36.8871],[105.2366,36.8966],[105.2716,36.8701],[105.2759,36.8517],[105.3018,36.8187],[105.3303,36.8016],[105.3376,36.7645],[105.3065,36.7409],[105.2714,36.7518],[105.2692,36.7412],[105.2352,36.741],[105.2126,36.7291],[105.199,36.705],[105.2035,36.6806],[105.2243,36.6589],[105.2161,36.6338],[105.2381,36.6257],[105.2461,36.6017],[105.2577,36.6023],[105.2719,36.5632],[105.2465,36.5513],[105.2564,36.5339],[105.3011,36.5253],[105.3162,36.5365],[105.3573,36.498],[105.3669,36.4614],[105.3597,36.4447],[105.395,36.4298],[105.3967,36.3693],[105.4065,36.3507],[105.4304,36.325],[105.4504,36.3223],[105.4717,36.2936],[105.4686,36.275],[105.4551,36.268],[105.4611,36.2507],[105.4535,36.237],[105.4575,36.2216],[105.4777,36.2084],[105.4848,36.1905],[105.4919,36.1893],[105.5354,36.2146],[105.5551,36.2166],[105.5654,36.2296],[105.5847,36.2356],[105.6588,36.1602],[105.6872,36.1495],[105.7202,36.1749],[105.7402,36.1727],[105.7553,36.1801],[105.7713,36.1698],[105.7707,36.1493],[105.8081,36.1365],[105.8165,36.124],[105.8545,36.1537],[105.8736,36.183],[105.8801,36.2161],[105.9327,36.223],[105.9826,36.2035],[106.0002,36.2099],[105.9765,36.2695],[105.9632,36.2931],[105.979,36.3128],[105.9941,36.3073],[106.0205,36.3284],[106.0493,36.3323],[106.07,36.3236],[106.0862,36.3349],[106.0988,36.3153],[106.1297,36.3206],[106.1689,36.3354],[106.2037,36.3299],[106.2093,36.3463],[106.1992,36.3579],[106.244,36.3842],[106.2651,36.3809],[106.2757,36.4133],[106.3123,36.41],[106.3034,36.483],[106.3272,36.4894],[106.3497,36.5128],[106.3753,36.5161],[106.3913,36.5063],[106.4069,36.5197],[106.4143,36.5276],[106.3853,36.5583],[106.3952,36.5752],[106.4254,36.559],[106.4546,36.5666],[106.4573,36.5807],[106.4427,36.5979],[106.4409,36.6256],[106.4316,36.6316],[106.397,36.6217],[106.3833,36.6249],[106.374,36.6086],[106.3589,36.6101],[106.3266,36.5949],[106.3075,36.5943],[106.2872,36.6112],[106.2567,36.6216],[106.2409,36.6095],[106.2086,36.6085],[106.1944,36.5911],[106.1634,36.5791],[106.145,36.5857],[106.1503,36.6229],[106.1317,36.6419],[106.1116,36.6496],[106.1038,36.6958],[106.0868,36.7046],[106.0637,36.7391],[106.0707,36.761],[106.0587,36.7745],[106.0296,36.7909],[106.0368,36.8055],[106.0308,36.826],[106.006,36.8323],[105.9864,36.8468],[105.9811,36.8692],[105.9661,36.8838],[105.9692,36.8954],[105.9369,36.9235],[105.888,36.9142],[105.8974,36.8816],[105.8726,36.8371],[105.8523,36.8334],[105.8502,36.8201],[105.822,36.7946],[105.8156,36.8181],[105.8001,36.8334],[105.7564,36.8362],[105.7425,36.8223],[105.7319,36.8423],[105.7327,36.8615],[105.7512,36.8938],[105.7514,36.9094],[105.7793,36.9232],[105.8262,36.9586],[105.8286,36.9755],[105.8423,36.9818],[105.8005,37.0296],[105.7863,37.0711],[105.7746,37.085],[105.7402,37.0872],[105.7086,37.1151],[105.6785,37.1303],[105.6649,37.1511],[105.6644,37.191],[105.6326,37.1884],[105.612,37.1979],[105.5782,37.1963],[105.5557,37.2158],[105.5777,37.2214],[105.606,37.2206],[105.6579,37.2687],[105.6702,37.2701],[105.6878,37.236],[105.6838,37.208],[105.7082,37.1851],[105.7698,37.1903],[105.7649,37.2364],[105.7533,37.2428],[105.7403,37.2783],[105.7296,37.2895],[105.7723,37.3018],[105.7966,37.3176],[105.9208,37.3067],[105.9446,37.3273],[105.927,37.3434],[105.8852,37.3589],[105.8706,37.3595],[105.8401,37.3817],[105.8439,37.3968],[105.8694,37.3917],[105.8817,37.3966],[105.8729,37.4147],[105.8795,37.4248],[105.9095,37.4322],[105.9337,37.4312],[105.9329,37.4458],[105.98,37.4502],[105.9609,37.4686],[105.9897,37.4737],[106.0093,37.4847],[106.0117,37.498],[106.0634,37.5263],[106.052,37.548],[106.0348,37.5502],[106.0038,37.5861],[106.0033,37.596],[106.0221,37.6122],[106.0207,37.6454],[106.0018,37.6551],[105.9427,37.6596],[105.9261,37.6519],[105.9113,37.635],[105.8899,37.6279],[105.8775,37.66],[105.8849,37.6786],[105.8837,37.699],[105.8986,37.7277],[105.8564,37.7491],[105.8408,37.7294],[105.7809,37.738],[105.7539,37.7271],[105.7121,37.7318],[105.6796,37.7261],[105.645,37.7097],[105.6065,37.7066]]]},"properties":{"region_code":"CN-64-6405","parent_region_code":"CN-64","name":"中卫市","level":"prefecture","has_children":true,"full_path":"中国 / 宁夏回族自治区 / 中卫市","source_admin_code":"6405","osm_relation_id":2793622}}
]}