{"type":"FeatureCollection", "features": [
{"type":"Feature","geometry":{"type":"Polygon","coordinates":[[[104.2398,35.5783],[104.2338,35.5671],[104.2387,35.5556],[104.2269,35.5507],[104.2302,35.5274],[104.2218,35.505],[104.2394,35.4983],[104.2505,35.4747],[104.2755,35.4605],[104.2918,35.445],[104.3081,35.4458],[104.3214,35.4355],[104.309,35.4209],[104.313,35.4026],[104.3071,35.3953],[104.3049,35.3581],[104.3334,35.3799],[104.3693,35.3852],[104.4022,35.3779],[104.422,35.3837],[104.4366,35.3661],[104.4512,35.3742],[104.4636,35.3658],[104.4675,35.3426],[104.4783,35.3297],[104.4911,35.3317],[104.5195,35.345],[104.5487,35.375],[104.5959,35.3779],[104.6396,35.3838],[104.6639,35.3797],[104.6651,35.3721],[104.6905,35.3576],[104.7243,35.3572],[104.7533,35.373],[104.7842,35.3961],[104.7998,35.3947],[104.8259,35.3638],[104.821,35.3539],[104.8259,35.3268],[104.8616,35.3279],[104.8736,35.3178],[104.8803,35.3001],[104.8982,35.3089],[104.9116,35.3063],[104.9322,35.3231],[104.9279,35.3406],[104.9342,35.3519],[104.9574,35.3572],[104.9657,35.3773],[104.9891,35.4196],[104.9895,35.4277],[105.0171,35.4451],[104.995,35.4621],[104.9957,35.4697],[104.9729,35.4773],[104.9639,35.4899],[104.937,35.4965],[104.9295,35.5103],[104.9338,35.5457],[104.9509,35.5522],[104.952,35.572],[104.965,35.6022],[104.9652,35.613],[104.9878,35.6328],[104.9881,35.6528],[104.9827,35.6781],[104.9911,35.6887],[104.9778,35.7125],[104.9607,35.7293],[104.9345,35.7364],[104.9255,35.7338],[104.9011,35.7572],[104.8892,35.7593],[104.8849,35.7828],[104.874,35.7954],[104.8627,35.7971],[104.8633,35.8167],[104.8569,35.8529],[104.8338,35.8538],[104.8296,35.8674],[104.8136,35.8772],[104.7624,35.8904],[104.7705,35.9121],[104.7664,35.9181],[104.7347,35.9326],[104.7291,35.9497],[104.6885,35.9661],[104.6691,35.9913],[104.6503,35.9893],[104.6366,36.0035],[104.6779,36.0339],[104.6608,36.0417],[104.6313,36.0358],[104.6162,36.0447],[104.6,36.0426],[104.5821,36.0298],[104.5619,36.0282],[104.5299,36.0147],[104.4828,36.0226],[104.4787,35.993],[104.4589,35.9881],[104.4383,35.9745],[104.4359,35.9571],[104.4233,35.9216],[104.4249,35.9113],[104.4407,35.8952],[104.4365,35.8839],[104.4457,35.875],[104.4367,35.8646],[104.4228,35.8653],[104.4071,35.8478],[104.4098,35.8382],[104.3955,35.8081],[104.3985,35.7932],[104.3851,35.7711],[104.3709,35.7708],[104.3549,35.7535],[104.3593,35.7412],[104.3279,35.7306],[104.3181,35.7053],[104.3216,35.6928],[104.3139,35.6733],[104.3285,35.6677],[104.3216,35.6499],[104.3095,35.6501],[104.3032,35.6308],[104.311,35.6233],[104.3104,35.6045],[104.2876,35.5895],[104.2815,35.5732],[104.2398,35.5783]]]},"properties":{"region_code":"CN-62-6211-621102","parent_region_code":"CN-62-6211","name":"安定区","level":"county","has_children":false,"full_path":"中国 / 甘肃省 / 定西市 / 安定区","source_admin_code":"621102","osm_relation_id":4420903}},
{"type":"Feature","geometry":{"type":"Polygon","coordinates":[[[104.8803,35.3001],[104.8664,35.2905],[104.8657,35.2776],[104.8528,35.2714],[104.8531,35.2394],[104.8377,35.2378],[104.8358,35.2256],[104.8087,35.2095],[104.8082,35.1987],[104.8601,35.1917],[104.8573,35.1819],[104.8714,35.1731],[104.8745,35.1518],[104.8877,35.1432],[104.8882,35.1329],[104.8464,35.1328],[104.8326,35.1113],[104.8313,35.087],[104.8625,35.0607],[104.8746,35.0667],[104.8845,35.0569],[104.87,35.0491],[104.8768,35.0323],[104.8784,35.0081],[104.868,34.9908],[104.8838,34.9569],[104.8977,34.9404],[104.8959,34.9295],[104.9184,34.9519],[104.941,34.9399],[104.9514,34.9513],[104.9665,34.9426],[105.0064,34.9389],[105.025,34.9228],[105.0579,34.9418],[105.0753,34.9609],[105.0769,34.973],[105.1109,34.9761],[105.133,34.9729],[105.1469,34.9608],[105.1616,34.9734],[105.1829,34.9651],[105.1896,34.9539],[105.1874,34.9389],[105.2129,34.9321],[105.222,34.9439],[105.2507,34.9605],[105.2597,34.9777],[105.2532,34.9992],[105.2382,35.0069],[105.2585,35.032],[105.2711,35.0366],[105.2828,35.0255],[105.2974,35.027],[105.2854,35.048],[105.3255,35.0491],[105.3389,35.0414],[105.3512,35.0523],[105.3518,35.0668],[105.3916,35.0615],[105.389,35.0841],[105.4007,35.0831],[105.4088,35.0979],[105.4089,35.1137],[105.4398,35.1235],[105.4676,35.1145],[105.4708,35.1034],[105.4942,35.0893],[105.5194,35.0596],[105.5288,35.0614],[105.5321,35.0841],[105.5589,35.1227],[105.5307,35.1452],[105.5551,35.1547],[105.5546,35.1676],[105.5731,35.1763],[105.5993,35.1533],[105.6399,35.1408],[105.6462,35.1558],[105.6321,35.1646],[105.6302,35.174],[105.6113,35.1745],[105.6155,35.1878],[105.6035,35.1987],[105.6121,35.2063],[105.5997,35.2231],[105.5702,35.2063],[105.5418,35.2456],[105.5334,35.2626],[105.5389,35.2675],[105.5376,35.2884],[105.5487,35.2931],[105.5492,35.3051],[105.5305,35.3073],[105.5251,35.3228],[105.5383,35.343],[105.5117,35.3503],[105.4977,35.3586],[105.4855,35.3806],[105.4756,35.3775],[105.4659,35.347],[105.4514,35.3458],[105.4376,35.3728],[105.4231,35.3824],[105.4223,35.3989],[105.4086,35.4031],[105.3841,35.4252],[105.3809,35.4569],[105.3643,35.472],[105.3477,35.4743],[105.3405,35.4919],[105.3202,35.4946],[105.2997,35.4874],[105.2856,35.4983],[105.2712,35.4786],[105.2591,35.4761],[105.2424,35.4866],[105.2196,35.4824],[105.2064,35.4615],[105.1893,35.454],[105.1787,35.4384],[105.1455,35.4489],[105.1145,35.4386],[105.1226,35.4309],[105.1187,35.4183],[105.0829,35.416],[105.0674,35.4372],[105.0683,35.4546],[105.044,35.4589],[105.0171,35.4451],[104.9895,35.4277],[104.9891,35.4196],[104.9657,35.3773],[104.9574,35.3572],[104.9342,35.3519],[104.9279,35.3406],[104.9322,35.3231],[104.9116,35.3063],[104.8982,35.3089],[104.8803,35.3001]]]},"properties":{"region_code":"CN-62-6211-621121","parent_region_code":"CN-62-6211","name":"通渭县","level":"county","has_children":false,"full_path":"中国 / 甘肃省 / 定西市 / 通渭县","source_admin_code":"621121","osm_relation_id":2701706}},
{"type":"Feature","geometry":{"type":"Polygon","coordinates":[[[104.4783,35.3297],[104.476,35.3193],[104.4547,35.2945],[104.4546,35.2767],[104.4473,35.2661],[104.4283,35.2563],[104.4028,35.2517],[104.3852,35.231],[104.4014,35.2277],[104.391,35.1974],[104.348,35.1689],[104.3355,35.1531],[104.3383,35.1332],[104.3593,35.1362],[104.3579,35.1025],[104.3681,35.1059],[104.3942,35.1018],[104.3928,35.0934],[104.3523,35.0618],[104.3491,35.0417],[104.3269,35.0277],[104.3234,34.9952],[104.3264,34.9798],[104.3166,34.9669],[104.32,34.9475],[104.3218,34.9335],[104.3332,34.9302],[104.3416,34.9159],[104.3521,34.9191],[104.3472,34.9389],[104.3828,34.929],[104.3919,34.9059],[104.4209,34.8999],[104.4254,34.8919],[104.4599,34.8983],[104.4794,34.8944],[104.5001,34.8842],[104.5081,34.89],[104.547,34.8872],[104.5532,34.8759],[104.5661,34.8778],[104.572,34.8569],[104.5972,34.8407],[104.6167,34.8717],[104.6528,34.8778],[104.6936,34.8598],[104.7119,34.8682],[104.7348,34.8716],[104.7373,34.8598],[104.7579,34.8694],[104.8049,34.8699],[104.8275,34.8663],[104.859,34.8674],[104.8668,34.8619],[104.8942,34.867],[104.8897,34.8786],[104.8995,34.8891],[104.9071,34.9191],[104.8959,34.9295],[104.8977,34.9404],[104.8838,34.9569],[104.868,34.9908],[104.8784,35.0081],[104.8768,35.0323],[104.87,35.0491],[104.8845,35.0569],[104.8746,35.0667],[104.8625,35.0607],[104.8313,35.087],[104.8326,35.1113],[104.8464,35.1328],[104.8882,35.1329],[104.8877,35.1432],[104.8745,35.1518],[104.8714,35.1731],[104.8573,35.1819],[104.8601,35.1917],[104.8082,35.1987],[104.8087,35.2095],[104.8358,35.2256],[104.8377,35.2378],[104.8531,35.2394],[104.8528,35.2714],[104.8657,35.2776],[104.8664,35.2905],[104.8803,35.3001],[104.8736,35.3178],[104.8616,35.3279],[104.8259,35.3268],[104.821,35.3539],[104.8259,35.3638],[104.7998,35.3947],[104.7842,35.3961],[104.7533,35.373],[104.7243,35.3572],[104.6905,35.3576],[104.6651,35.3721],[104.6639,35.3797],[104.6396,35.3838],[104.5959,35.3779],[104.5487,35.375],[104.5195,35.345],[104.4911,35.3317],[104.4783,35.3297]]]},"properties":{"region_code":"CN-62-6211-621122","parent_region_code":"CN-62-6211","name":"陇西县","level":"county","has_children":false,"full_path":"中国 / 甘肃省 / 定西市 / 陇西县","source_admin_code":"621122","osm_relation_id":2701704}},
{"type":"Feature","geometry":{"type":"Polygon","coordinates":[[[104.3049,35.3581],[104.2863,35.3619],[104.2479,35.393],[104.2281,35.38],[104.2248,35.4057],[104.2078,35.4148],[104.1892,35.3894],[104.168,35.3828],[104.1403,35.3869],[104.1369,35.3797],[104.1476,35.3215],[104.111,35.308],[104.1176,35.2992],[104.1055,35.2899],[104.1062,35.2659],[104.0732,35.2247],[104.0557,35.2132],[104.0442,35.2141],[104.0283,35.1964],[104.0148,35.1904],[103.9889,35.1902],[103.9705,35.223],[103.967,35.249],[103.9506,35.2565],[103.927,35.2537],[103.902,35.2288],[103.8812,35.2235],[103.8755,35.2079],[103.8844,35.1994],[103.8786,35.1828],[103.8796,35.1594],[103.8558,35.1223],[103.7988,35.1265],[103.7824,35.1185],[103.7983,35.0626],[103.7851,35.0621],[103.7623,35.0747],[103.7472,35.0895],[103.7356,35.0673],[103.7442,35.0566],[103.7454,35.0384],[103.784,35.0153],[103.7882,34.9972],[103.8114,34.9941],[103.8326,34.9785],[103.8596,34.9889],[103.8864,34.9774],[103.9122,34.9717],[103.927,34.9605],[103.9269,34.9414],[103.9385,34.9355],[103.9487,34.9502],[103.9766,34.9486],[103.9889,34.9375],[104.0164,34.9373],[104.0236,34.9179],[104.0084,34.9141],[104.0114,34.9029],[104.0282,34.8932],[104.0529,34.8871],[104.0766,34.8909],[104.0776,34.9114],[104.0935,34.925],[104.0836,34.939],[104.082,34.9545],[104.0963,34.9596],[104.1211,34.9592],[104.1464,34.9469],[104.1509,34.9332],[104.1819,34.9359],[104.2022,34.929],[104.2043,34.9139],[104.2414,34.8982],[104.2533,34.9061],[104.2672,34.9042],[104.2891,34.9241],[104.2889,34.9378],[104.32,34.9475],[104.3166,34.9669],[104.3264,34.9798],[104.3234,34.9952],[104.3269,35.0277],[104.3491,35.0417],[104.3523,35.0618],[104.3928,35.0934],[104.3942,35.1018],[104.3681,35.1059],[104.3579,35.1025],[104.3593,35.1362],[104.3383,35.1332],[104.3355,35.1531],[104.348,35.1689],[104.391,35.1974],[104.4014,35.2277],[104.3852,35.231],[104.4028,35.2517],[104.4283,35.2563],[104.4473,35.2661],[104.4546,35.2767],[104.4547,35.2945],[104.476,35.3193],[104.4783,35.3297],[104.4675,35.3426],[104.4636,35.3658],[104.4512,35.3742],[104.4366,35.3661],[104.422,35.3837],[104.4022,35.3779],[104.3693,35.3852],[104.3334,35.3799],[104.3049,35.3581]]]},"properties":{"region_code":"CN-62-6211-621123","parent_region_code":"CN-62-6211","name":"渭源县","level":"county","has_children":false,"full_path":"中国 / 甘肃省 / 定西市 / 渭源县","source_admin_code":"621123","osm_relation_id":2701707}},
{"type":"Feature","geometry":{"type":"Polygon","coordinates":[[[104.2398,35.5783],[104.1952,35.6001],[104.2018,35.613],[104.1964,35.6239],[104.1731,35.6496],[104.1447,35.6356],[104.1293,35.6207],[104.1132,35.6376],[104.0996,35.6369],[104.0902,35.6554],[104.069,35.6619],[104.051,35.687],[104.0246,35.6998],[104.0175,35.7154],[104.0022,35.7148],[103.983,35.7352],[103.9618,35.7368],[103.9448,35.7494],[103.9172,35.7563],[103.9035,35.774],[103.8835,35.781],[103.8639,35.7972],[103.8462,35.7784],[103.847,35.8035],[103.8327,35.8212],[103.839,35.8321],[103.8337,35.8424],[103.8168,35.847],[103.7986,35.8434],[103.7811,35.8488],[103.776,35.8687],[103.7798,35.8901],[103.7329,35.9008],[103.7141,35.9229],[103.701,35.9286],[103.6914,35.9217],[103.6568,35.9192],[103.6442,35.9317],[103.6241,35.9364],[103.6068,35.9314],[103.5997,35.91],[103.5772,35.9033],[103.5591,35.9064],[103.5522,35.9322],[103.5162,35.9463],[103.483,35.9117],[103.4698,35.9164],[103.472,35.8907],[103.4663,35.8794],[103.4833,35.8723],[103.4992,35.8574],[103.5131,35.8538],[103.5332,35.8213],[103.5498,35.8032],[103.5832,35.7938],[103.5945,35.7766],[103.5924,35.7581],[103.6213,35.7536],[103.6255,35.7397],[103.6388,35.7325],[103.6452,35.7132],[103.6534,35.7098],[103.6744,35.686],[103.7268,35.6561],[103.7534,35.6269],[103.7668,35.6226],[103.7818,35.6005],[103.7872,35.5663],[103.8084,35.5352],[103.8165,35.5362],[103.8296,35.5085],[103.8485,35.4872],[103.8472,35.4757],[103.8305,35.4674],[103.819,35.4417],[103.7987,35.4368],[103.8135,35.4156],[103.8115,35.3958],[103.799,35.3999],[103.7815,35.3928],[103.7733,35.3581],[103.7515,35.3283],[103.7459,35.3129],[103.7279,35.2934],[103.7298,35.2741],[103.7085,35.2566],[103.7005,35.2357],[103.6866,35.2202],[103.6877,35.1971],[103.7102,35.1844],[103.7172,35.1687],[103.709,35.1501],[103.7137,35.1367],[103.7434,35.1199],[103.7345,35.0999],[103.7472,35.0895],[103.7623,35.0747],[103.7851,35.0621],[103.7983,35.0626],[103.7824,35.1185],[103.7988,35.1265],[103.8558,35.1223],[103.8796,35.1594],[103.8786,35.1828],[103.8844,35.1994],[103.8755,35.2079],[103.8812,35.2235],[103.902,35.2288],[103.927,35.2537],[103.9506,35.2565],[103.967,35.249],[103.9705,35.223],[103.9889,35.1902],[104.0148,35.1904],[104.0283,35.1964],[104.0442,35.2141],[104.0557,35.2132],[104.0732,35.2247],[104.1062,35.2659],[104.1055,35.2899],[104.1176,35.2992],[104.111,35.308],[104.1476,35.3215],[104.1369,35.3797],[104.1403,35.3869],[104.168,35.3828],[104.1892,35.3894],[104.2078,35.4148],[104.2248,35.4057],[104.2281,35.38],[104.2479,35.393],[104.2863,35.3619],[104.3049,35.3581],[104.3071,35.3953],[104.313,35.4026],[104.309,35.4209],[104.3214,35.4355],[104.3081,35.4458],[104.2918,35.445],[104.2755,35.4605],[104.2505,35.4747],[104.2394,35.4983],[104.2218,35.505],[104.2302,35.5274],[104.2269,35.5507],[104.2387,35.5556],[104.2338,35.5671],[104.2398,35.5783]]]},"properties":{"region_code":"CN-62-6211-621124","parent_region_code":"CN-62-6211","name":"临洮县","level":"county","has_children":false,"full_path":"中国 / 甘肃省 / 定西市 / 临洮县","source_admin_code":"621124","osm_relation_id":2701703}},
{"type":"Feature","geometry":{"type":"Polygon","coordinates":[[[104.32,34.9475],[104.2889,34.9378],[104.2891,34.9241],[104.2672,34.9042],[104.2533,34.9061],[104.2414,34.8982],[104.2043,34.9139],[104.2022,34.929],[104.1819,34.9359],[104.1509,34.9332],[104.1464,34.9469],[104.1211,34.9592],[104.0963,34.9596],[104.082,34.9545],[104.0836,34.939],[104.0935,34.925],[104.0776,34.9114],[104.0766,34.8909],[104.0529,34.8871],[104.0282,34.8932],[104.0223,34.8774],[103.9755,34.8524],[103.9638,34.8431],[103.9824,34.8202],[103.9951,34.8105],[103.9964,34.7881],[104.0161,34.7872],[104.0223,34.7766],[104.0158,34.7659],[104.0135,34.7436],[104.0399,34.7181],[104.076,34.7259],[104.0847,34.7238],[104.0851,34.7048],[104.0912,34.6917],[104.0866,34.681],[104.0867,34.6519],[104.1075,34.6413],[104.1211,34.6467],[104.1497,34.6419],[104.1603,34.6308],[104.1914,34.6285],[104.205,34.6237],[104.2083,34.6007],[104.1962,34.5925],[104.1926,34.5763],[104.2141,34.5725],[104.2384,34.5458],[104.2574,34.5436],[104.2871,34.5318],[104.2912,34.5202],[104.3057,34.524],[104.3144,34.5154],[104.3369,34.529],[104.353,34.5538],[104.3558,34.5832],[104.376,34.5786],[104.4011,34.5806],[104.4012,34.5672],[104.4143,34.564],[104.4249,34.5757],[104.4488,34.5738],[104.4564,34.5587],[104.4748,34.5526],[104.4845,34.5397],[104.4957,34.5493],[104.5281,34.5431],[104.5379,34.5242],[104.5543,34.5147],[104.5631,34.4988],[104.5447,34.4809],[104.5452,34.4677],[104.5668,34.4715],[104.5898,34.4935],[104.6098,34.498],[104.6167,34.491],[104.6387,34.4858],[104.6508,34.4681],[104.6743,34.4522],[104.6825,34.4379],[104.7104,34.4288],[104.7213,34.4446],[104.7372,34.4559],[104.7441,34.4774],[104.7466,34.4941],[104.7401,34.5049],[104.7503,34.5256],[104.7433,34.5366],[104.7415,34.5554],[104.7101,34.5416],[104.6983,34.542],[104.6699,34.5732],[104.6807,34.6063],[104.6949,34.6222],[104.6859,34.6449],[104.6968,34.6694],[104.6925,34.6734],[104.6298,34.6533],[104.592,34.6544],[104.5998,34.6783],[104.5954,34.6961],[104.5766,34.7255],[104.595,34.7319],[104.6035,34.7459],[104.5809,34.7694],[104.5825,34.7897],[104.5942,34.803],[104.5983,34.8185],[104.5972,34.8407],[104.572,34.8569],[104.5661,34.8778],[104.5532,34.8759],[104.547,34.8872],[104.5081,34.89],[104.5001,34.8842],[104.4794,34.8944],[104.4599,34.8983],[104.4254,34.8919],[104.4209,34.8999],[104.3919,34.9059],[104.3828,34.929],[104.3472,34.9389],[104.3521,34.9191],[104.3416,34.9159],[104.3332,34.9302],[104.3218,34.9335],[104.32,34.9475]]]},"properties":{"region_code":"CN-62-6211-621125","parent_region_code":"CN-62-6211","name":"漳县","level":"county","has_children":false,"full_path":"中国 / 甘肃省 / 定西市 / 漳县","source_admin_code":"621125","osm_relation_id":2701708}},
{"type":"Feature","geometry":{"type":"Polygon","coordinates":[[[104.0135,34.7436],[104.0005,34.735],[103.9837,34.7392],[103.973,34.7283],[103.9325,34.7402],[103.9192,34.7354],[103.9109,34.7486],[103.9006,34.7453],[103.8774,34.7498],[103.8491,34.739],[103.8339,34.7172],[103.8494,34.692],[103.8641,34.688],[103.8524,34.6699],[103.856,34.6614],[103.8345,34.625],[103.8416,34.6181],[103.825,34.6035],[103.846,34.5833],[103.836,34.5735],[103.8287,34.5474],[103.8157,34.5403],[103.8059,34.5456],[103.7777,34.5385],[103.7671,34.5255],[103.7933,34.493],[103.8084,34.4868],[103.8007,34.4631],[103.8083,34.458],[103.8139,34.4361],[103.8011,34.4073],[103.7838,34.3912],[103.7701,34.3932],[103.7574,34.3711],[103.7421,34.3645],[103.7328,34.3337],[103.6917,34.3167],[103.6984,34.2815],[103.7403,34.2917],[103.762,34.2889],[103.7719,34.2729],[103.7998,34.2743],[103.8142,34.2842],[103.8315,34.2834],[103.8375,34.2735],[103.8572,34.2782],[103.8748,34.2735],[103.8863,34.2613],[103.8999,34.2315],[103.9279,34.2137],[103.9437,34.1876],[103.9807,34.1727],[104.0091,34.1404],[104.0315,34.1262],[104.0418,34.1466],[104.0554,34.1571],[104.07,34.1836],[104.0719,34.1953],[104.0994,34.1917],[104.1199,34.1957],[104.15,34.1936],[104.1663,34.2235],[104.16,34.2313],[104.1653,34.2476],[104.1436,34.2558],[104.1281,34.2704],[104.129,34.2794],[104.1066,34.3187],[104.1275,34.3272],[104.1469,34.352],[104.1635,34.353],[104.1854,34.3611],[104.1907,34.3734],[104.2377,34.3578],[104.2633,34.3545],[104.2736,34.3671],[104.2954,34.3832],[104.307,34.3679],[104.3204,34.3784],[104.3466,34.3739],[104.359,34.3622],[104.3595,34.336],[104.415,34.3342],[104.4242,34.3204],[104.4231,34.3076],[104.4337,34.3023],[104.4421,34.2749],[104.4314,34.2628],[104.4466,34.2433],[104.454,34.227],[104.483,34.2231],[104.4879,34.2154],[104.5125,34.2089],[104.5233,34.1941],[104.5385,34.2196],[104.5493,34.2058],[104.5646,34.2026],[104.5918,34.2206],[104.5901,34.2289],[104.6165,34.2332],[104.6614,34.2287],[104.6739,34.2396],[104.6916,34.2407],[104.6886,34.253],[104.7096,34.2545],[104.7294,34.2449],[104.7839,34.234],[104.7793,34.2468],[104.8111,34.2567],[104.8055,34.2698],[104.8107,34.2797],[104.8364,34.2818],[104.8656,34.3091],[104.8487,34.324],[104.8579,34.34],[104.8373,34.3769],[104.8482,34.3846],[104.8923,34.3802],[104.9013,34.3837],[104.9513,34.3916],[104.9576,34.3858],[104.9777,34.3865],[104.9907,34.4022],[104.9799,34.4089],[104.9858,34.4264],[104.9561,34.4443],[104.9366,34.434],[104.92,34.4395],[104.9004,34.4397],[104.8913,34.4303],[104.8602,34.4302],[104.8536,34.4382],[104.8261,34.4479],[104.8072,34.4482],[104.7988,34.4359],[104.7874,34.4388],[104.7847,34.4615],[104.7921,34.4872],[104.7779,34.4894],[104.7628,34.4741],[104.7441,34.4774],[104.7372,34.4559],[104.7213,34.4446],[104.7104,34.4288],[104.6825,34.4379],[104.6743,34.4522],[104.6508,34.4681],[104.6387,34.4858],[104.6167,34.491],[104.6098,34.498],[104.5898,34.4935],[104.5668,34.4715],[104.5452,34.4677],[104.5447,34.4809],[104.5631,34.4988],[104.5543,34.5147],[104.5379,34.5242],[104.5281,34.5431],[104.4957,34.5493],[104.4845,34.5397],[104.4748,34.5526],[104.4564,34.5587],[104.4488,34.5738],[104.4249,34.5757],[104.4143,34.564],[104.4012,34.5672],[104.4011,34.5806],[104.376,34.5786],[104.3558,34.5832],[104.353,34.5538],[104.3369,34.529],[104.3144,34.5154],[104.3057,34.524],[104.2912,34.5202],[104.2871,34.5318],[104.2574,34.5436],[104.2384,34.5458],[104.2141,34.5725],[104.1926,34.5763],[104.1962,34.5925],[104.2083,34.6007],[104.205,34.6237],[104.1914,34.6285],[104.1603,34.6308],[104.1497,34.6419],[104.1211,34.6467],[104.1075,34.6413],[104.0867,34.6519],[104.0866,34.681],[104.0912,34.6917],[104.0851,34.7048],[104.0847,34.7238],[104.076,34.7259],[104.0399,34.7181],[104.0135,34.7436]]]},"properties":{"region_code":"CN-62-6211-621126","parent_region_code":"CN-62-6211","name":"岷县","level":"county","has_children":false,"full_path":"中国 / 甘肃省 / 定西市 / 岷县","source_admin_code":"621126","osm_relation_id":2701705}}
]}