{"type":"FeatureCollection", "features": [
{"type":"Feature","geometry":{"type":"Polygon","coordinates":[[[106.0875,39.0702],[106.1984,38.9824],[106.212,38.9805],[106.2704,38.9066],[106.3607,38.8553],[106.4819,38.9815],[106.4627,39.0166],[106.4745,39.0487],[106.4254,39.0864],[106.4579,39.1255],[106.4683,39.1615],[106.4567,39.1958],[106.5078,39.2707],[106.4354,39.286],[106.2827,39.2714],[106.2757,39.1963],[106.2924,39.1581],[106.2508,39.1272],[106.1462,39.1563],[106.0905,39.0866],[106.0875,39.0702]]]},"properties":{"region_code":"CN-64-6402-640202","parent_region_code":"CN-64-6402","name":"大武口区","level":"county","has_children":false,"full_path":"中国 / 宁夏回族自治区 / 石嘴山市 / 大武口区","source_admin_code":"640202","osm_relation_id":3307095}},
{"type":"Feature","geometry":{"type":"Polygon","coordinates":[[[106.4819,38.9815],[106.5133,38.9781],[106.5422,39.0151],[106.567,39.0195],[106.5914,39.0556],[106.743,39.0867],[106.7826,39.0667],[106.7606,39.022],[106.8356,38.9864],[106.8568,39.0307],[106.86,39.0902],[106.819,39.197],[106.7885,39.2521],[106.8007,39.27],[106.7946,39.3458],[106.7734,39.3717],[106.728,39.379],[106.6715,39.3539],[106.5959,39.3711],[106.528,39.3027],[106.5078,39.2707],[106.4567,39.1958],[106.4683,39.1615],[106.4579,39.1255],[106.4254,39.0864],[106.4745,39.0487],[106.4627,39.0166],[106.4819,38.9815]]]},"properties":{"region_code":"CN-64-6402-640205","parent_region_code":"CN-64-6402","name":"惠农区","level":"county","has_children":false,"full_path":"中国 / 宁夏回族自治区 / 石嘴山市 / 惠农区","source_admin_code":"640205","osm_relation_id":3307096}},
{"type":"Feature","geometry":{"type":"Polygon","coordinates":[[[106.0875,39.0702],[106.0833,39.0039],[106.055,38.9668],[105.9968,38.9368],[105.9651,38.8912],[106.0483,38.8664],[106.1352,38.8177],[106.2241,38.8136],[106.2865,38.7778],[106.3596,38.7716],[106.3924,38.7522],[106.394,38.7255],[106.4367,38.6906],[106.4582,38.7093],[106.598,38.6814],[106.5885,38.6573],[106.6369,38.6423],[106.6571,38.6005],[106.705,38.7167],[106.7381,38.7342],[106.7995,38.8176],[106.9494,38.944],[106.9651,39.0327],[106.9252,39.0762],[106.86,39.0902],[106.8568,39.0307],[106.8356,38.9864],[106.7606,39.022],[106.7826,39.0667],[106.743,39.0867],[106.5914,39.0556],[106.567,39.0195],[106.5422,39.0151],[106.5133,38.9781],[106.4819,38.9815],[106.3607,38.8553],[106.2704,38.9066],[106.212,38.9805],[106.1984,38.9824],[106.0875,39.0702]]]},"properties":{"region_code":"CN-64-6402-640221","parent_region_code":"CN-64-6402","name":"平罗县","level":"county","has_children":false,"full_path":"中国 / 宁夏回族自治区 / 石嘴山市 / 平罗县","source_admin_code":"640221","osm_relation_id":3307097}}
]}