{"type":"FeatureCollection", "features": [
{"type":"Feature","geometry":{"type":"Polygon","coordinates":[[[101.5769,38.6276],[101.5975,38.6178],[101.6133,38.6114],[101.641,38.6027],[101.6462,38.6004],[101.6593,38.5922],[101.6724,38.5862],[101.679,38.5814],[101.6825,38.5777],[101.6875,38.5703],[101.6921,38.5651],[101.6999,38.5711],[101.7101,38.5784],[101.7291,38.5951],[101.7359,38.5952],[101.7436,38.594],[101.7473,38.5924],[101.7478,38.5903],[101.7383,38.5788],[101.7336,38.5654],[101.7428,38.5565],[101.7623,38.5579],[101.7671,38.5621],[101.7657,38.5684],[101.764,38.5842],[101.7709,38.5871],[101.7847,38.5823],[101.7794,38.5606],[101.7789,38.5506],[101.7739,38.5337],[101.7782,38.5307],[101.7887,38.5304],[101.7951,38.5314],[101.7973,38.5347],[101.7981,38.5509],[101.811,38.5599],[101.8243,38.5686],[101.8795,38.5491],[101.886,38.5395],[101.8872,38.522],[101.8982,38.505],[101.8985,38.5019],[101.9056,38.4957],[101.9061,38.492],[101.9038,38.4828],[101.9259,38.4795],[101.9323,38.4757],[101.9368,38.4797],[101.9402,38.5071],[101.9441,38.5098],[101.9471,38.5134],[101.9487,38.5195],[101.9612,38.5231],[101.9689,38.5003],[101.971,38.4973],[101.982,38.4852],[101.9903,38.4809],[102.0004,38.4746],[102.0058,38.4707],[102.0123,38.4742],[102.021,38.4745],[102.0255,38.4724],[102.0272,38.4725],[102.0316,38.466],[102.0303,38.4643],[102.0327,38.4596],[102.0375,38.4587],[102.045,38.4547],[102.0536,38.4489],[102.0627,38.44],[102.1077,38.3992],[102.1102,38.3969],[102.1297,38.3902],[102.1761,38.3914],[102.1833,38.3879],[102.1854,38.3852],[102.19,38.3834],[102.1923,38.3844],[102.1916,38.3869],[102.1939,38.3911],[102.2029,38.3869],[102.2109,38.3853],[102.2166,38.3834],[102.2208,38.3886],[102.2331,38.3847],[102.2367,38.3829],[102.2465,38.3804],[102.2544,38.376],[102.2711,38.3689],[102.2762,38.3651],[102.2777,38.3587],[102.2843,38.3608],[102.2889,38.3646],[102.2926,38.3646],[102.295,38.3632],[102.2985,38.3647],[102.2997,38.3685],[102.3045,38.3658],[102.3058,38.3629],[102.3212,38.3562],[102.3221,38.3547],[102.3291,38.353],[102.3335,38.3498],[102.3474,38.3763],[102.3662,38.3784],[102.3814,38.3797],[102.4097,38.3824],[102.4293,38.3848],[102.5013,38.3947],[102.5079,38.3955],[102.5151,38.4261],[102.5308,38.4238],[102.5451,38.4223],[102.555,38.419],[102.5713,38.417],[102.6139,38.4708],[102.5344,38.5001],[102.5344,38.5087],[102.5192,38.5144],[102.5053,38.5365],[102.5024,38.5404],[102.4992,38.5426],[102.4942,38.5477],[102.4923,38.552],[102.4903,38.56],[102.487,38.5693],[102.4836,38.5765],[102.4779,38.5839],[102.4732,38.5862],[102.4642,38.5896],[102.4583,38.5925],[102.4564,38.5969],[102.4558,38.6085],[102.4545,38.6179],[102.4504,38.6224],[102.4491,38.6268],[102.4449,38.6285],[102.4345,38.6366],[102.425,38.6435],[102.424,38.6466],[102.4183,38.6456],[102.4075,38.6536],[102.403,38.6553],[102.4059,38.6592],[102.3927,38.6687],[102.4029,38.7253],[102.4131,38.7819],[102.4405,38.8019],[102.4375,38.8149],[102.4317,38.8418],[102.4253,38.8701],[102.4239,38.8771],[102.4099,38.8849],[102.4157,38.8923],[102.3643,38.9115],[102.2764,38.9442],[102.2679,38.9134],[102.1427,38.9395],[102.0966,38.9578],[102.0911,38.9599],[102.0857,38.9808],[102.0267,38.986],[101.9594,38.9952],[102.0278,38.9313],[102.0715,38.8905],[102.0589,38.8833],[102.0002,38.8488],[101.9985,38.8476],[101.9425,38.8153],[101.9373,38.8121],[101.8997,38.7695],[101.8787,38.7451],[101.8547,38.7177],[101.8283,38.699],[101.7864,38.6686],[101.7847,38.667],[101.7733,38.6588],[101.7598,38.6695],[101.7541,38.6709],[101.7492,38.6743],[101.7467,38.6736],[101.7419,38.6773],[101.7185,38.6775],[101.684,38.686],[101.6694,38.6899],[101.6655,38.6898],[101.6511,38.6867],[101.6477,38.6851],[101.6415,38.6775],[101.6382,38.6764],[101.6341,38.6689],[101.6279,38.6651],[101.622,38.6628],[101.6152,38.6578],[101.6126,38.6567],[101.6078,38.6519],[101.6052,38.6473],[101.6037,38.6481],[101.5972,38.6473],[101.5951,38.6456],[101.5784,38.6287],[101.5769,38.6276]]]},"properties":{"region_code":"CN-62-6203-620302","parent_region_code":"CN-62-6203","name":"金川区","level":"county","has_children":false,"full_path":"中国 / 甘肃省 / 金昌市 / 金川区","source_admin_code":"620302","osm_relation_id":2705763}},
{"type":"Feature","geometry":{"type":"MultiPolygon","coordinates":[[[[102.1059,38.0241],[102.1111,38.0271],[102.1128,38.0307],[102.1038,38.0346],[102.0958,38.0331],[102.0992,38.0261],[102.1026,38.0259],[102.1059,38.0241]]],[[[101.5769,38.6276],[101.5613,38.6115],[101.567,38.5784],[101.5458,38.5662],[101.5377,38.5618],[101.5185,38.5555],[101.5319,38.5413],[101.5369,38.5324],[101.5416,38.5261],[101.5412,38.5223],[101.5466,38.512],[101.5462,38.5033],[101.5494,38.4954],[101.5487,38.4935],[101.5453,38.4923],[101.5411,38.4928],[101.5343,38.4913],[101.5294,38.4911],[101.5259,38.4919],[101.5244,38.4899],[101.5177,38.4916],[101.5143,38.4942],[101.5125,38.497],[101.5048,38.4971],[101.5007,38.4934],[101.4999,38.4873],[101.5022,38.4855],[101.5012,38.4823],[101.5034,38.4808],[101.5022,38.4758],[101.5033,38.4719],[101.5057,38.4687],[101.5028,38.4659],[101.5111,38.4654],[101.5143,38.4636],[101.523,38.4659],[101.5248,38.4639],[101.5283,38.4626],[101.5276,38.4581],[101.5263,38.4566],[101.5145,38.4376],[101.5002,38.4277],[101.4845,38.417],[101.4782,38.4071],[101.4746,38.4041],[101.4728,38.3981],[101.4668,38.3931],[101.4602,38.3937],[101.4567,38.3928],[101.4513,38.3932],[101.4501,38.3913],[101.4502,38.3874],[101.4435,38.3893],[101.4377,38.3894],[101.433,38.3925],[101.4276,38.395],[101.4199,38.3954],[101.4169,38.399],[101.4113,38.3989],[101.409,38.3927],[101.4056,38.3913],[101.4017,38.391],[101.3915,38.3881],[101.3878,38.3898],[101.3765,38.3871],[101.3736,38.3884],[101.3689,38.3886],[101.3668,38.3844],[101.3628,38.3838],[101.363,38.3816],[101.3655,38.3786],[101.366,38.3749],[101.3685,38.3723],[101.3686,38.3702],[101.3622,38.3693],[101.3576,38.367],[101.355,38.3636],[101.3409,38.3692],[101.3346,38.3682],[101.3324,38.3668],[101.3382,38.36],[101.3384,38.3541],[101.3394,38.3455],[101.3386,38.3414],[101.339,38.3329],[101.34,38.3285],[101.3424,38.324],[101.3426,38.3202],[101.3502,38.3202],[101.3896,38.3193],[101.3899,38.3135],[101.3921,38.3099],[101.3946,38.3034],[101.395,38.2911],[101.396,38.2852],[101.4028,38.2832],[101.4133,38.2833],[101.413,38.2757],[101.4159,38.2729],[101.4286,38.2666],[101.4448,38.2604],[101.4548,38.2545],[101.459,38.2525],[101.465,38.2427],[101.4669,38.2413],[101.4737,38.239],[101.4829,38.2332],[101.4841,38.2311],[101.4825,38.2276],[101.4743,38.2185],[101.4702,38.2112],[101.4649,38.1991],[101.461,38.1964],[101.4569,38.1916],[101.4525,38.1884],[101.442,38.1799],[101.4349,38.1737],[101.4259,38.1649],[101.4224,38.1648],[101.4201,38.1622],[101.414,38.1591],[101.4091,38.153],[101.4105,38.1517],[101.4077,38.1484],[101.4092,38.1446],[101.4041,38.1376],[101.405,38.1356],[101.4041,38.1318],[101.406,38.1299],[101.4042,38.1274],[101.4046,38.1251],[101.4088,38.1231],[101.4152,38.1182],[101.4249,38.1175],[101.4295,38.1151],[101.4331,38.1142],[101.4387,38.1153],[101.4418,38.1138],[101.4476,38.1133],[101.4479,38.1081],[101.4472,38.1027],[101.4518,38.0996],[101.4548,38.0965],[101.4596,38.09],[101.4595,38.0869],[101.4651,38.0844],[101.4698,38.0838],[101.4725,38.0826],[101.4795,38.0845],[101.4827,38.0783],[101.4875,38.0768],[101.4934,38.0724],[101.4956,38.068],[101.5006,38.0682],[101.5018,38.0662],[101.5062,38.0673],[101.5075,38.0646],[101.5095,38.0639],[101.5129,38.0604],[101.5184,38.0621],[101.525,38.0654],[101.5288,38.0643],[101.5335,38.064],[101.5367,38.061],[101.5454,38.0624],[101.5555,38.0606],[101.5606,38.059],[101.5612,38.0572],[101.5672,38.0573],[101.5734,38.0556],[101.5778,38.0554],[101.5806,38.0564],[101.5894,38.057],[101.5912,38.0581],[101.602,38.0582],[101.6046,38.0617],[101.6089,38.064],[101.6129,38.0649],[101.6192,38.0637],[101.6235,38.0603],[101.6267,38.0617],[101.6277,38.0636],[101.6308,38.0651],[101.6331,38.0678],[101.6352,38.0725],[101.6367,38.0732],[101.6357,38.0768],[101.6378,38.0785],[101.6376,38.0824],[101.6455,38.0862],[101.6478,38.0882],[101.6531,38.0852],[101.6622,38.0827],[101.6675,38.0792],[101.6696,38.0761],[101.675,38.0723],[101.6806,38.0712],[101.6832,38.0699],[101.6878,38.0646],[101.6882,38.0684],[101.6899,38.07],[101.6894,38.0727],[101.6924,38.0781],[101.6942,38.079],[101.6971,38.0837],[101.7029,38.0884],[101.707,38.0897],[101.7149,38.0881],[101.7208,38.0887],[101.7229,38.0901],[101.727,38.0902],[101.7303,38.0923],[101.7338,38.0919],[101.7364,38.0942],[101.7377,38.0886],[101.7388,38.087],[101.753,38.0869],[101.7577,38.0854],[101.7579,38.0827],[101.7622,38.077],[101.7663,38.0768],[101.7706,38.0752],[101.776,38.075],[101.7763,38.0723],[101.7796,38.0703],[101.7865,38.0695],[101.7889,38.0679],[101.7924,38.0678],[101.7945,38.0652],[101.7989,38.0628],[101.8016,38.0636],[101.8045,38.0621],[101.8147,38.0633],[101.8197,38.0656],[101.8247,38.0692],[101.826,38.0721],[101.8311,38.073],[101.8312,38.0747],[101.8355,38.0804],[101.8353,38.0826],[101.8373,38.0867],[101.8445,38.0932],[101.8496,38.0948],[101.8524,38.0978],[101.855,38.098],[101.8584,38.0959],[101.863,38.0959],[101.8656,38.0981],[101.8707,38.0975],[101.8791,38.0987],[101.8804,38.1007],[101.8841,38.1009],[101.8881,38.0983],[101.8898,38.099],[101.8948,38.0974],[101.8961,38.0949],[101.899,38.0958],[101.9068,38.0941],[101.9114,38.0937],[101.912,38.0908],[101.9161,38.0863],[101.9242,38.0849],[101.9266,38.0833],[101.9364,38.0811],[101.9388,38.0785],[101.9478,38.0776],[101.955,38.0777],[101.9581,38.0794],[101.9601,38.0783],[101.9638,38.0822],[101.9713,38.0815],[101.9718,38.0837],[101.9742,38.0851],[101.9768,38.0912],[101.9812,38.0938],[101.9848,38.0936],[101.9978,38.0905],[102.0013,38.0871],[102.0046,38.0869],[102.0087,38.0822],[102.0146,38.0811],[102.0154,38.0766],[102.0138,38.0729],[102.0157,38.0667],[102.0176,38.0657],[102.0184,38.0629],[102.0214,38.0613],[102.0246,38.0556],[102.0235,38.0535],[102.0245,38.0498],[102.0234,38.0472],[102.0244,38.042],[102.0297,38.0384],[102.0357,38.0316],[102.036,38.029],[102.0391,38.0275],[102.0416,38.0249],[102.0491,38.0248],[102.0573,38.0223],[102.059,38.0264],[102.0635,38.0298],[102.0694,38.0285],[102.075,38.0314],[102.0808,38.0287],[102.079,38.027],[102.0821,38.0247],[102.0884,38.0272],[102.0883,38.0311],[102.0914,38.0335],[102.0962,38.0346],[102.0974,38.0369],[102.101,38.0382],[102.1017,38.0401],[102.1051,38.0403],[102.1075,38.0422],[102.1114,38.0399],[102.1127,38.042],[102.1176,38.0417],[102.1217,38.0454],[102.1253,38.045],[102.1295,38.0429],[102.1381,38.049],[102.1386,38.0517],[102.151,38.053],[102.1578,38.0605],[102.1636,38.0621],[102.1648,38.0582],[102.1693,38.0562],[102.1706,38.0523],[102.1738,38.0506],[102.1787,38.0566],[102.1786,38.0587],[102.1846,38.0621],[102.1877,38.0604],[102.1914,38.0552],[102.197,38.0587],[102.2011,38.0569],[102.2017,38.0587],[102.2058,38.0587],[102.2103,38.0603],[102.2147,38.0661],[102.2162,38.073],[102.2156,38.0763],[102.2185,38.0874],[102.2211,38.089],[102.2268,38.0957],[102.2283,38.0984],[102.2291,38.1056],[102.2304,38.1106],[102.2337,38.1138],[102.2412,38.1151],[102.2449,38.117],[102.2509,38.1178],[102.2561,38.1204],[102.2646,38.1223],[102.2707,38.1253],[102.2745,38.1282],[102.2841,38.1288],[102.2888,38.1269],[102.2899,38.1287],[102.2991,38.128],[102.3064,38.1307],[102.3214,38.1308],[102.321,38.1378],[102.3275,38.1386],[102.3343,38.1384],[102.3383,38.1403],[102.35,38.1419],[102.3645,38.1455],[102.3715,38.1454],[102.3767,38.1447],[102.3877,38.1418],[102.3923,38.1401],[102.3989,38.1366],[102.4036,38.1306],[102.4075,38.1294],[102.406,38.1262],[102.406,38.1219],[102.4085,38.1188],[102.408,38.1152],[102.4112,38.1124],[102.4142,38.1112],[102.4287,38.1103],[102.4373,38.1119],[102.4448,38.1152],[102.4476,38.1187],[102.4512,38.1258],[102.4575,38.1333],[102.4612,38.1355],[102.4729,38.1414],[102.4782,38.1467],[102.4865,38.1521],[102.4909,38.1539],[102.4907,38.156],[102.4942,38.1591],[102.4948,38.1613],[102.4994,38.1628],[102.5021,38.165],[102.5066,38.1651],[102.5076,38.1666],[102.5116,38.1661],[102.5197,38.1727],[102.5205,38.1773],[102.523,38.1782],[102.5243,38.1805],[102.5296,38.1835],[102.5344,38.1853],[102.5406,38.1831],[102.5452,38.185],[102.5494,38.1846],[102.556,38.1826],[102.5564,38.1812],[102.5635,38.176],[102.5702,38.175],[102.5729,38.1735],[102.5811,38.1736],[102.5833,38.1722],[102.588,38.172],[102.5942,38.1732],[102.6019,38.1729],[102.6047,38.1722],[102.6098,38.1728],[102.6179,38.1696],[102.6227,38.1666],[102.6267,38.1658],[102.6383,38.1595],[102.6479,38.1583],[102.6539,38.1586],[102.6612,38.1579],[102.6641,38.1589],[102.6768,38.1582],[102.6776,38.161],[102.6771,38.1697],[102.6755,38.1753],[102.6758,38.1806],[102.6753,38.1856],[102.673,38.1884],[102.6777,38.1887],[102.6776,38.1903],[102.6823,38.1905],[102.6829,38.1879],[102.6901,38.188],[102.6935,38.1894],[102.6956,38.1864],[102.7025,38.1872],[102.7104,38.1847],[102.7127,38.1847],[102.7197,38.1923],[102.7241,38.2013],[102.7223,38.2033],[102.7146,38.217],[102.7235,38.2208],[102.7242,38.223],[102.7272,38.2246],[102.7265,38.2318],[102.7274,38.2322],[102.7223,38.2474],[102.7189,38.2491],[102.7157,38.2583],[102.7109,38.2582],[102.7075,38.2566],[102.7002,38.2559],[102.7003,38.2588],[102.7055,38.2618],[102.7014,38.2682],[102.7007,38.2741],[102.6972,38.2795],[102.6942,38.2815],[102.6874,38.2822],[102.6899,38.3189],[102.6907,38.3276],[102.69,38.3313],[102.6917,38.3336],[102.692,38.3387],[102.69,38.3488],[102.6942,38.3645],[102.6969,38.3698],[102.696,38.3706],[102.7001,38.3811],[102.7025,38.3894],[102.7029,38.3929],[102.7024,38.3999],[102.7028,38.4082],[102.7002,38.4122],[102.6744,38.4162],[102.6452,38.4166],[102.5713,38.417],[102.555,38.419],[102.5451,38.4223],[102.5308,38.4238],[102.5151,38.4261],[102.5079,38.3955],[102.5013,38.3947],[102.4293,38.3848],[102.4097,38.3824],[102.3814,38.3797],[102.3662,38.3784],[102.3474,38.3763],[102.3335,38.3498],[102.3291,38.353],[102.3221,38.3547],[102.3212,38.3562],[102.3058,38.3629],[102.3045,38.3658],[102.2997,38.3685],[102.2985,38.3647],[102.295,38.3632],[102.2926,38.3646],[102.2889,38.3646],[102.2843,38.3608],[102.2777,38.3587],[102.2762,38.3651],[102.2711,38.3689],[102.2544,38.376],[102.2465,38.3804],[102.2367,38.3829],[102.2331,38.3847],[102.2208,38.3886],[102.2166,38.3834],[102.2109,38.3853],[102.2029,38.3869],[102.1939,38.3911],[102.1916,38.3869],[102.1923,38.3844],[102.19,38.3834],[102.1854,38.3852],[102.1833,38.3879],[102.1761,38.3914],[102.1297,38.3902],[102.1102,38.3969],[102.1077,38.3992],[102.0627,38.44],[102.0536,38.4489],[102.045,38.4547],[102.0375,38.4587],[102.0327,38.4596],[102.0303,38.4643],[102.0316,38.466],[102.0272,38.4725],[102.0255,38.4724],[102.021,38.4745],[102.0123,38.4742],[102.0058,38.4707],[102.0004,38.4746],[101.9903,38.4809],[101.982,38.4852],[101.971,38.4973],[101.9689,38.5003],[101.9612,38.5231],[101.9487,38.5195],[101.9471,38.5134],[101.9441,38.5098],[101.9402,38.5071],[101.9368,38.4797],[101.9323,38.4757],[101.9259,38.4795],[101.9038,38.4828],[101.9061,38.492],[101.9056,38.4957],[101.8985,38.5019],[101.8982,38.505],[101.8872,38.522],[101.886,38.5395],[101.8795,38.5491],[101.8243,38.5686],[101.811,38.5599],[101.7981,38.5509],[101.7973,38.5347],[101.7951,38.5314],[101.7887,38.5304],[101.7782,38.5307],[101.7739,38.5337],[101.7789,38.5506],[101.7794,38.5606],[101.7847,38.5823],[101.7709,38.5871],[101.764,38.5842],[101.7657,38.5684],[101.7671,38.5621],[101.7623,38.5579],[101.7428,38.5565],[101.7336,38.5654],[101.7383,38.5788],[101.7478,38.5903],[101.7473,38.5924],[101.7436,38.594],[101.7359,38.5952],[101.7291,38.5951],[101.7101,38.5784],[101.6999,38.5711],[101.6921,38.5651],[101.6875,38.5703],[101.6825,38.5777],[101.679,38.5814],[101.6724,38.5862],[101.6593,38.5922],[101.6462,38.6004],[101.641,38.6027],[101.6133,38.6114],[101.5975,38.6178],[101.5769,38.6276]]]]},"properties":{"region_code":"CN-62-6203-620321","parent_region_code":"CN-62-6203","name":"永昌县","level":"county","has_children":false,"full_path":"中国 / 甘肃省 / 金昌市 / 永昌县","source_admin_code":"620321","osm_relation_id":2705764}}
]}