{"type":"FeatureCollection", "features": [
{"type":"Feature","geometry":{"type":"Polygon","coordinates":[[[96.1124,43.0853],[96.0943,43.0428],[96.0277,42.9946],[96.0263,42.9361],[96.0531,42.8963],[95.9618,42.8445],[95.7685,42.9067],[95.5776,42.9067],[95.4489,42.9377],[95.3503,42.9949],[95.2374,42.978],[95.1262,42.9981],[95.0613,43.025],[94.9544,43.0059],[94.8287,42.9985],[94.7407,43.0055],[94.6423,42.9764],[94.5556,42.9901],[94.3853,43.0417],[94.3125,43.0907],[94.3272,43.1524],[94.2035,43.2246],[94.124,43.2861],[93.999,43.3402],[93.9654,43.3192],[93.8198,43.3641],[93.8074,43.442],[93.6785,43.4448],[93.6499,43.4604],[93.6346,43.5739],[93.5548,43.5714],[93.5702,43.5085],[93.5149,43.434],[93.386,43.3721],[93.3738,43.3957],[93.2644,43.4509],[93.1743,43.4692],[93.0606,43.4649],[92.9442,43.504],[92.713,43.4961],[92.6748,43.5144],[92.576,43.4882],[92.458,43.4729],[92.4254,43.4879],[92.3373,43.4604],[92.1815,43.4701],[92.1131,43.4543],[92.0215,43.4702],[91.8787,43.5205],[91.8387,43.5604],[91.6806,43.6217],[91.5535,43.6414],[91.4105,43.5859],[91.3212,43.5853],[91.2537,43.5451],[91.1626,43.5123],[91.1529,43.4705],[91.223,43.3765],[91.3118,43.1334],[91.3462,43.0995],[91.4143,42.8336],[91.4267,42.7297],[91.4052,42.6704],[91.4711,42.2904],[91.4629,42.244],[91.5017,42.2011],[91.6364,42.139],[91.6313,42.073],[91.6945,42.0633],[91.737,42.0058],[91.8551,41.7337],[91.826,41.6782],[91.8199,41.5733],[91.783,41.5589],[91.7842,41.5069],[91.8366,41.4696],[91.9109,41.384],[91.9217,41.2695],[92.0334,41.2721],[92.2398,41.199],[92.3996,41.1592],[92.5121,41.1406],[92.5343,41.12],[92.646,41.1125],[92.745,41.1257],[92.8623,41.1128],[92.993,41.0795],[93.1027,41.0397],[93.1962,40.991],[93.3397,40.9935],[93.5684,40.9525],[93.6925,40.875],[93.8083,40.8786],[93.9065,40.983],[94.0081,41.1129],[94.1818,41.2671],[94.5336,41.5047],[94.749,41.5371],[94.8606,41.6673],[94.9671,41.7171],[95.1094,41.7668],[95.1958,41.7199],[95.2488,41.6064],[95.2981,41.5628],[95.3386,41.6491],[95.396,41.693],[95.5701,41.7938],[95.6768,41.8281],[95.8572,41.8491],[96.0104,41.9099],[96.1123,41.9805],[96.1376,42.0531],[96.0758,42.1486],[96.1777,42.2167],[96.0401,42.3254],[96.0646,42.4129],[95.9778,42.4355],[96.0162,42.4806],[96.0226,42.5411],[96.1017,42.6031],[96.1647,42.6213],[96.3874,42.7245],[96.363,42.8987],[96.1124,43.0853]],[[94.0447,42.7637],[94.0781,42.752],[93.985,42.6441],[93.8362,42.5423],[93.7827,42.583],[93.7095,42.577],[93.6743,42.6387],[93.5034,42.6658],[93.5475,42.8187],[93.6283,42.7651],[93.6535,42.6726],[93.7387,42.8644],[93.8117,42.8517],[93.8381,42.8059],[93.8102,42.7824],[93.7482,42.6326],[93.802,42.5963],[93.9756,42.7049],[94.0447,42.7637]]]},"properties":{"region_code":"CN-65-6505-650502","parent_region_code":"CN-65-6505","name":"伊州区","level":"county","has_children":false,"full_path":"中国 / 新疆维吾尔自治区 / 哈密市 / 伊州区","source_admin_code":"650502","osm_relation_id":2747165}},
{"type":"Feature","geometry":{"type":"Polygon","coordinates":[[[93.6346,43.5739],[93.7631,43.667],[93.7822,43.7243],[93.8686,43.7332],[93.9347,43.8105],[94.0672,43.8808],[94.1235,43.9354],[94.2246,43.9965],[94.2229,44.0227],[94.3025,44.1349],[94.4584,44.2295],[94.7437,44.3071],[94.766,44.34],[94.7128,44.345],[94.6105,44.4425],[94.4623,44.5105],[94.3607,44.5148],[94.3264,44.5824],[94.2762,44.6049],[94.2114,44.6677],[94.15,44.6836],[94.0621,44.7324],[93.7307,44.8623],[93.6708,44.9099],[93.5226,44.9575],[93.428,44.9563],[93.366,44.9879],[93.2855,44.9824],[93.1682,45.0133],[92.9294,45.0157],[92.8816,45.0465],[92.7759,45.0498],[92.6449,45.0205],[92.5494,45.0177],[92.4905,45.0001],[92.3133,45.0268],[92.2349,45.0135],[92.0996,45.0755],[92.0576,45.0828],[91.8008,45.0816],[91.6909,45.062],[91.5332,45.0884],[91.5016,45.0353],[91.5468,44.9891],[91.5588,44.8944],[91.4931,44.8453],[91.3868,44.7356],[91.3974,44.6243],[91.3376,44.5251],[91.3382,44.4577],[91.2982,44.4342],[91.2845,44.3694],[91.3362,44.2796],[91.3288,44.0981],[91.3002,44.0162],[91.4534,43.8945],[91.4995,43.8729],[91.5624,43.7516],[91.5322,43.7272],[91.4224,43.7184],[91.4742,43.6565],[91.5535,43.6414],[91.6806,43.6217],[91.8387,43.5604],[91.8787,43.5205],[92.0215,43.4702],[92.1131,43.4543],[92.1815,43.4701],[92.3373,43.4604],[92.4254,43.4879],[92.458,43.4729],[92.576,43.4882],[92.6748,43.5144],[92.713,43.4961],[92.9442,43.504],[93.0606,43.4649],[93.1743,43.4692],[93.2644,43.4509],[93.3738,43.3957],[93.386,43.3721],[93.5149,43.434],[93.5702,43.5085],[93.5548,43.5714],[93.6346,43.5739]]]},"properties":{"region_code":"CN-65-6505-650521","parent_region_code":"CN-65-6505","name":"巴里坤哈萨克自治县","level":"county","has_children":false,"full_path":"中国 / 新疆维吾尔自治区 / 哈密市 / 巴里坤哈萨克自治县","source_admin_code":"650521","osm_relation_id":2747164}},
{"type":"Feature","geometry":{"type":"Polygon","coordinates":[[[96.1124,43.0853],[95.9078,43.2363],[95.8778,43.2774],[95.8576,43.4136],[95.7358,43.5943],[95.6475,43.7763],[95.6229,43.8514],[95.5228,44.0051],[95.4418,44.0051],[95.3282,44.0365],[95.3732,44.2262],[95.4098,44.2938],[94.9987,44.2509],[94.9448,44.288],[94.766,44.34],[94.7437,44.3071],[94.4584,44.2295],[94.3025,44.1349],[94.2229,44.0227],[94.2246,43.9965],[94.1235,43.9354],[94.0672,43.8808],[93.9347,43.8105],[93.8686,43.7332],[93.7822,43.7243],[93.7631,43.667],[93.6346,43.5739],[93.6499,43.4604],[93.6785,43.4448],[93.8074,43.442],[93.8198,43.3641],[93.9654,43.3192],[93.999,43.3402],[94.124,43.2861],[94.2035,43.2246],[94.3272,43.1524],[94.3125,43.0907],[94.3853,43.0417],[94.5556,42.9901],[94.6423,42.9764],[94.7407,43.0055],[94.8287,42.9985],[94.9544,43.0059],[95.0613,43.025],[95.1262,42.9981],[95.2374,42.978],[95.3503,42.9949],[95.4489,42.9377],[95.5776,42.9067],[95.7685,42.9067],[95.9618,42.8445],[96.0531,42.8963],[96.0263,42.9361],[96.0277,42.9946],[96.0943,43.0428],[96.1124,43.0853]]]},"properties":{"region_code":"CN-65-6505-650522","parent_region_code":"CN-65-6505","name":"伊吾县","level":"county","has_children":false,"full_path":"中国 / 新疆维吾尔自治区 / 哈密市 / 伊吾县","source_admin_code":"650522","osm_relation_id":2747166}}
]}