{"type":"FeatureCollection", "features": [
{"type":"Feature","geometry":{"type":"Polygon","coordinates":[[[109.7585,34.7905],[109.7438,34.7923],[109.7287,34.7778],[109.6964,34.772],[109.662,34.7833],[109.6352,34.7876],[109.6025,34.7671],[109.6048,34.7526],[109.5823,34.7485],[109.5704,34.759],[109.5535,34.7575],[109.5521,34.7682],[109.5141,34.7857],[109.4678,34.7797],[109.4293,34.7675],[109.4099,34.7669],[109.4058,34.7438],[109.4132,34.7386],[109.4271,34.7134],[109.4182,34.7036],[109.4154,34.6829],[109.4228,34.6629],[109.4287,34.6281],[109.4236,34.607],[109.4314,34.6047],[109.4368,34.5757],[109.4453,34.5509],[109.4229,34.5465],[109.3876,34.5315],[109.3825,34.5261],[109.3907,34.5081],[109.3847,34.4709],[109.4106,34.4612],[109.4196,34.4387],[109.4188,34.4247],[109.4355,34.4162],[109.4401,34.3973],[109.46,34.3848],[109.4499,34.3578],[109.4538,34.3524],[109.4457,34.3242],[109.4527,34.2988],[109.4698,34.2971],[109.4902,34.2706],[109.5113,34.2652],[109.5192,34.2568],[109.5549,34.2652],[109.57,34.2639],[109.6236,34.2401],[109.647,34.2472],[109.6628,34.2387],[109.6839,34.2447],[109.6652,34.2981],[109.6479,34.3248],[109.6281,34.345],[109.6211,34.3722],[109.6007,34.4043],[109.5947,34.4308],[109.6062,34.4657],[109.6208,34.4813],[109.6324,34.4789],[109.6367,34.4998],[109.6305,34.5396],[109.6449,34.5539],[109.6379,34.5695],[109.6524,34.5798],[109.7046,34.5799],[109.7103,34.586],[109.7171,34.5925],[109.7092,34.6137],[109.7208,34.6564],[109.7064,34.6689],[109.7257,34.6746],[109.7449,34.7485],[109.7561,34.7478],[109.7506,34.77],[109.7585,34.7905]]]},"properties":{"region_code":"CN-61-6105-610502","parent_region_code":"CN-61-6105","name":"临渭区","level":"county","has_children":false,"full_path":"中国 / 陕西省 / 渭南市 / 临渭区","source_admin_code":"610502","osm_relation_id":3028618}},
{"type":"Feature","geometry":{"type":"Polygon","coordinates":[[[109.6839,34.2447],[109.7259,34.2369],[109.7322,34.2218],[109.7498,34.2528],[109.7674,34.2545],[109.786,34.2308],[109.7936,34.234],[109.7863,34.2666],[109.8061,34.2737],[109.8256,34.2904],[109.8427,34.2725],[109.8704,34.2717],[109.8837,34.244],[109.9127,34.2326],[109.9331,34.2354],[109.9503,34.2442],[109.9451,34.219],[109.9572,34.2107],[109.9916,34.2233],[110.0191,34.2411],[110.0127,34.2529],[110.0099,34.2847],[110.0044,34.2999],[110.029,34.3041],[110.0354,34.3247],[110.0178,34.3396],[110.005,34.3652],[109.9908,34.3625],[109.9735,34.3695],[109.966,34.3795],[109.9482,34.374],[109.9185,34.3722],[109.9105,34.3911],[109.9336,34.4057],[109.9462,34.4201],[109.944,34.4366],[109.9679,34.4377],[109.9648,34.4476],[109.9453,34.4596],[109.9116,34.4516],[109.8986,34.4711],[109.8941,34.4989],[109.897,34.5316],[109.893,34.5566],[109.8941,34.5922],[109.8855,34.5951],[109.8747,34.5901],[109.8536,34.6192],[109.8222,34.5965],[109.8028,34.6072],[109.7748,34.6104],[109.7582,34.5832],[109.7373,34.5912],[109.7368,34.5731],[109.722,34.5716],[109.7103,34.586],[109.7046,34.5799],[109.6524,34.5798],[109.6379,34.5695],[109.6449,34.5539],[109.6305,34.5396],[109.6367,34.4998],[109.6324,34.4789],[109.6208,34.4813],[109.6062,34.4657],[109.5947,34.4308],[109.6007,34.4043],[109.6211,34.3722],[109.6281,34.345],[109.6479,34.3248],[109.6652,34.2981],[109.6839,34.2447]]]},"properties":{"region_code":"CN-61-6105-610503","parent_region_code":"CN-61-6105","name":"华州区","level":"county","has_children":false,"full_path":"中国 / 陕西省 / 渭南市 / 华州区","source_admin_code":"610503","osm_relation_id":3028616}},
{"type":"Feature","geometry":{"type":"Polygon","coordinates":[[[110.1587,34.4325],[110.1881,34.4159],[110.2136,34.4148],[110.2254,34.4078],[110.2439,34.408],[110.2773,34.3926],[110.3461,34.4007],[110.3675,34.4004],[110.4065,34.4205],[110.3947,34.4414],[110.3969,34.4487],[110.3868,34.4683],[110.3637,34.4946],[110.3551,34.518],[110.3669,34.5383],[110.3961,34.5562],[110.3908,34.5643],[110.3607,34.5683],[110.3746,34.6044],[110.3324,34.6059],[110.2822,34.613],[110.2588,34.6324],[110.2486,34.6494],[110.2316,34.6407],[110.1882,34.6395],[110.1912,34.6504],[110.167,34.6496],[110.1687,34.6427],[110.1772,34.6415],[110.1764,34.6095],[110.1855,34.5951],[110.1873,34.5747],[110.2017,34.5569],[110.2014,34.5297],[110.2098,34.5248],[110.1878,34.5026],[110.1827,34.4754],[110.1929,34.466],[110.1587,34.4325]]]},"properties":{"region_code":"CN-61-6105-610522","parent_region_code":"CN-61-6105","name":"潼关县","level":"county","has_children":false,"full_path":"中国 / 陕西省 / 渭南市 / 潼关县","source_admin_code":"610522","osm_relation_id":3028620}},
{"type":"Feature","geometry":{"type":"Polygon","coordinates":[[[109.7103,34.586],[109.722,34.5716],[109.7368,34.5731],[109.7373,34.5912],[109.7582,34.5832],[109.7748,34.6104],[109.8028,34.6072],[109.8222,34.5965],[109.8536,34.6192],[109.8747,34.5901],[109.8855,34.5951],[109.8823,34.6178],[109.9074,34.612],[109.9209,34.6151],[109.9293,34.629],[109.9229,34.6386],[109.9416,34.6447],[109.9483,34.6359],[109.9656,34.6321],[109.9805,34.6414],[109.9955,34.6422],[109.9991,34.6287],[110.0317,34.6338],[110.0487,34.6317],[110.0664,34.6427],[110.1066,34.6501],[110.1125,34.6675],[110.1261,34.6662],[110.1404,34.6494],[110.1412,34.6388],[110.1687,34.6427],[110.167,34.6496],[110.1912,34.6504],[110.1882,34.6395],[110.2316,34.6407],[110.2486,34.6494],[110.2351,34.6714],[110.2267,34.7068],[110.2339,34.7215],[110.2412,34.7688],[110.2315,34.8116],[110.2371,34.8549],[110.2195,34.8849],[110.2375,34.9056],[110.249,34.9358],[110.2639,34.945],[110.2795,34.9684],[110.2683,34.9807],[110.2005,34.9928],[110.1841,34.9976],[110.1673,35.0261],[110.1297,35.0318],[110.1181,35.0192],[110.0946,35.0192],[110.0939,34.9982],[110.0554,34.9945],[110.0087,34.9672],[110.0084,34.9501],[109.9887,34.9368],[109.9759,34.9365],[109.9602,34.9259],[109.9312,34.9367],[109.9182,34.9358],[109.9106,34.9207],[109.8961,34.9164],[109.8611,34.9188],[109.8574,34.9293],[109.8324,34.9334],[109.8239,34.9223],[109.81,34.9239],[109.7879,34.9052],[109.7731,34.9068],[109.7277,34.8787],[109.72,34.8684],[109.7316,34.8531],[109.7284,34.8455],[109.7543,34.8306],[109.7633,34.8417],[109.7795,34.8379],[109.7754,34.826],[109.7844,34.8088],[109.7585,34.7905],[109.7506,34.77],[109.7561,34.7478],[109.7449,34.7485],[109.7257,34.6746],[109.7064,34.6689],[109.7208,34.6564],[109.7092,34.6137],[109.7171,34.5925],[109.7103,34.586]]]},"properties":{"region_code":"CN-61-6105-610523","parent_region_code":"CN-61-6105","name":"大荔县","level":"county","has_children":false,"full_path":"中国 / 陕西省 / 渭南市 / 大荔县","source_admin_code":"610523","osm_relation_id":3028612}},
{"type":"Feature","geometry":{"type":"Polygon","coordinates":[[[110.2795,34.9684],[110.279,34.9775],[110.2958,34.9961],[110.2974,35.0072],[110.3373,35.0612],[110.368,35.1373],[110.3537,35.1783],[110.3633,35.2122],[110.3953,35.2965],[110.4077,35.3077],[110.4227,35.3177],[110.3848,35.332],[110.3741,35.3202],[110.3461,35.324],[110.3276,35.3325],[110.2923,35.3352],[110.2805,35.3405],[110.2602,35.3367],[110.2355,35.3407],[110.193,35.3673],[110.1961,35.3813],[110.1707,35.4064],[110.1335,35.415],[110.1169,35.4361],[110.0936,35.4186],[110.0745,35.412],[110.045,35.4223],[110.01,35.4095],[109.9969,35.3712],[109.9968,35.349],[110.0036,35.3291],[109.9904,35.315],[109.9818,35.2837],[109.9908,35.2762],[109.9931,35.2573],[110.0104,35.2388],[110.033,35.2379],[110.0371,35.226],[110.0308,35.2052],[110.0154,35.1982],[110.0077,35.186],[110.0312,35.178],[110.0287,35.152],[110.0431,35.1438],[110.0172,35.1009],[109.984,35.0921],[109.9778,35.0782],[109.9984,35.0636],[110.0335,35.063],[110.0403,35.0441],[110.0671,35.0315],[110.0683,35.0227],[110.0946,35.0192],[110.1181,35.0192],[110.1297,35.0318],[110.1673,35.0261],[110.1841,34.9976],[110.2005,34.9928],[110.2683,34.9807],[110.2795,34.9684]]]},"properties":{"region_code":"CN-61-6105-610524","parent_region_code":"CN-61-6105","name":"合阳县","level":"county","has_children":false,"full_path":"中国 / 陕西省 / 渭南市 / 合阳县","source_admin_code":"610524","osm_relation_id":3028615}},
{"type":"Feature","geometry":{"type":"Polygon","coordinates":[[[110.0946,35.0192],[110.0683,35.0227],[110.0671,35.0315],[110.0403,35.0441],[110.0335,35.063],[109.9984,35.0636],[109.9778,35.0782],[109.984,35.0921],[110.0172,35.1009],[110.0431,35.1438],[110.0287,35.152],[110.0312,35.178],[110.0077,35.186],[110.0154,35.1982],[110.0308,35.2052],[110.0371,35.226],[110.033,35.2379],[110.0104,35.2388],[109.9931,35.2573],[109.9908,35.2762],[109.9818,35.2837],[109.9904,35.315],[110.0036,35.3291],[109.9968,35.349],[109.9969,35.3712],[110.01,35.4095],[109.9925,35.4348],[109.9786,35.4281],[109.9761,35.4098],[109.9375,35.4201],[109.9341,35.4114],[109.8947,35.4161],[109.8732,35.4337],[109.8526,35.4279],[109.8277,35.4343],[109.8123,35.4473],[109.7835,35.446],[109.7561,35.4307],[109.7299,35.4293],[109.7433,35.4123],[109.7439,35.4027],[109.7285,35.3508],[109.7104,35.3437],[109.6953,35.3124],[109.6932,35.294],[109.6814,35.28],[109.695,35.257],[109.7157,35.2493],[109.7436,35.2003],[109.7473,35.1799],[109.7642,35.1766],[109.791,35.1591],[109.8152,35.1596],[109.8243,35.121],[109.8468,35.1046],[109.8592,35.1227],[109.8848,35.1157],[109.8908,35.1052],[109.8765,35.0962],[109.8595,35.07],[109.8399,35.053],[109.8366,35.0366],[109.8504,35.0278],[109.8733,35.0483],[109.9054,35.0493],[109.9142,35.0131],[109.8874,34.9646],[109.9182,34.9358],[109.9312,34.9367],[109.9602,34.9259],[109.9759,34.9365],[109.9887,34.9368],[110.0084,34.9501],[110.0087,34.9672],[110.0554,34.9945],[110.0939,34.9982],[110.0946,35.0192]]]},"properties":{"region_code":"CN-61-6105-610525","parent_region_code":"CN-61-6105","name":"澄城县","level":"county","has_children":false,"full_path":"中国 / 陕西省 / 渭南市 / 澄城县","source_admin_code":"610525","osm_relation_id":3028611}},
{"type":"Feature","geometry":{"type":"Polygon","coordinates":[[[109.7585,34.7905],[109.7844,34.8088],[109.7754,34.826],[109.7795,34.8379],[109.7633,34.8417],[109.7543,34.8306],[109.7284,34.8455],[109.7316,34.8531],[109.72,34.8684],[109.7277,34.8787],[109.7731,34.9068],[109.7879,34.9052],[109.81,34.9239],[109.8239,34.9223],[109.8324,34.9334],[109.8574,34.9293],[109.8611,34.9188],[109.8961,34.9164],[109.9106,34.9207],[109.9182,34.9358],[109.8874,34.9646],[109.9142,35.0131],[109.9054,35.0493],[109.8733,35.0483],[109.8504,35.0278],[109.8366,35.0366],[109.8399,35.053],[109.8595,35.07],[109.8765,35.0962],[109.8908,35.1052],[109.8848,35.1157],[109.8592,35.1227],[109.8468,35.1046],[109.8243,35.121],[109.8152,35.1596],[109.791,35.1591],[109.7642,35.1766],[109.7565,35.1675],[109.752,35.1435],[109.7651,35.1239],[109.7447,35.0814],[109.7246,35.063],[109.7062,35.072],[109.7014,35.0922],[109.6782,35.1074],[109.6776,35.127],[109.686,35.1378],[109.6725,35.147],[109.637,35.1398],[109.6242,35.1529],[109.607,35.1248],[109.59,35.1443],[109.5706,35.1399],[109.5667,35.1515],[109.5398,35.1685],[109.4895,35.1648],[109.4696,35.1528],[109.438,35.1469],[109.4312,35.1348],[109.4365,35.1095],[109.429,35.0779],[109.4164,35.0598],[109.4152,35.0485],[109.4369,34.9957],[109.4314,34.9802],[109.3974,34.9587],[109.3966,34.9323],[109.3805,34.9302],[109.3714,34.9153],[109.3398,34.8894],[109.3383,34.853],[109.3536,34.8477],[109.3628,34.8333],[109.3912,34.8348],[109.3971,34.826],[109.4006,34.7975],[109.4099,34.7669],[109.4293,34.7675],[109.4678,34.7797],[109.5141,34.7857],[109.5521,34.7682],[109.5535,34.7575],[109.5704,34.759],[109.5823,34.7485],[109.6048,34.7526],[109.6025,34.7671],[109.6352,34.7876],[109.662,34.7833],[109.6964,34.772],[109.7287,34.7778],[109.7438,34.7923],[109.7585,34.7905]]]},"properties":{"region_code":"CN-61-6105-610526","parent_region_code":"CN-61-6105","name":"蒲城县","level":"county","has_children":false,"full_path":"中国 / 陕西省 / 渭南市 / 蒲城县","source_admin_code":"610526","osm_relation_id":3028619}},
{"type":"Feature","geometry":{"type":"Polygon","coordinates":[[[109.7299,35.4293],[109.7158,35.412],[109.7028,35.4102],[109.6725,35.4234],[109.6424,35.426],[109.6366,35.443],[109.6003,35.447],[109.5786,35.4408],[109.5668,35.4463],[109.5384,35.4434],[109.5154,35.4251],[109.5069,35.4125],[109.5097,35.4014],[109.4952,35.3783],[109.4938,35.3514],[109.4619,35.3432],[109.4465,35.3302],[109.4256,35.3262],[109.4037,35.3285],[109.3661,35.2899],[109.2986,35.2647],[109.2767,35.2526],[109.2972,35.2343],[109.3179,35.1984],[109.3402,35.1895],[109.3472,35.1735],[109.3637,35.1677],[109.3749,35.1516],[109.393,35.1611],[109.4061,35.1586],[109.4293,35.1696],[109.438,35.1469],[109.4696,35.1528],[109.4895,35.1648],[109.5398,35.1685],[109.5667,35.1515],[109.5706,35.1399],[109.59,35.1443],[109.607,35.1248],[109.6242,35.1529],[109.637,35.1398],[109.6725,35.147],[109.686,35.1378],[109.6776,35.127],[109.6782,35.1074],[109.7014,35.0922],[109.7062,35.072],[109.7246,35.063],[109.7447,35.0814],[109.7651,35.1239],[109.752,35.1435],[109.7565,35.1675],[109.7642,35.1766],[109.7473,35.1799],[109.7436,35.2003],[109.7157,35.2493],[109.695,35.257],[109.6814,35.28],[109.6932,35.294],[109.6953,35.3124],[109.7104,35.3437],[109.7285,35.3508],[109.7439,35.4027],[109.7433,35.4123],[109.7299,35.4293]]]},"properties":{"region_code":"CN-61-6105-610527","parent_region_code":"CN-61-6105","name":"白水县","level":"county","has_children":false,"full_path":"中国 / 陕西省 / 渭南市 / 白水县","source_admin_code":"610527","osm_relation_id":3028610}},
{"type":"Feature","geometry":{"type":"Polygon","coordinates":[[[109.4099,34.7669],[109.4006,34.7975],[109.3971,34.826],[109.3912,34.8348],[109.3628,34.8333],[109.3536,34.8477],[109.3383,34.853],[109.3398,34.8894],[109.3714,34.9153],[109.3805,34.9302],[109.3966,34.9323],[109.3974,34.9587],[109.4314,34.9802],[109.4369,34.9957],[109.4152,35.0485],[109.4164,35.0598],[109.399,35.0732],[109.3908,35.0971],[109.3822,35.1018],[109.3435,35.0975],[109.3188,35.0872],[109.3023,35.0931],[109.2828,35.1173],[109.2733,35.1115],[109.2655,35.09],[109.253,35.082],[109.2576,35.0696],[109.2123,35.0293],[109.1992,35.0033],[109.1745,34.9938],[109.1525,34.9989],[109.1349,34.994],[109.1209,34.9704],[109.0899,34.9631],[109.0954,34.9415],[109.0917,34.9304],[109.0596,34.9069],[109.0353,34.9016],[108.9991,34.9024],[108.9635,34.8867],[108.9547,34.8782],[108.9691,34.8306],[108.9875,34.8256],[108.9924,34.8071],[109.0051,34.7884],[109.0272,34.7731],[109.0355,34.7472],[109.0261,34.7212],[109.0288,34.7046],[109.0488,34.6928],[109.0665,34.7138],[109.0813,34.706],[109.122,34.7043],[109.1572,34.7078],[109.1711,34.6973],[109.2023,34.6991],[109.2057,34.694],[109.2437,34.6908],[109.2731,34.6985],[109.2813,34.6891],[109.3234,34.6961],[109.3419,34.7023],[109.3525,34.7178],[109.3537,34.7409],[109.3814,34.738],[109.4058,34.7438],[109.4099,34.7669]]]},"properties":{"region_code":"CN-61-6105-610528","parent_region_code":"CN-61-6105","name":"富平县","level":"county","has_children":false,"full_path":"中国 / 陕西省 / 渭南市 / 富平县","source_admin_code":"610528","osm_relation_id":3028613}},
{"type":"Feature","geometry":{"type":"Polygon","coordinates":[[[110.4077,35.3077],[110.4552,35.3315],[110.4601,35.3743],[110.4762,35.4213],[110.4781,35.4558],[110.5001,35.4838],[110.5664,35.5396],[110.606,35.6187],[110.6009,35.6567],[110.5883,35.6639],[110.5866,35.6843],[110.5721,35.702],[110.5748,35.7138],[110.5689,35.7703],[110.5592,35.783],[110.5661,35.8038],[110.558,35.8262],[110.5456,35.8381],[110.5441,35.853],[110.513,35.8495],[110.4793,35.8302],[110.4715,35.831],[110.4257,35.8138],[110.4052,35.8102],[110.3958,35.7924],[110.3802,35.785],[110.3654,35.757],[110.3524,35.7503],[110.325,35.7491],[110.3049,35.738],[110.2782,35.7132],[110.196,35.7167],[110.1633,35.7104],[110.1403,35.698],[110.1317,35.6857],[110.1455,35.6684],[110.1858,35.6578],[110.1983,35.6478],[110.2205,35.6391],[110.2342,35.6165],[110.2488,35.6052],[110.2547,35.5808],[110.2642,35.5737],[110.2634,35.5544],[110.2215,35.5224],[110.1967,35.4903],[110.1724,35.4701],[110.1286,35.4526],[110.1169,35.4361],[110.1335,35.415],[110.1707,35.4064],[110.1961,35.3813],[110.193,35.3673],[110.2355,35.3407],[110.2602,35.3367],[110.2805,35.3405],[110.2923,35.3352],[110.3276,35.3325],[110.3461,35.324],[110.3741,35.3202],[110.3848,35.332],[110.4227,35.3177],[110.4077,35.3077]]]},"properties":{"region_code":"CN-61-6105-610581","parent_region_code":"CN-61-6105","name":"韩城市","level":"county","has_children":false,"full_path":"中国 / 陕西省 / 渭南市 / 韩城市","source_admin_code":"610581","osm_relation_id":3028614}},
{"type":"Feature","geometry":{"type":"Polygon","coordinates":[[[110.005,34.3652],[110.0145,34.3799],[110.031,34.3792],[110.0528,34.3984],[110.0543,34.4145],[110.0684,34.4152],[110.1084,34.4324],[110.1587,34.4325],[110.1929,34.466],[110.1827,34.4754],[110.1878,34.5026],[110.2098,34.5248],[110.2014,34.5297],[110.2017,34.5569],[110.1873,34.5747],[110.1855,34.5951],[110.1764,34.6095],[110.1772,34.6415],[110.1687,34.6427],[110.1412,34.6388],[110.1404,34.6494],[110.1261,34.6662],[110.1125,34.6675],[110.1066,34.6501],[110.0664,34.6427],[110.0487,34.6317],[110.0317,34.6338],[109.9991,34.6287],[109.9955,34.6422],[109.9805,34.6414],[109.9656,34.6321],[109.9483,34.6359],[109.9416,34.6447],[109.9229,34.6386],[109.9293,34.629],[109.9209,34.6151],[109.9074,34.612],[109.8823,34.6178],[109.8855,34.5951],[109.8941,34.5922],[109.893,34.5566],[109.897,34.5316],[109.8941,34.4989],[109.8986,34.4711],[109.9116,34.4516],[109.9453,34.4596],[109.9648,34.4476],[109.9679,34.4377],[109.944,34.4366],[109.9462,34.4201],[109.9336,34.4057],[109.9105,34.3911],[109.9185,34.3722],[109.9482,34.374],[109.966,34.3795],[109.9735,34.3695],[109.9908,34.3625],[110.005,34.3652]]]},"properties":{"region_code":"CN-61-6105-610582","parent_region_code":"CN-61-6105","name":"华阴市","level":"county","has_children":false,"full_path":"中国 / 陕西省 / 渭南市 / 华阴市","source_admin_code":"610582","osm_relation_id":3028617}}
]}