{"type":"FeatureCollection", "features": [
{"type":"Feature","geometry":{"type":"MultiPolygon","coordinates":[[[[109.1625,33.8001],[109.17,33.813],[109.1472,33.8114],[109.1501,33.7931],[109.1625,33.8001]]],[[[108.0249,34.2289],[108.0326,34.2156],[108.0258,34.21],[108.0064,34.1619],[107.9974,34.1571],[107.9957,34.1019],[107.9664,34.0767],[107.9678,34.0627],[107.939,34.043],[107.9356,34.0254],[107.9441,33.9979],[107.9437,33.9844],[107.9165,33.9851],[107.9047,33.9998],[107.8741,33.9958],[107.854,33.9793],[107.8352,33.9781],[107.8258,33.9896],[107.806,33.9968],[107.7953,33.9866],[107.7778,33.979],[107.7583,33.9502],[107.7375,33.9446],[107.7095,33.9276],[107.7132,33.9119],[107.7054,33.8686],[107.6988,33.8596],[107.7011,33.839],[107.6906,33.8177],[107.6749,33.811],[107.6815,33.7966],[107.6596,33.7641],[107.6828,33.7475],[107.6914,33.7258],[107.7161,33.7266],[107.7317,33.7185],[107.7466,33.717],[107.7614,33.722],[107.7985,33.7101],[107.8081,33.7145],[107.8278,33.6975],[107.8557,33.6987],[107.8651,33.7167],[107.8731,33.7191],[107.8985,33.7505],[107.9152,33.7343],[107.9283,33.7336],[107.9468,33.7475],[107.9622,33.7362],[107.9698,33.7376],[108.0209,33.7227],[108.0518,33.7104],[108.0689,33.7245],[108.0928,33.7247],[108.1095,33.7136],[108.1267,33.7232],[108.1449,33.7133],[108.1749,33.7128],[108.1873,33.7272],[108.2061,33.7231],[108.2122,33.7304],[108.2345,33.7297],[108.2401,33.7388],[108.2658,33.7592],[108.2837,33.7689],[108.3059,33.7646],[108.3238,33.7763],[108.3414,33.795],[108.3667,33.7943],[108.3728,33.782],[108.3885,33.7781],[108.3989,33.765],[108.4387,33.7825],[108.4453,33.7917],[108.4629,33.8017],[108.4787,33.8053],[108.4994,33.7977],[108.5405,33.7903],[108.5526,33.7693],[108.5808,33.7658],[108.5847,33.7824],[108.598,33.7927],[108.6025,33.8149],[108.6123,33.8281],[108.6507,33.8389],[108.7089,33.8321],[108.7362,33.8416],[108.7531,33.8388],[108.752,33.8126],[108.7694,33.8024],[108.7817,33.8101],[108.8263,33.8214],[108.835,33.8156],[108.8486,33.826],[108.8658,33.8238],[108.9069,33.8468],[108.9171,33.87],[108.9417,33.868],[108.9597,33.8777],[108.9693,33.874],[108.9925,33.8841],[109.0078,33.8863],[109.0291,33.9039],[109.0389,33.9221],[109.0603,33.9167],[109.0791,33.9181],[109.088,33.9075],[109.0978,33.9095],[109.1119,33.9005],[109.1118,33.8872],[109.1336,33.8729],[109.1515,33.8782],[109.1846,33.8745],[109.196,33.8679],[109.2142,33.8674],[109.2266,33.88],[109.2487,33.8822],[109.2604,33.8763],[109.2806,33.8739],[109.2957,33.8567],[109.3119,33.855],[109.3218,33.8647],[109.332,33.8624],[109.3556,33.8675],[109.371,33.8542],[109.3903,33.8483],[109.4352,33.8447],[109.4659,33.8532],[109.5006,33.8498],[109.5064,33.8567],[109.5323,33.8625],[109.5326,33.8728],[109.5446,33.8795],[109.554,33.8936],[109.5701,33.8994],[109.5865,33.8984],[109.5938,33.9131],[109.592,33.9274],[109.5992,33.9448],[109.5778,33.9558],[109.5682,33.9553],[109.5561,33.9661],[109.528,33.9825],[109.5345,33.9893],[109.5415,34.0278],[109.5558,34.0349],[109.5484,34.0512],[109.5778,34.0737],[109.6287,34.0739],[109.631,34.0891],[109.6445,34.0899],[109.6538,34.1069],[109.6658,34.1002],[109.6868,34.1065],[109.708,34.1071],[109.7306,34.0969],[109.7378,34.1004],[109.7367,34.12],[109.7781,34.1624],[109.7859,34.1467],[109.8097,34.1487],[109.8171,34.1535],[109.8063,34.1668],[109.7918,34.1612],[109.7748,34.1832],[109.7451,34.192],[109.7562,34.2086],[109.7488,34.2127],[109.7322,34.2218],[109.7259,34.2369],[109.6839,34.2447],[109.6628,34.2387],[109.647,34.2472],[109.6236,34.2401],[109.57,34.2639],[109.5549,34.2652],[109.5192,34.2568],[109.5113,34.2652],[109.4902,34.2706],[109.4698,34.2971],[109.4527,34.2988],[109.4531,34.3122],[109.4457,34.3242],[109.4538,34.3524],[109.4499,34.3578],[109.46,34.3848],[109.4553,34.3942],[109.4401,34.3973],[109.4355,34.4162],[109.4188,34.4247],[109.4196,34.4387],[109.4106,34.4612],[109.3847,34.4709],[109.3854,34.4867],[109.4018,34.5067],[109.3907,34.5081],[109.3825,34.5261],[109.3876,34.5315],[109.4229,34.5465],[109.4453,34.5509],[109.4368,34.5757],[109.4314,34.6047],[109.4236,34.607],[109.4287,34.6281],[109.4228,34.6629],[109.4154,34.6829],[109.4182,34.7036],[109.4271,34.7134],[109.4132,34.7386],[109.3814,34.738],[109.3537,34.7409],[109.3525,34.7178],[109.3419,34.7023],[109.3234,34.6961],[109.2813,34.6891],[109.2731,34.6985],[109.2437,34.6908],[109.2057,34.694],[109.2023,34.6991],[109.1711,34.6973],[109.1488,34.6509],[109.1267,34.6321],[109.1355,34.5879],[109.1255,34.5805],[109.0984,34.5772],[109.0893,34.5915],[109.0733,34.5886],[109.0633,34.5961],[109.0373,34.5932],[109.0218,34.5866],[108.95,34.5666],[108.9579,34.5493],[108.9686,34.5405],[108.9718,34.5009],[108.9716,34.4734],[108.968,34.4526],[108.9509,34.4484],[108.9577,34.4215],[108.9407,34.4105],[108.8923,34.3994],[108.8784,34.3925],[108.8376,34.38],[108.7969,34.3614],[108.796,34.3353],[108.7894,34.33],[108.7925,34.2979],[108.7852,34.2951],[108.7425,34.297],[108.7215,34.2772],[108.6947,34.274],[108.6983,34.2544],[108.6858,34.2543],[108.6872,34.2403],[108.6774,34.2379],[108.6621,34.2488],[108.6505,34.2698],[108.6298,34.264],[108.5745,34.2372],[108.5402,34.2305],[108.4992,34.2266],[108.4669,34.2117],[108.4361,34.2048],[108.3726,34.2072],[108.3363,34.199],[108.2981,34.2075],[108.2791,34.2086],[108.2553,34.2024],[108.2306,34.2046],[108.2115,34.2106],[108.1804,34.2257],[108.1367,34.2214],[108.1184,34.223],[108.0784,34.2343],[108.0249,34.2289]]]]},"properties":{"region_code":"CN-61-6101","parent_region_code":"CN-61","name":"西安市","level":"prefecture","has_children":true,"full_path":"中国 / 陕西省 / 西安市","source_admin_code":"6101","osm_relation_id":3226004}},
{"type":"Feature","geometry":{"type":"Polygon","coordinates":[[[109.4938,35.3514],[109.4768,35.3669],[109.4917,35.3941],[109.4716,35.4036],[109.4796,35.413],[109.4632,35.4198],[109.4746,35.4372],[109.4693,35.4465],[109.4751,35.4747],[109.4531,35.4939],[109.4401,35.5137],[109.4184,35.5014],[109.4026,35.5094],[109.3995,35.5183],[109.353,35.526],[109.3241,35.5188],[109.2624,35.5186],[109.2424,35.5306],[109.2258,35.5502],[109.211,35.555],[109.1992,35.5803],[109.1812,35.582],[109.1573,35.5787],[109.1443,35.5706],[109.1277,35.5724],[109.0953,35.5513],[109.0663,35.5534],[109.0259,35.5398],[109.0126,35.5293],[108.9928,35.5033],[108.9855,35.4508],[108.9793,35.4378],[108.9415,35.397],[108.9199,35.3661],[108.9063,35.3576],[108.8668,35.3527],[108.8759,35.3237],[108.8629,35.3159],[108.8252,35.3095],[108.8076,35.2959],[108.7928,35.2999],[108.7517,35.2899],[108.7384,35.2752],[108.7433,35.2646],[108.6991,35.2308],[108.6963,35.2187],[108.6707,35.2111],[108.6775,35.1934],[108.6546,35.1901],[108.649,35.1694],[108.637,35.1692],[108.6401,35.1548],[108.6561,35.157],[108.6639,35.1267],[108.6441,35.1153],[108.6138,35.1148],[108.6249,35.0956],[108.6092,35.0645],[108.5829,35.042],[108.5943,35.024],[108.6107,35.0245],[108.6194,35.0164],[108.62,35.0038],[108.6296,34.9772],[108.6416,34.9761],[108.6468,34.9538],[108.6543,34.9501],[108.6642,34.9128],[108.686,34.8801],[108.7034,34.8796],[108.7223,34.8683],[108.7411,34.8738],[108.7623,34.8729],[108.7754,34.8531],[108.8112,34.8309],[108.8136,34.8133],[108.8608,34.8225],[108.8948,34.8154],[108.8908,34.8294],[108.9115,34.8327],[108.9306,34.8428],[108.9396,34.8327],[108.9588,34.824],[108.9691,34.8306],[108.9547,34.8782],[108.9635,34.8867],[108.9991,34.9024],[109.0353,34.9016],[109.0596,34.9069],[109.0917,34.9304],[109.0954,34.9415],[109.0899,34.9631],[109.1209,34.9704],[109.1349,34.994],[109.1525,34.9989],[109.1745,34.9938],[109.1887,34.9952],[109.1992,35.0033],[109.2123,35.0293],[109.2576,35.0696],[109.253,35.082],[109.2655,35.09],[109.2733,35.1115],[109.2828,35.1173],[109.3023,35.0931],[109.3188,35.0872],[109.3435,35.0975],[109.3822,35.1018],[109.3908,35.0971],[109.399,35.0732],[109.4164,35.0598],[109.429,35.0779],[109.4365,35.1095],[109.4312,35.1348],[109.4293,35.1696],[109.4172,35.1685],[109.4061,35.1586],[109.393,35.1611],[109.3749,35.1516],[109.3637,35.1677],[109.3472,35.1735],[109.3402,35.1895],[109.3179,35.1984],[109.3052,35.2154],[109.2972,35.2343],[109.2767,35.2526],[109.2986,35.2647],[109.3661,35.2899],[109.4037,35.3285],[109.4256,35.3262],[109.4465,35.3302],[109.4619,35.3432],[109.4938,35.3514]]]},"properties":{"region_code":"CN-61-6102","parent_region_code":"CN-61","name":"铜川市","level":"prefecture","has_children":true,"full_path":"中国 / 陕西省 / 铜川市","source_admin_code":"6102","osm_relation_id":3226142}},
{"type":"Feature","geometry":{"type":"Polygon","coordinates":[[[108.0249,34.2289],[108.0026,34.2288],[107.9842,34.2248],[107.9855,34.2569],[107.9911,34.2667],[107.9693,34.2698],[107.9641,34.2874],[107.9466,34.2885],[107.9495,34.3226],[107.9651,34.324],[107.9838,34.3144],[107.9978,34.3288],[108.0276,34.3156],[108.0492,34.3251],[108.0459,34.3462],[108.0306,34.3517],[108.0242,34.3873],[108.0302,34.4102],[108.0075,34.4385],[108.0136,34.4456],[108.0113,34.4608],[108.0237,34.4773],[108.017,34.4837],[107.9962,34.4867],[107.9888,34.4982],[108,34.5066],[107.9987,34.5296],[108.0048,34.535],[107.9856,34.5701],[107.9746,34.5752],[107.9923,34.6173],[108.0316,34.6267],[108.0286,34.6653],[108.0166,34.6972],[108.0181,34.7182],[107.994,34.785],[107.9759,34.7859],[107.9609,34.7927],[107.953,34.806],[107.9519,34.8496],[107.9357,34.8629],[107.9253,34.8489],[107.8918,34.8424],[107.8508,34.8471],[107.8538,34.8627],[107.8383,34.8891],[107.8453,34.8978],[107.8229,34.9291],[107.8255,34.9486],[107.8172,34.9583],[107.8161,34.9752],[107.8025,34.975],[107.7926,34.9616],[107.7735,34.9656],[107.7397,34.954],[107.7198,34.9567],[107.6997,34.9515],[107.6709,34.9525],[107.6492,34.9343],[107.6342,34.9365],[107.6299,34.9521],[107.6157,34.9659],[107.601,34.9598],[107.568,34.9726],[107.5569,34.9667],[107.5469,34.9427],[107.5331,34.9335],[107.5322,34.9161],[107.5204,34.9108],[107.4764,34.9209],[107.4505,34.9176],[107.4213,34.9292],[107.3873,34.9335],[107.3639,34.9186],[107.3545,34.9208],[107.3454,34.9349],[107.3182,34.9389],[107.2912,34.9372],[107.2818,34.9328],[107.2782,34.9127],[107.258,34.9061],[107.2478,34.8821],[107.2286,34.8905],[107.2182,34.8791],[107.1962,34.8826],[107.1848,34.8942],[107.1751,34.9291],[107.1575,34.9449],[107.1307,34.9466],[107.0993,34.9604],[107.0848,34.9774],[107.0935,35.0052],[107.0785,35.0249],[107.0442,35.0292],[107.0092,35.0302],[107.0025,35.048],[106.9774,35.0707],[106.9598,35.0651],[106.9458,35.0677],[106.9401,35.0811],[106.9265,35.076],[106.9086,35.0804],[106.8959,35.0953],[106.8573,35.0932],[106.8341,35.0807],[106.7948,35.0877],[106.7615,35.0978],[106.7292,35.1021],[106.7066,35.1013],[106.7021,35.0827],[106.6607,35.0763],[106.6388,35.0786],[106.6362,35.0723],[106.6109,35.072],[106.5799,35.0882],[106.566,35.0801],[106.5558,35.0909],[106.5378,35.0843],[106.5417,35.0711],[106.5165,35.0284],[106.4981,35.0341],[106.4842,35.0223],[106.494,35.0169],[106.4922,34.989],[106.4787,34.9806],[106.4886,34.9625],[106.4889,34.942],[106.506,34.926],[106.5134,34.8949],[106.5206,34.8798],[106.5518,34.8625],[106.5559,34.8529],[106.5477,34.8251],[106.5606,34.81],[106.5612,34.7979],[106.5741,34.7899],[106.5709,34.771],[106.5446,34.7622],[106.5397,34.7469],[106.502,34.7479],[106.4965,34.7447],[106.4883,34.7218],[106.4735,34.7111],[106.4556,34.7086],[106.4385,34.6891],[106.4411,34.6706],[106.466,34.6552],[106.4611,34.6383],[106.4421,34.6378],[106.4211,34.6553],[106.4149,34.6443],[106.4005,34.6395],[106.3904,34.6275],[106.3741,34.6254],[106.3634,34.6115],[106.3184,34.5909],[106.3098,34.5804],[106.3368,34.5693],[106.3403,34.5579],[106.3383,34.5377],[106.3307,34.5194],[106.3444,34.5209],[106.3605,34.5135],[106.3767,34.522],[106.3828,34.512],[106.3967,34.5116],[106.4028,34.524],[106.4303,34.5289],[106.4413,34.5246],[106.4653,34.5305],[106.4729,34.5228],[106.4976,34.5128],[106.5091,34.5137],[106.51,34.4992],[106.5653,34.4864],[106.5867,34.4577],[106.6066,34.4561],[106.6211,34.4122],[106.6602,34.3827],[106.6756,34.3854],[106.6773,34.3753],[106.7039,34.3776],[106.7122,34.3708],[106.7108,34.3507],[106.6873,34.3449],[106.6801,34.3318],[106.6928,34.3291],[106.7006,34.3124],[106.6918,34.2747],[106.678,34.2691],[106.6756,34.2567],[106.6619,34.2499],[106.6421,34.249],[106.6164,34.2661],[106.5993,34.2632],[106.5851,34.2517],[106.5731,34.2826],[106.5519,34.2828],[106.5221,34.2938],[106.4989,34.2648],[106.4842,34.2505],[106.4973,34.2433],[106.5141,34.2436],[106.5221,34.2572],[106.5388,34.2486],[106.5524,34.2249],[106.5521,34.2073],[106.5603,34.2],[106.5567,34.1882],[106.5663,34.1743],[106.5683,34.1619],[106.5812,34.1502],[106.5641,34.1275],[106.5566,34.1119],[106.5391,34.1157],[106.5294,34.1096],[106.5018,34.1136],[106.4947,34.1021],[106.505,34.0764],[106.4823,34.0405],[106.4653,34.0305],[106.4745,33.9966],[106.461,33.9619],[106.4386,33.952],[106.4442,33.9419],[106.4176,33.916],[106.405,33.9092],[106.4139,33.896],[106.4107,33.8852],[106.4259,33.8681],[106.4494,33.8711],[106.4565,33.8795],[106.4701,33.8774],[106.4727,33.8675],[106.4931,33.8523],[106.4823,33.8355],[106.4598,33.8371],[106.4498,33.8113],[106.4582,33.7876],[106.4761,33.7883],[106.481,33.7716],[106.4784,33.7609],[106.4846,33.7454],[106.4757,33.7149],[106.4997,33.7037],[106.5188,33.702],[106.5346,33.6815],[106.5488,33.6756],[106.5466,33.6616],[106.5609,33.6513],[106.5617,33.6423],[106.5746,33.6339],[106.5788,33.6137],[106.5775,33.5928],[106.5864,33.5788],[106.6104,33.5883],[106.6258,33.6214],[106.6479,33.6365],[106.6499,33.6461],[106.6386,33.6615],[106.6667,33.6629],[106.6824,33.6672],[106.7013,33.6786],[106.6833,33.7036],[106.7158,33.6945],[106.7459,33.691],[106.7674,33.6812],[106.7971,33.6792],[106.8024,33.6958],[106.7965,33.7017],[106.7949,33.7278],[106.8024,33.7374],[106.808,33.7605],[106.8008,33.7965],[106.8031,33.8128],[106.8133,33.8338],[106.8349,33.8288],[106.8495,33.8514],[106.8525,33.8702],[106.8841,33.8628],[106.8918,33.8458],[106.9051,33.8487],[106.9292,33.8264],[106.9458,33.8218],[106.9725,33.8023],[106.99,33.7933],[107.0231,33.7893],[107.0403,33.8032],[107.0401,33.8233],[107.0292,33.8435],[107.0357,33.8472],[107.0454,33.8785],[107.0543,33.8683],[107.0556,33.8535],[107.0646,33.8309],[107.0783,33.821],[107.1005,33.8236],[107.1052,33.8142],[107.1301,33.8184],[107.1288,33.796],[107.1479,33.7873],[107.1558,33.7918],[107.181,33.7606],[107.197,33.7521],[107.2247,33.7593],[107.2273,33.7699],[107.2682,33.7922],[107.2702,33.8005],[107.2942,33.7949],[107.3027,33.7999],[107.3171,33.821],[107.3369,33.8162],[107.3322,33.8028],[107.321,33.7956],[107.3177,33.7773],[107.3001,33.7684],[107.2956,33.7572],[107.3035,33.7324],[107.3005,33.7106],[107.3148,33.6975],[107.3547,33.6845],[107.3664,33.6906],[107.3804,33.6796],[107.3946,33.6609],[107.3924,33.6523],[107.4113,33.6468],[107.4432,33.6606],[107.4532,33.6598],[107.4866,33.6838],[107.4987,33.6884],[107.5204,33.6838],[107.534,33.6904],[107.5579,33.7087],[107.5808,33.701],[107.5992,33.7163],[107.6313,33.7197],[107.6517,33.7045],[107.6762,33.7083],[107.6823,33.7229],[107.6914,33.7258],[107.6828,33.7475],[107.6596,33.7641],[107.6815,33.7966],[107.6749,33.811],[107.6906,33.8177],[107.7011,33.839],[107.6988,33.8596],[107.7054,33.8686],[107.7132,33.9119],[107.7095,33.9276],[107.7375,33.9446],[107.7583,33.9502],[107.7778,33.979],[107.7953,33.9866],[107.806,33.9968],[107.8258,33.9896],[107.8352,33.9781],[107.854,33.9793],[107.8741,33.9958],[107.9047,33.9998],[107.9165,33.9851],[107.9437,33.9844],[107.9441,33.9979],[107.9356,34.0254],[107.939,34.043],[107.9678,34.0627],[107.9664,34.0767],[107.9957,34.1019],[107.9974,34.1571],[108.0064,34.1619],[108.0258,34.21],[108.0326,34.2156],[108.0249,34.2289]]]},"properties":{"region_code":"CN-61-6103","parent_region_code":"CN-61","name":"宝鸡市","level":"prefecture","has_children":true,"full_path":"中国 / 陕西省 / 宝鸡市","source_admin_code":"6103","osm_relation_id":3048442}},
{"type":"Feature","geometry":{"type":"Polygon","coordinates":[[[109.1711,34.6973],[109.1572,34.7078],[109.122,34.7043],[109.0813,34.706],[109.0665,34.7138],[109.0488,34.6928],[109.0388,34.6932],[109.0288,34.7046],[109.0261,34.7212],[109.0355,34.7472],[109.0272,34.7731],[109.0051,34.7884],[108.9924,34.8071],[108.9875,34.8256],[108.9691,34.8306],[108.9588,34.824],[108.9396,34.8327],[108.9306,34.8428],[108.9115,34.8327],[108.8908,34.8294],[108.8948,34.8154],[108.8608,34.8225],[108.8136,34.8133],[108.8112,34.8309],[108.7754,34.8531],[108.7623,34.8729],[108.7411,34.8738],[108.7223,34.8683],[108.7034,34.8796],[108.686,34.8801],[108.6642,34.9128],[108.6543,34.9501],[108.6468,34.9538],[108.6416,34.9761],[108.6296,34.9772],[108.62,35.0038],[108.6194,35.0164],[108.6107,35.0245],[108.5943,35.024],[108.5829,35.042],[108.6092,35.0645],[108.6249,35.0956],[108.6138,35.1148],[108.6441,35.1153],[108.6639,35.1267],[108.6561,35.157],[108.6401,35.1548],[108.637,35.1692],[108.649,35.1694],[108.6546,35.1901],[108.6775,35.1934],[108.6707,35.2111],[108.6963,35.2187],[108.6991,35.2308],[108.7433,35.2646],[108.7384,35.2752],[108.7517,35.2899],[108.7928,35.2999],[108.8076,35.2959],[108.8252,35.3095],[108.8629,35.3159],[108.8759,35.3237],[108.8668,35.3527],[108.853,35.353],[108.8346,35.3629],[108.8225,35.3909],[108.8041,35.3836],[108.7944,35.3865],[108.7835,35.426],[108.7843,35.438],[108.7732,35.4513],[108.7738,35.4732],[108.7678,35.4844],[108.7531,35.4925],[108.7309,35.4907],[108.7223,35.5035],[108.6955,35.5125],[108.6851,35.5071],[108.6703,35.5092],[108.6742,35.5216],[108.6539,35.5382],[108.6402,35.5428],[108.6174,35.5419],[108.6188,35.5293],[108.6067,35.5167],[108.6008,35.5],[108.6135,35.4829],[108.6129,35.4656],[108.6244,35.4511],[108.6227,35.4267],[108.6333,35.4023],[108.6112,35.3808],[108.6054,35.3602],[108.6105,35.3311],[108.5945,35.3088],[108.5823,35.3058],[108.574,35.2924],[108.5629,35.2913],[108.5502,35.3039],[108.5365,35.3061],[108.5232,35.2916],[108.5024,35.286],[108.4813,35.2745],[108.4665,35.2771],[108.4432,35.2739],[108.397,35.2781],[108.3473,35.2863],[108.3442,35.3034],[108.328,35.2905],[108.2942,35.274],[108.2693,35.2651],[108.2512,35.2676],[108.2341,35.256],[108.2224,35.2773],[108.2281,35.2847],[108.2159,35.2969],[108.1889,35.3066],[108.1695,35.3051],[108.1436,35.2919],[108.1282,35.291],[108.118,35.2822],[108.0908,35.2813],[108.072,35.2679],[108.0505,35.2587],[107.9807,35.2444],[107.9549,35.242],[107.9457,35.2457],[107.9576,35.2636],[107.9299,35.2684],[107.9316,35.2575],[107.9073,35.2546],[107.8944,35.2622],[107.8603,35.2614],[107.8374,35.2761],[107.8131,35.2785],[107.7732,35.3029],[107.7503,35.3037],[107.7418,35.3131],[107.7255,35.3012],[107.7325,35.2959],[107.7328,35.2683],[107.7158,35.2701],[107.7071,35.2578],[107.6878,35.2517],[107.6623,35.2575],[107.6489,35.2454],[107.6655,35.2152],[107.6801,35.2192],[107.6999,35.1902],[107.7108,35.1696],[107.7091,35.1606],[107.7197,35.1451],[107.7265,35.1232],[107.7424,35.0973],[107.7599,35.0839],[107.755,35.0714],[107.7795,35.0541],[107.7935,35.0364],[107.8088,35.0261],[107.8361,35.0146],[107.8394,35.0028],[107.8578,34.9994],[107.8531,34.9872],[107.8161,34.9752],[107.8172,34.9583],[107.8255,34.9486],[107.8229,34.9291],[107.8453,34.8978],[107.8383,34.8891],[107.8538,34.8627],[107.8508,34.8471],[107.8918,34.8424],[107.9253,34.8489],[107.9357,34.8629],[107.9519,34.8496],[107.953,34.806],[107.9609,34.7927],[107.9759,34.7859],[107.994,34.785],[108.0181,34.7182],[108.0166,34.6972],[108.0286,34.6653],[108.0316,34.6267],[107.9923,34.6173],[107.9746,34.5752],[107.9856,34.5701],[108.0048,34.535],[107.9987,34.5296],[108,34.5066],[107.9888,34.4982],[107.9962,34.4867],[108.017,34.4837],[108.0237,34.4773],[108.0113,34.4608],[108.0136,34.4456],[108.0075,34.4385],[108.0302,34.4102],[108.0242,34.3873],[108.0306,34.3517],[108.0459,34.3462],[108.0492,34.3251],[108.0276,34.3156],[107.9978,34.3288],[107.9838,34.3144],[107.9651,34.324],[107.9495,34.3226],[107.9466,34.2885],[107.9641,34.2874],[107.9693,34.2698],[107.9911,34.2667],[107.9855,34.2569],[107.9842,34.2248],[108.0026,34.2288],[108.0249,34.2289],[108.0784,34.2343],[108.1184,34.223],[108.1367,34.2214],[108.1804,34.2257],[108.2115,34.2106],[108.2306,34.2046],[108.2553,34.2024],[108.2791,34.2086],[108.2981,34.2075],[108.3363,34.199],[108.3726,34.2072],[108.4361,34.2048],[108.4669,34.2117],[108.4992,34.2266],[108.5402,34.2305],[108.5745,34.2372],[108.6298,34.264],[108.6505,34.2698],[108.6621,34.2488],[108.6774,34.2379],[108.6872,34.2403],[108.6858,34.2543],[108.6983,34.2544],[108.6947,34.274],[108.7215,34.2772],[108.7425,34.297],[108.7852,34.2951],[108.7925,34.2979],[108.7894,34.33],[108.796,34.3353],[108.7969,34.3614],[108.8376,34.38],[108.8784,34.3925],[108.8923,34.3994],[108.9407,34.4105],[108.9577,34.4215],[108.9509,34.4484],[108.968,34.4526],[108.9716,34.4734],[108.9718,34.5009],[108.9686,34.5405],[108.9579,34.5493],[108.95,34.5666],[109.0218,34.5866],[109.0373,34.5932],[109.0633,34.5961],[109.0733,34.5886],[109.0893,34.5915],[109.0984,34.5772],[109.1255,34.5805],[109.1355,34.5879],[109.1267,34.6321],[109.1488,34.6509],[109.1711,34.6973]]]},"properties":{"region_code":"CN-61-6104","parent_region_code":"CN-61","name":"咸阳市","level":"prefecture","has_children":true,"full_path":"中国 / 陕西省 / 咸阳市","source_admin_code":"6104","osm_relation_id":3221020}},
{"type":"Feature","geometry":{"type":"Polygon","coordinates":[[[109.7488,34.2127],[109.7415,34.2349],[109.7498,34.2528],[109.7674,34.2545],[109.786,34.2308],[109.7936,34.234],[109.7863,34.2666],[109.8061,34.2737],[109.816,34.2873],[109.8256,34.2904],[109.8427,34.2725],[109.8704,34.2717],[109.8837,34.244],[109.9127,34.2326],[109.9331,34.2354],[109.9503,34.2442],[109.9451,34.219],[109.9572,34.2107],[109.9687,34.2121],[109.9916,34.2233],[110.0191,34.2411],[110.0127,34.2529],[110.0099,34.2847],[110.0044,34.2999],[110.029,34.3041],[110.0354,34.3247],[110.0178,34.3396],[110.0013,34.3689],[110.0145,34.3799],[110.031,34.3792],[110.0528,34.3984],[110.0543,34.4145],[110.0684,34.4152],[110.1084,34.4324],[110.1587,34.4325],[110.1881,34.4159],[110.2136,34.4148],[110.2254,34.4078],[110.2439,34.408],[110.2773,34.3926],[110.3461,34.4007],[110.3675,34.4004],[110.3925,34.4117],[110.4074,34.4076],[110.4246,34.4107],[110.4065,34.4205],[110.3947,34.4414],[110.3969,34.4487],[110.3868,34.4683],[110.3637,34.4946],[110.3551,34.518],[110.3669,34.5383],[110.3961,34.5562],[110.3908,34.5643],[110.3607,34.5683],[110.3746,34.6044],[110.3324,34.6059],[110.3006,34.6123],[110.2822,34.613],[110.2588,34.6324],[110.2417,34.6584],[110.2284,34.6918],[110.2267,34.7068],[110.2339,34.7215],[110.2412,34.7688],[110.2339,34.7902],[110.2315,34.8116],[110.2371,34.8549],[110.2323,34.8683],[110.2195,34.8849],[110.2205,34.8921],[110.2375,34.9056],[110.249,34.9358],[110.2639,34.945],[110.2795,34.9684],[110.279,34.9775],[110.2958,34.9961],[110.2974,35.0072],[110.3373,35.0612],[110.3544,35.1069],[110.3637,35.1206],[110.368,35.1373],[110.3537,35.1783],[110.3633,35.2122],[110.3953,35.2965],[110.4077,35.3077],[110.4552,35.3315],[110.4601,35.3743],[110.4762,35.4213],[110.4781,35.4558],[110.5001,35.4838],[110.5664,35.5396],[110.606,35.6187],[110.6009,35.6567],[110.5883,35.6639],[110.5866,35.6843],[110.5721,35.702],[110.5748,35.7138],[110.5692,35.7497],[110.5689,35.7703],[110.5592,35.783],[110.5661,35.8038],[110.558,35.8262],[110.5456,35.8381],[110.5441,35.853],[110.5317,35.8547],[110.513,35.8495],[110.4793,35.8302],[110.4715,35.831],[110.4257,35.8138],[110.4052,35.8102],[110.3958,35.7924],[110.3802,35.785],[110.3703,35.7729],[110.3654,35.757],[110.3524,35.7503],[110.325,35.7491],[110.3049,35.738],[110.2782,35.7132],[110.2358,35.7139],[110.196,35.7167],[110.1633,35.7104],[110.1403,35.698],[110.1317,35.6857],[110.1455,35.6684],[110.1858,35.6578],[110.1983,35.6478],[110.2205,35.6391],[110.2342,35.6165],[110.2488,35.6052],[110.2547,35.5808],[110.2642,35.5737],[110.2634,35.5544],[110.2215,35.5224],[110.1967,35.4903],[110.1724,35.4701],[110.1286,35.4526],[110.121,35.4389],[110.0936,35.4186],[110.0745,35.412],[110.045,35.4223],[110.01,35.4095],[109.9925,35.4348],[109.9786,35.4281],[109.9761,35.4098],[109.9375,35.4201],[109.9341,35.4114],[109.8947,35.4161],[109.8732,35.4337],[109.8526,35.4279],[109.8277,35.4343],[109.8161,35.4283],[109.8123,35.4473],[109.7835,35.446],[109.7561,35.4307],[109.7394,35.4339],[109.7028,35.4102],[109.6725,35.4234],[109.6424,35.426],[109.6366,35.443],[109.6003,35.447],[109.5786,35.4408],[109.5668,35.4463],[109.5491,35.4405],[109.5384,35.4434],[109.5154,35.4251],[109.5069,35.4125],[109.5097,35.4014],[109.5028,35.3822],[109.4952,35.3783],[109.4938,35.3514],[109.4619,35.3432],[109.4465,35.3302],[109.4256,35.3262],[109.4037,35.3285],[109.3661,35.2899],[109.2986,35.2647],[109.2767,35.2526],[109.2972,35.2343],[109.3052,35.2154],[109.3179,35.1984],[109.3402,35.1895],[109.3472,35.1735],[109.3637,35.1677],[109.3749,35.1516],[109.393,35.1611],[109.4061,35.1586],[109.4172,35.1685],[109.4293,35.1696],[109.4312,35.1348],[109.4365,35.1095],[109.429,35.0779],[109.4164,35.0598],[109.399,35.0732],[109.3908,35.0971],[109.3822,35.1018],[109.3435,35.0975],[109.3188,35.0872],[109.3023,35.0931],[109.2828,35.1173],[109.2733,35.1115],[109.2655,35.09],[109.253,35.082],[109.2576,35.0696],[109.2123,35.0293],[109.1992,35.0033],[109.1887,34.9952],[109.1745,34.9938],[109.1525,34.9989],[109.1349,34.994],[109.1209,34.9704],[109.0899,34.9631],[109.0954,34.9415],[109.0917,34.9304],[109.0596,34.9069],[109.0353,34.9016],[108.9991,34.9024],[108.9635,34.8867],[108.9547,34.8782],[108.9691,34.8306],[108.9875,34.8256],[108.9924,34.8071],[109.0051,34.7884],[109.0272,34.7731],[109.0355,34.7472],[109.0261,34.7212],[109.0288,34.7046],[109.0388,34.6932],[109.0488,34.6928],[109.0665,34.7138],[109.0813,34.706],[109.122,34.7043],[109.1572,34.7078],[109.1711,34.6973],[109.2023,34.6991],[109.2057,34.694],[109.2437,34.6908],[109.2731,34.6985],[109.2813,34.6891],[109.3234,34.6961],[109.3419,34.7023],[109.3525,34.7178],[109.3537,34.7409],[109.3814,34.738],[109.4132,34.7386],[109.4271,34.7134],[109.4182,34.7036],[109.4154,34.6829],[109.4228,34.6629],[109.4287,34.6281],[109.4236,34.607],[109.4314,34.6047],[109.4368,34.5757],[109.4453,34.5509],[109.4229,34.5465],[109.3876,34.5315],[109.3825,34.5261],[109.3907,34.5081],[109.4018,34.5067],[109.3854,34.4867],[109.3847,34.4709],[109.4106,34.4612],[109.4196,34.4387],[109.4188,34.4247],[109.4355,34.4162],[109.4401,34.3973],[109.4553,34.3942],[109.46,34.3848],[109.4499,34.3578],[109.4538,34.3524],[109.4457,34.3242],[109.4531,34.3122],[109.4527,34.2988],[109.4698,34.2971],[109.4902,34.2706],[109.5113,34.2652],[109.5192,34.2568],[109.5549,34.2652],[109.57,34.2639],[109.6236,34.2401],[109.647,34.2472],[109.6628,34.2387],[109.6839,34.2447],[109.7259,34.2369],[109.7322,34.2218],[109.7488,34.2127]]]},"properties":{"region_code":"CN-61-6105","parent_region_code":"CN-61","name":"渭南市","level":"prefecture","has_children":true,"full_path":"中国 / 陕西省 / 渭南市","source_admin_code":"6105","osm_relation_id":3028621}},
{"type":"Feature","geometry":{"type":"Polygon","coordinates":[[[109.4938,35.3514],[109.4952,35.3783],[109.5028,35.3822],[109.5097,35.4014],[109.5069,35.4125],[109.5154,35.4251],[109.5384,35.4434],[109.5491,35.4405],[109.5668,35.4463],[109.5786,35.4408],[109.6003,35.447],[109.6366,35.443],[109.6424,35.426],[109.6725,35.4234],[109.7028,35.4102],[109.7394,35.4339],[109.7561,35.4307],[109.7835,35.446],[109.8123,35.4473],[109.8161,35.4283],[109.8277,35.4343],[109.8526,35.4279],[109.8732,35.4337],[109.8947,35.4161],[109.9341,35.4114],[109.9375,35.4201],[109.9761,35.4098],[109.9786,35.4281],[109.9925,35.4348],[110.01,35.4095],[110.045,35.4223],[110.0745,35.412],[110.0936,35.4186],[110.121,35.4389],[110.1286,35.4526],[110.1724,35.4701],[110.1967,35.4903],[110.2215,35.5224],[110.2634,35.5544],[110.2642,35.5737],[110.2547,35.5808],[110.2488,35.6052],[110.2342,35.6165],[110.2205,35.6391],[110.1983,35.6478],[110.1858,35.6578],[110.1455,35.6684],[110.1317,35.6857],[110.1403,35.698],[110.1633,35.7104],[110.196,35.7167],[110.2358,35.7139],[110.2782,35.7132],[110.3049,35.738],[110.325,35.7491],[110.3524,35.7503],[110.3654,35.757],[110.3703,35.7729],[110.3802,35.785],[110.3958,35.7924],[110.4052,35.8102],[110.4257,35.8138],[110.4715,35.831],[110.4793,35.8302],[110.513,35.8495],[110.5317,35.8547],[110.5441,35.853],[110.546,35.8754],[110.5246,35.8756],[110.5059,35.88],[110.5103,35.8994],[110.5106,35.9248],[110.497,35.9477],[110.5104,35.9609],[110.5113,35.9722],[110.4866,35.9922],[110.4931,36.0036],[110.4846,36.0409],[110.4627,36.073],[110.465,36.0946],[110.452,36.1098],[110.4442,36.1343],[110.4414,36.1669],[110.4532,36.1922],[110.4469,36.2183],[110.4681,36.2472],[110.4708,36.2793],[110.4624,36.2916],[110.4678,36.3118],[110.4536,36.3341],[110.4649,36.353],[110.463,36.3645],[110.482,36.3945],[110.4864,36.4252],[110.468,36.4467],[110.4723,36.4602],[110.493,36.4752],[110.4989,36.5002],[110.4964,36.5334],[110.4823,36.5582],[110.4919,36.5818],[110.4655,36.5961],[110.4399,36.6229],[110.4227,36.6553],[110.414,36.6637],[110.3932,36.6728],[110.3851,36.6813],[110.3906,36.6947],[110.4014,36.6965],[110.4235,36.6792],[110.4325,36.6882],[110.4309,36.711],[110.4474,36.7317],[110.4318,36.7359],[110.4226,36.7236],[110.4123,36.7318],[110.4262,36.7457],[110.4107,36.7618],[110.3865,36.7641],[110.403,36.7782],[110.4142,36.7982],[110.4133,36.8336],[110.4189,36.8543],[110.4144,36.8618],[110.3962,36.8687],[110.3764,36.8703],[110.3734,36.8838],[110.4011,36.8893],[110.4111,36.935],[110.4201,36.9615],[110.4138,36.973],[110.3906,36.9605],[110.3587,36.9523],[110.3534,36.9676],[110.3376,36.9722],[110.3315,36.9855],[110.31,36.9834],[110.3037,36.9683],[110.2888,36.9584],[110.2699,36.9704],[110.279,36.983],[110.2725,36.9927],[110.2432,36.9948],[110.231,37.0096],[110.1987,37.0133],[110.1801,37.003],[110.1688,36.9903],[110.1447,36.9755],[110.1274,36.9745],[110.1166,36.967],[110.0806,36.9911],[110.0695,37.005],[110.0562,37.0087],[110.0441,37.0242],[110.0332,37.0224],[110.0237,37.0322],[110.03,37.0482],[110.008,37.0878],[110.0168,37.125],[110.0228,37.1335],[110.0165,37.1464],[110.0029,37.1439],[109.987,37.1287],[109.972,37.1386],[109.963,37.1545],[109.9852,37.1678],[109.9773,37.1815],[109.9588,37.1923],[109.9526,37.2082],[109.9686,37.2161],[109.9869,37.1979],[110.0088,37.2073],[110.0117,37.2249],[110.0279,37.24],[110.0229,37.2623],[110.0041,37.2735],[109.9825,37.2695],[109.977,37.28],[109.9586,37.2752],[109.9175,37.2964],[109.9069,37.3098],[109.8937,37.2952],[109.8993,37.2751],[109.8745,37.2714],[109.8533,37.2795],[109.8321,37.2803],[109.8097,37.2583],[109.7739,37.267],[109.7607,37.2789],[109.7786,37.3095],[109.8057,37.3047],[109.8059,37.3207],[109.798,37.345],[109.7795,37.3433],[109.769,37.3599],[109.7663,37.3908],[109.7454,37.3932],[109.7296,37.4],[109.7316,37.4245],[109.7021,37.4328],[109.6713,37.4296],[109.6651,37.421],[109.6376,37.4232],[109.6082,37.4207],[109.5803,37.4331],[109.5627,37.4341],[109.5594,37.4586],[109.5241,37.4806],[109.5047,37.4803],[109.4844,37.4995],[109.462,37.4861],[109.4554,37.4596],[109.4362,37.4565],[109.4237,37.4621],[109.4187,37.4466],[109.3931,37.4455],[109.3935,37.438],[109.3713,37.433],[109.3575,37.3996],[109.3323,37.3719],[109.3266,37.3556],[109.2987,37.3539],[109.298,37.3379],[109.2819,37.3414],[109.2661,37.3364],[109.2478,37.3388],[109.2384,37.3205],[109.2127,37.3277],[109.1958,37.319],[109.1735,37.3243],[109.1747,37.3095],[109.1611,37.3078],[109.1275,37.3211],[109.1158,37.3223],[109.1042,37.306],[109.0798,37.3128],[109.0575,37.2922],[109.0443,37.2975],[109.0086,37.3026],[109.0089,37.2912],[108.9801,37.2768],[108.9779,37.2631],[108.9569,37.2626],[108.9394,37.2516],[108.952,37.2451],[108.9508,37.2351],[108.9295,37.2336],[108.9166,37.2389],[108.89,37.2366],[108.8806,37.2223],[108.8719,37.2525],[108.8543,37.2346],[108.8533,37.2084],[108.856,37.1827],[108.8755,37.1763],[108.8781,37.1523],[108.8397,37.1498],[108.8305,37.1382],[108.8144,37.1382],[108.7931,37.1107],[108.7798,37.1205],[108.7652,37.1121],[108.7488,37.1135],[108.7503,37.1009],[108.7375,37.0806],[108.7659,37.0678],[108.7721,37.0566],[108.8017,37.0442],[108.812,37.0289],[108.7981,37.0217],[108.7866,36.9963],[108.7646,36.9755],[108.7572,36.9897],[108.7394,36.9839],[108.7016,36.9941],[108.6981,37.0014],[108.6782,37.002],[108.6532,37.0393],[108.629,37.0306],[108.6096,37.0332],[108.5964,36.9987],[108.567,36.9909],[108.5326,36.9906],[108.5061,37.0051],[108.4972,37.0015],[108.4856,37.0116],[108.4842,37.0218],[108.5012,37.0305],[108.5137,37.0261],[108.5179,37.0392],[108.5304,37.0372],[108.5388,37.0499],[108.5473,37.0903],[108.5323,37.1137],[108.5304,37.1314],[108.5463,37.1632],[108.5293,37.1878],[108.5148,37.1919],[108.5052,37.2136],[108.5116,37.229],[108.4981,37.2341],[108.4847,37.2311],[108.4574,37.2438],[108.4474,37.2556],[108.4807,37.2769],[108.4603,37.2893],[108.4493,37.3075],[108.4353,37.3154],[108.4254,37.3576],[108.4274,37.3852],[108.4116,37.4072],[108.4032,37.4008],[108.4011,37.3802],[108.3551,37.3887],[108.3381,37.3719],[108.3161,37.3575],[108.2519,37.3385],[108.2336,37.3375],[108.2134,37.3229],[108.2343,37.299],[108.2418,37.2835],[108.2584,37.2667],[108.2784,37.2607],[108.2794,37.2432],[108.2673,37.2317],[108.2549,37.2366],[108.2542,37.2146],[108.2179,37.1837],[108.2103,37.1692],[108.1968,37.1711],[108.185,37.1627],[108.1668,37.1645],[108.1651,37.1819],[108.1712,37.1939],[108.1551,37.1975],[108.1469,37.182],[108.1229,37.1942],[108.115,37.1876],[108.1093,37.1448],[108.096,37.1278],[108.0779,37.1219],[108.0518,37.1273],[108.0357,37.1197],[108.0139,37.1226],[108.003,37.1114],[107.9797,37.1116],[107.974,37.0953],[107.9629,37.0957],[107.9445,37.0793],[107.9239,37.0939],[107.8835,37.0853],[107.8799,37.1223],[107.8726,37.1273],[107.8784,37.1422],[107.8672,37.1519],[107.8591,37.1759],[107.8523,37.1827],[107.859,37.1992],[107.8508,37.2152],[107.8301,37.2149],[107.8129,37.2231],[107.8161,37.2411],[107.7927,37.2444],[107.7765,37.2309],[107.7603,37.2279],[107.7475,37.2041],[107.7369,37.2056],[107.7385,37.1843],[107.7437,37.1762],[107.7237,37.1689],[107.7258,37.155],[107.7381,37.1512],[107.7278,37.1372],[107.6996,37.1436],[107.6759,37.1305],[107.6793,37.1179],[107.6904,37.1075],[107.6969,37.0908],[107.7104,37.0859],[107.7069,37.0683],[107.6931,37.0504],[107.674,37.0487],[107.6731,37.0639],[107.6628,37.0666],[107.6526,37.0549],[107.6696,37.0403],[107.6807,37.0219],[107.6969,37.0163],[107.7258,37.0164],[107.7464,37.0015],[107.7423,36.9868],[107.713,36.9837],[107.6906,36.9679],[107.6996,36.9624],[107.6971,36.9496],[107.7049,36.9441],[107.7095,36.925],[107.7194,36.919],[107.7219,36.8915],[107.7188,36.8607],[107.6866,36.8492],[107.6669,36.833],[107.6876,36.8228],[107.7049,36.806],[107.7167,36.8027],[107.7257,36.8137],[107.7408,36.8112],[107.7636,36.7932],[107.8006,36.7794],[107.8154,36.7772],[107.8215,36.7857],[107.8609,36.7658],[107.8779,36.7483],[107.8922,36.7483],[107.9033,36.7402],[107.9114,36.7207],[107.934,36.7068],[107.9323,36.6588],[107.97,36.6649],[107.9832,36.6763],[108.0066,36.685],[108.0088,36.6728],[108.0196,36.6687],[108.0172,36.6471],[107.9999,36.6475],[107.9979,36.6367],[108.0036,36.6174],[108.0251,36.6183],[108.0262,36.6076],[108.0546,36.5946],[108.0637,36.6076],[108.0786,36.6159],[108.09,36.5868],[108.1086,36.5955],[108.116,36.5856],[108.1335,36.5812],[108.1288,36.5665],[108.1526,36.5593],[108.1586,36.5636],[108.1929,36.6298],[108.2134,36.6328],[108.1998,36.5965],[108.2117,36.5713],[108.2393,36.5698],[108.2575,36.5628],[108.267,36.5692],[108.2826,36.5532],[108.2991,36.5627],[108.3103,36.5583],[108.3434,36.556],[108.3511,36.5481],[108.3586,36.5218],[108.3847,36.5032],[108.3941,36.4794],[108.3994,36.4782],[108.4067,36.451],[108.4247,36.4387],[108.4665,36.4216],[108.4784,36.4295],[108.4895,36.4213],[108.5086,36.4444],[108.5031,36.4622],[108.5104,36.4755],[108.5289,36.4551],[108.5491,36.4479],[108.558,36.4388],[108.5788,36.4383],[108.589,36.4316],[108.6145,36.4341],[108.6372,36.4006],[108.6428,36.3838],[108.6344,36.3558],[108.6389,36.3329],[108.6409,36.2935],[108.6498,36.277],[108.642,36.2498],[108.6538,36.2169],[108.6731,36.197],[108.7003,36.1508],[108.7105,36.1412],[108.6914,36.118],[108.7015,36.1104],[108.6928,36.0945],[108.6802,36.0827],[108.6745,36.0505],[108.6839,36.0213],[108.6705,36.0033],[108.6559,35.9927],[108.6542,35.9583],[108.6425,35.9447],[108.628,35.938],[108.5972,35.9428],[108.5842,35.9508],[108.5547,35.9328],[108.5581,35.9205],[108.5322,35.909],[108.5153,35.9057],[108.4956,35.8841],[108.493,35.8735],[108.5198,35.8399],[108.5231,35.7999],[108.5195,35.7581],[108.528,35.7498],[108.5211,35.713],[108.5129,35.6991],[108.5256,35.6823],[108.5179,35.6485],[108.533,35.62],[108.5349,35.6061],[108.5571,35.6],[108.564,35.5866],[108.5829,35.579],[108.5919,35.5677],[108.615,35.5578],[108.6174,35.5419],[108.6402,35.5428],[108.6539,35.5382],[108.6742,35.5216],[108.6703,35.5092],[108.6851,35.5071],[108.6955,35.5125],[108.7223,35.5035],[108.7309,35.4907],[108.7531,35.4925],[108.7678,35.4844],[108.7738,35.4732],[108.7732,35.4513],[108.7843,35.438],[108.7835,35.426],[108.7944,35.3865],[108.8041,35.3836],[108.8225,35.3909],[108.8346,35.3629],[108.853,35.353],[108.8668,35.3527],[108.9063,35.3576],[108.9199,35.3661],[108.9415,35.397],[108.9793,35.4378],[108.9855,35.4508],[108.9928,35.5033],[109.0126,35.5293],[109.0259,35.5398],[109.0663,35.5534],[109.0953,35.5513],[109.1277,35.5724],[109.1443,35.5706],[109.1573,35.5787],[109.1812,35.582],[109.1992,35.5803],[109.211,35.555],[109.2258,35.5502],[109.2424,35.5306],[109.2624,35.5186],[109.3241,35.5188],[109.353,35.526],[109.3995,35.5183],[109.4026,35.5094],[109.4184,35.5014],[109.4401,35.5137],[109.4531,35.4939],[109.4751,35.4747],[109.4693,35.4465],[109.4746,35.4372],[109.4632,35.4198],[109.4796,35.413],[109.4716,35.4036],[109.4917,35.3941],[109.4768,35.3669],[109.4938,35.3514]]]},"properties":{"region_code":"CN-61-6106","parent_region_code":"CN-61","name":"延安市","level":"prefecture","has_children":true,"full_path":"中国 / 陕西省 / 延安市","source_admin_code":"6106","osm_relation_id":3020001}},
{"type":"Feature","geometry":{"type":"Polygon","coordinates":[[[107.6914,33.7258],[107.6823,33.7229],[107.6762,33.7083],[107.6517,33.7045],[107.6313,33.7197],[107.5992,33.7163],[107.5808,33.701],[107.5579,33.7087],[107.534,33.6904],[107.5204,33.6838],[107.4987,33.6884],[107.4866,33.6838],[107.4532,33.6598],[107.4432,33.6606],[107.4113,33.6468],[107.3924,33.6523],[107.3946,33.6609],[107.3804,33.6796],[107.3664,33.6906],[107.3547,33.6845],[107.3148,33.6975],[107.3005,33.7106],[107.3035,33.7324],[107.2956,33.7572],[107.3001,33.7684],[107.3177,33.7773],[107.321,33.7956],[107.3322,33.8028],[107.3369,33.8162],[107.3171,33.821],[107.3027,33.7999],[107.2942,33.7949],[107.2702,33.8005],[107.2682,33.7922],[107.2273,33.7699],[107.2247,33.7593],[107.197,33.7521],[107.181,33.7606],[107.1558,33.7918],[107.1479,33.7873],[107.1288,33.796],[107.1301,33.8184],[107.1052,33.8142],[107.1005,33.8236],[107.0783,33.821],[107.0646,33.8309],[107.0556,33.8535],[107.0543,33.8683],[107.0454,33.8785],[107.0357,33.8472],[107.0292,33.8435],[107.0401,33.8233],[107.0403,33.8032],[107.0231,33.7893],[106.99,33.7933],[106.9725,33.8023],[106.9458,33.8218],[106.9292,33.8264],[106.9051,33.8487],[106.8918,33.8458],[106.8841,33.8628],[106.8525,33.8702],[106.8495,33.8514],[106.8349,33.8288],[106.8133,33.8338],[106.8031,33.8128],[106.8008,33.7965],[106.808,33.7605],[106.8024,33.7374],[106.7949,33.7278],[106.7965,33.7017],[106.8024,33.6958],[106.7971,33.6792],[106.7674,33.6812],[106.7459,33.691],[106.7158,33.6945],[106.6833,33.7036],[106.7013,33.6786],[106.6824,33.6672],[106.6667,33.6629],[106.6386,33.6615],[106.6499,33.6461],[106.6479,33.6365],[106.6258,33.6214],[106.6104,33.5883],[106.5864,33.5788],[106.5775,33.5928],[106.5695,33.5775],[106.5479,33.5801],[106.5493,33.5643],[106.5571,33.5521],[106.5527,33.5293],[106.5374,33.5171],[106.5167,33.5197],[106.5099,33.5144],[106.4885,33.5414],[106.4783,33.53],[106.465,33.5256],[106.4608,33.5403],[106.4521,33.5412],[106.4467,33.5941],[106.4412,33.6198],[106.4191,33.6231],[106.4052,33.6185],[106.3704,33.6186],[106.3733,33.6055],[106.3552,33.6018],[106.3416,33.586],[106.3095,33.5983],[106.3105,33.606],[106.2901,33.6102],[106.2437,33.5827],[106.2198,33.5611],[106.199,33.5592],[106.1831,33.5481],[106.1392,33.5665],[106.141,33.5722],[106.1043,33.5712],[106.107,33.5873],[106.1264,33.5985],[106.1068,33.6093],[106.0797,33.6178],[106.0641,33.6067],[106.0441,33.6105],[106.0245,33.596],[106.0148,33.6099],[105.9928,33.607],[105.979,33.6138],[105.9528,33.615],[105.9578,33.6044],[105.9363,33.5724],[105.9157,33.5566],[105.8961,33.5558],[105.8883,33.5396],[105.8583,33.5101],[105.8414,33.5011],[105.8315,33.4881],[105.8435,33.47],[105.8246,33.4625],[105.837,33.435],[105.8329,33.4302],[105.8364,33.406],[105.8234,33.3819],[105.7778,33.3904],[105.7654,33.3797],[105.7488,33.3815],[105.7299,33.3914],[105.6981,33.3934],[105.7123,33.369],[105.7239,33.3608],[105.7262,33.3502],[105.749,33.3361],[105.7534,33.3191],[105.7342,33.3133],[105.7426,33.3052],[105.7464,33.288],[105.7863,33.2836],[105.7894,33.2662],[105.8139,33.2565],[105.8373,33.2516],[105.8535,33.2358],[105.8693,33.2368],[105.9024,33.2463],[105.9179,33.2438],[105.959,33.2095],[105.9661,33.1832],[105.9691,33.1503],[105.9013,33.1608],[105.8914,33.149],[105.903,33.1391],[105.9213,33.1506],[105.9147,33.0942],[105.9296,33.0789],[105.9146,33.0719],[105.9098,33.059],[105.925,33.0428],[105.928,33.0284],[105.9216,33.0213],[105.9165,32.995],[105.8967,32.9776],[105.8637,32.9416],[105.8226,32.9604],[105.8107,32.9465],[105.777,32.9286],[105.7468,32.9243],[105.7316,32.9074],[105.704,32.9155],[105.6961,32.907],[105.6586,32.9031],[105.6351,32.8843],[105.6048,32.8861],[105.587,32.879],[105.562,32.9107],[105.5336,32.9094],[105.5235,32.9212],[105.5069,32.9198],[105.4899,32.9079],[105.4892,32.8895],[105.4959,32.8719],[105.5127,32.8614],[105.5219,32.8483],[105.5209,32.837],[105.5298,32.8192],[105.5257,32.8121],[105.5311,32.7929],[105.5512,32.7961],[105.5502,32.776],[105.5615,32.7701],[105.5546,32.7547],[105.5536,32.7356],[105.561,32.727],[105.5855,32.7304],[105.5913,32.7049],[105.6234,32.7061],[105.6377,32.7115],[105.6611,32.728],[105.6741,32.7288],[105.6869,32.7435],[105.6972,32.745],[105.7162,32.7603],[105.7342,32.7555],[105.7451,32.7698],[105.7551,32.7649],[105.7673,32.7696],[105.7785,32.7515],[105.8007,32.7616],[105.8094,32.7735],[105.8213,32.771],[105.8146,32.7918],[105.8245,32.8037],[105.8191,32.8136],[105.8231,32.8257],[105.8515,32.8214],[105.8635,32.8324],[105.8888,32.8403],[105.9177,32.8328],[105.9241,32.8275],[105.952,32.8394],[105.9613,32.8502],[105.9818,32.8421],[105.9925,32.8294],[106.0081,32.8308],[106.018,32.8461],[106.0426,32.8657],[106.0484,32.8481],[106.0697,32.8264],[106.0901,32.8266],[106.0903,32.8101],[106.0967,32.795],[106.0617,32.7842],[106.0693,32.7547],[106.1029,32.7374],[106.1085,32.7234],[106.1417,32.72],[106.1509,32.7065],[106.1632,32.7105],[106.1721,32.6976],[106.2385,32.6932],[106.2557,32.696],[106.2631,32.676],[106.2705,32.6728],[106.2969,32.682],[106.3434,32.6731],[106.3632,32.6631],[106.3798,32.6492],[106.3848,32.629],[106.4028,32.6149],[106.4173,32.6187],[106.4461,32.6419],[106.447,32.6617],[106.4626,32.6547],[106.4925,32.6528],[106.4981,32.6631],[106.5139,32.6703],[106.5707,32.6807],[106.5855,32.691],[106.6251,32.6836],[106.6672,32.6961],[106.6806,32.7105],[106.7039,32.723],[106.7279,32.7404],[106.7439,32.7375],[106.7795,32.7384],[106.7763,32.7286],[106.7898,32.7149],[106.8188,32.7065],[106.8462,32.7245],[106.8684,32.7262],[106.8996,32.7158],[106.9128,32.7055],[106.9378,32.7099],[106.948,32.7184],[106.9825,32.7127],[106.9998,32.7217],[107.026,32.7216],[107.0281,32.7118],[107.046,32.7174],[107.0621,32.7099],[107.0554,32.695],[107.0582,32.6776],[107.083,32.6699],[107.0913,32.6525],[107.0861,32.6268],[107.0968,32.6106],[107.1,32.5929],[107.0843,32.567],[107.0844,32.556],[107.0755,32.5444],[107.0803,32.5308],[107.1,32.5178],[107.1092,32.4976],[107.1223,32.4811],[107.1581,32.4772],[107.1721,32.4825],[107.1948,32.4588],[107.2035,32.4359],[107.2277,32.4168],[107.2596,32.4036],[107.2671,32.4072],[107.2744,32.4536],[107.2841,32.4797],[107.3083,32.5008],[107.3426,32.5126],[107.3731,32.541],[107.4013,32.5412],[107.4302,32.536],[107.4335,32.5174],[107.4255,32.5043],[107.435,32.468],[107.4545,32.46],[107.4541,32.4374],[107.4453,32.4279],[107.4518,32.4199],[107.4691,32.421],[107.4859,32.4275],[107.4889,32.4163],[107.5041,32.3903],[107.5207,32.3836],[107.5956,32.4134],[107.6076,32.4081],[107.6336,32.4065],[107.6425,32.4153],[107.6674,32.3993],[107.6916,32.3761],[107.69,32.3657],[107.6969,32.3462],[107.7108,32.3286],[107.7455,32.3392],[107.7595,32.3182],[107.7698,32.3105],[107.7858,32.28],[107.8012,32.2656],[107.8106,32.2465],[107.8305,32.2257],[107.8496,32.2145],[107.8607,32.2029],[107.8756,32.2034],[107.8856,32.2154],[107.9012,32.2096],[107.9226,32.1929],[107.9498,32.1648],[107.9815,32.1455],[107.9986,32.156],[108.0048,32.1675],[108.0199,32.178],[108.0129,32.195],[108.0211,32.2049],[108.0137,32.2127],[108.0309,32.2226],[108.0381,32.2166],[108.0535,32.2213],[108.0673,32.2353],[108.0859,32.2349],[108.1217,32.2187],[108.1383,32.2206],[108.1512,32.2409],[108.1552,32.2498],[108.1762,32.2612],[108.1766,32.2681],[108.1625,32.2939],[108.1321,32.3202],[108.1211,32.3507],[108.1022,32.3704],[108.1054,32.3819],[108.1308,32.3894],[108.1182,32.3978],[108.1228,32.4068],[108.1112,32.4235],[108.1114,32.4348],[108.1337,32.4408],[108.1496,32.4345],[108.1857,32.427],[108.2065,32.4414],[108.2133,32.4599],[108.2279,32.464],[108.2351,32.4729],[108.2507,32.4741],[108.2592,32.4921],[108.279,32.4942],[108.2754,32.5132],[108.2828,32.5219],[108.2616,32.529],[108.2521,32.5444],[108.2493,32.5712],[108.2401,32.5715],[108.2134,32.598],[108.1881,32.6041],[108.1909,32.619],[108.2156,32.6162],[108.2449,32.6059],[108.264,32.6081],[108.2694,32.6247],[108.2527,32.6423],[108.2521,32.6566],[108.2436,32.6929],[108.2335,32.7049],[108.2355,32.7188],[108.2177,32.7426],[108.2014,32.7543],[108.1835,32.7617],[108.1544,32.7663],[108.151,32.7817],[108.1284,32.7749],[108.1217,32.8002],[108.1316,32.8072],[108.1105,32.8206],[108.1005,32.8434],[108.0954,32.873],[108.0726,32.874],[108.0816,32.9121],[108.0976,32.9231],[108.1074,32.9177],[108.1216,32.9353],[108.1284,32.9569],[108.121,32.979],[108.1308,32.9936],[108.1435,33.0014],[108.1357,33.0161],[108.1192,33.026],[108.1045,33.0588],[108.0903,33.0738],[108.0853,33.0952],[108.0958,33.1167],[108.0996,33.1359],[108.0986,33.1624],[108.0839,33.1781],[108.1081,33.1986],[108.1052,33.21],[108.0812,33.2123],[108.0491,33.2262],[108.0428,33.2409],[108.0267,33.2462],[108.0214,33.2625],[108.0339,33.2697],[108.0344,33.2822],[108.0451,33.2871],[108.0485,33.2991],[108.0387,33.3243],[108.043,33.3379],[108.0563,33.3519],[108.0704,33.3573],[108.0834,33.3756],[108.0922,33.3751],[108.1001,33.3941],[108.0893,33.4041],[108.1137,33.4187],[108.1365,33.405],[108.1402,33.4219],[108.1619,33.4428],[108.1404,33.4704],[108.1142,33.4856],[108.1004,33.4869],[108.0924,33.4993],[108.08,33.4972],[108.0572,33.5092],[108.0611,33.555],[108.0546,33.5781],[108.0626,33.5913],[108.0506,33.6165],[108.0564,33.6548],[108.0517,33.66],[108.0434,33.6889],[108.054,33.7014],[108.0518,33.7104],[108.0209,33.7227],[107.9698,33.7376],[107.9622,33.7362],[107.9468,33.7475],[107.9283,33.7336],[107.9152,33.7343],[107.8985,33.7505],[107.8731,33.7191],[107.8651,33.7167],[107.8557,33.6987],[107.8278,33.6975],[107.8081,33.7145],[107.7985,33.7101],[107.7614,33.722],[107.7466,33.717],[107.7317,33.7185],[107.7161,33.7266],[107.6914,33.7258]]]},"properties":{"region_code":"CN-61-6107","parent_region_code":"CN-61","name":"汉中市","level":"prefecture","has_children":true,"full_path":"中国 / 陕西省 / 汉中市","source_admin_code":"6107","osm_relation_id":2967716}},
{"type":"Feature","geometry":{"type":"Polygon","coordinates":[[[110.4138,36.973],[110.4,36.9902],[110.3738,37.0047],[110.3718,37.0162],[110.3866,37.0224],[110.406,37.0186],[110.4198,37.0085],[110.4346,37.0052],[110.4402,37.0205],[110.4137,37.0258],[110.4146,37.036],[110.4293,37.0423],[110.4439,37.0413],[110.4581,37.0473],[110.4936,37.0897],[110.521,37.1038],[110.5289,37.1119],[110.5301,37.1387],[110.5346,37.1448],[110.5738,37.1751],[110.6083,37.2148],[110.6258,37.2308],[110.6332,37.2446],[110.6475,37.2589],[110.6504,37.2758],[110.6747,37.2807],[110.6857,37.2894],[110.6725,37.3136],[110.6923,37.3292],[110.6921,37.3474],[110.6758,37.3549],[110.6438,37.3561],[110.6293,37.365],[110.6249,37.3782],[110.6272,37.4004],[110.6369,37.4308],[110.6458,37.4398],[110.6695,37.4411],[110.7342,37.4493],[110.7458,37.4564],[110.7533,37.4733],[110.7519,37.4955],[110.7645,37.5174],[110.767,37.5379],[110.7901,37.5611],[110.7679,37.5905],[110.7666,37.6102],[110.7577,37.6349],[110.7637,37.6445],[110.7821,37.6461],[110.7899,37.6615],[110.7612,37.6839],[110.7314,37.6895],[110.7052,37.7004],[110.6993,37.7201],[110.714,37.729],[110.742,37.735],[110.7523,37.7425],[110.7495,37.7564],[110.7156,37.7767],[110.6745,37.7894],[110.6648,37.7981],[110.6532,37.8258],[110.6081,37.8896],[110.5948,37.9124],[110.5814,37.9264],[110.5441,37.9449],[110.5258,37.9487],[110.5147,37.9568],[110.5111,37.9693],[110.5219,37.9943],[110.498,38.0226],[110.4963,38.0402],[110.503,38.0681],[110.4945,38.0893],[110.4975,38.0988],[110.5132,38.116],[110.5143,38.1294],[110.5001,38.1581],[110.501,38.1855],[110.5174,38.2077],[110.5286,38.211],[110.5507,38.2084],[110.5632,38.225],[110.5631,38.2469],[110.5686,38.2669],[110.5671,38.289],[110.5781,38.3024],[110.5893,38.3068],[110.6437,38.3036],[110.664,38.311],[110.6882,38.3446],[110.7126,38.3576],[110.7405,38.3657],[110.7484,38.3877],[110.7745,38.4435],[110.7927,38.4517],[110.8197,38.4489],[110.8367,38.4389],[110.8714,38.4556],[110.8661,38.4754],[110.8693,38.4926],[110.8643,38.509],[110.8707,38.5137],[110.8953,38.5144],[110.9031,38.5216],[110.9067,38.5444],[110.9036,38.5622],[110.9185,38.5799],[110.8909,38.5865],[110.8865,38.6047],[110.8778,38.6105],[110.8757,38.6251],[110.8823,38.6314],[110.8879,38.6567],[110.9112,38.6717],[110.9053,38.6895],[110.9079,38.7014],[110.9264,38.714],[110.9537,38.7434],[110.9604,38.7581],[110.9523,38.7782],[110.9716,38.7859],[110.981,38.7974],[110.9824,38.8099],[111.0002,38.8359],[111.001,38.8485],[110.989,38.8637],[111.0112,38.8869],[111.0031,38.9059],[111.0068,38.9285],[110.995,38.9434],[110.9929,38.9544],[110.9738,38.9698],[110.9893,38.9954],[111.0125,39.0064],[111.0226,39.017],[111.0786,39.0231],[111.1107,39.0443],[111.1354,39.0675],[111.1415,39.0855],[111.1377,39.0962],[111.1529,39.1039],[111.164,39.1228],[111.167,39.1383],[111.1568,39.1511],[111.1832,39.1935],[111.1963,39.2218],[111.2075,39.2296],[111.2133,39.2431],[111.2077,39.2549],[111.2206,39.2839],[111.2325,39.2894],[111.2352,39.3027],[111.2113,39.3001],[111.1915,39.3061],[111.1716,39.3294],[111.1895,39.3418],[111.1785,39.3509],[111.1464,39.3414],[111.1519,39.3595],[111.1455,39.3684],[111.1183,39.3656],[111.0957,39.3577],[111.0764,39.3803],[111.0902,39.3985],[111.0839,39.4104],[111.0578,39.4003],[111.0582,39.4159],[111.0483,39.4299],[111.0534,39.4451],[111.0837,39.4561],[111.0815,39.4659],[111.1013,39.4776],[111.1003,39.4983],[111.136,39.5243],[111.1482,39.552],[111.1483,39.568],[111.1255,39.5838],[111.1128,39.5753],[111.1094,39.5647],[111.0828,39.555],[111.0587,39.5571],[111.0188,39.556],[110.999,39.5525],[110.9748,39.5278],[110.9542,39.5189],[110.942,39.52],[110.9147,39.5106],[110.8778,39.5053],[110.8633,39.492],[110.8384,39.4576],[110.8016,39.4117],[110.7901,39.4088],[110.7766,39.3877],[110.7654,39.383],[110.7373,39.3547],[110.7267,39.3079],[110.7027,39.2834],[110.7015,39.2773],[110.6798,39.2669],[110.6632,39.2741],[110.6209,39.2666],[110.5941,39.2789],[110.5841,39.2956],[110.5747,39.2993],[110.5629,39.3178],[110.5643,39.3276],[110.5522,39.3368],[110.5512,39.3536],[110.5175,39.3809],[110.489,39.3587],[110.4776,39.3599],[110.4599,39.3754],[110.4416,39.38],[110.4229,39.3755],[110.4114,39.3483],[110.422,39.3394],[110.4009,39.3197],[110.3787,39.3108],[110.3528,39.3368],[110.335,39.3367],[110.2806,39.3771],[110.2388,39.4429],[110.1859,39.4528],[110.1624,39.4657],[110.1431,39.4612],[110.1167,39.4352],[110.1209,39.4134],[110.1339,39.3871],[110.1518,39.3889],[110.1711,39.3685],[110.1914,39.3247],[110.2015,39.2923],[110.2085,39.2807],[110.1883,39.2796],[110.1539,39.2619],[110.1352,39.2591],[110.1025,39.246],[110.0822,39.2344],[110.0384,39.2161],[110.0016,39.2096],[109.987,39.1964],[109.9528,39.1872],[109.8852,39.1421],[109.9104,39.1196],[109.9169,39.1037],[109.892,39.101],[109.8705,39.115],[109.8457,39.1177],[109.8079,39.0892],[109.8086,39.0803],[109.764,39.0669],[109.7136,39.0656],[109.6747,38.9498],[109.6753,38.9365],[109.6635,38.9225],[109.6396,38.8772],[109.6173,38.8537],[109.6015,38.8503],[109.5942,38.8401],[109.5413,38.805],[109.5126,38.8328],[109.493,38.821],[109.4439,38.7851],[109.4361,38.7706],[109.4061,38.7458],[109.3983,38.7197],[109.3853,38.7112],[109.3707,38.7121],[109.3303,38.7],[109.3251,38.6913],[109.3213,38.6605],[109.3626,38.628],[109.3296,38.5973],[109.313,38.5995],[109.271,38.6279],[109.229,38.5838],[109.1972,38.5582],[109.1906,38.5444],[109.1704,38.518],[109.1461,38.509],[109.1141,38.4726],[109.0997,38.4673],[109.0864,38.4528],[109.0708,38.4476],[109.0448,38.4296],[109.0534,38.4172],[109.0457,38.3843],[109,38.357],[108.9832,38.3116],[108.9693,38.298],[108.9555,38.2654],[108.9699,38.248],[108.9334,38.2047],[108.9388,38.1918],[108.9362,38.1764],[108.959,38.1547],[109.0128,38.1192],[109.0572,38.0994],[109.0621,38.0903],[109.053,38.0659],[109.044,38.0541],[109.0649,38.0277],[109.0629,38.0225],[109.0318,38.0206],[109.0229,37.997],[109.0094,37.9828],[109.0127,37.9715],[109.0006,37.9654],[108.9743,37.9625],[108.9747,37.9479],[108.9679,37.9307],[108.9554,37.9299],[108.938,37.9197],[108.9245,37.9341],[108.9175,37.9592],[108.8956,37.9734],[108.8815,38.0152],[108.8532,38.0401],[108.8303,38.05],[108.7981,38.0478],[108.8266,37.9913],[108.7998,37.9399],[108.7914,37.8577],[108.7923,37.8167],[108.8013,37.7883],[108.7832,37.7594],[108.783,37.7411],[108.788,37.711],[108.7838,37.6869],[108.768,37.6818],[108.7267,37.6845],[108.699,37.6691],[108.6444,37.655],[108.6096,37.6537],[108.5648,37.6798],[108.5398,37.6905],[108.5236,37.6904],[108.4804,37.6762],[108.4215,37.6482],[108.3551,37.6428],[108.3351,37.633],[108.3073,37.6348],[108.2525,37.6666],[108.1479,37.617],[108.1253,37.621],[108.0791,37.6501],[108.0165,37.6496],[108.0064,37.6655],[108.0194,37.6955],[108.0101,37.7051],[108.0085,37.7239],[107.9868,37.7352],[107.9869,37.7464],[107.9731,37.765],[107.9757,37.7857],[107.9308,37.7939],[107.9099,37.8066],[107.8842,37.8132],[107.8795,37.8077],[107.8441,37.8213],[107.8358,37.8287],[107.7939,37.8329],[107.736,37.8439],[107.7036,37.8687],[107.6696,37.8751],[107.6466,37.8643],[107.6525,37.8429],[107.6364,37.7955],[107.6175,37.7758],[107.6049,37.778],[107.5948,37.7909],[107.5674,37.776],[107.519,37.7724],[107.494,37.7651],[107.4861,37.7447],[107.4879,37.7334],[107.4809,37.7056],[107.4597,37.6898],[107.4212,37.6836],[107.4039,37.6927],[107.3826,37.6908],[107.3857,37.6706],[107.4162,37.6658],[107.4161,37.65],[107.3918,37.6519],[107.3566,37.6126],[107.3219,37.6057],[107.326,37.5833],[107.3391,37.5811],[107.3637,37.5876],[107.3681,37.5802],[107.3548,37.539],[107.342,37.5189],[107.2998,37.4925],[107.2778,37.4813],[107.2766,37.4375],[107.264,37.3893],[107.2543,37.3699],[107.2575,37.3487],[107.2511,37.3308],[107.2631,37.2896],[107.2865,37.2763],[107.3019,37.2499],[107.2882,37.2406],[107.2669,37.2353],[107.2631,37.2281],[107.3164,37.1957],[107.3317,37.1661],[107.3258,37.1294],[107.306,37.1096],[107.274,37.1148],[107.2698,37.0944],[107.2799,37.0564],[107.2751,37.0278],[107.2818,37.0184],[107.283,36.9904],[107.3001,36.9477],[107.2947,36.9311],[107.3065,36.9122],[107.3311,36.9255],[107.3603,36.905],[107.4243,36.9025],[107.4416,36.899],[107.4727,36.9085],[107.4803,36.9062],[107.5304,36.8646],[107.5242,36.8543],[107.534,36.8303],[107.551,36.827],[107.5642,36.8371],[107.5858,36.837],[107.5989,36.8263],[107.6347,36.8184],[107.6669,36.833],[107.6866,36.8492],[107.7188,36.8607],[107.7219,36.8915],[107.7194,36.919],[107.7095,36.925],[107.7049,36.9441],[107.6971,36.9496],[107.6996,36.9624],[107.6906,36.9679],[107.713,36.9837],[107.7423,36.9868],[107.7464,37.0015],[107.7258,37.0164],[107.6969,37.0163],[107.6807,37.0219],[107.6696,37.0403],[107.6526,37.0549],[107.6628,37.0666],[107.6731,37.0639],[107.674,37.0487],[107.6931,37.0504],[107.7069,37.0683],[107.7104,37.0859],[107.6969,37.0908],[107.6904,37.1075],[107.6793,37.1179],[107.6759,37.1305],[107.6996,37.1436],[107.7278,37.1372],[107.7381,37.1512],[107.7258,37.155],[107.7237,37.1689],[107.7437,37.1762],[107.7385,37.1843],[107.7369,37.2056],[107.7475,37.2041],[107.7603,37.2279],[107.7765,37.2309],[107.7927,37.2444],[107.8161,37.2411],[107.8129,37.2231],[107.8301,37.2149],[107.8508,37.2152],[107.859,37.1992],[107.8523,37.1827],[107.8591,37.1759],[107.8672,37.1519],[107.8784,37.1422],[107.8726,37.1273],[107.8799,37.1223],[107.8835,37.0853],[107.9239,37.0939],[107.9445,37.0793],[107.9629,37.0957],[107.974,37.0953],[107.9797,37.1116],[108.003,37.1114],[108.0139,37.1226],[108.0357,37.1197],[108.0518,37.1273],[108.0779,37.1219],[108.096,37.1278],[108.1093,37.1448],[108.115,37.1876],[108.1229,37.1942],[108.1469,37.182],[108.1551,37.1975],[108.1712,37.1939],[108.1651,37.1819],[108.1668,37.1645],[108.185,37.1627],[108.1968,37.1711],[108.2103,37.1692],[108.2179,37.1837],[108.2542,37.2146],[108.2549,37.2366],[108.2673,37.2317],[108.2794,37.2432],[108.2784,37.2607],[108.2584,37.2667],[108.2418,37.2835],[108.2343,37.299],[108.2134,37.3229],[108.2336,37.3375],[108.2519,37.3385],[108.3161,37.3575],[108.3381,37.3719],[108.3551,37.3887],[108.4011,37.3802],[108.4032,37.4008],[108.4116,37.4072],[108.4274,37.3852],[108.4254,37.3576],[108.4353,37.3154],[108.4493,37.3075],[108.4603,37.2893],[108.4807,37.2769],[108.4474,37.2556],[108.4574,37.2438],[108.4847,37.2311],[108.4981,37.2341],[108.5116,37.229],[108.5052,37.2136],[108.5148,37.1919],[108.5293,37.1878],[108.5463,37.1632],[108.5304,37.1314],[108.5323,37.1137],[108.5473,37.0903],[108.5388,37.0499],[108.5304,37.0372],[108.5179,37.0392],[108.5137,37.0261],[108.5012,37.0305],[108.4842,37.0218],[108.4856,37.0116],[108.4972,37.0015],[108.5061,37.0051],[108.5326,36.9906],[108.567,36.9909],[108.5964,36.9987],[108.6096,37.0332],[108.629,37.0306],[108.6532,37.0393],[108.6782,37.002],[108.6981,37.0014],[108.7016,36.9941],[108.7394,36.9839],[108.7572,36.9897],[108.7646,36.9755],[108.7866,36.9963],[108.7981,37.0217],[108.812,37.0289],[108.8017,37.0442],[108.7721,37.0566],[108.7659,37.0678],[108.7375,37.0806],[108.7503,37.1009],[108.7488,37.1135],[108.7652,37.1121],[108.7798,37.1205],[108.7931,37.1107],[108.8144,37.1382],[108.8305,37.1382],[108.8397,37.1498],[108.8781,37.1523],[108.8755,37.1763],[108.856,37.1827],[108.8533,37.2084],[108.8543,37.2346],[108.8719,37.2525],[108.8806,37.2223],[108.89,37.2366],[108.9166,37.2389],[108.9295,37.2336],[108.9508,37.2351],[108.952,37.2451],[108.9394,37.2516],[108.9569,37.2626],[108.9779,37.2631],[108.9801,37.2768],[109.0089,37.2912],[109.0086,37.3026],[109.0443,37.2975],[109.0575,37.2922],[109.0798,37.3128],[109.1042,37.306],[109.1158,37.3223],[109.1275,37.3211],[109.1611,37.3078],[109.1747,37.3095],[109.1735,37.3243],[109.1958,37.319],[109.2127,37.3277],[109.2384,37.3205],[109.2478,37.3388],[109.2661,37.3364],[109.2819,37.3414],[109.298,37.3379],[109.2987,37.3539],[109.3266,37.3556],[109.3323,37.3719],[109.3575,37.3996],[109.3713,37.433],[109.3935,37.438],[109.3931,37.4455],[109.4187,37.4466],[109.4237,37.4621],[109.4362,37.4565],[109.4554,37.4596],[109.462,37.4861],[109.4844,37.4995],[109.5047,37.4803],[109.5241,37.4806],[109.5594,37.4586],[109.5627,37.4341],[109.5803,37.4331],[109.6082,37.4207],[109.6376,37.4232],[109.6651,37.421],[109.6713,37.4296],[109.7021,37.4328],[109.7316,37.4245],[109.7296,37.4],[109.7454,37.3932],[109.7663,37.3908],[109.769,37.3599],[109.7795,37.3433],[109.798,37.345],[109.8059,37.3207],[109.8057,37.3047],[109.7786,37.3095],[109.7607,37.2789],[109.7739,37.267],[109.8097,37.2583],[109.8321,37.2803],[109.8533,37.2795],[109.8745,37.2714],[109.8993,37.2751],[109.8937,37.2952],[109.9069,37.3098],[109.9175,37.2964],[109.9586,37.2752],[109.977,37.28],[109.9825,37.2695],[110.0041,37.2735],[110.0229,37.2623],[110.0279,37.24],[110.0117,37.2249],[110.0088,37.2073],[109.9869,37.1979],[109.9686,37.2161],[109.9526,37.2082],[109.9588,37.1923],[109.9773,37.1815],[109.9852,37.1678],[109.963,37.1545],[109.972,37.1386],[109.987,37.1287],[110.0029,37.1439],[110.0165,37.1464],[110.0228,37.1335],[110.0168,37.125],[110.008,37.0878],[110.03,37.0482],[110.0237,37.0322],[110.0332,37.0224],[110.0441,37.0242],[110.0562,37.0087],[110.0695,37.005],[110.0806,36.9911],[110.1166,36.967],[110.1274,36.9745],[110.1447,36.9755],[110.1688,36.9903],[110.1801,37.003],[110.1987,37.0133],[110.231,37.0096],[110.2432,36.9948],[110.2725,36.9927],[110.279,36.983],[110.2699,36.9704],[110.2888,36.9584],[110.3037,36.9683],[110.31,36.9834],[110.3315,36.9855],[110.3376,36.9722],[110.3534,36.9676],[110.3587,36.9523],[110.3906,36.9605],[110.4138,36.973]]]},"properties":{"region_code":"CN-61-6108","parent_region_code":"CN-61","name":"榆林市","level":"prefecture","has_children":true,"full_path":"中国 / 陕西省 / 榆林市","source_admin_code":"6108","osm_relation_id":3016353}},
{"type":"Feature","geometry":{"type":"Polygon","coordinates":[[[108.0518,33.7104],[108.054,33.7014],[108.0434,33.6889],[108.0517,33.66],[108.0564,33.6548],[108.0506,33.6165],[108.0626,33.5913],[108.0546,33.5781],[108.0611,33.555],[108.0572,33.5092],[108.08,33.4972],[108.0924,33.4993],[108.1004,33.4869],[108.1142,33.4856],[108.1404,33.4704],[108.1619,33.4428],[108.1402,33.4219],[108.1365,33.405],[108.1137,33.4187],[108.0893,33.4041],[108.1001,33.3941],[108.0922,33.3751],[108.0834,33.3756],[108.0704,33.3573],[108.0563,33.3519],[108.043,33.3379],[108.0387,33.3243],[108.0485,33.2991],[108.0451,33.2871],[108.0344,33.2822],[108.0339,33.2697],[108.0214,33.2625],[108.0267,33.2462],[108.0428,33.2409],[108.0491,33.2262],[108.0812,33.2123],[108.1052,33.21],[108.1081,33.1986],[108.0839,33.1781],[108.0986,33.1624],[108.0996,33.1359],[108.0958,33.1167],[108.0853,33.0952],[108.0903,33.0738],[108.1045,33.0588],[108.1192,33.026],[108.1357,33.0161],[108.1435,33.0014],[108.1308,32.9936],[108.121,32.979],[108.1284,32.9569],[108.1216,32.9353],[108.1074,32.9177],[108.0976,32.9231],[108.0816,32.9121],[108.0726,32.874],[108.0954,32.873],[108.1005,32.8434],[108.1105,32.8206],[108.1316,32.8072],[108.1217,32.8002],[108.1284,32.7749],[108.151,32.7817],[108.1544,32.7663],[108.1835,32.7617],[108.2014,32.7543],[108.2177,32.7426],[108.2355,32.7188],[108.2335,32.7049],[108.2436,32.6929],[108.2521,32.6566],[108.2527,32.6423],[108.2694,32.6247],[108.264,32.6081],[108.2449,32.6059],[108.2156,32.6162],[108.1909,32.619],[108.1881,32.6041],[108.2134,32.598],[108.2401,32.5715],[108.2493,32.5712],[108.2521,32.5444],[108.2616,32.529],[108.2828,32.5219],[108.2754,32.5132],[108.279,32.4942],[108.2592,32.4921],[108.2507,32.4741],[108.2351,32.4729],[108.2279,32.464],[108.2133,32.4599],[108.2065,32.4414],[108.1857,32.427],[108.1496,32.4345],[108.1337,32.4408],[108.1114,32.4348],[108.1112,32.4235],[108.1228,32.4068],[108.1182,32.3978],[108.1308,32.3894],[108.1054,32.3819],[108.1022,32.3704],[108.1211,32.3507],[108.1321,32.3202],[108.1625,32.2939],[108.1766,32.2681],[108.1762,32.2612],[108.1552,32.2498],[108.1512,32.2409],[108.1669,32.2347],[108.1759,32.2228],[108.209,32.2485],[108.216,32.2598],[108.2375,32.2761],[108.2451,32.2754],[108.2606,32.2587],[108.284,32.2506],[108.3073,32.2331],[108.3256,32.2343],[108.3442,32.2555],[108.3654,32.2546],[108.3853,32.2648],[108.3969,32.2636],[108.4107,32.2541],[108.4294,32.2643],[108.4456,32.2611],[108.4663,32.2727],[108.4794,32.2617],[108.4812,32.2522],[108.5027,32.2473],[108.5106,32.2206],[108.5043,32.2037],[108.531,32.1881],[108.5379,32.1801],[108.5814,32.1734],[108.5912,32.1591],[108.6006,32.1579],[108.6479,32.1269],[108.6504,32.1184],[108.6686,32.1048],[108.7088,32.1059],[108.7297,32.1088],[108.7457,32.0997],[108.7472,32.0755],[108.7635,32.0668],[108.7829,32.0498],[108.8082,32.0476],[108.8185,32.043],[108.8456,32.0395],[108.8474,32.0259],[108.8728,31.9965],[108.8961,31.9876],[108.9035,31.9915],[108.9342,31.9914],[108.9498,31.9808],[108.9601,31.9846],[108.9857,31.9831],[108.9997,31.9726],[109.0302,31.9597],[109.0349,31.9624],[109.0555,31.9438],[109.0771,31.9346],[109.0904,31.9198],[109.1044,31.9121],[109.12,31.8945],[109.1592,31.8795],[109.1868,31.8572],[109.1956,31.8447],[109.1868,31.8275],[109.1917,31.8189],[109.2113,31.8191],[109.2287,31.811],[109.2712,31.8024],[109.2716,31.7775],[109.2585,31.7751],[109.2501,31.761],[109.2677,31.7579],[109.2792,31.7432],[109.2745,31.7283],[109.2779,31.7186],[109.2926,31.713],[109.3551,31.71],[109.3774,31.7067],[109.4113,31.7113],[109.4209,31.72],[109.4515,31.7244],[109.4551,31.7166],[109.4745,31.7215],[109.4925,31.7192],[109.5292,31.7244],[109.5503,31.7328],[109.5652,31.7275],[109.5804,31.7285],[109.5901,31.7409],[109.5892,31.7653],[109.5844,31.7834],[109.5978,31.7899],[109.5968,31.7993],[109.6094,31.8068],[109.627,31.8032],[109.6341,31.8075],[109.6352,31.8278],[109.6268,31.8411],[109.6125,31.8507],[109.6114,31.8727],[109.6063,31.884],[109.5902,31.8868],[109.5792,31.895],[109.5867,31.9146],[109.5964,31.9246],[109.6209,31.9268],[109.627,31.9388],[109.6264,31.9636],[109.6155,31.9823],[109.5871,32.0018],[109.5855,32.0491],[109.596,32.0652],[109.6128,32.0779],[109.6214,32.1013],[109.6096,32.1211],[109.5981,32.1261],[109.5875,32.1442],[109.5851,32.1766],[109.5996,32.202],[109.5876,32.2209],[109.5696,32.2265],[109.5456,32.2272],[109.5238,32.2726],[109.4967,32.2913],[109.4904,32.3026],[109.5052,32.3262],[109.5074,32.3467],[109.4947,32.3764],[109.5043,32.4009],[109.5214,32.4022],[109.522,32.4357],[109.5367,32.4466],[109.5525,32.4741],[109.5687,32.4865],[109.5734,32.5127],[109.5977,32.5228],[109.6122,32.5224],[109.6193,32.5355],[109.6339,32.5363],[109.6337,32.554],[109.6177,32.5666],[109.6223,32.599],[109.6725,32.6024],[109.6902,32.5974],[109.6984,32.605],[109.7217,32.6105],[109.747,32.5863],[109.7706,32.5873],[109.7792,32.5814],[109.8121,32.5796],[109.8211,32.5746],[109.8407,32.5843],[109.8547,32.5797],[109.872,32.5895],[109.8932,32.5951],[109.9053,32.5905],[109.9228,32.5919],[109.9438,32.5707],[109.9662,32.5798],[109.9992,32.5464],[110.031,32.5475],[110.0425,32.5621],[110.0571,32.5631],[110.0628,32.5786],[110.0862,32.5893],[110.0811,32.6158],[110.0937,32.6214],[110.1283,32.6161],[110.1411,32.5931],[110.1599,32.5959],[110.1798,32.6195],[110.199,32.6281],[110.2013,32.6351],[110.1824,32.6485],[110.1734,32.6652],[110.1522,32.6847],[110.1492,32.6921],[110.1572,32.7196],[110.159,32.7528],[110.1544,32.7692],[110.1343,32.767],[110.122,32.7826],[110.1369,32.8042],[110.1198,32.8101],[110.1096,32.8272],[110.077,32.8464],[110.0461,32.8533],[110.0311,32.8626],[110.0252,32.8746],[109.9951,32.8777],[109.9869,32.8883],[109.9548,32.89],[109.9241,32.8885],[109.918,32.8986],[109.9037,32.9065],[109.8806,32.9035],[109.8647,32.9155],[109.8531,32.9137],[109.8412,32.8939],[109.8233,32.8935],[109.7953,32.8793],[109.7845,32.8843],[109.7669,32.9077],[109.7594,32.9116],[109.7745,32.942],[109.7726,32.9615],[109.7814,32.9694],[109.7848,32.9856],[109.7853,33.0168],[109.7897,33.0511],[109.7953,33.068],[109.7759,33.0689],[109.7438,33.089],[109.7061,33.0982],[109.6826,33.1182],[109.6631,33.1145],[109.6289,33.1146],[109.6032,33.1062],[109.5873,33.1212],[109.5707,33.1119],[109.5487,33.1315],[109.5067,33.1383],[109.465,33.1386],[109.4363,33.152],[109.3897,33.1514],[109.369,33.1484],[109.3455,33.1311],[109.3273,33.1344],[109.3253,33.1587],[109.3016,33.1703],[109.295,33.1662],[109.275,33.1714],[109.2717,33.1628],[109.2523,33.1632],[109.2349,33.1863],[109.2159,33.1918],[109.1877,33.1742],[109.1739,33.1715],[109.1666,33.1603],[109.1411,33.158],[109.1083,33.1637],[109.0982,33.1838],[109.0879,33.1828],[109.0673,33.1961],[109.0606,33.2106],[109.0426,33.2065],[109.0363,33.1863],[109.0173,33.1825],[109.0132,33.1759],[108.9948,33.1722],[108.9859,33.1802],[108.9721,33.1733],[108.9657,33.1626],[108.9683,33.1387],[108.9447,33.1279],[108.9222,33.1382],[108.9158,33.153],[108.8963,33.1523],[108.8771,33.1655],[108.8775,33.1737],[108.8541,33.1976],[108.843,33.2],[108.834,33.2126],[108.8166,33.2241],[108.8,33.252],[108.7853,33.2551],[108.733,33.2848],[108.7164,33.2697],[108.7074,33.2685],[108.6882,33.2823],[108.6966,33.2897],[108.6708,33.3059],[108.6668,33.3172],[108.6392,33.3211],[108.6318,33.3115],[108.5941,33.2994],[108.5785,33.2979],[108.5747,33.3139],[108.5764,33.3828],[108.5871,33.3979],[108.601,33.4089],[108.5932,33.4162],[108.596,33.434],[108.5925,33.4481],[108.5811,33.4554],[108.5928,33.4692],[108.6054,33.4723],[108.6172,33.49],[108.6346,33.5066],[108.628,33.516],[108.6295,33.5375],[108.638,33.5488],[108.6579,33.5441],[108.6787,33.547],[108.6983,33.5293],[108.7115,33.5354],[108.7313,33.5294],[108.763,33.5474],[108.7759,33.5606],[108.7806,33.5799],[108.7925,33.5846],[108.798,33.6042],[108.8107,33.6147],[108.8241,33.6185],[108.8092,33.636],[108.79,33.6373],[108.786,33.6522],[108.8227,33.6487],[108.8503,33.6681],[108.8628,33.6848],[108.8841,33.7009],[108.8981,33.6879],[108.9151,33.6798],[108.9254,33.6826],[108.9277,33.6959],[108.9463,33.7432],[108.9031,33.7802],[108.8654,33.7773],[108.8296,33.7798],[108.8241,33.7874],[108.835,33.8156],[108.8263,33.8214],[108.7817,33.8101],[108.7694,33.8024],[108.752,33.8126],[108.7531,33.8388],[108.7362,33.8416],[108.7089,33.8321],[108.6507,33.8389],[108.6123,33.8281],[108.6025,33.8149],[108.598,33.7927],[108.5847,33.7824],[108.5808,33.7658],[108.5526,33.7693],[108.5405,33.7903],[108.4994,33.7977],[108.4787,33.8053],[108.4629,33.8017],[108.4453,33.7917],[108.4387,33.7825],[108.3989,33.765],[108.3885,33.7781],[108.3728,33.782],[108.3667,33.7943],[108.3414,33.795],[108.3238,33.7763],[108.3059,33.7646],[108.2837,33.7689],[108.2658,33.7592],[108.2401,33.7388],[108.2345,33.7297],[108.2122,33.7304],[108.2061,33.7231],[108.1873,33.7272],[108.1749,33.7128],[108.1449,33.7133],[108.1267,33.7232],[108.1095,33.7136],[108.0928,33.7247],[108.0689,33.7245],[108.0518,33.7104]]]},"properties":{"region_code":"CN-61-6109","parent_region_code":"CN-61","name":"安康市","level":"prefecture","has_children":true,"full_path":"中国 / 陕西省 / 安康市","source_admin_code":"6109","osm_relation_id":2996866}},
{"type":"Feature","geometry":{"type":"Polygon","coordinates":[[[108.835,33.8156],[108.8241,33.7874],[108.8296,33.7798],[108.8654,33.7773],[108.9031,33.7802],[108.9463,33.7432],[108.9277,33.6959],[108.9254,33.6826],[108.9151,33.6798],[108.8981,33.6879],[108.8841,33.7009],[108.8628,33.6848],[108.8503,33.6681],[108.8227,33.6487],[108.786,33.6522],[108.79,33.6373],[108.8092,33.636],[108.8241,33.6185],[108.8107,33.6147],[108.798,33.6042],[108.7925,33.5846],[108.7806,33.5799],[108.7759,33.5606],[108.763,33.5474],[108.7313,33.5294],[108.7115,33.5354],[108.6983,33.5293],[108.6787,33.547],[108.6579,33.5441],[108.638,33.5488],[108.6295,33.5375],[108.628,33.516],[108.6346,33.5066],[108.6172,33.49],[108.6054,33.4723],[108.5928,33.4692],[108.5811,33.4554],[108.5925,33.4481],[108.596,33.434],[108.5932,33.4162],[108.601,33.4089],[108.5871,33.3979],[108.5764,33.3828],[108.5747,33.3139],[108.5785,33.2979],[108.5941,33.2994],[108.6318,33.3115],[108.6392,33.3211],[108.6668,33.3172],[108.6708,33.3059],[108.6966,33.2897],[108.6882,33.2823],[108.7074,33.2685],[108.7164,33.2697],[108.733,33.2848],[108.7853,33.2551],[108.8,33.252],[108.8166,33.2241],[108.834,33.2126],[108.843,33.2],[108.8541,33.1976],[108.8775,33.1737],[108.8771,33.1655],[108.8963,33.1523],[108.9158,33.153],[108.9222,33.1382],[108.9447,33.1279],[108.9683,33.1387],[108.9657,33.1626],[108.9721,33.1733],[108.9859,33.1802],[108.9948,33.1722],[109.0132,33.1759],[109.0173,33.1825],[109.0363,33.1863],[109.0426,33.2065],[109.0606,33.2106],[109.0673,33.1961],[109.0879,33.1828],[109.0982,33.1838],[109.1083,33.1637],[109.1411,33.158],[109.1666,33.1603],[109.1739,33.1715],[109.1877,33.1742],[109.2159,33.1918],[109.2349,33.1863],[109.2523,33.1632],[109.2717,33.1628],[109.275,33.1714],[109.295,33.1662],[109.3016,33.1703],[109.3253,33.1587],[109.3273,33.1344],[109.3455,33.1311],[109.369,33.1484],[109.3897,33.1514],[109.4363,33.152],[109.4462,33.1582],[109.4472,33.1697],[109.4705,33.1756],[109.4784,33.1908],[109.476,33.2014],[109.5041,33.2137],[109.5042,33.2282],[109.5165,33.2438],[109.5502,33.242],[109.5753,33.2345],[109.6032,33.2366],[109.6016,33.265],[109.6083,33.2716],[109.6424,33.2697],[109.6443,33.2541],[109.655,33.2503],[109.6707,33.2577],[109.688,33.2562],[109.6958,33.242],[109.7278,33.2328],[109.7585,33.2374],[109.781,33.2352],[109.8074,33.238],[109.8471,33.2498],[109.8755,33.2388],[109.9241,33.2274],[109.9288,33.2213],[109.9621,33.2065],[109.9772,33.2068],[109.9937,33.214],[110.007,33.2102],[110.0127,33.2009],[110.035,33.1927],[110.0718,33.2038],[110.1075,33.2057],[110.1252,33.2031],[110.1598,33.211],[110.1797,33.1913],[110.1991,33.1807],[110.2127,33.1648],[110.2453,33.1617],[110.2802,33.1727],[110.3016,33.1707],[110.3286,33.1613],[110.3366,33.1743],[110.3554,33.1827],[110.3691,33.1783],[110.3989,33.1774],[110.4171,33.1718],[110.4458,33.1812],[110.4669,33.1741],[110.4654,33.1867],[110.4943,33.202],[110.4889,33.2094],[110.5029,33.2284],[110.5193,33.2264],[110.5322,33.2437],[110.5451,33.2521],[110.5619,33.2552],[110.576,33.2458],[110.5804,33.2299],[110.593,33.2094],[110.5922,33.1803],[110.5951,33.1626],[110.6035,33.15],[110.6219,33.1433],[110.6372,33.1496],[110.6516,33.1495],[110.6806,33.1137],[110.6966,33.0991],[110.714,33.1016],[110.712,33.1192],[110.7218,33.1361],[110.7395,33.1491],[110.7598,33.1546],[110.7892,33.1521],[110.8047,33.1634],[110.815,33.1934],[110.8245,33.2057],[110.8533,33.2092],[110.8669,33.2167],[110.9165,33.2046],[110.9374,33.2287],[110.9347,33.2382],[110.9644,33.2572],[110.9867,33.2753],[110.9924,33.3031],[111.0242,33.3425],[111.018,33.3573],[111.0219,33.3697],[111.0143,33.3905],[111.0061,33.4005],[111.0063,33.4158],[110.9911,33.4376],[111.0026,33.4494],[111.0152,33.4524],[111.0215,33.4708],[111.0222,33.4945],[111.0106,33.5274],[110.998,33.5349],[110.9972,33.5485],[111.0041,33.5608],[110.9988,33.5791],[110.9634,33.6093],[110.9452,33.611],[110.9353,33.6217],[110.8736,33.6368],[110.8535,33.6585],[110.8328,33.6686],[110.8185,33.6948],[110.8273,33.7154],[110.7721,33.8018],[110.7286,33.804],[110.6996,33.8386],[110.655,33.857],[110.6202,33.852],[110.6029,33.8597],[110.5838,33.8877],[110.5831,33.9014],[110.6083,33.91],[110.6177,33.9222],[110.6396,33.9368],[110.6624,33.9416],[110.6712,33.9542],[110.6665,33.9669],[110.6435,33.9723],[110.6399,33.9997],[110.6308,34.0099],[110.6266,34.0276],[110.6159,34.0372],[110.607,34.0248],[110.5815,34.0261],[110.5841,34.0401],[110.5783,34.0543],[110.5859,34.072],[110.5827,34.0995],[110.5876,34.1067],[110.6073,34.1129],[110.6181,34.1264],[110.6226,34.1412],[110.6374,34.1616],[110.6181,34.1778],[110.5829,34.1808],[110.5867,34.1915],[110.5521,34.1948],[110.5456,34.214],[110.5181,34.2214],[110.5064,34.2169],[110.4859,34.2325],[110.433,34.2454],[110.4384,34.2569],[110.4228,34.2764],[110.4226,34.2891],[110.4439,34.2919],[110.4607,34.3065],[110.4682,34.3224],[110.4946,34.3216],[110.5015,34.3427],[110.4817,34.3571],[110.4688,34.3937],[110.472,34.41],[110.4621,34.4114],[110.4436,34.4035],[110.4246,34.4107],[110.4074,34.4076],[110.3925,34.4117],[110.3675,34.4004],[110.3461,34.4007],[110.2773,34.3926],[110.2439,34.408],[110.2254,34.4078],[110.2136,34.4148],[110.1881,34.4159],[110.1587,34.4325],[110.1084,34.4324],[110.0684,34.4152],[110.0543,34.4145],[110.0528,34.3984],[110.031,34.3792],[110.0145,34.3799],[110.0013,34.3689],[110.0178,34.3396],[110.0354,34.3247],[110.029,34.3041],[110.0044,34.2999],[110.0099,34.2847],[110.0127,34.2529],[110.0191,34.2411],[109.9916,34.2233],[109.9687,34.2121],[109.9572,34.2107],[109.9451,34.219],[109.9503,34.2442],[109.9331,34.2354],[109.9127,34.2326],[109.8837,34.244],[109.8704,34.2717],[109.8427,34.2725],[109.8256,34.2904],[109.816,34.2873],[109.8061,34.2737],[109.7863,34.2666],[109.7936,34.234],[109.786,34.2308],[109.7674,34.2545],[109.7498,34.2528],[109.7415,34.2349],[109.7488,34.2127],[109.7562,34.2086],[109.7451,34.192],[109.7748,34.1832],[109.7918,34.1612],[109.8063,34.1668],[109.8171,34.1535],[109.8097,34.1487],[109.7859,34.1467],[109.7781,34.1624],[109.7367,34.12],[109.7378,34.1004],[109.7306,34.0969],[109.708,34.1071],[109.6868,34.1065],[109.6658,34.1002],[109.6538,34.1069],[109.6445,34.0899],[109.631,34.0891],[109.6287,34.0739],[109.5778,34.0737],[109.5484,34.0512],[109.5558,34.0349],[109.5415,34.0278],[109.5345,33.9893],[109.528,33.9825],[109.5561,33.9661],[109.5682,33.9553],[109.5778,33.9558],[109.5992,33.9448],[109.592,33.9274],[109.5938,33.9131],[109.5865,33.8984],[109.5701,33.8994],[109.554,33.8936],[109.5446,33.8795],[109.5326,33.8728],[109.5323,33.8625],[109.5064,33.8567],[109.5006,33.8498],[109.4659,33.8532],[109.4352,33.8447],[109.3903,33.8483],[109.371,33.8542],[109.3556,33.8675],[109.332,33.8624],[109.3218,33.8647],[109.3119,33.855],[109.2957,33.8567],[109.2806,33.8739],[109.2604,33.8763],[109.2487,33.8822],[109.2266,33.88],[109.2142,33.8674],[109.196,33.8679],[109.1846,33.8745],[109.1515,33.8782],[109.1336,33.8729],[109.1118,33.8872],[109.1119,33.9005],[109.0978,33.9095],[109.088,33.9075],[109.0791,33.9181],[109.0603,33.9167],[109.0389,33.9221],[109.0291,33.9039],[109.0078,33.8863],[108.9925,33.8841],[108.9693,33.874],[108.9597,33.8777],[108.9417,33.868],[108.9171,33.87],[108.9069,33.8468],[108.8658,33.8238],[108.8486,33.826],[108.835,33.8156]],[[109.1625,33.8001],[109.1501,33.7931],[109.1472,33.8114],[109.17,33.813],[109.1625,33.8001]]]},"properties":{"region_code":"CN-61-6110","parent_region_code":"CN-61","name":"商洛市","level":"prefecture","has_children":true,"full_path":"中国 / 陕西省 / 商洛市","source_admin_code":"6110","osm_relation_id":2971129}}
]}