{"type":"FeatureCollection", "features": [
{"type":"Feature","geometry":{"type":"MultiPolygon","coordinates":[[[[80.3691,37.8115],[80.3676,37.8048],[80.3177,37.8117],[80.3172,37.7889],[80.3773,37.7749],[80.3929,37.7824],[80.4023,37.7833],[80.4195,37.7909],[80.4337,37.7825],[80.4442,37.7903],[80.4454,37.8016],[80.4531,37.8121],[80.4463,37.8182],[80.445,37.8389],[80.4148,37.8343],[80.4104,37.8274],[80.4005,37.8228],[80.4002,37.8143],[80.3691,37.8115]]],[[[79.8908,36.9184],[79.8982,36.918],[79.8953,36.9308],[79.9015,36.943],[79.9006,36.9503],[79.908,36.9614],[79.9147,36.9617],[79.9199,36.9731],[79.9334,36.9799],[79.9349,36.9931],[79.9438,37.014],[79.939,37.0217],[79.9436,37.0301],[79.9451,37.0455],[79.9581,37.0454],[79.9754,37.0532],[79.9859,37.0712],[79.9915,37.0855],[80.0083,37.1099],[80.0091,37.124],[80.0205,37.1243],[80.0345,37.1292],[80.0424,37.1362],[80.0438,37.1505],[80.0366,37.1553],[80.0145,37.1533],[80.0248,37.1707],[80.046,37.1729],[80.0538,37.1782],[80.0541,37.1903],[80.0864,37.21],[80.096,37.2127],[80.1106,37.2277],[80.1097,37.2653],[80.1272,37.2821],[80.1274,37.3285],[79.9683,37.3281],[79.961,37.3355],[79.9584,37.3246],[79.9488,37.3108],[79.9463,37.3014],[79.9345,37.2788],[79.9203,37.2655],[79.923,37.247],[79.9042,37.2444],[79.8888,37.2314],[79.8832,37.2198],[79.8759,37.2169],[79.8578,37.2249],[79.8511,37.2131],[79.8598,37.1946],[79.856,37.1818],[79.8432,37.1717],[79.839,37.1644],[79.8467,37.1347],[79.8421,37.1244],[79.8396,37.1089],[79.8443,37.0915],[79.8371,37.0849],[79.8318,37.0624],[79.8416,37.0438],[79.84,37.0213],[79.8847,37.0078],[79.8982,37.0004],[79.9104,36.9849],[79.9096,36.9762],[79.896,36.9713],[79.889,36.9642],[79.8852,36.9311],[79.8908,36.9184]]]]},"properties":{"region_code":"CN-65-6532-653201","parent_region_code":"CN-65-6532","name":"和田市","level":"county","has_children":false,"full_path":"中国 / 新疆维吾尔自治区 / 和田地区 / 和田市","source_admin_code":"653201","osm_relation_id":2748331}},
{"type":"Feature","geometry":{"type":"Polygon","coordinates":[[[79.961,37.3355],[79.9636,37.3431],[79.9822,37.3667],[79.9875,37.3946],[80.0011,37.3968],[80.02,37.4071],[80.0799,37.4359],[80.433,37.6074],[80.446,37.6553],[80.4546,37.6941],[80.4728,37.7661],[80.4841,37.8044],[80.4759,37.8263],[80.4539,37.8623],[80.4819,37.8745],[80.4854,37.8827],[80.4734,37.8965],[80.4755,37.9043],[80.483,37.9119],[80.4791,37.9223],[80.4666,37.9293],[80.4687,37.9338],[80.4861,37.9386],[80.4897,37.9464],[80.4793,37.9584],[80.4819,37.9631],[80.5015,37.9664],[80.5205,37.9782],[80.521,37.9856],[80.5085,37.9881],[80.5074,38.0019],[80.5257,38.0201],[80.5449,38.0331],[80.5573,38.0368],[80.5685,38.0449],[80.5801,38.0643],[80.5797,38.0706],[80.5625,38.0778],[80.561,38.0849],[80.5482,38.0722],[80.527,38.0438],[80.505,38.0361],[80.4763,38.0432],[80.4672,38.0288],[80.4529,38.033],[80.4429,38.0273],[80.4459,38.0084],[80.4312,38.0011],[80.4254,37.9876],[80.4109,37.9774],[80.4087,37.9595],[80.393,37.9574],[80.3826,37.9504],[80.3902,37.9432],[80.3886,37.935],[80.3733,37.9343],[80.3692,37.9304],[80.3544,37.9338],[80.3477,37.9255],[80.3504,37.9143],[80.3366,37.9097],[80.3293,37.9012],[80.3178,37.9021],[80.3077,37.8955],[80.3108,37.8827],[80.3108,37.8676],[80.3052,37.8653],[80.3025,37.8556],[80.2893,37.856],[80.2879,37.8467],[80.2957,37.8428],[80.2868,37.8347],[80.2839,37.8242],[80.2879,37.8147],[80.2791,37.8009],[80.2718,37.8025],[80.2608,37.7981],[80.2469,37.7989],[80.2304,37.7928],[80.2082,37.7727],[80.1916,37.7719],[80.1861,37.7616],[80.2022,37.7484],[80.1844,37.7448],[80.1708,37.7278],[80.1692,37.7109],[80.1615,37.7063],[80.1308,37.6984],[80.1063,37.6766],[80.0962,37.6584],[80.0962,37.6458],[80.0895,37.6278],[80.0727,37.6177],[80.0731,37.6131],[80.0565,37.6037],[80.042,37.6004],[80.0387,37.5856],[80.0322,37.5839],[80.0221,37.5928],[79.9942,37.5839],[79.9877,37.5723],[79.9759,37.5712],[79.9649,37.5635],[79.9561,37.5461],[79.9369,37.5407],[79.9262,37.5288],[79.9201,37.5148],[79.9097,37.5037],[79.9073,37.4842],[79.8901,37.4562],[79.8578,37.425],[79.8473,37.413],[79.8481,37.4039],[79.8424,37.3973],[79.8295,37.3926],[79.8264,37.3798],[79.812,37.3659],[79.8094,37.3546],[79.812,37.3432],[79.8053,37.3167],[79.7928,37.3045],[79.7896,37.2871],[79.7706,37.2802],[79.7654,37.2753],[79.7596,37.2447],[79.7483,37.2156],[79.7474,37.1965],[79.7397,37.1767],[79.7244,37.1461],[79.7232,37.1314],[79.7138,37.1194],[79.707,37.1016],[79.7039,37.0661],[79.7041,37.0436],[79.7082,37.0342],[79.7198,37.0186],[79.7299,37.0126],[79.7428,37.0091],[79.7446,36.9954],[79.7399,36.9763],[79.7213,36.9696],[79.7008,36.9654],[79.695,36.9567],[79.6762,36.939],[79.6634,36.9352],[79.64,36.9216],[79.6138,36.9108],[79.5986,36.8863],[79.5785,36.8841],[79.5683,36.8886],[79.5634,36.8973],[79.5596,36.9196],[79.5632,36.9255],[79.558,36.9352],[79.5382,36.9472],[79.5321,36.9488],[79.4958,36.9438],[79.4915,36.9712],[79.475,36.9888],[79.4567,36.989],[79.4449,36.9949],[79.4362,36.993],[79.4126,36.9751],[79.4015,36.9622],[79.392,36.9578],[79.3841,36.9438],[79.387,36.9228],[79.3957,36.9022],[79.4038,36.8988],[79.4058,36.8862],[79.4179,36.8796],[79.4304,36.8662],[79.4379,36.8373],[79.4478,36.8244],[79.4588,36.8199],[79.4624,36.8046],[79.4574,36.789],[79.4665,36.7802],[79.4636,36.7654],[79.437,36.759],[79.4288,36.737],[79.4229,36.7354],[79.4234,36.7185],[79.413,36.7037],[79.408,36.7075],[79.3969,36.7051],[79.3853,36.6989],[79.3762,36.7077],[79.3661,36.7096],[79.3596,36.7058],[79.3374,36.7023],[79.323,36.7141],[79.3104,36.7155],[79.3002,36.7042],[79.2944,36.7025],[79.2707,36.7055],[79.2454,36.6987],[79.2263,36.7003],[79.2219,36.7035],[79.1982,36.6896],[79.1885,36.6813],[79.1803,36.6638],[79.1789,36.6453],[79.1747,36.638],[79.1657,36.634],[79.1577,36.6255],[79.1318,36.623],[79.0987,36.6389],[79.0874,36.6242],[79.0791,36.618],[79.0939,36.6061],[79.0881,36.5933],[79.0804,36.5835],[79.0691,36.5753],[79.0731,36.5696],[79.0689,36.5596],[79.0549,36.553],[79.0533,36.5449],[79.0367,36.5272],[79.0073,36.5239],[78.9963,36.509],[78.9842,36.5126],[78.9763,36.504],[78.9628,36.4985],[78.9555,36.4922],[78.9337,36.4877],[78.9262,36.4763],[78.9346,36.4633],[78.9215,36.4488],[78.9104,36.4438],[78.9121,36.4284],[78.9065,36.4253],[78.9041,36.4145],[78.9078,36.4068],[78.8996,36.4021],[78.8969,36.3913],[78.8874,36.3836],[78.8767,36.382],[78.874,36.373],[78.8557,36.3646],[78.8402,36.3463],[78.827,36.3427],[78.8106,36.3516],[78.8043,36.3439],[78.8024,36.334],[78.7837,36.3277],[78.7826,36.3213],[78.7674,36.3143],[78.7582,36.3129],[78.7544,36.3047],[78.7577,36.2838],[78.7877,36.2673],[78.7931,36.2716],[78.8096,36.274],[78.812,36.2684],[78.8324,36.2658],[78.8558,36.2596],[78.8598,36.2497],[78.8969,36.2513],[78.9105,36.2443],[78.9233,36.2438],[78.9398,36.2366],[78.9512,36.237],[78.9584,36.2441],[78.9826,36.244],[79.0041,36.2366],[78.9964,36.2257],[78.9984,36.2204],[79.0177,36.2091],[79.0596,36.1988],[79.0705,36.1895],[79.0838,36.1898],[79.1048,36.183],[79.1353,36.1847],[79.1719,36.1712],[79.193,36.1678],[79.2216,36.1658],[79.2256,36.1686],[79.2444,36.1648],[79.2606,36.158],[79.274,36.161],[79.2819,36.1537],[79.3006,36.1559],[79.3029,36.1515],[79.3448,36.1382],[79.352,36.1333],[79.3733,36.1311],[79.4265,36.1163],[79.4447,36.1147],[79.4645,36.1006],[79.4709,36.0834],[79.4823,36.0731],[79.5014,36.0708],[79.5335,36.0494],[79.5411,36.0462],[79.5223,36.0287],[79.5176,36.006],[79.5105,35.9862],[79.4963,35.9369],[79.486,35.8951],[79.481,35.8645],[79.4811,35.8509],[79.4894,35.8357],[79.5008,35.7954],[79.5164,35.7645],[79.5256,35.7387],[79.5344,35.7223],[79.5607,35.687],[79.5905,35.6613],[79.6089,35.6176],[79.6203,35.5977],[79.6286,35.5887],[79.6662,35.5533],[79.6897,35.5293],[79.7037,35.5201],[79.7091,35.5064],[79.7513,35.4689],[79.7578,35.4427],[79.7584,35.4174],[79.7513,35.3922],[79.728,35.3671],[79.6755,35.3272],[79.6445,35.3065],[79.6315,35.2865],[79.6277,35.2672],[79.6327,35.2477],[79.6563,35.2113],[79.6897,35.1679],[79.7283,35.1309],[79.7404,35.1068],[79.7652,35.0657],[79.7779,35.0421],[79.7906,35.0353],[79.8151,35.0288],[79.8269,35.0181],[79.8443,34.9903],[79.857,34.9785],[79.8788,34.9741],[79.9025,34.9666],[79.9379,34.9693],[79.9692,34.9676],[80.0244,34.9725],[80.0299,34.9809],[80.0442,34.9823],[80.0423,34.9892],[80.0325,34.9919],[80.0277,34.9999],[80.038,35.0072],[80.0452,35.0255],[80.0351,35.0321],[80.0309,35.0411],[80.0458,35.0526],[80.055,35.0634],[80.0766,35.0781],[80.103,35.0678],[80.1173,35.0668],[80.1937,35.1184],[80.2079,35.1239],[80.2162,35.1392],[80.2247,35.143],[80.2374,35.1544],[80.2243,35.163],[80.2223,35.178],[80.2468,35.1857],[80.2538,35.1944],[80.2563,35.2042],[80.2839,35.204],[80.2852,35.2113],[80.3145,35.2038],[80.3461,35.2059],[80.3591,35.2026],[80.3639,35.21],[80.3294,35.2266],[80.3246,35.2421],[80.3137,35.2492],[80.2869,35.2746],[80.2662,35.2964],[80.2736,35.3005],[80.2772,35.3162],[80.2764,35.3283],[80.2879,35.3578],[80.2988,35.3685],[80.3109,35.37],[80.3198,35.3774],[80.3277,35.3789],[80.3468,35.391],[80.3607,35.3867],[80.3769,35.3923],[80.395,35.4147],[80.4119,35.426],[80.4149,35.4353],[80.4292,35.4498],[80.4232,35.4519],[80.4135,35.4661],[80.4121,35.4842],[80.3988,35.4997],[80.3873,35.4974],[80.3673,35.5052],[80.3535,35.5063],[80.3434,35.5179],[80.3396,35.531],[80.3293,35.5345],[80.3159,35.5281],[80.3022,35.5328],[80.3045,35.5456],[80.2986,35.5557],[80.289,35.557],[80.281,35.5528],[80.2634,35.5691],[80.25,35.5569],[80.2419,35.5548],[80.233,35.5597],[80.2249,35.5548],[80.205,35.579],[80.1983,35.6022],[80.181,35.6175],[80.1752,35.6262],[80.1755,35.64],[80.1717,35.6487],[80.1716,35.6611],[80.1647,35.6669],[80.1646,35.6742],[80.147,35.6993],[80.1253,35.7142],[80.1166,35.7163],[80.1072,35.7279],[80.0903,35.7395],[80.0683,35.7457],[80.0664,35.7611],[80.0596,35.7687],[80.0702,35.7713],[80.0824,35.7859],[80.0828,35.7932],[80.0904,35.8042],[80.0905,35.8115],[80.0736,35.8334],[80.0694,35.8414],[80.0558,35.8526],[80.0879,35.8688],[80.1057,35.8753],[80.1132,35.8817],[80.1222,35.8775],[80.1249,35.8881],[80.1123,35.9069],[80.1127,35.9116],[80.1233,35.9236],[80.1151,35.9322],[80.0999,35.9374],[80.0926,35.9561],[80.09,35.9708],[80.1008,35.9877],[80.1149,35.9941],[80.1209,36.0048],[80.1135,36.0139],[80.1115,36.0242],[80.1169,36.0298],[80.1193,36.047],[80.1159,36.0596],[80.1115,36.0629],[80.1108,36.0779],[80.1237,36.0884],[80.1215,36.1226],[80.1252,36.1329],[80.1212,36.1366],[80.1307,36.1444],[80.1358,36.1677],[80.1347,36.1762],[80.1379,36.1892],[80.1317,36.1952],[80.1321,36.2046],[80.1268,36.214],[80.1403,36.2311],[80.1834,36.2565],[80.1941,36.2683],[80.2032,36.2831],[80.2294,36.2973],[80.2338,36.3038],[80.2468,36.308],[80.2472,36.317],[80.2608,36.3324],[80.2636,36.3437],[80.2706,36.3532],[80.2873,36.3638],[80.2903,36.3698],[80.2891,36.3871],[80.3037,36.3895],[80.3148,36.3946],[80.3142,36.4028],[80.3039,36.4165],[80.3114,36.4216],[80.3052,36.4446],[80.3085,36.4508],[80.3002,36.4625],[80.3161,36.4704],[80.3029,36.4892],[80.3095,36.4985],[80.3029,36.5173],[80.2941,36.5286],[80.2869,36.5335],[80.2736,36.5257],[80.264,36.5255],[80.255,36.5196],[80.2388,36.5273],[80.2341,36.5446],[80.2328,36.5649],[80.2272,36.5703],[80.2314,36.585],[80.1944,36.6183],[80.1703,36.6435],[80.1408,36.6772],[80.1399,36.6849],[80.1028,36.7158],[80.123,36.7512],[80.1235,36.7656],[80.0973,36.7892],[80.0909,36.8038],[80.064,36.818],[80.0469,36.8236],[80.0165,36.8265],[80.0035,36.8293],[79.9712,36.8292],[79.9626,36.8397],[79.9497,36.8471],[79.9415,36.8565],[79.9127,36.8809],[79.9027,36.893],[79.8891,36.9054],[79.8908,36.9184],[79.8852,36.9311],[79.889,36.9642],[79.896,36.9713],[79.9096,36.9762],[79.9104,36.9849],[79.8982,37.0004],[79.8847,37.0078],[79.84,37.0213],[79.8416,37.0438],[79.8318,37.0624],[79.8371,37.0849],[79.8443,37.0915],[79.8396,37.1089],[79.8421,37.1244],[79.8467,37.1347],[79.839,37.1644],[79.8432,37.1717],[79.856,37.1818],[79.8598,37.1946],[79.8511,37.2131],[79.8578,37.2249],[79.8759,37.2169],[79.8832,37.2198],[79.8888,37.2314],[79.9042,37.2444],[79.923,37.247],[79.9203,37.2655],[79.9345,37.2788],[79.9463,37.3014],[79.9488,37.3108],[79.9584,37.3246],[79.961,37.3355]],[[80.3691,37.8115],[80.4002,37.8143],[80.4005,37.8228],[80.4104,37.8274],[80.4148,37.8343],[80.445,37.8389],[80.4463,37.8182],[80.4531,37.8121],[80.4454,37.8016],[80.4442,37.7903],[80.4337,37.7825],[80.4195,37.7909],[80.4023,37.7833],[80.3929,37.7824],[80.3773,37.7749],[80.3172,37.7889],[80.3177,37.8117],[80.3676,37.8048],[80.3691,37.8115]]]},"properties":{"region_code":"CN-65-6532-653221","parent_region_code":"CN-65-6532","name":"和田县","level":"county","has_children":false,"full_path":"中国 / 新疆维吾尔自治区 / 和田地区 / 和田县","source_admin_code":"653221","osm_relation_id":2748332}},
{"type":"Feature","geometry":{"type":"Polygon","coordinates":[[[80.561,38.0849],[80.5673,38.0978],[80.5772,38.1095],[80.5924,38.1225],[80.5979,38.1324],[80.597,38.1489],[80.5884,38.1757],[80.6033,38.1969],[80.6047,38.2181],[80.6155,38.228],[80.6325,38.238],[80.6481,38.2567],[80.6932,38.279],[80.7028,38.2865],[80.7306,38.2998],[80.7562,38.3091],[80.7773,38.3152],[80.795,38.3254],[80.8,38.3356],[80.8172,38.3491],[80.8347,38.3707],[80.8599,38.391],[80.8678,38.4023],[80.8689,38.4112],[80.8662,38.4406],[80.8824,38.4549],[80.8916,38.4696],[80.8909,38.4847],[80.9195,38.5079],[80.9229,38.5209],[80.918,38.5414],[80.9212,38.5593],[80.9161,38.5786],[80.9267,38.5909],[80.9315,38.6036],[80.9461,38.6163],[80.9512,38.6288],[80.9423,38.6478],[80.9473,38.67],[80.9485,38.6997],[80.953,38.7172],[80.943,38.7503],[80.937,38.7638],[80.8816,38.7879],[80.8612,38.7927],[80.8417,38.8161],[80.8328,38.8408],[80.8415,38.8639],[80.8501,38.8787],[80.8755,38.8958],[80.8896,38.9228],[80.8862,38.9311],[80.8793,38.9324],[80.8759,38.9469],[80.8851,38.9674],[80.8954,38.9981],[80.893,39.0149],[80.898,39.0283],[80.9097,39.0499],[80.9146,39.1064],[80.9102,39.1221],[80.8985,39.1407],[80.9023,39.1615],[80.9006,39.1916],[80.9081,39.2357],[80.9119,39.2679],[80.9047,39.2822],[80.8958,39.3112],[80.9167,39.3545],[80.9104,39.3776],[80.9023,39.385],[80.8827,39.4111],[80.8777,39.4239],[80.8856,39.4548],[80.888,39.4726],[80.8923,39.4807],[80.1576,39.4638],[79.7619,39.6227],[79.6145,38.9263],[79.6152,38.9097],[79.6056,38.9007],[79.6131,38.8916],[79.6111,38.867],[79.6001,38.8531],[79.5973,38.8285],[79.5843,38.8172],[79.5664,38.7841],[79.5609,38.7198],[79.5767,38.6667],[79.4751,38.0048],[79.3731,37.5772],[79.4237,37.5779],[79.3748,37.4165],[79.3689,37.3852],[79.3848,37.3923],[79.3836,37.367],[79.3924,37.3535],[79.3847,37.3428],[79.3633,37.3437],[79.3583,37.3273],[79.36,37.2493],[79.3978,37.2499],[79.3927,37.2155],[79.3924,37.1873],[79.4156,37.1799],[79.4161,37.1579],[79.3616,37.1753],[79.3619,37.1624],[79.2258,37.1687],[79.198,37.1482],[79.1708,37.121],[79.1435,37.0959],[79.106,37.0645],[79.095,37.0518],[79.0792,37.0249],[79.0713,36.9953],[79.0689,36.9768],[79.0692,36.9509],[79.0626,36.9279],[79.0434,36.9081],[79.0344,36.8872],[79.0286,36.8489],[79.0229,36.8225],[79.0209,36.7955],[79.0236,36.7847],[79.033,36.7646],[79.0511,36.7506],[79.0652,36.7442],[79.0677,36.7381],[79.0787,36.734],[79.0839,36.721],[79.0943,36.705],[79.0908,36.7],[79.1042,36.6861],[79.1138,36.683],[79.1192,36.6745],[79.1284,36.6702],[79.1315,36.6592],[79.1509,36.6358],[79.1577,36.6255],[79.1657,36.634],[79.1747,36.638],[79.1789,36.6453],[79.1803,36.6638],[79.1885,36.6813],[79.1982,36.6896],[79.2219,36.7035],[79.2263,36.7003],[79.2454,36.6987],[79.2707,36.7055],[79.2944,36.7025],[79.3002,36.7042],[79.3104,36.7155],[79.323,36.7141],[79.3374,36.7023],[79.3596,36.7058],[79.3661,36.7096],[79.3762,36.7077],[79.3853,36.6989],[79.3969,36.7051],[79.408,36.7075],[79.413,36.7037],[79.4234,36.7185],[79.4229,36.7354],[79.4288,36.737],[79.437,36.759],[79.4636,36.7654],[79.4665,36.7802],[79.4574,36.789],[79.4624,36.8046],[79.4588,36.8199],[79.4478,36.8244],[79.4379,36.8373],[79.4304,36.8662],[79.4179,36.8796],[79.4058,36.8862],[79.4038,36.8988],[79.3957,36.9022],[79.387,36.9228],[79.3841,36.9438],[79.392,36.9578],[79.4015,36.9622],[79.4126,36.9751],[79.4362,36.993],[79.4449,36.9949],[79.4567,36.989],[79.475,36.9888],[79.4915,36.9712],[79.4958,36.9438],[79.5321,36.9488],[79.5382,36.9472],[79.558,36.9352],[79.5632,36.9255],[79.5596,36.9196],[79.5634,36.8973],[79.5683,36.8886],[79.5785,36.8841],[79.5986,36.8863],[79.6138,36.9108],[79.64,36.9216],[79.6634,36.9352],[79.6762,36.939],[79.695,36.9567],[79.7008,36.9654],[79.7213,36.9696],[79.7399,36.9763],[79.7446,36.9954],[79.7428,37.0091],[79.7299,37.0126],[79.7198,37.0186],[79.7082,37.0342],[79.7041,37.0436],[79.7039,37.0661],[79.707,37.1016],[79.7138,37.1194],[79.7232,37.1314],[79.7244,37.1461],[79.7397,37.1767],[79.7474,37.1965],[79.7483,37.2156],[79.7596,37.2447],[79.7654,37.2753],[79.7706,37.2802],[79.7896,37.2871],[79.7928,37.3045],[79.8053,37.3167],[79.812,37.3432],[79.8094,37.3546],[79.812,37.3659],[79.8264,37.3798],[79.8295,37.3926],[79.8424,37.3973],[79.8481,37.4039],[79.8473,37.413],[79.8578,37.425],[79.8901,37.4562],[79.9073,37.4842],[79.9097,37.5037],[79.9201,37.5148],[79.9262,37.5288],[79.9369,37.5407],[79.9561,37.5461],[79.9649,37.5635],[79.9759,37.5712],[79.9877,37.5723],[79.9942,37.5839],[80.0221,37.5928],[80.0322,37.5839],[80.0387,37.5856],[80.042,37.6004],[80.0565,37.6037],[80.0731,37.6131],[80.0727,37.6177],[80.0895,37.6278],[80.0962,37.6458],[80.0962,37.6584],[80.1063,37.6766],[80.1308,37.6984],[80.1615,37.7063],[80.1692,37.7109],[80.1708,37.7278],[80.1844,37.7448],[80.2022,37.7484],[80.1861,37.7616],[80.1916,37.7719],[80.2082,37.7727],[80.2304,37.7928],[80.2469,37.7989],[80.2608,37.7981],[80.2718,37.8025],[80.2791,37.8009],[80.2879,37.8147],[80.2839,37.8242],[80.2868,37.8347],[80.2957,37.8428],[80.2879,37.8467],[80.2893,37.856],[80.3025,37.8556],[80.3052,37.8653],[80.3108,37.8676],[80.3108,37.8827],[80.3077,37.8955],[80.3178,37.9021],[80.3293,37.9012],[80.3366,37.9097],[80.3504,37.9143],[80.3477,37.9255],[80.3544,37.9338],[80.3692,37.9304],[80.3733,37.9343],[80.3886,37.935],[80.3902,37.9432],[80.3826,37.9504],[80.393,37.9574],[80.4087,37.9595],[80.4109,37.9774],[80.4254,37.9876],[80.4312,38.0011],[80.4459,38.0084],[80.4429,38.0273],[80.4529,38.033],[80.4672,38.0288],[80.4763,38.0432],[80.505,38.0361],[80.527,38.0438],[80.5482,38.0722],[80.561,38.0849]],[[79.6828,37.5622],[79.6954,37.5609],[79.6904,37.5414],[79.6789,37.5343],[79.6802,37.5244],[79.6717,37.517],[79.6727,37.5045],[79.679,37.4915],[79.6805,37.4778],[79.6588,37.4732],[79.664,37.465],[79.6633,37.4542],[79.6516,37.4389],[79.6448,37.4471],[79.6428,37.459],[79.6306,37.4745],[79.6354,37.4921],[79.6337,37.4991],[79.6398,37.5201],[79.6376,37.5263],[79.6486,37.5387],[79.6525,37.5481],[79.6654,37.5582],[79.6828,37.5622]],[[79.7944,37.575],[79.8192,37.5752],[79.8197,37.5382],[79.785,37.5379],[79.7842,37.5809],[79.7944,37.575]],[[79.6016,37.3937],[79.6232,37.3926],[79.6131,37.3842],[79.5998,37.3584],[79.5806,37.346],[79.5748,37.3625],[79.568,37.3681],[79.5727,37.3847],[79.5882,37.3829],[79.6016,37.3937]],[[79.7415,37.406],[79.7572,37.3938],[79.751,37.3868],[79.7481,37.3703],[79.7316,37.3737],[79.7263,37.3849],[79.73,37.4021],[79.7415,37.406]]]},"properties":{"region_code":"CN-65-6532-653222","parent_region_code":"CN-65-6532","name":"墨玉县","level":"county","has_children":false,"full_path":"中国 / 新疆维吾尔自治区 / 和田地区 / 墨玉县","source_admin_code":"653222","osm_relation_id":2748333}},
{"type":"Feature","geometry":{"type":"Polygon","coordinates":[[[79.1577,36.6255],[79.1509,36.6358],[79.1315,36.6592],[79.1284,36.6702],[79.1192,36.6745],[79.1138,36.683],[79.1042,36.6861],[79.0908,36.7],[79.0943,36.705],[79.0839,36.721],[79.0787,36.734],[79.0677,36.7381],[79.0652,36.7442],[79.0511,36.7506],[79.033,36.7646],[79.0236,36.7847],[79.0209,36.7955],[79.0229,36.8225],[79.0286,36.8489],[79.0344,36.8872],[79.0434,36.9081],[79.0626,36.9279],[79.0692,36.9509],[79.0689,36.9768],[79.0713,36.9953],[79.0792,37.0249],[79.095,37.0518],[79.106,37.0645],[79.1435,37.0959],[79.1708,37.121],[79.198,37.1482],[79.2258,37.1687],[79.1693,37.1847],[79.1913,37.2295],[79.2074,37.2252],[79.2116,37.2317],[79.2545,37.2244],[79.2508,37.3787],[79.2208,37.379],[79.2212,37.4168],[79.0999,37.4181],[79.1008,37.4717],[79.3475,37.4689],[79.3731,37.5772],[79.4751,38.0048],[79.5767,38.6667],[79.5609,38.7198],[79.5664,38.7841],[79.557,38.7862],[79.5406,38.7971],[79.5221,38.8028],[79.4957,38.8062],[79.4766,38.8056],[79.4499,38.8113],[79.4341,38.8218],[79.4126,38.8292],[79.3851,38.8317],[79.3721,38.8151],[79.3288,38.8017],[79.2938,38.8071],[79.2581,38.8055],[79.2334,38.7948],[78.9965,38.6667],[78.5035,38.4219],[78.4517,38.3769],[78.3624,38.2956],[78.2412,38.1875],[78.1368,38.0905],[78.0064,37.968],[77.9247,37.8683],[77.8028,37.7267],[77.7372,37.6659],[77.731,37.6544],[77.7386,37.6344],[77.7221,37.6224],[77.7039,37.5955],[77.6902,37.5859],[77.6658,37.5868],[77.6531,37.5634],[77.6603,37.544],[77.6644,37.4776],[77.6672,37.4438],[77.6551,37.4212],[77.6524,37.4075],[77.6411,37.392],[77.6362,37.3762],[77.6307,37.3446],[77.6095,37.3142],[77.5964,37.3011],[77.6071,37.2825],[77.6284,37.276],[77.6431,37.2642],[77.6404,37.235],[77.6521,37.2265],[77.649,37.218],[77.6582,37.2016],[77.6579,37.1912],[77.6462,37.1833],[77.6637,37.1647],[77.6617,37.1477],[77.6778,37.1275],[77.6768,37.1113],[77.6644,37.0902],[77.6672,37.0779],[77.6524,37.0697],[77.6472,37.0431],[77.6582,37.0154],[77.65,37.002],[77.6445,36.9784],[77.6198,36.9603],[77.6081,36.9362],[77.5751,36.9356],[77.5497,36.9323],[77.5185,36.9355],[77.5155,36.9133],[77.519,36.8988],[77.5169,36.892],[77.5199,36.8735],[77.5267,36.8695],[77.5348,36.8544],[77.5293,36.8476],[77.5021,36.8396],[77.4954,36.831],[77.4867,36.8027],[77.4877,36.7944],[77.5017,36.7791],[77.5231,36.7636],[77.557,36.7472],[77.5659,36.7372],[77.5828,36.7246],[77.6166,36.7066],[77.6349,36.6947],[77.6452,36.6815],[77.6435,36.6704],[77.6323,36.6658],[77.6352,36.6531],[77.627,36.6536],[77.6218,36.6431],[77.615,36.6453],[77.5966,36.6414],[77.575,36.6341],[77.5722,36.6239],[77.5839,36.6229],[77.5805,36.6113],[77.5666,36.609],[77.54,36.6146],[77.5253,36.6021],[77.5124,36.5967],[77.5112,36.5825],[77.5039,36.5652],[77.4888,36.5532],[77.4708,36.5574],[77.4591,36.5554],[77.4479,36.544],[77.4196,36.5473],[77.405,36.5473],[77.4071,36.5305],[77.3984,36.5089],[77.4128,36.5009],[77.4182,36.4944],[77.4337,36.4882],[77.4436,36.4916],[77.4509,36.485],[77.4601,36.4885],[77.4784,36.4807],[77.4841,36.4845],[77.4926,36.4792],[77.5062,36.477],[77.5158,36.4793],[77.5267,36.4679],[77.5454,36.4622],[77.5571,36.4763],[77.5661,36.4791],[77.5732,36.4869],[77.5956,36.4928],[77.6089,36.4778],[77.6173,36.4782],[77.627,36.4849],[77.6282,36.4984],[77.653,36.5021],[77.6592,36.4993],[77.6601,36.4883],[77.6938,36.4926],[77.7014,36.496],[77.7243,36.4817],[77.7321,36.4832],[77.7618,36.4769],[77.7678,36.4816],[77.779,36.4808],[77.7965,36.4666],[77.8122,36.4621],[77.8259,36.4631],[77.8463,36.4601],[77.8561,36.4565],[77.8637,36.4593],[77.8796,36.4498],[77.8946,36.4487],[77.9177,36.4587],[77.9452,36.4634],[77.9598,36.459],[77.9751,36.4598],[78.0036,36.4716],[78.0074,36.4795],[78.0236,36.4925],[78.0342,36.4971],[78.0452,36.5123],[78.0434,36.5252],[78.047,36.5351],[78.0366,36.5429],[78.0304,36.5526],[78.0101,36.5685],[77.9918,36.5685],[77.9852,36.5903],[77.9404,36.6058],[77.9269,36.613],[77.9192,36.6204],[77.9194,36.6341],[77.9246,36.6441],[77.9345,36.6511],[77.9442,36.6479],[77.96,36.6554],[77.9721,36.6566],[77.9847,36.6675],[78.0153,36.6713],[78.0214,36.6929],[78.016,36.7159],[77.984,36.7096],[77.9812,36.7187],[77.9947,36.7396],[77.9852,36.7631],[77.9863,36.7711],[77.9768,36.7778],[77.9751,36.8071],[78,36.827],[77.9985,36.8407],[77.9908,36.8534],[77.9923,36.861],[77.9851,36.8851],[77.9987,36.9051],[78.0022,36.9149],[78.0003,36.9297],[78.0023,36.9363],[78.0284,36.9365],[78.0527,36.9312],[78.0695,36.9249],[78.0817,36.9096],[78.0941,36.898],[78.1127,36.8946],[78.1488,36.8927],[78.166,36.8945],[78.1822,36.8918],[78.2318,36.9005],[78.2374,36.8914],[78.2384,36.8784],[78.2313,36.8673],[78.2178,36.8564],[78.2127,36.8461],[78.2117,36.8335],[78.2147,36.8218],[78.2127,36.8121],[78.1849,36.7974],[78.1804,36.797],[78.171,36.7755],[78.173,36.7654],[78.1829,36.7476],[78.1922,36.7255],[78.2007,36.7197],[78.2144,36.7161],[78.2366,36.6999],[78.2308,36.6796],[78.2179,36.6632],[78.2404,36.657],[78.2579,36.6439],[78.2726,36.6436],[78.3048,36.6545],[78.3179,36.6621],[78.3313,36.6743],[78.3552,36.6704],[78.368,36.679],[78.3796,36.6687],[78.3889,36.6689],[78.4184,36.6846],[78.4362,36.679],[78.4364,36.6471],[78.4495,36.6363],[78.467,36.6083],[78.4847,36.6015],[78.4899,36.5899],[78.4906,36.58],[78.4852,36.5633],[78.486,36.5346],[78.5194,36.5137],[78.5459,36.5018],[78.55,36.4816],[78.5688,36.4705],[78.5896,36.4772],[78.5986,36.4641],[78.6182,36.4633],[78.6287,36.4587],[78.64,36.4485],[78.6587,36.4443],[78.6444,36.4183],[78.6377,36.4098],[78.6457,36.3981],[78.6456,36.385],[78.6506,36.3704],[78.6446,36.3512],[78.6448,36.3321],[78.6539,36.3222],[78.747,36.3192],[78.7582,36.3129],[78.7674,36.3143],[78.7826,36.3213],[78.7837,36.3277],[78.8024,36.334],[78.8043,36.3439],[78.8106,36.3516],[78.827,36.3427],[78.8402,36.3463],[78.8557,36.3646],[78.874,36.373],[78.8767,36.382],[78.8874,36.3836],[78.8969,36.3913],[78.8996,36.4021],[78.9078,36.4068],[78.9041,36.4145],[78.9065,36.4253],[78.9121,36.4284],[78.9104,36.4438],[78.9215,36.4488],[78.9346,36.4633],[78.9262,36.4763],[78.9337,36.4877],[78.9555,36.4922],[78.9628,36.4985],[78.9763,36.504],[78.9842,36.5126],[78.9963,36.509],[79.0073,36.5239],[79.0367,36.5272],[79.0533,36.5449],[79.0549,36.553],[79.0689,36.5596],[79.0731,36.5696],[79.0691,36.5753],[79.0804,36.5835],[79.0881,36.5933],[79.0939,36.6061],[79.0791,36.618],[79.0874,36.6242],[79.0987,36.6389],[79.1318,36.623],[79.1577,36.6255]],[[78.6682,36.741],[78.6635,36.7266],[78.6486,36.7154],[78.6183,36.7195],[78.6117,36.7372],[78.6048,36.745],[78.5832,36.746],[78.5776,36.7508],[78.5811,36.7648],[78.5923,36.7676],[78.5953,36.7786],[78.6027,36.7889],[78.6276,36.7987],[78.633,36.805],[78.6464,36.8047],[78.6606,36.8132],[78.6681,36.8088],[78.6717,36.7928],[78.6789,36.7875],[78.6718,36.7787],[78.6578,36.7754],[78.6606,36.7686],[78.6531,36.7572],[78.6682,36.741]],[[78.3296,37.6155],[78.3405,37.6207],[78.3369,37.6281],[78.339,37.6399],[78.3575,37.6553],[78.3511,37.6616],[78.3483,37.7308],[78.5109,37.8276],[78.5931,37.7376],[78.6008,37.5727],[78.5285,37.573],[78.5232,37.5575],[78.513,37.566],[78.4997,37.5653],[78.4876,37.5683],[78.4887,37.6168],[78.4779,37.6155],[78.4388,37.6421],[78.4105,37.6214],[78.3997,37.6218],[78.3855,37.617],[78.3666,37.617],[78.3477,37.6078],[78.3278,37.6041],[78.3296,37.6155]]]},"properties":{"region_code":"CN-65-6532-653223","parent_region_code":"CN-65-6532","name":"皮山县","level":"county","has_children":false,"full_path":"中国 / 新疆维吾尔自治区 / 和田地区 / 皮山县","source_admin_code":"653223","osm_relation_id":2748337}},
{"type":"Feature","geometry":{"type":"Polygon","coordinates":[[[79.8908,36.9184],[79.8891,36.9054],[79.9027,36.893],[79.9127,36.8809],[79.9415,36.8565],[79.9497,36.8471],[79.9626,36.8397],[79.9712,36.8292],[80.0035,36.8293],[80.0165,36.8265],[80.0469,36.8236],[80.064,36.818],[80.0909,36.8038],[80.0973,36.7892],[80.1235,36.7656],[80.123,36.7512],[80.1028,36.7158],[80.1399,36.6849],[80.1408,36.6772],[80.1703,36.6435],[80.1944,36.6183],[80.2314,36.585],[80.2272,36.5703],[80.2328,36.5649],[80.2341,36.5446],[80.2388,36.5273],[80.255,36.5196],[80.264,36.5255],[80.2736,36.5257],[80.2869,36.5335],[80.2941,36.5286],[80.3036,36.5245],[80.338,36.5153],[80.3476,36.5081],[80.3695,36.5178],[80.3818,36.5212],[80.3923,36.5189],[80.4067,36.5262],[80.4185,36.5254],[80.4385,36.532],[80.4494,36.5378],[80.4515,36.5436],[80.4402,36.5651],[80.4409,36.58],[80.4539,36.6108],[80.4443,36.6246],[80.467,36.642],[80.4549,36.6618],[80.4584,36.6737],[80.4714,36.6836],[80.4821,36.6993],[80.4821,36.7064],[80.4955,36.7185],[80.5215,36.7295],[80.5284,36.7471],[80.5246,36.7642],[80.5349,36.8085],[80.5521,36.828],[80.5583,36.8318],[80.5494,36.8535],[80.5772,36.9938],[80.5803,37.0009],[80.5892,37.05],[80.5943,37.1184],[80.6369,37.2071],[80.9943,37.9626],[81.0122,37.9997],[81.0276,38.0405],[81.1382,38.3338],[81.2875,38.6834],[81.4966,39.2171],[81.5148,39.2482],[81.5162,39.3197],[81.5203,39.4842],[81.0805,39.4832],[80.8923,39.4807],[80.888,39.4726],[80.8856,39.4548],[80.8777,39.4239],[80.8827,39.4111],[80.9023,39.385],[80.9104,39.3776],[80.9167,39.3545],[80.8958,39.3112],[80.9047,39.2822],[80.9119,39.2679],[80.9081,39.2357],[80.9006,39.1916],[80.9023,39.1615],[80.8985,39.1407],[80.9102,39.1221],[80.9146,39.1064],[80.9097,39.0499],[80.898,39.0283],[80.893,39.0149],[80.8954,38.9981],[80.8851,38.9674],[80.8759,38.9469],[80.8793,38.9324],[80.8862,38.9311],[80.8896,38.9228],[80.8755,38.8958],[80.8501,38.8787],[80.8415,38.8639],[80.8328,38.8408],[80.8417,38.8161],[80.8612,38.7927],[80.8816,38.7879],[80.937,38.7638],[80.943,38.7503],[80.953,38.7172],[80.9485,38.6997],[80.9473,38.67],[80.9423,38.6478],[80.9512,38.6288],[80.9461,38.6163],[80.9315,38.6036],[80.9267,38.5909],[80.9161,38.5786],[80.9212,38.5593],[80.918,38.5414],[80.9229,38.5209],[80.9195,38.5079],[80.8909,38.4847],[80.8916,38.4696],[80.8824,38.4549],[80.8662,38.4406],[80.8689,38.4112],[80.8678,38.4023],[80.8599,38.391],[80.8347,38.3707],[80.8172,38.3491],[80.8,38.3356],[80.795,38.3254],[80.7773,38.3152],[80.7562,38.3091],[80.7306,38.2998],[80.7028,38.2865],[80.6932,38.279],[80.6481,38.2567],[80.6325,38.238],[80.6155,38.228],[80.6047,38.2181],[80.6033,38.1969],[80.5884,38.1757],[80.597,38.1489],[80.5979,38.1324],[80.5924,38.1225],[80.5772,38.1095],[80.5673,38.0978],[80.561,38.0849],[80.5625,38.0778],[80.5797,38.0706],[80.5801,38.0643],[80.5685,38.0449],[80.5573,38.0368],[80.5449,38.0331],[80.5257,38.0201],[80.5074,38.0019],[80.5085,37.9881],[80.521,37.9856],[80.5205,37.9782],[80.5015,37.9664],[80.4819,37.9631],[80.4793,37.9584],[80.4897,37.9464],[80.4861,37.9386],[80.4687,37.9338],[80.4666,37.9293],[80.4791,37.9223],[80.483,37.9119],[80.4755,37.9043],[80.4734,37.8965],[80.4854,37.8827],[80.4819,37.8745],[80.4539,37.8623],[80.4759,37.8263],[80.4841,37.8044],[80.4728,37.7661],[80.4546,37.6941],[80.446,37.6553],[80.433,37.6074],[80.0799,37.4359],[80.02,37.4071],[80.0011,37.3968],[79.9875,37.3946],[79.9822,37.3667],[79.9636,37.3431],[79.961,37.3355],[79.9683,37.3281],[80.1274,37.3285],[80.1272,37.2821],[80.1097,37.2653],[80.1106,37.2277],[80.096,37.2127],[80.0864,37.21],[80.0541,37.1903],[80.0538,37.1782],[80.046,37.1729],[80.0248,37.1707],[80.0145,37.1533],[80.0366,37.1553],[80.0438,37.1505],[80.0424,37.1362],[80.0345,37.1292],[80.0205,37.1243],[80.0091,37.124],[80.0083,37.1099],[79.9915,37.0855],[79.9859,37.0712],[79.9754,37.0532],[79.9581,37.0454],[79.9451,37.0455],[79.9436,37.0301],[79.939,37.0217],[79.9438,37.014],[79.9349,36.9931],[79.9334,36.9799],[79.9199,36.9731],[79.9147,36.9617],[79.908,36.9614],[79.9006,36.9503],[79.9015,36.943],[79.8953,36.9308],[79.8982,36.918],[79.8908,36.9184]]]},"properties":{"region_code":"CN-65-6532-653224","parent_region_code":"CN-65-6532","name":"洛浦县","level":"county","has_children":false,"full_path":"中国 / 新疆维吾尔自治区 / 和田地区 / 洛浦县","source_admin_code":"653224","osm_relation_id":2748335}},
{"type":"Feature","geometry":{"type":"MultiPolygon","coordinates":[[[[80.584,36.0917],[80.5986,36.1021],[80.6016,36.1141],[80.582,36.1155],[80.5864,36.0979],[80.584,36.0917]]],[[[80.4292,35.4498],[80.4422,35.4485],[80.439,35.4278],[80.4458,35.418],[80.4709,35.414],[80.486,35.407],[80.5018,35.4081],[80.5021,35.3976],[80.5104,35.3937],[80.5198,35.3952],[80.5374,35.4084],[80.5495,35.3982],[80.5776,35.3962],[80.598,35.4107],[80.6365,35.3951],[80.6546,35.3983],[80.6628,35.3721],[80.6885,35.3677],[80.6844,35.3491],[80.6973,35.3383],[80.7579,35.3356],[80.8423,35.3464],[80.8923,35.3251],[80.9343,35.3282],[80.9508,35.3136],[81.0273,35.3146],[81.0482,35.3366],[81.0266,35.3824],[81.0334,35.393],[81.0956,35.4108],[81.1013,35.3893],[81.1162,35.3879],[81.1396,35.3659],[81.1782,35.3716],[81.1918,35.3656],[81.2048,35.3261],[81.2169,35.3201],[81.2378,35.3297],[81.253,35.3253],[81.2653,35.3433],[81.2947,35.3448],[81.3171,35.3371],[81.3325,35.3488],[81.3523,35.3398],[81.3848,35.3384],[81.4251,35.3599],[81.4459,35.3543],[81.4618,35.3378],[81.4672,35.3149],[81.4981,35.3056],[81.5171,35.3105],[81.5268,35.339],[81.541,35.3676],[81.5564,35.3929],[81.5763,35.4187],[81.5826,35.4316],[81.583,35.4671],[81.576,35.49],[81.5801,35.496],[81.5992,35.4987],[81.5959,35.5108],[81.5837,35.5237],[81.5768,35.5356],[81.5693,35.5763],[81.5722,35.5905],[81.572,35.6077],[81.5661,35.6301],[81.557,35.6335],[81.5376,35.6349],[81.5209,35.6414],[81.4849,35.6454],[81.4606,35.6507],[81.4416,35.6638],[81.436,35.6784],[81.4264,35.6838],[81.4049,35.6916],[81.3966,35.7023],[81.3968,35.7078],[81.407,35.7221],[81.411,35.7368],[81.4075,35.7615],[81.3964,35.7745],[81.3779,35.7823],[81.3681,35.7973],[81.3652,35.8232],[81.3695,35.8369],[81.3884,35.8573],[81.4077,35.8685],[81.4196,35.8803],[81.4318,35.8999],[81.4428,35.921],[81.4469,35.9254],[81.4689,35.9293],[81.477,35.934],[81.4635,35.9526],[81.4742,35.9788],[81.4808,35.9885],[81.4827,36],[81.4911,36.0172],[81.4846,36.0233],[81.4794,36.0384],[81.4616,36.0521],[81.4576,36.0582],[81.4637,36.0786],[81.4631,36.0866],[81.4705,36.1175],[81.4633,36.1319],[81.4403,36.1407],[81.4259,36.152],[81.4237,36.1575],[81.4353,36.2091],[81.4374,36.2286],[81.4354,36.2435],[81.4306,36.2571],[81.4202,36.2748],[81.4069,36.2911],[81.3996,36.3063],[81.3888,36.3195],[81.3847,36.3534],[81.3527,36.4139],[81.2823,36.6629],[81.1292,36.901],[81.1224,36.9757],[81.2508,37.2872],[81.3441,37.5021],[81.384,37.6621],[81.5048,37.9464],[81.6641,38.3363],[82.0006,38.9119],[82.0741,39.1402],[82.1767,39.485],[82.0047,39.4842],[81.5203,39.4842],[81.5162,39.3197],[81.5148,39.2482],[81.4966,39.2171],[81.2875,38.6834],[81.1382,38.3338],[81.0276,38.0405],[81.0122,37.9997],[80.9943,37.9626],[80.6369,37.2071],[80.5943,37.1184],[80.5892,37.05],[80.5803,37.0009],[80.5772,36.9938],[80.5494,36.8535],[80.5583,36.8318],[80.5521,36.828],[80.5349,36.8085],[80.5246,36.7642],[80.5284,36.7471],[80.5215,36.7295],[80.4955,36.7185],[80.4821,36.7064],[80.4821,36.6993],[80.4714,36.6836],[80.4584,36.6737],[80.4549,36.6618],[80.467,36.642],[80.4443,36.6246],[80.4539,36.6108],[80.4409,36.58],[80.4402,36.5651],[80.4515,36.5436],[80.4494,36.5378],[80.4385,36.532],[80.4185,36.5254],[80.4067,36.5262],[80.3923,36.5189],[80.3818,36.5212],[80.3695,36.5178],[80.3476,36.5081],[80.338,36.5153],[80.3036,36.5245],[80.2941,36.5286],[80.3029,36.5173],[80.3095,36.4985],[80.3029,36.4892],[80.3161,36.4704],[80.3002,36.4625],[80.3085,36.4508],[80.3052,36.4446],[80.3114,36.4216],[80.3039,36.4165],[80.3142,36.4028],[80.3148,36.3946],[80.3037,36.3895],[80.2891,36.3871],[80.2903,36.3698],[80.2873,36.3638],[80.2706,36.3532],[80.2636,36.3437],[80.2608,36.3324],[80.2472,36.317],[80.2468,36.308],[80.2338,36.3038],[80.2294,36.2973],[80.2032,36.2831],[80.1941,36.2683],[80.1834,36.2565],[80.1403,36.2311],[80.1268,36.214],[80.1321,36.2046],[80.1317,36.1952],[80.1379,36.1892],[80.1347,36.1762],[80.1358,36.1677],[80.1307,36.1444],[80.1212,36.1366],[80.1252,36.1329],[80.1215,36.1226],[80.1237,36.0884],[80.1108,36.0779],[80.1115,36.0629],[80.1159,36.0596],[80.1193,36.047],[80.1169,36.0298],[80.1115,36.0242],[80.1135,36.0139],[80.1209,36.0048],[80.1149,35.9941],[80.1008,35.9877],[80.09,35.9708],[80.0926,35.9561],[80.0999,35.9374],[80.1151,35.9322],[80.1233,35.9236],[80.1127,35.9116],[80.1123,35.9069],[80.1249,35.8881],[80.1222,35.8775],[80.1132,35.8817],[80.1057,35.8753],[80.0879,35.8688],[80.0558,35.8526],[80.0694,35.8414],[80.0736,35.8334],[80.0905,35.8115],[80.0904,35.8042],[80.0828,35.7932],[80.0824,35.7859],[80.0702,35.7713],[80.0596,35.7687],[80.0664,35.7611],[80.0683,35.7457],[80.0903,35.7395],[80.1072,35.7279],[80.1166,35.7163],[80.1253,35.7142],[80.147,35.6993],[80.1646,35.6742],[80.1647,35.6669],[80.1716,35.6611],[80.1717,35.6487],[80.1755,35.64],[80.1752,35.6262],[80.181,35.6175],[80.1983,35.6022],[80.205,35.579],[80.2249,35.5548],[80.233,35.5597],[80.2419,35.5548],[80.25,35.5569],[80.2634,35.5691],[80.281,35.5528],[80.289,35.557],[80.2986,35.5557],[80.3045,35.5456],[80.3022,35.5328],[80.3159,35.5281],[80.3293,35.5345],[80.3396,35.531],[80.3434,35.5179],[80.3535,35.5063],[80.3673,35.5052],[80.3873,35.4974],[80.3988,35.4997],[80.4121,35.4842],[80.4135,35.4661],[80.4232,35.4519],[80.4292,35.4498]],[[80.7915,36.3028],[80.8028,36.2982],[80.807,36.2869],[80.8085,36.2666],[80.8015,36.2475],[80.8112,36.2471],[80.8189,36.2339],[80.826,36.2315],[80.8323,36.2229],[80.8425,36.1856],[80.8388,36.1817],[80.8031,36.17],[80.7902,36.163],[80.7823,36.1826],[80.7742,36.1835],[80.7603,36.1776],[80.7565,36.173],[80.7438,36.1709],[80.7403,36.1613],[80.743,36.1519],[80.7316,36.1391],[80.7344,36.1258],[80.7274,36.1185],[80.716,36.115],[80.714,36.1225],[80.6955,36.1441],[80.7113,36.1473],[80.7204,36.1386],[80.7263,36.1443],[80.7268,36.1524],[80.7341,36.1629],[80.732,36.1705],[80.717,36.1841],[80.7022,36.1837],[80.7024,36.2042],[80.714,36.2213],[80.7182,36.237],[80.7217,36.2614],[80.7337,36.2565],[80.7517,36.2735],[80.7712,36.2891],[80.7731,36.3009],[80.7915,36.3028]],[[80.5905,36.1802],[80.5988,36.1713],[80.6185,36.1762],[80.6475,36.1811],[80.6594,36.1651],[80.6747,36.1641],[80.6588,36.1421],[80.6565,36.1335],[80.6249,36.1164],[80.6086,36.1189],[80.608,36.1023],[80.6004,36.079],[80.5873,36.0803],[80.5848,36.0854],[80.5715,36.0962],[80.5749,36.1054],[80.5689,36.1176],[80.5389,36.1258],[80.5317,36.1368],[80.5338,36.1538],[80.543,36.1642],[80.5559,36.1671],[80.5717,36.1774],[80.5905,36.1802]],[[80.7783,36.0981],[80.7663,36.0979],[80.7477,36.0915],[80.7339,36.0819],[80.7194,36.0682],[80.7184,36.0603],[80.731,36.0498],[80.7343,36.042],[80.7515,36.0326],[80.7432,36.025],[80.7115,36.0462],[80.7155,36.0895],[80.7252,36.1015],[80.7621,36.1175],[80.7756,36.1203],[80.7823,36.1173],[80.7783,36.0981]],[[81.1262,36.0898],[81.1454,36.095],[81.1536,36.0943],[81.1557,36.0848],[81.1499,36.0796],[81.1305,36.0499],[81.1367,36.0227],[81.1423,36.0073],[81.1592,35.9869],[81.1574,35.9817],[81.1355,35.9781],[81.1206,35.9689],[81.1021,35.9779],[81.0985,35.9928],[81.0938,36.025],[81.0891,36.0299],[81.0614,36.038],[81.0406,36.0539],[81.0293,36.0753],[81.0145,36.0833],[81.0049,36.0838],[80.9984,36.1012],[80.982,36.1007],[80.9894,36.0861],[80.9892,36.0806],[80.9994,36.0682],[81.004,36.0574],[81.0182,36.0527],[81.0242,36.0414],[81.0126,36.041],[81.0078,36.0493],[80.998,36.0465],[81.0015,36.0315],[81.0075,36.0258],[81.0051,36.0037],[81.0173,35.997],[81.0233,35.9897],[81.0264,35.9699],[81.0204,35.9586],[81.0075,35.9663],[80.9934,35.9868],[80.9671,36.0185],[80.96,36.0234],[80.9654,36.04],[80.9591,36.0406],[80.9531,36.0488],[80.9541,36.0601],[80.9495,36.0711],[80.9457,36.0962],[80.9537,36.1006],[80.9583,36.0968],[80.9587,36.0935],[80.9616,36.0934],[80.967,36.0884],[80.9671,36.0866],[80.9813,36.0701],[80.9832,36.072],[80.9687,36.0857],[80.9686,36.0884],[80.9636,36.0927],[80.9593,36.0943],[80.9592,36.0977],[80.956,36.0993],[80.9501,36.109],[80.9451,36.1128],[80.931,36.1141],[80.9061,36.0968],[80.8789,36.0812],[80.8704,36.0883],[80.8637,36.1041],[80.8783,36.1132],[80.8983,36.1378],[80.8793,36.1444],[80.879,36.1553],[80.8615,36.1465],[80.8465,36.1275],[80.8312,36.1217],[80.7934,36.1372],[80.7951,36.147],[80.821,36.1446],[80.8392,36.1523],[80.8607,36.1665],[80.8798,36.175],[80.8907,36.1696],[80.9276,36.1628],[80.96,36.1606],[80.9647,36.1747],[80.9827,36.1881],[81.001,36.2043],[81.0092,36.1932],[81.0174,36.1896],[81.0294,36.1966],[81.0406,36.1975],[81.0399,36.1746],[81.0574,36.1699],[81.0708,36.1691],[81.0796,36.1748],[81.0951,36.1904],[81.1059,36.1961],[81.1081,36.186],[81.1064,36.1678],[81.097,36.1529],[81.0851,36.1562],[81.0768,36.1481],[81.0938,36.1452],[81.0867,36.1326],[81.0874,36.1222],[81.081,36.1166],[81.0765,36.1043],[81.0784,36.0908],[81.0947,36.0835],[81.1,36.0727],[81.1172,36.0714],[81.1262,36.0898]],[[80.9417,36.0959],[80.9395,36.0864],[80.9309,36.0767],[80.9091,36.0648],[80.9084,36.04],[80.906,36.0206],[80.8968,36.0167],[80.8846,36.0226],[80.8874,36.0348],[80.8791,36.0547],[80.8579,36.0406],[80.8481,36.0364],[80.8511,36.0535],[80.8583,36.0704],[80.8759,36.0735],[80.8904,36.0848],[80.913,36.0958],[80.9314,36.1078],[80.9417,36.0959]],[[80.7897,36.0864],[80.7997,36.0769],[80.7894,36.0472],[80.7754,36.0348],[80.7674,36.0463],[80.7821,36.0769],[80.7897,36.0864]],[[81.3046,36.5028],[81.3051,36.4869],[81.3205,36.4623],[81.3226,36.4453],[81.3305,36.4353],[81.3283,36.4074],[81.3064,36.4099],[81.2676,36.57],[81.2865,36.57],[81.2855,36.5536],[81.2988,36.5265],[81.3001,36.5097],[81.3046,36.5028]],[[81.0507,36.315],[81.0465,36.2823],[81.0496,36.2618],[81.045,36.2513],[81.0343,36.2527],[81.0289,36.2597],[81.0353,36.3117],[81.0254,36.3126],[81.0256,36.323],[81.0408,36.3309],[81.0532,36.3297],[81.0507,36.315]],[[80.466,36.257],[80.473,36.2428],[80.4863,36.2362],[80.4884,36.2315],[80.5021,36.2236],[80.5238,36.224],[80.5244,36.2191],[80.5119,36.2062],[80.5073,36.1958],[80.478,36.2019],[80.4636,36.1832],[80.4621,36.1767],[80.4765,36.1748],[80.4838,36.1789],[80.5003,36.1801],[80.5003,36.1658],[80.4844,36.1631],[80.4721,36.1657],[80.4503,36.1603],[80.4518,36.1513],[80.4475,36.1311],[80.4401,36.1281],[80.4281,36.1425],[80.4176,36.1515],[80.4189,36.1689],[80.4137,36.1817],[80.4152,36.1898],[80.4125,36.1956],[80.4059,36.2214],[80.4137,36.2283],[80.4283,36.223],[80.4398,36.2151],[80.4427,36.2079],[80.4594,36.2062],[80.4715,36.2083],[80.4629,36.2288],[80.4524,36.2355],[80.4518,36.2469],[80.4608,36.2601],[80.466,36.257]],[[81.1978,36.2403],[81.2066,36.2365],[81.2096,36.2225],[81.1634,36.222],[81.1625,36.2379],[81.1978,36.2403]],[[81.307,36.2235],[81.3215,36.2163],[81.3374,36.2125],[81.3687,36.2105],[81.3776,36.2049],[81.3812,36.1842],[81.3712,36.1764],[81.353,36.1704],[81.3387,36.1411],[81.3293,36.1372],[81.3175,36.1393],[81.3151,36.1245],[81.305,36.1231],[81.276,36.1284],[81.2765,36.151],[81.2717,36.1627],[81.2788,36.1651],[81.2996,36.1616],[81.3142,36.1531],[81.32,36.1667],[81.3107,36.1776],[81.2968,36.1791],[81.2811,36.1859],[81.2664,36.1853],[81.2607,36.1713],[81.2474,36.1617],[81.2555,36.1376],[81.2682,36.1331],[81.2638,36.1254],[81.2388,36.1209],[81.2295,36.1235],[81.2322,36.1462],[81.2372,36.1591],[81.2475,36.1728],[81.2598,36.1826],[81.2661,36.1925],[81.2657,36.207],[81.272,36.2161],[81.2812,36.2207],[81.2881,36.2319],[81.307,36.2235]],[[81.1797,36.2013],[81.2029,36.1952],[81.2234,36.1964],[81.2391,36.1915],[81.2602,36.1925],[81.2468,36.18],[81.2301,36.1589],[81.2144,36.1636],[81.1969,36.1638],[81.1761,36.1723],[81.1679,36.1737],[81.1515,36.1833],[81.1542,36.1917],[81.1612,36.1967],[81.1652,36.2067],[81.1797,36.2013]],[[81.1849,36.1595],[81.1903,36.1532],[81.1827,36.1402],[81.1639,36.1469],[81.1365,36.1506],[81.1495,36.1763],[81.1642,36.1693],[81.1684,36.1636],[81.1849,36.1595]],[[80.3832,36.1399],[80.3833,36.1265],[80.3782,36.1175],[80.3826,36.1091],[80.3647,36.1091],[80.3551,36.1199],[80.3559,36.1283],[80.3773,36.1454],[80.3832,36.1399]]]]},"properties":{"region_code":"CN-65-6532-653225","parent_region_code":"CN-65-6532","name":"策勒县","level":"county","has_children":false,"full_path":"中国 / 新疆维吾尔自治区 / 和田地区 / 策勒县","source_admin_code":"653225","osm_relation_id":2748338}},
{"type":"Feature","geometry":{"type":"Polygon","coordinates":[[[81.4981,35.3056],[81.4966,35.2911],[81.5653,35.2393],[81.6723,35.2346],[81.7311,35.2603],[81.8009,35.2768],[81.8607,35.2611],[81.8908,35.2858],[81.9385,35.3012],[81.9233,35.3172],[81.9372,35.3258],[81.993,35.3245],[82.0134,35.3287],[82.0454,35.3634],[82.042,35.4493],[82.0681,35.4513],[82.0784,35.4653],[82.1294,35.4813],[82.1568,35.5014],[82.1835,35.4946],[82.1923,35.5189],[82.2317,35.5211],[82.2607,35.5487],[82.2964,35.5456],[82.3169,35.5541],[82.3315,35.5663],[82.3278,35.5862],[82.3474,35.6117],[82.3332,35.652],[82.39,35.6567],[82.4059,35.7],[82.4222,35.7133],[82.4658,35.718],[82.5112,35.6985],[82.5435,35.7093],[82.626,35.6931],[82.6496,35.6739],[82.7286,35.6386],[82.7776,35.6669],[82.7899,35.6874],[82.7841,35.6966],[82.7605,35.7147],[82.7772,35.7276],[82.7834,35.7376],[82.7882,35.761],[82.7648,35.785],[82.7204,35.7846],[82.7105,35.8063],[82.6846,35.8308],[82.6575,35.8409],[82.6397,35.8501],[82.6397,35.862],[82.6476,35.8684],[82.6684,35.8794],[82.6732,35.8872],[82.6717,35.8989],[82.6731,35.92],[82.67,35.934],[82.6713,35.9519],[82.6631,35.9732],[82.6492,35.9865],[82.654,35.9922],[82.6724,36],[82.674,36.0196],[82.6865,36.033],[82.6695,36.0415],[82.6695,36.0578],[82.6622,36.0813],[82.645,36.1129],[82.6326,36.138],[82.6048,36.175],[82.6172,36.2135],[82.6077,36.2307],[82.597,36.2341],[82.5653,36.2273],[82.5359,36.2276],[82.5042,36.2349],[82.4897,36.2421],[82.4772,36.2576],[82.472,36.2712],[82.4711,36.2852],[82.4896,36.2958],[82.501,36.3079],[82.5035,36.322],[82.5169,36.3313],[82.5241,36.3412],[82.5183,36.3634],[82.5211,36.3713],[82.5387,36.3947],[82.5576,36.4147],[82.5725,36.4272],[82.574,36.4365],[82.5703,36.4444],[82.5471,36.4642],[82.5475,36.4752],[82.5633,36.4883],[82.5922,36.5003],[82.6148,36.5132],[82.6242,36.5213],[82.6319,36.5357],[82.6369,36.5656],[82.6365,36.5762],[82.6529,36.5841],[82.6378,36.5965],[82.6404,36.6279],[82.6391,36.6625],[82.6309,36.6957],[82.6204,36.7186],[82.6076,36.7345],[82.5986,36.7395],[82.5729,36.7628],[82.5606,36.77],[82.5376,36.8113],[82.5233,36.8282],[82.5162,36.8263],[82.5025,36.8533],[82.4778,36.8851],[82.3968,36.991],[82.4016,37.1521],[82.4325,37.3614],[82.495,37.9691],[82.4987,37.997],[82.5018,38.0081],[82.5018,38.0227],[82.5128,39.4844],[82.1767,39.485],[82.0741,39.1402],[82.0006,38.9119],[81.6641,38.3363],[81.5048,37.9464],[81.384,37.6621],[81.3441,37.5021],[81.2508,37.2872],[81.1224,36.9757],[81.1292,36.901],[81.2823,36.6629],[81.3527,36.4139],[81.3847,36.3534],[81.3888,36.3195],[81.3996,36.3063],[81.4069,36.2911],[81.4202,36.2748],[81.4306,36.2571],[81.4354,36.2435],[81.4374,36.2286],[81.4353,36.2091],[81.4237,36.1575],[81.4259,36.152],[81.4403,36.1407],[81.4633,36.1319],[81.4705,36.1175],[81.4631,36.0866],[81.4637,36.0786],[81.4576,36.0582],[81.4616,36.0521],[81.4794,36.0384],[81.4846,36.0233],[81.4911,36.0172],[81.4827,36],[81.4808,35.9885],[81.4742,35.9788],[81.4635,35.9526],[81.477,35.934],[81.4689,35.9293],[81.4469,35.9254],[81.4428,35.921],[81.4318,35.8999],[81.4196,35.8803],[81.4077,35.8685],[81.3884,35.8573],[81.3695,35.8369],[81.3652,35.8232],[81.3681,35.7973],[81.3779,35.7823],[81.3964,35.7745],[81.4075,35.7615],[81.411,35.7368],[81.407,35.7221],[81.3968,35.7078],[81.3966,35.7023],[81.4049,35.6916],[81.4264,35.6838],[81.436,35.6784],[81.4416,35.6638],[81.4606,35.6507],[81.4849,35.6454],[81.5209,35.6414],[81.5376,35.6349],[81.557,35.6335],[81.5661,35.6301],[81.572,35.6077],[81.5722,35.5905],[81.5693,35.5763],[81.5768,35.5356],[81.5837,35.5237],[81.5959,35.5108],[81.5992,35.4987],[81.5801,35.496],[81.576,35.49],[81.583,35.4671],[81.5826,35.4316],[81.5763,35.4187],[81.5564,35.3929],[81.541,35.3676],[81.5268,35.339],[81.5171,35.3105],[81.4981,35.3056]],[[81.3117,36.9772],[81.3514,36.9734],[81.3507,36.9542],[81.376,36.9316],[81.3905,36.917],[81.3833,36.9133],[81.3818,36.9],[81.3759,36.8975],[81.3758,36.8835],[81.3445,36.866],[81.3344,36.863],[81.2588,36.8853],[81.2542,36.8956],[81.2444,36.907],[81.2295,36.9491],[81.23,36.9514],[81.2714,36.9462],[81.2593,36.9635],[81.2544,36.9802],[81.3118,36.9874],[81.3117,36.9772]]]},"properties":{"region_code":"CN-65-6532-653226","parent_region_code":"CN-65-6532","name":"于田县","level":"county","has_children":false,"full_path":"中国 / 新疆维吾尔自治区 / 和田地区 / 于田县","source_admin_code":"653226","osm_relation_id":2748334}},
{"type":"Feature","geometry":{"type":"Polygon","coordinates":[[[82.7899,35.6874],[82.8779,35.6892],[82.8922,35.6748],[82.9647,35.6682],[82.9536,35.6371],[82.9788,35.6006],[82.9786,35.557],[82.969,35.5491],[82.9962,35.4853],[83.0646,35.4633],[83.086,35.4261],[83.1237,35.3992],[83.1899,35.3925],[83.2509,35.4215],[83.2942,35.4007],[83.3444,35.3988],[83.3939,35.3823],[83.4475,35.3829],[83.4844,35.3996],[83.5339,35.3665],[83.539,35.3426],[83.5966,35.3522],[83.6194,35.3369],[83.6761,35.3654],[83.7812,35.3681],[83.8024,35.3555],[83.8801,35.3653],[83.8952,35.3986],[83.9117,35.4088],[83.9907,35.4222],[84.0264,35.4105],[84.0567,35.4115],[84.0938,35.3645],[84.1302,35.3757],[84.1786,35.3589],[84.2052,35.3815],[84.2761,35.4058],[84.334,35.415],[84.4498,35.4788],[84.4743,35.515],[84.4553,35.523],[84.4511,35.5484],[84.6987,35.6188],[84.7407,35.6138],[84.8364,35.6401],[84.8517,35.6666],[84.9182,35.6941],[84.9686,35.7045],[84.9838,35.7256],[84.9699,35.7363],[84.9645,35.7472],[84.9552,35.7488],[84.9458,35.7613],[84.9378,35.7655],[84.9157,35.771],[84.9062,35.8141],[84.9113,35.8527],[84.9111,35.8611],[84.9005,35.8708],[84.8822,35.8982],[84.8819,35.9109],[84.8757,35.9217],[84.8734,35.9362],[84.8619,35.9396],[84.8586,35.9473],[84.8657,35.9525],[84.8684,35.969],[84.8651,35.9798],[84.8715,35.9852],[84.8666,35.9932],[84.8681,36.0127],[84.8645,36.0284],[84.8549,36.0404],[84.8454,36.0412],[84.8374,36.0499],[84.8414,36.0582],[84.8399,36.0678],[84.8519,36.0745],[84.8447,36.083],[84.8515,36.0903],[84.8405,36.0993],[84.7923,36.1003],[84.7739,36.1027],[84.763,36.1082],[84.7548,36.1194],[84.7254,36.1235],[84.7212,36.1289],[84.6991,36.1321],[84.6713,36.1508],[84.667,36.1598],[84.6703,36.1829],[84.6539,36.1849],[84.643,36.1919],[84.634,36.1929],[84.6251,36.1998],[84.6151,36.2207],[84.5674,36.2265],[84.563,36.2431],[84.5548,36.2545],[84.5435,36.2598],[84.5448,36.2646],[84.5338,36.2702],[84.5058,36.2706],[84.474,36.2746],[84.4603,36.2788],[84.4491,36.2759],[84.4139,36.2772],[84.4078,36.3103],[84.3829,36.3122],[84.3709,36.309],[84.3605,36.3123],[84.3566,36.3246],[84.3497,36.3292],[84.3488,36.3446],[84.3446,36.3648],[84.3375,36.3712],[84.3488,36.3784],[84.3549,36.3928],[84.3537,36.3981],[84.3376,36.4055],[84.3252,36.4156],[84.3252,36.4223],[84.3158,36.4257],[84.304,36.4247],[84.3095,36.4378],[84.311,36.4559],[84.3171,36.4634],[84.3151,36.4732],[84.3382,36.4894],[84.338,36.5115],[84.3435,36.5253],[84.3439,36.54],[84.3406,36.5557],[84.3277,36.5743],[84.3102,36.5917],[84.2999,36.6116],[84.2869,36.6114],[84.2717,36.615],[84.2573,36.6229],[84.2493,36.6346],[84.25,36.6422],[84.2312,36.6464],[84.2217,36.6565],[84.2079,36.6623],[84.196,36.6612],[84.1856,36.6713],[84.1763,36.6876],[84.1634,36.6952],[84.1464,36.6895],[84.126,36.6944],[84.1055,36.6916],[84.0986,36.6955],[84.0803,36.6955],[84.063,36.7022],[84.0571,36.7207],[84.0422,36.7268],[84.0288,36.7282],[84.01,36.7409],[84.0006,36.7635],[83.9872,36.769],[83.9642,36.7621],[83.9407,36.7618],[83.9305,36.7667],[83.9148,36.7666],[83.9068,36.7777],[83.8987,36.7795],[83.8868,36.7917],[83.8753,36.8001],[83.8589,36.8058],[83.8391,36.8091],[83.8325,36.8192],[83.8338,36.832],[83.847,36.856],[83.8586,36.8676],[83.8566,36.8873],[83.8396,36.9117],[83.8334,36.9356],[83.8316,36.9527],[83.8221,36.9613],[83.8254,36.9731],[83.8267,36.9955],[83.8368,37.0167],[83.8502,37.0306],[83.8541,37.0456],[83.8521,37.0542],[83.8593,37.0677],[83.8591,37.0877],[83.8527,37.1013],[83.8528,37.1173],[83.8448,37.1351],[83.8391,37.1422],[83.8404,37.1513],[83.836,37.1574],[83.8237,37.1885],[83.8156,37.2046],[83.7972,37.2116],[83.7979,37.2321],[83.7954,37.2416],[83.7881,37.2503],[83.8015,37.2596],[83.8217,37.2769],[83.8345,37.284],[83.8611,37.2919],[83.869,37.3097],[83.8829,37.3189],[83.8909,37.3488],[83.9062,37.3651],[83.922,37.3687],[83.9327,37.3826],[83.9581,37.3935],[83.9702,37.4046],[83.974,37.4124],[83.9829,37.447],[83.9715,37.4862],[83.9767,37.4909],[83.9848,37.5146],[83.9866,37.5682],[83.9823,37.5778],[83.9812,37.5938],[83.9872,37.6126],[83.9777,37.6254],[83.976,37.6352],[83.97,37.6458],[83.9611,37.6526],[83.9608,37.6717],[83.9572,37.6817],[83.9585,37.691],[83.9419,37.6995],[83.9414,37.7103],[83.9445,37.7279],[83.9386,37.7422],[83.9417,37.7478],[83.9345,37.7551],[83.9353,37.7649],[83.928,37.7752],[83.9367,37.8042],[83.9379,37.827],[83.9275,37.8571],[83.9134,37.8885],[83.8871,37.9418],[83.8165,38.048],[83.7883,38.0786],[83.7443,38.1161],[83.6327,38.1977],[83.5466,38.2542],[83.4983,38.2828],[83.4727,38.301],[83.4508,38.3198],[83.3831,38.3884],[83.384,39.0085],[83.3921,39.3335],[83.4109,39.4828],[82.5128,39.4844],[82.5018,38.0227],[82.5018,38.0081],[82.4987,37.997],[82.495,37.9691],[82.4325,37.3614],[82.4016,37.1521],[82.3968,36.991],[82.4778,36.8851],[82.5025,36.8533],[82.5162,36.8263],[82.5233,36.8282],[82.5376,36.8113],[82.5606,36.77],[82.5729,36.7628],[82.5986,36.7395],[82.6076,36.7345],[82.6204,36.7186],[82.6309,36.6957],[82.6391,36.6625],[82.6404,36.6279],[82.6378,36.5965],[82.6529,36.5841],[82.6365,36.5762],[82.6369,36.5656],[82.6319,36.5357],[82.6242,36.5213],[82.6148,36.5132],[82.5922,36.5003],[82.5633,36.4883],[82.5475,36.4752],[82.5471,36.4642],[82.5703,36.4444],[82.574,36.4365],[82.5725,36.4272],[82.5576,36.4147],[82.5387,36.3947],[82.5211,36.3713],[82.5183,36.3634],[82.5241,36.3412],[82.5169,36.3313],[82.5035,36.322],[82.501,36.3079],[82.4896,36.2958],[82.4711,36.2852],[82.472,36.2712],[82.4772,36.2576],[82.4897,36.2421],[82.5042,36.2349],[82.5359,36.2276],[82.5653,36.2273],[82.597,36.2341],[82.6077,36.2307],[82.6172,36.2135],[82.6048,36.175],[82.6326,36.138],[82.645,36.1129],[82.6622,36.0813],[82.6695,36.0578],[82.6695,36.0415],[82.6865,36.033],[82.674,36.0196],[82.6724,36],[82.654,35.9922],[82.6492,35.9865],[82.6631,35.9732],[82.6713,35.9519],[82.67,35.934],[82.6731,35.92],[82.6717,35.8989],[82.6732,35.8872],[82.6684,35.8794],[82.6476,35.8684],[82.6397,35.862],[82.6397,35.8501],[82.6575,35.8409],[82.6846,35.8308],[82.7105,35.8063],[82.7204,35.7846],[82.7648,35.785],[82.7882,35.761],[82.7834,35.7376],[82.7772,35.7276],[82.7605,35.7147],[82.7841,35.6966],[82.7899,35.6874]]]},"properties":{"region_code":"CN-65-6532-653227","parent_region_code":"CN-65-6532","name":"民丰县","level":"county","has_children":false,"full_path":"中国 / 新疆维吾尔自治区 / 和田地区 / 民丰县","source_admin_code":"653227","osm_relation_id":2748336}}
]}