{"type":"FeatureCollection", "features": [
{"type":"Feature","geometry":{"type":"Polygon","coordinates":[[[85.2115,41.2976],[85.2553,41.3166],[85.2625,41.283],[85.2884,41.3049],[85.3591,41.3039],[85.3782,41.2894],[85.4414,41.3173],[85.4804,41.2989],[85.4979,41.3093],[85.5257,41.2953],[85.5466,41.3071],[85.5715,41.2964],[85.5978,41.2974],[85.6089,41.2849],[85.6613,41.2999],[85.6738,41.2914],[85.7176,41.2926],[85.7409,41.2631],[85.8035,41.2686],[85.8279,41.2394],[85.8621,41.2598],[85.8989,41.2516],[85.9341,41.2532],[85.9839,41.248],[85.9929,41.2585],[86.047,41.285],[86.0444,41.3427],[86.0249,41.3479],[86.0315,41.3859],[86.072,41.396],[86.0798,41.4126],[86.1063,41.4119],[86.1155,41.4538],[86.1322,41.4763],[86.1308,41.4967],[86.1802,41.5237],[86.2099,41.5558],[86.2224,41.5447],[86.4161,41.5453],[86.3486,41.5665],[86.3202,41.5892],[86.314,41.6201],[86.278,41.6521],[86.3174,41.6618],[86.3454,41.6548],[86.4147,41.6606],[86.4379,41.7518],[86.462,41.7472],[86.4852,41.759],[86.4144,41.766],[86.3709,41.8006],[86.3371,41.8162],[86.3595,41.829],[86.2583,41.8881],[86.2214,41.9069],[86.1402,41.9048],[86.109,41.9],[86.0981,41.9175],[86.068,41.9307],[86.0546,41.9475],[86.0296,41.9514],[86.0134,41.9675],[86.0097,42.0121],[85.9961,42.0181],[85.9245,42.0195],[85.873,42.0117],[85.827,42.0216],[85.7807,42.0253],[85.7491,42.0355],[85.7581,42.0685],[85.7301,42.076],[85.6531,42.1177],[85.6363,42.1323],[85.5161,42.1866],[85.408,42.2171],[85.3468,42.2281],[85.341,42.2418],[85.2601,42.2691],[85.2544,42.249],[85.2615,42.21],[85.2891,42.2138],[85.3072,42.1912],[85.3319,42.1761],[85.3345,42.1464],[85.3263,42.1236],[85.3377,42.1084],[85.3138,42.0861],[85.3192,42.0651],[85.2953,42.0645],[85.2706,42.0517],[85.2609,42.0316],[85.2641,41.993],[85.2355,41.8526],[85.2071,41.7002],[85.2073,41.4475],[85.2173,41.4016],[85.2115,41.2976]],[[85.9255,41.7561],[85.8915,41.7606],[85.8742,41.7771],[85.894,41.822],[85.9315,41.8199],[86.0389,41.7987],[86.0967,41.7969],[86.0876,41.7697],[86.0509,41.7712],[85.9967,41.7621],[85.9778,41.7789],[85.9513,41.7811],[85.9465,41.7581],[85.9255,41.7561]],[[85.6329,41.8795],[85.7349,41.853],[85.7553,41.8375],[85.7985,41.8218],[85.7909,41.8034],[85.7665,41.7971],[85.7638,41.7789],[85.7423,41.758],[85.7699,41.7275],[85.7803,41.6553],[85.7301,41.6583],[85.7267,41.681],[85.703,41.6806],[85.7016,41.7438],[85.4926,41.7431],[85.4834,41.7554],[85.353,41.7499],[85.3687,41.8313],[85.4997,41.8675],[85.5174,41.9443],[85.5637,41.9366],[85.5576,41.9019],[85.6329,41.8795]]]},"properties":{"region_code":"CN-65-6528-652801","parent_region_code":"CN-65-6528","name":"库尔勒市","level":"county","has_children":false,"full_path":"中国 / 新疆维吾尔自治区 / 巴音郭楞蒙古自治州 / 库尔勒市","source_admin_code":"652801","osm_relation_id":2747283}},
{"type":"Feature","geometry":{"type":"Polygon","coordinates":[[[85.2601,42.2691],[85.2626,42.2822],[85.1528,42.2775],[85.1101,42.2988],[85.0697,42.2918],[85.0568,42.2992],[85.0183,42.2954],[84.8973,42.3558],[84.8649,42.3657],[84.8422,42.3574],[84.825,42.3247],[84.7713,42.3064],[84.7307,42.3582],[84.6836,42.3764],[84.5994,42.3881],[84.493,42.4316],[84.4267,42.4423],[84.322,42.442],[84.2726,42.4351],[84.2293,42.4236],[84.1826,42.4494],[84.1514,42.4557],[84.1186,42.4831],[84.0835,42.4854],[84.0532,42.5007],[84,42.5],[83.9778,42.5067],[83.9457,42.5301],[83.9461,42.4937],[83.9282,42.4418],[83.9355,42.4289],[83.93,42.3774],[83.9614,42.359],[83.9721,42.2937],[83.9439,42.2674],[83.9061,42.2685],[83.8845,42.2487],[83.8873,42.2099],[83.8777,42.1859],[83.9102,42.1616],[83.9264,42.1369],[83.9371,42.0968],[83.9366,42.074],[83.9626,42.0065],[83.971,42.0005],[83.9856,41.9529],[83.9858,41.9316],[83.9646,41.8734],[83.9729,41.8429],[83.9633,41.8101],[83.9269,41.7739],[83.9107,41.7259],[83.9025,41.6728],[83.8987,41.597],[83.9156,41.5684],[83.9476,41.561],[83.9531,41.5153],[83.9774,41.5024],[84.0136,41.4423],[84.0193,41.3726],[84.0281,41.33],[84.0203,41.2345],[84.0342,41.1621],[84.0538,41.1377],[84.0834,41.1219],[84.1009,41.138],[84.1482,41.1341],[84.1479,41.1618],[84.1775,41.1553],[84.226,41.1635],[84.2274,41.1727],[84.2676,41.1978],[84.2985,41.2073],[84.3649,41.2018],[84.4066,41.1807],[84.4126,41.2004],[84.4517,41.19],[84.5129,41.2054],[84.5425,41.1897],[84.6055,41.2049],[84.616,41.1924],[84.6481,41.1872],[84.6782,41.1976],[84.7236,41.1936],[84.7368,41.174],[84.8166,41.1905],[84.8342,41.1875],[84.8896,41.1933],[84.913,41.2067],[84.9673,41.2118],[84.991,41.1994],[85.022,41.2238],[85.0492,41.2034],[85.0954,41.2185],[85.1273,41.2159],[85.1472,41.2425],[85.1717,41.2455],[85.1908,41.2631],[85.1996,41.292],[85.2115,41.2976],[85.2173,41.4016],[85.2073,41.4475],[85.2071,41.7002],[85.2355,41.8526],[85.2641,41.993],[85.2609,42.0316],[85.2706,42.0517],[85.2953,42.0645],[85.3192,42.0651],[85.3138,42.0861],[85.3377,42.1084],[85.3263,42.1236],[85.3345,42.1464],[85.3319,42.1761],[85.3072,42.1912],[85.2891,42.2138],[85.2615,42.21],[85.2544,42.249],[85.2601,42.2691]]]},"properties":{"region_code":"CN-65-6528-652822","parent_region_code":"CN-65-6528","name":"轮台县","level":"county","has_children":false,"full_path":"中国 / 新疆维吾尔自治区 / 巴音郭楞蒙古自治州 / 轮台县","source_admin_code":"652822","osm_relation_id":2747284}},
{"type":"Feature","geometry":{"type":"Polygon","coordinates":[[[85.2115,41.2976],[85.1996,41.292],[85.1908,41.2631],[85.1717,41.2455],[85.1472,41.2425],[85.1273,41.2159],[85.0954,41.2185],[85.0492,41.2034],[85.022,41.2238],[84.991,41.1994],[84.9673,41.2118],[84.913,41.2067],[84.8896,41.1933],[84.8342,41.1875],[84.8166,41.1905],[84.7368,41.174],[84.7236,41.1936],[84.6782,41.1976],[84.6481,41.1872],[84.616,41.1924],[84.6055,41.2049],[84.5425,41.1897],[84.5129,41.2054],[84.4517,41.19],[84.4126,41.2004],[84.4066,41.1807],[84.3649,41.2018],[84.2985,41.2073],[84.2676,41.1978],[84.2274,41.1727],[84.226,41.1635],[84.1775,41.1553],[84.1479,41.1618],[84.1482,41.1341],[84.1009,41.138],[84.0834,41.1219],[84.0852,41.1129],[84.0574,41.0837],[84.0625,41.0551],[84.0534,41.0323],[84.0636,41.0208],[84.0685,40.955],[84.0639,40.7763],[84.0427,40.4992],[84.0276,40.3068],[84.2116,40.269],[84.4739,40.2166],[84.6414,40.1757],[85.0029,40.1749],[85.0606,40.1621],[86.6854,40.1773],[86.7184,40.178],[87.2521,40.1792],[87.7182,40.1778],[87.9652,40.2503],[87.9355,40.3017],[87.9077,40.3165],[87.8953,40.3541],[87.8701,40.3758],[87.8781,40.389],[87.8512,40.4008],[87.9048,40.4546],[87.8955,40.4724],[88.0477,40.5495],[88.0883,40.5187],[88.1863,40.4309],[88.5199,40.4394],[88.854,40.5104],[89.0359,40.5954],[89.1295,40.6375],[89.1856,40.6461],[89.2469,40.6317],[89.2919,40.6516],[89.3419,40.6331],[89.3798,40.6434],[89.4129,40.6337],[89.4344,40.6467],[89.4551,40.6392],[89.5251,40.6323],[89.5572,40.6373],[89.5776,40.6502],[89.6113,40.6459],[89.632,40.6278],[89.6657,40.6348],[89.6996,40.6327],[89.7682,40.6365],[89.8038,40.6284],[89.8673,40.6441],[89.9107,40.6629],[89.9498,40.6727],[89.9784,40.6893],[89.9879,40.735],[89.8408,41.0004],[89.828,41.0259],[89.8202,41.0971],[89.8212,41.1311],[89.8148,41.1829],[89.7762,41.1755],[89.7361,41.1789],[89.7428,41.2725],[89.7404,41.3211],[89.6638,41.3558],[89.6333,41.3608],[89.6143,41.354],[89.5557,41.3667],[89.5153,41.3591],[89.4579,41.3585],[89.4536,41.3736],[89.4064,41.3811],[89.3961,41.3949],[89.3343,41.4018],[89.3333,41.3883],[89.2803,41.3917],[89.2313,41.378],[89.2013,41.3599],[89.1754,41.3619],[89.1508,41.3784],[89.0791,41.4084],[89.0151,41.4256],[88.9875,41.4182],[88.8922,41.4221],[88.8573,41.4207],[88.8317,41.4403],[88.7782,41.4511],[88.7717,41.4658],[88.7327,41.4737],[88.6253,41.4718],[88.5608,41.4766],[88.5443,41.4694],[88.4852,41.4685],[88.4612,41.457],[88.4425,41.4665],[88.4046,41.4585],[88.3724,41.4772],[88.3163,41.4916],[88.2784,41.4951],[88.2765,41.4722],[88.2517,41.469],[88.2306,41.4394],[88.1521,41.4376],[88.1073,41.4159],[88.0638,41.4219],[88.0116,41.4187],[87.9802,41.4297],[87.9414,41.462],[87.878,41.4758],[87.7996,41.4666],[87.6967,41.4896],[87.6595,41.5046],[87.627,41.4979],[87.5962,41.5001],[87.53,41.4883],[87.5039,41.4948],[87.4558,41.5329],[87.4344,41.5306],[87.4278,41.5137],[87.3868,41.5126],[87.391,41.53],[87.3559,41.5414],[87.3001,41.5506],[87.2346,41.5433],[87.1922,41.568],[87.1448,41.5744],[87.1064,41.56],[87.0547,41.5593],[87.0121,41.5666],[86.9285,41.5704],[86.8625,41.5837],[86.7976,41.6037],[86.7299,41.5973],[86.6596,41.6095],[86.6082,41.6319],[86.5309,41.641],[86.5104,41.633],[86.452,41.644],[86.4147,41.6606],[86.3454,41.6548],[86.3174,41.6618],[86.278,41.6521],[86.314,41.6201],[86.3202,41.5892],[86.3486,41.5665],[86.4161,41.5453],[86.2224,41.5447],[86.2099,41.5558],[86.1802,41.5237],[86.1308,41.4967],[86.1322,41.4763],[86.1155,41.4538],[86.1063,41.4119],[86.0798,41.4126],[86.072,41.396],[86.0315,41.3859],[86.0249,41.3479],[86.0444,41.3427],[86.047,41.285],[85.9929,41.2585],[85.9839,41.248],[85.9341,41.2532],[85.8989,41.2516],[85.8621,41.2598],[85.8279,41.2394],[85.8035,41.2686],[85.7409,41.2631],[85.7176,41.2926],[85.6738,41.2914],[85.6613,41.2999],[85.6089,41.2849],[85.5978,41.2974],[85.5715,41.2964],[85.5466,41.3071],[85.5257,41.2953],[85.4979,41.3093],[85.4804,41.2989],[85.4414,41.3173],[85.3782,41.2894],[85.3591,41.3039],[85.2884,41.3049],[85.2625,41.283],[85.2553,41.3166],[85.2115,41.2976]]]},"properties":{"region_code":"CN-65-6528-652823","parent_region_code":"CN-65-6528","name":"尉犁县","level":"county","has_children":false,"full_path":"中国 / 新疆维吾尔自治区 / 巴音郭楞蒙古自治州 / 尉犁县","source_admin_code":"652823","osm_relation_id":2747288}},
{"type":"Feature","geometry":{"type":"Polygon","coordinates":[[[86.6854,40.1773],[86.7145,39.929],[86.7586,39.5508],[86.7943,39.2038],[86.8144,39.0122],[86.8149,38.9735],[86.8267,38.8155],[86.9326,38.6924],[86.9235,38.6471],[86.9601,38.6012],[86.9894,38.5181],[87.0045,38.5122],[86.9993,38.4549],[87.0147,38.395],[87.0157,38.3671],[87.0267,38.3314],[87.0164,38.308],[87.0351,38.2759],[87.0625,38.2776],[87.1105,38.2897],[87.1782,38.2751],[87.1741,38.2501],[87.1606,38.2385],[87.1716,38.2109],[87.1983,38.1781],[87.1856,38.1685],[87.2065,38.1402],[87.2445,38.1078],[87.2738,38.0302],[87.2843,38.0199],[87.3326,38.0141],[87.3695,38.0031],[87.3886,37.9119],[87.3746,37.8831],[87.4033,37.858],[87.4752,37.8772],[87.5249,37.8733],[87.5991,37.8907],[87.6207,37.8576],[87.7271,37.8365],[87.8125,37.8262],[87.8279,37.8019],[87.8434,37.74],[87.8399,37.6993],[87.8723,37.6462],[87.862,37.6328],[87.8881,37.6176],[87.9074,37.5881],[87.9239,37.5826],[87.9403,37.5598],[87.9437,37.5393],[87.9728,37.5165],[87.9611,37.4705],[87.9731,37.4484],[87.9726,37.4192],[87.946,37.3962],[87.9045,37.3753],[87.8842,37.3775],[87.8396,37.3693],[87.83,37.3746],[87.7982,37.3578],[87.775,37.36],[87.7575,37.3449],[87.6785,37.3172],[87.6429,37.3142],[87.5919,37.3027],[87.5684,37.2875],[87.523,37.274],[87.5066,37.2301],[87.505,37.2096],[87.5186,37.1957],[87.5793,37.162],[87.6197,37.0963],[87.6496,37.0744],[87.6469,36.8892],[87.6058,36.8167],[87.5943,36.7844],[87.5976,36.7557],[87.59,36.7415],[87.6144,36.7087],[87.6047,36.6786],[87.6218,36.657],[87.6094,36.6255],[87.5446,36.6336],[87.5405,36.6036],[87.5194,36.6002],[87.5,36.5768],[87.5009,36.5434],[87.4788,36.5479],[87.4267,36.5023],[87.3939,36.4935],[87.3752,36.4539],[87.3816,36.441],[87.3679,36.4209],[87.3843,36.4128],[87.4244,36.4265],[87.4569,36.4137],[87.4541,36.3889],[87.4684,36.3547],[87.5152,36.3516],[87.5454,36.3428],[87.5687,36.3443],[87.61,36.3583],[87.6917,36.372],[87.7335,36.3848],[87.7661,36.3758],[87.815,36.385],[87.8763,36.3894],[87.9445,36.4002],[87.9647,36.4301],[87.9807,36.4386],[88.003,36.4318],[88.0895,36.4363],[88.1299,36.4272],[88.1582,36.436],[88.185,36.4553],[88.2203,36.4486],[88.2422,36.4703],[88.283,36.47],[88.3228,36.4589],[88.3642,36.458],[88.3764,36.4841],[88.4106,36.4738],[88.469,36.4828],[88.4758,36.4655],[88.5108,36.4459],[88.5714,36.4614],[88.6157,36.429],[88.6218,36.3903],[88.6849,36.3709],[88.7078,36.3551],[88.7228,36.3198],[88.765,36.2924],[88.7814,36.2927],[88.7997,36.3378],[88.8369,36.3544],[88.8704,36.3495],[88.9025,36.362],[88.9308,36.3603],[88.9465,36.329],[88.962,36.3197],[89.0307,36.3113],[89.0685,36.2878],[89.0979,36.2835],[89.1065,36.2638],[89.1258,36.2541],[89.1606,36.2644],[89.1974,36.2611],[89.2315,36.2975],[89.2678,36.2641],[89.297,36.2286],[89.3208,36.2369],[89.3735,36.2283],[89.485,36.1538],[89.5113,36.1432],[89.5922,36.1271],[89.6131,36.1099],[89.6797,36.0912],[89.7033,36.0972],[89.7287,36.084],[89.7909,36.0715],[89.8102,36.0801],[89.8462,36.0766],[89.8682,36.0819],[89.9113,36.0801],[89.9405,36.0681],[89.9469,36.0995],[89.9354,36.1307],[89.9425,36.141],[89.9815,36.1571],[90.0071,36.1847],[90.0179,36.2141],[90.0256,36.2602],[90.0414,36.2769],[90.0563,36.2558],[90.1264,36.247],[90.1281,36.2081],[90.1498,36.1965],[90.1963,36.1879],[90.235,36.161],[90.3275,36.1582],[90.3435,36.1436],[90.37,36.1481],[90.4221,36.1343],[90.478,36.1327],[90.5256,36.1491],[90.5675,36.133],[90.6143,36.1271],[90.6616,36.1345],[90.7127,36.1156],[90.7409,36.0964],[90.7748,36.0868],[90.8049,36.0446],[90.8455,36.0175],[90.9097,36.032],[90.926,36.0319],[90.9487,36.0598],[90.9613,36.0936],[90.9935,36.1082],[91.0796,36.0887],[91.1102,36.0953],[91.1231,36.1158],[91.1143,36.1414],[91.0887,36.1687],[91.0932,36.215],[91.0573,36.2322],[91.0406,36.2599],[91.0721,36.3002],[91.0502,36.3047],[91.022,36.3309],[91.0324,36.349],[91.0255,36.367],[91.033,36.4046],[91.0512,36.4305],[91.0236,36.4497],[91.0345,36.4828],[91.0278,36.537],[90.8981,36.5634],[90.8286,36.5615],[90.8091,36.5697],[90.8109,36.5871],[90.7633,36.5836],[90.7302,36.5914],[90.7178,36.6113],[90.7337,36.6453],[90.7117,36.6624],[90.7046,36.6858],[90.7149,36.7082],[90.7539,36.7183],[90.7364,36.7397],[90.7185,36.7951],[90.729,36.8263],[90.7575,36.8263],[90.7885,36.8449],[90.7911,36.8607],[90.8574,36.9191],[90.927,36.9209],[90.9862,36.9137],[91.0364,36.9298],[91.0457,36.9652],[91.1127,36.9704],[91.1271,36.9799],[91.1317,37.0068],[91.1936,37.0227],[91.2136,37.009],[91.2499,37.0146],[91.3093,37.0142],[91.3077,37.0322],[91.2884,37.0485],[91.3013,37.0619],[91.2995,37.0902],[91.2849,37.1044],[91.2785,37.1627],[91.2609,37.1747],[91.2322,37.1792],[91.2171,37.1998],[91.1883,37.2063],[91.1913,37.2769],[91.1659,37.285],[91.1564,37.3141],[91.1347,37.3203],[91.1265,37.3732],[91.1075,37.3864],[91.1075,37.4231],[91.0968,37.4486],[91.0691,37.4767],[90.9982,37.4942],[90.9581,37.4784],[90.9099,37.5179],[90.859,37.5373],[90.8784,37.5772],[90.849,37.6048],[90.8147,37.612],[90.8111,37.6265],[90.7854,37.6432],[90.6769,37.6867],[90.6615,37.7041],[90.6114,37.7024],[90.5812,37.7099],[90.5664,37.725],[90.5165,37.7288],[90.5165,37.9576],[90.5131,38.2069],[90.529,38.3196],[90.4003,38.3112],[90.3595,38.3001],[90.3495,38.2353],[90.2792,38.238],[90.1465,38.3297],[90.1351,38.3408],[90.1575,38.36],[90.1771,38.3968],[90.1363,38.4037],[90.1124,38.4139],[90.1087,38.4688],[90.1251,38.4913],[90.2224,38.4947],[90.3134,38.5012],[90.3563,38.4808],[90.4237,38.4918],[90.4388,38.5103],[90.4641,38.5213],[90.462,38.5562],[90.4986,38.5547],[90.5331,38.5659],[90.5298,38.5782],[90.5596,38.5928],[90.6096,38.5952],[90.6055,38.6107],[90.6441,38.6342],[90.6181,38.6638],[90.6598,38.6738],[90.7235,38.6576],[90.8317,38.6683],[90.9672,38.697],[90.9911,38.6941],[91.089,38.7093],[91.1907,38.7316],[91.2485,38.7521],[91.269,38.7449],[91.3068,38.7505],[91.315,38.7599],[91.3597,38.7743],[91.3944,38.7931],[91.4454,38.8129],[91.5006,38.8149],[91.6114,38.8383],[91.6423,38.8549],[91.6701,38.8537],[91.6923,38.8656],[91.751,38.8689],[91.7845,38.8616],[91.8098,38.8736],[91.8779,38.8824],[91.8786,38.8988],[91.9202,38.9089],[91.9652,38.9311],[92.0198,38.9399],[92.0314,38.9476],[92.1187,38.961],[92.1731,38.9608],[92.1915,38.9813],[92.2566,39.0016],[92.3271,39.0026],[92.3812,38.9994],[92.4169,39.0151],[92.4061,39.0395],[92.3863,39.0589],[92.3526,39.0683],[92.3633,39.0947],[92.3428,39.144],[92.3387,39.2374],[92.3833,39.262],[92.4317,39.3012],[92.5193,39.3645],[92.5502,39.4012],[92.6394,39.515],[92.6885,39.6676],[92.7442,39.8661],[92.772,40.0145],[92.7953,40.1525],[92.9057,40.3104],[92.9193,40.3906],[92.9273,40.572],[93.505,40.6475],[93.7594,40.6648],[93.8195,40.7928],[93.8083,40.8786],[93.7887,40.8822],[93.7392,40.872],[93.6925,40.875],[93.5684,40.9525],[93.5209,40.9593],[93.4714,40.9727],[93.4239,40.9727],[93.4184,40.9851],[93.363,40.9874],[93.3397,40.9935],[93.2661,40.9845],[93.1962,40.991],[93.1745,40.9995],[93.1027,41.0397],[93.0645,41.0465],[93.0472,41.0595],[92.993,41.0795],[92.938,41.0889],[92.8623,41.1128],[92.7971,41.1173],[92.745,41.1257],[92.646,41.1125],[92.5343,41.12],[92.5121,41.1406],[92.3996,41.1592],[92.2398,41.199],[92.1241,41.2453],[92.0334,41.2721],[91.9884,41.2659],[91.9217,41.2695],[91.8463,41.2803],[91.7871,41.2749],[91.7115,41.2549],[91.6448,41.2299],[91.5913,41.2166],[91.4976,41.2067],[91.4458,41.1975],[91.3944,41.2046],[91.3425,41.2064],[91.3119,41.2159],[91.2401,41.2199],[91.185,41.2276],[91.1637,41.2365],[91.0919,41.2512],[90.9988,41.2436],[90.9674,41.2454],[90.8919,41.226],[90.7779,41.225],[90.6984,41.239],[90.6547,41.2368],[90.5386,41.2493],[90.4667,41.2378],[90.4249,41.2411],[90.3986,41.2333],[90.314,41.2415],[90.2342,41.2433],[90.1069,41.2521],[89.9599,41.3571],[89.9113,41.3685],[89.8329,41.3767],[89.7848,41.3493],[89.754,41.3434],[89.7202,41.3489],[89.6953,41.3659],[89.6638,41.3558],[89.7404,41.3211],[89.7428,41.2725],[89.7361,41.1789],[89.7762,41.1755],[89.8148,41.1829],[89.8212,41.1311],[89.8202,41.0971],[89.828,41.0259],[89.8408,41.0004],[89.9879,40.735],[89.9784,40.6893],[89.9498,40.6727],[89.9107,40.6629],[89.8673,40.6441],[89.8038,40.6284],[89.7682,40.6365],[89.6996,40.6327],[89.6657,40.6348],[89.632,40.6278],[89.6113,40.6459],[89.5776,40.6502],[89.5572,40.6373],[89.5251,40.6323],[89.4551,40.6392],[89.4344,40.6467],[89.4129,40.6337],[89.3798,40.6434],[89.3419,40.6331],[89.2919,40.6516],[89.2469,40.6317],[89.1856,40.6461],[89.1295,40.6375],[89.0359,40.5954],[88.854,40.5104],[88.5199,40.4394],[88.1863,40.4309],[88.0883,40.5187],[88.0477,40.5495],[87.8955,40.4724],[87.9048,40.4546],[87.8512,40.4008],[87.8781,40.389],[87.8701,40.3758],[87.8953,40.3541],[87.9077,40.3165],[87.9355,40.3017],[87.9652,40.2503],[87.7182,40.1778],[87.2521,40.1792],[86.7184,40.178],[86.6854,40.1773]],[[88.8293,39.3335],[89.0015,39.3321],[89.0622,39.3341],[89.0605,39.2374],[88.945,39.2382],[88.9329,39.2043],[89.0605,39.2022],[88.8466,38.9795],[88.7998,38.9809],[88.7998,39.0516],[88.8251,39.053],[88.8298,39.2043],[88.8293,39.3335]]]},"properties":{"region_code":"CN-65-6528-652824","parent_region_code":"CN-65-6528","name":"若羌县","level":"county","has_children":false,"full_path":"中国 / 新疆维吾尔自治区 / 巴音郭楞蒙古自治州 / 若羌县","source_admin_code":"652824","osm_relation_id":2747286}},
{"type":"Feature","geometry":{"type":"Polygon","coordinates":[[[84.0276,40.3068],[84.0066,40.0371],[83.952,39.9598],[83.4109,39.4828],[83.3921,39.3335],[83.384,39.0085],[83.3831,38.3884],[83.4508,38.3198],[83.4983,38.2828],[83.5466,38.2542],[83.6327,38.1977],[83.7443,38.1161],[83.7883,38.0786],[83.8165,38.048],[83.8871,37.9418],[83.9275,37.8571],[83.9379,37.827],[83.928,37.7752],[83.9445,37.7279],[83.9419,37.6995],[83.9585,37.691],[83.9611,37.6526],[83.9872,37.6126],[83.9812,37.5938],[83.9866,37.5682],[83.9848,37.5146],[83.9715,37.4862],[83.9829,37.447],[83.974,37.4124],[83.9581,37.3935],[83.9062,37.3651],[83.8909,37.3488],[83.8829,37.3189],[83.8611,37.2919],[83.8217,37.2769],[83.7881,37.2503],[83.7972,37.2116],[83.8156,37.2046],[83.8528,37.1173],[83.8593,37.0677],[83.8502,37.0306],[83.8267,36.9955],[83.8221,36.9613],[83.8316,36.9527],[83.8396,36.9117],[83.8566,36.8873],[83.8586,36.8676],[83.8338,36.832],[83.8391,36.8091],[83.8753,36.8001],[83.9148,36.7666],[84.0006,36.7635],[84.01,36.7409],[84.0571,36.7207],[84.063,36.7022],[84.1055,36.6916],[84.1763,36.6876],[84.196,36.6612],[84.25,36.6422],[84.2573,36.6229],[84.2999,36.6116],[84.3406,36.5557],[84.3435,36.5253],[84.3382,36.4894],[84.3151,36.4732],[84.304,36.4247],[84.3537,36.3981],[84.3446,36.3648],[84.3497,36.3292],[84.3605,36.3123],[84.4078,36.3103],[84.4139,36.2772],[84.4603,36.2788],[84.5338,36.2702],[84.563,36.2431],[84.5674,36.2265],[84.6151,36.2207],[84.6251,36.1998],[84.6703,36.1829],[84.6713,36.1508],[84.6991,36.1321],[84.7548,36.1194],[84.7923,36.1003],[84.8405,36.0993],[84.8519,36.0745],[84.8374,36.0499],[84.8549,36.0404],[84.8681,36.0127],[84.8684,35.969],[84.8619,35.9396],[84.8734,35.9362],[84.8822,35.8982],[84.9111,35.8611],[84.9062,35.8141],[84.9157,35.771],[84.9458,35.7613],[84.9838,35.7256],[84.9943,35.74],[85.0524,35.7544],[85.1377,35.7434],[85.2154,35.7662],[85.2218,35.7817],[85.2668,35.7902],[85.2793,35.7782],[85.3379,35.7547],[85.3659,35.7298],[85.3709,35.7019],[85.3928,35.704],[85.4467,35.6898],[85.5187,35.68],[85.5254,35.6635],[85.5662,35.6418],[85.6127,35.6533],[85.628,35.6983],[85.6508,35.7319],[85.6821,35.7486],[85.7226,35.755],[85.7394,35.7651],[85.8074,35.7817],[85.8336,35.7731],[85.8551,35.7801],[85.906,35.7852],[85.9484,35.7808],[85.9657,35.7886],[85.9915,35.8183],[86.0377,35.8475],[86.0514,35.8434],[86.0883,35.8774],[86.1042,35.9258],[86.1236,35.932],[86.1306,35.9804],[86.1432,36.0009],[86.1974,36.0327],[86.1773,36.0761],[86.1844,36.0862],[86.1852,36.1311],[86.2458,36.1413],[86.277,36.1697],[86.3357,36.166],[86.3557,36.1691],[86.3903,36.2073],[86.4243,36.2089],[86.4527,36.2215],[86.4846,36.207],[86.513,36.2058],[86.5235,36.2249],[86.5471,36.2297],[86.5972,36.223],[86.6504,36.2321],[86.652,36.2444],[86.6973,36.2453],[86.7425,36.2922],[86.7728,36.297],[86.8321,36.2921],[86.8495,36.3007],[86.8838,36.2639],[86.9285,36.2659],[86.9504,36.2897],[86.9707,36.2908],[86.9936,36.3091],[87.0489,36.2971],[87.0834,36.3111],[87.111,36.3008],[87.1466,36.2977],[87.1585,36.3259],[87.1902,36.3513],[87.2547,36.3549],[87.3038,36.3642],[87.3439,36.3928],[87.3679,36.4209],[87.3816,36.441],[87.3752,36.4539],[87.3939,36.4935],[87.4267,36.5023],[87.4788,36.5479],[87.5009,36.5434],[87.5,36.5768],[87.5194,36.6002],[87.5405,36.6036],[87.5446,36.6336],[87.6094,36.6255],[87.6218,36.657],[87.6047,36.6786],[87.6144,36.7087],[87.59,36.7415],[87.5976,36.7557],[87.5943,36.7844],[87.6058,36.8167],[87.6469,36.8892],[87.6496,37.0744],[87.6197,37.0963],[87.5793,37.162],[87.5186,37.1957],[87.505,37.2096],[87.5066,37.2301],[87.523,37.274],[87.5684,37.2875],[87.5919,37.3027],[87.6429,37.3142],[87.6785,37.3172],[87.7575,37.3449],[87.775,37.36],[87.7982,37.3578],[87.83,37.3746],[87.8396,37.3693],[87.8842,37.3775],[87.9045,37.3753],[87.946,37.3962],[87.9726,37.4192],[87.9731,37.4484],[87.9611,37.4705],[87.9728,37.5165],[87.9437,37.5393],[87.9403,37.5598],[87.9239,37.5826],[87.9074,37.5881],[87.8881,37.6176],[87.862,37.6328],[87.8723,37.6462],[87.8399,37.6993],[87.8434,37.74],[87.8279,37.8019],[87.8125,37.8262],[87.7271,37.8365],[87.6207,37.8576],[87.5991,37.8907],[87.5249,37.8733],[87.4752,37.8772],[87.4033,37.858],[87.3746,37.8831],[87.3886,37.9119],[87.3695,38.0031],[87.3326,38.0141],[87.2843,38.0199],[87.2738,38.0302],[87.2445,38.1078],[87.2065,38.1402],[87.1856,38.1685],[87.1983,38.1781],[87.1716,38.2109],[87.1606,38.2385],[87.1741,38.2501],[87.1782,38.2751],[87.1105,38.2897],[87.0625,38.2776],[87.0351,38.2759],[87.0164,38.308],[87.0267,38.3314],[87.0157,38.3671],[87.0147,38.395],[86.9993,38.4549],[87.0045,38.5122],[86.9894,38.5181],[86.9601,38.6012],[86.9235,38.6471],[86.9326,38.6924],[86.8267,38.8155],[86.8149,38.9735],[86.8144,39.0122],[86.7943,39.2038],[86.7586,39.5508],[86.7145,39.929],[86.6854,40.1773],[85.0606,40.1621],[85.0029,40.1749],[84.6414,40.1757],[84.4739,40.2166],[84.2116,40.269],[84.0276,40.3068]],[[85.3546,38.1573],[85.3362,38.1395],[85.3959,38.1384],[85.388,38.0919],[85.2677,38.0917],[85.2677,38.1193],[85.3198,38.1193],[85.3197,38.1436],[85.2318,38.1433],[85.232,38.1937],[85.3178,38.1938],[85.318,38.203],[85.3635,38.2055],[85.3637,38.2214],[85.4133,38.2091],[85.3943,38.1698],[85.3549,38.1685],[85.3546,38.1573]],[[84.2085,37.7502],[84.2003,37.7623],[84.1227,37.7457],[84.0914,37.7833],[84.3707,37.9021],[84.4134,37.838],[84.2085,37.7502]]]},"properties":{"region_code":"CN-65-6528-652825","parent_region_code":"CN-65-6528","name":"且末县","level":"county","has_children":false,"full_path":"中国 / 新疆维吾尔自治区 / 巴音郭楞蒙古自治州 / 且末县","source_admin_code":"652825","osm_relation_id":2747285}},
{"type":"Feature","geometry":{"type":"Polygon","coordinates":[[[86.3595,41.829],[86.3769,41.8339],[86.3865,41.8577],[86.4059,41.8598],[86.4398,41.8332],[86.4901,41.8462],[86.5246,41.8766],[86.5194,41.9048],[86.5038,41.9229],[86.547,41.9232],[86.5932,41.9677],[86.5824,41.98],[86.5733,42.0243],[86.6043,42.0209],[86.6158,42.0431],[86.6594,42.0601],[86.6598,42.0737],[86.6926,42.0881],[86.6987,42.1021],[86.6837,42.119],[86.704,42.1552],[86.7254,42.1603],[86.6732,42.2268],[86.6463,42.209],[86.6242,42.2114],[86.5986,42.1613],[86.5774,42.1588],[86.5436,42.1352],[86.5249,42.1097],[86.4988,42.1003],[86.4755,42.1105],[86.4457,42.1094],[86.4286,42.1228],[86.3783,42.1336],[86.4152,42.1171],[86.4253,42.1021],[86.4049,42.0833],[86.3654,42.0907],[86.2879,42.1145],[86.2685,42.1353],[86.204,42.1593],[86.2001,42.1252],[86.1844,42.1184],[86.1479,42.1118],[86.104,42.1661],[85.9999,42.1737],[85.9152,42.1834],[85.8863,42.1935],[85.8347,42.198],[85.7929,42.2134],[85.7559,42.2352],[85.7115,42.2449],[85.6415,42.252],[85.6257,42.2752],[85.5746,42.3053],[85.5469,42.3091],[85.519,42.3323],[85.4821,42.3249],[85.4121,42.3434],[85.3698,42.339],[85.3038,42.3418],[85.2447,42.3233],[85.2877,42.2992],[85.2626,42.2822],[85.2601,42.2691],[85.341,42.2418],[85.3468,42.2281],[85.408,42.2171],[85.5161,42.1866],[85.6363,42.1323],[85.6531,42.1177],[85.7301,42.076],[85.7581,42.0685],[85.7491,42.0355],[85.7807,42.0253],[85.827,42.0216],[85.873,42.0117],[85.9245,42.0195],[85.9961,42.0181],[86.0097,42.0121],[86.0134,41.9675],[86.0296,41.9514],[86.0546,41.9475],[86.068,41.9307],[86.0981,41.9175],[86.109,41.9],[86.1402,41.9048],[86.2214,41.9069],[86.2583,41.8881],[86.3595,41.829]]]},"properties":{"region_code":"CN-65-6528-652826","parent_region_code":"CN-65-6528","name":"焉耆回族自治县","level":"county","has_children":false,"full_path":"中国 / 新疆维吾尔自治区 / 巴音郭楞蒙古自治州 / 焉耆回族自治县","source_admin_code":"652826","osm_relation_id":2747287}},
{"type":"Feature","geometry":{"type":"Polygon","coordinates":[[[85.2626,42.2822],[85.2877,42.2992],[85.2447,42.3233],[85.3038,42.3418],[85.3698,42.339],[85.4121,42.3434],[85.4821,42.3249],[85.519,42.3323],[85.5469,42.3091],[85.5746,42.3053],[85.6257,42.2752],[85.6415,42.252],[85.7115,42.2449],[85.7559,42.2352],[85.7929,42.2134],[85.8347,42.198],[85.8863,42.1935],[85.9152,42.1834],[85.9999,42.1737],[86.104,42.1661],[86.1479,42.1118],[86.1844,42.1184],[86.2001,42.1252],[86.204,42.1593],[86.2685,42.1353],[86.2625,42.1545],[86.2271,42.1863],[86.1796,42.2028],[86.1827,42.217],[86.2683,42.2112],[86.2937,42.1944],[86.3175,42.1643],[86.3375,42.1619],[86.3783,42.1336],[86.4286,42.1228],[86.4457,42.1094],[86.4755,42.1105],[86.4988,42.1003],[86.5249,42.1097],[86.5436,42.1352],[86.5172,42.1419],[86.4206,42.1343],[86.3751,42.1503],[86.375,42.2059],[86.3935,42.2029],[86.4193,42.2246],[86.4067,42.2433],[86.4483,42.2543],[86.4852,42.1901],[86.5276,42.197],[86.5449,42.2103],[86.6005,42.2317],[86.5558,42.2463],[86.499,42.2503],[86.4984,42.2892],[86.4659,42.2938],[86.4814,42.3431],[86.6404,42.3158],[86.715,42.3761],[86.7484,42.4166],[86.7885,42.4308],[86.838,42.4275],[86.8391,42.4511],[86.8757,42.4748],[86.9079,42.4792],[86.9343,42.4595],[86.9232,42.4374],[86.963,42.4392],[87.0215,42.4486],[87.0388,42.4636],[87.0146,42.4845],[86.9506,42.5771],[86.9563,42.6029],[87.0001,42.6241],[86.9729,42.6435],[86.9758,42.6768],[87.0065,42.6769],[87.0142,42.7096],[87.0019,42.7345],[87.0128,42.744],[87.1224,42.739],[87.1585,42.7442],[87.1852,42.7686],[87.2223,42.7463],[87.2391,42.7636],[87.2726,42.7757],[87.3158,42.7659],[87.4413,42.7815],[87.4529,42.7986],[87.5062,42.7942],[87.521,42.8047],[87.5403,42.8446],[87.5184,42.8548],[87.5324,42.8848],[87.5318,42.922],[87.494,42.9385],[87.4482,42.9449],[87.3998,42.962],[87.3421,42.9982],[87.2914,43.0134],[87.2672,43.0308],[87.1922,43.0496],[87.1081,43.0614],[87.108,43.045],[87.0516,43.0214],[86.9239,43.0502],[86.9132,43.0637],[86.8756,43.0852],[86.8339,43.0906],[86.7981,43.1109],[86.7386,43.0981],[86.6902,43.1171],[86.6434,43.0958],[86.6139,43.1129],[86.5598,43.1256],[86.5273,43.128],[86.4838,43.1407],[86.3856,43.2209],[86.3281,43.239],[86.2906,43.2429],[86.2727,43.2647],[86.2414,43.2868],[86.1635,43.3052],[86.1506,43.3347],[86.1506,43.3582],[86.1258,43.3642],[86.1198,43.3839],[86.0909,43.4028],[86.0877,43.4301],[86.019,43.4061],[85.9866,43.4016],[85.9514,43.4128],[85.9274,43.4292],[85.8611,43.4447],[85.8397,43.4364],[85.7826,43.4493],[85.7183,43.4829],[85.6756,43.4904],[85.6488,43.5217],[85.5842,43.5208],[85.5817,43.5298],[85.517,43.5348],[85.4867,43.5182],[85.4798,43.4964],[85.4565,43.495],[85.4311,43.4773],[85.3544,43.4802],[85.3204,43.4914],[85.3246,43.516],[85.3124,43.5277],[85.2777,43.5051],[85.2391,43.5194],[85.2116,43.508],[85.1685,43.5106],[85.1535,43.5458],[85.0715,43.5549],[85.0534,43.5624],[85.0152,43.5161],[84.9871,43.4954],[84.9773,43.4783],[84.9483,43.483],[84.9447,43.4638],[84.922,43.424],[84.8989,43.4181],[84.86,43.4338],[84.8082,43.4441],[84.7932,43.4637],[84.7136,43.4518],[84.6766,43.4843],[84.6333,43.4581],[84.6312,43.4314],[84.6568,43.4133],[84.6904,43.4001],[84.6739,43.3712],[84.6217,43.337],[84.586,43.3286],[84.5506,43.3305],[84.5298,43.2915],[84.5532,43.2688],[84.5835,43.2542],[84.5637,43.2295],[84.6021,43.2265],[84.6205,43.2028],[84.649,43.192],[84.6511,43.1735],[84.5466,43.1574],[84.5023,43.1629],[84.4603,43.1577],[84.4233,43.1615],[84.4229,43.1206],[84.4017,43.1105],[84.3563,43.1426],[84.3411,43.1665],[84.3085,43.1651],[84.2772,43.1735],[84.226,43.1698],[84.1699,43.1552],[84.0603,43.1503],[84.0393,43.1305],[83.9839,43.1391],[83.9604,43.1549],[83.928,43.1456],[83.91,43.1269],[83.876,43.1229],[83.8412,43.132],[83.7986,43.1322],[83.7551,43.1479],[83.7305,43.1349],[83.7102,43.1361],[83.6768,43.0962],[83.6249,43.0794],[83.5635,43.0912],[83.5631,43.0748],[83.477,43.0632],[83.3801,43.0435],[83.3579,43.0267],[83.3101,43.0365],[83.2443,43.0291],[83.2166,43.0108],[83.1566,43.005],[83.1323,42.9906],[83.0345,42.9949],[83.0108,43.0058],[82.9886,42.995],[82.9388,42.9862],[82.8899,42.9912],[82.8563,42.9699],[82.8214,42.9791],[82.8213,42.9537],[82.7864,42.9326],[82.7379,42.9403],[82.7097,42.9504],[82.6874,42.9324],[82.6525,42.9339],[82.6448,42.9179],[82.6472,42.886],[82.6289,42.8786],[82.5997,42.887],[82.5742,42.8844],[82.5418,42.9004],[82.5166,42.8927],[82.51,42.8573],[82.482,42.8577],[82.4673,42.8334],[82.4771,42.7993],[82.5043,42.7982],[82.5435,42.7708],[82.5965,42.7186],[82.6075,42.6758],[82.621,42.6722],[82.6276,42.6432],[82.6227,42.6054],[82.664,42.5869],[82.6749,42.5956],[82.7194,42.5947],[82.7255,42.6129],[82.7492,42.6259],[82.7689,42.6206],[82.8007,42.6483],[82.8265,42.64],[82.8346,42.604],[82.8138,42.579],[82.8365,42.5681],[82.8766,42.5727],[82.9015,42.592],[82.9346,42.6028],[82.9371,42.6232],[82.9659,42.6296],[82.9889,42.6239],[83.0067,42.598],[83.0258,42.588],[83.0358,42.5668],[83.0659,42.566],[83.086,42.5489],[83.1014,42.5609],[83.1552,42.5668],[83.2069,42.5857],[83.265,42.5674],[83.2829,42.5542],[83.3079,42.5655],[83.3441,42.5479],[83.3516,42.5042],[83.4981,42.4686],[83.528,42.4867],[83.5742,42.4907],[83.5951,42.5025],[83.6239,42.5027],[83.6464,42.5155],[83.6646,42.5056],[83.6875,42.5117],[83.6995,42.5379],[83.7852,42.5349],[83.8139,42.5264],[83.8451,42.5318],[83.8657,42.5236],[83.8966,42.5286],[83.9145,42.5206],[83.9457,42.5301],[83.9778,42.5067],[84,42.5],[84.0532,42.5007],[84.0835,42.4854],[84.1186,42.4831],[84.1514,42.4557],[84.1826,42.4494],[84.2293,42.4236],[84.2726,42.4351],[84.322,42.442],[84.4267,42.4423],[84.493,42.4316],[84.5994,42.3881],[84.6836,42.3764],[84.7307,42.3582],[84.7713,42.3064],[84.825,42.3247],[84.8422,42.3574],[84.8649,42.3657],[84.8973,42.3558],[85.0183,42.2954],[85.0568,42.2992],[85.0697,42.2918],[85.1101,42.2988],[85.1528,42.2775],[85.2626,42.2822]]]},"properties":{"region_code":"CN-65-6528-652827","parent_region_code":"CN-65-6528","name":"和静县","level":"county","has_children":false,"full_path":"中国 / 新疆维吾尔自治区 / 巴音郭楞蒙古自治州 / 和静县","source_admin_code":"652827","osm_relation_id":2747241}},
{"type":"Feature","geometry":{"type":"Polygon","coordinates":[[[88.3163,41.4916],[88.3052,41.5125],[88.3474,41.5373],[88.3387,41.5742],[88.3523,41.606],[88.3344,41.6397],[88.3451,41.6687],[88.3439,41.7459],[88.3391,41.7666],[88.2976,41.8155],[88.2495,41.8412],[88.2126,41.8698],[88.1886,41.9223],[88.1659,41.9435],[88.1585,41.9747],[88.1357,42.0027],[87.9947,42.0685],[87.9883,42.0875],[87.9508,42.129],[87.9168,42.1851],[87.8955,42.2476],[87.9199,42.2701],[87.9629,42.2937],[87.999,42.3269],[88.0885,42.3543],[88.1192,42.3698],[88.1445,42.4127],[88.1371,42.4211],[88.18,42.4462],[88.1995,42.5003],[88.1721,42.5236],[88.1631,42.5464],[88.1258,42.5708],[88.0824,42.5809],[87.9782,42.6391],[87.9451,42.6346],[87.9377,42.6539],[87.9105,42.6582],[87.9002,42.705],[87.842,42.753],[87.7927,42.7675],[87.7507,42.7595],[87.7058,42.7659],[87.6883,42.7594],[87.6547,42.7671],[87.5673,42.7739],[87.5254,42.7809],[87.5062,42.7942],[87.4529,42.7986],[87.4413,42.7815],[87.3158,42.7659],[87.2726,42.7757],[87.2391,42.7636],[87.2223,42.7463],[87.1852,42.7686],[87.1585,42.7442],[87.1224,42.739],[87.0128,42.744],[87.0019,42.7345],[87.0142,42.7096],[87.0065,42.6769],[86.9758,42.6768],[86.9729,42.6435],[87.0001,42.6241],[86.9563,42.6029],[86.9506,42.5771],[87.0146,42.4845],[87.0388,42.4636],[87.0215,42.4486],[86.963,42.4392],[86.9232,42.4374],[86.9343,42.4595],[86.9079,42.4792],[86.8757,42.4748],[86.8391,42.4511],[86.838,42.4275],[86.7885,42.4308],[86.7484,42.4166],[86.715,42.3761],[86.6404,42.3158],[86.6327,42.2919],[86.702,42.2954],[86.7421,42.289],[86.8074,42.2628],[86.8004,42.2094],[86.7747,42.1822],[86.8161,42.1426],[86.8603,42.1435],[86.8905,42.1265],[86.9392,42.1129],[87.0054,42.1087],[87.0231,42.0994],[87.1077,42.0857],[87.1189,42.0649],[87.1611,42.0427],[87.1768,42.0524],[87.2219,42.0366],[87.2608,42.0414],[87.3205,42.0288],[87.3408,42.0059],[87.3482,41.9697],[87.3456,41.919],[87.3753,41.9182],[87.3689,41.8968],[87.3842,41.8805],[87.4332,41.8465],[87.422,41.828],[87.3307,41.8484],[87.2933,41.8686],[87.2926,41.886],[87.2363,41.8787],[87.1926,41.9057],[87.1922,41.568],[87.2346,41.5433],[87.3001,41.5506],[87.3559,41.5414],[87.391,41.53],[87.3868,41.5126],[87.4278,41.5137],[87.4344,41.5306],[87.4558,41.5329],[87.5039,41.4948],[87.53,41.4883],[87.5962,41.5001],[87.627,41.4979],[87.6595,41.5046],[87.6967,41.4896],[87.7996,41.4666],[87.878,41.4758],[87.9414,41.462],[87.9802,41.4297],[88.0116,41.4187],[88.0638,41.4219],[88.1073,41.4159],[88.1521,41.4376],[88.2306,41.4394],[88.2517,41.469],[88.2765,41.4722],[88.2784,41.4951],[88.3163,41.4916]],[[87.0574,42.2107],[87.0809,42.2039],[87.1022,42.1778],[87.0818,42.1297],[87.0033,42.158],[87.0346,42.2173],[87.0574,42.2107]]]},"properties":{"region_code":"CN-65-6528-652828","parent_region_code":"CN-65-6528","name":"和硕县","level":"county","has_children":false,"full_path":"中国 / 新疆维吾尔自治区 / 巴音郭楞蒙古自治州 / 和硕县","source_admin_code":"652828","osm_relation_id":2747282}},
{"type":"Feature","geometry":{"type":"Polygon","coordinates":[[[86.4147,41.6606],[86.452,41.644],[86.5104,41.633],[86.5309,41.641],[86.6082,41.6319],[86.6596,41.6095],[86.7299,41.5973],[86.7976,41.6037],[86.8625,41.5837],[86.9285,41.5704],[87.0121,41.5666],[87.0547,41.5593],[87.1064,41.56],[87.1448,41.5744],[87.1922,41.568],[87.1926,41.9057],[87.2363,41.8787],[87.2926,41.886],[87.2933,41.8686],[87.3307,41.8484],[87.422,41.828],[87.4332,41.8465],[87.3842,41.8805],[87.3689,41.8968],[87.3753,41.9182],[87.3456,41.919],[87.3482,41.9697],[87.3408,42.0059],[87.3205,42.0288],[87.2608,42.0414],[87.2219,42.0366],[87.1768,42.0524],[87.1611,42.0427],[87.1189,42.0649],[87.1077,42.0857],[87.0231,42.0994],[87.0054,42.1087],[86.9392,42.1129],[86.8905,42.1265],[86.8603,42.1435],[86.8161,42.1426],[86.7747,42.1822],[86.7293,42.2163],[86.6732,42.2268],[86.7254,42.1603],[86.704,42.1552],[86.6837,42.119],[86.6987,42.1021],[86.6926,42.0881],[86.6598,42.0737],[86.6594,42.0601],[86.6158,42.0431],[86.6043,42.0209],[86.5733,42.0243],[86.5824,41.98],[86.5932,41.9677],[86.547,41.9232],[86.5038,41.9229],[86.5194,41.9048],[86.5246,41.8766],[86.4901,41.8462],[86.4398,41.8332],[86.4059,41.8598],[86.3865,41.8577],[86.3769,41.8339],[86.3595,41.829],[86.3371,41.8162],[86.3709,41.8006],[86.4144,41.766],[86.4852,41.759],[86.462,41.7472],[86.4379,41.7518],[86.4147,41.6606]]]},"properties":{"region_code":"CN-65-6528-652829","parent_region_code":"CN-65-6528","name":"博湖县","level":"county","has_children":false,"full_path":"中国 / 新疆维吾尔自治区 / 巴音郭楞蒙古自治州 / 博湖县","source_admin_code":"652829","osm_relation_id":2747281}}
]}