{"type":"FeatureCollection", "features": [
{"type":"Feature","geometry":{"type":"Polygon","coordinates":[[[102.1219,35.7732],[102.0814,35.7593],[102.0616,35.7127],[102.0013,35.6783],[101.9546,35.6662],[101.9126,35.689],[101.9047,35.6587],[101.844,35.6793],[101.8502,35.7142],[101.7962,35.7302],[101.7702,35.7169],[101.7575,35.6632],[101.7251,35.6443],[101.6989,35.6105],[101.6935,35.5826],[101.6757,35.578],[101.6339,35.5113],[101.69,35.5159],[101.7194,35.4889],[101.7525,35.4968],[101.8218,35.4794],[101.8552,35.4475],[101.8563,35.4075],[101.8446,35.3857],[101.7871,35.3575],[101.798,35.3107],[101.77,35.304],[101.7261,35.2645],[101.7448,35.2296],[101.7734,35.2346],[101.7918,35.255],[101.8124,35.2466],[101.862,35.2485],[101.8788,35.3036],[101.9222,35.3149],[101.9283,35.341],[101.9898,35.3028],[101.9906,35.2615],[102.0138,35.2482],[102.0375,35.2147],[102.0491,35.182],[102.0178,35.1718],[102.0389,35.1407],[102.0516,35.0785],[102.0972,35.0632],[102.1032,35.033],[102.1308,35.016],[102.1564,35.012],[102.1722,35.0329],[102.2119,35.0368],[102.2171,35.0598],[102.2494,35.0492],[102.2928,35.0709],[102.3092,35.1288],[102.3375,35.1415],[102.348,35.166],[102.3795,35.1637],[102.4016,35.1792],[102.3783,35.2141],[102.3689,35.2626],[102.337,35.284],[102.3083,35.283],[102.2786,35.3033],[102.3093,35.3142],[102.3155,35.3412],[102.2843,35.3673],[102.2915,35.4253],[102.3129,35.4349],[102.4061,35.4108],[102.4458,35.4376],[102.4102,35.464],[102.4207,35.4913],[102.4242,35.5371],[102.4056,35.5389],[102.3522,35.5907],[102.3478,35.6093],[102.3017,35.6244],[102.266,35.6247],[102.2297,35.649],[102.2102,35.7087],[102.1603,35.6941],[102.131,35.7326],[102.1399,35.7479],[102.1219,35.7732]]]},"properties":{"region_code":"CN-63-6323-632301","parent_region_code":"CN-63-6323","name":"同仁市","level":"county","has_children":false,"full_path":"中国 / 青海省 / 黄南藏族自治州 / 同仁市","source_admin_code":"632301","osm_relation_id":4467009}},
{"type":"Feature","geometry":{"type":"Polygon","coordinates":[[[102.1219,35.7732],[102.0808,35.8023],[102.0879,35.8253],[102.0754,35.8645],[102.1085,35.8734],[102.1048,35.9064],[102.0859,35.9194],[102.0519,35.9084],[102.0326,35.955],[102.0354,35.9781],[101.9824,36.0084],[101.9802,36.0283],[101.9505,36.0322],[101.945,36.0592],[101.8973,36.0732],[101.8719,36.1131],[101.7886,36.1223],[101.7803,36.1553],[101.7524,36.1504],[101.7129,36.1644],[101.6617,36.1616],[101.6442,36.1531],[101.6304,36.1078],[101.6447,36.0906],[101.6521,36.025],[101.642,36.002],[101.6781,35.9658],[101.6764,35.9283],[101.7202,35.8914],[101.6623,35.8161],[101.6565,35.7861],[101.6792,35.7582],[101.7421,35.7552],[101.7641,35.7474],[101.7702,35.7169],[101.7962,35.7302],[101.8502,35.7142],[101.844,35.6793],[101.9047,35.6587],[101.9126,35.689],[101.9546,35.6662],[102.0013,35.6783],[102.0616,35.7127],[102.0814,35.7593],[102.1219,35.7732]]]},"properties":{"region_code":"CN-63-6323-632322","parent_region_code":"CN-63-6323","name":"尖扎县","level":"county","has_children":false,"full_path":"中国 / 青海省 / 黄南藏族自治州 / 尖扎县","source_admin_code":"632322","osm_relation_id":4467008}},
{"type":"Feature","geometry":{"type":"Polygon","coordinates":[[[101.6339,35.5113],[101.5608,35.5013],[101.5225,35.4702],[101.4915,35.4922],[101.4691,35.4729],[101.441,35.4882],[101.3884,35.4983],[101.3934,35.4546],[101.4533,35.4038],[101.4763,35.3515],[101.4403,35.3366],[101.4241,35.3427],[101.3743,35.3347],[101.3139,35.3656],[101.2879,35.3615],[101.2376,35.371],[101.2205,35.3847],[101.1784,35.3903],[101.1546,35.4036],[101.0408,35.4139],[100.9658,35.4],[100.9367,35.4143],[100.8299,35.4299],[100.8169,35.4116],[100.772,35.423],[100.6917,35.4183],[100.7009,35.3717],[100.7316,35.3427],[100.7915,35.3354],[100.8126,35.3203],[100.8479,35.3259],[100.9154,35.297],[100.8752,35.2516],[100.7846,35.1842],[100.754,35.1753],[100.695,35.1197],[100.6973,35.0779],[100.7507,35.0403],[100.8136,35.0057],[100.8958,34.9951],[100.9265,34.9755],[100.9479,34.9458],[101.0057,34.9179],[101.0241,34.9201],[101.0544,34.8912],[101.0935,34.8931],[101.1348,34.8761],[101.163,34.8621],[101.2363,34.8586],[101.2634,34.8784],[101.3645,34.8834],[101.4348,34.8986],[101.4831,34.9142],[101.5011,34.8948],[101.5312,34.9016],[101.6114,34.905],[101.6701,34.8847],[101.6761,34.8626],[101.6566,34.8438],[101.6667,34.7916],[101.6975,34.7841],[101.7535,34.7831],[101.7585,34.767],[101.8089,34.7791],[101.8837,34.7409],[101.9153,34.7411],[101.915,34.7879],[101.9271,34.8049],[101.9301,34.8433],[101.9164,34.8779],[101.9363,34.8893],[102.0179,34.8995],[102.0507,34.8927],[102.06,34.9443],[102.0933,34.9886],[102.1308,35.016],[102.1032,35.033],[102.0972,35.0632],[102.0516,35.0785],[102.0389,35.1407],[102.0178,35.1718],[102.0491,35.182],[102.0375,35.2147],[102.0138,35.2482],[101.9906,35.2615],[101.9898,35.3028],[101.9283,35.341],[101.9222,35.3149],[101.8788,35.3036],[101.862,35.2485],[101.8124,35.2466],[101.7918,35.255],[101.7734,35.2346],[101.7448,35.2296],[101.7261,35.2645],[101.77,35.304],[101.798,35.3107],[101.7871,35.3575],[101.8446,35.3857],[101.8563,35.4075],[101.8552,35.4475],[101.8218,35.4794],[101.7525,35.4968],[101.7194,35.4889],[101.69,35.5159],[101.6339,35.5113]],[[101.4039,35.2313],[101.4179,35.1875],[101.3972,35.1722],[101.3468,35.1829],[101.3529,35.2086],[101.3401,35.2779],[101.4162,35.2935],[101.4521,35.2856],[101.4871,35.3026],[101.5046,35.3288],[101.5472,35.3146],[101.538,35.2862],[101.5493,35.2592],[101.4914,35.2214],[101.4585,35.2195],[101.4448,35.2559],[101.4227,35.2549],[101.4039,35.2313]]]},"properties":{"region_code":"CN-63-6323-632323","parent_region_code":"CN-63-6323","name":"泽库县","level":"county","has_children":false,"full_path":"中国 / 青海省 / 黄南藏族自治州 / 泽库县","source_admin_code":"632323","osm_relation_id":4467010}},
{"type":"Feature","geometry":{"type":"Polygon","coordinates":[[[101.1348,34.8761],[101.1466,34.8363],[101.1241,34.8051],[101.0865,34.8027],[101.0754,34.7831],[101.1032,34.7446],[101.0891,34.7154],[101.0561,34.7039],[101.0566,34.6686],[101.0306,34.6491],[100.9925,34.6441],[100.9588,34.6638],[100.8991,34.6583],[100.9158,34.6247],[100.9181,34.567],[100.9444,34.5404],[100.9667,34.5337],[100.9771,34.4473],[100.9485,34.3845],[100.985,34.3758],[101.059,34.3297],[101.1382,34.3283],[101.1686,34.3204],[101.1904,34.339],[101.2338,34.3279],[101.2263,34.2989],[101.2649,34.2942],[101.2687,34.2799],[101.3268,34.2667],[101.3389,34.2502],[101.4419,34.2223],[101.4865,34.2179],[101.4892,34.1977],[101.5379,34.2136],[101.5589,34.1923],[101.5806,34.1977],[101.6034,34.1766],[101.6504,34.1561],[101.6488,34.1264],[101.6828,34.1092],[101.7139,34.1087],[101.7162,34.0845],[101.7464,34.0889],[101.7609,34.125],[101.7852,34.1334],[101.873,34.1317],[101.8925,34.1361],[101.9542,34.1112],[101.965,34.1704],[102.0017,34.1639],[102.0219,34.2155],[102.0637,34.2363],[102.061,34.2859],[102.0694,34.294],[102.1452,34.2732],[102.1594,34.3265],[102.179,34.3601],[102.2192,34.341],[102.2574,34.3575],[102.2209,34.3861],[102.1958,34.4332],[102.1672,34.4596],[102.1701,34.4778],[102.1204,34.5239],[102.0906,34.5373],[102.0006,34.539],[101.9736,34.5494],[101.9548,34.5855],[101.9227,34.6083],[101.9171,34.669],[101.9221,34.6938],[101.9153,34.7411],[101.8837,34.7409],[101.8089,34.7791],[101.7585,34.767],[101.7535,34.7831],[101.6975,34.7841],[101.6667,34.7916],[101.6566,34.8438],[101.6761,34.8626],[101.6701,34.8847],[101.6114,34.905],[101.5312,34.9016],[101.5011,34.8948],[101.4831,34.9142],[101.4348,34.8986],[101.3645,34.8834],[101.2634,34.8784],[101.2363,34.8586],[101.163,34.8621],[101.1348,34.8761]]]},"properties":{"region_code":"CN-63-6323-632324","parent_region_code":"CN-63-6323","name":"河南蒙古族自治县","level":"county","has_children":false,"full_path":"中国 / 青海省 / 黄南藏族自治州 / 河南蒙古族自治县","source_admin_code":"632324","osm_relation_id":4467007}}
]}