{"type":"FeatureCollection", "features": [
{"type":"Feature","geometry":{"type":"Polygon","coordinates":[[[101.1574,37.8676],[101.1307,37.8562],[101.0906,37.8059],[101.1319,37.7599],[101.1584,37.7576],[101.1926,37.7387],[101.172,37.7263],[101.165,37.7037],[101.1423,37.691],[101.1592,37.6394],[101.1882,37.6241],[101.1893,37.6017],[101.1299,37.5927],[101.1231,37.6051],[101.0684,37.5977],[101.0254,37.6158],[100.9572,37.5755],[100.9502,37.5464],[100.937,37.5369],[100.9217,37.4946],[100.9475,37.4696],[100.9663,37.4604],[100.9873,37.431],[101.0821,37.3863],[101.113,37.3879],[101.2486,37.365],[101.2836,37.3819],[101.3479,37.3472],[101.3971,37.3506],[101.4383,37.3388],[101.4698,37.3437],[101.5325,37.3227],[101.5304,37.2975],[101.5439,37.2792],[101.5657,37.2792],[101.6394,37.254],[101.6773,37.2521],[101.7167,37.2358],[101.751,37.2394],[101.7624,37.2181],[101.7983,37.2183],[101.8311,37.1891],[101.8791,37.1744],[101.8888,37.159],[101.9625,37.1274],[101.9967,37.1012],[102.0417,37.0943],[102.1161,37.061],[102.1617,37.0553],[102.1921,37.0764],[102.2343,37.0754],[102.2593,37.0858],[102.2878,37.0809],[102.3089,37.1004],[102.3384,37.0947],[102.3662,37.1043],[102.4047,37.104],[102.4865,37.0784],[102.4961,37.0902],[102.5294,37.0871],[102.5811,37.104],[102.6212,37.1034],[102.6259,37.1278],[102.5998,37.1738],[102.578,37.1723],[102.5313,37.2171],[102.486,37.2251],[102.4587,37.2462],[102.4486,37.2712],[102.4237,37.2867],[102.4262,37.3077],[102.3906,37.3243],[102.3662,37.3271],[102.2972,37.3695],[102.2947,37.3917],[102.2692,37.3924],[102.2472,37.4109],[102.1959,37.4197],[102.1766,37.4564],[102.1013,37.4923],[102.1201,37.5153],[102.1288,37.546],[102.0992,37.5741],[102.0716,37.5829],[102.0602,37.6105],[102.0334,37.6281],[102.0452,37.6537],[102.0313,37.6879],[102.0142,37.7066],[101.9795,37.7272],[101.9446,37.7278],[101.8925,37.7006],[101.8525,37.6643],[101.8142,37.6539],[101.8117,37.6812],[101.7871,37.6967],[101.6573,37.733],[101.6684,37.7539],[101.6389,37.7755],[101.6172,37.8096],[101.5965,37.8271],[101.5407,37.8386],[101.4984,37.8575],[101.4808,37.853],[101.4369,37.8674],[101.401,37.8309],[101.3778,37.8213],[101.374,37.7994],[101.3539,37.7897],[101.2742,37.8364],[101.2014,37.8467],[101.1574,37.8676]]]},"properties":{"region_code":"CN-63-6322-632221","parent_region_code":"CN-63-6322","name":"门源回族自治县","level":"county","has_children":false,"full_path":"中国 / 青海省 / 海北藏族自治州 / 门源回族自治县","source_admin_code":"632221","osm_relation_id":4516736}},
{"type":"Feature","geometry":{"type":"Polygon","coordinates":[[[101.1574,37.8676],[101.1504,37.8925],[101.1093,37.9366],[101.075,37.9415],[101.0578,37.9589],[100.9587,38.0114],[100.9165,37.9992],[100.899,38.0096],[100.8861,38.0548],[100.9227,38.0946],[100.9165,38.1159],[100.9227,38.1481],[100.937,38.1601],[100.9102,38.1781],[100.859,38.1474],[100.8186,38.1615],[100.8057,38.1822],[100.7552,38.2355],[100.7112,38.2534],[100.6907,38.2476],[100.6202,38.2664],[100.5941,38.2429],[100.5399,38.254],[100.5192,38.2732],[100.4734,38.2869],[100.4608,38.2657],[100.4296,38.2716],[100.4387,38.2937],[100.422,38.3055],[100.3944,38.2936],[100.3158,38.3281],[100.3279,38.3504],[100.2957,38.3897],[100.2817,38.3768],[100.2462,38.3735],[100.2452,38.4222],[100.2387,38.4408],[100.2115,38.4549],[100.1619,38.459],[100.1502,38.4782],[100.1117,38.4961],[100.0874,38.4933],[100.062,38.519],[100.0231,38.5076],[99.9998,38.4668],[100.0248,38.4506],[100.0204,38.4331],[100.0751,38.4139],[100.1095,38.3771],[100.1253,38.3409],[100.1628,38.3272],[100.1558,38.3101],[100.1835,38.2287],[100.179,38.2142],[100.1262,38.2321],[100.1178,38.2464],[100.073,38.2846],[100.0569,38.2805],[100.0155,38.2989],[100.0064,38.3125],[99.965,38.3176],[99.8344,38.3672],[99.8152,38.3668],[99.7725,38.4057],[99.7239,38.4115],[99.7045,38.4267],[99.6559,38.4406],[99.6585,38.4653],[99.6288,38.4739],[99.5554,38.5199],[99.5131,38.5675],[99.5129,38.599],[99.4961,38.613],[99.4464,38.6049],[99.4277,38.6466],[99.3736,38.6952],[99.3763,38.7092],[99.2859,38.7676],[99.2541,38.7832],[99.218,38.7899],[99.1748,38.8303],[99.1197,38.864],[99.0604,38.9062],[99.1009,38.9431],[99.0578,38.9759],[99.0133,38.9851],[98.9564,38.9842],[98.9015,39.0107],[98.8735,39.049],[98.8188,39.0658],[98.8117,39.0867],[98.7591,39.0904],[98.7309,39.0574],[98.7039,39.0428],[98.6633,38.9948],[98.6126,38.9798],[98.6239,38.9566],[98.5812,38.928],[98.5402,38.9574],[98.4932,38.9457],[98.43,38.9705],[98.4253,38.9996],[98.4003,39.0008],[98.4008,39.0228],[98.2629,39.0418],[98.2571,38.9907],[98.2363,38.9416],[98.237,38.9143],[98.2511,38.8887],[98.2025,38.8562],[98.1687,38.8413],[98.1509,38.8194],[98.1187,38.8087],[98.0927,38.7859],[98.1376,38.7469],[98.1396,38.7027],[98.1818,38.6671],[98.295,38.6628],[98.3857,38.6074],[98.5384,38.5793],[98.5619,38.5529],[98.6081,38.5267],[98.6952,38.529],[98.7349,38.485],[98.8719,38.4766],[98.9433,38.4464],[98.9647,38.4285],[98.9825,38.3931],[98.9407,38.3881],[98.9085,38.3634],[98.9091,38.3501],[98.9434,38.3333],[98.9092,38.3032],[98.9072,38.2897],[98.953,38.2719],[98.9955,38.2765],[99.0321,38.2554],[99.1275,38.2697],[99.1603,38.2867],[99.184,38.3124],[99.212,38.3158],[99.2287,38.3302],[99.2578,38.3095],[99.2471,38.2963],[99.2677,38.27],[99.3095,38.2622],[99.3454,38.2485],[99.4078,38.2568],[99.4444,38.2491],[99.5,38.2532],[99.5076,38.2179],[99.548,38.2096],[99.585,38.188],[99.593,38.1621],[99.5795,38.1057],[99.6185,38.0955],[99.6422,38.0804],[99.6898,38.0687],[99.7033,38.056],[99.7847,38.0506],[99.8194,38.0307],[99.8599,38.0255],[99.9011,38.0055],[99.944,37.9991],[100.0115,37.9631],[100.0453,37.9615],[100.1129,37.9224],[100.1589,37.8896],[100.186,37.8792],[100.2639,37.8692],[100.3103,37.8767],[100.4085,37.8303],[100.4302,37.8393],[100.4586,37.8129],[100.4592,37.7976],[100.5065,37.7659],[100.5246,37.719],[100.4972,37.6905],[100.4557,37.6703],[100.4516,37.6522],[100.4863,37.6343],[100.4954,37.6205],[100.5406,37.6101],[100.5534,37.5883],[100.5963,37.5673],[100.6167,37.5678],[100.6628,37.5483],[100.6864,37.5267],[100.7453,37.532],[100.7604,37.4953],[100.8003,37.4913],[100.8087,37.4681],[100.8576,37.4257],[100.8757,37.4221],[100.9175,37.4333],[100.9475,37.4696],[100.9217,37.4946],[100.937,37.5369],[100.9502,37.5464],[100.9572,37.5755],[101.0254,37.6158],[101.0684,37.5977],[101.1231,37.6051],[101.1299,37.5927],[101.1893,37.6017],[101.1882,37.6241],[101.1592,37.6394],[101.1423,37.691],[101.165,37.7037],[101.172,37.7263],[101.1926,37.7387],[101.1584,37.7576],[101.1319,37.7599],[101.0906,37.8059],[101.1307,37.8562],[101.1574,37.8676]]]},"properties":{"region_code":"CN-63-6322-632222","parent_region_code":"CN-63-6322","name":"祁连县","level":"county","has_children":false,"full_path":"中国 / 青海省 / 海北藏族自治州 / 祁连县","source_admin_code":"632222","osm_relation_id":4543386}},
{"type":"Feature","geometry":{"type":"Polygon","coordinates":[[[100.5534,37.5883],[100.5228,37.5615],[100.5291,37.5407],[100.557,37.5096],[100.5508,37.4928],[100.5764,37.4535],[100.6014,37.3815],[100.607,37.3177],[100.6223,37.2908],[100.6229,37.2663],[100.5713,37.2394],[100.5042,37.2455],[100.4633,37.2021],[100.4345,37.134],[100.4072,37.1138],[100.3823,37.1087],[100.3897,37.0876],[100.272,36.8697],[100.6958,36.7754],[100.72,36.7543],[100.8031,36.7582],[100.8627,36.7809],[100.8986,36.7594],[100.92,36.7611],[100.906,36.8001],[100.9634,36.8215],[101.0119,36.7946],[101.0219,36.7828],[101.0812,36.8015],[101.1418,36.8549],[101.1776,36.869],[101.1762,36.8869],[101.2021,36.8948],[101.2261,36.9152],[101.2885,36.9019],[101.2856,36.9521],[101.2762,36.9645],[101.2887,36.9972],[101.2551,37.066],[101.2233,37.1105],[101.1969,37.1103],[101.1742,37.1234],[101.1292,37.2052],[101.0762,37.229],[101.0465,37.2195],[101.0136,37.2452],[100.9642,37.2403],[100.9309,37.2578],[100.9133,37.2883],[100.9115,37.3164],[100.895,37.3372],[100.871,37.349],[100.8837,37.4059],[100.8757,37.4221],[100.8576,37.4257],[100.8087,37.4681],[100.8003,37.4913],[100.7604,37.4953],[100.7453,37.532],[100.6864,37.5267],[100.6628,37.5483],[100.6167,37.5678],[100.5963,37.5673],[100.5534,37.5883]]]},"properties":{"region_code":"CN-63-6322-632223","parent_region_code":"CN-63-6322","name":"海晏县","level":"county","has_children":false,"full_path":"中国 / 青海省 / 海北藏族自治州 / 海晏县","source_admin_code":"632223","osm_relation_id":4543631}},
{"type":"Feature","geometry":{"type":"Polygon","coordinates":[[[99.6898,38.0687],[99.6531,38.0515],[99.602,38.05],[99.5712,38.0328],[99.4994,38.0327],[99.4425,38.0175],[99.412,38.0254],[99.3818,38.0072],[99.3573,37.9696],[99.3924,37.9477],[99.3752,37.9234],[99.4426,37.8938],[99.4721,37.8694],[99.4821,37.8383],[99.514,37.8564],[99.5518,37.8451],[99.6006,37.8394],[99.6067,37.8277],[99.6616,37.8094],[99.6456,37.7905],[99.6482,37.7565],[99.6595,37.7313],[99.6899,37.716],[99.6919,37.6738],[99.6346,37.6538],[99.5895,37.6107],[99.5504,37.6056],[99.5384,37.5912],[99.5418,37.5632],[99.4996,37.5437],[99.4622,37.4821],[99.4759,37.4147],[99.4354,37.3966],[99.4048,37.3952],[99.4114,37.3454],[99.4458,37.3088],[99.4257,37.2487],[99.4341,37.2282],[99.4324,37.1793],[99.456,37.1741],[99.4668,37.1471],[99.5179,37.1344],[99.556,37.1125],[99.5784,37.1078],[99.6673,37.063],[99.6888,37.044],[99.7367,37.0376],[99.7393,37.0203],[99.7742,37.016],[99.7996,36.9888],[99.821,36.9875],[99.844,36.9639],[99.8815,36.9463],[100.1415,36.8994],[100.272,36.8697],[100.3897,37.0876],[100.3823,37.1087],[100.4072,37.1138],[100.4345,37.134],[100.4633,37.2021],[100.5042,37.2455],[100.5713,37.2394],[100.6229,37.2663],[100.6223,37.2908],[100.607,37.3177],[100.6014,37.3815],[100.5764,37.4535],[100.5508,37.4928],[100.557,37.5096],[100.5291,37.5407],[100.5228,37.5615],[100.5534,37.5883],[100.5406,37.6101],[100.4954,37.6205],[100.4863,37.6343],[100.4516,37.6522],[100.4557,37.6703],[100.4972,37.6905],[100.5246,37.719],[100.5065,37.7659],[100.4592,37.7976],[100.4586,37.8129],[100.4302,37.8393],[100.4085,37.8303],[100.3103,37.8767],[100.2639,37.8692],[100.186,37.8792],[100.1589,37.8896],[100.1129,37.9224],[100.0453,37.9615],[100.0115,37.9631],[99.944,37.9991],[99.9011,38.0055],[99.8599,38.0255],[99.8194,38.0307],[99.7847,38.0506],[99.7033,38.056],[99.6898,38.0687]]]},"properties":{"region_code":"CN-63-6322-632224","parent_region_code":"CN-63-6322","name":"刚察县","level":"county","has_children":false,"full_path":"中国 / 青海省 / 海北藏族自治州 / 刚察县","source_admin_code":"632224","osm_relation_id":4543630}}
]}