{"type":"FeatureCollection", "features": [
{"type":"Feature","geometry":{"type":"Polygon","coordinates":[[[120.4353,22.6288],[120.4461,22.6291],[120.4543,22.6289],[120.4581,22.6302],[120.466,22.6272],[120.4715,22.6262],[120.4725,22.6288],[120.4804,22.6303],[120.4812,22.6232],[120.4807,22.6208],[120.4842,22.6201],[120.4925,22.6231],[120.4931,22.6193],[120.5013,22.6188],[120.5054,22.6211],[120.5063,22.6249],[120.509,22.63],[120.5076,22.633],[120.5112,22.6403],[120.5121,22.6454],[120.5173,22.6485],[120.5158,22.6537],[120.5167,22.6581],[120.5225,22.6596],[120.5204,22.6625],[120.5161,22.6638],[120.5116,22.6634],[120.5081,22.6689],[120.5114,22.6729],[120.5106,22.6753],[120.5105,22.6814],[120.5113,22.6848],[120.5108,22.6883],[120.5118,22.691],[120.5175,22.6929],[120.5194,22.692],[120.5229,22.6932],[120.5258,22.6983],[120.5285,22.7004],[120.5257,22.7048],[120.5216,22.7073],[120.5147,22.7109],[120.5133,22.7129],[120.5048,22.7138],[120.5021,22.7113],[120.4961,22.7121],[120.4944,22.7101],[120.4851,22.7058],[120.4795,22.7069],[120.4767,22.7031],[120.4715,22.7029],[120.4681,22.6961],[120.4617,22.6888],[120.4578,22.6899],[120.4481,22.6894],[120.4431,22.6851],[120.4396,22.6783],[120.44,22.6732],[120.4362,22.6623],[120.4362,22.6482],[120.4354,22.6399],[120.4353,22.6288]]]},"properties":{"region_code":"CN-71-40758495D4","parent_region_code":"CN-71-32A0F6BD16","name":"屏东市","level":"county","has_children":false,"full_path":"中国 / 台湾省 / 屏东县 / 屏东市","source_admin_code":null,"osm_relation_id":2127210}},
{"type":"Feature","geometry":{"type":"Polygon","coordinates":[[[120.5086,22.5467],[120.5179,22.5457],[120.5199,22.5472],[120.5232,22.5469],[120.5237,22.5436],[120.5201,22.5413],[120.5195,22.5382],[120.523,22.5346],[120.5233,22.5274],[120.5253,22.5258],[120.526,22.5218],[120.5234,22.5185],[120.5241,22.5143],[120.5262,22.5109],[120.5293,22.5113],[120.5299,22.5034],[120.5337,22.508],[120.5429,22.511],[120.5476,22.5093],[120.5563,22.5089],[120.5823,22.5154],[120.5815,22.5167],[120.5883,22.5189],[120.5893,22.5174],[120.6017,22.5211],[120.6038,22.5211],[120.6057,22.5249],[120.5995,22.5255],[120.6054,22.5403],[120.592,22.5459],[120.5935,22.549],[120.5898,22.5506],[120.5855,22.5605],[120.5772,22.5593],[120.5735,22.558],[120.572,22.5539],[120.5646,22.5549],[120.5633,22.5573],[120.555,22.5614],[120.5555,22.5634],[120.5488,22.5658],[120.5397,22.5644],[120.538,22.5634],[120.5334,22.5639],[120.5296,22.5657],[120.5251,22.5612],[120.5187,22.5574],[120.5201,22.5543],[120.5163,22.5529],[120.5159,22.5571],[120.5121,22.5578],[120.5091,22.554],[120.5101,22.5495],[120.5086,22.5467]]]},"properties":{"region_code":"CN-71-36C88C94A4","parent_region_code":"CN-71-32A0F6BD16","name":"潮州镇","level":"county","has_children":false,"full_path":"中国 / 台湾省 / 屏东县 / 潮州镇","source_admin_code":null,"osm_relation_id":2589306}},
{"type":"Feature","geometry":{"type":"Polygon","coordinates":[[[120.5017,22.4604],[120.5014,22.4738],[120.4988,22.4758],[120.4913,22.4746],[120.4876,22.472],[120.4873,22.4806],[120.4891,22.4836],[120.4895,22.4883],[120.4931,22.492],[120.4916,22.4924],[120.4884,22.4987],[120.4788,22.5003],[120.4772,22.4991],[120.4767,22.4954],[120.4703,22.4914],[120.4686,22.4894],[120.4658,22.4842],[120.4619,22.4794],[120.4508,22.4726],[120.4459,22.4715],[120.4424,22.4677],[120.435,22.4647],[120.436,22.4594],[120.4385,22.4594],[120.4397,22.4568],[120.4469,22.4494],[120.4586,22.4394],[120.4806,22.4269],[120.4822,22.43],[120.4847,22.434],[120.4871,22.436],[120.4911,22.4346],[120.4963,22.4363],[120.4985,22.4441],[120.5017,22.4483],[120.4998,22.4515],[120.4996,22.4553],[120.497,22.4557],[120.4995,22.4602],[120.5017,22.4604]]]},"properties":{"region_code":"CN-71-1DC4830CD4","parent_region_code":"CN-71-32A0F6BD16","name":"东港镇","level":"county","has_children":false,"full_path":"中国 / 台湾省 / 屏东县 / 东港镇","source_admin_code":null,"osm_relation_id":2766783}},
{"type":"Feature","geometry":{"type":"Polygon","coordinates":[[[120.7845,22.0504],[120.7765,22.055],[120.7726,22.0549],[120.7702,22.0567],[120.7698,22.0597],[120.7642,22.0619],[120.76,22.0609],[120.7534,22.0628],[120.7527,22.0598],[120.7504,22.0585],[120.7502,22.0543],[120.7464,22.0493],[120.7432,22.0497],[120.7387,22.0476],[120.7332,22.0526],[120.7303,22.0514],[120.7241,22.0528],[120.7221,22.0542],[120.7197,22.0515],[120.7125,22.0494],[120.711,22.0469],[120.7059,22.0443],[120.7057,22.0408],[120.7034,22.0394],[120.7016,22.0352],[120.6983,22.0336],[120.6927,22.0346],[120.6909,22.0318],[120.6908,22.0257],[120.6933,22.0195],[120.698,22.0122],[120.6983,22.01],[120.6925,22.0096],[120.6943,22.0048],[120.6997,21.998],[120.7066,21.9956],[120.7087,21.9868],[120.711,21.9859],[120.7142,21.981],[120.7159,21.9727],[120.7124,21.9644],[120.7117,21.9483],[120.7101,21.9396],[120.7112,21.9342],[120.7149,21.9351],[120.7193,21.933],[120.7192,21.9275],[120.7226,21.923],[120.7281,21.9188],[120.732,21.9197],[120.7364,21.9192],[120.7393,21.9201],[120.7395,21.9272],[120.7418,21.9278],[120.7465,21.9333],[120.7453,21.9388],[120.7453,21.9431],[120.7488,21.9505],[120.7536,21.9539],[120.7536,21.9555],[120.762,21.9589],[120.7661,21.9592],[120.7705,21.9527],[120.7765,21.9499],[120.7826,21.9444],[120.7886,21.9449],[120.7949,21.9441],[120.7983,21.9417],[120.7985,21.9379],[120.8016,21.9373],[120.8035,21.9411],[120.8058,21.9407],[120.8065,21.9373],[120.8101,21.9342],[120.813,21.9335],[120.8221,21.9347],[120.8247,21.9305],[120.8329,21.9232],[120.8343,21.9191],[120.8372,21.916],[120.8471,21.9134],[120.8469,21.9062],[120.8486,21.9004],[120.8512,21.8981],[120.8554,21.8969],[120.8631,21.8979],[120.8663,21.9006],[120.8633,21.9033],[120.8605,21.9095],[120.8614,21.9133],[120.8599,21.9177],[120.8539,21.9279],[120.8484,21.9322],[120.8475,21.9366],[120.8454,21.9399],[120.8423,21.9479],[120.8409,21.9497],[120.8414,21.9552],[120.8404,21.9584],[120.8441,21.9688],[120.8459,21.9771],[120.844,21.9789],[120.8383,21.9753],[120.8344,21.9708],[120.8285,21.9703],[120.8243,21.975],[120.8185,21.9739],[120.8175,21.9764],[120.8139,21.9802],[120.8115,21.9813],[120.8049,21.98],[120.7932,21.9822],[120.7901,21.9796],[120.788,21.9808],[120.7757,21.9792],[120.7707,21.9794],[120.7707,21.9858],[120.7732,21.9862],[120.7763,21.99],[120.7795,21.9899],[120.7825,21.9961],[120.7866,21.9985],[120.7856,22.0007],[120.7853,22.0094],[120.7812,22.0145],[120.7775,22.0143],[120.7769,22.017],[120.7739,22.0198],[120.7725,22.024],[120.7745,22.025],[120.7852,22.0254],[120.786,22.0305],[120.7894,22.0321],[120.7933,22.0375],[120.792,22.0416],[120.7891,22.0459],[120.7841,22.0481],[120.7845,22.0504]]]},"properties":{"region_code":"CN-71-D39FAC34A1","parent_region_code":"CN-71-32A0F6BD16","name":"恒春镇","level":"county","has_children":false,"full_path":"中国 / 台湾省 / 屏东县 / 恒春镇","source_admin_code":null,"osm_relation_id":2756709}},
{"type":"Feature","geometry":{"type":"Polygon","coordinates":[[[120.6298,22.6523],[120.6318,22.653],[120.6307,22.6609],[120.6328,22.6622],[120.6317,22.6665],[120.6335,22.6732],[120.6356,22.6769],[120.636,22.6808],[120.6344,22.6834],[120.6376,22.6856],[120.6381,22.6878],[120.634,22.6917],[120.6409,22.6974],[120.6458,22.7079],[120.6494,22.7107],[120.6408,22.712],[120.6342,22.7111],[120.6291,22.7137],[120.6233,22.7106],[120.6285,22.7052],[120.6222,22.7027],[120.6156,22.6982],[120.6085,22.6972],[120.5991,22.6935],[120.5962,22.6933],[120.5871,22.6859],[120.5837,22.685],[120.5806,22.6821],[120.5788,22.6785],[120.5612,22.6637],[120.5576,22.6601],[120.5461,22.6506],[120.5445,22.647],[120.5365,22.64],[120.5392,22.637],[120.5381,22.6354],[120.5383,22.628],[120.5364,22.6217],[120.5364,22.6148],[120.5355,22.6044],[120.5365,22.6022],[120.5527,22.6065],[120.5531,22.6009],[120.5547,22.5981],[120.5536,22.5942],[120.5576,22.5883],[120.5559,22.5835],[120.5569,22.5809],[120.5608,22.579],[120.5654,22.5795],[120.5671,22.5817],[120.5637,22.5861],[120.5642,22.5881],[120.5715,22.5879],[120.573,22.5934],[120.5765,22.5948],[120.5784,22.597],[120.5762,22.6013],[120.5784,22.6054],[120.5813,22.608],[120.5847,22.6086],[120.5871,22.6118],[120.5876,22.6153],[120.5916,22.6194],[120.5941,22.6209],[120.5953,22.6247],[120.5992,22.6258],[120.6034,22.6296],[120.606,22.6304],[120.6108,22.635],[120.6158,22.6358],[120.6192,22.6401],[120.6192,22.6417],[120.6224,22.6495],[120.6243,22.6516],[120.6298,22.6523]]]},"properties":{"region_code":"CN-71-40FB5CCED8","parent_region_code":"CN-71-32A0F6BD16","name":"内埔乡","level":"county","has_children":false,"full_path":"中国 / 台湾省 / 屏东县 / 内埔乡","source_admin_code":null,"osm_relation_id":2455612}},
{"type":"Feature","geometry":{"type":"Polygon","coordinates":[[[120.4353,22.6288],[120.4335,22.6232],[120.4346,22.6134],[120.438,22.6067],[120.4427,22.6034],[120.446,22.5982],[120.447,22.586],[120.4444,22.5699],[120.4428,22.5623],[120.4407,22.5576],[120.4491,22.5575],[120.4543,22.5581],[120.458,22.5596],[120.4615,22.5589],[120.4651,22.5599],[120.4766,22.5603],[120.4777,22.5563],[120.4812,22.5559],[120.4789,22.54],[120.4795,22.5366],[120.4782,22.5312],[120.4844,22.5267],[120.4882,22.5275],[120.4922,22.53],[120.4925,22.5332],[120.4957,22.5361],[120.497,22.5394],[120.501,22.5389],[120.5042,22.5427],[120.502,22.5455],[120.506,22.5478],[120.5041,22.554],[120.504,22.5582],[120.4994,22.559],[120.4946,22.5692],[120.4993,22.5725],[120.5059,22.5738],[120.5076,22.5776],[120.5106,22.5813],[120.515,22.5827],[120.5173,22.5878],[120.5231,22.5956],[120.5195,22.5998],[120.5177,22.6037],[120.5132,22.6068],[120.5068,22.6163],[120.508,22.6207],[120.5063,22.6249],[120.5054,22.6211],[120.5013,22.6188],[120.4931,22.6193],[120.4925,22.6231],[120.4842,22.6201],[120.4807,22.6208],[120.4812,22.6232],[120.4804,22.6303],[120.4725,22.6288],[120.4715,22.6262],[120.466,22.6272],[120.4581,22.6302],[120.4543,22.6289],[120.4461,22.6291],[120.4353,22.6288]]]},"properties":{"region_code":"CN-71-7DFED0F6E0","parent_region_code":"CN-71-32A0F6BD16","name":"万丹乡","level":"county","has_children":false,"full_path":"中国 / 台湾省 / 屏东县 / 万丹乡","source_admin_code":null,"osm_relation_id":2438392}},
{"type":"Feature","geometry":{"type":"Polygon","coordinates":[[[120.4686,22.4894],[120.4673,22.4997],[120.4655,22.5058],[120.4677,22.5106],[120.4717,22.5168],[120.4773,22.5206],[120.4844,22.5267],[120.4782,22.5312],[120.4795,22.5366],[120.4789,22.54],[120.4812,22.5559],[120.4777,22.5563],[120.4766,22.5603],[120.4651,22.5599],[120.4615,22.5589],[120.458,22.5596],[120.4543,22.5581],[120.4491,22.5575],[120.4407,22.5576],[120.438,22.5526],[120.4366,22.5476],[120.4309,22.5439],[120.4251,22.5283],[120.4229,22.5187],[120.4231,22.511],[120.4257,22.4977],[120.424,22.48],[120.4244,22.4688],[120.4331,22.4684],[120.435,22.4647],[120.4424,22.4677],[120.4459,22.4715],[120.4508,22.4726],[120.4619,22.4794],[120.4658,22.4842],[120.4686,22.4894]]]},"properties":{"region_code":"CN-71-E97532BABC","parent_region_code":"CN-71-32A0F6BD16","name":"新园乡","level":"county","has_children":false,"full_path":"中国 / 台湾省 / 屏东县 / 新园乡","source_admin_code":null,"osm_relation_id":2766787}},
{"type":"Feature","geometry":{"type":"Polygon","coordinates":[[[120.5225,22.6596],[120.5248,22.6609],[120.5243,22.6649],[120.5273,22.6676],[120.5317,22.6667],[120.5335,22.6693],[120.537,22.6688],[120.5417,22.6708],[120.5451,22.6705],[120.5489,22.6665],[120.5531,22.6671],[120.5589,22.666],[120.5612,22.6637],[120.5788,22.6785],[120.5806,22.6821],[120.5837,22.685],[120.5871,22.6859],[120.5962,22.6933],[120.595,22.6927],[120.5881,22.6998],[120.5953,22.7061],[120.5985,22.708],[120.612,22.7108],[120.6099,22.7132],[120.6089,22.7161],[120.6047,22.7146],[120.5864,22.7167],[120.5872,22.7205],[120.5788,22.7207],[120.5772,22.7218],[120.5694,22.7194],[120.5581,22.7218],[120.5578,22.7184],[120.5544,22.7202],[120.5404,22.7226],[120.5405,22.721],[120.5237,22.7184],[120.5224,22.7091],[120.5216,22.7073],[120.5257,22.7048],[120.5285,22.7004],[120.5258,22.6983],[120.5229,22.6932],[120.5194,22.692],[120.5175,22.6929],[120.5118,22.691],[120.5108,22.6883],[120.5113,22.6848],[120.5105,22.6814],[120.5106,22.6753],[120.5114,22.6729],[120.5081,22.6689],[120.5116,22.6634],[120.5161,22.6638],[120.5204,22.6625],[120.5225,22.6596]],[[120.5831,22.6954],[120.5842,22.6943],[120.5768,22.688],[120.5772,22.691],[120.5831,22.6954]]]},"properties":{"region_code":"CN-71-C4B92F277C","parent_region_code":"CN-71-32A0F6BD16","name":"长治乡","level":"county","has_children":false,"full_path":"中国 / 台湾省 / 屏东县 / 长治乡","source_admin_code":null,"osm_relation_id":2429484}},
{"type":"Feature","geometry":{"type":"Polygon","coordinates":[[[120.514,22.7604],[120.5174,22.7668],[120.5191,22.7685],[120.524,22.7699],[120.5311,22.7694],[120.5383,22.7682],[120.5405,22.7687],[120.5439,22.7672],[120.5455,22.7706],[120.5481,22.777],[120.5508,22.7789],[120.553,22.7854],[120.5502,22.7894],[120.5516,22.7912],[120.5449,22.7979],[120.5554,22.8069],[120.5554,22.8116],[120.5576,22.8164],[120.5621,22.8207],[120.5629,22.8247],[120.5614,22.8273],[120.5646,22.8308],[120.5667,22.8383],[120.5615,22.8337],[120.5576,22.8321],[120.5532,22.8284],[120.5484,22.8284],[120.5441,22.8298],[120.5376,22.8292],[120.5235,22.8328],[120.5201,22.8314],[120.5155,22.8315],[120.51,22.8285],[120.5035,22.8317],[120.4985,22.8314],[120.4961,22.833],[120.494,22.8368],[120.4908,22.8352],[120.4823,22.8359],[120.4762,22.8382],[120.4741,22.8368],[120.4688,22.8305],[120.4692,22.8249],[120.4676,22.8223],[120.4674,22.8156],[120.4655,22.8127],[120.4641,22.8003],[120.4575,22.7854],[120.4559,22.7798],[120.4557,22.7744],[120.4543,22.7717],[120.4622,22.7702],[120.4644,22.7679],[120.4642,22.7629],[120.467,22.7569],[120.4713,22.7557],[120.4752,22.7583],[120.4796,22.7593],[120.4871,22.7585],[120.4875,22.7622],[120.4925,22.7617],[120.4938,22.7671],[120.4977,22.7667],[120.4983,22.7649],[120.5057,22.7655],[120.5118,22.7652],[120.514,22.7604]]]},"properties":{"region_code":"CN-71-9CB952056E","parent_region_code":"CN-71-32A0F6BD16","name":"里港乡","level":"county","has_children":false,"full_path":"中国 / 台湾省 / 屏东县 / 里港乡","source_admin_code":null,"osm_relation_id":2421953}},
{"type":"Feature","geometry":{"type":"Polygon","coordinates":[[[120.6291,22.7137],[120.6335,22.7163],[120.6346,22.7198],[120.6308,22.7233],[120.628,22.7287],[120.6242,22.7336],[120.6189,22.7364],[120.6164,22.7396],[120.6161,22.7483],[120.6126,22.7548],[120.6044,22.7585],[120.601,22.7668],[120.5957,22.7642],[120.5876,22.7681],[120.5842,22.769],[120.5824,22.7714],[120.5772,22.773],[120.5746,22.7715],[120.5719,22.7723],[120.5604,22.773],[120.5539,22.7699],[120.5471,22.7698],[120.5455,22.7706],[120.5439,22.7672],[120.5405,22.7687],[120.5383,22.7682],[120.5311,22.7694],[120.524,22.7699],[120.5191,22.7685],[120.5174,22.7668],[120.514,22.7604],[120.5128,22.7589],[120.5119,22.7523],[120.5105,22.7496],[120.5121,22.7459],[120.5116,22.7369],[120.5049,22.7299],[120.5069,22.7282],[120.5136,22.7277],[120.5156,22.7287],[120.5176,22.7324],[120.5225,22.7336],[120.5227,22.7318],[120.5324,22.7265],[120.5388,22.7251],[120.5404,22.7226],[120.5544,22.7202],[120.5578,22.7184],[120.5581,22.7218],[120.5694,22.7194],[120.5772,22.7218],[120.5788,22.7207],[120.5872,22.7205],[120.5864,22.7167],[120.6047,22.7146],[120.6089,22.7161],[120.6099,22.7132],[120.6146,22.7165],[120.6178,22.717],[120.6233,22.7106],[120.6291,22.7137]]]},"properties":{"region_code":"CN-71-E1F1A2240F","parent_region_code":"CN-71-32A0F6BD16","name":"盐埔乡","level":"county","has_children":false,"full_path":"中国 / 台湾省 / 屏东县 / 盐埔乡","source_admin_code":null,"osm_relation_id":2429433}},
{"type":"Feature","geometry":{"type":"Polygon","coordinates":[[[120.5455,22.7706],[120.5471,22.7698],[120.5539,22.7699],[120.5604,22.773],[120.5719,22.7723],[120.5746,22.7715],[120.5772,22.773],[120.5824,22.7714],[120.5842,22.769],[120.5876,22.7681],[120.5957,22.7642],[120.601,22.7668],[120.6044,22.7585],[120.6126,22.7548],[120.6161,22.7483],[120.6164,22.7396],[120.6189,22.7364],[120.6242,22.7336],[120.628,22.7287],[120.6308,22.7233],[120.6346,22.7198],[120.6378,22.724],[120.6394,22.7322],[120.6394,22.7356],[120.6344,22.7412],[120.6343,22.7445],[120.632,22.7469],[120.6313,22.7509],[120.635,22.7613],[120.6434,22.7684],[120.6442,22.7706],[120.6407,22.7715],[120.6383,22.7705],[120.6356,22.7743],[120.632,22.7763],[120.6288,22.7764],[120.6309,22.7821],[120.6293,22.7856],[120.63,22.7896],[120.6302,22.801],[120.6291,22.8116],[120.6356,22.8152],[120.6311,22.8174],[120.6279,22.8209],[120.6305,22.8286],[120.6294,22.8365],[120.6313,22.8411],[120.6279,22.8467],[120.6351,22.849],[120.6405,22.8546],[120.6401,22.8573],[120.6432,22.8644],[120.6477,22.8731],[120.6452,22.8732],[120.6445,22.878],[120.6477,22.8795],[120.6466,22.8837],[120.645,22.8851],[120.6358,22.8814],[120.6276,22.879],[120.6203,22.8756],[120.6154,22.8768],[120.6054,22.873],[120.5981,22.8668],[120.5955,22.8639],[120.5734,22.8469],[120.5697,22.8432],[120.5667,22.8383],[120.5646,22.8308],[120.5614,22.8273],[120.5629,22.8247],[120.5621,22.8207],[120.5576,22.8164],[120.5554,22.8116],[120.5554,22.8069],[120.5449,22.7979],[120.5516,22.7912],[120.5502,22.7894],[120.553,22.7854],[120.5508,22.7789],[120.5481,22.777],[120.5455,22.7706]]]},"properties":{"region_code":"CN-71-B1CD455A66","parent_region_code":"CN-71-32A0F6BD16","name":"高树乡","level":"county","has_children":false,"full_path":"中国 / 台湾省 / 屏东县 / 高树乡","source_admin_code":null,"osm_relation_id":2427801}},
{"type":"Feature","geometry":{"type":"Polygon","coordinates":[[[120.6402,22.3552],[120.6389,22.359],[120.6336,22.3592],[120.6297,22.3579],[120.626,22.3598],[120.6247,22.3623],[120.6218,22.3617],[120.6184,22.3691],[120.6227,22.369],[120.6182,22.3769],[120.6183,22.3852],[120.616,22.3866],[120.6187,22.3913],[120.6231,22.3912],[120.6244,22.3938],[120.6305,22.3954],[120.633,22.393],[120.6358,22.3935],[120.6313,22.3992],[120.6253,22.4037],[120.6249,22.4073],[120.6321,22.4144],[120.6276,22.4165],[120.628,22.4199],[120.6265,22.4219],[120.6235,22.4214],[120.6251,22.4261],[120.6299,22.4278],[120.6327,22.4358],[120.6275,22.4381],[120.6201,22.4396],[120.6132,22.444],[120.6091,22.4452],[120.601,22.4466],[120.5962,22.4481],[120.586,22.4528],[120.5795,22.455],[120.5766,22.4577],[120.5717,22.4485],[120.5701,22.4433],[120.5707,22.4408],[120.5691,22.4384],[120.5691,22.434],[120.5669,22.4295],[120.5761,22.4147],[120.5672,22.4109],[120.5648,22.4092],[120.5658,22.4017],[120.5637,22.3995],[120.5568,22.4018],[120.5531,22.4007],[120.5508,22.3962],[120.546,22.3974],[120.5568,22.3911],[120.5775,22.3775],[120.587,22.3703],[120.5927,22.3645],[120.5922,22.3621],[120.5951,22.3597],[120.6008,22.3528],[120.6026,22.3477],[120.6064,22.3406],[120.6106,22.3427],[120.6121,22.3457],[120.6182,22.3506],[120.6237,22.3522],[120.6251,22.3536],[120.6312,22.3545],[120.6349,22.3565],[120.6402,22.3552]]]},"properties":{"region_code":"CN-71-0873D0E22D","parent_region_code":"CN-71-32A0F6BD16","name":"枋寮乡","level":"county","has_children":false,"full_path":"中国 / 台湾省 / 屏东县 / 枋寮乡","source_admin_code":null,"osm_relation_id":2755053}},
{"type":"Feature","geometry":{"type":"Polygon","coordinates":[[[120.5216,22.7073],[120.5224,22.7091],[120.5237,22.7184],[120.5405,22.721],[120.5404,22.7226],[120.5388,22.7251],[120.5324,22.7265],[120.5227,22.7318],[120.5225,22.7336],[120.5176,22.7324],[120.5156,22.7287],[120.5136,22.7277],[120.5069,22.7282],[120.5049,22.7299],[120.5116,22.7369],[120.5121,22.7459],[120.5105,22.7496],[120.5119,22.7523],[120.5128,22.7589],[120.514,22.7604],[120.5118,22.7652],[120.5057,22.7655],[120.4983,22.7649],[120.4977,22.7667],[120.4938,22.7671],[120.4925,22.7617],[120.4875,22.7622],[120.4871,22.7585],[120.4796,22.7593],[120.4752,22.7583],[120.4713,22.7557],[120.467,22.7569],[120.4642,22.7629],[120.4644,22.7679],[120.4622,22.7702],[120.4543,22.7717],[120.4544,22.7644],[120.4537,22.7566],[120.455,22.7388],[120.4561,22.7306],[120.4561,22.7221],[120.4554,22.7162],[120.4513,22.7001],[120.4511,22.6978],[120.4481,22.6894],[120.4578,22.6899],[120.4617,22.6888],[120.4681,22.6961],[120.4715,22.7029],[120.4767,22.7031],[120.4795,22.7069],[120.4851,22.7058],[120.4944,22.7101],[120.4961,22.7121],[120.5021,22.7113],[120.5048,22.7138],[120.5133,22.7129],[120.5147,22.7109],[120.5216,22.7073]]]},"properties":{"region_code":"CN-71-27347B20B8","parent_region_code":"CN-71-32A0F6BD16","name":"九如乡","level":"county","has_children":false,"full_path":"中国 / 台湾省 / 屏东县 / 九如乡","source_admin_code":null,"osm_relation_id":2420222}},
{"type":"Feature","geometry":{"type":"Polygon","coordinates":[[[120.6057,22.5249],[120.6213,22.5233],[120.6249,22.5266],[120.6316,22.5245],[120.6336,22.5248],[120.6333,22.5258],[120.6266,22.5261],[120.6243,22.5293],[120.623,22.5344],[120.6244,22.5401],[120.6268,22.5427],[120.6244,22.5453],[120.6255,22.5518],[120.6249,22.5544],[120.6283,22.5561],[120.628,22.5647],[120.6256,22.5681],[120.6267,22.5712],[120.6258,22.5745],[120.6324,22.5729],[120.6309,22.5789],[120.6322,22.5829],[120.6311,22.5894],[120.6273,22.5926],[120.6249,22.5914],[120.6239,22.5962],[120.628,22.5974],[120.6317,22.601],[120.6321,22.6084],[120.6286,22.6085],[120.6281,22.612],[120.632,22.6138],[120.6309,22.6161],[120.6354,22.6203],[120.6365,22.6233],[120.6393,22.6261],[120.6336,22.626],[120.6316,22.6246],[120.6262,22.629],[120.6257,22.636],[120.6267,22.6418],[120.6296,22.6497],[120.6298,22.6523],[120.6243,22.6516],[120.6224,22.6495],[120.6192,22.6417],[120.6192,22.6401],[120.6158,22.6358],[120.6108,22.635],[120.606,22.6304],[120.6034,22.6296],[120.5992,22.6258],[120.5953,22.6247],[120.5941,22.6209],[120.5916,22.6194],[120.5876,22.6153],[120.5871,22.6118],[120.5847,22.6086],[120.5813,22.608],[120.5784,22.6054],[120.5762,22.6013],[120.5784,22.597],[120.5765,22.5948],[120.573,22.5934],[120.5715,22.5879],[120.5642,22.5881],[120.5637,22.5861],[120.5671,22.5817],[120.5654,22.5795],[120.5608,22.579],[120.5569,22.5809],[120.5542,22.5737],[120.5469,22.5706],[120.5397,22.5644],[120.5488,22.5658],[120.5555,22.5634],[120.555,22.5614],[120.5633,22.5573],[120.5646,22.5549],[120.572,22.5539],[120.5735,22.558],[120.5772,22.5593],[120.5855,22.5605],[120.5898,22.5506],[120.5935,22.549],[120.592,22.5459],[120.6054,22.5403],[120.5995,22.5255],[120.6057,22.5249]],[[120.613,22.604],[120.6095,22.6037],[120.6101,22.6072],[120.6129,22.6073],[120.613,22.604]]]},"properties":{"region_code":"CN-71-EA153F9580","parent_region_code":"CN-71-32A0F6BD16","name":"万峦乡","level":"county","has_children":false,"full_path":"中国 / 台湾省 / 屏东县 / 万峦乡","source_admin_code":null,"osm_relation_id":2458199}},
{"type":"Feature","geometry":{"type":"Polygon","coordinates":[[[120.5766,22.4577],[120.5732,22.4604],[120.5687,22.4601],[120.5612,22.4617],[120.5488,22.4606],[120.5447,22.4631],[120.5415,22.4631],[120.54,22.4621],[120.5354,22.4526],[120.533,22.4496],[120.5273,22.4496],[120.5252,22.4482],[120.5243,22.4449],[120.5272,22.4436],[120.526,22.4411],[120.525,22.43],[120.5226,22.4264],[120.5145,22.4199],[120.5108,22.4132],[120.5181,22.4098],[120.5348,22.403],[120.546,22.3974],[120.5508,22.3962],[120.5531,22.4007],[120.5568,22.4018],[120.5637,22.3995],[120.5658,22.4017],[120.5648,22.4092],[120.5672,22.4109],[120.5761,22.4147],[120.5669,22.4295],[120.5691,22.434],[120.5691,22.4384],[120.5707,22.4408],[120.5701,22.4433],[120.5717,22.4485],[120.5766,22.4577]]]},"properties":{"region_code":"CN-71-5C3D26F677","parent_region_code":"CN-71-32A0F6BD16","name":"佳冬乡","level":"county","has_children":false,"full_path":"中国 / 台湾省 / 屏东县 / 佳冬乡","source_admin_code":null,"osm_relation_id":2755016}},
{"type":"Feature","geometry":{"type":"Polygon","coordinates":[[[120.4822,22.43],[120.4967,22.4231],[120.5097,22.4146],[120.5108,22.4132],[120.5145,22.4199],[120.5226,22.4264],[120.525,22.43],[120.526,22.4411],[120.5272,22.4436],[120.5243,22.4449],[120.5252,22.4482],[120.5273,22.4496],[120.533,22.4496],[120.5354,22.4526],[120.54,22.4621],[120.5415,22.4631],[120.5401,22.4651],[120.5428,22.4679],[120.5362,22.4685],[120.5363,22.4671],[120.5291,22.4644],[120.5289,22.461],[120.5225,22.4606],[120.5088,22.4587],[120.5083,22.4609],[120.5017,22.4604],[120.4995,22.4602],[120.497,22.4557],[120.4996,22.4553],[120.4998,22.4515],[120.5017,22.4483],[120.4985,22.4441],[120.4963,22.4363],[120.4911,22.4346],[120.4871,22.436],[120.4847,22.434],[120.4822,22.43]]]},"properties":{"region_code":"CN-71-546277D79D","parent_region_code":"CN-71-32A0F6BD16","name":"林边乡","level":"county","has_children":false,"full_path":"中国 / 台湾省 / 屏东县 / 林边乡","source_admin_code":null,"osm_relation_id":2755008}},
{"type":"Feature","geometry":{"type":"Polygon","coordinates":[[[120.5397,22.5644],[120.5469,22.5706],[120.5542,22.5737],[120.5569,22.5809],[120.5559,22.5835],[120.5576,22.5883],[120.5536,22.5942],[120.5547,22.5981],[120.5531,22.6009],[120.5527,22.6065],[120.5365,22.6022],[120.5355,22.6044],[120.5364,22.6148],[120.5364,22.6217],[120.5383,22.628],[120.5381,22.6354],[120.5392,22.637],[120.5365,22.64],[120.5349,22.6418],[120.5285,22.6344],[120.5266,22.629],[120.5247,22.6274],[120.5199,22.6261],[120.5157,22.623],[120.508,22.6207],[120.5068,22.6163],[120.5132,22.6068],[120.5177,22.6037],[120.5195,22.5998],[120.5231,22.5956],[120.5173,22.5878],[120.515,22.5827],[120.5106,22.5813],[120.5076,22.5776],[120.5059,22.5738],[120.4993,22.5725],[120.4946,22.5692],[120.4994,22.559],[120.504,22.5582],[120.5041,22.554],[120.506,22.5478],[120.502,22.5455],[120.5042,22.5427],[120.508,22.5447],[120.5086,22.5467],[120.5101,22.5495],[120.5091,22.554],[120.5121,22.5578],[120.5159,22.5571],[120.5163,22.5529],[120.5201,22.5543],[120.5187,22.5574],[120.5251,22.5612],[120.5296,22.5657],[120.5334,22.5639],[120.538,22.5634],[120.5397,22.5644]]]},"properties":{"region_code":"CN-71-CD987CBBF8","parent_region_code":"CN-71-32A0F6BD16","name":"竹田乡","level":"county","has_children":false,"full_path":"中国 / 台湾省 / 屏东县 / 竹田乡","source_admin_code":null,"osm_relation_id":2446749}},
{"type":"Feature","geometry":{"type":"Polygon","coordinates":[[[120.5086,22.5467],[120.508,22.5447],[120.5042,22.5427],[120.501,22.5389],[120.497,22.5394],[120.4957,22.5361],[120.4925,22.5332],[120.4922,22.53],[120.4882,22.5275],[120.4844,22.5267],[120.4773,22.5206],[120.4717,22.5168],[120.4677,22.5106],[120.4655,22.5058],[120.4673,22.4997],[120.4686,22.4894],[120.4703,22.4914],[120.4767,22.4954],[120.4772,22.4991],[120.4788,22.5003],[120.4884,22.4987],[120.4916,22.4924],[120.4931,22.492],[120.5021,22.4933],[120.5083,22.4916],[120.5098,22.4965],[120.518,22.4949],[120.5225,22.4963],[120.5233,22.5025],[120.5265,22.5035],[120.5299,22.5019],[120.5299,22.5034],[120.5293,22.5113],[120.5262,22.5109],[120.5241,22.5143],[120.5234,22.5185],[120.526,22.5218],[120.5253,22.5258],[120.5233,22.5274],[120.523,22.5346],[120.5195,22.5382],[120.5201,22.5413],[120.5237,22.5436],[120.5232,22.5469],[120.5199,22.5472],[120.5179,22.5457],[120.5086,22.5467]]]},"properties":{"region_code":"CN-71-2CEC3C3926","parent_region_code":"CN-71-32A0F6BD16","name":"崁顶乡","level":"county","has_children":false,"full_path":"中国 / 台湾省 / 屏东县 / 崁顶乡","source_admin_code":null,"osm_relation_id":2592723}},
{"type":"Feature","geometry":{"type":"Polygon","coordinates":[[[120.3828,22.3532],[120.3814,22.3553],[120.3775,22.3557],[120.371,22.3526],[120.3664,22.3513],[120.3612,22.3453],[120.363,22.3395],[120.3605,22.3372],[120.3594,22.3338],[120.3551,22.3308],[120.3529,22.3266],[120.3551,22.3229],[120.3586,22.3216],[120.3647,22.3238],[120.3695,22.3281],[120.3705,22.3308],[120.3765,22.3365],[120.3872,22.3421],[120.3887,22.3458],[120.389,22.3495],[120.3828,22.3532]]]},"properties":{"region_code":"CN-71-334A2ACFFA","parent_region_code":"CN-71-32A0F6BD16","name":"琉球乡","level":"county","has_children":false,"full_path":"中国 / 台湾省 / 屏东县 / 琉球乡","source_admin_code":null,"osm_relation_id":2775814}},
{"type":"Feature","geometry":{"type":"Polygon","coordinates":[[[120.5063,22.6249],[120.508,22.6207],[120.5157,22.623],[120.5199,22.6261],[120.5247,22.6274],[120.5266,22.629],[120.5285,22.6344],[120.5349,22.6418],[120.5365,22.64],[120.5445,22.647],[120.5461,22.6506],[120.5576,22.6601],[120.5612,22.6637],[120.5589,22.666],[120.5531,22.6671],[120.5489,22.6665],[120.5451,22.6705],[120.5417,22.6708],[120.537,22.6688],[120.5335,22.6693],[120.5317,22.6667],[120.5273,22.6676],[120.5243,22.6649],[120.5248,22.6609],[120.5225,22.6596],[120.5167,22.6581],[120.5158,22.6537],[120.5173,22.6485],[120.5121,22.6454],[120.5112,22.6403],[120.5076,22.633],[120.509,22.63],[120.5063,22.6249]]]},"properties":{"region_code":"CN-71-0F71EBDE9C","parent_region_code":"CN-71-32A0F6BD16","name":"麟洛乡","level":"county","has_children":false,"full_path":"中国 / 台湾省 / 屏东县 / 麟洛乡","source_admin_code":null,"osm_relation_id":2431291}},
{"type":"Feature","geometry":{"type":"Polygon","coordinates":[[[120.5017,22.4604],[120.5083,22.4609],[120.5088,22.4587],[120.5225,22.4606],[120.5289,22.461],[120.5291,22.4644],[120.5363,22.4671],[120.5362,22.4685],[120.5428,22.4679],[120.5425,22.4775],[120.5415,22.4805],[120.5442,22.4828],[120.5464,22.487],[120.545,22.4895],[120.5416,22.4912],[120.536,22.4985],[120.5307,22.4983],[120.5299,22.5019],[120.5265,22.5035],[120.5233,22.5025],[120.5225,22.4963],[120.518,22.4949],[120.5098,22.4965],[120.5083,22.4916],[120.5021,22.4933],[120.4931,22.492],[120.4895,22.4883],[120.4891,22.4836],[120.4873,22.4806],[120.4876,22.472],[120.4913,22.4746],[120.4988,22.4758],[120.5014,22.4738],[120.5017,22.4604]]]},"properties":{"region_code":"CN-71-784E19667F","parent_region_code":"CN-71-32A0F6BD16","name":"南州乡","level":"county","has_children":false,"full_path":"中国 / 台湾省 / 屏东县 / 南州乡","source_admin_code":null,"osm_relation_id":2592722}},
{"type":"Feature","geometry":{"type":"Polygon","coordinates":[[[120.5299,22.5034],[120.5299,22.5019],[120.5307,22.4983],[120.536,22.4985],[120.5416,22.4912],[120.545,22.4895],[120.5464,22.487],[120.5442,22.4828],[120.5415,22.4805],[120.5425,22.4775],[120.5428,22.4679],[120.5401,22.4651],[120.5415,22.4631],[120.5447,22.4631],[120.5488,22.4606],[120.5612,22.4617],[120.5687,22.4601],[120.5732,22.4604],[120.5766,22.4577],[120.5795,22.455],[120.586,22.4528],[120.5962,22.4481],[120.601,22.4466],[120.6091,22.4452],[120.6113,22.4489],[120.6164,22.4479],[120.6208,22.4499],[120.6165,22.4537],[120.6176,22.4617],[120.6157,22.4681],[120.6163,22.474],[120.6191,22.4769],[120.6243,22.4796],[120.6201,22.4818],[120.6183,22.4874],[120.62,22.4953],[120.621,22.5067],[120.6245,22.5126],[120.6317,22.5213],[120.6336,22.5248],[120.6316,22.5245],[120.6249,22.5266],[120.6213,22.5233],[120.6057,22.5249],[120.6038,22.5211],[120.6017,22.5211],[120.5893,22.5174],[120.5883,22.5189],[120.5815,22.5167],[120.5823,22.5154],[120.5563,22.5089],[120.5476,22.5093],[120.5429,22.511],[120.5337,22.508],[120.5299,22.5034]],[[120.5783,22.5094],[120.5849,22.511],[120.5867,22.5082],[120.58,22.5065],[120.5783,22.5094]]]},"properties":{"region_code":"CN-71-4F2B59D060","parent_region_code":"CN-71-32A0F6BD16","name":"新埤乡","level":"county","has_children":false,"full_path":"中国 / 台湾省 / 屏东县 / 新埤乡","source_admin_code":null,"osm_relation_id":2589301}},
{"type":"Feature","geometry":{"type":"Polygon","coordinates":[[[120.7845,22.0504],[120.7874,22.058],[120.7902,22.0612],[120.7946,22.068],[120.7954,22.0697],[120.794,22.0747],[120.7948,22.0796],[120.7936,22.0845],[120.7957,22.0863],[120.7936,22.0892],[120.7936,22.0957],[120.7928,22.1001],[120.7859,22.1032],[120.7804,22.1036],[120.7798,22.1057],[120.7761,22.1062],[120.7707,22.1088],[120.7656,22.1094],[120.76,22.112],[120.7542,22.1126],[120.7548,22.1096],[120.7509,22.1048],[120.747,22.0985],[120.744,22.0977],[120.7394,22.0996],[120.7368,22.104],[120.7383,22.1108],[120.7361,22.1183],[120.7305,22.1167],[120.7241,22.1159],[120.7186,22.1119],[120.7156,22.1128],[120.7175,22.1156],[120.7185,22.1215],[120.7086,22.1323],[120.7038,22.1427],[120.7003,22.1426],[120.698,22.1424],[120.699,22.139],[120.7028,22.1381],[120.7027,22.1308],[120.7066,22.1285],[120.7101,22.1221],[120.7096,22.1197],[120.7134,22.1128],[120.7129,22.1099],[120.7161,22.1053],[120.7156,22.099],[120.7174,22.0947],[120.7155,22.0917],[120.71,22.0879],[120.7037,22.0859],[120.7011,22.0838],[120.7031,22.0802],[120.7066,22.0693],[120.7069,22.0609],[120.7049,22.0563],[120.7017,22.055],[120.6991,22.056],[120.6958,22.0519],[120.6947,22.0471],[120.698,22.0426],[120.6974,22.0413],[120.69,22.0366],[120.6865,22.0313],[120.6858,22.0273],[120.6868,22.0215],[120.689,22.0182],[120.6925,22.0096],[120.6983,22.01],[120.698,22.0122],[120.6933,22.0195],[120.6908,22.0257],[120.6909,22.0318],[120.6927,22.0346],[120.6983,22.0336],[120.7016,22.0352],[120.7034,22.0394],[120.7057,22.0408],[120.7059,22.0443],[120.711,22.0469],[120.7125,22.0494],[120.7197,22.0515],[120.7221,22.0542],[120.7241,22.0528],[120.7303,22.0514],[120.7332,22.0526],[120.7387,22.0476],[120.7432,22.0497],[120.7464,22.0493],[120.7502,22.0543],[120.7504,22.0585],[120.7527,22.0598],[120.7534,22.0628],[120.76,22.0609],[120.7642,22.0619],[120.7698,22.0597],[120.7702,22.0567],[120.7726,22.0549],[120.7765,22.055],[120.7845,22.0504]]]},"properties":{"region_code":"CN-71-1CC04BFBA6","parent_region_code":"CN-71-32A0F6BD16","name":"车城乡","level":"county","has_children":false,"full_path":"中国 / 台湾省 / 屏东县 / 车城乡","source_admin_code":null,"osm_relation_id":2756699}},
{"type":"Feature","geometry":{"type":"Polygon","coordinates":[[[120.844,21.9789],[120.8446,21.984],[120.8464,21.9878],[120.849,21.9896],[120.8539,21.9893],[120.8636,21.9935],[120.8671,21.9963],[120.8743,21.9993],[120.8776,22.0065],[120.8768,22.0119],[120.8822,22.0136],[120.8867,22.0176],[120.8871,22.0246],[120.8879,22.0265],[120.8934,22.0309],[120.8998,22.0345],[120.8965,22.0408],[120.8952,22.0454],[120.8926,22.0508],[120.8934,22.0556],[120.8919,22.0675],[120.8926,22.0699],[120.8905,22.076],[120.8901,22.0797],[120.8911,22.0862],[120.8953,22.09],[120.8984,22.0955],[120.898,22.0992],[120.9004,22.1042],[120.8964,22.1074],[120.8922,22.1086],[120.8895,22.1131],[120.8878,22.1177],[120.8862,22.1254],[120.8859,22.1328],[120.8959,22.1405],[120.897,22.1436],[120.8933,22.1417],[120.8868,22.1409],[120.8842,22.1386],[120.8739,22.1415],[120.8732,22.1444],[120.87,22.1448],[120.8698,22.1414],[120.8662,22.1405],[120.8601,22.1429],[120.858,22.1445],[120.8518,22.1453],[120.8488,22.1419],[120.8528,22.1378],[120.8565,22.13],[120.8542,22.1257],[120.8552,22.1232],[120.8532,22.1202],[120.8488,22.1161],[120.8432,22.1144],[120.8418,22.1115],[120.8382,22.1087],[120.833,22.107],[120.8284,22.1033],[120.8269,22.0966],[120.8234,22.09],[120.8187,22.0899],[120.8166,22.0871],[120.8169,22.085],[120.8206,22.0816],[120.8222,22.0765],[120.8181,22.0758],[120.818,22.0721],[120.8143,22.0643],[120.8096,22.06],[120.8067,22.0592],[120.8001,22.0615],[120.797,22.0643],[120.7946,22.068],[120.7902,22.0612],[120.7874,22.058],[120.7845,22.0504],[120.7841,22.0481],[120.7891,22.0459],[120.792,22.0416],[120.7933,22.0375],[120.7894,22.0321],[120.786,22.0305],[120.7852,22.0254],[120.7745,22.025],[120.7725,22.024],[120.7739,22.0198],[120.7769,22.017],[120.7775,22.0143],[120.7812,22.0145],[120.7853,22.0094],[120.7856,22.0007],[120.7866,21.9985],[120.7825,21.9961],[120.7795,21.9899],[120.7763,21.99],[120.7732,21.9862],[120.7707,21.9858],[120.7707,21.9794],[120.7757,21.9792],[120.788,21.9808],[120.7901,21.9796],[120.7932,21.9822],[120.8049,21.98],[120.8115,21.9813],[120.8139,21.9802],[120.8175,21.9764],[120.8185,21.9739],[120.8243,21.975],[120.8285,21.9703],[120.8344,21.9708],[120.8383,21.9753],[120.844,21.9789]]]},"properties":{"region_code":"CN-71-68D39F5665","parent_region_code":"CN-71-32A0F6BD16","name":"满州乡","level":"county","has_children":false,"full_path":"中国 / 台湾省 / 屏东县 / 满州乡","source_admin_code":null,"osm_relation_id":2756710}},
{"type":"Feature","geometry":{"type":"MultiPolygon","coordinates":[[[[120.634,22.6917],[120.6368,22.6918],[120.6399,22.6944],[120.6409,22.6974],[120.634,22.6917]]],[[[120.6494,22.7107],[120.6553,22.7094],[120.6571,22.7134],[120.6611,22.7126],[120.66,22.7083],[120.6624,22.7067],[120.6641,22.7095],[120.6688,22.7079],[120.6731,22.7048],[120.6775,22.7065],[120.6786,22.703],[120.6824,22.6988],[120.6865,22.6994],[120.6876,22.6965],[120.6912,22.6979],[120.6951,22.6945],[120.7011,22.6935],[120.7067,22.6912],[120.7061,22.6927],[120.71,22.6995],[120.71,22.7026],[120.7131,22.7071],[120.7127,22.7095],[120.715,22.7161],[120.7134,22.7192],[120.7088,22.7216],[120.7058,22.7252],[120.7029,22.7269],[120.7043,22.7312],[120.7031,22.7349],[120.7028,22.7424],[120.7017,22.7458],[120.7067,22.7482],[120.7139,22.749],[120.7163,22.7461],[120.7198,22.7496],[120.717,22.7622],[120.711,22.7722],[120.721,22.7805],[120.7227,22.7832],[120.726,22.7838],[120.7273,22.7871],[120.7268,22.7908],[120.73,22.7944],[120.7333,22.7958],[120.7359,22.8039],[120.7407,22.814],[120.7395,22.8221],[120.7525,22.827],[120.7578,22.8302],[120.7625,22.83],[120.7635,22.8321],[120.7679,22.8322],[120.7736,22.8365],[120.7741,22.838],[120.7733,22.8403],[120.7656,22.8487],[120.7641,22.849],[120.7622,22.8566],[120.7551,22.8646],[120.7496,22.8655],[120.7427,22.8736],[120.7376,22.8743],[120.7313,22.8761],[120.725,22.8808],[120.7206,22.882],[120.7169,22.8809],[120.7058,22.8812],[120.7029,22.8795],[120.7019,22.8772],[120.6975,22.8726],[120.692,22.8684],[120.6907,22.8651],[120.6791,22.8629],[120.6767,22.8572],[120.6701,22.8568],[120.6687,22.8586],[120.6613,22.8596],[120.6598,22.8612],[120.6587,22.8664],[120.6597,22.8699],[120.6584,22.8744],[120.6583,22.8787],[120.6548,22.8814],[120.6511,22.8772],[120.6477,22.8795],[120.6445,22.878],[120.6452,22.8732],[120.6477,22.8731],[120.6432,22.8644],[120.6401,22.8573],[120.6405,22.8546],[120.6351,22.849],[120.6279,22.8467],[120.6313,22.8411],[120.6294,22.8365],[120.6305,22.8286],[120.6279,22.8209],[120.6311,22.8174],[120.6356,22.8152],[120.6291,22.8116],[120.6302,22.801],[120.63,22.7896],[120.6293,22.7856],[120.6309,22.7821],[120.6288,22.7764],[120.632,22.7763],[120.6356,22.7743],[120.6383,22.7705],[120.6407,22.7715],[120.6442,22.7706],[120.6434,22.7684],[120.635,22.7613],[120.6313,22.7509],[120.632,22.7469],[120.6343,22.7445],[120.6344,22.7412],[120.6394,22.7356],[120.6394,22.7322],[120.6378,22.724],[120.6346,22.7198],[120.6335,22.7163],[120.6291,22.7137],[120.6342,22.7111],[120.6408,22.712],[120.6494,22.7107]]]]},"properties":{"region_code":"CN-71-FEEAD801B0","parent_region_code":"CN-71-32A0F6BD16","name":"三地门乡","level":"county","has_children":false,"full_path":"中国 / 台湾省 / 屏东县 / 三地门乡","source_admin_code":null,"osm_relation_id":2458197}},
{"type":"Feature","geometry":{"type":"MultiPolygon","coordinates":[[[[120.5783,22.5094],[120.58,22.5065],[120.5867,22.5082],[120.5849,22.511],[120.5783,22.5094]]],[[[120.6327,22.4358],[120.637,22.4331],[120.6416,22.4327],[120.645,22.4365],[120.6467,22.4412],[120.6502,22.4431],[120.658,22.4418],[120.6592,22.44],[120.6703,22.4423],[120.6715,22.4453],[120.6746,22.4467],[120.6813,22.4458],[120.6857,22.4466],[120.6927,22.4499],[120.6975,22.4568],[120.697,22.4593],[120.6989,22.4646],[120.6988,22.4683],[120.7012,22.4709],[120.7074,22.4672],[120.7104,22.4671],[120.7148,22.4689],[120.7198,22.4683],[120.7235,22.4649],[120.7234,22.4606],[120.7254,22.4597],[120.7268,22.454],[120.7295,22.4506],[120.7298,22.4459],[120.7352,22.4461],[120.7425,22.4517],[120.7454,22.456],[120.7496,22.4561],[120.7515,22.4585],[120.7516,22.4641],[120.7541,22.4692],[120.7544,22.4725],[120.7511,22.4795],[120.7577,22.482],[120.7589,22.4884],[120.7638,22.4911],[120.7643,22.4942],[120.762,22.5021],[120.7575,22.5087],[120.7535,22.5114],[120.7531,22.5181],[120.7513,22.5217],[120.7518,22.5249],[120.75,22.5294],[120.75,22.534],[120.748,22.5386],[120.7437,22.5435],[120.7395,22.5515],[120.74,22.5585],[120.7294,22.5624],[120.7241,22.562],[120.7178,22.5605],[120.7154,22.5634],[120.709,22.562],[120.7054,22.5633],[120.7026,22.5607],[120.6991,22.562],[120.6945,22.5578],[120.6912,22.5593],[120.687,22.5594],[120.6812,22.5617],[120.6798,22.5633],[120.6741,22.5625],[120.6686,22.5651],[120.6603,22.5631],[120.6522,22.5657],[120.6488,22.5648],[120.6459,22.5621],[120.6457,22.5559],[120.6467,22.5479],[120.6443,22.5431],[120.6444,22.5398],[120.6405,22.5383],[120.638,22.5408],[120.632,22.5387],[120.6281,22.5407],[120.6268,22.5427],[120.6244,22.5401],[120.623,22.5344],[120.6243,22.5293],[120.6266,22.5261],[120.6333,22.5258],[120.6336,22.5248],[120.6317,22.5213],[120.6245,22.5126],[120.621,22.5067],[120.62,22.4953],[120.6183,22.4874],[120.6201,22.4818],[120.6243,22.4796],[120.6191,22.4769],[120.6163,22.474],[120.6157,22.4681],[120.6176,22.4617],[120.6165,22.4537],[120.6208,22.4499],[120.6164,22.4479],[120.6113,22.4489],[120.6091,22.4452],[120.6132,22.444],[120.6201,22.4396],[120.6275,22.4381],[120.6327,22.4358]]]]},"properties":{"region_code":"CN-71-AF38F59EC5","parent_region_code":"CN-71-32A0F6BD16","name":"来义乡","level":"county","has_children":false,"full_path":"中国 / 台湾省 / 屏东县 / 来义乡","source_admin_code":null,"osm_relation_id":2589300}},
{"type":"Feature","geometry":{"type":"MultiPolygon","coordinates":[[[[120.6233,22.7106],[120.6178,22.717],[120.6146,22.7165],[120.6099,22.7132],[120.612,22.7108],[120.5985,22.708],[120.5953,22.7061],[120.5881,22.6998],[120.595,22.6927],[120.5962,22.6933],[120.5991,22.6935],[120.6085,22.6972],[120.6156,22.6982],[120.6222,22.7027],[120.6285,22.7052],[120.6233,22.7106]]],[[[120.6409,22.6974],[120.6399,22.6944],[120.6368,22.6918],[120.634,22.6917],[120.6381,22.6878],[120.6376,22.6856],[120.6344,22.6834],[120.636,22.6808],[120.6356,22.6769],[120.6335,22.6732],[120.6317,22.6665],[120.6328,22.6622],[120.6307,22.6609],[120.6318,22.653],[120.6298,22.6523],[120.6296,22.6497],[120.6267,22.6418],[120.6257,22.636],[120.6262,22.629],[120.6316,22.6246],[120.6324,22.6266],[120.6363,22.6285],[120.6379,22.632],[120.6423,22.6362],[120.6431,22.6402],[120.6505,22.6451],[120.6543,22.6455],[120.6587,22.6418],[120.6636,22.6461],[120.6679,22.6471],[120.6692,22.6495],[120.6776,22.6507],[120.687,22.6459],[120.692,22.6456],[120.6968,22.6425],[120.6977,22.6457],[120.6936,22.6545],[120.7001,22.655],[120.7059,22.6563],[120.7197,22.6567],[120.7243,22.6572],[120.7262,22.6549],[120.731,22.6538],[120.7353,22.6509],[120.74,22.6526],[120.7423,22.6547],[120.7468,22.6556],[120.7492,22.6581],[120.7509,22.6645],[120.7451,22.6721],[120.7438,22.6768],[120.7443,22.6812],[120.7379,22.6838],[120.7315,22.682],[120.7306,22.6847],[120.7251,22.685],[120.7243,22.6876],[120.7204,22.6902],[120.714,22.686],[120.7122,22.6881],[120.7092,22.6888],[120.7067,22.6912],[120.7011,22.6935],[120.6951,22.6945],[120.6912,22.6979],[120.6876,22.6965],[120.6865,22.6994],[120.6824,22.6988],[120.6786,22.703],[120.6775,22.7065],[120.6731,22.7048],[120.6688,22.7079],[120.6641,22.7095],[120.6624,22.7067],[120.66,22.7083],[120.6611,22.7126],[120.6571,22.7134],[120.6553,22.7094],[120.6494,22.7107],[120.6458,22.7079],[120.6409,22.6974]]]]},"properties":{"region_code":"CN-71-6DAF37ED54","parent_region_code":"CN-71-32A0F6BD16","name":"玛家乡","level":"county","has_children":false,"full_path":"中国 / 台湾省 / 屏东县 / 玛家乡","source_admin_code":null,"osm_relation_id":2458198}},
{"type":"Feature","geometry":{"type":"Polygon","coordinates":[[[120.6064,22.3406],[120.6123,22.3347],[120.624,22.3253],[120.6304,22.3192],[120.6367,22.3121],[120.6381,22.3086],[120.6423,22.3031],[120.6432,22.2913],[120.645,22.2859],[120.6484,22.2792],[120.6516,22.2674],[120.6492,22.2562],[120.6502,22.2533],[120.6602,22.2464],[120.6662,22.2406],[120.6717,22.2344],[120.6753,22.2282],[120.6757,22.2254],[120.6772,22.2244],[120.6767,22.2216],[120.6833,22.2126],[120.6859,22.2077],[120.6859,22.2037],[120.6838,22.1981],[120.6841,22.1956],[120.6867,22.1909],[120.6894,22.188],[120.6919,22.18],[120.6934,22.1776],[120.694,22.1721],[120.6971,22.1612],[120.696,22.1582],[120.6966,22.1548],[120.6992,22.1524],[120.7004,22.1484],[120.698,22.1424],[120.7003,22.1426],[120.7014,22.1461],[120.7011,22.1499],[120.6963,22.1687],[120.6947,22.1709],[120.6954,22.175],[120.6927,22.1815],[120.6939,22.186],[120.6967,22.1909],[120.6971,22.1936],[120.6954,22.1978],[120.6994,22.2022],[120.7006,22.2001],[120.7043,22.1995],[120.704,22.2038],[120.7065,22.2061],[120.7122,22.2074],[120.7172,22.2074],[120.7126,22.2115],[120.707,22.2133],[120.705,22.2116],[120.6959,22.21],[120.6923,22.2068],[120.6894,22.2078],[120.6874,22.2109],[120.6791,22.2189],[120.6776,22.2226],[120.6782,22.2244],[120.6757,22.227],[120.6774,22.2281],[120.6746,22.2302],[120.6726,22.2344],[120.6699,22.238],[120.6709,22.2387],[120.6708,22.2434],[120.6654,22.2504],[120.6612,22.2583],[120.6684,22.2615],[120.6724,22.2605],[120.6724,22.2634],[120.662,22.2653],[120.6595,22.2667],[120.6571,22.2653],[120.6533,22.2659],[120.6528,22.2691],[120.6506,22.2729],[120.649,22.2797],[120.6459,22.2854],[120.6448,22.305],[120.6483,22.3085],[120.6458,22.3107],[120.6414,22.3091],[120.6363,22.3179],[120.6364,22.3213],[120.6337,22.3256],[120.6334,22.329],[120.6304,22.335],[120.6276,22.3435],[120.6251,22.3456],[120.6299,22.3479],[120.6353,22.3517],[120.6414,22.3518],[120.6402,22.3552],[120.6349,22.3565],[120.6312,22.3545],[120.6251,22.3536],[120.6237,22.3522],[120.6182,22.3506],[120.6121,22.3457],[120.6106,22.3427],[120.6064,22.3406]]]},"properties":{"region_code":"CN-71-BF37276B0E","parent_region_code":"CN-71-32A0F6BD16","name":"枋山乡","level":"county","has_children":false,"full_path":"中国 / 台湾省 / 屏东县 / 枋山乡","source_admin_code":null,"osm_relation_id":2755108}},
{"type":"Feature","geometry":{"type":"MultiPolygon","coordinates":[[[[120.613,22.604],[120.6129,22.6073],[120.6101,22.6072],[120.6095,22.6037],[120.613,22.604]]],[[[120.6268,22.5427],[120.6281,22.5407],[120.632,22.5387],[120.638,22.5408],[120.6405,22.5383],[120.6444,22.5398],[120.6443,22.5431],[120.6467,22.5479],[120.6457,22.5559],[120.6459,22.5621],[120.6488,22.5648],[120.6522,22.5657],[120.6603,22.5631],[120.6686,22.5651],[120.6741,22.5625],[120.6798,22.5633],[120.6812,22.5617],[120.687,22.5594],[120.6912,22.5593],[120.6945,22.5578],[120.6991,22.562],[120.7026,22.5607],[120.7054,22.5633],[120.709,22.562],[120.7154,22.5634],[120.7178,22.5605],[120.7241,22.562],[120.7294,22.5624],[120.74,22.5585],[120.7397,22.5631],[120.7416,22.5687],[120.748,22.5711],[120.7493,22.5777],[120.7467,22.5841],[120.7458,22.5884],[120.7465,22.5908],[120.7524,22.5973],[120.7548,22.6012],[120.754,22.6086],[120.753,22.6116],[120.7545,22.616],[120.758,22.6231],[120.7609,22.6256],[120.7613,22.6299],[120.7552,22.6398],[120.7523,22.6421],[120.7507,22.6492],[120.749,22.6504],[120.7468,22.6556],[120.7423,22.6547],[120.74,22.6526],[120.7353,22.6509],[120.731,22.6538],[120.7262,22.6549],[120.7243,22.6572],[120.7197,22.6567],[120.7059,22.6563],[120.7001,22.655],[120.6936,22.6545],[120.6977,22.6457],[120.6968,22.6425],[120.692,22.6456],[120.687,22.6459],[120.6776,22.6507],[120.6692,22.6495],[120.6679,22.6471],[120.6636,22.6461],[120.6587,22.6418],[120.6543,22.6455],[120.6505,22.6451],[120.6431,22.6402],[120.6423,22.6362],[120.6379,22.632],[120.6363,22.6285],[120.6324,22.6266],[120.6316,22.6246],[120.6336,22.626],[120.6393,22.6261],[120.6365,22.6233],[120.6354,22.6203],[120.6309,22.6161],[120.632,22.6138],[120.6281,22.612],[120.6286,22.6085],[120.6321,22.6084],[120.6317,22.601],[120.628,22.5974],[120.6239,22.5962],[120.6249,22.5914],[120.6273,22.5926],[120.6311,22.5894],[120.6322,22.5829],[120.6309,22.5789],[120.6324,22.5729],[120.6258,22.5745],[120.6267,22.5712],[120.6256,22.5681],[120.628,22.5647],[120.6283,22.5561],[120.6249,22.5544],[120.6255,22.5518],[120.6244,22.5453],[120.6268,22.5427]]]]},"properties":{"region_code":"CN-71-91118139F9","parent_region_code":"CN-71-32A0F6BD16","name":"泰武乡","level":"county","has_children":false,"full_path":"中国 / 台湾省 / 屏东县 / 泰武乡","source_admin_code":null,"osm_relation_id":2458769}},
{"type":"Feature","geometry":{"type":"Polygon","coordinates":[[[120.7946,22.068],[120.797,22.0643],[120.8001,22.0615],[120.8067,22.0592],[120.8096,22.06],[120.8143,22.0643],[120.818,22.0721],[120.8181,22.0758],[120.8222,22.0765],[120.8206,22.0816],[120.8169,22.085],[120.8166,22.0871],[120.8187,22.0899],[120.8234,22.09],[120.8269,22.0966],[120.8284,22.1033],[120.833,22.107],[120.8382,22.1087],[120.8418,22.1115],[120.8432,22.1144],[120.8488,22.1161],[120.8532,22.1202],[120.8552,22.1232],[120.8542,22.1257],[120.8565,22.13],[120.8528,22.1378],[120.8488,22.1419],[120.8518,22.1453],[120.858,22.1445],[120.8601,22.1429],[120.8662,22.1405],[120.8698,22.1414],[120.87,22.1448],[120.8732,22.1444],[120.8739,22.1415],[120.8842,22.1386],[120.8868,22.1409],[120.8933,22.1417],[120.897,22.1436],[120.8913,22.1483],[120.8939,22.155],[120.8935,22.1584],[120.8911,22.1634],[120.8931,22.1708],[120.893,22.178],[120.8916,22.1798],[120.8916,22.1852],[120.8899,22.1944],[120.8928,22.1976],[120.8959,22.2035],[120.8934,22.2196],[120.895,22.227],[120.8981,22.2305],[120.8988,22.234],[120.8955,22.2462],[120.8842,22.2407],[120.8805,22.2345],[120.8765,22.2348],[120.8714,22.2329],[120.8709,22.2314],[120.8666,22.2298],[120.8682,22.2216],[120.8654,22.2122],[120.8631,22.2097],[120.858,22.2113],[120.8563,22.2106],[120.8501,22.2116],[120.848,22.2134],[120.8444,22.213],[120.8357,22.214],[120.8328,22.2159],[120.8317,22.2125],[120.824,22.207],[120.8166,22.2081],[120.8112,22.2037],[120.8052,22.2039],[120.803,22.2049],[120.799,22.1997],[120.7961,22.1976],[120.7929,22.1977],[120.7902,22.196],[120.7845,22.1956],[120.78,22.1944],[120.7782,22.1921],[120.7708,22.1877],[120.7677,22.1843],[120.7636,22.1823],[120.7555,22.1766],[120.7508,22.1778],[120.7449,22.1771],[120.7423,22.1755],[120.7382,22.175],[120.7366,22.1763],[120.7326,22.1744],[120.735,22.1682],[120.7329,22.1637],[120.7344,22.1591],[120.7374,22.156],[120.7382,22.148],[120.7363,22.1416],[120.7374,22.1397],[120.7354,22.1346],[120.7349,22.1295],[120.7366,22.1205],[120.7361,22.1183],[120.7383,22.1108],[120.7368,22.104],[120.7394,22.0996],[120.744,22.0977],[120.747,22.0985],[120.7509,22.1048],[120.7548,22.1096],[120.7542,22.1126],[120.76,22.112],[120.7656,22.1094],[120.7707,22.1088],[120.7761,22.1062],[120.7798,22.1057],[120.7804,22.1036],[120.7859,22.1032],[120.7928,22.1001],[120.7936,22.0957],[120.7936,22.0892],[120.7957,22.0863],[120.7936,22.0845],[120.7948,22.0796],[120.794,22.0747],[120.7954,22.0697],[120.7946,22.068]]]},"properties":{"region_code":"CN-71-4E41F5001A","parent_region_code":"CN-71-32A0F6BD16","name":"牡丹乡","level":"county","has_children":false,"full_path":"中国 / 台湾省 / 屏东县 / 牡丹乡","source_admin_code":null,"osm_relation_id":2756698}},
{"type":"Feature","geometry":{"type":"Polygon","coordinates":[[[120.7361,22.1183],[120.7366,22.1205],[120.7349,22.1295],[120.7354,22.1346],[120.7374,22.1397],[120.7363,22.1416],[120.7382,22.148],[120.7374,22.156],[120.7344,22.1591],[120.7329,22.1637],[120.735,22.1682],[120.7326,22.1744],[120.7366,22.1763],[120.7382,22.175],[120.7423,22.1755],[120.7449,22.1771],[120.7508,22.1778],[120.7555,22.1766],[120.7636,22.1823],[120.7677,22.1843],[120.7708,22.1877],[120.7782,22.1921],[120.78,22.1944],[120.7845,22.1956],[120.7902,22.196],[120.7929,22.1977],[120.7961,22.1976],[120.799,22.1997],[120.803,22.2049],[120.8052,22.2039],[120.8112,22.2037],[120.8166,22.2081],[120.824,22.207],[120.8317,22.2125],[120.8328,22.2159],[120.8357,22.214],[120.8444,22.213],[120.848,22.2134],[120.8501,22.2116],[120.8563,22.2106],[120.858,22.2113],[120.8631,22.2097],[120.8654,22.2122],[120.8682,22.2216],[120.8666,22.2298],[120.8624,22.2313],[120.8642,22.2335],[120.8587,22.2408],[120.8509,22.2436],[120.8449,22.2428],[120.8414,22.2445],[120.8395,22.2436],[120.8326,22.2471],[120.8315,22.2499],[120.8259,22.2566],[120.8211,22.2587],[120.8154,22.2632],[120.7996,22.2571],[120.7987,22.2639],[120.7962,22.2676],[120.798,22.2765],[120.8008,22.2774],[120.8067,22.2772],[120.8052,22.2843],[120.8006,22.2843],[120.7991,22.2855],[120.7933,22.2858],[120.7909,22.2887],[120.7899,22.2934],[120.7868,22.2944],[120.7819,22.2944],[120.7778,22.2979],[120.7769,22.3022],[120.7781,22.3086],[120.7835,22.3095],[120.7873,22.3092],[120.7931,22.3126],[120.7964,22.3168],[120.7965,22.3197],[120.7936,22.3236],[120.7926,22.3278],[120.7928,22.3348],[120.7892,22.3386],[120.7888,22.3412],[120.7863,22.3423],[120.7851,22.3455],[120.7758,22.3487],[120.7674,22.3476],[120.7635,22.3524],[120.763,22.3591],[120.7528,22.3603],[120.7435,22.3675],[120.7333,22.3665],[120.7294,22.3615],[120.726,22.3584],[120.7192,22.3547],[120.7133,22.3554],[120.708,22.3536],[120.7024,22.3485],[120.6952,22.348],[120.6895,22.3458],[120.6893,22.3429],[120.6872,22.3412],[120.6839,22.3437],[120.669,22.344],[120.6642,22.3458],[120.6588,22.341],[120.6548,22.3449],[120.6508,22.3463],[120.6489,22.349],[120.6438,22.349],[120.6414,22.3518],[120.6353,22.3517],[120.6299,22.3479],[120.6251,22.3456],[120.6276,22.3435],[120.6304,22.335],[120.6334,22.329],[120.6337,22.3256],[120.6364,22.3213],[120.6363,22.3179],[120.6414,22.3091],[120.6458,22.3107],[120.6483,22.3085],[120.6448,22.305],[120.6459,22.2854],[120.649,22.2797],[120.6506,22.2729],[120.6528,22.2691],[120.6533,22.2659],[120.6571,22.2653],[120.6595,22.2667],[120.662,22.2653],[120.6724,22.2634],[120.6724,22.2605],[120.6684,22.2615],[120.6612,22.2583],[120.6654,22.2504],[120.6708,22.2434],[120.6709,22.2387],[120.6699,22.238],[120.6726,22.2344],[120.6746,22.2302],[120.6774,22.2281],[120.6757,22.227],[120.6782,22.2244],[120.6776,22.2226],[120.6791,22.2189],[120.6874,22.2109],[120.6894,22.2078],[120.6923,22.2068],[120.6959,22.21],[120.705,22.2116],[120.707,22.2133],[120.7126,22.2115],[120.7172,22.2074],[120.7122,22.2074],[120.7065,22.2061],[120.704,22.2038],[120.7043,22.1995],[120.7006,22.2001],[120.6994,22.2022],[120.6954,22.1978],[120.6971,22.1936],[120.6967,22.1909],[120.6939,22.186],[120.6927,22.1815],[120.6954,22.175],[120.6947,22.1709],[120.6963,22.1687],[120.7011,22.1499],[120.7014,22.1461],[120.7003,22.1426],[120.7038,22.1427],[120.7086,22.1323],[120.7185,22.1215],[120.7175,22.1156],[120.7156,22.1128],[120.7186,22.1119],[120.7241,22.1159],[120.7305,22.1167],[120.7361,22.1183]]]},"properties":{"region_code":"CN-71-A075BB93EA","parent_region_code":"CN-71-32A0F6BD16","name":"狮子乡","level":"county","has_children":false,"full_path":"中国 / 台湾省 / 屏东县 / 狮子乡","source_admin_code":null,"osm_relation_id":2697245}},
{"type":"Feature","geometry":{"type":"Polygon","coordinates":[[[120.6402,22.3552],[120.6414,22.3518],[120.6438,22.349],[120.6489,22.349],[120.6508,22.3463],[120.6548,22.3449],[120.6588,22.341],[120.6642,22.3458],[120.669,22.344],[120.6839,22.3437],[120.6872,22.3412],[120.6893,22.3429],[120.6895,22.3458],[120.6952,22.348],[120.7024,22.3485],[120.708,22.3536],[120.7133,22.3554],[120.7192,22.3547],[120.726,22.3584],[120.7294,22.3615],[120.7333,22.3665],[120.7435,22.3675],[120.7448,22.3701],[120.7482,22.372],[120.7491,22.3742],[120.7487,22.3805],[120.7505,22.384],[120.7564,22.3886],[120.7522,22.3925],[120.7542,22.3968],[120.7576,22.3984],[120.7555,22.4032],[120.7646,22.4087],[120.7684,22.4086],[120.7733,22.4069],[120.775,22.4093],[120.7799,22.4092],[120.783,22.4113],[120.7895,22.4176],[120.788,22.4199],[120.7868,22.4252],[120.7848,22.4281],[120.7821,22.4345],[120.7767,22.4401],[120.7751,22.4434],[120.7765,22.4494],[120.7719,22.4519],[120.7659,22.4528],[120.7632,22.4542],[120.7581,22.4585],[120.7551,22.4572],[120.7515,22.4585],[120.7496,22.4561],[120.7454,22.456],[120.7425,22.4517],[120.7352,22.4461],[120.7298,22.4459],[120.7295,22.4506],[120.7268,22.454],[120.7254,22.4597],[120.7234,22.4606],[120.7235,22.4649],[120.7198,22.4683],[120.7148,22.4689],[120.7104,22.4671],[120.7074,22.4672],[120.7012,22.4709],[120.6988,22.4683],[120.6989,22.4646],[120.697,22.4593],[120.6975,22.4568],[120.6927,22.4499],[120.6857,22.4466],[120.6813,22.4458],[120.6746,22.4467],[120.6715,22.4453],[120.6703,22.4423],[120.6592,22.44],[120.658,22.4418],[120.6502,22.4431],[120.6467,22.4412],[120.645,22.4365],[120.6416,22.4327],[120.637,22.4331],[120.6327,22.4358],[120.6299,22.4278],[120.6251,22.4261],[120.6235,22.4214],[120.6265,22.4219],[120.628,22.4199],[120.6276,22.4165],[120.6321,22.4144],[120.6249,22.4073],[120.6253,22.4037],[120.6313,22.3992],[120.6358,22.3935],[120.633,22.393],[120.6305,22.3954],[120.6244,22.3938],[120.6231,22.3912],[120.6187,22.3913],[120.616,22.3866],[120.6183,22.3852],[120.6182,22.3769],[120.6227,22.369],[120.6184,22.3691],[120.6218,22.3617],[120.6247,22.3623],[120.626,22.3598],[120.6297,22.3579],[120.6336,22.3592],[120.6389,22.359],[120.6402,22.3552]]]},"properties":{"region_code":"CN-71-94E50DE8BF","parent_region_code":"CN-71-32A0F6BD16","name":"春日乡","level":"county","has_children":false,"full_path":"中国 / 台湾省 / 屏东县 / 春日乡","source_admin_code":null,"osm_relation_id":2697234}},
{"type":"Feature","geometry":{"type":"MultiPolygon","coordinates":[[[[120.5831,22.6954],[120.5772,22.691],[120.5768,22.688],[120.5842,22.6943],[120.5831,22.6954]]],[[[120.7067,22.6912],[120.7092,22.6888],[120.7122,22.6881],[120.714,22.686],[120.7204,22.6902],[120.7243,22.6876],[120.7251,22.685],[120.7306,22.6847],[120.7315,22.682],[120.7379,22.6838],[120.7443,22.6812],[120.7438,22.6768],[120.7451,22.6721],[120.7509,22.6645],[120.7492,22.6581],[120.7468,22.6556],[120.749,22.6504],[120.7507,22.6492],[120.7523,22.6421],[120.7552,22.6398],[120.7613,22.6299],[120.7641,22.6334],[120.7676,22.6361],[120.7719,22.6419],[120.7737,22.646],[120.7772,22.6505],[120.7797,22.6525],[120.7858,22.6612],[120.7863,22.6629],[120.7862,22.672],[120.7914,22.6787],[120.7892,22.684],[120.7894,22.6867],[120.7867,22.6928],[120.7889,22.6933],[120.7978,22.6891],[120.808,22.6892],[120.8111,22.6919],[120.8165,22.6918],[120.8203,22.6957],[120.826,22.6959],[120.8278,22.6974],[120.8349,22.6965],[120.8383,22.699],[120.838,22.7017],[120.8403,22.7067],[120.8447,22.7111],[120.8486,22.717],[120.8547,22.7175],[120.8587,22.7137],[120.8612,22.7166],[120.8672,22.7169],[120.8695,22.7159],[120.8754,22.7171],[120.8788,22.7161],[120.8838,22.7173],[120.8873,22.7224],[120.8883,22.7267],[120.8915,22.7295],[120.8926,22.7358],[120.8947,22.7376],[120.8956,22.742],[120.8941,22.7438],[120.8954,22.7482],[120.8941,22.7519],[120.8956,22.7557],[120.8948,22.7625],[120.893,22.7661],[120.8998,22.7688],[120.9038,22.7757],[120.9032,22.7804],[120.9042,22.7831],[120.9017,22.7875],[120.9032,22.7929],[120.9032,22.8],[120.9009,22.8045],[120.891,22.8117],[120.8808,22.8144],[120.8772,22.813],[120.8748,22.8152],[120.8719,22.8148],[120.8686,22.8169],[120.8652,22.8247],[120.8616,22.8266],[120.8646,22.8319],[120.8654,22.836],[120.8641,22.8396],[120.8647,22.8424],[120.8624,22.8471],[120.8598,22.8487],[120.86,22.8513],[120.8529,22.8575],[120.8478,22.8518],[120.8431,22.854],[120.8414,22.8566],[120.8412,22.8599],[120.8374,22.8641],[120.8321,22.8662],[120.8243,22.8663],[120.8187,22.8622],[120.8159,22.8621],[120.8135,22.8574],[120.8111,22.8567],[120.801,22.851],[120.7937,22.8521],[120.7917,22.8487],[120.793,22.8423],[120.7903,22.8401],[120.7859,22.8399],[120.7817,22.8362],[120.7788,22.8352],[120.7741,22.838],[120.7736,22.8365],[120.7679,22.8322],[120.7635,22.8321],[120.7625,22.83],[120.7578,22.8302],[120.7525,22.827],[120.7395,22.8221],[120.7407,22.814],[120.7359,22.8039],[120.7333,22.7958],[120.73,22.7944],[120.7268,22.7908],[120.7273,22.7871],[120.726,22.7838],[120.7227,22.7832],[120.721,22.7805],[120.711,22.7722],[120.717,22.7622],[120.7198,22.7496],[120.7163,22.7461],[120.7139,22.749],[120.7067,22.7482],[120.7017,22.7458],[120.7028,22.7424],[120.7031,22.7349],[120.7043,22.7312],[120.7029,22.7269],[120.7058,22.7252],[120.7088,22.7216],[120.7134,22.7192],[120.715,22.7161],[120.7127,22.7095],[120.7131,22.7071],[120.71,22.7026],[120.71,22.6995],[120.7061,22.6927],[120.7067,22.6912]]]]},"properties":{"region_code":"CN-71-A7373CC86A","parent_region_code":"CN-71-32A0F6BD16","name":"雾台乡","level":"county","has_children":false,"full_path":"中国 / 台湾省 / 屏东县 / 雾台乡","source_admin_code":null,"osm_relation_id":2458770}}
]}