{"type":"FeatureCollection", "features": [
{"type":"Feature","geometry":{"type":"Polygon","coordinates":[[[120.6258,24.0467],[120.6245,24.0483],[120.6236,24.0533],[120.6257,24.057],[120.6254,24.0687],[120.6228,24.0724],[120.6195,24.0734],[120.6152,24.0843],[120.6149,24.09],[120.6125,24.0992],[120.6123,24.1026],[120.6025,24.103],[120.6,24.1052],[120.5949,24.1049],[120.5884,24.1062],[120.5855,24.1076],[120.5835,24.1095],[120.5766,24.1096],[120.5726,24.1083],[120.5656,24.1098],[120.558,24.1125],[120.5537,24.1128],[120.5496,24.1139],[120.548,24.1104],[120.5465,24.109],[120.5432,24.1015],[120.5413,24.1001],[120.542,24.095],[120.5379,24.0933],[120.533,24.0905],[120.5255,24.09],[120.5244,24.086],[120.522,24.0839],[120.5191,24.0837],[120.5157,24.0862],[120.515,24.0841],[120.5174,24.08],[120.5136,24.0813],[120.5097,24.0815],[120.5093,24.078],[120.5025,24.0788],[120.4998,24.0763],[120.5038,24.0725],[120.5031,24.0704],[120.5046,24.0682],[120.5067,24.067],[120.5066,24.061],[120.5043,24.061],[120.5046,24.0571],[120.5068,24.0551],[120.5055,24.0525],[120.5067,24.0513],[120.5107,24.0548],[120.5149,24.0524],[120.5174,24.0522],[120.519,24.0561],[120.5226,24.0525],[120.5333,24.0519],[120.5343,24.0544],[120.5453,24.0539],[120.5487,24.0547],[120.5502,24.054],[120.5524,24.0506],[120.5546,24.051],[120.5581,24.0494],[120.5609,24.0513],[120.5633,24.052],[120.5641,24.0537],[120.5676,24.0555],[120.5708,24.0563],[120.574,24.054],[120.5766,24.0534],[120.5782,24.0544],[120.5807,24.0524],[120.5848,24.0514],[120.588,24.0468],[120.5871,24.0449],[120.5921,24.0414],[120.5928,24.0378],[120.6074,24.0439],[120.6112,24.0439],[120.613,24.0431],[120.6165,24.0433],[120.6214,24.046],[120.6258,24.0467]]]},"properties":{"region_code":"CN-71-D1B242F7B5","parent_region_code":"CN-71-800CCC9236","name":"彰化市","level":"county","has_children":false,"full_path":"中国 / 台湾省 / 彰化县 / 彰化市","source_admin_code":null,"osm_relation_id":3329591}},
{"type":"Feature","geometry":{"type":"Polygon","coordinates":[[[120.5472,23.9755],[120.5467,23.9719],[120.544,23.9684],[120.5447,23.9656],[120.5474,23.9629],[120.5506,23.9623],[120.5582,23.9586],[120.5617,23.9589],[120.5631,23.9576],[120.5639,23.9518],[120.5659,23.9506],[120.563,23.9458],[120.5608,23.945],[120.5615,23.938],[120.5674,23.9344],[120.5697,23.9344],[120.5754,23.9332],[120.5767,23.9361],[120.5792,23.927],[120.5812,23.9232],[120.5897,23.925],[120.5925,23.9282],[120.5935,23.9308],[120.5929,23.9332],[120.5983,23.9338],[120.6018,23.9354],[120.607,23.9338],[120.6097,23.9347],[120.6154,23.9341],[120.6241,23.9309],[120.6285,23.9314],[120.6321,23.9329],[120.6328,23.9356],[120.6357,23.9373],[120.6353,23.9387],[120.6302,23.9431],[120.6346,23.9438],[120.629,23.9498],[120.6309,23.9545],[120.6297,23.9561],[120.6295,23.9578],[120.6274,23.9593],[120.6277,23.9631],[120.625,23.9653],[120.6231,23.9679],[120.6236,23.9703],[120.6195,23.9761],[120.6197,23.9788],[120.6172,23.9802],[120.6158,23.984],[120.609,23.9856],[120.6076,23.9867],[120.6088,23.9901],[120.6045,23.9899],[120.6016,23.9868],[120.5987,23.985],[120.5934,23.9828],[120.5895,23.9798],[120.588,23.9806],[120.576,23.9786],[120.5761,23.9757],[120.5676,23.973],[120.5626,23.9725],[120.5629,23.9792],[120.5615,23.9799],[120.5558,23.9792],[120.5538,23.9781],[120.5505,23.9776],[120.5472,23.9755]]]},"properties":{"region_code":"CN-71-A693E5BE2A","parent_region_code":"CN-71-800CCC9236","name":"员林市","level":"county","has_children":false,"full_path":"中国 / 台湾省 / 彰化县 / 员林市","source_admin_code":null,"osm_relation_id":3329736}},
{"type":"Feature","geometry":{"type":"Polygon","coordinates":[[[120.5496,24.1139],[120.5452,24.1166],[120.5404,24.124],[120.5341,24.1256],[120.5323,24.1269],[120.5276,24.1342],[120.5237,24.1395],[120.5256,24.1458],[120.5258,24.149],[120.5205,24.1593],[120.5198,24.1615],[120.516,24.1599],[120.5132,24.1571],[120.5093,24.1551],[120.5096,24.1522],[120.5038,24.1517],[120.5015,24.1508],[120.5025,24.1485],[120.5063,24.148],[120.5062,24.1456],[120.5047,24.141],[120.5037,24.1357],[120.5011,24.132],[120.4865,24.1381],[120.4863,24.1409],[120.4839,24.1422],[120.482,24.1402],[120.4818,24.1359],[120.4833,24.1271],[120.4866,24.1231],[120.4847,24.1192],[120.4833,24.1188],[120.4817,24.1146],[120.4788,24.1105],[120.4784,24.1067],[120.479,24.1033],[120.4774,24.1024],[120.4787,24.0998],[120.4808,24.0987],[120.4846,24.0988],[120.486,24.0977],[120.4887,24.0907],[120.4909,24.0901],[120.4898,24.0878],[120.4886,24.0809],[120.4928,24.0772],[120.4986,24.0776],[120.4998,24.0763],[120.5025,24.0788],[120.5093,24.078],[120.5097,24.0815],[120.5136,24.0813],[120.5174,24.08],[120.515,24.0841],[120.5157,24.0862],[120.5191,24.0837],[120.522,24.0839],[120.5244,24.086],[120.5255,24.09],[120.533,24.0905],[120.5379,24.0933],[120.542,24.095],[120.5413,24.1001],[120.5432,24.1015],[120.5465,24.109],[120.548,24.1104],[120.5496,24.1139]]]},"properties":{"region_code":"CN-71-54F68B10A8","parent_region_code":"CN-71-800CCC9236","name":"和美镇","level":"county","has_children":false,"full_path":"中国 / 台湾省 / 彰化县 / 和美镇","source_admin_code":null,"osm_relation_id":3329534}},
{"type":"Feature","geometry":{"type":"Polygon","coordinates":[[[120.4774,24.1024],[120.4739,24.103],[120.472,24.1051],[120.4673,24.1074],[120.4633,24.1157],[120.4588,24.1188],[120.4568,24.1196],[120.4569,24.1215],[120.452,24.1266],[120.4436,24.1264],[120.4416,24.1252],[120.4363,24.1241],[120.4333,24.1249],[120.4297,24.124],[120.3984,24.1237],[120.3973,24.1211],[120.3968,24.1175],[120.394,24.1133],[120.3799,24.095],[120.3805,24.0923],[120.3849,24.0919],[120.3842,24.0877],[120.38,24.0855],[120.3768,24.0847],[120.3761,24.0833],[120.3708,24.0817],[120.3656,24.0815],[120.3634,24.0808],[120.3612,24.0763],[120.3592,24.0743],[120.3549,24.0725],[120.3502,24.0714],[120.3453,24.0668],[120.3421,24.0601],[120.3396,24.0594],[120.3412,24.0574],[120.3424,24.0538],[120.3602,24.0561],[120.3745,24.0572],[120.392,24.0578],[120.4052,24.0576],[120.4107,24.0599],[120.4173,24.0566],[120.4217,24.0533],[120.4246,24.0555],[120.4287,24.0559],[120.4306,24.0521],[120.4336,24.0482],[120.44,24.0444],[120.4407,24.0427],[120.4452,24.0412],[120.4435,24.0444],[120.4399,24.046],[120.4413,24.0479],[120.4397,24.0491],[120.4385,24.0537],[120.448,24.0536],[120.4523,24.0524],[120.4632,24.0522],[120.474,24.0476],[120.4789,24.0465],[120.4797,24.0479],[120.4797,24.054],[120.4785,24.057],[120.4818,24.0573],[120.4817,24.0684],[120.4796,24.0708],[120.4825,24.0723],[120.4896,24.0747],[120.4909,24.0743],[120.4928,24.0772],[120.4886,24.0809],[120.4898,24.0878],[120.4909,24.0901],[120.4887,24.0907],[120.486,24.0977],[120.4846,24.0988],[120.4808,24.0987],[120.4787,24.0998],[120.4774,24.1024]]]},"properties":{"region_code":"CN-71-3CF9260F27","parent_region_code":"CN-71-800CCC9236","name":"鹿港镇","level":"county","has_children":false,"full_path":"中国 / 台湾省 / 彰化县 / 鹿港镇","source_admin_code":null,"osm_relation_id":3329582}},
{"type":"Feature","geometry":{"type":"Polygon","coordinates":[[[120.4459,23.9589],[120.4485,23.9549],[120.4522,23.9482],[120.4556,23.94],[120.4606,23.9354],[120.4655,23.933],[120.4667,23.9314],[120.4671,23.9315],[120.4742,23.9219],[120.4749,23.922],[120.4806,23.9205],[120.4903,23.9205],[120.4909,23.9239],[120.4939,23.9239],[120.4946,23.9251],[120.4958,23.9293],[120.499,23.9299],[120.501,23.9292],[120.5015,23.9319],[120.5082,23.935],[120.5082,23.9372],[120.5104,23.9414],[120.5132,23.945],[120.5131,23.9487],[120.512,23.9505],[120.5123,23.9539],[120.5158,23.9583],[120.5153,23.9654],[120.5106,23.969],[120.5109,23.9732],[120.5142,23.9763],[120.5123,23.9776],[120.5082,23.9767],[120.5045,23.9734],[120.5003,23.9734],[120.497,23.9742],[120.4971,23.9723],[120.485,23.9732],[120.4832,23.9776],[120.4781,23.9779],[120.4749,23.9823],[120.4722,23.9838],[120.4675,23.9829],[120.4659,23.9805],[120.4657,23.9703],[120.4649,23.9675],[120.4624,23.9649],[120.4592,23.9626],[120.4538,23.9619],[120.4514,23.9651],[120.4475,23.966],[120.4483,23.9604],[120.4459,23.9589]]]},"properties":{"region_code":"CN-71-44F55783FE","parent_region_code":"CN-71-800CCC9236","name":"溪湖镇","level":"county","has_children":false,"full_path":"中国 / 台湾省 / 彰化县 / 溪湖镇","source_admin_code":null,"osm_relation_id":3329693}},
{"type":"Feature","geometry":{"type":"Polygon","coordinates":[[[120.4459,23.9589],[120.442,23.9658],[120.4376,23.9688],[120.4326,23.9698],[120.4295,23.9711],[120.4275,23.9744],[120.4236,23.9774],[120.4241,23.98],[120.422,23.9814],[120.4218,23.9834],[120.4181,23.9877],[120.4126,23.9964],[120.4088,23.9987],[120.4057,23.9914],[120.4076,23.9892],[120.4033,23.9862],[120.4019,23.9833],[120.4028,23.9789],[120.4015,23.9736],[120.4027,23.971],[120.402,23.9671],[120.4004,23.9641],[120.4,23.9602],[120.4019,23.9579],[120.3984,23.9577],[120.3981,23.9527],[120.3968,23.9508],[120.3916,23.9531],[120.3868,23.9453],[120.3855,23.9471],[120.383,23.9485],[120.3818,23.9474],[120.3817,23.9388],[120.3831,23.932],[120.3814,23.9256],[120.3768,23.9246],[120.3762,23.9232],[120.3679,23.9223],[120.3663,23.9205],[120.3641,23.9143],[120.3613,23.9144],[120.3614,23.9098],[120.3631,23.9075],[120.3606,23.9062],[120.362,23.9004],[120.3549,23.9009],[120.3532,23.9004],[120.3537,23.897],[120.3496,23.897],[120.3491,23.8926],[120.35,23.8922],[120.346,23.8836],[120.3436,23.8777],[120.3416,23.8699],[120.3466,23.8683],[120.3504,23.8662],[120.3485,23.8607],[120.3501,23.8588],[120.3541,23.8596],[120.3552,23.8566],[120.3584,23.855],[120.3609,23.8566],[120.3639,23.8551],[120.3656,23.8532],[120.3686,23.854],[120.3713,23.8633],[120.374,23.8634],[120.3782,23.8626],[120.3786,23.8634],[120.3835,23.8621],[120.3842,23.8634],[120.3883,23.8628],[120.389,23.8638],[120.3973,23.8639],[120.3997,23.8643],[120.3997,23.8696],[120.4028,23.87],[120.4034,23.8749],[120.4027,23.8774],[120.4031,23.8804],[120.4013,23.8848],[120.4037,23.8866],[120.4077,23.8868],[120.4092,23.8896],[120.4112,23.8915],[120.4127,23.8896],[120.413,23.8861],[120.4209,23.8858],[120.4258,23.8783],[120.4299,23.8803],[120.4355,23.876],[120.4382,23.8761],[120.4423,23.8745],[120.4452,23.8758],[120.4473,23.8754],[120.4481,23.8792],[120.4471,23.88],[120.4459,23.8852],[120.4481,23.8863],[120.4459,23.8893],[120.4469,23.8917],[120.4445,23.8924],[120.4435,23.8943],[120.4411,23.8947],[120.4417,23.9006],[120.4438,23.9009],[120.4438,23.9081],[120.4458,23.9092],[120.4476,23.9158],[120.4467,23.9188],[120.4455,23.919],[120.4458,23.9304],[120.454,23.9302],[120.4591,23.9291],[120.4597,23.9273],[120.4667,23.9314],[120.4655,23.933],[120.4606,23.9354],[120.4556,23.94],[120.4522,23.9482],[120.4485,23.9549],[120.4459,23.9589]]]},"properties":{"region_code":"CN-71-9AC3F4FDA7","parent_region_code":"CN-71-800CCC9236","name":"二林镇","level":"county","has_children":false,"full_path":"中国 / 台湾省 / 彰化县 / 二林镇","source_admin_code":null,"osm_relation_id":3329684}},
{"type":"Feature","geometry":{"type":"Polygon","coordinates":[[[120.555,23.8699],[120.5547,23.8649],[120.5562,23.8645],[120.5618,23.8604],[120.563,23.8579],[120.572,23.8512],[120.572,23.8503],[120.5684,23.8465],[120.5652,23.8476],[120.56,23.8482],[120.5591,23.8473],[120.5628,23.8433],[120.5723,23.833],[120.5725,23.8352],[120.5807,23.8261],[120.5832,23.828],[120.5877,23.8232],[120.5917,23.8202],[120.5959,23.8192],[120.6018,23.8206],[120.6028,23.8199],[120.6031,23.822],[120.6016,23.8257],[120.6003,23.8259],[120.6001,23.83],[120.598,23.831],[120.5983,23.8348],[120.5963,23.837],[120.5978,23.8381],[120.6011,23.837],[120.603,23.8378],[120.6049,23.8352],[120.6155,23.8406],[120.6189,23.8417],[120.6227,23.8487],[120.6256,23.852],[120.6272,23.8567],[120.6228,23.8606],[120.6235,23.862],[120.6206,23.8637],[120.6201,23.8656],[120.6218,23.8697],[120.6232,23.8694],[120.6258,23.8735],[120.6248,23.8771],[120.6211,23.8775],[120.6172,23.8795],[120.6127,23.8806],[120.6052,23.8801],[120.6049,23.881],[120.5982,23.8813],[120.5967,23.883],[120.5928,23.8827],[120.5929,23.877],[120.5852,23.8768],[120.582,23.8772],[120.5793,23.8755],[120.5757,23.8776],[120.5747,23.88],[120.5759,23.8817],[120.5743,23.8896],[120.5754,23.8916],[120.5742,23.8951],[120.5681,23.8887],[120.5699,23.8851],[120.5661,23.8861],[120.56,23.886],[120.5578,23.8811],[120.5565,23.8745],[120.5521,23.8765],[120.5517,23.8733],[120.555,23.8699]]]},"properties":{"region_code":"CN-71-37444B567B","parent_region_code":"CN-71-800CCC9236","name":"田中镇","level":"county","has_children":false,"full_path":"中国 / 台湾省 / 彰化县 / 田中镇","source_admin_code":null,"osm_relation_id":3329757}},
{"type":"Feature","geometry":{"type":"Polygon","coordinates":[[[120.555,23.8699],[120.5483,23.8707],[120.5472,23.8774],[120.5448,23.8828],[120.5412,23.8846],[120.5373,23.8852],[120.5344,23.8841],[120.5318,23.8844],[120.5256,23.8825],[120.5212,23.8842],[120.5206,23.8871],[120.5158,23.89],[120.5086,23.8932],[120.5,23.8949],[120.5005,23.8934],[120.4991,23.8901],[120.4998,23.8823],[120.5019,23.8797],[120.5023,23.8758],[120.5073,23.8711],[120.5128,23.8705],[120.514,23.8698],[120.5105,23.866],[120.5125,23.8638],[120.5163,23.8646],[120.5185,23.8642],[120.5233,23.8581],[120.5218,23.8545],[120.5271,23.8495],[120.5289,23.8467],[120.5323,23.8431],[120.5354,23.8416],[120.5311,23.8525],[120.5388,23.8521],[120.5422,23.8509],[120.5436,23.8485],[120.5519,23.8448],[120.5533,23.845],[120.5598,23.841],[120.5628,23.8433],[120.5591,23.8473],[120.56,23.8482],[120.5652,23.8476],[120.5684,23.8465],[120.572,23.8503],[120.572,23.8512],[120.563,23.8579],[120.5618,23.8604],[120.5562,23.8645],[120.5547,23.8649],[120.555,23.8699]]]},"properties":{"region_code":"CN-71-6002FD8A07","parent_region_code":"CN-71-800CCC9236","name":"北斗镇","level":"county","has_children":false,"full_path":"中国 / 台湾省 / 彰化县 / 北斗镇","source_admin_code":null,"osm_relation_id":3329788}},
{"type":"Feature","geometry":{"type":"Polygon","coordinates":[[[120.3424,24.0538],[120.3419,24.0479],[120.3536,24.0438],[120.365,24.0402],[120.3741,24.0377],[120.3777,24.0297],[120.379,24.0279],[120.3818,24.0263],[120.3856,24.0199],[120.3855,24.0172],[120.3876,24.0161],[120.3885,24.0107],[120.3906,24.0101],[120.3897,24.0077],[120.398,24.0031],[120.4021,24.0033],[120.4052,24.0022],[120.4059,23.9999],[120.4088,23.9987],[120.4126,23.9964],[120.4134,23.9977],[120.418,23.9969],[120.4249,23.9937],[120.4264,24.0049],[120.4291,24.0048],[120.4299,24.0087],[120.427,24.0111],[120.4279,24.0137],[120.4351,24.0192],[120.4355,24.0228],[120.4419,24.024],[120.4471,24.0237],[120.452,24.019],[120.4563,24.0165],[120.4592,24.0164],[120.4607,24.0135],[120.4629,24.0125],[120.469,24.0126],[120.4774,24.0118],[120.4791,24.0124],[120.4825,24.0109],[120.4864,24.011],[120.4921,24.0093],[120.4946,24.0058],[120.4953,24.0073],[120.4937,24.0096],[120.4974,24.0108],[120.4958,24.0122],[120.4954,24.0154],[120.4898,24.0205],[120.4823,24.0247],[120.4806,24.0267],[120.4843,24.0279],[120.4901,24.028],[120.4916,24.0291],[120.4855,24.0352],[120.4829,24.0401],[120.484,24.041],[120.4839,24.0439],[120.4892,24.0443],[120.489,24.047],[120.4837,24.0467],[120.482,24.0492],[120.4817,24.0541],[120.4797,24.054],[120.4797,24.0479],[120.4789,24.0465],[120.474,24.0476],[120.4632,24.0522],[120.4523,24.0524],[120.448,24.0536],[120.4385,24.0537],[120.4397,24.0491],[120.4413,24.0479],[120.4399,24.046],[120.4435,24.0444],[120.4452,24.0412],[120.4407,24.0427],[120.44,24.0444],[120.4336,24.0482],[120.4306,24.0521],[120.4287,24.0559],[120.4246,24.0555],[120.4217,24.0533],[120.4173,24.0566],[120.4107,24.0599],[120.4052,24.0576],[120.392,24.0578],[120.3745,24.0572],[120.3602,24.0561],[120.3424,24.0538]]]},"properties":{"region_code":"CN-71-D6E42C0C75","parent_region_code":"CN-71-800CCC9236","name":"福兴乡","level":"county","has_children":false,"full_path":"中国 / 台湾省 / 彰化县 / 福兴乡","source_admin_code":null,"osm_relation_id":3329615}},
{"type":"Feature","geometry":{"type":"Polygon","coordinates":[[[120.5174,24.0522],[120.5206,24.0444],[120.5207,24.036],[120.5218,24.0327],[120.5239,24.0306],[120.5241,24.0277],[120.5256,24.0259],[120.5251,24.023],[120.5264,24.0186],[120.5292,24.0174],[120.5317,24.018],[120.5348,24.0128],[120.5379,24.0129],[120.5419,24.0118],[120.546,24.0081],[120.5521,24.0078],[120.5534,24.0063],[120.5541,24.003],[120.5572,24.0026],[120.5744,24.0047],[120.5757,24.0056],[120.5789,24.0056],[120.5828,24.0074],[120.5847,24.009],[120.5888,24.0089],[120.5902,24.0105],[120.5936,24.011],[120.5972,24.0095],[120.6027,24.0104],[120.6051,24.0096],[120.601,24.015],[120.5997,24.0183],[120.5977,24.021],[120.5973,24.0232],[120.5954,24.0245],[120.595,24.0285],[120.5952,24.0327],[120.5924,24.0348],[120.5928,24.0378],[120.5921,24.0414],[120.5871,24.0449],[120.588,24.0468],[120.5848,24.0514],[120.5807,24.0524],[120.5782,24.0544],[120.5766,24.0534],[120.574,24.054],[120.5708,24.0563],[120.5676,24.0555],[120.5641,24.0537],[120.5633,24.052],[120.5609,24.0513],[120.5581,24.0494],[120.5546,24.051],[120.5524,24.0506],[120.5502,24.054],[120.5487,24.0547],[120.5453,24.0539],[120.5343,24.0544],[120.5333,24.0519],[120.5226,24.0525],[120.519,24.0561],[120.5174,24.0522]]]},"properties":{"region_code":"CN-71-24BFC07B80","parent_region_code":"CN-71-800CCC9236","name":"花坛乡","level":"county","has_children":false,"full_path":"中国 / 台湾省 / 彰化县 / 花坛乡","source_admin_code":null,"osm_relation_id":3329638}},
{"type":"Feature","geometry":{"type":"Polygon","coordinates":[[[120.5754,23.9332],[120.574,23.9294],[120.5712,23.9271],[120.5763,23.9233],[120.5751,23.9221],[120.5769,23.9167],[120.5771,23.9145],[120.5707,23.9143],[120.5662,23.9119],[120.5691,23.9049],[120.5645,23.9033],[120.5661,23.8939],[120.5681,23.8887],[120.5742,23.8951],[120.5754,23.8916],[120.5743,23.8896],[120.5759,23.8817],[120.5747,23.88],[120.5757,23.8776],[120.5793,23.8755],[120.582,23.8772],[120.5852,23.8768],[120.5929,23.877],[120.5928,23.8827],[120.5967,23.883],[120.5982,23.8813],[120.6049,23.881],[120.6052,23.8801],[120.6127,23.8806],[120.6172,23.8795],[120.6211,23.8775],[120.6248,23.8771],[120.6267,23.8794],[120.6275,23.8836],[120.6296,23.8848],[120.6295,23.8894],[120.632,23.8894],[120.634,23.8919],[120.6347,23.9008],[120.6322,23.9053],[120.6336,23.908],[120.6318,23.9104],[120.6343,23.9133],[120.6334,23.9152],[120.6349,23.9178],[120.6348,23.9199],[120.6372,23.9219],[120.6373,23.9246],[120.6327,23.9284],[120.6298,23.9295],[120.6285,23.9314],[120.6241,23.9309],[120.6154,23.9341],[120.6097,23.9347],[120.607,23.9338],[120.6018,23.9354],[120.5983,23.9338],[120.5929,23.9332],[120.5935,23.9308],[120.5925,23.9282],[120.5897,23.925],[120.5812,23.9232],[120.5792,23.927],[120.5767,23.9361],[120.5754,23.9332]]]},"properties":{"region_code":"CN-71-131A2825D0","parent_region_code":"CN-71-800CCC9236","name":"社头乡","level":"county","has_children":false,"full_path":"中国 / 台湾省 / 彰化县 / 社头乡","source_admin_code":null,"osm_relation_id":3329755}},
{"type":"Feature","geometry":{"type":"Polygon","coordinates":[[[120.4998,24.0763],[120.4986,24.0776],[120.4928,24.0772],[120.4909,24.0743],[120.4896,24.0747],[120.4825,24.0723],[120.4796,24.0708],[120.4817,24.0684],[120.4818,24.0573],[120.4785,24.057],[120.4797,24.054],[120.4817,24.0541],[120.482,24.0492],[120.4837,24.0467],[120.489,24.047],[120.4892,24.0443],[120.4839,24.0439],[120.484,24.041],[120.4829,24.0401],[120.4855,24.0352],[120.4916,24.0291],[120.4901,24.028],[120.4843,24.0279],[120.4806,24.0267],[120.4823,24.0247],[120.4898,24.0205],[120.4954,24.0154],[120.4958,24.0122],[120.4974,24.0108],[120.4937,24.0096],[120.4953,24.0073],[120.4946,24.0058],[120.4952,24.0016],[120.4994,23.9959],[120.503,23.9923],[120.5057,23.9908],[120.5082,23.9914],[120.509,23.9931],[120.5115,23.9938],[120.513,23.9926],[120.5169,23.9935],[120.5174,23.9959],[120.5214,23.9962],[120.5211,23.9988],[120.5235,23.9992],[120.5267,24.001],[120.5271,24.0039],[120.5264,24.0068],[120.5285,24.0065],[120.5296,24.0097],[120.5288,24.011],[120.5351,24.0116],[120.5348,24.0128],[120.5317,24.018],[120.5292,24.0174],[120.5264,24.0186],[120.5251,24.023],[120.5256,24.0259],[120.5241,24.0277],[120.5239,24.0306],[120.5218,24.0327],[120.5207,24.036],[120.5206,24.0444],[120.5174,24.0522],[120.5149,24.0524],[120.5107,24.0548],[120.5067,24.0513],[120.5055,24.0525],[120.5068,24.0551],[120.5046,24.0571],[120.5043,24.061],[120.5066,24.061],[120.5067,24.067],[120.5046,24.0682],[120.5031,24.0704],[120.5038,24.0725],[120.4998,24.0763]]]},"properties":{"region_code":"CN-71-88601D9E7F","parent_region_code":"CN-71-800CCC9236","name":"秀水乡","level":"county","has_children":false,"full_path":"中国 / 台湾省 / 彰化县 / 秀水乡","source_admin_code":null,"osm_relation_id":3329601}},
{"type":"Feature","geometry":{"type":"Polygon","coordinates":[[[120.5198,24.1615],[120.5173,24.166],[120.5112,24.1805],[120.5084,24.1868],[120.5044,24.1911],[120.4566,24.2072],[120.4535,24.2036],[120.4507,24.1979],[120.4471,24.1943],[120.444,24.1889],[120.4424,24.1885],[120.4392,24.1857],[120.4327,24.1867],[120.4297,24.1845],[120.4247,24.1833],[120.4244,24.1819],[120.4262,24.1797],[120.4247,24.1776],[120.4327,24.1659],[120.4365,24.1611],[120.4406,24.157],[120.4397,24.1559],[120.4508,24.1475],[120.4519,24.1464],[120.4555,24.1456],[120.456,24.1473],[120.4591,24.1468],[120.4651,24.1482],[120.4683,24.1427],[120.4742,24.1411],[120.4758,24.1417],[120.482,24.1402],[120.4839,24.1422],[120.4863,24.1409],[120.4865,24.1381],[120.5011,24.132],[120.5037,24.1357],[120.5047,24.141],[120.5062,24.1456],[120.5063,24.148],[120.5025,24.1485],[120.5015,24.1508],[120.5038,24.1517],[120.5096,24.1522],[120.5093,24.1551],[120.5132,24.1571],[120.516,24.1599],[120.5198,24.1615]]]},"properties":{"region_code":"CN-71-C57E8AED07","parent_region_code":"CN-71-800CCC9236","name":"伸港乡","level":"county","has_children":false,"full_path":"中国 / 台湾省 / 彰化县 / 伸港乡","source_admin_code":null,"osm_relation_id":3329530}},
{"type":"Feature","geometry":{"type":"Polygon","coordinates":[[[120.6088,23.9901],[120.6089,23.9927],[120.6114,23.9943],[120.6092,23.9957],[120.6093,23.9993],[120.6044,24.0052],[120.603,24.0084],[120.6051,24.0096],[120.6027,24.0104],[120.5972,24.0095],[120.5936,24.011],[120.5902,24.0105],[120.5888,24.0089],[120.5847,24.009],[120.5828,24.0074],[120.5789,24.0056],[120.5757,24.0056],[120.5744,24.0047],[120.5572,24.0026],[120.5541,24.003],[120.5534,24.0063],[120.5521,24.0078],[120.546,24.0081],[120.5419,24.0118],[120.5379,24.0129],[120.5348,24.0128],[120.5351,24.0116],[120.5288,24.011],[120.5296,24.0097],[120.5285,24.0065],[120.5264,24.0068],[120.5271,24.0039],[120.5267,24.001],[120.5235,23.9992],[120.5211,23.9988],[120.5214,23.9962],[120.5174,23.9959],[120.5169,23.9935],[120.513,23.9926],[120.5115,23.9938],[120.509,23.9931],[120.5082,23.9914],[120.5057,23.9908],[120.5074,23.9893],[120.5053,23.9873],[120.5088,23.9826],[120.5152,23.9781],[120.5196,23.9782],[120.522,23.9771],[120.5265,23.978],[120.5294,23.9774],[120.5327,23.9778],[120.5346,23.9737],[120.5385,23.9711],[120.5415,23.9713],[120.5449,23.9763],[120.5472,23.9755],[120.5505,23.9776],[120.5538,23.9781],[120.5558,23.9792],[120.5615,23.9799],[120.5629,23.9792],[120.5626,23.9725],[120.5676,23.973],[120.5761,23.9757],[120.576,23.9786],[120.588,23.9806],[120.5895,23.9798],[120.5934,23.9828],[120.5987,23.985],[120.6016,23.9868],[120.6045,23.9899],[120.6088,23.9901]]]},"properties":{"region_code":"CN-71-F9DAD7C5C2","parent_region_code":"CN-71-800CCC9236","name":"大村乡","level":"county","has_children":false,"full_path":"中国 / 台湾省 / 彰化县 / 大村乡","source_admin_code":null,"osm_relation_id":3329656}},
{"type":"Feature","geometry":{"type":"Polygon","coordinates":[[[120.5615,23.938],[120.558,23.9378],[120.5547,23.936],[120.552,23.933],[120.544,23.9334],[120.544,23.9319],[120.5371,23.9294],[120.5354,23.9299],[120.5338,23.9321],[120.5325,23.9363],[120.5282,23.9376],[120.5208,23.9362],[120.5189,23.9376],[120.5163,23.9353],[120.5192,23.9315],[120.5162,23.9315],[120.5124,23.9303],[120.5074,23.9319],[120.5082,23.935],[120.5015,23.9319],[120.501,23.9292],[120.499,23.9299],[120.4958,23.9293],[120.4946,23.9251],[120.4985,23.925],[120.502,23.9232],[120.5027,23.9215],[120.5058,23.919],[120.5114,23.9172],[120.5155,23.9133],[120.5196,23.914],[120.5215,23.9133],[120.5241,23.9143],[120.5325,23.9117],[120.5362,23.9082],[120.5388,23.907],[120.5379,23.9018],[120.5402,23.9008],[120.5471,23.9018],[120.5474,23.9067],[120.5532,23.9074],[120.555,23.9056],[120.5568,23.902],[120.5645,23.9033],[120.5691,23.9049],[120.5662,23.9119],[120.5707,23.9143],[120.5771,23.9145],[120.5769,23.9167],[120.5751,23.9221],[120.5763,23.9233],[120.5712,23.9271],[120.574,23.9294],[120.5754,23.9332],[120.5697,23.9344],[120.5674,23.9344],[120.5615,23.938]]]},"properties":{"region_code":"CN-71-DEB322541A","parent_region_code":"CN-71-800CCC9236","name":"永靖乡","level":"county","has_children":false,"full_path":"中国 / 台湾省 / 彰化县 / 永靖乡","source_admin_code":null,"osm_relation_id":3329752}},
{"type":"Feature","geometry":{"type":"Polygon","coordinates":[[[120.5472,23.9755],[120.5449,23.9763],[120.5415,23.9713],[120.5385,23.9711],[120.5346,23.9737],[120.5327,23.9778],[120.5294,23.9774],[120.5265,23.978],[120.522,23.9771],[120.5196,23.9782],[120.5152,23.9781],[120.5088,23.9826],[120.512,23.9798],[120.5123,23.9776],[120.5142,23.9763],[120.5109,23.9732],[120.5106,23.969],[120.5153,23.9654],[120.5158,23.9583],[120.5123,23.9539],[120.512,23.9505],[120.5131,23.9487],[120.5132,23.945],[120.5104,23.9414],[120.5082,23.9372],[120.5082,23.935],[120.5074,23.9319],[120.5124,23.9303],[120.5162,23.9315],[120.5192,23.9315],[120.5163,23.9353],[120.5189,23.9376],[120.5208,23.9362],[120.5282,23.9376],[120.5325,23.9363],[120.5338,23.9321],[120.5354,23.9299],[120.5371,23.9294],[120.544,23.9319],[120.544,23.9334],[120.552,23.933],[120.5547,23.936],[120.558,23.9378],[120.5615,23.938],[120.5608,23.945],[120.563,23.9458],[120.5659,23.9506],[120.5639,23.9518],[120.5631,23.9576],[120.5617,23.9589],[120.5582,23.9586],[120.5506,23.9623],[120.5474,23.9629],[120.5447,23.9656],[120.544,23.9684],[120.5467,23.9719],[120.5472,23.9755]]]},"properties":{"region_code":"CN-71-D697744AD1","parent_region_code":"CN-71-800CCC9236","name":"埔心乡","level":"county","has_children":false,"full_path":"中国 / 台湾省 / 彰化县 / 埔心乡","source_admin_code":null,"osm_relation_id":3329730}},
{"type":"Feature","geometry":{"type":"Polygon","coordinates":[[[120.4088,23.9987],[120.4059,23.9999],[120.4052,24.0022],[120.4021,24.0033],[120.398,24.0031],[120.3897,24.0077],[120.3906,24.0101],[120.3885,24.0107],[120.3876,24.0161],[120.3855,24.0172],[120.3856,24.0199],[120.3818,24.0263],[120.379,24.0279],[120.3777,24.0297],[120.3741,24.0377],[120.365,24.0402],[120.3536,24.0438],[120.3419,24.0479],[120.3414,24.0396],[120.3404,24.0351],[120.3378,24.0313],[120.3361,24.0179],[120.3341,24.0139],[120.3299,24.0115],[120.3224,24.0053],[120.3165,23.9992],[120.3119,23.9898],[120.3087,23.9871],[120.3083,23.9835],[120.3084,23.9753],[120.3069,23.9722],[120.2946,23.9632],[120.2903,23.9582],[120.2861,23.9571],[120.284,23.9558],[120.2816,23.9525],[120.2803,23.9484],[120.2816,23.9434],[120.2795,23.9349],[120.2788,23.9336],[120.2755,23.9321],[120.2691,23.9306],[120.2672,23.9282],[120.2652,23.9237],[120.2611,23.9197],[120.2606,23.9184],[120.2701,23.9111],[120.2805,23.9042],[120.2908,23.8984],[120.2969,23.8955],[120.3021,23.8946],[120.3061,23.8931],[120.3061,23.8907],[120.3102,23.889],[120.3122,23.8946],[120.3154,23.8946],[120.319,23.8935],[120.3184,23.8909],[120.3225,23.8896],[120.3207,23.8845],[120.3222,23.88],[120.3249,23.8775],[120.3296,23.8792],[120.3335,23.8789],[120.3376,23.8773],[120.3402,23.879],[120.3436,23.8777],[120.346,23.8836],[120.35,23.8922],[120.3491,23.8926],[120.3496,23.897],[120.3537,23.897],[120.3532,23.9004],[120.3549,23.9009],[120.362,23.9004],[120.3606,23.9062],[120.3631,23.9075],[120.3614,23.9098],[120.3613,23.9144],[120.3641,23.9143],[120.3663,23.9205],[120.3679,23.9223],[120.3762,23.9232],[120.3768,23.9246],[120.3814,23.9256],[120.3831,23.932],[120.3817,23.9388],[120.3818,23.9474],[120.383,23.9485],[120.3855,23.9471],[120.3868,23.9453],[120.3916,23.9531],[120.3968,23.9508],[120.3981,23.9527],[120.3984,23.9577],[120.4019,23.9579],[120.4,23.9602],[120.4004,23.9641],[120.402,23.9671],[120.4027,23.971],[120.4015,23.9736],[120.4028,23.9789],[120.4019,23.9833],[120.4033,23.9862],[120.4076,23.9892],[120.4057,23.9914],[120.4088,23.9987]]]},"properties":{"region_code":"CN-71-DF9CD2A0F4","parent_region_code":"CN-71-800CCC9236","name":"芳苑乡","level":"county","has_children":false,"full_path":"中国 / 台湾省 / 彰化县 / 芳苑乡","source_admin_code":null,"osm_relation_id":3329677}},
{"type":"Feature","geometry":{"type":"Polygon","coordinates":[[[120.5123,23.9776],[120.512,23.9798],[120.5088,23.9826],[120.5053,23.9873],[120.5074,23.9893],[120.5057,23.9908],[120.503,23.9923],[120.4994,23.9959],[120.4952,24.0016],[120.4946,24.0058],[120.4921,24.0093],[120.4864,24.011],[120.4825,24.0109],[120.4791,24.0124],[120.4774,24.0118],[120.469,24.0126],[120.4629,24.0125],[120.4607,24.0135],[120.4592,24.0164],[120.4563,24.0165],[120.452,24.019],[120.4471,24.0237],[120.4419,24.024],[120.4355,24.0228],[120.4351,24.0192],[120.4279,24.0137],[120.427,24.0111],[120.4299,24.0087],[120.4291,24.0048],[120.4264,24.0049],[120.4249,23.9937],[120.418,23.9969],[120.4134,23.9977],[120.4126,23.9964],[120.4181,23.9877],[120.4218,23.9834],[120.422,23.9814],[120.4241,23.98],[120.4236,23.9774],[120.4275,23.9744],[120.4295,23.9711],[120.4326,23.9698],[120.4376,23.9688],[120.442,23.9658],[120.4459,23.9589],[120.4483,23.9604],[120.4475,23.966],[120.4514,23.9651],[120.4538,23.9619],[120.4592,23.9626],[120.4624,23.9649],[120.4649,23.9675],[120.4657,23.9703],[120.4659,23.9805],[120.4675,23.9829],[120.4722,23.9838],[120.4749,23.9823],[120.4781,23.9779],[120.4832,23.9776],[120.485,23.9732],[120.4971,23.9723],[120.497,23.9742],[120.5003,23.9734],[120.5045,23.9734],[120.5082,23.9767],[120.5123,23.9776]]]},"properties":{"region_code":"CN-71-C7BDCCE91F","parent_region_code":"CN-71-800CCC9236","name":"埔盐乡","level":"county","has_children":false,"full_path":"中国 / 台湾省 / 彰化县 / 埔盐乡","source_admin_code":null,"osm_relation_id":3329672}},
{"type":"Feature","geometry":{"type":"Polygon","coordinates":[[[120.4667,23.9314],[120.4597,23.9273],[120.4591,23.9291],[120.454,23.9302],[120.4458,23.9304],[120.4455,23.919],[120.4467,23.9188],[120.4476,23.9158],[120.4458,23.9092],[120.4438,23.9081],[120.4438,23.9009],[120.4417,23.9006],[120.4411,23.8947],[120.4435,23.8943],[120.4445,23.8924],[120.4469,23.8917],[120.4459,23.8893],[120.4481,23.8863],[120.4459,23.8852],[120.4471,23.88],[120.4481,23.8792],[120.4473,23.8754],[120.4452,23.8758],[120.4423,23.8745],[120.4436,23.872],[120.4422,23.8689],[120.4448,23.8646],[120.4474,23.8559],[120.4437,23.8553],[120.4448,23.85],[120.4551,23.8387],[120.4578,23.8382],[120.4589,23.8351],[120.461,23.8321],[120.4642,23.8254],[120.4664,23.8271],[120.4686,23.8321],[120.4711,23.8418],[120.4738,23.846],[120.4756,23.8478],[120.4754,23.8576],[120.4803,23.8584],[120.4808,23.8563],[120.4806,23.8513],[120.4825,23.8503],[120.4847,23.8524],[120.488,23.8541],[120.4861,23.8564],[120.4856,23.8635],[120.4863,23.8679],[120.492,23.8664],[120.5005,23.8673],[120.5073,23.87],[120.5073,23.8711],[120.5023,23.8758],[120.5019,23.8797],[120.4998,23.8823],[120.4991,23.8901],[120.5005,23.8934],[120.5,23.8949],[120.4975,23.8969],[120.4903,23.8983],[120.4901,23.8998],[120.4825,23.9036],[120.4775,23.9097],[120.474,23.9132],[120.4756,23.9192],[120.4749,23.922],[120.4742,23.9219],[120.4671,23.9315],[120.4667,23.9314]]]},"properties":{"region_code":"CN-71-6B488C7BDE","parent_region_code":"CN-71-800CCC9236","name":"埤头乡","level":"county","has_children":false,"full_path":"中国 / 台湾省 / 彰化县 / 埤头乡","source_admin_code":null,"osm_relation_id":3329737}},
{"type":"Feature","geometry":{"type":"Polygon","coordinates":[[[120.5628,23.8433],[120.5598,23.841],[120.5533,23.845],[120.5519,23.8448],[120.5436,23.8485],[120.5422,23.8509],[120.5388,23.8521],[120.5311,23.8525],[120.5354,23.8416],[120.5323,23.8431],[120.5289,23.8467],[120.5271,23.8495],[120.5218,23.8545],[120.5233,23.8581],[120.5185,23.8642],[120.5163,23.8646],[120.5125,23.8638],[120.5105,23.866],[120.514,23.8698],[120.5128,23.8705],[120.5073,23.8711],[120.5073,23.87],[120.5005,23.8673],[120.492,23.8664],[120.4863,23.8679],[120.4856,23.8635],[120.4861,23.8564],[120.488,23.8541],[120.4847,23.8524],[120.4825,23.8503],[120.4806,23.8513],[120.4808,23.8563],[120.4803,23.8584],[120.4754,23.8576],[120.4756,23.8478],[120.4738,23.846],[120.4711,23.8418],[120.4686,23.8321],[120.4664,23.8271],[120.4642,23.8254],[120.461,23.8321],[120.4589,23.8351],[120.4549,23.8311],[120.4554,23.8232],[120.4554,23.8166],[120.4582,23.8161],[120.4755,23.809],[120.4835,23.8065],[120.4987,23.8035],[120.5077,23.8006],[120.5109,23.8001],[120.5214,23.7998],[120.5279,23.7991],[120.5348,23.8013],[120.5402,23.8009],[120.5455,23.8014],[120.5515,23.8011],[120.5581,23.7995],[120.5603,23.7982],[120.5662,23.7973],[120.5812,23.7943],[120.5836,23.7933],[120.5836,23.7982],[120.5819,23.8026],[120.5832,23.8052],[120.5866,23.8077],[120.5898,23.8117],[120.5949,23.8125],[120.5991,23.8156],[120.6028,23.8199],[120.6018,23.8206],[120.5959,23.8192],[120.5917,23.8202],[120.5877,23.8232],[120.5832,23.828],[120.5807,23.8261],[120.5725,23.8352],[120.5723,23.833],[120.5628,23.8433]]]},"properties":{"region_code":"CN-71-BB28BCC3A3","parent_region_code":"CN-71-800CCC9236","name":"溪州乡","level":"county","has_children":false,"full_path":"中国 / 台湾省 / 彰化县 / 溪州乡","source_admin_code":null,"osm_relation_id":3329789}},
{"type":"Feature","geometry":{"type":"Polygon","coordinates":[[[120.4749,23.922],[120.4756,23.9192],[120.474,23.9132],[120.4775,23.9097],[120.4825,23.9036],[120.4901,23.8998],[120.4903,23.8983],[120.4975,23.8969],[120.5,23.8949],[120.5086,23.8932],[120.5158,23.89],[120.5206,23.8871],[120.5212,23.8842],[120.5256,23.8825],[120.5318,23.8844],[120.5344,23.8841],[120.5373,23.8852],[120.5412,23.8846],[120.5448,23.8828],[120.5472,23.8774],[120.5483,23.8707],[120.555,23.8699],[120.5517,23.8733],[120.5521,23.8765],[120.5565,23.8745],[120.5578,23.8811],[120.56,23.886],[120.5661,23.8861],[120.5699,23.8851],[120.5681,23.8887],[120.5661,23.8939],[120.5645,23.9033],[120.5568,23.902],[120.555,23.9056],[120.5532,23.9074],[120.5474,23.9067],[120.5471,23.9018],[120.5402,23.9008],[120.5379,23.9018],[120.5388,23.907],[120.5362,23.9082],[120.5325,23.9117],[120.5241,23.9143],[120.5215,23.9133],[120.5196,23.914],[120.5155,23.9133],[120.5114,23.9172],[120.5058,23.919],[120.5027,23.9215],[120.502,23.9232],[120.4985,23.925],[120.4946,23.9251],[120.4939,23.9239],[120.4909,23.9239],[120.4903,23.9205],[120.4806,23.9205],[120.4749,23.922]]]},"properties":{"region_code":"CN-71-6FFC7ACD50","parent_region_code":"CN-71-800CCC9236","name":"田尾乡","level":"county","has_children":false,"full_path":"中国 / 台湾省 / 彰化县 / 田尾乡","source_admin_code":null,"osm_relation_id":3329741}},
{"type":"Feature","geometry":{"type":"Polygon","coordinates":[[[120.5928,24.0378],[120.5924,24.0348],[120.5952,24.0327],[120.595,24.0285],[120.5954,24.0245],[120.5973,24.0232],[120.5977,24.021],[120.5997,24.0183],[120.601,24.015],[120.6051,24.0096],[120.603,24.0084],[120.6044,24.0052],[120.6093,23.9993],[120.6092,23.9957],[120.6114,23.9943],[120.6089,23.9927],[120.6088,23.9901],[120.6076,23.9867],[120.609,23.9856],[120.6158,23.984],[120.6172,23.9802],[120.6197,23.9788],[120.6195,23.9761],[120.6236,23.9703],[120.6231,23.9679],[120.625,23.9653],[120.6277,23.9631],[120.6274,23.9593],[120.6295,23.9578],[120.6297,23.9561],[120.6367,23.9527],[120.6427,23.9583],[120.6442,23.9621],[120.6468,23.9634],[120.6468,23.9754],[120.65,23.9829],[120.6501,23.9849],[120.6453,23.9896],[120.6375,23.9937],[120.6361,23.9984],[120.6378,24.0026],[120.6381,24.0074],[120.6403,24.0057],[120.6415,24.0081],[120.646,24.0092],[120.6494,24.0081],[120.651,24.0085],[120.6614,24.0083],[120.6661,24.0077],[120.6726,24.0058],[120.6738,24.0079],[120.671,24.0099],[120.6764,24.0109],[120.6786,24.014],[120.6648,24.0233],[120.6635,24.025],[120.6612,24.0257],[120.6557,24.0307],[120.6518,24.0285],[120.6464,24.034],[120.6444,24.0323],[120.6462,24.0283],[120.6447,24.0258],[120.642,24.0273],[120.639,24.0277],[120.6371,24.0289],[120.6362,24.031],[120.634,24.0311],[120.6287,24.0296],[120.6253,24.0301],[120.6245,24.0338],[120.6281,24.0384],[120.626,24.0416],[120.6258,24.0467],[120.6214,24.046],[120.6165,24.0433],[120.613,24.0431],[120.6112,24.0439],[120.6074,24.0439],[120.5928,24.0378]]]},"properties":{"region_code":"CN-71-57769981B4","parent_region_code":"CN-71-800CCC9236","name":"芬园乡","level":"county","has_children":false,"full_path":"中国 / 台湾省 / 彰化县 / 芬园乡","source_admin_code":null,"osm_relation_id":3329639}},
{"type":"Feature","geometry":{"type":"Polygon","coordinates":[[[120.482,24.1402],[120.4758,24.1417],[120.4742,24.1411],[120.4683,24.1427],[120.4651,24.1482],[120.4591,24.1468],[120.456,24.1473],[120.4555,24.1456],[120.4519,24.1464],[120.4508,24.1475],[120.4397,24.1559],[120.4406,24.157],[120.4365,24.1611],[120.4327,24.1659],[120.4247,24.1776],[120.4183,24.1737],[120.4161,24.1695],[120.4152,24.164],[120.415,24.1576],[120.4104,24.1567],[120.4082,24.1543],[120.4128,24.1522],[120.4102,24.1476],[120.409,24.1427],[120.4071,24.1396],[120.4019,24.1383],[120.4,24.1353],[120.4,24.1317],[120.4012,24.1299],[120.3984,24.1237],[120.4297,24.124],[120.4333,24.1249],[120.4363,24.1241],[120.4416,24.1252],[120.4436,24.1264],[120.452,24.1266],[120.4569,24.1215],[120.4568,24.1196],[120.4588,24.1188],[120.4633,24.1157],[120.4673,24.1074],[120.472,24.1051],[120.4739,24.103],[120.4774,24.1024],[120.479,24.1033],[120.4784,24.1067],[120.4788,24.1105],[120.4817,24.1146],[120.4833,24.1188],[120.4847,24.1192],[120.4866,24.1231],[120.4833,24.1271],[120.4818,24.1359],[120.482,24.1402]]]},"properties":{"region_code":"CN-71-B0825C2D03","parent_region_code":"CN-71-800CCC9236","name":"线西乡","level":"county","has_children":false,"full_path":"中国 / 台湾省 / 彰化县 / 线西乡","source_admin_code":null,"osm_relation_id":3329542}},
{"type":"Feature","geometry":{"type":"Polygon","coordinates":[[[120.3436,23.8777],[120.3402,23.879],[120.3376,23.8773],[120.3335,23.8789],[120.3296,23.8792],[120.3249,23.8775],[120.3222,23.88],[120.3207,23.8845],[120.3225,23.8896],[120.3184,23.8909],[120.319,23.8935],[120.3154,23.8946],[120.3122,23.8946],[120.3102,23.889],[120.3061,23.8907],[120.3061,23.8931],[120.3021,23.8946],[120.2969,23.8955],[120.2908,23.8984],[120.2805,23.9042],[120.2701,23.9111],[120.2606,23.9184],[120.2609,23.915],[120.2587,23.9111],[120.2562,23.9079],[120.2556,23.9034],[120.2577,23.8993],[120.2552,23.8942],[120.2522,23.8917],[120.2472,23.8884],[120.2406,23.8879],[120.2353,23.8853],[120.2307,23.8806],[120.2269,23.8778],[120.2262,23.8741],[120.2243,23.8703],[120.2204,23.8662],[120.2299,23.8544],[120.2388,23.8455],[120.2466,23.8393],[120.2554,23.8341],[120.2835,23.8267],[120.3081,23.8203],[120.3151,23.8202],[120.3318,23.822],[120.3515,23.8223],[120.3602,23.8233],[120.3703,23.8286],[120.3752,23.8286],[120.3707,23.84],[120.3778,23.8422],[120.3778,23.8446],[120.3701,23.8445],[120.3657,23.8471],[120.3665,23.8517],[120.3656,23.8532],[120.3639,23.8551],[120.3609,23.8566],[120.3584,23.855],[120.3552,23.8566],[120.3541,23.8596],[120.3501,23.8588],[120.3485,23.8607],[120.3504,23.8662],[120.3466,23.8683],[120.3416,23.8699],[120.3436,23.8777]]]},"properties":{"region_code":"CN-71-553E6C33F2","parent_region_code":"CN-71-800CCC9236","name":"大城乡","level":"county","has_children":false,"full_path":"中国 / 台湾省 / 彰化县 / 大城乡","source_admin_code":null,"osm_relation_id":3329799}},
{"type":"Feature","geometry":{"type":"Polygon","coordinates":[[[120.6028,23.8199],[120.5991,23.8156],[120.5949,23.8125],[120.5898,23.8117],[120.5866,23.8077],[120.5832,23.8052],[120.5819,23.8026],[120.5836,23.7982],[120.5836,23.7933],[120.5867,23.792],[120.5926,23.7911],[120.6154,23.7913],[120.6234,23.7901],[120.6289,23.7899],[120.6331,23.7889],[120.6351,23.7867],[120.6425,23.7857],[120.6581,23.791],[120.6624,23.7917],[120.6666,23.7936],[120.6697,23.7961],[120.6751,23.7998],[120.6799,23.8016],[120.6839,23.8014],[120.6834,23.8054],[120.679,23.8059],[120.678,23.8141],[120.6788,23.8163],[120.6763,23.8193],[120.6745,23.82],[120.6699,23.8185],[120.6676,23.8166],[120.6647,23.8163],[120.6586,23.8145],[120.6556,23.8128],[120.6507,23.8127],[120.6487,23.8161],[120.6446,23.8176],[120.64,23.8203],[120.6379,23.8254],[120.6399,23.8258],[120.6382,23.8289],[120.6345,23.8332],[120.6313,23.8316],[120.6305,23.8324],[120.6243,23.8294],[120.624,23.8315],[120.6288,23.8321],[120.6301,23.8346],[120.6299,23.8374],[120.6265,23.8399],[120.624,23.8397],[120.6211,23.8417],[120.6186,23.8405],[120.6177,23.8384],[120.6155,23.8406],[120.6049,23.8352],[120.603,23.8378],[120.6011,23.837],[120.5978,23.8381],[120.5963,23.837],[120.5983,23.8348],[120.598,23.831],[120.6001,23.83],[120.6003,23.8259],[120.6016,23.8257],[120.6031,23.822],[120.6028,23.8199]]]},"properties":{"region_code":"CN-71-011EB61ADE","parent_region_code":"CN-71-800CCC9236","name":"二水乡","level":"county","has_children":false,"full_path":"中国 / 台湾省 / 彰化县 / 二水乡","source_admin_code":null,"osm_relation_id":3329770}},
{"type":"Feature","geometry":{"type":"Polygon","coordinates":[[[120.3656,23.8532],[120.3665,23.8517],[120.3657,23.8471],[120.3701,23.8445],[120.3778,23.8446],[120.3778,23.8422],[120.3707,23.84],[120.3752,23.8286],[120.383,23.8286],[120.4062,23.8268],[120.4095,23.8263],[120.4184,23.827],[120.4249,23.8301],[120.4333,23.8301],[120.4398,23.8267],[120.444,23.8221],[120.4472,23.8208],[120.4521,23.8172],[120.4554,23.8166],[120.4554,23.8232],[120.4549,23.8311],[120.4589,23.8351],[120.4578,23.8382],[120.4551,23.8387],[120.4448,23.85],[120.4437,23.8553],[120.4474,23.8559],[120.4448,23.8646],[120.4422,23.8689],[120.4436,23.872],[120.4423,23.8745],[120.4382,23.8761],[120.4355,23.876],[120.4299,23.8803],[120.4258,23.8783],[120.4209,23.8858],[120.413,23.8861],[120.4127,23.8896],[120.4112,23.8915],[120.4092,23.8896],[120.4077,23.8868],[120.4037,23.8866],[120.4013,23.8848],[120.4031,23.8804],[120.4027,23.8774],[120.4034,23.8749],[120.4028,23.87],[120.3997,23.8696],[120.3997,23.8643],[120.3973,23.8639],[120.389,23.8638],[120.3883,23.8628],[120.3842,23.8634],[120.3835,23.8621],[120.3786,23.8634],[120.3782,23.8626],[120.374,23.8634],[120.3713,23.8633],[120.3686,23.854],[120.3656,23.8532]]]},"properties":{"region_code":"CN-71-4A5413C15A","parent_region_code":"CN-71-800CCC9236","name":"竹塘乡","level":"county","has_children":false,"full_path":"中国 / 台湾省 / 彰化县 / 竹塘乡","source_admin_code":null,"osm_relation_id":3329800}}
]}