{"type":"FeatureCollection", "features": [
{"type":"Feature","geometry":{"type":"Polygon","coordinates":[[[120.9343,24.7132],[120.9256,24.7062],[120.9243,24.7046],[120.9196,24.7036],[120.9158,24.7048],[120.9104,24.7032],[120.9042,24.7028],[120.8985,24.7048],[120.8866,24.7027],[120.8881,24.6978],[120.8852,24.6953],[120.8869,24.6933],[120.892,24.6907],[120.8906,24.6889],[120.8869,24.6876],[120.8825,24.6835],[120.8803,24.6796],[120.8817,24.6769],[120.8798,24.672],[120.8803,24.669],[120.8796,24.665],[120.8784,24.6635],[120.8764,24.6536],[120.8762,24.6491],[120.8769,24.6479],[120.8776,24.6454],[120.8757,24.6438],[120.8777,24.6398],[120.8782,24.6344],[120.8808,24.6315],[120.8905,24.6254],[120.8966,24.6254],[120.8992,24.6289],[120.9039,24.6317],[120.9043,24.6358],[120.9087,24.6376],[120.9096,24.6412],[120.9127,24.6417],[120.9135,24.644],[120.9116,24.6459],[120.9124,24.6502],[120.9106,24.6537],[120.9145,24.6561],[120.9199,24.6579],[120.92,24.6613],[120.9227,24.6624],[120.9289,24.6627],[120.9309,24.661],[120.9345,24.6599],[120.9356,24.6576],[120.9397,24.6575],[120.9425,24.665],[120.945,24.6687],[120.9438,24.6714],[120.9467,24.6721],[120.9494,24.6757],[120.9506,24.679],[120.9566,24.6779],[120.9587,24.6794],[120.9716,24.673],[120.977,24.6736],[120.9775,24.6783],[120.9764,24.6831],[120.9734,24.6859],[120.9705,24.6842],[120.9655,24.6846],[120.9652,24.688],[120.9664,24.6912],[120.9698,24.6938],[120.9718,24.6967],[120.974,24.6969],[120.9731,24.7045],[120.9767,24.7064],[120.9758,24.7095],[120.9738,24.7119],[120.9707,24.7119],[120.9663,24.7097],[120.964,24.7115],[120.9606,24.7091],[120.9596,24.7069],[120.9568,24.7065],[120.9552,24.7047],[120.951,24.7077],[120.9498,24.7112],[120.9455,24.7098],[120.9427,24.7073],[120.939,24.7088],[120.9343,24.7132]]]},"properties":{"region_code":"CN-71-D5D5FE76F6","parent_region_code":"CN-71-862208247E","name":"头份市","level":"county","has_children":false,"full_path":"中国 / 台湾省 / 苗栗县 / 头份市","source_admin_code":null,"osm_relation_id":3333234}},
{"type":"Feature","geometry":{"type":"Polygon","coordinates":[[[120.8438,24.5865],[120.8374,24.5903],[120.8322,24.5912],[120.8243,24.5972],[120.8155,24.5977],[120.8071,24.599],[120.802,24.5927],[120.7992,24.5882],[120.7955,24.5878],[120.7918,24.5891],[120.7873,24.5875],[120.7847,24.5878],[120.7805,24.582],[120.7802,24.5732],[120.7784,24.5693],[120.783,24.5645],[120.7871,24.5638],[120.7895,24.5594],[120.7898,24.5551],[120.7917,24.554],[120.7911,24.5496],[120.7922,24.5463],[120.7904,24.5428],[120.7888,24.542],[120.7875,24.5384],[120.7853,24.5376],[120.7832,24.5338],[120.7849,24.5319],[120.784,24.5282],[120.7868,24.5288],[120.7891,24.526],[120.7876,24.5194],[120.7906,24.5188],[120.7949,24.5211],[120.7972,24.5256],[120.8008,24.5275],[120.803,24.5268],[120.8061,24.5328],[120.8096,24.5337],[120.8087,24.5266],[120.8128,24.5269],[120.8159,24.5296],[120.8194,24.5308],[120.8201,24.5379],[120.8216,24.5395],[120.8267,24.5412],[120.8295,24.5454],[120.8351,24.5493],[120.8371,24.5562],[120.8415,24.5605],[120.8435,24.5682],[120.8437,24.5729],[120.8451,24.5754],[120.8451,24.5828],[120.8438,24.5865]]]},"properties":{"region_code":"CN-71-50EA2AD0F3","parent_region_code":"CN-71-862208247E","name":"苗栗市","level":"county","has_children":false,"full_path":"中国 / 台湾省 / 苗栗县 / 苗栗市","source_admin_code":null,"osm_relation_id":3333268}},
{"type":"Feature","geometry":{"type":"Polygon","coordinates":[[[120.9343,24.7132],[120.9307,24.7152],[120.9251,24.7155],[120.9193,24.717],[120.9178,24.7162],[120.9136,24.7175],[120.9162,24.7216],[120.9137,24.7244],[120.9142,24.7271],[120.9118,24.7328],[120.9085,24.7364],[120.9085,24.7406],[120.9059,24.7407],[120.9016,24.7366],[120.8973,24.7334],[120.8911,24.7317],[120.8875,24.7338],[120.8847,24.7328],[120.8833,24.7345],[120.8794,24.7346],[120.8756,24.7314],[120.8657,24.7244],[120.8628,24.7165],[120.8624,24.7111],[120.861,24.7062],[120.8583,24.7015],[120.856,24.701],[120.856,24.6986],[120.8538,24.6959],[120.832,24.6775],[120.8299,24.6722],[120.8324,24.6713],[120.8402,24.6657],[120.8461,24.6623],[120.8521,24.6625],[120.858,24.6651],[120.8648,24.6662],[120.8676,24.6647],[120.8673,24.6603],[120.868,24.6557],[120.8696,24.6525],[120.8753,24.6524],[120.8747,24.6491],[120.8769,24.6479],[120.8762,24.6491],[120.8764,24.6536],[120.8784,24.6635],[120.8796,24.665],[120.8803,24.669],[120.8798,24.672],[120.8817,24.6769],[120.8803,24.6796],[120.8825,24.6835],[120.8869,24.6876],[120.8906,24.6889],[120.892,24.6907],[120.8869,24.6933],[120.8852,24.6953],[120.8881,24.6978],[120.8866,24.7027],[120.8985,24.7048],[120.9042,24.7028],[120.9104,24.7032],[120.9158,24.7048],[120.9196,24.7036],[120.9243,24.7046],[120.9256,24.7062],[120.9343,24.7132]]]},"properties":{"region_code":"CN-71-874BDC83E0","parent_region_code":"CN-71-862208247E","name":"竹南镇","level":"county","has_children":false,"full_path":"中国 / 台湾省 / 苗栗县 / 竹南镇","source_admin_code":null,"osm_relation_id":3333270}},
{"type":"Feature","geometry":{"type":"Polygon","coordinates":[[[120.7484,24.4047],[120.7436,24.4074],[120.7366,24.4075],[120.7326,24.4094],[120.7287,24.4093],[120.721,24.4212],[120.7163,24.4218],[120.7167,24.425],[120.7144,24.4292],[120.7126,24.43],[120.7115,24.434],[120.707,24.4365],[120.6995,24.4377],[120.6975,24.4396],[120.6946,24.4393],[120.6927,24.4415],[120.6873,24.4435],[120.6846,24.4453],[120.6802,24.4516],[120.6712,24.4554],[120.6674,24.4557],[120.6625,24.4512],[120.6574,24.4557],[120.6593,24.4587],[120.6582,24.4605],[120.6501,24.4631],[120.6469,24.461],[120.6458,24.4581],[120.6376,24.4505],[120.6327,24.448],[120.6321,24.4449],[120.6283,24.4427],[120.6271,24.4437],[120.6224,24.4401],[120.6286,24.438],[120.6318,24.4328],[120.6397,24.4278],[120.6402,24.4244],[120.6432,24.4214],[120.6429,24.4169],[120.6462,24.4121],[120.6488,24.4095],[120.6583,24.4065],[120.6637,24.4022],[120.6674,24.3979],[120.6676,24.3961],[120.671,24.3911],[120.6725,24.3913],[120.6787,24.387],[120.6773,24.384],[120.6857,24.3789],[120.6898,24.3745],[120.692,24.3683],[120.6931,24.3669],[120.6985,24.3647],[120.7033,24.3618],[120.7075,24.3617],[120.7073,24.3578],[120.7184,24.3558],[120.7244,24.3541],[120.7269,24.3627],[120.7291,24.3638],[120.73,24.3734],[120.7292,24.3772],[120.7325,24.3804],[120.7334,24.383],[120.7375,24.3875],[120.741,24.3931],[120.7428,24.3944],[120.745,24.3982],[120.7474,24.4004],[120.7484,24.4047]]]},"properties":{"region_code":"CN-71-EF3304AC05","parent_region_code":"CN-71-862208247E","name":"苑里镇","level":"county","has_children":false,"full_path":"中国 / 台湾省 / 苗栗县 / 苑里镇","source_admin_code":null,"osm_relation_id":3333231}},
{"type":"Feature","geometry":{"type":"Polygon","coordinates":[[[120.8438,24.5865],[120.8447,24.5908],[120.8404,24.5957],[120.8351,24.599],[120.8341,24.601],[120.8392,24.6016],[120.8398,24.6033],[120.8366,24.6044],[120.8347,24.6039],[120.8322,24.6075],[120.8352,24.6132],[120.8303,24.6203],[120.8292,24.6253],[120.8234,24.6238],[120.8206,24.6245],[120.8193,24.63],[120.817,24.6291],[120.816,24.6253],[120.8138,24.6262],[120.8167,24.6345],[120.8214,24.6404],[120.8276,24.6461],[120.8276,24.6476],[120.8314,24.652],[120.8318,24.6542],[120.8355,24.657],[120.8382,24.6612],[120.8402,24.6657],[120.8324,24.6713],[120.8299,24.6722],[120.8282,24.6689],[120.8235,24.6688],[120.8175,24.6694],[120.8042,24.6656],[120.795,24.6638],[120.7837,24.6622],[120.7804,24.661],[120.78,24.6594],[120.7758,24.6547],[120.7709,24.653],[120.7711,24.6492],[120.7662,24.645],[120.7611,24.6386],[120.7606,24.6327],[120.7543,24.6226],[120.753,24.613],[120.7481,24.6107],[120.7454,24.6074],[120.7364,24.6121],[120.732,24.61],[120.7266,24.6082],[120.7234,24.6059],[120.7226,24.6027],[120.7179,24.5982],[120.7145,24.5909],[120.7112,24.5856],[120.7084,24.5735],[120.7124,24.5736],[120.7128,24.5718],[120.7163,24.5717],[120.7195,24.5705],[120.7198,24.5667],[120.727,24.56],[120.7323,24.5682],[120.7343,24.5684],[120.7385,24.5709],[120.7395,24.5733],[120.7446,24.577],[120.7449,24.579],[120.7478,24.5789],[120.7528,24.5811],[120.7551,24.5798],[120.7582,24.5797],[120.7604,24.5809],[120.7646,24.5797],[120.7677,24.5814],[120.77,24.5806],[120.7719,24.5749],[120.7739,24.574],[120.7757,24.5705],[120.7784,24.5693],[120.7802,24.5732],[120.7805,24.582],[120.7847,24.5878],[120.7873,24.5875],[120.7918,24.5891],[120.7955,24.5878],[120.7992,24.5882],[120.802,24.5927],[120.8071,24.599],[120.8155,24.5977],[120.8243,24.5972],[120.8322,24.5912],[120.8374,24.5903],[120.8438,24.5865]]]},"properties":{"region_code":"CN-71-9E5FB30DA2","parent_region_code":"CN-71-862208247E","name":"后龙镇","level":"county","has_children":false,"full_path":"中国 / 台湾省 / 苗栗县 / 后龙镇","source_admin_code":null,"osm_relation_id":3333146}},
{"type":"Feature","geometry":{"type":"Polygon","coordinates":[[[120.7484,24.4047],[120.7514,24.4088],[120.7481,24.4151],[120.749,24.4204],[120.7517,24.4221],[120.7521,24.4254],[120.7513,24.4284],[120.7553,24.4448],[120.7546,24.4479],[120.756,24.4504],[120.7543,24.4524],[120.7543,24.4592],[120.7516,24.4637],[120.7513,24.4661],[120.7535,24.471],[120.7561,24.4726],[120.7601,24.4791],[120.7624,24.4807],[120.7619,24.4848],[120.7633,24.4872],[120.7621,24.4895],[120.759,24.4917],[120.7559,24.4927],[120.7553,24.4955],[120.7581,24.4987],[120.7583,24.5015],[120.7608,24.5032],[120.7612,24.5064],[120.7567,24.5045],[120.7539,24.5068],[120.7502,24.5075],[120.7495,24.5099],[120.75,24.5142],[120.7495,24.5175],[120.7449,24.5183],[120.7442,24.5211],[120.7455,24.5238],[120.7428,24.5247],[120.7416,24.529],[120.7386,24.5329],[120.7396,24.5353],[120.7373,24.5386],[120.7344,24.5381],[120.735,24.5429],[120.7345,24.546],[120.7323,24.5464],[120.732,24.5489],[120.7297,24.5518],[120.7245,24.5538],[120.727,24.5577],[120.727,24.56],[120.7198,24.5667],[120.7195,24.5705],[120.7163,24.5717],[120.7128,24.5718],[120.7124,24.5736],[120.7084,24.5735],[120.7065,24.5715],[120.7063,24.5687],[120.703,24.5631],[120.6999,24.5554],[120.6945,24.546],[120.6948,24.5443],[120.6916,24.5343],[120.686,24.5207],[120.6804,24.5123],[120.6762,24.5067],[120.6727,24.501],[120.6712,24.4976],[120.6685,24.4937],[120.6661,24.4922],[120.6665,24.489],[120.6654,24.4853],[120.6661,24.4838],[120.6607,24.4762],[120.6521,24.4668],[120.6501,24.4631],[120.6582,24.4605],[120.6593,24.4587],[120.6574,24.4557],[120.6625,24.4512],[120.6674,24.4557],[120.6712,24.4554],[120.6802,24.4516],[120.6846,24.4453],[120.6873,24.4435],[120.6927,24.4415],[120.6946,24.4393],[120.6975,24.4396],[120.6995,24.4377],[120.707,24.4365],[120.7115,24.434],[120.7126,24.43],[120.7144,24.4292],[120.7167,24.425],[120.7163,24.4218],[120.721,24.4212],[120.7287,24.4093],[120.7326,24.4094],[120.7366,24.4075],[120.7436,24.4074],[120.7484,24.4047]]]},"properties":{"region_code":"CN-71-143FE85F72","parent_region_code":"CN-71-862208247E","name":"通霄镇","level":"county","has_children":false,"full_path":"中国 / 台湾省 / 苗栗县 / 通霄镇","source_admin_code":null,"osm_relation_id":3333110}},
{"type":"Feature","geometry":{"type":"Polygon","coordinates":[[[120.776,24.3393],[120.7791,24.3393],[120.7844,24.3337],[120.7754,24.3313],[120.7742,24.3258],[120.7776,24.3206],[120.7838,24.3183],[120.792,24.3176],[120.796,24.3164],[120.8038,24.3162],[120.8075,24.3152],[120.8097,24.3129],[120.8176,24.3074],[120.8197,24.3036],[120.8239,24.2983],[120.8336,24.2905],[120.8382,24.2893],[120.8495,24.2885],[120.8578,24.2893],[120.8657,24.2927],[120.8749,24.2949],[120.8816,24.2949],[120.8916,24.2941],[120.9025,24.2922],[120.9098,24.294],[120.9106,24.2965],[120.9136,24.3015],[120.9144,24.3044],[120.9142,24.3084],[120.9119,24.3129],[120.9107,24.3183],[120.9099,24.3267],[120.9082,24.3298],[120.9034,24.3346],[120.9072,24.3441],[120.9096,24.3528],[120.9092,24.3581],[120.9064,24.3643],[120.9045,24.365],[120.9017,24.3629],[120.8892,24.363],[120.8853,24.3638],[120.8786,24.3602],[120.8753,24.3607],[120.8741,24.363],[120.8717,24.3608],[120.8684,24.3603],[120.8617,24.3569],[120.8598,24.3549],[120.8577,24.3559],[120.857,24.3589],[120.8549,24.3588],[120.8524,24.3618],[120.8474,24.3606],[120.8471,24.3586],[120.8446,24.3559],[120.8412,24.3541],[120.84,24.3516],[120.8407,24.3495],[120.8398,24.3458],[120.8367,24.3477],[120.8337,24.3448],[120.8305,24.343],[120.8214,24.342],[120.8196,24.3442],[120.8152,24.3428],[120.8125,24.3473],[120.8097,24.3456],[120.8103,24.3436],[120.8074,24.3418],[120.8049,24.3428],[120.8014,24.3411],[120.7974,24.3408],[120.7923,24.343],[120.7902,24.3408],[120.7819,24.3447],[120.776,24.3393]]]},"properties":{"region_code":"CN-71-5E0F5A4516","parent_region_code":"CN-71-862208247E","name":"卓兰镇","level":"county","has_children":false,"full_path":"中国 / 台湾省 / 苗栗县 / 卓兰镇","source_admin_code":null,"osm_relation_id":3333155}},
{"type":"Feature","geometry":{"type":"Polygon","coordinates":[[[120.8128,24.5269],[120.8142,24.5233],[120.8132,24.519],[120.8116,24.5172],[120.8114,24.5127],[120.8135,24.5104],[120.8131,24.5055],[120.8111,24.5013],[120.8131,24.4947],[120.8112,24.4869],[120.8125,24.4832],[120.8129,24.4743],[120.8162,24.4685],[120.826,24.4641],[120.8261,24.4614],[120.8297,24.4576],[120.8334,24.4578],[120.8379,24.455],[120.8401,24.452],[120.8402,24.449],[120.8447,24.4456],[120.8426,24.4416],[120.8421,24.4387],[120.845,24.4353],[120.8462,24.4372],[120.8556,24.4408],[120.8578,24.4448],[120.8621,24.4478],[120.8643,24.4531],[120.8668,24.4556],[120.8742,24.4573],[120.877,24.4621],[120.8777,24.4653],[120.8748,24.4666],[120.8689,24.4645],[120.8647,24.4643],[120.8665,24.4669],[120.8659,24.4696],[120.8718,24.4865],[120.8731,24.4874],[120.873,24.4907],[120.8752,24.4916],[120.8763,24.4969],[120.8788,24.4988],[120.8803,24.5022],[120.879,24.5044],[120.8833,24.5092],[120.8872,24.5119],[120.8916,24.5104],[120.8915,24.5136],[120.8933,24.5141],[120.8971,24.5175],[120.8997,24.5218],[120.899,24.5242],[120.9024,24.5256],[120.9069,24.5337],[120.9079,24.5377],[120.9035,24.542],[120.8996,24.5426],[120.8965,24.5416],[120.8928,24.5422],[120.8886,24.5439],[120.88,24.5408],[120.8728,24.5411],[120.8671,24.5385],[120.8635,24.5386],[120.8563,24.5415],[120.8556,24.544],[120.8478,24.5465],[120.8457,24.5499],[120.8454,24.5537],[120.8462,24.5559],[120.8449,24.5597],[120.8415,24.5605],[120.8371,24.5562],[120.8351,24.5493],[120.8295,24.5454],[120.8267,24.5412],[120.8216,24.5395],[120.8201,24.5379],[120.8194,24.5308],[120.8159,24.5296],[120.8128,24.5269]]]},"properties":{"region_code":"CN-71-589FBC710B","parent_region_code":"CN-71-862208247E","name":"公馆乡","level":"county","has_children":false,"full_path":"中国 / 台湾省 / 苗栗县 / 公馆乡","source_admin_code":null,"osm_relation_id":3333158}},
{"type":"Feature","geometry":{"type":"Polygon","coordinates":[[[120.7876,24.5194],[120.7874,24.5152],[120.7833,24.5118],[120.7808,24.5111],[120.7772,24.5115],[120.7786,24.5052],[120.7777,24.5026],[120.7722,24.5004],[120.7638,24.4895],[120.7633,24.4872],[120.7619,24.4848],[120.7624,24.4807],[120.7601,24.4791],[120.7561,24.4726],[120.7535,24.471],[120.7513,24.4661],[120.7516,24.4637],[120.7543,24.4592],[120.7543,24.4524],[120.756,24.4504],[120.7546,24.4479],[120.7553,24.4448],[120.7513,24.4284],[120.7632,24.4344],[120.7683,24.4357],[120.7737,24.4381],[120.7783,24.4361],[120.7809,24.4361],[120.7834,24.4345],[120.7883,24.4338],[120.789,24.4314],[120.7875,24.4217],[120.7861,24.4192],[120.7893,24.415],[120.7919,24.4144],[120.7955,24.4118],[120.8015,24.4091],[120.8011,24.4066],[120.8033,24.4049],[120.8043,24.4015],[120.8073,24.4],[120.8113,24.3969],[120.8111,24.3937],[120.8133,24.3894],[120.8164,24.388],[120.8191,24.3894],[120.8227,24.3891],[120.825,24.3907],[120.8253,24.3949],[120.8312,24.3961],[120.8407,24.4062],[120.8399,24.4092],[120.8361,24.4134],[120.8372,24.4158],[120.8397,24.4165],[120.843,24.4228],[120.8431,24.4256],[120.8397,24.4261],[120.8391,24.4293],[120.8417,24.4299],[120.845,24.4353],[120.8421,24.4387],[120.8426,24.4416],[120.8447,24.4456],[120.8402,24.449],[120.8401,24.452],[120.8379,24.455],[120.8334,24.4578],[120.8297,24.4576],[120.8261,24.4614],[120.826,24.4641],[120.8162,24.4685],[120.8129,24.4743],[120.8125,24.4832],[120.8112,24.4869],[120.8131,24.4947],[120.8111,24.5013],[120.8131,24.5055],[120.8135,24.5104],[120.8114,24.5127],[120.8116,24.5172],[120.8132,24.519],[120.8142,24.5233],[120.8128,24.5269],[120.8087,24.5266],[120.8096,24.5337],[120.8061,24.5328],[120.803,24.5268],[120.8008,24.5275],[120.7972,24.5256],[120.7949,24.5211],[120.7906,24.5188],[120.7876,24.5194]]]},"properties":{"region_code":"CN-71-00CE78A062","parent_region_code":"CN-71-862208247E","name":"铜锣乡","level":"county","has_children":false,"full_path":"中国 / 台湾省 / 苗栗县 / 铜锣乡","source_admin_code":null,"osm_relation_id":3333142}},
{"type":"Feature","geometry":{"type":"Polygon","coordinates":[[[120.7244,24.3541],[120.7309,24.3514],[120.7345,24.3479],[120.7416,24.3425],[120.7486,24.3362],[120.7522,24.3342],[120.7585,24.3286],[120.763,24.326],[120.7672,24.3255],[120.7721,24.3222],[120.7776,24.3206],[120.7742,24.3258],[120.7754,24.3313],[120.7844,24.3337],[120.7791,24.3393],[120.776,24.3393],[120.7755,24.3422],[120.7773,24.3448],[120.7769,24.3484],[120.7835,24.3534],[120.7849,24.3519],[120.7953,24.3564],[120.7978,24.3592],[120.8044,24.3641],[120.807,24.3669],[120.8068,24.3708],[120.8111,24.3753],[120.8135,24.3747],[120.8186,24.3759],[120.8216,24.3815],[120.823,24.3871],[120.8227,24.3891],[120.8191,24.3894],[120.8164,24.388],[120.8133,24.3894],[120.8111,24.3937],[120.8113,24.3969],[120.8073,24.4],[120.8043,24.4015],[120.8033,24.4049],[120.8011,24.4066],[120.8015,24.4091],[120.7955,24.4118],[120.7919,24.4144],[120.7893,24.415],[120.7861,24.4192],[120.7875,24.4217],[120.789,24.4314],[120.7883,24.4338],[120.7834,24.4345],[120.7809,24.4361],[120.7783,24.4361],[120.7737,24.4381],[120.7683,24.4357],[120.7632,24.4344],[120.7513,24.4284],[120.7521,24.4254],[120.7517,24.4221],[120.749,24.4204],[120.7481,24.4151],[120.7514,24.4088],[120.7484,24.4047],[120.7474,24.4004],[120.745,24.3982],[120.7428,24.3944],[120.741,24.3931],[120.7375,24.3875],[120.7334,24.383],[120.7325,24.3804],[120.7292,24.3772],[120.73,24.3734],[120.7291,24.3638],[120.7269,24.3627],[120.7244,24.3541]]]},"properties":{"region_code":"CN-71-AD90E6965F","parent_region_code":"CN-71-862208247E","name":"三义乡","level":"county","has_children":false,"full_path":"中国 / 台湾省 / 苗栗县 / 三义乡","source_admin_code":null,"osm_relation_id":3333229}},
{"type":"Feature","geometry":{"type":"Polygon","coordinates":[[[120.9064,24.3643],[120.9121,24.3647],[120.9136,24.3671],[120.9137,24.374],[120.9148,24.3759],[120.914,24.3809],[120.915,24.3858],[120.9144,24.3884],[120.9157,24.3912],[120.9186,24.3944],[120.9196,24.3989],[120.918,24.4029],[120.9121,24.4079],[120.9121,24.4117],[120.9109,24.4144],[120.9072,24.4163],[120.9079,24.4237],[120.9104,24.425],[120.9118,24.4288],[120.9116,24.4319],[120.9133,24.4364],[120.91,24.4438],[120.9041,24.4471],[120.8998,24.4453],[120.893,24.4445],[120.8857,24.4463],[120.8834,24.4495],[120.8765,24.4546],[120.8742,24.4573],[120.8668,24.4556],[120.8643,24.4531],[120.8621,24.4478],[120.8578,24.4448],[120.8556,24.4408],[120.8462,24.4372],[120.845,24.4353],[120.8417,24.4299],[120.8391,24.4293],[120.8397,24.4261],[120.8431,24.4256],[120.843,24.4228],[120.8397,24.4165],[120.8372,24.4158],[120.8361,24.4134],[120.8399,24.4092],[120.8407,24.4062],[120.8312,24.3961],[120.8253,24.3949],[120.825,24.3907],[120.8227,24.3891],[120.823,24.3871],[120.8216,24.3815],[120.8186,24.3759],[120.8135,24.3747],[120.8111,24.3753],[120.8068,24.3708],[120.807,24.3669],[120.8044,24.3641],[120.7978,24.3592],[120.7953,24.3564],[120.7849,24.3519],[120.7835,24.3534],[120.7769,24.3484],[120.7773,24.3448],[120.7755,24.3422],[120.776,24.3393],[120.7819,24.3447],[120.7902,24.3408],[120.7923,24.343],[120.7974,24.3408],[120.8014,24.3411],[120.8049,24.3428],[120.8074,24.3418],[120.8103,24.3436],[120.8097,24.3456],[120.8125,24.3473],[120.8152,24.3428],[120.8196,24.3442],[120.8214,24.342],[120.8305,24.343],[120.8337,24.3448],[120.8367,24.3477],[120.8398,24.3458],[120.8407,24.3495],[120.84,24.3516],[120.8412,24.3541],[120.8446,24.3559],[120.8471,24.3586],[120.8474,24.3606],[120.8524,24.3618],[120.8549,24.3588],[120.857,24.3589],[120.8577,24.3559],[120.8598,24.3549],[120.8617,24.3569],[120.8684,24.3603],[120.8717,24.3608],[120.8741,24.363],[120.8753,24.3607],[120.8786,24.3602],[120.8853,24.3638],[120.8892,24.363],[120.9017,24.3629],[120.9045,24.365],[120.9064,24.3643]]]},"properties":{"region_code":"CN-71-C72F40FBEC","parent_region_code":"CN-71-862208247E","name":"大湖乡","level":"county","has_children":false,"full_path":"中国 / 台湾省 / 苗栗县 / 大湖乡","source_admin_code":null,"osm_relation_id":3333119}},
{"type":"Feature","geometry":{"type":"Polygon","coordinates":[[[120.8769,24.6479],[120.8747,24.6491],[120.8753,24.6524],[120.8696,24.6525],[120.868,24.6557],[120.8673,24.6603],[120.8676,24.6647],[120.8648,24.6662],[120.858,24.6651],[120.8521,24.6625],[120.8461,24.6623],[120.8402,24.6657],[120.8382,24.6612],[120.8355,24.657],[120.8318,24.6542],[120.8314,24.652],[120.8276,24.6476],[120.8276,24.6461],[120.8214,24.6404],[120.8167,24.6345],[120.8138,24.6262],[120.816,24.6253],[120.817,24.6291],[120.8193,24.63],[120.8206,24.6245],[120.8234,24.6238],[120.8292,24.6253],[120.8303,24.6203],[120.8352,24.6132],[120.8322,24.6075],[120.8347,24.6039],[120.8366,24.6044],[120.8398,24.6033],[120.8458,24.6036],[120.8497,24.6003],[120.8521,24.6011],[120.8582,24.6003],[120.8595,24.6029],[120.8645,24.6023],[120.8663,24.603],[120.8717,24.6029],[120.8767,24.602],[120.8803,24.6045],[120.8838,24.6038],[120.8842,24.6019],[120.8909,24.603],[120.894,24.6023],[120.8956,24.6006],[120.9029,24.5997],[120.905,24.5948],[120.9121,24.5982],[120.9128,24.5956],[120.9165,24.5963],[120.9187,24.5944],[120.921,24.597],[120.9256,24.5951],[120.9258,24.5935],[120.9317,24.5905],[120.9334,24.5916],[120.9369,24.5896],[120.9419,24.5959],[120.945,24.5963],[120.949,24.6012],[120.9488,24.6053],[120.9453,24.6071],[120.9406,24.6057],[120.9353,24.608],[120.9282,24.6077],[120.9266,24.6052],[120.9186,24.6028],[120.9174,24.6055],[120.9148,24.607],[120.9171,24.6111],[120.9149,24.612],[120.9139,24.6149],[120.9115,24.6178],[120.9159,24.6198],[120.9142,24.6218],[120.9146,24.624],[120.9115,24.6263],[120.9104,24.6285],[120.9067,24.6259],[120.9031,24.626],[120.901,24.6248],[120.8966,24.6254],[120.8905,24.6254],[120.8808,24.6315],[120.8782,24.6344],[120.8777,24.6398],[120.8757,24.6438],[120.8776,24.6454],[120.8769,24.6479]]]},"properties":{"region_code":"CN-71-7AE1CEFB96","parent_region_code":"CN-71-862208247E","name":"造桥乡","level":"county","has_children":false,"full_path":"中国 / 台湾省 / 苗栗县 / 造桥乡","source_admin_code":null,"osm_relation_id":3333253}},
{"type":"Feature","geometry":{"type":"Polygon","coordinates":[[[120.8415,24.5605],[120.8449,24.5597],[120.8462,24.5559],[120.8454,24.5537],[120.8457,24.5499],[120.8478,24.5465],[120.8556,24.544],[120.8563,24.5415],[120.8635,24.5386],[120.8671,24.5385],[120.8728,24.5411],[120.88,24.5408],[120.8886,24.5439],[120.8928,24.5422],[120.8965,24.5416],[120.8996,24.5426],[120.9035,24.542],[120.9063,24.547],[120.906,24.5505],[120.9103,24.5573],[120.9138,24.559],[120.9191,24.5579],[120.9225,24.565],[120.9313,24.5796],[120.9342,24.5806],[120.9345,24.5849],[120.9369,24.5896],[120.9334,24.5916],[120.9317,24.5905],[120.9258,24.5935],[120.9256,24.5951],[120.921,24.597],[120.9187,24.5944],[120.9165,24.5963],[120.9128,24.5956],[120.9121,24.5982],[120.905,24.5948],[120.9029,24.5997],[120.8956,24.6006],[120.894,24.6023],[120.8909,24.603],[120.8842,24.6019],[120.8838,24.6038],[120.8803,24.6045],[120.8767,24.602],[120.8717,24.6029],[120.8663,24.603],[120.8645,24.6023],[120.8595,24.6029],[120.8582,24.6003],[120.8521,24.6011],[120.8497,24.6003],[120.8458,24.6036],[120.8398,24.6033],[120.8392,24.6016],[120.8341,24.601],[120.8351,24.599],[120.8404,24.5957],[120.8447,24.5908],[120.8438,24.5865],[120.8451,24.5828],[120.8451,24.5754],[120.8437,24.5729],[120.8435,24.5682],[120.8415,24.5605]]]},"properties":{"region_code":"CN-71-D7D7F76DBD","parent_region_code":"CN-71-862208247E","name":"头屋乡","level":"county","has_children":false,"full_path":"中国 / 台湾省 / 苗栗县 / 头屋乡","source_admin_code":null,"osm_relation_id":3333240}},
{"type":"Feature","geometry":{"type":"Polygon","coordinates":[[[120.9657,24.5065],[120.971,24.505],[120.9787,24.5019],[120.9883,24.5023],[120.9914,24.5009],[120.9964,24.502],[120.9984,24.5016],[121.0021,24.5057],[121.0064,24.5088],[121.0124,24.5108],[121.0204,24.507],[121.0214,24.5026],[121.024,24.5015],[121.0259,24.4986],[121.0267,24.4927],[121.0326,24.4918],[121.0391,24.4934],[121.0404,24.4949],[121.0458,24.4951],[121.0476,24.4966],[121.0511,24.4974],[121.0538,24.4965],[121.0569,24.4978],[121.0582,24.5005],[121.061,24.4974],[121.0663,24.4952],[121.0719,24.4984],[121.0721,24.5036],[121.0692,24.5093],[121.0686,24.5166],[121.0668,24.5207],[121.0672,24.5228],[121.0721,24.5263],[121.0781,24.5285],[121.0787,24.5324],[121.0778,24.5342],[121.0801,24.5379],[121.0802,24.5415],[121.0761,24.544],[121.073,24.5498],[121.071,24.5501],[121.0625,24.5559],[121.0583,24.5579],[121.0584,24.5607],[121.0615,24.56],[121.0628,24.5574],[121.0686,24.5626],[121.0705,24.5632],[121.072,24.5679],[121.0726,24.5725],[121.0747,24.5766],[121.0753,24.5808],[121.0789,24.5843],[121.0795,24.5882],[121.0831,24.59],[121.0828,24.5949],[121.0815,24.6001],[121.0758,24.6034],[121.0752,24.6058],[121.076,24.6095],[121.0744,24.6129],[121.0679,24.6149],[121.0659,24.6182],[121.0613,24.6217],[121.0554,24.6179],[121.0532,24.6155],[121.0493,24.6186],[121.0431,24.6273],[121.0409,24.6269],[121.0391,24.6295],[121.0371,24.6297],[121.0334,24.6321],[121.0294,24.6329],[121.0257,24.6362],[121.0253,24.6413],[121.023,24.6418],[121.0187,24.6407],[121.0144,24.6408],[121.011,24.6435],[121.0082,24.6444],[121.0051,24.6416],[121.0013,24.6428],[120.9982,24.6423],[120.9965,24.6403],[120.991,24.6421],[120.9892,24.6415],[120.9875,24.6383],[120.9814,24.6384],[120.9722,24.6394],[120.971,24.6403],[120.9647,24.642],[120.9619,24.6421],[120.955,24.6464],[120.9496,24.6464],[120.9508,24.6416],[120.9522,24.6392],[120.9546,24.639],[120.9565,24.6371],[120.9565,24.6338],[120.9551,24.6316],[120.9586,24.6294],[120.9593,24.6256],[120.9579,24.6239],[120.959,24.6193],[120.9609,24.6168],[120.9645,24.6213],[120.9688,24.6231],[120.9729,24.6215],[120.9758,24.6187],[120.9804,24.6204],[120.9801,24.6172],[120.9831,24.6121],[120.9839,24.6062],[120.9815,24.6015],[120.9798,24.5961],[120.9782,24.5942],[120.978,24.5894],[120.9746,24.5833],[120.9725,24.5783],[120.9707,24.5765],[120.9694,24.5713],[120.9701,24.5691],[120.9604,24.5567],[120.9593,24.5533],[120.9563,24.5514],[120.9558,24.5444],[120.9538,24.5426],[120.9555,24.5399],[120.9532,24.5333],[120.949,24.5284],[120.9517,24.5263],[120.9512,24.5245],[120.9544,24.5232],[120.9544,24.517],[120.957,24.5134],[120.9657,24.5065]]]},"properties":{"region_code":"CN-71-4D7D654026","parent_region_code":"CN-71-862208247E","name":"南庄乡","level":"county","has_children":false,"full_path":"中国 / 台湾省 / 苗栗县 / 南庄乡","source_admin_code":null,"osm_relation_id":3333100}},
{"type":"Feature","geometry":{"type":"Polygon","coordinates":[[[120.7784,24.5693],[120.7757,24.5705],[120.7739,24.574],[120.7719,24.5749],[120.77,24.5806],[120.7677,24.5814],[120.7646,24.5797],[120.7604,24.5809],[120.7582,24.5797],[120.7551,24.5798],[120.7528,24.5811],[120.7478,24.5789],[120.7449,24.579],[120.7446,24.577],[120.7395,24.5733],[120.7385,24.5709],[120.7343,24.5684],[120.7323,24.5682],[120.727,24.56],[120.727,24.5577],[120.7245,24.5538],[120.7297,24.5518],[120.732,24.5489],[120.7323,24.5464],[120.7345,24.546],[120.735,24.5429],[120.7344,24.5381],[120.7373,24.5386],[120.7396,24.5353],[120.7386,24.5329],[120.7416,24.529],[120.7428,24.5247],[120.7455,24.5238],[120.7442,24.5211],[120.7449,24.5183],[120.7495,24.5175],[120.75,24.5142],[120.7495,24.5099],[120.7502,24.5075],[120.7539,24.5068],[120.7567,24.5045],[120.7612,24.5064],[120.7608,24.5032],[120.7583,24.5015],[120.7581,24.4987],[120.7553,24.4955],[120.7559,24.4927],[120.759,24.4917],[120.7621,24.4895],[120.7633,24.4872],[120.7638,24.4895],[120.7722,24.5004],[120.7777,24.5026],[120.7786,24.5052],[120.7772,24.5115],[120.7808,24.5111],[120.7833,24.5118],[120.7874,24.5152],[120.7876,24.5194],[120.7891,24.526],[120.7868,24.5288],[120.784,24.5282],[120.7849,24.5319],[120.7832,24.5338],[120.7853,24.5376],[120.7875,24.5384],[120.7888,24.542],[120.7904,24.5428],[120.7922,24.5463],[120.7911,24.5496],[120.7917,24.554],[120.7898,24.5551],[120.7895,24.5594],[120.7871,24.5638],[120.783,24.5645],[120.7784,24.5693]]]},"properties":{"region_code":"CN-71-2D73F310FD","parent_region_code":"CN-71-862208247E","name":"西湖乡","level":"county","has_children":false,"full_path":"中国 / 台湾省 / 苗栗县 / 西湖乡","source_admin_code":null,"osm_relation_id":3333267}},
{"type":"Feature","geometry":{"type":"Polygon","coordinates":[[[120.8966,24.6254],[120.901,24.6248],[120.9031,24.626],[120.9067,24.6259],[120.9104,24.6285],[120.9115,24.6263],[120.9146,24.624],[120.9142,24.6218],[120.9159,24.6198],[120.9115,24.6178],[120.9139,24.6149],[120.9149,24.612],[120.9171,24.6111],[120.9148,24.607],[120.9174,24.6055],[120.9186,24.6028],[120.9266,24.6052],[120.9282,24.6077],[120.9353,24.608],[120.9406,24.6057],[120.9453,24.6071],[120.9488,24.6053],[120.949,24.6012],[120.9556,24.5997],[120.9578,24.5959],[120.9659,24.5893],[120.9667,24.5868],[120.972,24.585],[120.9746,24.5833],[120.978,24.5894],[120.9782,24.5942],[120.9798,24.5961],[120.9815,24.6015],[120.9839,24.6062],[120.9831,24.6121],[120.9801,24.6172],[120.9804,24.6204],[120.9758,24.6187],[120.9729,24.6215],[120.9688,24.6231],[120.9645,24.6213],[120.9609,24.6168],[120.959,24.6193],[120.9579,24.6239],[120.9593,24.6256],[120.9586,24.6294],[120.9551,24.6316],[120.9565,24.6338],[120.9565,24.6371],[120.9546,24.639],[120.9522,24.6392],[120.9508,24.6416],[120.9496,24.6464],[120.955,24.6464],[120.9619,24.6421],[120.9647,24.642],[120.971,24.6403],[120.9722,24.6394],[120.9814,24.6384],[120.9875,24.6383],[120.9892,24.6415],[120.991,24.6421],[120.9965,24.6403],[120.9982,24.6423],[121.0013,24.6428],[121.0051,24.6416],[121.0082,24.6444],[121.009,24.6477],[121.0081,24.6505],[121.0108,24.6526],[121.01,24.6561],[121.006,24.6553],[121.0044,24.6564],[121.0002,24.6547],[120.9962,24.6554],[120.9946,24.6596],[120.9917,24.6596],[120.9887,24.663],[120.986,24.6646],[120.9832,24.6698],[120.9799,24.6735],[120.977,24.6736],[120.9716,24.673],[120.9587,24.6794],[120.9566,24.6779],[120.9506,24.679],[120.9494,24.6757],[120.9467,24.6721],[120.9438,24.6714],[120.945,24.6687],[120.9425,24.665],[120.9397,24.6575],[120.9356,24.6576],[120.9345,24.6599],[120.9309,24.661],[120.9289,24.6627],[120.9227,24.6624],[120.92,24.6613],[120.9199,24.6579],[120.9145,24.6561],[120.9106,24.6537],[120.9124,24.6502],[120.9116,24.6459],[120.9135,24.644],[120.9127,24.6417],[120.9096,24.6412],[120.9087,24.6376],[120.9043,24.6358],[120.9039,24.6317],[120.8992,24.6289],[120.8966,24.6254]]]},"properties":{"region_code":"CN-71-FA705D1B9F","parent_region_code":"CN-71-862208247E","name":"三湾乡","level":"county","has_children":false,"full_path":"中国 / 台湾省 / 苗栗县 / 三湾乡","source_admin_code":null,"osm_relation_id":3333248}},
{"type":"Feature","geometry":{"type":"Polygon","coordinates":[[[120.9098,24.294],[120.9119,24.2941],[120.9168,24.299],[120.9199,24.3007],[120.9225,24.304],[120.9202,24.3106],[120.9207,24.3178],[120.9197,24.3242],[120.9167,24.3327],[120.917,24.3357],[120.9197,24.3371],[120.9263,24.3386],[120.9353,24.3429],[120.9425,24.3391],[120.9568,24.3393],[120.96,24.3352],[120.9662,24.3335],[120.9724,24.3335],[120.9772,24.3347],[120.9799,24.3345],[120.982,24.3359],[120.9858,24.3315],[120.9921,24.3296],[120.9974,24.3301],[121.0005,24.3327],[121.0047,24.332],[121.0083,24.3268],[121.0116,24.324],[121.0145,24.3201],[121.018,24.3113],[121.02,24.3093],[121.0288,24.3052],[121.0317,24.302],[121.0331,24.2988],[121.0353,24.2972],[121.0452,24.2953],[121.049,24.296],[121.0514,24.2978],[121.0527,24.3047],[121.0549,24.3077],[121.0553,24.3103],[121.0584,24.3127],[121.0615,24.3134],[121.0656,24.3157],[121.0693,24.3155],[121.0739,24.3196],[121.0734,24.3223],[121.0789,24.3229],[121.0816,24.3241],[121.0866,24.3176],[121.0944,24.3198],[121.0952,24.322],[121.0982,24.3237],[121.1023,24.3246],[121.1038,24.3268],[121.1087,24.331],[121.1149,24.3286],[121.1183,24.3303],[121.1216,24.3307],[121.1221,24.3364],[121.1253,24.342],[121.1284,24.3422],[121.1302,24.3447],[121.1313,24.3494],[121.136,24.3528],[121.1409,24.3596],[121.1441,24.3583],[121.1493,24.358],[121.1555,24.3591],[121.1594,24.3608],[121.168,24.3607],[121.169,24.3643],[121.1741,24.369],[121.1733,24.3731],[121.1785,24.3779],[121.1815,24.3788],[121.1833,24.381],[121.1902,24.3816],[121.1969,24.392],[121.1972,24.3966],[121.2007,24.3976],[121.2072,24.3979],[121.2106,24.3957],[121.2104,24.3919],[121.2112,24.3884],[121.2133,24.3844],[121.2135,24.3819],[121.2159,24.3795],[121.2182,24.3812],[121.2256,24.383],[121.2319,24.3839],[121.2316,24.3875],[121.235,24.3921],[121.2348,24.3975],[121.2379,24.4002],[121.2401,24.4035],[121.2436,24.4057],[121.2434,24.4109],[121.242,24.414],[121.2436,24.4166],[121.2439,24.4201],[121.2459,24.4226],[121.25,24.4249],[121.2576,24.4251],[121.2589,24.4277],[121.2589,24.4407],[121.2616,24.4441],[121.2622,24.4481],[121.2606,24.45],[121.2609,24.4525],[121.2626,24.4551],[121.258,24.4576],[121.2582,24.4632],[121.2491,24.466],[121.2444,24.47],[121.244,24.4756],[121.2427,24.4781],[121.2345,24.4838],[121.2337,24.4874],[121.2298,24.489],[121.2288,24.4924],[121.2234,24.4944],[121.2187,24.4983],[121.2222,24.5052],[121.2237,24.5065],[121.2175,24.5097],[121.2177,24.5139],[121.2156,24.5157],[121.2102,24.5117],[121.2067,24.5131],[121.2001,24.511],[121.1957,24.507],[121.1916,24.5074],[121.1867,24.5052],[121.1832,24.5077],[121.1772,24.5072],[121.1747,24.5048],[121.1706,24.504],[121.1694,24.5026],[121.1616,24.5034],[121.1548,24.5067],[121.1506,24.506],[121.146,24.5096],[121.1449,24.5118],[121.1371,24.5066],[121.1295,24.5068],[121.1232,24.5102],[121.1207,24.5084],[121.1171,24.5085],[121.1133,24.5065],[121.109,24.501],[121.1052,24.5006],[121.0982,24.4965],[121.0908,24.4977],[121.0863,24.501],[121.0837,24.5012],[121.0794,24.4992],[121.0753,24.4995],[121.0719,24.4984],[121.0663,24.4952],[121.061,24.4974],[121.0582,24.5005],[121.0569,24.4978],[121.0538,24.4965],[121.0511,24.4974],[121.0476,24.4966],[121.0458,24.4951],[121.0404,24.4949],[121.0391,24.4934],[121.0326,24.4918],[121.0267,24.4927],[121.0259,24.4986],[121.024,24.5015],[121.0214,24.5026],[121.0204,24.507],[121.0124,24.5108],[121.0064,24.5088],[121.0021,24.5057],[120.9984,24.5016],[120.9964,24.502],[120.9914,24.5009],[120.9883,24.5023],[120.9787,24.5019],[120.971,24.505],[120.9657,24.5065],[120.9625,24.5044],[120.9548,24.5049],[120.9541,24.5064],[120.9493,24.5064],[120.9469,24.5035],[120.9428,24.5031],[120.9387,24.499],[120.933,24.4967],[120.9297,24.4981],[120.9265,24.4963],[120.9212,24.4955],[120.9192,24.4902],[120.9204,24.4869],[120.9205,24.4825],[120.9219,24.4809],[120.9163,24.4732],[120.9165,24.4652],[120.9136,24.4622],[120.9115,24.4577],[120.9111,24.4529],[120.9095,24.4509],[120.9041,24.4471],[120.91,24.4438],[120.9133,24.4364],[120.9116,24.4319],[120.9118,24.4288],[120.9104,24.425],[120.9079,24.4237],[120.9072,24.4163],[120.9109,24.4144],[120.9121,24.4117],[120.9121,24.4079],[120.918,24.4029],[120.9196,24.3989],[120.9186,24.3944],[120.9157,24.3912],[120.9144,24.3884],[120.915,24.3858],[120.914,24.3809],[120.9148,24.3759],[120.9137,24.374],[120.9136,24.3671],[120.9121,24.3647],[120.9064,24.3643],[120.9092,24.3581],[120.9096,24.3528],[120.9072,24.3441],[120.9034,24.3346],[120.9082,24.3298],[120.9099,24.3267],[120.9107,24.3183],[120.9119,24.3129],[120.9142,24.3084],[120.9144,24.3044],[120.9136,24.3015],[120.9106,24.2965],[120.9098,24.294]]]},"properties":{"region_code":"CN-71-95BF35168B","parent_region_code":"CN-71-862208247E","name":"泰安乡","level":"county","has_children":false,"full_path":"中国 / 台湾省 / 苗栗县 / 泰安乡","source_admin_code":null,"osm_relation_id":3333010}},
{"type":"Feature","geometry":{"type":"Polygon","coordinates":[[[120.8742,24.4573],[120.8765,24.4546],[120.8834,24.4495],[120.8857,24.4463],[120.893,24.4445],[120.8998,24.4453],[120.9041,24.4471],[120.9095,24.4509],[120.9111,24.4529],[120.9115,24.4577],[120.9136,24.4622],[120.9165,24.4652],[120.9163,24.4732],[120.9219,24.4809],[120.9205,24.4825],[120.9204,24.4869],[120.9192,24.4902],[120.9212,24.4955],[120.9265,24.4963],[120.9297,24.4981],[120.933,24.4967],[120.9387,24.499],[120.9428,24.5031],[120.9469,24.5035],[120.9493,24.5064],[120.9541,24.5064],[120.9548,24.5049],[120.9625,24.5044],[120.9657,24.5065],[120.957,24.5134],[120.9544,24.517],[120.9544,24.5232],[120.9512,24.5245],[120.9517,24.5263],[120.949,24.5284],[120.9532,24.5333],[120.9555,24.5399],[120.9538,24.5426],[120.9558,24.5444],[120.9563,24.5514],[120.9593,24.5533],[120.9604,24.5567],[120.9701,24.5691],[120.9694,24.5713],[120.9707,24.5765],[120.9725,24.5783],[120.9746,24.5833],[120.972,24.585],[120.9667,24.5868],[120.9659,24.5893],[120.9578,24.5959],[120.9556,24.5997],[120.949,24.6012],[120.945,24.5963],[120.9419,24.5959],[120.9369,24.5896],[120.9345,24.5849],[120.9342,24.5806],[120.9313,24.5796],[120.9225,24.565],[120.9191,24.5579],[120.9138,24.559],[120.9103,24.5573],[120.906,24.5505],[120.9063,24.547],[120.9035,24.542],[120.9079,24.5377],[120.9069,24.5337],[120.9024,24.5256],[120.899,24.5242],[120.8997,24.5218],[120.8971,24.5175],[120.8933,24.5141],[120.8915,24.5136],[120.8916,24.5104],[120.8872,24.5119],[120.8833,24.5092],[120.879,24.5044],[120.8803,24.5022],[120.8788,24.4988],[120.8763,24.4969],[120.8752,24.4916],[120.873,24.4907],[120.8731,24.4874],[120.8718,24.4865],[120.8659,24.4696],[120.8665,24.4669],[120.8647,24.4643],[120.8689,24.4645],[120.8748,24.4666],[120.8777,24.4653],[120.877,24.4621],[120.8742,24.4573]]]},"properties":{"region_code":"CN-71-8ABCEAE547","parent_region_code":"CN-71-862208247E","name":"狮潭乡","level":"county","has_children":false,"full_path":"中国 / 台湾省 / 苗栗县 / 狮潭乡","source_admin_code":null,"osm_relation_id":3333136}}
]}