{"type":"FeatureCollection", "features": [
{"type":"Feature","geometry":{"type":"MultiPolygon","coordinates":[[[[119.512,23.4831],[119.5143,23.4835],[119.5154,23.4847],[119.5186,23.4856],[119.5194,23.4853],[119.5246,23.4865],[119.5286,23.4865],[119.5366,23.4918],[119.5402,23.4931],[119.5434,23.4935],[119.5435,23.4949],[119.5419,23.4954],[119.5378,23.4979],[119.5346,23.4958],[119.533,23.4962],[119.5289,23.4957],[119.5267,23.4933],[119.5205,23.492],[119.5206,23.4901],[119.5182,23.4878],[119.5167,23.4881],[119.5152,23.4863],[119.5141,23.4868],[119.5121,23.4913],[119.5102,23.4913],[119.5094,23.4901],[119.5097,23.4883],[119.5088,23.486],[119.5104,23.4834],[119.512,23.4831]]],[[[119.5191,23.5085],[119.5221,23.51],[119.5218,23.5142],[119.5205,23.5145],[119.5185,23.5133],[119.5166,23.5145],[119.5145,23.5109],[119.5142,23.5092],[119.5191,23.5085]]],[[[119.6066,23.5855],[119.6045,23.5854],[119.6028,23.5846],[119.6007,23.5847],[119.5985,23.5827],[119.5993,23.5804],[119.5981,23.5791],[119.5976,23.5769],[119.5999,23.5768],[119.5979,23.5749],[119.5972,23.5719],[119.5972,23.5691],[119.5957,23.5694],[119.5939,23.5712],[119.5945,23.5734],[119.5931,23.575],[119.5911,23.5745],[119.59,23.5724],[119.5877,23.5721],[119.5865,23.5727],[119.5855,23.575],[119.5858,23.5762],[119.5881,23.5777],[119.5854,23.5783],[119.5856,23.5808],[119.5834,23.5814],[119.5828,23.5833],[119.5862,23.586],[119.5862,23.5877],[119.5831,23.5908],[119.5837,23.5933],[119.5824,23.594],[119.5816,23.5921],[119.5819,23.5904],[119.5801,23.5897],[119.5787,23.5878],[119.5766,23.5877],[119.5769,23.5862],[119.5747,23.5853],[119.5708,23.5854],[119.5651,23.5848],[119.5621,23.5854],[119.5618,23.5836],[119.5664,23.5778],[119.5673,23.575],[119.5663,23.5735],[119.562,23.5715],[119.5628,23.5694],[119.5605,23.5676],[119.5601,23.5643],[119.5564,23.5632],[119.558,23.561],[119.5598,23.562],[119.5635,23.5628],[119.567,23.5627],[119.5683,23.5621],[119.5713,23.565],[119.5724,23.5631],[119.575,23.5612],[119.5745,23.5602],[119.5774,23.5585],[119.5764,23.5572],[119.5725,23.5595],[119.5721,23.5585],[119.5741,23.5573],[119.5756,23.5549],[119.5728,23.5538],[119.564,23.5565],[119.5619,23.5548],[119.5624,23.5526],[119.5651,23.5531],[119.5651,23.5517],[119.563,23.5514],[119.5625,23.55],[119.5658,23.549],[119.5666,23.5504],[119.5682,23.5498],[119.569,23.5484],[119.5724,23.5491],[119.5728,23.5466],[119.5761,23.5473],[119.5773,23.5483],[119.5794,23.5485],[119.5809,23.5495],[119.5841,23.5485],[119.5854,23.5502],[119.5869,23.5508],[119.5885,23.55],[119.5911,23.5498],[119.5927,23.5514],[119.596,23.5495],[119.5997,23.55],[119.6023,23.5477],[119.6022,23.5463],[119.6001,23.5454],[119.6004,23.5436],[119.6032,23.5404],[119.6005,23.5401],[119.5992,23.5385],[119.5962,23.5394],[119.5948,23.537],[119.5973,23.5328],[119.5957,23.5326],[119.5964,23.5307],[119.5993,23.5304],[119.5967,23.5286],[119.5958,23.5265],[119.5935,23.5273],[119.5899,23.5311],[119.5864,23.5291],[119.585,23.5313],[119.5829,23.5326],[119.5808,23.532],[119.5798,23.5273],[119.58,23.5245],[119.5775,23.5227],[119.5774,23.5217],[119.5742,23.52],[119.5733,23.5232],[119.572,23.5242],[119.5721,23.526],[119.5742,23.5269],[119.5721,23.53],[119.572,23.5319],[119.5683,23.5312],[119.5667,23.5318],[119.5657,23.5346],[119.5646,23.5339],[119.5661,23.5316],[119.5646,23.53],[119.5608,23.5308],[119.5598,23.5284],[119.5605,23.5264],[119.5584,23.5264],[119.5561,23.5277],[119.5549,23.5292],[119.5546,23.5314],[119.557,23.5333],[119.5564,23.5354],[119.5567,23.5381],[119.5527,23.5395],[119.551,23.5406],[119.5502,23.5425],[119.5512,23.5461],[119.5513,23.549],[119.5481,23.5509],[119.5491,23.5533],[119.5478,23.5537],[119.5466,23.5498],[119.5471,23.549],[119.5453,23.5464],[119.5426,23.5458],[119.5403,23.5415],[119.5415,23.5407],[119.5412,23.5389],[119.5439,23.5375],[119.5447,23.5382],[119.5483,23.5395],[119.5503,23.5374],[119.5496,23.5356],[119.5484,23.5354],[119.5488,23.5333],[119.552,23.5332],[119.5535,23.5318],[119.5543,23.5296],[119.5535,23.5282],[119.5571,23.5235],[119.5586,23.5241],[119.5602,23.5238],[119.5619,23.5245],[119.5633,23.5262],[119.5676,23.5254],[119.5705,23.524],[119.5728,23.5216],[119.5741,23.5174],[119.571,23.5135],[119.5711,23.5099],[119.5718,23.5088],[119.5747,23.5074],[119.5761,23.5075],[119.5779,23.509],[119.5829,23.5097],[119.5844,23.5093],[119.5893,23.5125],[119.5929,23.5128],[119.5958,23.5123],[119.5957,23.5114],[119.598,23.5104],[119.5991,23.512],[119.6025,23.5092],[119.6053,23.509],[119.6064,23.5078],[119.6082,23.5092],[119.6078,23.5129],[119.6055,23.5158],[119.6058,23.5167],[119.6078,23.5173],[119.611,23.5189],[119.6117,23.5216],[119.6103,23.5227],[119.6091,23.5221],[119.6081,23.5247],[119.6052,23.5277],[119.6073,23.5297],[119.6091,23.5298],[119.6095,23.532],[119.6107,23.533],[119.6126,23.5318],[119.6121,23.5357],[119.613,23.5372],[119.6154,23.539],[119.6186,23.5386],[119.621,23.5376],[119.6208,23.5419],[119.6235,23.5438],[119.6255,23.5428],[119.6257,23.5452],[119.6275,23.5458],[119.63,23.5476],[119.6317,23.5467],[119.6335,23.5467],[119.6346,23.5477],[119.635,23.5509],[119.6342,23.552],[119.6289,23.5545],[119.6261,23.5554],[119.6222,23.5554],[119.6236,23.5601],[119.6222,23.5594],[119.6204,23.5599],[119.6199,23.5578],[119.6161,23.5576],[119.6095,23.5606],[119.61,23.5635],[119.6117,23.5663],[119.6111,23.5695],[119.6111,23.5727],[119.6115,23.5788],[119.6118,23.5799],[119.6064,23.5819],[119.6061,23.5832],[119.6066,23.5855]]]]},"properties":{"region_code":"CN-71-77AB1F8819","parent_region_code":"CN-71-ECEFFD2447","name":"马公市","level":"county","has_children":false,"full_path":"中国 / 台湾省 / 澎湖县 / 马公市","source_admin_code":null,"osm_relation_id":3339737}},
{"type":"Feature","geometry":{"type":"Polygon","coordinates":[[[119.635,23.5509],[119.6389,23.5536],[119.6398,23.5559],[119.6414,23.5578],[119.6443,23.5596],[119.6472,23.5605],[119.6517,23.5605],[119.6551,23.561],[119.6582,23.5609],[119.6626,23.5602],[119.6666,23.5615],[119.667,23.5588],[119.6695,23.5565],[119.6719,23.558],[119.6744,23.5579],[119.6751,23.5558],[119.6743,23.5545],[119.6755,23.5526],[119.6781,23.5514],[119.6804,23.552],[119.682,23.5534],[119.6849,23.553],[119.6883,23.5547],[119.6941,23.5549],[119.6927,23.5587],[119.6932,23.5601],[119.6902,23.5615],[119.6871,23.562],[119.6835,23.5652],[119.6828,23.5663],[119.6823,23.5717],[119.6802,23.5738],[119.6811,23.5751],[119.6805,23.5777],[119.6814,23.5785],[119.6812,23.582],[119.682,23.5835],[119.6808,23.5849],[119.6763,23.5924],[119.6758,23.5937],[119.6736,23.5957],[119.6716,23.599],[119.6722,23.601],[119.6699,23.6017],[119.6688,23.6001],[119.6668,23.5952],[119.669,23.595],[119.6695,23.5935],[119.6683,23.5912],[119.6647,23.5906],[119.6626,23.5895],[119.6596,23.5918],[119.6595,23.5938],[119.6626,23.5947],[119.6623,23.5963],[119.6609,23.596],[119.6583,23.5976],[119.6559,23.6005],[119.6557,23.6016],[119.6572,23.603],[119.6568,23.6063],[119.6542,23.6084],[119.6514,23.6098],[119.6503,23.6094],[119.6508,23.6059],[119.6501,23.6038],[119.6462,23.6023],[119.6467,23.601],[119.6465,23.5971],[119.6438,23.5958],[119.6418,23.5902],[119.644,23.5894],[119.6437,23.5878],[119.6423,23.5873],[119.6398,23.5882],[119.6397,23.5897],[119.6379,23.5909],[119.6414,23.5965],[119.6398,23.5992],[119.6375,23.5987],[119.637,23.5974],[119.6331,23.5956],[119.6322,23.593],[119.6336,23.5929],[119.6343,23.5908],[119.634,23.5893],[119.6328,23.5883],[119.6318,23.5834],[119.6284,23.581],[119.6257,23.5787],[119.6245,23.5807],[119.6261,23.5831],[119.626,23.5849],[119.6245,23.5867],[119.6254,23.5899],[119.6247,23.5925],[119.6257,23.594],[119.6274,23.5948],[119.6277,23.5961],[119.6253,23.6002],[119.6282,23.6039],[119.6305,23.6028],[119.632,23.6043],[119.6275,23.6077],[119.6252,23.6089],[119.6231,23.6073],[119.6204,23.6067],[119.6216,23.6033],[119.6209,23.6021],[119.6168,23.6009],[119.6157,23.6026],[119.6133,23.6018],[119.6127,23.6051],[119.6106,23.6056],[119.6059,23.6056],[119.6055,23.6016],[119.6034,23.6012],[119.6039,23.5998],[119.6033,23.5985],[119.6045,23.5976],[119.6046,23.5961],[119.6066,23.5959],[119.6058,23.5942],[119.607,23.5924],[119.6071,23.5892],[119.6059,23.587],[119.6066,23.5855],[119.6061,23.5832],[119.6064,23.5819],[119.6118,23.5799],[119.6115,23.5788],[119.6111,23.5727],[119.6111,23.5695],[119.6117,23.5663],[119.61,23.5635],[119.6095,23.5606],[119.6161,23.5576],[119.6199,23.5578],[119.6204,23.5599],[119.6222,23.5594],[119.6236,23.5601],[119.6222,23.5554],[119.6261,23.5554],[119.6289,23.5545],[119.6342,23.552],[119.635,23.5509]]]},"properties":{"region_code":"CN-71-A384D95A90","parent_region_code":"CN-71-ECEFFD2447","name":"湖西乡","level":"county","has_children":false,"full_path":"中国 / 台湾省 / 澎湖县 / 湖西乡","source_admin_code":null,"osm_relation_id":3339736}},
{"type":"Feature","geometry":{"type":"MultiPolygon","coordinates":[[[[119.6149,23.7375],[119.6143,23.7385],[119.6104,23.7395],[119.611,23.7411],[119.6122,23.7417],[119.6139,23.7402],[119.6165,23.7419],[119.6184,23.7414],[119.6198,23.7426],[119.6222,23.7433],[119.6215,23.747],[119.6201,23.7495],[119.6175,23.7511],[119.6144,23.7516],[119.612,23.7532],[119.6111,23.7555],[119.6092,23.7556],[119.6092,23.7531],[119.6074,23.7505],[119.6054,23.7485],[119.6042,23.7462],[119.6025,23.7444],[119.5971,23.7418],[119.5953,23.739],[119.5954,23.7374],[119.5967,23.7363],[119.5993,23.7363],[119.6003,23.7352],[119.603,23.7283],[119.6038,23.7325],[119.606,23.7364],[119.6085,23.7386],[119.6098,23.739],[119.6149,23.7375]]],[[[119.556,23.7096],[119.5584,23.711],[119.5567,23.7136],[119.5564,23.7151],[119.5576,23.7164],[119.557,23.7207],[119.5549,23.7211],[119.5537,23.7203],[119.5538,23.7186],[119.5564,23.7173],[119.5556,23.7162],[119.5562,23.7134],[119.5544,23.7109],[119.556,23.7096]]],[[[119.6584,23.6593],[119.6616,23.6587],[119.6621,23.6595],[119.6648,23.6604],[119.666,23.6616],[119.6647,23.6633],[119.6624,23.6637],[119.6604,23.6628],[119.6584,23.6628],[119.656,23.6619],[119.6567,23.6598],[119.6584,23.6593]]],[[[119.6308,23.6448],[119.6342,23.6473],[119.636,23.6477],[119.6366,23.6506],[119.6358,23.6513],[119.6326,23.6516],[119.6315,23.6502],[119.6316,23.6461],[119.6308,23.6448]]],[[[119.5697,23.6167],[119.5709,23.6183],[119.5697,23.622],[119.5678,23.6226],[119.5673,23.62],[119.5658,23.6184],[119.5697,23.6167]]],[[[119.6051,23.6092],[119.6101,23.6103],[119.6128,23.6125],[119.6139,23.614],[119.6134,23.6158],[119.6132,23.6203],[119.6103,23.6205],[119.607,23.6224],[119.6069,23.6214],[119.603,23.6183],[119.602,23.6171],[119.597,23.6168],[119.5976,23.6155],[119.6012,23.6126],[119.6035,23.6116],[119.6031,23.6107],[119.6051,23.6092]]],[[[119.6021,23.624],[119.6049,23.6251],[119.6026,23.6286],[119.6049,23.6314],[119.6064,23.6323],[119.6096,23.6325],[119.6103,23.6337],[119.6093,23.6352],[119.6076,23.6365],[119.6034,23.6336],[119.6019,23.6339],[119.5992,23.6362],[119.5977,23.6391],[119.5976,23.6412],[119.6002,23.6417],[119.6018,23.6426],[119.6005,23.6451],[119.6008,23.6481],[119.6034,23.6493],[119.6104,23.6486],[119.612,23.6502],[119.6125,23.6528],[119.6097,23.6547],[119.6074,23.6572],[119.6065,23.6596],[119.6077,23.6609],[119.6084,23.6628],[119.6041,23.6642],[119.6056,23.6684],[119.6015,23.6703],[119.5999,23.6723],[119.6004,23.674],[119.5988,23.6752],[119.5944,23.6743],[119.5941,23.672],[119.5906,23.672],[119.5875,23.6733],[119.5875,23.6747],[119.5848,23.6769],[119.583,23.6777],[119.5789,23.6762],[119.5771,23.6743],[119.5729,23.6732],[119.5708,23.6721],[119.5703,23.6703],[119.5685,23.6719],[119.565,23.671],[119.5612,23.671],[119.5591,23.6721],[119.5582,23.6701],[119.5539,23.6684],[119.5523,23.6647],[119.5497,23.6631],[119.5492,23.6621],[119.5511,23.6601],[119.5502,23.6578],[119.552,23.6579],[119.5557,23.6557],[119.5588,23.6554],[119.5631,23.6518],[119.5645,23.6526],[119.5647,23.6545],[119.5671,23.6561],[119.5669,23.6589],[119.5679,23.6603],[119.5715,23.6623],[119.5779,23.6623],[119.5816,23.661],[119.5811,23.6589],[119.5798,23.6578],[119.5817,23.6568],[119.5831,23.6549],[119.582,23.6541],[119.5825,23.6525],[119.586,23.6499],[119.5871,23.6477],[119.5882,23.6473],[119.5889,23.6442],[119.5937,23.6414],[119.5946,23.6403],[119.5947,23.6379],[119.5958,23.635],[119.5956,23.6335],[119.594,23.6317],[119.5907,23.6296],[119.5913,23.6282],[119.5892,23.6249],[119.5896,23.6221],[119.5915,23.6241],[119.5932,23.6245],[119.5964,23.6243],[119.5991,23.6227],[119.5989,23.6213],[119.6008,23.6209],[119.6011,23.6228],[119.6021,23.624]]]]},"properties":{"region_code":"CN-71-F58B365EAB","parent_region_code":"CN-71-ECEFFD2447","name":"白沙乡","level":"county","has_children":false,"full_path":"中国 / 台湾省 / 澎湖县 / 白沙乡","source_admin_code":null,"osm_relation_id":3339757}},
{"type":"Feature","geometry":{"type":"MultiPolygon","coordinates":[[[[119.5214,23.6484],[119.5242,23.6512],[119.5246,23.6535],[119.524,23.655],[119.5224,23.6556],[119.5196,23.6553],[119.5176,23.6545],[119.5138,23.6545],[119.5138,23.653],[119.5153,23.6517],[119.5168,23.6525],[119.5179,23.6492],[119.5199,23.6479],[119.5214,23.6484]]],[[[119.4941,23.5674],[119.4967,23.5682],[119.4994,23.5675],[119.499,23.5664],[119.5007,23.5656],[119.5021,23.5666],[119.5049,23.5665],[119.5106,23.5645],[119.5154,23.5643],[119.5181,23.5671],[119.5168,23.568],[119.515,23.568],[119.5131,23.5702],[119.5145,23.5744],[119.5122,23.5758],[119.5123,23.579],[119.5118,23.582],[119.5146,23.5825],[119.5163,23.5841],[119.5159,23.5859],[119.5143,23.5875],[119.5139,23.5893],[119.5124,23.5921],[119.5147,23.5943],[119.5167,23.5947],[119.5192,23.5944],[119.5211,23.5972],[119.523,23.6013],[119.5224,23.6033],[119.523,23.6048],[119.5205,23.6091],[119.5216,23.6139],[119.5216,23.6157],[119.5197,23.6183],[119.5195,23.6197],[119.5212,23.6207],[119.52,23.6224],[119.5197,23.6241],[119.5176,23.6269],[119.5188,23.6295],[119.5218,23.6313],[119.523,23.6288],[119.5247,23.63],[119.5303,23.6304],[119.5312,23.6319],[119.5327,23.6327],[119.5362,23.6335],[119.5364,23.6328],[119.5399,23.632],[119.5395,23.6336],[119.5414,23.6349],[119.5409,23.6362],[119.5417,23.6376],[119.5432,23.6377],[119.5425,23.6406],[119.5403,23.6404],[119.5368,23.6388],[119.5339,23.6387],[119.5322,23.6392],[119.5311,23.6405],[119.5291,23.6398],[119.5237,23.6436],[119.5232,23.6425],[119.5213,23.6429],[119.5194,23.6449],[119.5197,23.6473],[119.518,23.6479],[119.5167,23.6496],[119.5149,23.6496],[119.5119,23.6482],[119.5106,23.6455],[119.5096,23.6416],[119.5066,23.6356],[119.5047,23.6362],[119.5033,23.6344],[119.502,23.6308],[119.5024,23.628],[119.5042,23.6254],[119.5039,23.6236],[119.502,23.623],[119.4994,23.6201],[119.5001,23.6184],[119.5047,23.6148],[119.5073,23.6149],[119.5088,23.6131],[119.5086,23.611],[119.5053,23.6093],[119.5051,23.6077],[119.5035,23.6063],[119.5036,23.6045],[119.5025,23.6033],[119.503,23.6007],[119.5025,23.5996],[119.5045,23.5986],[119.504,23.5968],[119.4996,23.5953],[119.4972,23.5967],[119.4966,23.5994],[119.4941,23.5993],[119.494,23.5959],[119.4929,23.5941],[119.4974,23.5935],[119.5002,23.592],[119.5036,23.5893],[119.5044,23.587],[119.5032,23.5789],[119.5011,23.5766],[119.4994,23.5772],[119.499,23.5747],[119.4971,23.5735],[119.4973,23.5725],[119.4932,23.5696],[119.4887,23.5701],[119.4872,23.5721],[119.4841,23.5735],[119.484,23.5748],[119.4823,23.5752],[119.4808,23.5734],[119.4778,23.5688],[119.4711,23.5657],[119.4696,23.5655],[119.4675,23.5623],[119.4682,23.5606],[119.4719,23.5594],[119.4741,23.5601],[119.4763,23.5598],[119.4783,23.5608],[119.4794,23.564],[119.483,23.5644],[119.4855,23.5632],[119.4896,23.5626],[119.4909,23.5631],[119.492,23.5659],[119.4941,23.5674]]]]},"properties":{"region_code":"CN-71-3EBBF8D063","parent_region_code":"CN-71-ECEFFD2447","name":"西屿乡","level":"county","has_children":false,"full_path":"中国 / 台湾省 / 澎湖县 / 西屿乡","source_admin_code":null,"osm_relation_id":3339758}},
{"type":"Feature","geometry":{"type":"MultiPolygon","coordinates":[[[[119.5374,23.3601],[119.5382,23.3611],[119.5364,23.363],[119.5358,23.3615],[119.5374,23.3601]]],[[[119.6586,23.2609],[119.6598,23.2601],[119.6612,23.2622],[119.6612,23.2646],[119.6581,23.264],[119.6572,23.2618],[119.6586,23.2609]]],[[[119.672,23.2447],[119.6732,23.2467],[119.6724,23.2505],[119.6739,23.2533],[119.6768,23.2551],[119.6777,23.2562],[119.6785,23.2619],[119.6763,23.263],[119.6738,23.2626],[119.6718,23.2632],[119.6666,23.2612],[119.6655,23.2581],[119.668,23.2558],[119.6677,23.253],[119.6647,23.2507],[119.6663,23.2504],[119.668,23.249],[119.6702,23.2459],[119.672,23.2447]]],[[[119.618,23.2452],[119.621,23.2461],[119.6197,23.2478],[119.6198,23.2493],[119.6215,23.2522],[119.6201,23.2528],[119.6146,23.2534],[119.6123,23.252],[119.6092,23.2514],[119.6085,23.2497],[119.6111,23.2467],[119.6143,23.2457],[119.6152,23.245],[119.618,23.2452]]],[[[119.5108,23.2539],[119.5125,23.256],[119.5139,23.2562],[119.5159,23.2552],[119.5162,23.2573],[119.519,23.2603],[119.5221,23.262],[119.5219,23.264],[119.5181,23.2648],[119.5144,23.2622],[119.5143,23.2597],[119.5119,23.2571],[119.5108,23.2539]]],[[[119.5099,23.2664],[119.5103,23.2672],[119.511,23.2697],[119.5095,23.2726],[119.5072,23.2722],[119.5047,23.2727],[119.5036,23.2719],[119.5039,23.2698],[119.5053,23.2682],[119.5075,23.2675],[119.5102,23.2674],[119.5099,23.2664]]],[[[119.3164,23.397],[119.3182,23.3984],[119.3195,23.398],[119.321,23.399],[119.3239,23.399],[119.3278,23.4007],[119.3279,23.4031],[119.3312,23.405],[119.3307,23.4064],[119.3288,23.4077],[119.3271,23.4071],[119.3249,23.4073],[119.3245,23.4086],[119.3217,23.4112],[119.3189,23.4118],[119.3183,23.4071],[119.3175,23.4052],[119.3159,23.4043],[119.3143,23.4021],[119.3147,23.3998],[119.3164,23.397]]],[[[119.5139,23.3807],[119.5153,23.3822],[119.5125,23.3825],[119.5139,23.3807]]],[[[119.5246,23.3586],[119.5264,23.3599],[119.5259,23.3626],[119.528,23.3645],[119.5317,23.3657],[119.5326,23.3668],[119.5376,23.3653],[119.541,23.367],[119.5421,23.3688],[119.5407,23.3726],[119.5386,23.3739],[119.5365,23.3743],[119.5348,23.3731],[119.5312,23.3729],[119.5295,23.3715],[119.5275,23.3724],[119.5268,23.3711],[119.5278,23.3688],[119.5252,23.3666],[119.5235,23.366],[119.5211,23.3671],[119.5197,23.367],[119.5186,23.3644],[119.5246,23.36],[119.5246,23.3586]]],[[[119.5082,23.372],[119.5105,23.3748],[119.5083,23.3767],[119.5085,23.3814],[119.507,23.3822],[119.5066,23.3841],[119.5071,23.3879],[119.5083,23.3904],[119.5055,23.3926],[119.5044,23.3941],[119.5022,23.3903],[119.5003,23.3898],[119.498,23.3905],[119.4977,23.3924],[119.4968,23.3937],[119.4953,23.3937],[119.4938,23.3966],[119.4911,23.3968],[119.4897,23.3949],[119.4927,23.3917],[119.4936,23.389],[119.4958,23.3881],[119.4955,23.3845],[119.4922,23.3811],[119.4918,23.379],[119.4937,23.3784],[119.4937,23.3749],[119.4948,23.3734],[119.4947,23.3718],[119.4933,23.3703],[119.4939,23.3672],[119.4949,23.3663],[119.4941,23.3644],[119.4902,23.3616],[119.4897,23.3589],[119.4874,23.3569],[119.4882,23.3547],[119.4902,23.3539],[119.4959,23.3543],[119.4971,23.3548],[119.4998,23.3543],[119.5018,23.3555],[119.5049,23.3555],[119.5077,23.3541],[119.5128,23.3536],[119.5095,23.3563],[119.5081,23.3591],[119.5084,23.3606],[119.5077,23.3631],[119.5082,23.3652],[119.5099,23.3664],[119.5116,23.3661],[119.5149,23.3677],[119.5158,23.3696],[119.514,23.371],[119.5098,23.3704],[119.5082,23.372]]]]},"properties":{"region_code":"CN-71-89841F05DA","parent_region_code":"CN-71-ECEFFD2447","name":"望安乡","level":"county","has_children":false,"full_path":"中国 / 台湾省 / 澎湖县 / 望安乡","source_admin_code":null,"osm_relation_id":3339756}},
{"type":"Feature","geometry":{"type":"Polygon","coordinates":[[[119.4425,23.2054],[119.4419,23.2061],[119.4435,23.211],[119.4433,23.2131],[119.444,23.2149],[119.4466,23.2173],[119.4475,23.2196],[119.445,23.2207],[119.4409,23.2214],[119.431,23.22],[119.427,23.2189],[119.4222,23.2183],[119.4204,23.2172],[119.4157,23.2168],[119.4129,23.2142],[119.4115,23.2155],[119.4108,23.2132],[119.4125,23.2112],[119.4141,23.2105],[119.4146,23.209],[119.4189,23.2057],[119.4209,23.2034],[119.4206,23.2008],[119.421,23.199],[119.4193,23.1974],[119.4188,23.1955],[119.4216,23.1961],[119.4216,23.1928],[119.4221,23.1911],[119.4239,23.1918],[119.427,23.1903],[119.4308,23.1874],[119.4318,23.1899],[119.4291,23.1934],[119.43,23.197],[119.433,23.1979],[119.4333,23.1993],[119.4346,23.2],[119.4356,23.2017],[119.4386,23.201],[119.4411,23.2015],[119.4428,23.2004],[119.4431,23.2043],[119.4425,23.2054]]]},"properties":{"region_code":"CN-71-8A054D8029","parent_region_code":"CN-71-ECEFFD2447","name":"七美乡","level":"county","has_children":false,"full_path":"中国 / 台湾省 / 澎湖县 / 七美乡","source_admin_code":null,"osm_relation_id":3339755}}
]}