{"type":"FeatureCollection", "features": [
{"type":"Feature","geometry":{"type":"Polygon","coordinates":[[[120.6645,24.2016],[120.6618,24.1998],[120.6607,24.1953],[120.6593,24.1922],[120.6575,24.1866],[120.658,24.1805],[120.6581,24.1774],[120.6632,24.1775],[120.663,24.1827],[120.6646,24.1827],[120.6646,24.1789],[120.6662,24.1782],[120.6686,24.1783],[120.6694,24.1772],[120.6671,24.1732],[120.6734,24.174],[120.6795,24.1729],[120.6793,24.17],[120.6787,24.1686],[120.6853,24.1684],[120.6852,24.167],[120.6888,24.1669],[120.6883,24.1658],[120.6891,24.1644],[120.6887,24.1623],[120.6903,24.1621],[120.6996,24.1604],[120.7039,24.1594],[120.7031,24.1624],[120.706,24.1631],[120.7069,24.1628],[120.7093,24.1608],[120.713,24.1609],[120.7183,24.1598],[120.7236,24.1583],[120.7246,24.1584],[120.7262,24.1568],[120.7279,24.1572],[120.7313,24.1571],[120.7354,24.1589],[120.7387,24.16],[120.7426,24.1598],[120.7447,24.1593],[120.7463,24.1606],[120.7495,24.162],[120.7531,24.1599],[120.7541,24.1584],[120.7554,24.1579],[120.7598,24.1581],[120.7614,24.1598],[120.7646,24.1589],[120.7675,24.1601],[120.7695,24.1603],[120.7719,24.162],[120.7722,24.1634],[120.7735,24.1656],[120.774,24.1673],[120.7756,24.1685],[120.7792,24.1679],[120.7816,24.1667],[120.7858,24.1671],[120.7867,24.1677],[120.7897,24.1675],[120.7923,24.1662],[120.7942,24.1658],[120.7975,24.1666],[120.7991,24.1682],[120.8026,24.1694],[120.8018,24.1715],[120.8021,24.1725],[120.8001,24.1738],[120.8003,24.1759],[120.7997,24.1776],[120.8001,24.1792],[120.7988,24.1798],[120.7984,24.1816],[120.7973,24.1825],[120.7975,24.1837],[120.8001,24.1881],[120.7995,24.1918],[120.8011,24.1965],[120.7995,24.1982],[120.7997,24.2001],[120.7981,24.2012],[120.796,24.2041],[120.7927,24.2059],[120.7897,24.2064],[120.7864,24.2081],[120.7825,24.2107],[120.7784,24.2119],[120.7776,24.2116],[120.7755,24.2125],[120.774,24.2124],[120.7714,24.2133],[120.7701,24.2158],[120.7683,24.2169],[120.7665,24.2176],[120.7658,24.2168],[120.7629,24.2174],[120.7606,24.2188],[120.7593,24.2178],[120.7567,24.2187],[120.7551,24.2185],[120.7537,24.2193],[120.7521,24.2166],[120.7495,24.2139],[120.7493,24.2128],[120.7479,24.2109],[120.7504,24.2089],[120.7502,24.2068],[120.751,24.2062],[120.7503,24.2047],[120.7463,24.204],[120.7457,24.203],[120.743,24.2033],[120.7412,24.2023],[120.7388,24.2021],[120.7372,24.1995],[120.7375,24.1962],[120.7353,24.194],[120.7326,24.195],[120.7306,24.1944],[120.7291,24.1916],[120.7244,24.192],[120.7233,24.1901],[120.7209,24.1901],[120.72,24.1913],[120.7179,24.1913],[120.7173,24.1904],[120.7148,24.1901],[120.7146,24.1877],[120.7132,24.1859],[120.7112,24.1878],[120.7123,24.1898],[120.7103,24.1923],[120.7105,24.1929],[120.7082,24.1959],[120.7072,24.1994],[120.705,24.1975],[120.7057,24.1963],[120.7045,24.1926],[120.7053,24.1921],[120.7051,24.1904],[120.7036,24.1887],[120.7041,24.1871],[120.701,24.1874],[120.6979,24.1883],[120.6993,24.1897],[120.6987,24.1915],[120.6953,24.1921],[120.694,24.1929],[120.6951,24.1946],[120.6937,24.1977],[120.6962,24.1987],[120.6975,24.2002],[120.697,24.203],[120.6938,24.2039],[120.6905,24.2043],[120.6907,24.2062],[120.6844,24.2048],[120.6818,24.2035],[120.6746,24.203],[120.6742,24.2042],[120.6698,24.2037],[120.6676,24.2023],[120.6645,24.2016]]]},"properties":{"region_code":"CN-71-E95D7EEB4E","parent_region_code":"CN-71-2B195F9E16","name":"北屯区","level":"county","has_children":false,"full_path":"中国 / 台湾省 / 台中市 / 北屯区","source_admin_code":null,"osm_relation_id":2959946}},
{"type":"Feature","geometry":{"type":"Polygon","coordinates":[[[120.6645,24.2016],[120.665,24.2031],[120.6646,24.2045],[120.6648,24.2072],[120.6593,24.2072],[120.6577,24.2085],[120.6555,24.208],[120.654,24.2094],[120.6516,24.2098],[120.6472,24.2063],[120.6459,24.2042],[120.6445,24.2041],[120.6424,24.205],[120.6415,24.2032],[120.639,24.2044],[120.6377,24.2036],[120.6369,24.2018],[120.6357,24.2023],[120.6356,24.2039],[120.625,24.2073],[120.6241,24.2073],[120.6214,24.2086],[120.6195,24.2088],[120.615,24.2098],[120.6143,24.2104],[120.6112,24.2106],[120.6097,24.2114],[120.6084,24.2113],[120.6029,24.2125],[120.6007,24.2134],[120.6006,24.2148],[120.5963,24.2142],[120.5957,24.2125],[120.5951,24.2067],[120.5929,24.2015],[120.5898,24.1972],[120.5877,24.1927],[120.5961,24.1902],[120.5979,24.1894],[120.5962,24.1868],[120.5946,24.1858],[120.5932,24.1864],[120.5886,24.1873],[120.5875,24.1855],[120.5934,24.1829],[120.5921,24.1801],[120.5883,24.1782],[120.5872,24.1779],[120.5836,24.1742],[120.5831,24.1727],[120.5848,24.1695],[120.5837,24.1681],[120.5915,24.1651],[120.5937,24.1638],[120.5986,24.1628],[120.6009,24.165],[120.6046,24.1655],[120.6066,24.1646],[120.6122,24.1601],[120.6148,24.1595],[120.6169,24.1596],[120.6202,24.159],[120.6215,24.156],[120.6233,24.1569],[120.624,24.1554],[120.6255,24.1543],[120.6268,24.1544],[120.6295,24.1559],[120.63,24.1574],[120.6322,24.1588],[120.6346,24.1588],[120.6352,24.1567],[120.6364,24.1567],[120.6367,24.1545],[120.6383,24.1547],[120.6467,24.1546],[120.6468,24.1556],[120.6497,24.1557],[120.6509,24.1574],[120.6538,24.1558],[120.6552,24.1565],[120.6564,24.1559],[120.6603,24.162],[120.6627,24.1636],[120.6634,24.1632],[120.6656,24.1668],[120.6665,24.1698],[120.6671,24.1732],[120.6694,24.1772],[120.6686,24.1783],[120.6662,24.1782],[120.6646,24.1789],[120.6646,24.1827],[120.663,24.1827],[120.6632,24.1775],[120.6581,24.1774],[120.658,24.1805],[120.6575,24.1866],[120.6593,24.1922],[120.6607,24.1953],[120.6618,24.1998],[120.6645,24.2016]]]},"properties":{"region_code":"CN-71-234E99CD71","parent_region_code":"CN-71-2B195F9E16","name":"西屯区","level":"county","has_children":false,"full_path":"中国 / 台湾省 / 台中市 / 西屯区","source_admin_code":null,"osm_relation_id":2960369}},
{"type":"Feature","geometry":{"type":"Polygon","coordinates":[[[120.7042,24.1249],[120.6965,24.1248],[120.6945,24.1241],[120.6913,24.1241],[120.6883,24.1246],[120.686,24.1233],[120.6854,24.1217],[120.6836,24.1187],[120.6784,24.1173],[120.6771,24.1178],[120.6746,24.1172],[120.6718,24.1155],[120.6711,24.1138],[120.6718,24.1114],[120.6701,24.1112],[120.6688,24.1125],[120.6649,24.1126],[120.6621,24.111],[120.6614,24.1066],[120.6573,24.1045],[120.6589,24.1035],[120.6577,24.1016],[120.6583,24.0999],[120.6633,24.0978],[120.6618,24.097],[120.6613,24.0959],[120.6593,24.095],[120.6565,24.0932],[120.6543,24.0926],[120.6531,24.0916],[120.6507,24.0908],[120.653,24.0883],[120.6545,24.0882],[120.6579,24.087],[120.6558,24.0851],[120.659,24.0825],[120.6618,24.0815],[120.6633,24.0823],[120.6661,24.0811],[120.6719,24.0811],[120.6742,24.0788],[120.6765,24.0778],[120.6798,24.0724],[120.6818,24.0708],[120.6852,24.0703],[120.6891,24.0713],[120.6913,24.0724],[120.6928,24.0736],[120.6957,24.0773],[120.698,24.0778],[120.6994,24.0789],[120.7046,24.0812],[120.7081,24.0819],[120.7119,24.081],[120.7149,24.0812],[120.719,24.0803],[120.7216,24.0803],[120.7235,24.0791],[120.7268,24.0785],[120.7286,24.0804],[120.7287,24.0817],[120.7322,24.0814],[120.7359,24.0859],[120.737,24.0848],[120.7373,24.0832],[120.7394,24.0859],[120.7413,24.0867],[120.7411,24.0912],[120.7414,24.0926],[120.7404,24.0946],[120.7387,24.0958],[120.7367,24.0947],[120.733,24.0954],[120.7302,24.0942],[120.7284,24.0947],[120.7245,24.0979],[120.7205,24.0999],[120.7168,24.1015],[120.7132,24.1036],[120.7119,24.1035],[120.7097,24.1046],[120.7094,24.1059],[120.7109,24.1075],[120.7139,24.1099],[120.7133,24.1107],[120.711,24.1106],[120.7073,24.1119],[120.7022,24.1112],[120.7007,24.1129],[120.7013,24.1155],[120.702,24.121],[120.7042,24.1249]]]},"properties":{"region_code":"CN-71-405C94B6A2","parent_region_code":"CN-71-2B195F9E16","name":"大里区","level":"county","has_children":false,"full_path":"中国 / 台湾省 / 台中市 / 大里区","source_admin_code":null,"osm_relation_id":2958003}},
{"type":"Feature","geometry":{"type":"Polygon","coordinates":[[[120.7039,24.1594],[120.7038,24.1577],[120.7026,24.1567],[120.7008,24.154],[120.6997,24.1514],[120.7003,24.1509],[120.6995,24.1488],[120.7006,24.1459],[120.7029,24.1464],[120.7051,24.1483],[120.7071,24.1494],[120.71,24.1499],[120.7112,24.1492],[120.712,24.1472],[120.7121,24.1445],[120.7106,24.1408],[120.7103,24.1375],[120.7084,24.1337],[120.7079,24.132],[120.7042,24.1249],[120.702,24.121],[120.7013,24.1155],[120.7007,24.1129],[120.7022,24.1112],[120.7073,24.1119],[120.711,24.1106],[120.7133,24.1107],[120.7139,24.1099],[120.7109,24.1075],[120.7094,24.1059],[120.7097,24.1046],[120.7119,24.1035],[120.7132,24.1036],[120.7168,24.1015],[120.7205,24.0999],[120.7245,24.0979],[120.7284,24.0947],[120.7302,24.0942],[120.733,24.0954],[120.7367,24.0947],[120.7387,24.0958],[120.7404,24.0946],[120.7414,24.0926],[120.7411,24.0912],[120.7413,24.0867],[120.7394,24.0859],[120.7373,24.0832],[120.737,24.0848],[120.7359,24.0859],[120.7322,24.0814],[120.7348,24.0802],[120.7364,24.0802],[120.7389,24.0787],[120.7432,24.0785],[120.7448,24.0791],[120.7461,24.0775],[120.7501,24.077],[120.7522,24.0763],[120.7534,24.0751],[120.7566,24.0745],[120.7591,24.0732],[120.7596,24.0722],[120.7618,24.0714],[120.7639,24.0692],[120.7641,24.0678],[120.7662,24.0665],[120.7675,24.0645],[120.7714,24.0641],[120.7725,24.063],[120.7776,24.0612],[120.7797,24.0598],[120.7819,24.0577],[120.7819,24.0567],[120.7846,24.0555],[120.785,24.053],[120.7881,24.0527],[120.7891,24.0517],[120.7887,24.0491],[120.79,24.0473],[120.7928,24.0459],[120.7922,24.0434],[120.7936,24.0432],[120.7966,24.0403],[120.7975,24.0414],[120.7966,24.0428],[120.8006,24.0486],[120.8014,24.0505],[120.8037,24.0535],[120.8033,24.0562],[120.8043,24.0573],[120.8049,24.0591],[120.8063,24.0604],[120.8073,24.063],[120.807,24.0643],[120.8091,24.0663],[120.8118,24.066],[120.8124,24.0675],[120.8145,24.0699],[120.8164,24.0685],[120.8193,24.0685],[120.8207,24.0698],[120.8223,24.0698],[120.8237,24.0707],[120.8259,24.0712],[120.8292,24.0715],[120.8294,24.0723],[120.8284,24.0769],[120.8285,24.0822],[120.8289,24.0836],[120.8281,24.0864],[120.8286,24.0905],[120.8285,24.0945],[120.8299,24.095],[120.8324,24.0983],[120.8324,24.0997],[120.8304,24.102],[120.831,24.1036],[120.8323,24.1044],[120.8346,24.1077],[120.8341,24.1093],[120.8345,24.1126],[120.8362,24.1169],[120.8377,24.1179],[120.8349,24.1211],[120.8323,24.1231],[120.8315,24.127],[120.8327,24.1277],[120.8344,24.1305],[120.8345,24.1327],[120.8332,24.1351],[120.8343,24.1375],[120.8339,24.1409],[120.8313,24.1425],[120.8299,24.144],[120.8284,24.143],[120.8269,24.1431],[120.8235,24.142],[120.8218,24.1462],[120.8197,24.1472],[120.8176,24.1463],[120.8149,24.1445],[120.8119,24.1452],[120.8116,24.1468],[120.8103,24.1489],[120.8076,24.1492],[120.806,24.1502],[120.8035,24.1503],[120.8042,24.155],[120.8054,24.1559],[120.8054,24.1574],[120.8062,24.1606],[120.8046,24.1634],[120.8044,24.1655],[120.8021,24.1677],[120.8026,24.1694],[120.7991,24.1682],[120.7975,24.1666],[120.7942,24.1658],[120.7923,24.1662],[120.7897,24.1675],[120.7867,24.1677],[120.7858,24.1671],[120.7816,24.1667],[120.7792,24.1679],[120.7756,24.1685],[120.774,24.1673],[120.7735,24.1656],[120.7722,24.1634],[120.7719,24.162],[120.7695,24.1603],[120.7675,24.1601],[120.7646,24.1589],[120.7614,24.1598],[120.7598,24.1581],[120.7554,24.1579],[120.7541,24.1584],[120.7531,24.1599],[120.7495,24.162],[120.7463,24.1606],[120.7447,24.1593],[120.7426,24.1598],[120.7387,24.16],[120.7354,24.1589],[120.7313,24.1571],[120.7279,24.1572],[120.7262,24.1568],[120.7246,24.1584],[120.7236,24.1583],[120.7183,24.1598],[120.713,24.1609],[120.7093,24.1608],[120.7069,24.1628],[120.706,24.1631],[120.7031,24.1624],[120.7039,24.1594]]]},"properties":{"region_code":"CN-71-77A4364AC7","parent_region_code":"CN-71-2B195F9E16","name":"太平区","level":"county","has_children":false,"full_path":"中国 / 台湾省 / 台中市 / 太平区","source_admin_code":null,"osm_relation_id":2955698}},
{"type":"Feature","geometry":{"type":"Polygon","coordinates":[[[120.5837,24.1681],[120.5822,24.1664],[120.5791,24.1607],[120.5776,24.1557],[120.5745,24.1557],[120.5747,24.1532],[120.5743,24.1496],[120.5747,24.1475],[120.5794,24.144],[120.5818,24.1431],[120.5847,24.1391],[120.5863,24.1379],[120.5907,24.1385],[120.5912,24.1378],[120.5943,24.1362],[120.5945,24.1351],[120.5973,24.1326],[120.5976,24.1315],[120.6,24.1296],[120.6037,24.1284],[120.6104,24.1252],[120.613,24.1247],[120.6145,24.1253],[120.6189,24.1239],[120.6192,24.1186],[120.6199,24.1168],[120.62,24.1127],[120.6225,24.1131],[120.6301,24.1111],[120.63,24.1092],[120.6314,24.1096],[120.6356,24.1133],[120.6369,24.113],[120.6402,24.1167],[120.6436,24.1193],[120.6543,24.1278],[120.6548,24.1286],[120.6549,24.1353],[120.6548,24.1402],[120.6551,24.145],[120.6514,24.145],[120.6498,24.1438],[120.6498,24.1468],[120.6513,24.1468],[120.6514,24.1489],[120.653,24.1488],[120.653,24.1543],[120.6538,24.1558],[120.6509,24.1574],[120.6497,24.1557],[120.6468,24.1556],[120.6467,24.1546],[120.6383,24.1547],[120.6367,24.1545],[120.6364,24.1567],[120.6352,24.1567],[120.6346,24.1588],[120.6322,24.1588],[120.63,24.1574],[120.6295,24.1559],[120.6268,24.1544],[120.6255,24.1543],[120.624,24.1554],[120.6233,24.1569],[120.6215,24.156],[120.6202,24.159],[120.6169,24.1596],[120.6148,24.1595],[120.6122,24.1601],[120.6066,24.1646],[120.6046,24.1655],[120.6009,24.165],[120.5986,24.1628],[120.5937,24.1638],[120.5915,24.1651],[120.5837,24.1681]]]},"properties":{"region_code":"CN-71-40B08DA97F","parent_region_code":"CN-71-2B195F9E16","name":"南屯区","level":"county","has_children":false,"full_path":"中国 / 台湾省 / 台中市 / 南屯区","source_admin_code":null,"osm_relation_id":2961762}},
{"type":"Feature","geometry":{"type":"Polygon","coordinates":[[[120.7683,24.2169],[120.7722,24.2175],[120.7702,24.2187],[120.7694,24.2201],[120.7717,24.2211],[120.7723,24.2223],[120.7709,24.2246],[120.7727,24.2308],[120.7723,24.2329],[120.7709,24.2345],[120.7685,24.2348],[120.7663,24.2374],[120.7678,24.239],[120.7678,24.242],[120.7696,24.2428],[120.7748,24.2432],[120.774,24.2447],[120.7737,24.2479],[120.7712,24.2499],[120.7693,24.2501],[120.7685,24.2517],[120.7672,24.2522],[120.7671,24.2537],[120.7689,24.2546],[120.7691,24.257],[120.7683,24.2576],[120.7691,24.2634],[120.7698,24.2645],[120.7677,24.2655],[120.7671,24.2669],[120.7656,24.2671],[120.7628,24.2708],[120.7637,24.2726],[120.7626,24.274],[120.7604,24.2807],[120.7561,24.2795],[120.7528,24.2797],[120.7482,24.2806],[120.7393,24.2818],[120.7332,24.2821],[120.7266,24.2822],[120.7218,24.2825],[120.7127,24.2837],[120.7125,24.2749],[120.7095,24.2727],[120.7094,24.2707],[120.7081,24.2703],[120.7076,24.2674],[120.7082,24.2661],[120.7101,24.2653],[120.7109,24.2641],[120.7115,24.2609],[120.7122,24.2592],[120.7132,24.2592],[120.7139,24.2567],[120.7114,24.2558],[120.7088,24.2557],[120.7064,24.2563],[120.7048,24.256],[120.7031,24.2535],[120.7015,24.2521],[120.7012,24.2511],[120.6993,24.2497],[120.699,24.2466],[120.6958,24.2399],[120.6958,24.2391],[120.6981,24.2391],[120.6987,24.2382],[120.6983,24.2358],[120.6991,24.2349],[120.6982,24.2321],[120.6971,24.2316],[120.6961,24.2278],[120.6971,24.2276],[120.697,24.2257],[120.6983,24.2256],[120.6991,24.2244],[120.7013,24.2242],[120.7015,24.227],[120.7036,24.2286],[120.7052,24.2319],[120.7061,24.2348],[120.7075,24.2364],[120.7118,24.236],[120.7118,24.2331],[120.7131,24.2312],[120.7192,24.2293],[120.7208,24.2285],[120.7208,24.2258],[120.7221,24.2245],[120.7221,24.2218],[120.7243,24.2217],[120.7266,24.2205],[120.7272,24.2193],[120.7326,24.2194],[120.7363,24.2228],[120.7378,24.2248],[120.7423,24.2247],[120.7441,24.2222],[120.7463,24.2227],[120.7521,24.2214],[120.7537,24.2193],[120.7551,24.2185],[120.7567,24.2187],[120.7593,24.2178],[120.7606,24.2188],[120.7629,24.2174],[120.7658,24.2168],[120.7665,24.2176],[120.7683,24.2169]]]},"properties":{"region_code":"CN-71-0D5129D4E2","parent_region_code":"CN-71-2B195F9E16","name":"丰原区","level":"county","has_children":false,"full_path":"中国 / 台湾省 / 台中市 / 丰原区","source_admin_code":null,"osm_relation_id":2960240}},
{"type":"Feature","geometry":{"type":"Polygon","coordinates":[[[120.7042,24.1249],[120.7079,24.132],[120.7084,24.1337],[120.7103,24.1375],[120.7106,24.1408],[120.7121,24.1445],[120.712,24.1472],[120.7112,24.1492],[120.71,24.1499],[120.7071,24.1494],[120.7051,24.1483],[120.7029,24.1464],[120.7006,24.1459],[120.6995,24.1488],[120.7003,24.1509],[120.6997,24.1514],[120.6985,24.1514],[120.6945,24.1525],[120.6922,24.1527],[120.6909,24.1513],[120.6914,24.1499],[120.6902,24.1481],[120.6904,24.1465],[120.689,24.1465],[120.6865,24.1458],[120.6858,24.1433],[120.6861,24.138],[120.6856,24.1368],[120.6824,24.1355],[120.6851,24.13],[120.6835,24.1245],[120.6846,24.1221],[120.6854,24.1217],[120.686,24.1233],[120.6883,24.1246],[120.6913,24.1241],[120.6945,24.1241],[120.6965,24.1248],[120.7042,24.1249]]]},"properties":{"region_code":"CN-71-3E9A87B16C","parent_region_code":"CN-71-2B195F9E16","name":"东区","level":"county","has_children":false,"full_path":"中国 / 台湾省 / 台中市 / 东区","source_admin_code":null,"osm_relation_id":2958135}},
{"type":"Feature","geometry":{"type":"Polygon","coordinates":[[[120.6854,24.1217],[120.6846,24.1221],[120.6835,24.1245],[120.6851,24.13],[120.6824,24.1355],[120.6729,24.1316],[120.6665,24.1288],[120.6659,24.1295],[120.664,24.1292],[120.6622,24.1296],[120.6618,24.1321],[120.659,24.1336],[120.6573,24.1339],[120.6549,24.1353],[120.6548,24.1286],[120.6543,24.1278],[120.6436,24.1193],[120.6468,24.1187],[120.6471,24.1152],[120.6457,24.1144],[120.6458,24.1133],[120.6447,24.1116],[120.6448,24.1099],[120.65,24.1118],[120.6507,24.1096],[120.6504,24.1073],[120.6542,24.1077],[120.6578,24.1077],[120.6571,24.1062],[120.6573,24.1045],[120.6614,24.1066],[120.6621,24.111],[120.6649,24.1126],[120.6688,24.1125],[120.6701,24.1112],[120.6718,24.1114],[120.6711,24.1138],[120.6718,24.1155],[120.6746,24.1172],[120.6771,24.1178],[120.6784,24.1173],[120.6836,24.1187],[120.6854,24.1217]]]},"properties":{"region_code":"CN-71-62AD62AF53","parent_region_code":"CN-71-2B195F9E16","name":"南区","level":"county","has_children":false,"full_path":"中国 / 台湾省 / 台中市 / 南区","source_admin_code":null,"osm_relation_id":2958047}},
{"type":"Feature","geometry":{"type":"Polygon","coordinates":[[[120.6538,24.1558],[120.653,24.1543],[120.653,24.1488],[120.6514,24.1489],[120.6513,24.1468],[120.6498,24.1468],[120.6498,24.1438],[120.6514,24.145],[120.6551,24.145],[120.6548,24.1402],[120.6549,24.1353],[120.6573,24.1339],[120.659,24.1336],[120.6618,24.1321],[120.6622,24.1296],[120.664,24.1292],[120.6659,24.1295],[120.6665,24.1288],[120.6729,24.1316],[120.6824,24.1355],[120.6822,24.136],[120.6738,24.1433],[120.6718,24.145],[120.6749,24.1483],[120.6754,24.1512],[120.6716,24.1531],[120.6702,24.1542],[120.6692,24.1536],[120.6659,24.1537],[120.6641,24.1548],[120.6661,24.1559],[120.6639,24.1576],[120.6648,24.16],[120.6633,24.1606],[120.6626,24.1618],[120.6634,24.1632],[120.6627,24.1636],[120.6603,24.162],[120.6564,24.1559],[120.6552,24.1565],[120.6538,24.1558]]]},"properties":{"region_code":"CN-71-53370995EB","parent_region_code":"CN-71-2B195F9E16","name":"西区","level":"county","has_children":false,"full_path":"中国 / 台湾省 / 台中市 / 西区","source_admin_code":null,"osm_relation_id":2961750}},
{"type":"Feature","geometry":{"type":"Polygon","coordinates":[[[120.6671,24.1732],[120.6665,24.1698],[120.6656,24.1668],[120.6634,24.1632],[120.6626,24.1618],[120.6633,24.1606],[120.6648,24.16],[120.6639,24.1576],[120.6661,24.1559],[120.6641,24.1548],[120.6659,24.1537],[120.6692,24.1536],[120.6702,24.1542],[120.6716,24.1531],[120.6754,24.1512],[120.6749,24.1483],[120.6718,24.145],[120.6738,24.1433],[120.6752,24.1448],[120.6791,24.1482],[120.6822,24.1459],[120.6818,24.1445],[120.6843,24.1423],[120.6858,24.1433],[120.6865,24.1458],[120.689,24.1465],[120.6904,24.1465],[120.6902,24.1481],[120.6914,24.1499],[120.6909,24.1513],[120.6922,24.1527],[120.6945,24.1525],[120.6985,24.1514],[120.6997,24.1514],[120.7008,24.154],[120.7026,24.1567],[120.7038,24.1577],[120.7039,24.1594],[120.6996,24.1604],[120.6903,24.1621],[120.6887,24.1623],[120.6891,24.1644],[120.6883,24.1658],[120.6888,24.1669],[120.6852,24.167],[120.6853,24.1684],[120.6787,24.1686],[120.6793,24.17],[120.6795,24.1729],[120.6734,24.174],[120.6671,24.1732]]]},"properties":{"region_code":"CN-71-A54B37B07B","parent_region_code":"CN-71-2B195F9E16","name":"北区","level":"county","has_children":false,"full_path":"中国 / 台湾省 / 台中市 / 北区","source_admin_code":null,"osm_relation_id":2961859}},
{"type":"Feature","geometry":{"type":"Polygon","coordinates":[[[120.6858,24.1433],[120.6843,24.1423],[120.6818,24.1445],[120.6822,24.1459],[120.6791,24.1482],[120.6752,24.1448],[120.6738,24.1433],[120.6822,24.136],[120.6824,24.1355],[120.6856,24.1368],[120.6861,24.138],[120.6858,24.1433]]]},"properties":{"region_code":"CN-71-EAFF6A10DA","parent_region_code":"CN-71-2B195F9E16","name":"中区","level":"county","has_children":false,"full_path":"中国 / 台湾省 / 台中市 / 中区","source_admin_code":null,"osm_relation_id":2961869}},
{"type":"Feature","geometry":{"type":"Polygon","coordinates":[[[120.7537,24.2193],[120.7521,24.2214],[120.7463,24.2227],[120.7441,24.2222],[120.7423,24.2247],[120.7378,24.2248],[120.7363,24.2228],[120.7326,24.2194],[120.7272,24.2193],[120.7266,24.2205],[120.7243,24.2217],[120.7221,24.2218],[120.7221,24.2245],[120.7208,24.2258],[120.7208,24.2285],[120.7192,24.2293],[120.7131,24.2312],[120.7118,24.2331],[120.7118,24.236],[120.7075,24.2364],[120.7061,24.2348],[120.7052,24.2319],[120.7036,24.2286],[120.7015,24.227],[120.7013,24.2242],[120.6991,24.2244],[120.6983,24.2256],[120.697,24.2257],[120.6971,24.2276],[120.6961,24.2278],[120.6971,24.2316],[120.6929,24.2311],[120.6929,24.2296],[120.691,24.2289],[120.6898,24.2293],[120.6905,24.2329],[120.6916,24.2352],[120.6896,24.2358],[120.6855,24.2341],[120.6852,24.2318],[120.6814,24.2321],[120.6803,24.2301],[120.6789,24.2302],[120.6777,24.2292],[120.678,24.227],[120.6767,24.2239],[120.674,24.2224],[120.6731,24.2186],[120.6746,24.2178],[120.6787,24.2175],[120.6774,24.2128],[120.6766,24.2112],[120.6741,24.2085],[120.6711,24.2087],[120.6698,24.2037],[120.6742,24.2042],[120.6746,24.203],[120.6818,24.2035],[120.6844,24.2048],[120.6907,24.2062],[120.6905,24.2043],[120.6938,24.2039],[120.697,24.203],[120.6975,24.2002],[120.6962,24.1987],[120.6937,24.1977],[120.6951,24.1946],[120.694,24.1929],[120.6953,24.1921],[120.6987,24.1915],[120.6993,24.1897],[120.6979,24.1883],[120.701,24.1874],[120.7041,24.1871],[120.7036,24.1887],[120.7051,24.1904],[120.7053,24.1921],[120.7045,24.1926],[120.7057,24.1963],[120.705,24.1975],[120.7072,24.1994],[120.7082,24.1959],[120.7105,24.1929],[120.7103,24.1923],[120.7123,24.1898],[120.7112,24.1878],[120.7132,24.1859],[120.7146,24.1877],[120.7148,24.1901],[120.7173,24.1904],[120.7179,24.1913],[120.72,24.1913],[120.7209,24.1901],[120.7233,24.1901],[120.7244,24.192],[120.7291,24.1916],[120.7306,24.1944],[120.7326,24.195],[120.7353,24.194],[120.7375,24.1962],[120.7372,24.1995],[120.7388,24.2021],[120.7412,24.2023],[120.743,24.2033],[120.7457,24.203],[120.7463,24.204],[120.7503,24.2047],[120.751,24.2062],[120.7502,24.2068],[120.7504,24.2089],[120.7479,24.2109],[120.7493,24.2128],[120.7495,24.2139],[120.7521,24.2166],[120.7537,24.2193]]]},"properties":{"region_code":"CN-71-DD53B9E09E","parent_region_code":"CN-71-2B195F9E16","name":"潭子区","level":"county","has_children":false,"full_path":"中国 / 台湾省 / 台中市 / 潭子区","source_admin_code":null,"osm_relation_id":2960300}},
{"type":"Feature","geometry":{"type":"Polygon","coordinates":[[[120.6698,24.2037],[120.6711,24.2087],[120.6741,24.2085],[120.6766,24.2112],[120.6774,24.2128],[120.6787,24.2175],[120.6746,24.2178],[120.6731,24.2186],[120.674,24.2224],[120.6767,24.2239],[120.678,24.227],[120.6777,24.2292],[120.6789,24.2302],[120.6803,24.2301],[120.6814,24.2321],[120.6827,24.2339],[120.6808,24.2338],[120.6805,24.2361],[120.6811,24.2384],[120.6793,24.2382],[120.6774,24.2358],[120.6759,24.2332],[120.6747,24.2346],[120.6744,24.2376],[120.6747,24.239],[120.6761,24.2403],[120.6745,24.242],[120.6752,24.2431],[120.6711,24.245],[120.669,24.2449],[120.6629,24.2475],[120.6621,24.2474],[120.653,24.2513],[120.651,24.2489],[120.6474,24.2464],[120.6441,24.2432],[120.6392,24.2443],[120.6397,24.2455],[120.642,24.2483],[120.6378,24.2524],[120.6371,24.2556],[120.6352,24.2591],[120.6332,24.2593],[120.6279,24.2555],[120.6256,24.2534],[120.624,24.2505],[120.6235,24.2458],[120.6243,24.2446],[120.6225,24.2416],[120.6236,24.2398],[120.6195,24.237],[120.6171,24.2356],[120.6131,24.2367],[120.6059,24.2392],[120.6051,24.2381],[120.6035,24.2342],[120.6033,24.232],[120.6023,24.2284],[120.5998,24.2244],[120.5995,24.2214],[120.5976,24.2164],[120.5963,24.2142],[120.6006,24.2148],[120.6007,24.2134],[120.6029,24.2125],[120.6084,24.2113],[120.6097,24.2114],[120.6112,24.2106],[120.6143,24.2104],[120.615,24.2098],[120.6195,24.2088],[120.6214,24.2086],[120.6241,24.2073],[120.625,24.2073],[120.6356,24.2039],[120.6357,24.2023],[120.6369,24.2018],[120.6377,24.2036],[120.639,24.2044],[120.6415,24.2032],[120.6424,24.205],[120.6445,24.2041],[120.6459,24.2042],[120.6472,24.2063],[120.6516,24.2098],[120.654,24.2094],[120.6555,24.208],[120.6577,24.2085],[120.6593,24.2072],[120.6648,24.2072],[120.6646,24.2045],[120.665,24.2031],[120.6645,24.2016],[120.6676,24.2023],[120.6698,24.2037]]]},"properties":{"region_code":"CN-71-F1B333F033","parent_region_code":"CN-71-2B195F9E16","name":"大雅区","level":"county","has_children":false,"full_path":"中国 / 台湾省 / 台中市 / 大雅区","source_admin_code":null,"osm_relation_id":2960313}},
{"type":"Feature","geometry":{"type":"Polygon","coordinates":[[[120.5963,24.2142],[120.5976,24.2164],[120.5995,24.2214],[120.5998,24.2244],[120.6023,24.2284],[120.6033,24.232],[120.6035,24.2342],[120.6051,24.2381],[120.6059,24.2392],[120.6131,24.2367],[120.6171,24.2356],[120.6195,24.237],[120.6236,24.2398],[120.6225,24.2416],[120.6243,24.2446],[120.6235,24.2458],[120.624,24.2505],[120.6256,24.2534],[120.6279,24.2555],[120.6332,24.2593],[120.6229,24.2597],[120.6187,24.2605],[120.614,24.2627],[120.6094,24.266],[120.6032,24.2674],[120.6032,24.2654],[120.6,24.2671],[120.5974,24.2662],[120.5896,24.2666],[120.5867,24.2673],[120.5831,24.2689],[120.5829,24.2667],[120.582,24.2654],[120.5763,24.2617],[120.5752,24.2632],[120.5735,24.2626],[120.5727,24.2611],[120.5724,24.2589],[120.5689,24.2591],[120.5667,24.2583],[120.5628,24.2579],[120.5613,24.2525],[120.5572,24.2534],[120.5558,24.2488],[120.5552,24.2448],[120.5592,24.2439],[120.556,24.2388],[120.5531,24.2353],[120.5487,24.2305],[120.5482,24.2273],[120.549,24.2254],[120.5477,24.2208],[120.5466,24.2183],[120.5468,24.2173],[120.5492,24.2162],[120.5502,24.2173],[120.5519,24.2164],[120.552,24.2151],[120.554,24.2143],[120.5549,24.2125],[120.5553,24.2095],[120.5547,24.2069],[120.5552,24.206],[120.5573,24.2055],[120.5589,24.2044],[120.5603,24.2044],[120.5622,24.2026],[120.5633,24.203],[120.5651,24.2006],[120.5659,24.1961],[120.5718,24.1951],[120.5751,24.1972],[120.5778,24.1969],[120.5846,24.1936],[120.5877,24.1927],[120.5898,24.1972],[120.5929,24.2015],[120.5951,24.2067],[120.5957,24.2125],[120.5963,24.2142]]]},"properties":{"region_code":"CN-71-0FC7A4875B","parent_region_code":"CN-71-2B195F9E16","name":"沙鹿区","level":"county","has_children":false,"full_path":"中国 / 台湾省 / 台中市 / 沙鹿区","source_admin_code":null,"osm_relation_id":2960420}},
{"type":"Feature","geometry":{"type":"Polygon","coordinates":[[[120.6332,24.2593],[120.6306,24.2618],[120.6325,24.2623],[120.6358,24.2622],[120.6383,24.2626],[120.6406,24.2638],[120.6413,24.265],[120.6431,24.2716],[120.647,24.2767],[120.6445,24.2776],[120.6383,24.279],[120.6395,24.281],[120.6362,24.2844],[120.6372,24.2857],[120.6366,24.2865],[120.6389,24.2909],[120.6411,24.2959],[120.6428,24.2983],[120.6462,24.2993],[120.6441,24.3015],[120.6332,24.3088],[120.6255,24.3132],[120.6235,24.3147],[120.6209,24.3153],[120.6168,24.3156],[120.6114,24.3153],[120.6091,24.3158],[120.6017,24.315],[120.5993,24.3154],[120.5952,24.3152],[120.594,24.3157],[120.5893,24.3198],[120.5866,24.3234],[120.5839,24.3255],[120.5834,24.3285],[120.5803,24.3317],[120.5774,24.3321],[120.5736,24.3319],[120.5632,24.3326],[120.5584,24.3336],[120.5397,24.3349],[120.5385,24.331],[120.5346,24.3256],[120.5331,24.3231],[120.5323,24.3205],[120.5299,24.3189],[120.526,24.3177],[120.5238,24.3158],[120.522,24.3129],[120.5213,24.3107],[120.519,24.3066],[120.518,24.3024],[120.5165,24.298],[120.5142,24.2962],[120.5087,24.2933],[120.5053,24.2944],[120.4984,24.2949],[120.4864,24.2999],[120.4863,24.2997],[120.4983,24.2947],[120.4983,24.2926],[120.5095,24.288],[120.5126,24.2869],[120.5162,24.2848],[120.5192,24.2823],[120.5214,24.2798],[120.5266,24.2762],[120.5291,24.2751],[120.5328,24.2721],[120.5342,24.2715],[120.5328,24.2682],[120.5409,24.2652],[120.5399,24.2627],[120.5415,24.2629],[120.5441,24.2617],[120.5581,24.2585],[120.5604,24.2578],[120.5628,24.2579],[120.5667,24.2583],[120.5689,24.2591],[120.5724,24.2589],[120.5727,24.2611],[120.5735,24.2626],[120.5752,24.2632],[120.5763,24.2617],[120.582,24.2654],[120.5829,24.2667],[120.5831,24.2689],[120.5867,24.2673],[120.5896,24.2666],[120.5974,24.2662],[120.6,24.2671],[120.6032,24.2654],[120.6032,24.2674],[120.6094,24.266],[120.614,24.2627],[120.6187,24.2605],[120.6229,24.2597],[120.6332,24.2593]]]},"properties":{"region_code":"CN-71-1C1A83BD05","parent_region_code":"CN-71-2B195F9E16","name":"清水区","level":"county","has_children":false,"full_path":"中国 / 台湾省 / 台中市 / 清水区","source_admin_code":null,"osm_relation_id":2959620}},
{"type":"Feature","geometry":{"type":"Polygon","coordinates":[[[120.5877,24.1927],[120.5846,24.1936],[120.5778,24.1969],[120.5751,24.1972],[120.5718,24.1951],[120.5659,24.1961],[120.5651,24.2006],[120.5633,24.203],[120.5622,24.2026],[120.5603,24.2044],[120.5589,24.2044],[120.5573,24.2055],[120.5552,24.206],[120.5547,24.2069],[120.5553,24.2095],[120.5549,24.2125],[120.554,24.2143],[120.552,24.2151],[120.5519,24.2164],[120.5502,24.2173],[120.5492,24.2162],[120.5468,24.2173],[120.5466,24.2183],[120.5462,24.2185],[120.5358,24.2209],[120.5333,24.221],[120.5296,24.2221],[120.5278,24.2202],[120.5128,24.2259],[120.5125,24.2264],[120.5138,24.2294],[120.5081,24.2303],[120.5029,24.2338],[120.4964,24.2389],[120.4908,24.2439],[120.4872,24.2476],[120.4827,24.2371],[120.4722,24.2408],[120.4676,24.2298],[120.4674,24.2297],[120.4632,24.2202],[120.4618,24.2167],[120.4619,24.2154],[120.4649,24.2143],[120.4638,24.2133],[120.4603,24.2116],[120.4579,24.2093],[120.4566,24.2072],[120.4902,24.1959],[120.5044,24.1911],[120.5084,24.1868],[120.5127,24.1769],[120.5176,24.1767],[120.5258,24.1767],[120.5261,24.176],[120.5303,24.1756],[120.5337,24.1748],[120.5335,24.1731],[120.5383,24.1726],[120.5386,24.1716],[120.542,24.1706],[120.5438,24.1717],[120.5499,24.1707],[120.551,24.1713],[120.5537,24.171],[120.5574,24.1738],[120.5598,24.1725],[120.5621,24.1723],[120.5642,24.1726],[120.5671,24.1709],[120.571,24.1705],[120.5706,24.1763],[120.5739,24.1755],[120.5757,24.1755],[120.5832,24.1745],[120.5836,24.1742],[120.5872,24.1779],[120.5883,24.1782],[120.5921,24.1801],[120.5934,24.1829],[120.5875,24.1855],[120.5886,24.1873],[120.5932,24.1864],[120.5946,24.1858],[120.5962,24.1868],[120.5979,24.1894],[120.5961,24.1902],[120.5877,24.1927]]]},"properties":{"region_code":"CN-71-D316C96FCF","parent_region_code":"CN-71-2B195F9E16","name":"龙井区","level":"county","has_children":false,"full_path":"中国 / 台湾省 / 台中市 / 龙井区","source_admin_code":null,"osm_relation_id":2958311}},
{"type":"Feature","geometry":{"type":"Polygon","coordinates":[[[120.6091,24.3158],[120.6115,24.3229],[120.6119,24.3274],[120.6131,24.3287],[120.6141,24.3316],[120.6165,24.3335],[120.6207,24.3359],[120.6215,24.3358],[120.6249,24.3371],[120.6282,24.3368],[120.6283,24.3377],[120.6309,24.3371],[120.6322,24.3378],[120.6351,24.3461],[120.6388,24.3461],[120.6401,24.3455],[120.643,24.3483],[120.6437,24.3486],[120.6463,24.3515],[120.6456,24.3534],[120.6468,24.3551],[120.6495,24.3559],[120.6516,24.3586],[120.6557,24.3624],[120.6584,24.3621],[120.682,24.3585],[120.684,24.3591],[120.6844,24.3622],[120.6894,24.361],[120.6958,24.36],[120.7008,24.3595],[120.704,24.3589],[120.7073,24.3578],[120.7075,24.3617],[120.7033,24.3618],[120.7002,24.3631],[120.6985,24.3647],[120.6931,24.3669],[120.692,24.3683],[120.6913,24.3708],[120.6898,24.3745],[120.6885,24.375],[120.6857,24.3789],[120.6773,24.384],[120.6787,24.387],[120.6759,24.3883],[120.6725,24.3913],[120.671,24.3911],[120.6697,24.3926],[120.6691,24.3944],[120.6676,24.3961],[120.6674,24.3979],[120.6663,24.3987],[120.6657,24.4003],[120.6637,24.4022],[120.6583,24.4065],[120.6568,24.4071],[120.6517,24.4083],[120.6505,24.4093],[120.6488,24.4095],[120.6484,24.411],[120.6462,24.4121],[120.6453,24.4145],[120.6439,24.4149],[120.6429,24.4169],[120.6432,24.4214],[120.6402,24.4244],[120.6397,24.4278],[120.6318,24.4328],[120.631,24.4346],[120.6294,24.4361],[120.6286,24.438],[120.6263,24.4391],[120.6224,24.4401],[120.6205,24.4383],[120.6207,24.4368],[120.6186,24.4324],[120.617,24.4317],[120.6136,24.429],[120.6125,24.4272],[120.6112,24.4262],[120.6099,24.4239],[120.6081,24.4217],[120.6051,24.4192],[120.604,24.4175],[120.5961,24.4106],[120.5946,24.408],[120.6033,24.4027],[120.6093,24.3993],[120.6142,24.3952],[120.6161,24.3942],[120.621,24.3925],[120.6243,24.3903],[120.6292,24.3876],[120.6331,24.386],[120.6383,24.3773],[120.6356,24.3761],[120.6272,24.378],[120.6216,24.3791],[120.6207,24.3761],[120.6153,24.3747],[120.6142,24.3749],[120.6119,24.3657],[120.6106,24.3624],[120.6093,24.3626],[120.6081,24.3613],[120.6058,24.3604],[120.6083,24.3594],[120.608,24.3582],[120.606,24.3589],[120.6057,24.3571],[120.604,24.3562],[120.6061,24.3532],[120.6063,24.3515],[120.6082,24.3495],[120.6101,24.349],[120.6106,24.3481],[120.6083,24.3475],[120.6041,24.3471],[120.6021,24.3457],[120.6029,24.3428],[120.6013,24.3409],[120.5994,24.3441],[120.5968,24.3435],[120.5938,24.3414],[120.5957,24.3377],[120.5971,24.3368],[120.5967,24.3353],[120.5947,24.3329],[120.594,24.3306],[120.5918,24.3292],[120.5886,24.3249],[120.5866,24.3234],[120.5893,24.3198],[120.594,24.3157],[120.5952,24.3152],[120.5993,24.3154],[120.6017,24.315],[120.6091,24.3158]]]},"properties":{"region_code":"CN-71-BACF168189","parent_region_code":"CN-71-2B195F9E16","name":"大甲区","level":"county","has_children":false,"full_path":"中国 / 台湾省 / 台中市 / 大甲区","source_admin_code":null,"osm_relation_id":2959670}},
{"type":"Feature","geometry":{"type":"Polygon","coordinates":[[[120.6573,24.1045],[120.6571,24.1062],[120.6578,24.1077],[120.6542,24.1077],[120.6504,24.1073],[120.6507,24.1096],[120.65,24.1118],[120.6448,24.1099],[120.6447,24.1116],[120.6458,24.1133],[120.6457,24.1144],[120.6471,24.1152],[120.6468,24.1187],[120.6436,24.1193],[120.6402,24.1167],[120.6369,24.113],[120.6356,24.1133],[120.6314,24.1096],[120.63,24.1092],[120.6301,24.1111],[120.6225,24.1131],[120.62,24.1127],[120.6199,24.1168],[120.6192,24.1186],[120.6189,24.1239],[120.6145,24.1253],[120.613,24.1247],[120.6104,24.1252],[120.6037,24.1284],[120.6,24.1296],[120.5976,24.1315],[120.5973,24.1326],[120.5945,24.1351],[120.5943,24.1362],[120.5912,24.1378],[120.5907,24.1385],[120.5863,24.1379],[120.5866,24.1369],[120.5859,24.1348],[120.5878,24.1317],[120.5885,24.1295],[120.5835,24.1226],[120.583,24.121],[120.5858,24.1191],[120.5868,24.1176],[120.5864,24.1162],[120.5845,24.1131],[120.5821,24.1119],[120.5818,24.1095],[120.5835,24.1095],[120.5855,24.1076],[120.5884,24.1062],[120.5949,24.1049],[120.6,24.1052],[120.6011,24.1047],[120.6025,24.103],[120.608,24.1027],[120.6089,24.1021],[120.6123,24.1026],[120.6125,24.0992],[120.6132,24.0981],[120.6134,24.0953],[120.6145,24.0922],[120.6149,24.09],[120.6152,24.0843],[120.6167,24.0809],[120.617,24.0794],[120.6195,24.0734],[120.6207,24.0723],[120.6228,24.0724],[120.6245,24.0709],[120.6254,24.0687],[120.6253,24.0652],[120.6257,24.0621],[120.6257,24.057],[120.6236,24.0533],[120.6235,24.052],[120.6245,24.0493],[120.6245,24.0483],[120.6258,24.0467],[120.626,24.0416],[120.6277,24.0402],[120.6281,24.0384],[120.6263,24.0358],[120.6245,24.0338],[120.6242,24.0316],[120.6253,24.0301],[120.6287,24.0296],[120.6314,24.0302],[120.634,24.0311],[120.6362,24.031],[120.6371,24.0289],[120.639,24.0277],[120.642,24.0273],[120.6447,24.0258],[120.6463,24.0268],[120.6462,24.0283],[120.6444,24.0323],[120.6451,24.0343],[120.6464,24.034],[120.6493,24.0307],[120.6518,24.0285],[120.6557,24.0307],[120.6525,24.034],[120.6507,24.0365],[120.6496,24.0399],[120.6514,24.0418],[120.653,24.0398],[120.655,24.0406],[120.6575,24.0394],[120.6587,24.0396],[120.6577,24.0417],[120.6583,24.0435],[120.6584,24.046],[120.6609,24.0467],[120.6608,24.0492],[120.66,24.051],[120.6601,24.0527],[120.6609,24.0536],[120.6604,24.0564],[120.6625,24.058],[120.6621,24.0591],[120.6603,24.0604],[120.6599,24.0628],[120.6568,24.064],[120.653,24.0667],[120.6531,24.0687],[120.652,24.0716],[120.6505,24.0733],[120.6508,24.0759],[120.6505,24.079],[120.6526,24.0812],[120.6494,24.0864],[120.6482,24.0869],[120.6478,24.0911],[120.6482,24.0923],[120.6507,24.0908],[120.6531,24.0916],[120.6543,24.0926],[120.6565,24.0932],[120.6593,24.095],[120.6613,24.0959],[120.6618,24.097],[120.6633,24.0978],[120.6583,24.0999],[120.6577,24.1016],[120.6589,24.1035],[120.6573,24.1045]]]},"properties":{"region_code":"CN-71-2B39FB8DD0","parent_region_code":"CN-71-2B195F9E16","name":"乌日区","level":"county","has_children":false,"full_path":"中国 / 台湾省 / 台中市 / 乌日区","source_admin_code":null,"osm_relation_id":2958281}},
{"type":"Feature","geometry":{"type":"Polygon","coordinates":[[[120.7127,24.2837],[120.7085,24.2842],[120.7004,24.2846],[120.6937,24.2846],[120.6853,24.2848],[120.6832,24.2847],[120.6645,24.2903],[120.6587,24.2916],[120.6575,24.2921],[120.6515,24.2956],[120.6472,24.2983],[120.6463,24.2991],[120.6462,24.2993],[120.6428,24.2983],[120.6411,24.2959],[120.6389,24.2909],[120.6366,24.2865],[120.6372,24.2857],[120.6362,24.2844],[120.6395,24.281],[120.6383,24.279],[120.6445,24.2776],[120.647,24.2767],[120.6431,24.2716],[120.6413,24.265],[120.6406,24.2638],[120.6383,24.2626],[120.6358,24.2622],[120.6325,24.2623],[120.6306,24.2618],[120.6332,24.2593],[120.6352,24.2591],[120.6371,24.2556],[120.6378,24.2524],[120.642,24.2483],[120.6397,24.2455],[120.6392,24.2443],[120.6441,24.2432],[120.6474,24.2464],[120.651,24.2489],[120.653,24.2513],[120.6621,24.2474],[120.6629,24.2475],[120.669,24.2449],[120.6711,24.245],[120.6752,24.2431],[120.6745,24.242],[120.6761,24.2403],[120.6747,24.239],[120.6744,24.2376],[120.6747,24.2346],[120.6759,24.2332],[120.6774,24.2358],[120.6793,24.2382],[120.6811,24.2384],[120.6805,24.2361],[120.6808,24.2338],[120.6827,24.2339],[120.6814,24.2321],[120.6852,24.2318],[120.6855,24.2341],[120.6896,24.2358],[120.6916,24.2352],[120.6905,24.2329],[120.6898,24.2293],[120.691,24.2289],[120.6929,24.2296],[120.6929,24.2311],[120.6971,24.2316],[120.6982,24.2321],[120.6991,24.2349],[120.6983,24.2358],[120.6987,24.2382],[120.6981,24.2391],[120.6958,24.2391],[120.6958,24.2399],[120.699,24.2466],[120.6993,24.2497],[120.7012,24.2511],[120.7015,24.2521],[120.7031,24.2535],[120.7048,24.256],[120.7064,24.2563],[120.7088,24.2557],[120.7114,24.2558],[120.7139,24.2567],[120.7132,24.2592],[120.7122,24.2592],[120.7115,24.2609],[120.7109,24.2641],[120.7101,24.2653],[120.7082,24.2661],[120.7076,24.2674],[120.7081,24.2703],[120.7094,24.2707],[120.7095,24.2727],[120.7125,24.2749],[120.7127,24.2837]]]},"properties":{"region_code":"CN-71-6DB61C398F","parent_region_code":"CN-71-2B195F9E16","name":"神冈区","level":"county","has_children":false,"full_path":"中国 / 台湾省 / 台中市 / 神冈区","source_admin_code":null,"osm_relation_id":2960278}},
{"type":"Feature","geometry":{"type":"Polygon","coordinates":[[[120.6507,24.0908],[120.6482,24.0923],[120.6478,24.0911],[120.6482,24.0869],[120.6494,24.0864],[120.6526,24.0812],[120.6505,24.079],[120.6508,24.0759],[120.6505,24.0733],[120.652,24.0716],[120.6531,24.0687],[120.653,24.0667],[120.6568,24.064],[120.6599,24.0628],[120.6603,24.0604],[120.6621,24.0591],[120.6625,24.058],[120.6604,24.0564],[120.6609,24.0536],[120.6601,24.0527],[120.66,24.051],[120.6608,24.0492],[120.6609,24.0467],[120.6584,24.046],[120.6583,24.0435],[120.6577,24.0417],[120.6587,24.0396],[120.6575,24.0394],[120.655,24.0406],[120.653,24.0398],[120.6514,24.0418],[120.6496,24.0399],[120.6507,24.0365],[120.6525,24.034],[120.6557,24.0307],[120.6581,24.0282],[120.6612,24.0257],[120.6635,24.025],[120.6648,24.0233],[120.6684,24.0207],[120.6786,24.014],[120.6829,24.0122],[120.686,24.0105],[120.6889,24.0093],[120.6949,24.0071],[120.7064,24.0052],[120.7192,24.0097],[120.7229,24.0096],[120.7317,24.009],[120.7331,24.0084],[120.7437,24.0022],[120.746,23.9986],[120.7477,23.9993],[120.7486,24.0008],[120.751,24.0028],[120.7532,24.0023],[120.7546,24.0034],[120.756,24.0036],[120.7575,24.0049],[120.758,24.0061],[120.76,24.0065],[120.7625,24.0062],[120.7645,24.0071],[120.7678,24.0092],[120.7706,24.0091],[120.7711,24.0114],[120.7712,24.014],[120.7735,24.0159],[120.7752,24.0186],[120.7798,24.0203],[120.7798,24.0212],[120.7829,24.0237],[120.7844,24.0241],[120.785,24.0255],[120.7855,24.0287],[120.7876,24.0303],[120.7895,24.0312],[120.7914,24.0306],[120.7918,24.0319],[120.7917,24.0353],[120.7958,24.04],[120.7966,24.0403],[120.7936,24.0432],[120.7922,24.0434],[120.7928,24.0459],[120.79,24.0473],[120.7887,24.0491],[120.7891,24.0517],[120.7881,24.0527],[120.785,24.053],[120.7846,24.0555],[120.7819,24.0567],[120.7819,24.0577],[120.7797,24.0598],[120.7776,24.0612],[120.7725,24.063],[120.7714,24.0641],[120.7675,24.0645],[120.7662,24.0665],[120.7641,24.0678],[120.7639,24.0692],[120.7618,24.0714],[120.7596,24.0722],[120.7591,24.0732],[120.7566,24.0745],[120.7534,24.0751],[120.7522,24.0763],[120.7501,24.077],[120.7461,24.0775],[120.7448,24.0791],[120.7432,24.0785],[120.7389,24.0787],[120.7364,24.0802],[120.7348,24.0802],[120.7322,24.0814],[120.7287,24.0817],[120.7286,24.0804],[120.7268,24.0785],[120.7235,24.0791],[120.7216,24.0803],[120.719,24.0803],[120.7149,24.0812],[120.7119,24.081],[120.7081,24.0819],[120.7046,24.0812],[120.6994,24.0789],[120.698,24.0778],[120.6957,24.0773],[120.6928,24.0736],[120.6913,24.0724],[120.6891,24.0713],[120.6852,24.0703],[120.6818,24.0708],[120.6798,24.0724],[120.6765,24.0778],[120.6742,24.0788],[120.6719,24.0811],[120.6661,24.0811],[120.6633,24.0823],[120.6618,24.0815],[120.659,24.0825],[120.6558,24.0851],[120.6579,24.087],[120.6545,24.0882],[120.653,24.0883],[120.6507,24.0908]]]},"properties":{"region_code":"CN-71-4745E93588","parent_region_code":"CN-71-2B195F9E16","name":"雾峰区","level":"county","has_children":false,"full_path":"中国 / 台湾省 / 台中市 / 雾峰区","source_admin_code":null,"osm_relation_id":2958207}},
{"type":"Feature","geometry":{"type":"Polygon","coordinates":[[[120.5628,24.2579],[120.5604,24.2578],[120.5581,24.2585],[120.5441,24.2617],[120.5415,24.2629],[120.5399,24.2627],[120.5409,24.2652],[120.5328,24.2682],[120.5342,24.2715],[120.5328,24.2721],[120.5291,24.2751],[120.5266,24.2762],[120.5214,24.2798],[120.5192,24.2823],[120.5162,24.2848],[120.5126,24.2869],[120.5095,24.288],[120.4983,24.2926],[120.5004,24.2902],[120.5025,24.2862],[120.5067,24.2844],[120.5057,24.2825],[120.5072,24.2813],[120.5002,24.2675],[120.4947,24.2698],[120.4889,24.2559],[120.4896,24.2532],[120.4872,24.2476],[120.4908,24.2439],[120.4964,24.2389],[120.5029,24.2338],[120.5081,24.2303],[120.5138,24.2294],[120.5125,24.2264],[120.5128,24.2259],[120.5278,24.2202],[120.5296,24.2221],[120.5333,24.221],[120.5358,24.2209],[120.5462,24.2185],[120.5466,24.2183],[120.5477,24.2208],[120.549,24.2254],[120.5482,24.2273],[120.5487,24.2305],[120.5531,24.2353],[120.556,24.2388],[120.5592,24.2439],[120.5552,24.2448],[120.5558,24.2488],[120.5572,24.2534],[120.5613,24.2525],[120.5628,24.2579]]]},"properties":{"region_code":"CN-71-CA85666DFF","parent_region_code":"CN-71-2B195F9E16","name":"梧栖区","level":"county","has_children":false,"full_path":"中国 / 台湾省 / 台中市 / 梧栖区","source_admin_code":null,"osm_relation_id":2958505}},
{"type":"Feature","geometry":{"type":"Polygon","coordinates":[[[120.5836,24.1742],[120.5832,24.1745],[120.5757,24.1755],[120.5739,24.1755],[120.5706,24.1763],[120.571,24.1705],[120.5671,24.1709],[120.5642,24.1726],[120.5621,24.1723],[120.5598,24.1725],[120.5574,24.1738],[120.5537,24.171],[120.551,24.1713],[120.5499,24.1707],[120.5438,24.1717],[120.542,24.1706],[120.5386,24.1716],[120.5383,24.1726],[120.5335,24.1731],[120.5337,24.1748],[120.5303,24.1756],[120.5261,24.176],[120.5258,24.1767],[120.5176,24.1767],[120.5127,24.1769],[120.5159,24.1694],[120.5173,24.166],[120.5191,24.163],[120.5205,24.1593],[120.5237,24.1533],[120.5245,24.1523],[120.5258,24.149],[120.5256,24.1458],[120.5244,24.1424],[120.5233,24.141],[120.5237,24.1395],[120.5276,24.1342],[120.5323,24.1269],[120.5341,24.1256],[120.5404,24.124],[120.5452,24.1166],[120.5466,24.1161],[120.5497,24.1139],[120.5537,24.1128],[120.558,24.1125],[120.5656,24.1098],[120.5726,24.1083],[120.5766,24.1096],[120.5818,24.1095],[120.5821,24.1119],[120.5845,24.1131],[120.5864,24.1162],[120.5868,24.1176],[120.5858,24.1191],[120.583,24.121],[120.5835,24.1226],[120.5885,24.1295],[120.5878,24.1317],[120.5859,24.1348],[120.5866,24.1369],[120.5863,24.1379],[120.5847,24.1391],[120.5818,24.1431],[120.5794,24.144],[120.5747,24.1475],[120.5743,24.1496],[120.5747,24.1532],[120.5745,24.1557],[120.5776,24.1557],[120.5791,24.1607],[120.5822,24.1664],[120.5837,24.1681],[120.5848,24.1695],[120.5831,24.1727],[120.5836,24.1742]]]},"properties":{"region_code":"CN-71-E290695A5E","parent_region_code":"CN-71-2B195F9E16","name":"大肚区","level":"county","has_children":false,"full_path":"中国 / 台湾省 / 台中市 / 大肚区","source_admin_code":null,"osm_relation_id":2958304}},
{"type":"Feature","geometry":{"type":"Polygon","coordinates":[[[120.7482,24.2806],[120.7487,24.283],[120.7481,24.2862],[120.7495,24.2876],[120.7524,24.2873],[120.7548,24.2891],[120.757,24.2891],[120.7584,24.2907],[120.7596,24.29],[120.7637,24.2908],[120.7643,24.2919],[120.766,24.2929],[120.7675,24.2985],[120.7667,24.2994],[120.7652,24.2992],[120.7638,24.3011],[120.7629,24.3045],[120.7647,24.3064],[120.7648,24.3106],[120.7634,24.3129],[120.7635,24.3143],[120.761,24.3172],[120.7586,24.3187],[120.7592,24.3206],[120.7595,24.3233],[120.7622,24.3249],[120.7645,24.3257],[120.763,24.326],[120.7596,24.3285],[120.7585,24.3286],[120.7532,24.3329],[120.7522,24.3342],[120.7486,24.3362],[120.7433,24.3405],[120.7416,24.3425],[120.7371,24.3461],[120.7345,24.3479],[120.7309,24.3514],[120.7284,24.3529],[120.7231,24.3547],[120.7183,24.3558],[120.7176,24.3505],[120.7171,24.3489],[120.7183,24.3473],[120.7183,24.3446],[120.717,24.3424],[120.7194,24.3412],[120.7185,24.34],[120.7155,24.3399],[120.7146,24.337],[120.7159,24.3357],[120.7146,24.334],[120.7148,24.331],[120.7137,24.3316],[120.7093,24.3323],[120.7074,24.3321],[120.7034,24.3329],[120.7011,24.3325],[120.7008,24.3273],[120.6979,24.3268],[120.6937,24.3252],[120.6899,24.3222],[120.6835,24.3202],[120.6781,24.3182],[120.6692,24.3162],[120.6641,24.3161],[120.6616,24.3158],[120.6586,24.315],[120.6569,24.3151],[120.6542,24.3148],[120.6512,24.3149],[120.6507,24.3144],[120.65,24.3088],[120.651,24.3072],[120.6485,24.3056],[120.6477,24.302],[120.6463,24.2991],[120.6472,24.2983],[120.6515,24.2956],[120.6575,24.2921],[120.6587,24.2916],[120.6645,24.2903],[120.6832,24.2847],[120.6853,24.2848],[120.6937,24.2846],[120.7004,24.2846],[120.7085,24.2842],[120.7127,24.2837],[120.7218,24.2825],[120.7266,24.2822],[120.7332,24.2821],[120.7393,24.2818],[120.7482,24.2806]]]},"properties":{"region_code":"CN-71-4FC226445E","parent_region_code":"CN-71-2B195F9E16","name":"后里区","level":"county","has_children":false,"full_path":"中国 / 台湾省 / 台中市 / 后里区","source_admin_code":null,"osm_relation_id":2959691}},
{"type":"Feature","geometry":{"type":"Polygon","coordinates":[[[120.7604,24.2807],[120.7652,24.2813],[120.7696,24.2814],[120.7742,24.2841],[120.776,24.2842],[120.7795,24.2836],[120.7857,24.2836],[120.7901,24.2827],[120.7944,24.2812],[120.8008,24.2807],[120.8057,24.2806],[120.8092,24.2798],[120.8106,24.2786],[120.813,24.2732],[120.8144,24.2689],[120.8165,24.2666],[120.8188,24.2631],[120.8204,24.2586],[120.822,24.2533],[120.8231,24.2478],[120.8241,24.245],[120.8241,24.2423],[120.8239,24.2406],[120.8242,24.2375],[120.8255,24.2305],[120.8268,24.2251],[120.8277,24.2236],[120.8286,24.2184],[120.8303,24.2126],[120.8309,24.2041],[120.8319,24.2003],[120.8321,24.1983],[120.832,24.1938],[120.8311,24.1898],[120.8319,24.1883],[120.8322,24.1848],[120.835,24.1798],[120.8356,24.1781],[120.8353,24.175],[120.8375,24.1704],[120.8428,24.1636],[120.8456,24.1612],[120.8489,24.1599],[120.8582,24.1587],[120.8605,24.1599],[120.862,24.1618],[120.8647,24.1631],[120.8686,24.1643],[120.8681,24.1666],[120.8684,24.1686],[120.8674,24.172],[120.8657,24.174],[120.8654,24.1758],[120.8671,24.1777],[120.8674,24.1797],[120.8691,24.1807],[120.8708,24.1804],[120.8726,24.1825],[120.8755,24.1849],[120.8765,24.1873],[120.8774,24.1881],[120.8786,24.1912],[120.8798,24.1926],[120.8796,24.1937],[120.8817,24.1973],[120.8816,24.1988],[120.8807,24.2018],[120.8828,24.2027],[120.8853,24.2031],[120.8873,24.2044],[120.892,24.2032],[120.8926,24.2048],[120.8943,24.2055],[120.8953,24.2066],[120.8973,24.206],[120.898,24.207],[120.8973,24.2089],[120.8974,24.2107],[120.8957,24.2114],[120.8956,24.2132],[120.8974,24.2151],[120.8978,24.2175],[120.8971,24.2204],[120.8975,24.2225],[120.895,24.2238],[120.8929,24.2243],[120.8905,24.2239],[120.8871,24.2255],[120.8872,24.2279],[120.8879,24.23],[120.8843,24.2322],[120.8832,24.234],[120.881,24.2353],[120.8802,24.2382],[120.8802,24.2409],[120.8794,24.2431],[120.8812,24.2442],[120.8818,24.2478],[120.8788,24.2492],[120.8794,24.2506],[120.8791,24.2521],[120.8801,24.2538],[120.8787,24.2575],[120.8809,24.2588],[120.8799,24.2602],[120.8796,24.2619],[120.8784,24.2642],[120.8784,24.2662],[120.8797,24.268],[120.8811,24.2713],[120.8838,24.273],[120.8846,24.2741],[120.885,24.2762],[120.8884,24.2769],[120.8881,24.2789],[120.8911,24.2802],[120.8956,24.2845],[120.8967,24.284],[120.8988,24.2855],[120.899,24.2885],[120.9008,24.2891],[120.9031,24.2907],[120.9051,24.2914],[120.9059,24.2926],[120.9025,24.2922],[120.8954,24.2933],[120.8916,24.2941],[120.8848,24.2944],[120.8816,24.2949],[120.8775,24.2951],[120.8749,24.2949],[120.8689,24.2936],[120.8657,24.2927],[120.8578,24.2893],[120.8548,24.2888],[120.8495,24.2885],[120.8443,24.2888],[120.8415,24.2892],[120.8382,24.2893],[120.8336,24.2905],[120.8321,24.2921],[120.8294,24.2937],[120.8282,24.295],[120.8262,24.2961],[120.8239,24.2983],[120.8197,24.3036],[120.8176,24.3074],[120.8153,24.3087],[120.8128,24.311],[120.8097,24.3129],[120.8075,24.3152],[120.8059,24.3159],[120.8038,24.3162],[120.796,24.3164],[120.792,24.3176],[120.7913,24.3174],[120.7869,24.3184],[120.7838,24.3183],[120.7828,24.319],[120.7774,24.3207],[120.7746,24.3211],[120.7721,24.3222],[120.7672,24.3255],[120.7645,24.3257],[120.7622,24.3249],[120.7595,24.3233],[120.7592,24.3206],[120.7586,24.3187],[120.761,24.3172],[120.7635,24.3143],[120.7634,24.3129],[120.7648,24.3106],[120.7647,24.3064],[120.7629,24.3045],[120.7638,24.3011],[120.7652,24.2992],[120.7667,24.2994],[120.7675,24.2985],[120.766,24.2929],[120.7643,24.2919],[120.7637,24.2908],[120.7596,24.29],[120.7584,24.2907],[120.757,24.2891],[120.7548,24.2891],[120.7524,24.2873],[120.7495,24.2876],[120.7481,24.2862],[120.7487,24.283],[120.7482,24.2806],[120.7528,24.2797],[120.7561,24.2795],[120.7604,24.2807]]]},"properties":{"region_code":"CN-71-802C1E2F26","parent_region_code":"CN-71-2B195F9E16","name":"东势区","level":"county","has_children":false,"full_path":"中国 / 台湾省 / 台中市 / 东势区","source_admin_code":null,"osm_relation_id":2959709}},
{"type":"Feature","geometry":{"type":"Polygon","coordinates":[[[120.6462,24.2993],[120.6463,24.2991],[120.6477,24.302],[120.6485,24.3056],[120.651,24.3072],[120.65,24.3088],[120.6507,24.3144],[120.6512,24.3149],[120.6542,24.3148],[120.6569,24.3151],[120.6586,24.315],[120.6616,24.3158],[120.6641,24.3161],[120.6692,24.3162],[120.6781,24.3182],[120.6835,24.3202],[120.6899,24.3222],[120.6937,24.3252],[120.6979,24.3268],[120.7008,24.3273],[120.7011,24.3325],[120.7034,24.3329],[120.7074,24.3321],[120.7093,24.3323],[120.7137,24.3316],[120.7148,24.331],[120.7146,24.334],[120.7159,24.3357],[120.7146,24.337],[120.7155,24.3399],[120.7185,24.34],[120.7194,24.3412],[120.717,24.3424],[120.7183,24.3446],[120.7183,24.3473],[120.7171,24.3489],[120.7176,24.3505],[120.7183,24.3558],[120.7114,24.3569],[120.7073,24.3578],[120.704,24.3589],[120.7008,24.3595],[120.6958,24.36],[120.6894,24.361],[120.6844,24.3622],[120.684,24.3591],[120.682,24.3585],[120.6584,24.3621],[120.6557,24.3624],[120.6516,24.3586],[120.6495,24.3559],[120.6468,24.3551],[120.6456,24.3534],[120.6463,24.3515],[120.6437,24.3486],[120.643,24.3483],[120.6401,24.3455],[120.6388,24.3461],[120.6351,24.3461],[120.6322,24.3378],[120.6309,24.3371],[120.6283,24.3377],[120.6282,24.3368],[120.6249,24.3371],[120.6215,24.3358],[120.6207,24.3359],[120.6165,24.3335],[120.6141,24.3316],[120.6131,24.3287],[120.6119,24.3274],[120.6115,24.3229],[120.6091,24.3158],[120.6114,24.3153],[120.6168,24.3156],[120.6209,24.3153],[120.6235,24.3147],[120.6255,24.3132],[120.6332,24.3088],[120.6441,24.3015],[120.6462,24.2993]]]},"properties":{"region_code":"CN-71-D82DA6590D","parent_region_code":"CN-71-2B195F9E16","name":"外埔区","level":"county","has_children":false,"full_path":"中国 / 台湾省 / 台中市 / 外埔区","source_admin_code":null,"osm_relation_id":2959680}},
{"type":"Feature","geometry":{"type":"Polygon","coordinates":[[[120.8026,24.1694],[120.8021,24.1677],[120.8044,24.1655],[120.8046,24.1634],[120.8062,24.1606],[120.8054,24.1574],[120.8054,24.1559],[120.8042,24.155],[120.8035,24.1503],[120.806,24.1502],[120.8076,24.1492],[120.8103,24.1489],[120.8116,24.1468],[120.8119,24.1452],[120.8149,24.1445],[120.8176,24.1463],[120.8197,24.1472],[120.8218,24.1462],[120.8235,24.142],[120.8269,24.1431],[120.8284,24.143],[120.8299,24.144],[120.8313,24.1425],[120.8339,24.1409],[120.8343,24.1375],[120.8332,24.1351],[120.8345,24.1327],[120.8344,24.1305],[120.8327,24.1277],[120.8315,24.127],[120.8323,24.1231],[120.8349,24.1211],[120.8377,24.1179],[120.8386,24.1191],[120.8421,24.1207],[120.843,24.1231],[120.8449,24.1245],[120.8489,24.1239],[120.8506,24.1246],[120.8539,24.1245],[120.8562,24.1215],[120.857,24.1196],[120.8572,24.1173],[120.8586,24.1162],[120.8655,24.1155],[120.8674,24.1163],[120.8689,24.1176],[120.8696,24.1171],[120.8724,24.1168],[120.8739,24.1153],[120.8741,24.1138],[120.8752,24.113],[120.8777,24.1098],[120.8792,24.1092],[120.8789,24.1075],[120.8794,24.1057],[120.8802,24.1054],[120.8804,24.1033],[120.8815,24.1005],[120.8797,24.0992],[120.8782,24.0953],[120.8782,24.0935],[120.8769,24.0912],[120.8782,24.0858],[120.8791,24.0856],[120.881,24.0886],[120.882,24.0883],[120.883,24.0905],[120.885,24.093],[120.8862,24.0956],[120.8901,24.0966],[120.8915,24.0987],[120.8909,24.1012],[120.8913,24.1024],[120.8941,24.1064],[120.8937,24.1087],[120.8942,24.1107],[120.8911,24.1122],[120.8902,24.1142],[120.891,24.1156],[120.8927,24.1162],[120.8962,24.1165],[120.8979,24.118],[120.8953,24.1188],[120.8951,24.1226],[120.8939,24.1259],[120.8946,24.1268],[120.8945,24.1298],[120.8938,24.131],[120.8946,24.1339],[120.896,24.137],[120.8961,24.1391],[120.8938,24.1406],[120.893,24.1403],[120.8896,24.1408],[120.8874,24.1392],[120.8848,24.139],[120.8848,24.1412],[120.8843,24.1426],[120.8843,24.1458],[120.8831,24.1474],[120.8833,24.1512],[120.8842,24.1545],[120.8837,24.1568],[120.8849,24.1577],[120.8885,24.1575],[120.8924,24.1558],[120.895,24.1552],[120.8948,24.1595],[120.8941,24.1607],[120.8942,24.1653],[120.894,24.1664],[120.8896,24.1668],[120.8832,24.167],[120.8808,24.1668],[120.8784,24.1659],[120.8686,24.1643],[120.8647,24.1631],[120.862,24.1618],[120.8605,24.1599],[120.8582,24.1587],[120.8489,24.1599],[120.8456,24.1612],[120.8428,24.1636],[120.8375,24.1704],[120.8353,24.175],[120.8356,24.1781],[120.835,24.1798],[120.8322,24.1848],[120.8319,24.1883],[120.8311,24.1898],[120.832,24.1938],[120.8321,24.1983],[120.8319,24.2003],[120.8309,24.2041],[120.8303,24.2126],[120.8286,24.2184],[120.8277,24.2236],[120.8268,24.2251],[120.8255,24.2305],[120.8242,24.2375],[120.8239,24.2406],[120.8241,24.2423],[120.8224,24.2427],[120.8193,24.2417],[120.819,24.2428],[120.8162,24.2469],[120.816,24.248],[120.8145,24.2502],[120.8139,24.2518],[120.8118,24.2524],[120.8092,24.2561],[120.8082,24.258],[120.8068,24.2591],[120.8064,24.2617],[120.8052,24.2619],[120.8028,24.2634],[120.7999,24.2665],[120.794,24.2693],[120.7932,24.2702],[120.7906,24.2691],[120.7931,24.2676],[120.7941,24.2653],[120.7941,24.2638],[120.7953,24.2617],[120.797,24.2606],[120.7974,24.2591],[120.7986,24.2587],[120.8017,24.2555],[120.8019,24.2519],[120.8032,24.2499],[120.8017,24.2481],[120.8016,24.2458],[120.7981,24.2463],[120.7951,24.247],[120.7931,24.248],[120.7923,24.25],[120.7893,24.253],[120.7865,24.2546],[120.7859,24.2541],[120.7865,24.2511],[120.7856,24.2486],[120.784,24.2475],[120.784,24.2457],[120.7815,24.2478],[120.7825,24.2503],[120.7806,24.2496],[120.7799,24.2459],[120.7788,24.2439],[120.7779,24.2437],[120.7772,24.2417],[120.7748,24.2432],[120.7696,24.2428],[120.7678,24.242],[120.7678,24.239],[120.7663,24.2374],[120.7685,24.2348],[120.7709,24.2345],[120.7723,24.2329],[120.7727,24.2308],[120.7709,24.2246],[120.7723,24.2223],[120.7717,24.2211],[120.7694,24.2201],[120.7702,24.2187],[120.7722,24.2175],[120.7683,24.2169],[120.7701,24.2158],[120.7714,24.2133],[120.774,24.2124],[120.7755,24.2125],[120.7776,24.2116],[120.7784,24.2119],[120.7825,24.2107],[120.7864,24.2081],[120.7897,24.2064],[120.7927,24.2059],[120.796,24.2041],[120.7981,24.2012],[120.7997,24.2001],[120.7995,24.1982],[120.8011,24.1965],[120.7995,24.1918],[120.8001,24.1881],[120.7975,24.1837],[120.7973,24.1825],[120.7984,24.1816],[120.7988,24.1798],[120.8001,24.1792],[120.7997,24.1776],[120.8003,24.1759],[120.8001,24.1738],[120.8021,24.1725],[120.8018,24.1715],[120.8026,24.1694]]]},"properties":{"region_code":"CN-71-E4E91950E7","parent_region_code":"CN-71-2B195F9E16","name":"新社区","level":"county","has_children":false,"full_path":"中国 / 台湾省 / 台中市 / 新社区","source_admin_code":null,"osm_relation_id":2958060}},
{"type":"Feature","geometry":{"type":"Polygon","coordinates":[[[120.5866,24.3234],[120.5886,24.3249],[120.5918,24.3292],[120.594,24.3306],[120.5947,24.3329],[120.5967,24.3353],[120.5971,24.3368],[120.5957,24.3377],[120.5938,24.3414],[120.5968,24.3435],[120.5994,24.3441],[120.6013,24.3409],[120.6029,24.3428],[120.6021,24.3457],[120.6041,24.3471],[120.6083,24.3475],[120.6106,24.3481],[120.6101,24.349],[120.6082,24.3495],[120.6063,24.3515],[120.6061,24.3532],[120.604,24.3562],[120.6057,24.3571],[120.606,24.3589],[120.608,24.3582],[120.6083,24.3594],[120.6058,24.3604],[120.6081,24.3613],[120.6093,24.3626],[120.6106,24.3624],[120.6119,24.3657],[120.6142,24.3749],[120.6153,24.3747],[120.6207,24.3761],[120.6216,24.3791],[120.6272,24.378],[120.6356,24.3761],[120.6383,24.3773],[120.6331,24.386],[120.6292,24.3876],[120.6243,24.3903],[120.621,24.3925],[120.6161,24.3942],[120.6142,24.3952],[120.6093,24.3993],[120.6033,24.4027],[120.5946,24.408],[120.5915,24.4042],[120.5917,24.4033],[120.5898,24.4015],[120.5898,24.3992],[120.5881,24.3948],[120.5867,24.3923],[120.5836,24.3898],[120.5792,24.384],[120.5773,24.3819],[120.5751,24.379],[120.5731,24.3772],[120.5711,24.3742],[120.5704,24.3698],[120.569,24.3667],[120.5662,24.3644],[120.5648,24.3638],[120.5626,24.3616],[120.5613,24.3596],[120.5616,24.358],[120.5592,24.3544],[120.559,24.3523],[120.5592,24.3498],[120.5558,24.3477],[120.5504,24.3415],[120.5486,24.3385],[120.5458,24.3349],[120.5428,24.3355],[120.5397,24.3349],[120.5584,24.3336],[120.5632,24.3326],[120.5736,24.3319],[120.5774,24.3321],[120.5803,24.3317],[120.5834,24.3285],[120.5839,24.3255],[120.5866,24.3234]]]},"properties":{"region_code":"CN-71-680D081D5B","parent_region_code":"CN-71-2B195F9E16","name":"大安区","level":"county","has_children":false,"full_path":"中国 / 台湾省 / 台中市 / 大安区","source_admin_code":null,"osm_relation_id":2959654}},
{"type":"Feature","geometry":{"type":"Polygon","coordinates":[[[120.7748,24.2432],[120.7772,24.2417],[120.7779,24.2437],[120.7788,24.2439],[120.7799,24.2459],[120.7806,24.2496],[120.7825,24.2503],[120.7815,24.2478],[120.784,24.2457],[120.784,24.2475],[120.7856,24.2486],[120.7865,24.2511],[120.7859,24.2541],[120.7865,24.2546],[120.7893,24.253],[120.7923,24.25],[120.7931,24.248],[120.7951,24.247],[120.7981,24.2463],[120.8016,24.2458],[120.8017,24.2481],[120.8032,24.2499],[120.8019,24.2519],[120.8017,24.2555],[120.7986,24.2587],[120.7974,24.2591],[120.797,24.2606],[120.7953,24.2617],[120.7941,24.2638],[120.7941,24.2653],[120.7931,24.2676],[120.7906,24.2691],[120.7932,24.2702],[120.794,24.2693],[120.7999,24.2665],[120.8028,24.2634],[120.8052,24.2619],[120.8064,24.2617],[120.8068,24.2591],[120.8082,24.258],[120.8092,24.2561],[120.8118,24.2524],[120.8139,24.2518],[120.8145,24.2502],[120.816,24.248],[120.8162,24.2469],[120.819,24.2428],[120.8193,24.2417],[120.8224,24.2427],[120.8241,24.2423],[120.8241,24.245],[120.8231,24.2478],[120.822,24.2533],[120.8204,24.2586],[120.8188,24.2631],[120.8165,24.2666],[120.8144,24.2689],[120.813,24.2732],[120.8106,24.2786],[120.8092,24.2798],[120.8057,24.2806],[120.8008,24.2807],[120.7944,24.2812],[120.7901,24.2827],[120.7857,24.2836],[120.7795,24.2836],[120.776,24.2842],[120.7742,24.2841],[120.7696,24.2814],[120.7652,24.2813],[120.7604,24.2807],[120.7626,24.274],[120.7637,24.2726],[120.7628,24.2708],[120.7656,24.2671],[120.7671,24.2669],[120.7677,24.2655],[120.7698,24.2645],[120.7691,24.2634],[120.7683,24.2576],[120.7691,24.257],[120.7689,24.2546],[120.7671,24.2537],[120.7672,24.2522],[120.7685,24.2517],[120.7693,24.2501],[120.7712,24.2499],[120.7737,24.2479],[120.774,24.2447],[120.7748,24.2432]]]},"properties":{"region_code":"CN-71-97966C4ECB","parent_region_code":"CN-71-2B195F9E16","name":"石冈区","level":"county","has_children":false,"full_path":"中国 / 台湾省 / 台中市 / 石冈区","source_admin_code":null,"osm_relation_id":2960263}},
{"type":"Feature","geometry":{"type":"Polygon","coordinates":[[[120.8686,24.1643],[120.8784,24.1659],[120.8808,24.1668],[120.8832,24.167],[120.8896,24.1668],[120.894,24.1664],[120.8942,24.1653],[120.8941,24.1607],[120.8948,24.1595],[120.895,24.1552],[120.8924,24.1558],[120.8885,24.1575],[120.8849,24.1577],[120.8837,24.1568],[120.8842,24.1545],[120.8833,24.1512],[120.8831,24.1474],[120.8843,24.1458],[120.8843,24.1426],[120.8848,24.1412],[120.8848,24.139],[120.8874,24.1392],[120.8896,24.1408],[120.893,24.1403],[120.8938,24.1406],[120.8961,24.1391],[120.896,24.137],[120.8946,24.1339],[120.8938,24.131],[120.8945,24.1298],[120.8946,24.1268],[120.8939,24.1259],[120.8951,24.1226],[120.8953,24.1188],[120.8979,24.118],[120.8962,24.1165],[120.8987,24.1156],[120.8999,24.1156],[120.9029,24.1147],[120.9049,24.1145],[120.9069,24.1124],[120.907,24.1109],[120.9096,24.1092],[120.9112,24.1088],[120.9132,24.109],[120.9146,24.1076],[120.9168,24.1078],[120.9199,24.1074],[120.9221,24.1094],[120.9253,24.1105],[120.9271,24.1117],[120.9319,24.1122],[120.935,24.1153],[120.9375,24.1172],[120.9396,24.1183],[120.9412,24.1201],[120.9445,24.1228],[120.9484,24.1249],[120.9495,24.1275],[120.9501,24.1279],[120.9527,24.1269],[120.9543,24.1255],[120.9563,24.1247],[120.9606,24.1205],[120.964,24.1199],[120.9671,24.1203],[120.971,24.1203],[120.9734,24.1196],[120.9748,24.1185],[120.9752,24.1171],[120.9765,24.1169],[120.9791,24.1183],[120.9837,24.1192],[120.9858,24.1202],[120.9892,24.1188],[120.992,24.1211],[120.9916,24.1242],[120.992,24.1253],[120.996,24.1266],[120.9979,24.1266],[120.9996,24.1278],[121.0002,24.1297],[121.0004,24.1323],[121.0034,24.1338],[121.0046,24.1376],[121.0069,24.1413],[121.0075,24.1436],[121.0071,24.1449],[121.0082,24.1471],[121.009,24.1474],[121.0104,24.1501],[121.0155,24.156],[121.0174,24.157],[121.0195,24.1587],[121.0208,24.1588],[121.0233,24.158],[121.0256,24.1581],[121.0282,24.1592],[121.0298,24.1571],[121.0301,24.1551],[121.0312,24.1535],[121.0309,24.1496],[121.0334,24.1486],[121.0356,24.1508],[121.0358,24.153],[121.0378,24.1579],[121.0408,24.1586],[121.0429,24.1586],[121.0441,24.1597],[121.0476,24.16],[121.0506,24.1584],[121.0517,24.1555],[121.0527,24.1548],[121.0574,24.1587],[121.0588,24.1603],[121.0597,24.1629],[121.0614,24.1633],[121.0643,24.1629],[121.0655,24.1639],[121.0663,24.1655],[121.0698,24.1675],[121.0702,24.1684],[121.0728,24.17],[121.0753,24.1702],[121.0766,24.1717],[121.0791,24.1731],[121.0816,24.1756],[121.0845,24.1758],[121.0871,24.178],[121.0885,24.1801],[121.0914,24.1827],[121.0911,24.1848],[121.094,24.1879],[121.0942,24.1897],[121.0963,24.1921],[121.1014,24.1948],[121.102,24.1958],[121.1042,24.196],[121.1057,24.1972],[121.1076,24.1979],[121.1113,24.1977],[121.1134,24.1969],[121.1188,24.1972],[121.1226,24.1961],[121.1272,24.1968],[121.129,24.196],[121.1306,24.1967],[121.1327,24.1969],[121.1349,24.1963],[121.1371,24.1967],[121.1378,24.1976],[121.1414,24.1996],[121.1425,24.2016],[121.1432,24.2059],[121.1462,24.2089],[121.1475,24.2124],[121.1481,24.2131],[121.1518,24.2132],[121.1565,24.2147],[121.158,24.2145],[121.161,24.2152],[121.1641,24.2199],[121.1644,24.2218],[121.1669,24.224],[121.1677,24.2254],[121.1702,24.2235],[121.1735,24.2203],[121.176,24.2171],[121.1777,24.2157],[121.1785,24.214],[121.1807,24.2123],[121.1822,24.2122],[121.1852,24.2145],[121.1882,24.2148],[121.1918,24.2169],[121.1923,24.219],[121.1963,24.223],[121.1984,24.2229],[121.2016,24.2216],[121.2042,24.2221],[121.208,24.2216],[121.2127,24.2242],[121.2158,24.2254],[121.2185,24.2286],[121.2201,24.2292],[121.2216,24.2278],[121.2261,24.2258],[121.2306,24.2261],[121.2304,24.2235],[121.2325,24.2223],[121.2359,24.2213],[121.238,24.2197],[121.2407,24.2217],[121.244,24.2224],[121.2449,24.225],[121.2471,24.2282],[121.2487,24.2325],[121.2512,24.238],[121.2532,24.241],[121.2551,24.2432],[121.2568,24.2444],[121.2615,24.2457],[121.2654,24.2457],[121.2664,24.2424],[121.2659,24.2411],[121.2684,24.2401],[121.2691,24.2378],[121.2707,24.2366],[121.2739,24.2357],[121.2769,24.2354],[121.2777,24.2319],[121.2802,24.2298],[121.2808,24.2306],[121.283,24.231],[121.2842,24.2296],[121.2858,24.2291],[121.2886,24.2301],[121.2909,24.2302],[121.2932,24.2292],[121.2941,24.2297],[121.2956,24.2326],[121.2983,24.233],[121.298,24.2341],[121.2988,24.2357],[121.3012,24.2367],[121.3022,24.2365],[121.3039,24.2337],[121.3059,24.2337],[121.3088,24.235],[121.3141,24.235],[121.3164,24.2344],[121.3196,24.2319],[121.3221,24.2321],[121.3245,24.233],[121.3302,24.2312],[121.3318,24.2298],[121.3329,24.2299],[121.3391,24.2267],[121.3424,24.2239],[121.344,24.2254],[121.3481,24.2306],[121.3487,24.2321],[121.3517,24.2346],[121.3526,24.237],[121.3529,24.2399],[121.352,24.2444],[121.3558,24.2451],[121.3582,24.2441],[121.3601,24.2444],[121.3638,24.2475],[121.3655,24.2503],[121.3664,24.2525],[121.3711,24.2536],[121.3723,24.2546],[121.3763,24.2535],[121.378,24.2534],[121.3833,24.2555],[121.3847,24.2556],[121.3854,24.2587],[121.3847,24.2625],[121.3852,24.2648],[121.383,24.2681],[121.3825,24.27],[121.3817,24.2766],[121.38,24.2802],[121.3815,24.2819],[121.3851,24.2839],[121.3867,24.2852],[121.3892,24.2879],[121.3901,24.2902],[121.3935,24.2887],[121.396,24.2893],[121.3968,24.2914],[121.3999,24.2947],[121.4028,24.2974],[121.4044,24.3056],[121.4043,24.3085],[121.4057,24.3088],[121.4104,24.3079],[121.4117,24.3081],[121.4163,24.3097],[121.4188,24.3085],[121.421,24.3082],[121.4227,24.3091],[121.4258,24.3154],[121.4278,24.318],[121.4309,24.3212],[121.4331,24.3217],[121.4342,24.3236],[121.4336,24.3265],[121.4326,24.3276],[121.4317,24.3305],[121.4335,24.3389],[121.4346,24.3407],[121.437,24.343],[121.4354,24.346],[121.4347,24.3482],[121.4356,24.3491],[121.4367,24.3523],[121.4392,24.3556],[121.4397,24.3577],[121.4409,24.3595],[121.4462,24.3602],[121.4474,24.3632],[121.451,24.3655],[121.4496,24.3689],[121.4486,24.3704],[121.4471,24.374],[121.4471,24.3753],[121.4434,24.3748],[121.4419,24.3738],[121.4397,24.3788],[121.4369,24.3835],[121.4332,24.3839],[121.4284,24.3836],[121.4248,24.3821],[121.4227,24.3821],[121.421,24.3815],[121.4189,24.3798],[121.4178,24.3796],[121.4159,24.3804],[121.4138,24.3799],[121.4124,24.3804],[121.4079,24.3787],[121.4036,24.3782],[121.4009,24.3801],[121.3998,24.3801],[121.3973,24.3782],[121.3951,24.3785],[121.3919,24.3756],[121.389,24.3756],[121.3884,24.3746],[121.3871,24.3705],[121.3812,24.3675],[121.38,24.3674],[121.3764,24.3689],[121.3727,24.3687],[121.3694,24.3722],[121.3686,24.3727],[121.3685,24.375],[121.3665,24.3788],[121.3673,24.3815],[121.3688,24.3823],[121.3675,24.386],[121.3665,24.3864],[121.364,24.3895],[121.3617,24.3897],[121.3603,24.3906],[121.3583,24.3909],[121.3546,24.3935],[121.353,24.3935],[121.3514,24.3925],[121.3502,24.393],[121.3452,24.3933],[121.3419,24.393],[121.3376,24.3904],[121.3361,24.3927],[121.3348,24.3935],[121.3322,24.396],[121.3313,24.3983],[121.3299,24.3988],[121.3269,24.3986],[121.3257,24.4001],[121.3251,24.4018],[121.3252,24.4036],[121.3241,24.4074],[121.3257,24.4099],[121.3266,24.4134],[121.3263,24.4157],[121.3269,24.4182],[121.3265,24.4218],[121.3272,24.4238],[121.3277,24.4279],[121.3268,24.4305],[121.3275,24.4321],[121.327,24.4343],[121.3243,24.4365],[121.3231,24.4382],[121.3201,24.4411],[121.3177,24.4415],[121.3141,24.4377],[121.3123,24.4366],[121.3107,24.4365],[121.3057,24.4327],[121.3028,24.433],[121.2976,24.4331],[121.2947,24.4325],[121.2932,24.4311],[121.2843,24.4306],[121.2791,24.4294],[121.2769,24.4292],[121.2713,24.4296],[121.2711,24.428],[121.2699,24.4274],[121.2651,24.4287],[121.2608,24.4286],[121.2592,24.4309],[121.2598,24.4326],[121.26,24.4362],[121.2589,24.438],[121.2589,24.4277],[121.2576,24.4251],[121.25,24.4249],[121.2492,24.4238],[121.2459,24.4226],[121.2439,24.4201],[121.2433,24.4182],[121.2436,24.4166],[121.242,24.414],[121.2429,24.4128],[121.2434,24.4109],[121.2429,24.4091],[121.2436,24.4057],[121.2426,24.4046],[121.2401,24.4035],[121.2382,24.4016],[121.2379,24.4002],[121.2348,24.3975],[121.235,24.3921],[121.2346,24.3911],[121.2316,24.3875],[121.2319,24.3839],[121.2271,24.383],[121.2256,24.383],[121.2213,24.3818],[121.2182,24.3812],[121.2159,24.3795],[121.2135,24.3819],[121.2133,24.3844],[121.2112,24.3884],[121.2104,24.3919],[121.2106,24.3957],[121.2087,24.3966],[121.2072,24.3979],[121.2007,24.3976],[121.1972,24.3966],[121.1969,24.392],[121.1953,24.39],[121.193,24.3858],[121.1911,24.3839],[121.1902,24.3816],[121.1866,24.3812],[121.1847,24.3815],[121.1833,24.381],[121.1815,24.3788],[121.1785,24.3779],[121.177,24.3767],[121.1747,24.3739],[121.1733,24.3731],[121.173,24.3707],[121.1741,24.369],[121.1731,24.3684],[121.1726,24.3669],[121.169,24.3643],[121.1689,24.3615],[121.168,24.3607],[121.1647,24.361],[121.1623,24.3606],[121.1594,24.3608],[121.1555,24.3591],[121.1509,24.3587],[121.1493,24.358],[121.146,24.3579],[121.1441,24.3583],[121.1409,24.3596],[121.1383,24.3566],[121.1378,24.3546],[121.136,24.3528],[121.1336,24.3517],[121.1313,24.3494],[121.1313,24.3483],[121.1302,24.3447],[121.1284,24.3422],[121.1274,24.3417],[121.1253,24.342],[121.1241,24.3406],[121.1221,24.3364],[121.1214,24.3339],[121.1216,24.3307],[121.1183,24.3303],[121.1149,24.3286],[121.1087,24.331],[121.1062,24.3285],[121.1038,24.3268],[121.1023,24.3246],[121.0982,24.3237],[121.0952,24.322],[121.0944,24.3198],[121.0919,24.3186],[121.0901,24.3187],[121.0866,24.3176],[121.0851,24.3197],[121.0831,24.3217],[121.0816,24.3241],[121.0789,24.3229],[121.0734,24.3223],[121.0739,24.3196],[121.072,24.3172],[121.0693,24.3155],[121.0656,24.3157],[121.0615,24.3134],[121.0584,24.3127],[121.0571,24.3111],[121.0553,24.3103],[121.0549,24.3077],[121.0527,24.3047],[121.0521,24.3012],[121.0522,24.2993],[121.0514,24.2978],[121.049,24.296],[121.0471,24.2961],[121.0452,24.2953],[121.0411,24.2961],[121.0381,24.2964],[121.0353,24.2972],[121.0331,24.2988],[121.0317,24.302],[121.0288,24.3052],[121.0262,24.3068],[121.02,24.3093],[121.018,24.3113],[121.0157,24.3176],[121.0145,24.3201],[121.0126,24.322],[121.0116,24.324],[121.0083,24.3268],[121.0047,24.332],[121.0023,24.3328],[121.0005,24.3327],[120.9974,24.3301],[120.9921,24.3296],[120.9858,24.3315],[120.9838,24.3344],[120.982,24.3359],[120.9799,24.3345],[120.9772,24.3347],[120.9724,24.3335],[120.9662,24.3335],[120.9627,24.3348],[120.96,24.3352],[120.959,24.337],[120.9568,24.3393],[120.9541,24.3386],[120.9523,24.3391],[120.9465,24.3391],[120.9449,24.3398],[120.9425,24.3391],[120.94,24.34],[120.9384,24.3415],[120.9353,24.3429],[120.9328,24.3421],[120.9288,24.3397],[120.9263,24.3386],[120.9197,24.3371],[120.917,24.3357],[120.9164,24.3342],[120.9167,24.3327],[120.9197,24.3242],[120.9205,24.3201],[120.9207,24.3178],[120.9201,24.3157],[120.9202,24.3106],[120.9206,24.3087],[120.922,24.3063],[120.9225,24.304],[120.9219,24.3025],[120.9199,24.3007],[120.9168,24.299],[120.9119,24.2941],[120.9094,24.294],[120.9059,24.2926],[120.9051,24.2914],[120.9031,24.2907],[120.9008,24.2891],[120.899,24.2885],[120.8988,24.2855],[120.8967,24.284],[120.8956,24.2845],[120.8911,24.2802],[120.8881,24.2789],[120.8884,24.2769],[120.885,24.2762],[120.8846,24.2741],[120.8838,24.273],[120.8811,24.2713],[120.8797,24.268],[120.8784,24.2662],[120.8784,24.2642],[120.8796,24.2619],[120.8799,24.2602],[120.8809,24.2588],[120.8787,24.2575],[120.8801,24.2538],[120.8791,24.2521],[120.8794,24.2506],[120.8788,24.2492],[120.8818,24.2478],[120.8812,24.2442],[120.8794,24.2431],[120.8802,24.2409],[120.8802,24.2382],[120.881,24.2353],[120.8832,24.234],[120.8843,24.2322],[120.8879,24.23],[120.8872,24.2279],[120.8871,24.2255],[120.8905,24.2239],[120.8929,24.2243],[120.895,24.2238],[120.8975,24.2225],[120.8971,24.2204],[120.8978,24.2175],[120.8974,24.2151],[120.8956,24.2132],[120.8957,24.2114],[120.8974,24.2107],[120.8973,24.2089],[120.898,24.207],[120.8973,24.206],[120.8953,24.2066],[120.8943,24.2055],[120.8926,24.2048],[120.892,24.2032],[120.8873,24.2044],[120.8853,24.2031],[120.8828,24.2027],[120.8807,24.2018],[120.8816,24.1988],[120.8817,24.1973],[120.8796,24.1937],[120.8798,24.1926],[120.8786,24.1912],[120.8774,24.1881],[120.8765,24.1873],[120.8755,24.1849],[120.8726,24.1825],[120.8708,24.1804],[120.8691,24.1807],[120.8674,24.1797],[120.8671,24.1777],[120.8654,24.1758],[120.8657,24.174],[120.8674,24.172],[120.8684,24.1686],[120.8681,24.1666],[120.8686,24.1643]]]},"properties":{"region_code":"CN-71-57483D5A0B","parent_region_code":"CN-71-2B195F9E16","name":"和平区","level":"county","has_children":false,"full_path":"中国 / 台湾省 / 台中市 / 和平区","source_admin_code":null,"osm_relation_id":2959780}}
]}