{"type":"FeatureCollection", "features": [
{"type":"Feature","geometry":{"type":"Polygon","coordinates":[[[121.7337,24.7685],[121.7325,24.7671],[121.7315,24.7622],[121.7292,24.7569],[121.7271,24.7551],[121.7295,24.753],[121.728,24.7515],[121.7344,24.7463],[121.7416,24.7441],[121.738,24.7412],[121.7369,24.7379],[121.7337,24.7348],[121.7364,24.7325],[121.7334,24.7303],[121.7348,24.7244],[121.7379,24.7266],[121.7468,24.7226],[121.751,24.7221],[121.7561,24.7236],[121.7581,24.7232],[121.762,24.7179],[121.7608,24.7166],[121.7649,24.7137],[121.7696,24.7133],[121.7761,24.7147],[121.774,24.7159],[121.7733,24.7192],[121.7756,24.7291],[121.7757,24.7355],[121.779,24.739],[121.7853,24.7388],[121.7838,24.7424],[121.7832,24.7487],[121.7886,24.7528],[121.7857,24.7555],[121.7884,24.7563],[121.7884,24.7588],[121.7856,24.764],[121.7816,24.764],[121.7766,24.7685],[121.7724,24.7666],[121.7707,24.7699],[121.772,24.7715],[121.7674,24.7721],[121.7621,24.7797],[121.761,24.7829],[121.7562,24.7802],[121.7497,24.7811],[121.7433,24.7772],[121.7382,24.7821],[121.7361,24.7821],[121.7321,24.7845],[121.7303,24.7844],[121.7304,24.78],[121.7335,24.7757],[121.7347,24.7719],[121.7337,24.7685]]]},"properties":{"region_code":"CN-71-5F939AFD05","parent_region_code":"CN-71-068512FC01","name":"宜兰市","level":"county","has_children":false,"full_path":"中国 / 台湾省 / 宜兰县 / 宜兰市","source_admin_code":null,"osm_relation_id":3155553}},
{"type":"Feature","geometry":{"type":"Polygon","coordinates":[[[121.7574,24.7068],[121.7553,24.7035],[121.7537,24.6938],[121.7511,24.6938],[121.7516,24.6907],[121.7502,24.6835],[121.7486,24.6802],[121.7496,24.6728],[121.7537,24.6717],[121.7548,24.6669],[121.7631,24.6672],[121.766,24.668],[121.7685,24.6703],[121.7718,24.6676],[121.7761,24.6689],[121.7806,24.6654],[121.7838,24.6652],[121.7906,24.6659],[121.7941,24.6634],[121.7998,24.664],[121.8011,24.67],[121.8025,24.6703],[121.8008,24.6711],[121.799,24.6763],[121.7852,24.6788],[121.7832,24.6781],[121.7804,24.6816],[121.7761,24.6808],[121.7762,24.6841],[121.7742,24.6857],[121.7709,24.6858],[121.7701,24.6901],[121.7657,24.6907],[121.7631,24.6927],[121.7648,24.6981],[121.7618,24.701],[121.7574,24.7068]]]},"properties":{"region_code":"CN-71-C05BA1830A","parent_region_code":"CN-71-068512FC01","name":"罗东镇","level":"county","has_children":false,"full_path":"中国 / 台湾省 / 宜兰县 / 罗东镇","source_admin_code":null,"osm_relation_id":3480284}},
{"type":"Feature","geometry":{"type":"Polygon","coordinates":[[[121.7958,24.6013],[121.7983,24.5996],[121.8002,24.5954],[121.8073,24.5922],[121.8074,24.5896],[121.8111,24.5869],[121.8126,24.5828],[121.8149,24.5803],[121.8129,24.5762],[121.8144,24.573],[121.814,24.5674],[121.8147,24.559],[121.8187,24.5534],[121.8233,24.5513],[121.8265,24.5525],[121.8313,24.5526],[121.8348,24.5507],[121.8396,24.5432],[121.8437,24.5426],[121.8455,24.5392],[121.8489,24.537],[121.8465,24.5314],[121.8406,24.5302],[121.838,24.5279],[121.8355,24.5227],[121.8297,24.5162],[121.8289,24.5139],[121.8293,24.5074],[121.8256,24.5005],[121.8259,24.497],[121.8229,24.4925],[121.8193,24.4917],[121.8202,24.4831],[121.8196,24.4791],[121.8141,24.4718],[121.8108,24.4693],[121.8088,24.4702],[121.8071,24.468],[121.8034,24.4654],[121.7908,24.4618],[121.7876,24.4591],[121.7852,24.4593],[121.7808,24.4576],[121.7792,24.4552],[121.7818,24.4522],[121.7854,24.4467],[121.7873,24.4418],[121.791,24.4394],[121.7917,24.437],[121.7961,24.4323],[121.7993,24.4314],[121.8023,24.4356],[121.8138,24.4445],[121.8155,24.4478],[121.8216,24.4563],[121.8218,24.463],[121.825,24.4652],[121.8325,24.4681],[121.8349,24.4708],[121.838,24.4714],[121.8404,24.4749],[121.844,24.4776],[121.8469,24.4781],[121.8496,24.48],[121.8558,24.481],[121.8574,24.4796],[121.8612,24.48],[121.8615,24.4817],[121.859,24.4838],[121.8523,24.4838],[121.8505,24.4852],[121.8499,24.4931],[121.8486,24.4958],[121.8387,24.5002],[121.8382,24.508],[121.8395,24.5143],[121.8413,24.5192],[121.8429,24.5211],[121.8492,24.5221],[121.8572,24.5251],[121.8616,24.5277],[121.8655,24.5275],[121.872,24.5313],[121.8738,24.5346],[121.8722,24.5395],[121.8738,24.5458],[121.8724,24.5477],[121.8706,24.5552],[121.8704,24.5611],[121.871,24.5634],[121.8692,24.5704],[121.8702,24.5755],[121.8724,24.5783],[121.8776,24.5797],[121.8722,24.5843],[121.8754,24.5859],[121.881,24.5932],[121.8818,24.5978],[121.8837,24.6014],[121.8804,24.6054],[121.876,24.6055],[121.8731,24.6087],[121.87,24.6085],[121.8657,24.6094],[121.8634,24.6112],[121.8575,24.6181],[121.8538,24.6243],[121.8496,24.6326],[121.845,24.6447],[121.8358,24.6428],[121.8345,24.6459],[121.8316,24.6451],[121.8303,24.6486],[121.8255,24.6473],[121.8227,24.6539],[121.8188,24.6537],[121.8155,24.6546],[121.814,24.6515],[121.8164,24.6497],[121.8183,24.6444],[121.82,24.6424],[121.8223,24.6426],[121.8245,24.6402],[121.8259,24.6362],[121.8256,24.6328],[121.8227,24.6326],[121.8232,24.627],[121.8181,24.6265],[121.8167,24.6228],[121.8118,24.622],[121.8111,24.6187],[121.8116,24.6146],[121.8087,24.6112],[121.8084,24.6086],[121.8019,24.6089],[121.7998,24.6023],[121.7958,24.6013]]]},"properties":{"region_code":"CN-71-5172ACFEEB","parent_region_code":"CN-71-068512FC01","name":"苏澳镇","level":"county","has_children":false,"full_path":"中国 / 台湾省 / 宜兰县 / 苏澳镇","source_admin_code":null,"osm_relation_id":3598271}},
{"type":"Feature","geometry":{"type":"MultiPolygon","coordinates":[[[[121.9616,24.8356],[121.9638,24.8367],[121.9646,24.8392],[121.9624,24.84],[121.9597,24.8426],[121.9597,24.8454],[121.9562,24.8493],[121.9515,24.8509],[121.9484,24.8503],[121.9464,24.8482],[121.9436,24.8431],[121.9385,24.8441],[121.9418,24.8379],[121.9446,24.8378],[121.9477,24.8363],[121.9579,24.8372],[121.9616,24.8356]]],[[[121.8204,24.8073],[121.8232,24.8245],[121.8263,24.8387],[121.8305,24.8517],[121.8321,24.8554],[121.8337,24.8556],[121.8363,24.8593],[121.8387,24.8653],[121.8415,24.8664],[121.8431,24.8747],[121.8448,24.8792],[121.8487,24.8848],[121.8519,24.8913],[121.8579,24.8933],[121.8629,24.8981],[121.8642,24.9012],[121.8712,24.9044],[121.8724,24.9063],[121.8795,24.9137],[121.8823,24.9155],[121.885,24.9184],[121.884,24.9231],[121.8871,24.9257],[121.8871,24.9284],[121.8857,24.9303],[121.8863,24.9331],[121.8893,24.9372],[121.8937,24.9402],[121.897,24.9411],[121.8991,24.94],[121.9037,24.9406],[121.9044,24.9463],[121.9072,24.9474],[121.9106,24.9507],[121.9169,24.9522],[121.9194,24.9549],[121.9183,24.9576],[121.921,24.9598],[121.9237,24.9665],[121.9265,24.9695],[121.9358,24.9738],[121.9409,24.9738],[121.9483,24.9787],[121.9511,24.9792],[121.9564,24.9827],[121.9659,24.9833],[121.9628,24.9878],[121.9598,24.9884],[121.9581,24.9873],[121.9556,24.9883],[121.9504,24.9883],[121.948,24.9867],[121.944,24.988],[121.9406,24.9845],[121.9376,24.9831],[121.9345,24.9831],[121.934,24.9813],[121.9268,24.9802],[121.9223,24.9786],[121.9163,24.9795],[121.912,24.978],[121.9101,24.9748],[121.9068,24.9756],[121.9054,24.9734],[121.9028,24.9744],[121.9004,24.9718],[121.8973,24.9671],[121.8897,24.9648],[121.8886,24.9632],[121.8845,24.9644],[121.8823,24.9641],[121.8762,24.9615],[121.8718,24.9608],[121.8651,24.9622],[121.8613,24.9637],[121.8543,24.9615],[121.8526,24.9596],[121.8504,24.9612],[121.8472,24.9604],[121.8414,24.9542],[121.8418,24.9513],[121.8392,24.9463],[121.8398,24.9422],[121.8424,24.9394],[121.8466,24.9378],[121.8491,24.9303],[121.8538,24.9279],[121.8539,24.9256],[121.8521,24.9237],[121.8456,24.9194],[121.844,24.916],[121.8396,24.9127],[121.838,24.9101],[121.8318,24.9049],[121.8258,24.9053],[121.8224,24.9046],[121.8184,24.9027],[121.8117,24.9065],[121.8105,24.9037],[121.8061,24.9025],[121.8045,24.9012],[121.7963,24.901],[121.7925,24.9],[121.7926,24.8959],[121.79,24.8934],[121.7858,24.8925],[121.7854,24.8905],[121.7817,24.8895],[121.7823,24.8863],[121.7822,24.8792],[121.7849,24.8756],[121.7773,24.8697],[121.7743,24.8652],[121.7714,24.8649],[121.769,24.8659],[121.7643,24.8599],[121.7616,24.8598],[121.7611,24.8569],[121.7543,24.8564],[121.7537,24.8551],[121.7474,24.8537],[121.7529,24.8513],[121.7548,24.8519],[121.7583,24.8506],[121.7629,24.8525],[121.7653,24.8519],[121.7677,24.8546],[121.7727,24.8565],[121.7768,24.856],[121.7751,24.854],[121.7746,24.8508],[121.7765,24.8491],[121.7788,24.8448],[121.7839,24.8422],[121.7904,24.8355],[121.7903,24.8336],[121.7963,24.8302],[121.7969,24.828],[121.8011,24.826],[121.8056,24.8264],[121.8076,24.8257],[121.812,24.8274],[121.8141,24.8307],[121.817,24.8305],[121.8186,24.8319],[121.8205,24.8286],[121.8147,24.8197],[121.8143,24.8174],[121.8164,24.8131],[121.8158,24.8101],[121.8166,24.8077],[121.8204,24.8073]]]]},"properties":{"region_code":"CN-71-28EE329FE5","parent_region_code":"CN-71-068512FC01","name":"头城镇","level":"county","has_children":false,"full_path":"中国 / 台湾省 / 宜兰县 / 头城镇","source_admin_code":null,"osm_relation_id":3155555}},
{"type":"Feature","geometry":{"type":"Polygon","coordinates":[[[121.7511,24.6938],[121.7484,24.6931],[121.7452,24.691],[121.7407,24.6924],[121.7372,24.6909],[121.7332,24.6908],[121.7245,24.6848],[121.7238,24.6817],[121.7251,24.6774],[121.7225,24.6738],[121.7226,24.67],[121.7329,24.6696],[121.7292,24.6639],[121.7237,24.6521],[121.7225,24.6517],[121.7165,24.6538],[121.7147,24.6521],[121.7107,24.6509],[121.7076,24.6536],[121.7068,24.6575],[121.698,24.6586],[121.6944,24.6569],[121.6959,24.6543],[121.6982,24.6543],[121.7017,24.6526],[121.7025,24.6503],[121.706,24.6499],[121.7013,24.6413],[121.6954,24.6422],[121.6913,24.6419],[121.6879,24.6406],[121.6856,24.6385],[121.6798,24.6376],[121.6802,24.6357],[121.683,24.6324],[121.6872,24.6297],[121.6903,24.6285],[121.6921,24.6263],[121.6964,24.6267],[121.7033,24.6231],[121.707,24.6239],[121.7121,24.6183],[121.7154,24.6169],[121.7189,24.6177],[121.723,24.6171],[121.7244,24.6182],[121.7284,24.6209],[121.7338,24.6214],[121.736,24.62],[121.738,24.6163],[121.7429,24.619],[121.7457,24.6174],[121.7478,24.6129],[121.7458,24.6096],[121.7477,24.6083],[121.7504,24.6109],[121.7515,24.6133],[121.7512,24.6169],[121.755,24.6166],[121.7568,24.6189],[121.7659,24.616],[121.7665,24.6145],[121.7729,24.6115],[121.7752,24.6113],[121.7806,24.607],[121.7858,24.6039],[121.7868,24.6013],[121.7895,24.6012],[121.7933,24.5993],[121.7958,24.6013],[121.7998,24.6023],[121.8019,24.6089],[121.8084,24.6086],[121.8087,24.6112],[121.8116,24.6146],[121.8111,24.6187],[121.8118,24.622],[121.8167,24.6228],[121.8181,24.6265],[121.8232,24.627],[121.8227,24.6326],[121.8256,24.6328],[121.8259,24.6362],[121.8245,24.6402],[121.8223,24.6426],[121.82,24.6424],[121.8183,24.6444],[121.8164,24.6497],[121.814,24.6515],[121.8123,24.6526],[121.8127,24.6573],[121.814,24.6585],[121.8119,24.6627],[121.8121,24.6676],[121.8131,24.6691],[121.8109,24.6725],[121.8067,24.6721],[121.8061,24.6708],[121.8025,24.6703],[121.8011,24.67],[121.7998,24.664],[121.7941,24.6634],[121.7906,24.6659],[121.7838,24.6652],[121.7806,24.6654],[121.7761,24.6689],[121.7718,24.6676],[121.7685,24.6703],[121.766,24.668],[121.7631,24.6672],[121.7548,24.6669],[121.7537,24.6717],[121.7496,24.6728],[121.7486,24.6802],[121.7502,24.6835],[121.7516,24.6907],[121.7511,24.6938]]]},"properties":{"region_code":"CN-71-CFD27CB05F","parent_region_code":"CN-71-068512FC01","name":"冬山乡","level":"county","has_children":false,"full_path":"中国 / 台湾省 / 宜兰县 / 冬山乡","source_admin_code":null,"osm_relation_id":3480283}},
{"type":"Feature","geometry":{"type":"Polygon","coordinates":[[[121.7608,24.7166],[121.7569,24.7168],[121.7471,24.7185],[121.7426,24.7153],[121.7408,24.7125],[121.7407,24.7095],[121.7458,24.712],[121.7504,24.7101],[121.7566,24.7099],[121.7596,24.7111],[121.7617,24.7104],[121.7574,24.7068],[121.7618,24.701],[121.7648,24.6981],[121.7631,24.6927],[121.7657,24.6907],[121.7701,24.6901],[121.7709,24.6858],[121.7742,24.6857],[121.7762,24.6841],[121.7761,24.6808],[121.7804,24.6816],[121.7832,24.6781],[121.7852,24.6788],[121.799,24.6763],[121.8008,24.6711],[121.8025,24.6703],[121.8061,24.6708],[121.8067,24.6721],[121.8109,24.6725],[121.8131,24.6691],[121.8121,24.6676],[121.8119,24.6627],[121.814,24.6585],[121.8127,24.6573],[121.8123,24.6526],[121.814,24.6515],[121.8155,24.6546],[121.8188,24.6537],[121.8227,24.6539],[121.8255,24.6473],[121.8303,24.6486],[121.8316,24.6451],[121.8345,24.6459],[121.8358,24.6428],[121.845,24.6447],[121.8426,24.6515],[121.8397,24.6633],[121.8376,24.6761],[121.8366,24.6891],[121.8366,24.7013],[121.8372,24.7098],[121.8367,24.7138],[121.8348,24.7167],[121.8298,24.716],[121.8249,24.7162],[121.8183,24.713],[121.8122,24.7119],[121.8069,24.7124],[121.7987,24.7123],[121.7881,24.7134],[121.7795,24.7153],[121.7761,24.7147],[121.7696,24.7133],[121.7649,24.7137],[121.7608,24.7166]]]},"properties":{"region_code":"CN-71-AD74B9D082","parent_region_code":"CN-71-068512FC01","name":"五结乡","level":"county","has_children":false,"full_path":"中国 / 台湾省 / 宜兰县 / 五结乡","source_admin_code":null,"osm_relation_id":3168157}},
{"type":"Feature","geometry":{"type":"Polygon","coordinates":[[[121.772,24.7715],[121.7751,24.7717],[121.7721,24.7762],[121.7764,24.7787],[121.7789,24.7784],[121.7805,24.781],[121.781,24.7846],[121.7835,24.7845],[121.7841,24.7872],[121.7878,24.7858],[121.7942,24.7957],[121.8027,24.7937],[121.8047,24.7938],[121.8098,24.7991],[121.8084,24.8024],[121.8112,24.808],[121.8166,24.8077],[121.8158,24.8101],[121.8164,24.8131],[121.8143,24.8174],[121.8147,24.8197],[121.8205,24.8286],[121.8186,24.8319],[121.817,24.8305],[121.8141,24.8307],[121.812,24.8274],[121.8076,24.8257],[121.8056,24.8264],[121.8011,24.826],[121.7969,24.828],[121.7963,24.8302],[121.7903,24.8336],[121.7904,24.8355],[121.7839,24.8422],[121.7788,24.8448],[121.7765,24.8491],[121.7746,24.8508],[121.7751,24.854],[121.7768,24.856],[121.7727,24.8565],[121.7677,24.8546],[121.7653,24.8519],[121.7629,24.8525],[121.7583,24.8506],[121.7548,24.8519],[121.7529,24.8513],[121.7474,24.8537],[121.742,24.8525],[121.7383,24.8553],[121.7326,24.8558],[121.7272,24.8531],[121.725,24.8507],[121.7219,24.8499],[121.7187,24.8457],[121.7157,24.8444],[121.7143,24.8418],[121.709,24.8406],[121.7033,24.8352],[121.7011,24.8344],[121.6991,24.8355],[121.6967,24.8346],[121.6964,24.8305],[121.6919,24.8272],[121.6888,24.8261],[121.6877,24.8243],[121.6901,24.8214],[121.6893,24.8173],[121.6834,24.8169],[121.6806,24.8175],[121.6772,24.8141],[121.6742,24.8141],[121.6711,24.8168],[121.6686,24.8168],[121.6602,24.8111],[121.6543,24.8111],[121.6475,24.8139],[121.6461,24.8101],[121.6444,24.8092],[121.6388,24.8107],[121.6372,24.8094],[121.626,24.8088],[121.6261,24.8033],[121.6248,24.8011],[121.626,24.7967],[121.6236,24.7944],[121.6266,24.7939],[121.6306,24.7957],[121.6364,24.795],[121.6393,24.7959],[121.6415,24.7943],[121.649,24.795],[121.6582,24.7918],[121.6603,24.7896],[121.6626,24.7893],[121.6671,24.7874],[121.6735,24.7837],[121.6806,24.7842],[121.6855,24.7851],[121.692,24.7833],[121.7013,24.7825],[121.7081,24.7798],[121.7134,24.7803],[121.7178,24.7792],[121.7182,24.7782],[121.7263,24.7747],[121.7337,24.7685],[121.7347,24.7719],[121.7335,24.7757],[121.7304,24.78],[121.7303,24.7844],[121.7321,24.7845],[121.7361,24.7821],[121.7382,24.7821],[121.7433,24.7772],[121.7497,24.7811],[121.7562,24.7802],[121.761,24.7829],[121.7621,24.7797],[121.7674,24.7721],[121.772,24.7715]]]},"properties":{"region_code":"CN-71-A9F8FE44C1","parent_region_code":"CN-71-068512FC01","name":"礁溪乡","level":"county","has_children":false,"full_path":"中国 / 台湾省 / 宜兰县 / 礁溪乡","source_admin_code":null,"osm_relation_id":3155554}},
{"type":"Feature","geometry":{"type":"Polygon","coordinates":[[[121.7337,24.7685],[121.7263,24.7747],[121.7182,24.7782],[121.7178,24.7792],[121.7134,24.7803],[121.7081,24.7798],[121.7013,24.7825],[121.692,24.7833],[121.6855,24.7851],[121.6806,24.7842],[121.6735,24.7837],[121.6671,24.7874],[121.6626,24.7893],[121.6603,24.7896],[121.6582,24.7918],[121.649,24.795],[121.6415,24.7943],[121.6393,24.7959],[121.6364,24.795],[121.6306,24.7957],[121.6266,24.7939],[121.6236,24.7944],[121.6205,24.7926],[121.6172,24.7938],[121.6133,24.7932],[121.6096,24.7938],[121.6056,24.7891],[121.6029,24.7894],[121.599,24.7877],[121.5935,24.7873],[121.5932,24.7824],[121.5976,24.7726],[121.5958,24.7696],[121.5963,24.7671],[121.5935,24.7648],[121.5907,24.7612],[121.5909,24.7588],[121.589,24.7551],[121.5907,24.751],[121.5945,24.7502],[121.5962,24.7482],[121.5926,24.7459],[121.592,24.7432],[121.595,24.7409],[121.5954,24.7391],[121.5943,24.7346],[121.5943,24.7292],[121.5974,24.7275],[121.5907,24.7237],[121.587,24.7201],[121.5882,24.716],[121.5897,24.715],[121.5951,24.7088],[121.6071,24.7022],[121.6115,24.7013],[121.614,24.6961],[121.6182,24.6942],[121.6267,24.6871],[121.6272,24.6847],[121.6228,24.6816],[121.6249,24.6807],[121.6312,24.6803],[121.633,24.6822],[121.6376,24.6834],[121.6425,24.6875],[121.6438,24.6903],[121.6494,24.6937],[121.6518,24.6982],[121.6629,24.704],[121.6718,24.7046],[121.6786,24.7006],[121.681,24.7009],[121.6958,24.7012],[121.7018,24.702],[121.7044,24.7012],[121.7126,24.7002],[121.7161,24.7006],[121.726,24.7032],[121.7287,24.705],[121.7362,24.7083],[121.7407,24.7095],[121.7408,24.7125],[121.7426,24.7153],[121.7471,24.7185],[121.7569,24.7168],[121.7608,24.7166],[121.762,24.7179],[121.7581,24.7232],[121.7561,24.7236],[121.751,24.7221],[121.7468,24.7226],[121.7379,24.7266],[121.7348,24.7244],[121.7334,24.7303],[121.7364,24.7325],[121.7337,24.7348],[121.7369,24.7379],[121.738,24.7412],[121.7416,24.7441],[121.7344,24.7463],[121.728,24.7515],[121.7295,24.753],[121.7271,24.7551],[121.7292,24.7569],[121.7315,24.7622],[121.7325,24.7671],[121.7337,24.7685]]]},"properties":{"region_code":"CN-71-96C75384A7","parent_region_code":"CN-71-068512FC01","name":"员山乡","level":"county","has_children":false,"full_path":"中国 / 台湾省 / 宜兰县 / 员山乡","source_admin_code":null,"osm_relation_id":3155551}},
{"type":"Feature","geometry":{"type":"Polygon","coordinates":[[[121.7761,24.7147],[121.7795,24.7153],[121.7881,24.7134],[121.7987,24.7123],[121.8069,24.7124],[121.8122,24.7119],[121.8183,24.713],[121.8249,24.7162],[121.8298,24.716],[121.8348,24.7167],[121.826,24.7323],[121.8231,24.7399],[121.8211,24.7467],[121.8187,24.7613],[121.8181,24.768],[121.8177,24.779],[121.8184,24.7909],[121.8204,24.8073],[121.8166,24.8077],[121.8112,24.808],[121.8084,24.8024],[121.8098,24.7991],[121.8047,24.7938],[121.8027,24.7937],[121.7942,24.7957],[121.7878,24.7858],[121.7841,24.7872],[121.7835,24.7845],[121.781,24.7846],[121.7805,24.781],[121.7789,24.7784],[121.7764,24.7787],[121.7721,24.7762],[121.7751,24.7717],[121.772,24.7715],[121.7707,24.7699],[121.7724,24.7666],[121.7766,24.7685],[121.7816,24.764],[121.7856,24.764],[121.7884,24.7588],[121.7884,24.7563],[121.7857,24.7555],[121.7886,24.7528],[121.7832,24.7487],[121.7838,24.7424],[121.7853,24.7388],[121.779,24.739],[121.7757,24.7355],[121.7756,24.7291],[121.7733,24.7192],[121.774,24.7159],[121.7761,24.7147]]]},"properties":{"region_code":"CN-71-116CDA7CEC","parent_region_code":"CN-71-068512FC01","name":"壮围乡","level":"county","has_children":false,"full_path":"中国 / 台湾省 / 宜兰县 / 壮围乡","source_admin_code":null,"osm_relation_id":3155552}},
{"type":"Feature","geometry":{"type":"Polygon","coordinates":[[[121.7574,24.7068],[121.7617,24.7104],[121.7596,24.7111],[121.7566,24.7099],[121.7504,24.7101],[121.7458,24.712],[121.7407,24.7095],[121.7362,24.7083],[121.7287,24.705],[121.726,24.7032],[121.7161,24.7006],[121.7126,24.7002],[121.7044,24.7012],[121.7018,24.702],[121.6958,24.7012],[121.681,24.7009],[121.6786,24.7006],[121.6718,24.7046],[121.6629,24.704],[121.6518,24.6982],[121.6494,24.6937],[121.6438,24.6903],[121.6425,24.6875],[121.6376,24.6834],[121.633,24.6822],[121.6312,24.6803],[121.6249,24.6807],[121.6228,24.6816],[121.6165,24.6776],[121.615,24.6758],[121.6107,24.6733],[121.6063,24.6721],[121.602,24.6683],[121.5943,24.6655],[121.5882,24.6611],[121.5866,24.6573],[121.5824,24.6555],[121.5736,24.648],[121.5687,24.6481],[121.5666,24.647],[121.5645,24.6421],[121.566,24.6406],[121.5687,24.6415],[121.5704,24.6388],[121.5743,24.6393],[121.5781,24.637],[121.581,24.6382],[121.5863,24.6382],[121.5893,24.6395],[121.5961,24.6318],[121.6011,24.6314],[121.6037,24.6346],[121.6078,24.6365],[121.6127,24.6345],[121.6193,24.6294],[121.6239,24.6252],[121.6249,24.6286],[121.6248,24.6337],[121.6287,24.6388],[121.6307,24.638],[121.6364,24.6375],[121.6389,24.6394],[121.6456,24.6388],[121.6473,24.6361],[121.656,24.6363],[121.6594,24.6382],[121.663,24.6363],[121.6665,24.6368],[121.6728,24.6358],[121.6759,24.6378],[121.6798,24.6376],[121.6856,24.6385],[121.6879,24.6406],[121.6913,24.6419],[121.6954,24.6422],[121.7013,24.6413],[121.706,24.6499],[121.7025,24.6503],[121.7017,24.6526],[121.6982,24.6543],[121.6959,24.6543],[121.6944,24.6569],[121.698,24.6586],[121.7068,24.6575],[121.7076,24.6536],[121.7107,24.6509],[121.7147,24.6521],[121.7165,24.6538],[121.7225,24.6517],[121.7237,24.6521],[121.7292,24.6639],[121.7329,24.6696],[121.7226,24.67],[121.7225,24.6738],[121.7251,24.6774],[121.7238,24.6817],[121.7245,24.6848],[121.7332,24.6908],[121.7372,24.6909],[121.7407,24.6924],[121.7452,24.691],[121.7484,24.6931],[121.7511,24.6938],[121.7537,24.6938],[121.7553,24.7035],[121.7574,24.7068]]]},"properties":{"region_code":"CN-71-E2B999FA19","parent_region_code":"CN-71-068512FC01","name":"三星乡","level":"county","has_children":false,"full_path":"中国 / 台湾省 / 宜兰县 / 三星乡","source_admin_code":null,"osm_relation_id":3476824}},
{"type":"Feature","geometry":{"type":"Polygon","coordinates":[[[121.6798,24.6376],[121.6759,24.6378],[121.6728,24.6358],[121.6665,24.6368],[121.663,24.6363],[121.6594,24.6382],[121.656,24.6363],[121.6473,24.6361],[121.6456,24.6388],[121.6389,24.6394],[121.6364,24.6375],[121.6307,24.638],[121.6287,24.6388],[121.6248,24.6337],[121.6249,24.6286],[121.6239,24.6252],[121.6193,24.6294],[121.6127,24.6345],[121.6078,24.6365],[121.6037,24.6346],[121.6011,24.6314],[121.5961,24.6318],[121.5893,24.6395],[121.5863,24.6382],[121.581,24.6382],[121.5781,24.637],[121.5743,24.6393],[121.5704,24.6388],[121.5687,24.6415],[121.566,24.6406],[121.5645,24.6421],[121.5666,24.647],[121.5687,24.6481],[121.5736,24.648],[121.5824,24.6555],[121.5866,24.6573],[121.5882,24.6611],[121.5943,24.6655],[121.602,24.6683],[121.6063,24.6721],[121.6107,24.6733],[121.615,24.6758],[121.6165,24.6776],[121.6228,24.6816],[121.6272,24.6847],[121.6267,24.6871],[121.6182,24.6942],[121.614,24.6961],[121.6115,24.7013],[121.6071,24.7022],[121.5951,24.7088],[121.5897,24.715],[121.5882,24.716],[121.587,24.7201],[121.5834,24.7206],[121.5794,24.7224],[121.5775,24.7203],[121.5772,24.7148],[121.5755,24.7109],[121.5721,24.7107],[121.5705,24.7139],[121.5675,24.7115],[121.562,24.7127],[121.5558,24.7107],[121.5538,24.7079],[121.5503,24.7057],[121.5466,24.7062],[121.5436,24.7057],[121.5378,24.6997],[121.5386,24.698],[121.5377,24.6941],[121.5375,24.69],[121.5363,24.6883],[121.529,24.6877],[121.5238,24.6833],[121.5148,24.6832],[121.5116,24.6843],[121.5072,24.6822],[121.505,24.6795],[121.499,24.6779],[121.4966,24.6753],[121.4926,24.6732],[121.487,24.6752],[121.485,24.6739],[121.482,24.6743],[121.4724,24.6731],[121.4693,24.6719],[121.4612,24.6727],[121.4597,24.6733],[121.4552,24.6682],[121.4539,24.6643],[121.4496,24.6623],[121.4477,24.6583],[121.4489,24.6531],[121.4513,24.651],[121.4484,24.6457],[121.4449,24.6428],[121.4454,24.6381],[121.4444,24.6368],[121.4404,24.635],[121.4359,24.6271],[121.4349,24.6243],[121.4356,24.6217],[121.4335,24.6188],[121.4323,24.6153],[121.4306,24.6145],[121.4279,24.6062],[121.4244,24.603],[121.418,24.6011],[121.4134,24.6034],[121.412,24.6006],[121.409,24.5994],[121.4034,24.5926],[121.4033,24.5902],[121.4052,24.5868],[121.4102,24.5794],[121.4121,24.573],[121.4073,24.5699],[121.4038,24.5689],[121.4013,24.5646],[121.4007,24.5616],[121.3977,24.5598],[121.395,24.5562],[121.3955,24.5528],[121.3988,24.5482],[121.3969,24.5414],[121.3989,24.5324],[121.4017,24.5294],[121.3977,24.5248],[121.3935,24.5246],[121.3906,24.5229],[121.3878,24.5172],[121.3851,24.5168],[121.3852,24.5132],[121.3835,24.5101],[121.3792,24.5095],[121.3732,24.5095],[121.3725,24.5021],[121.3712,24.4983],[121.3647,24.4956],[121.3616,24.4904],[121.3572,24.4863],[121.3499,24.4843],[121.3472,24.4848],[121.3427,24.4821],[121.34,24.4748],[121.3356,24.4716],[121.3361,24.4674],[121.33,24.4644],[121.3295,24.4625],[121.3265,24.4605],[121.3239,24.4569],[121.3204,24.4485],[121.3196,24.4451],[121.3177,24.4415],[121.3201,24.4411],[121.327,24.4343],[121.3268,24.4305],[121.3277,24.4279],[121.3265,24.4218],[121.3269,24.4182],[121.3257,24.4099],[121.3241,24.4074],[121.3251,24.4018],[121.3269,24.3986],[121.3313,24.3983],[121.3322,24.396],[121.3361,24.3927],[121.3376,24.3904],[121.3419,24.393],[121.3452,24.3933],[121.3514,24.3925],[121.3546,24.3935],[121.3583,24.3909],[121.364,24.3895],[121.3675,24.386],[121.3688,24.3823],[121.3665,24.3788],[121.3685,24.375],[121.3686,24.3727],[121.3727,24.3687],[121.3764,24.3689],[121.3812,24.3675],[121.3871,24.3705],[121.389,24.3756],[121.3919,24.3756],[121.3951,24.3785],[121.3973,24.3782],[121.4009,24.3801],[121.4036,24.3782],[121.4079,24.3787],[121.4124,24.3804],[121.4189,24.3798],[121.421,24.3815],[121.4248,24.3821],[121.4284,24.3836],[121.4332,24.3839],[121.4373,24.3833],[121.4384,24.3855],[121.4388,24.392],[121.443,24.3959],[121.4433,24.3986],[121.4418,24.4005],[121.4433,24.4041],[121.4474,24.4089],[121.4497,24.4096],[121.4581,24.4146],[121.4581,24.4198],[121.4589,24.4237],[121.4589,24.4293],[121.4685,24.4366],[121.4712,24.4423],[121.476,24.4427],[121.4786,24.4452],[121.4812,24.4495],[121.4842,24.4531],[121.493,24.4563],[121.4964,24.4584],[121.4986,24.4578],[121.5054,24.4586],[121.5075,24.4574],[121.5125,24.4573],[121.5151,24.4582],[121.5197,24.4575],[121.5206,24.4586],[121.5302,24.4611],[121.5351,24.461],[121.5454,24.4635],[121.548,24.4623],[121.555,24.4617],[121.5582,24.4594],[121.5688,24.4587],[121.5741,24.4596],[121.577,24.455],[121.5823,24.454],[121.5834,24.4565],[121.5862,24.4576],[121.5874,24.4613],[121.5851,24.4647],[121.5866,24.4699],[121.5885,24.4705],[121.5923,24.4668],[121.5971,24.4653],[121.6061,24.4639],[121.6095,24.4643],[121.6132,24.4634],[121.6147,24.4619],[121.6179,24.4629],[121.6188,24.4669],[121.6215,24.4675],[121.6206,24.4715],[121.6214,24.4776],[121.6249,24.4819],[121.624,24.4863],[121.6262,24.4881],[121.629,24.4921],[121.6308,24.498],[121.6346,24.4992],[121.6365,24.5022],[121.6395,24.5032],[121.6475,24.5033],[121.6547,24.5099],[121.6566,24.511],[121.6581,24.5205],[121.6594,24.5236],[121.6618,24.525],[121.6636,24.5335],[121.6635,24.5373],[121.666,24.546],[121.6653,24.5494],[121.6673,24.5527],[121.6684,24.5572],[121.6665,24.5578],[121.6662,24.5616],[121.6727,24.561],[121.6763,24.5616],[121.6797,24.561],[121.6847,24.5644],[121.6851,24.5663],[121.6878,24.5699],[121.6887,24.5732],[121.6982,24.579],[121.7022,24.5794],[121.7047,24.5811],[121.711,24.5757],[121.7147,24.5744],[121.7154,24.5729],[121.7189,24.5722],[121.7223,24.5748],[121.7236,24.5773],[121.7255,24.5761],[121.7267,24.5727],[121.7308,24.5702],[121.7357,24.5662],[121.7437,24.5677],[121.7479,24.5655],[121.7493,24.5694],[121.752,24.5723],[121.7546,24.5722],[121.7563,24.574],[121.7595,24.5735],[121.7622,24.577],[121.7587,24.5818],[121.7569,24.5812],[121.7525,24.5821],[121.7474,24.5851],[121.7438,24.5882],[121.7399,24.5894],[121.7366,24.5916],[121.7344,24.5918],[121.7318,24.5976],[121.7318,24.5995],[121.7273,24.603],[121.7239,24.6085],[121.7256,24.6118],[121.7244,24.6182],[121.723,24.6171],[121.7189,24.6177],[121.7154,24.6169],[121.7121,24.6183],[121.707,24.6239],[121.7033,24.6231],[121.6964,24.6267],[121.6921,24.6263],[121.6903,24.6285],[121.6872,24.6297],[121.683,24.6324],[121.6802,24.6357],[121.6798,24.6376]]]},"properties":{"region_code":"CN-71-10E86FAA16","parent_region_code":"CN-71-068512FC01","name":"大同乡","level":"county","has_children":false,"full_path":"中国 / 台湾省 / 宜兰县 / 大同乡","source_admin_code":null,"osm_relation_id":3476768}},
{"type":"Feature","geometry":{"type":"Polygon","coordinates":[[[121.7958,24.6013],[121.7933,24.5993],[121.7895,24.6012],[121.7868,24.6013],[121.7858,24.6039],[121.7806,24.607],[121.7752,24.6113],[121.7729,24.6115],[121.7665,24.6145],[121.7659,24.616],[121.7568,24.6189],[121.755,24.6166],[121.7512,24.6169],[121.7515,24.6133],[121.7504,24.6109],[121.7477,24.6083],[121.7458,24.6096],[121.7478,24.6129],[121.7457,24.6174],[121.7429,24.619],[121.738,24.6163],[121.736,24.62],[121.7338,24.6214],[121.7284,24.6209],[121.7244,24.6182],[121.7256,24.6118],[121.7239,24.6085],[121.7273,24.603],[121.7318,24.5995],[121.7318,24.5976],[121.7344,24.5918],[121.7366,24.5916],[121.7399,24.5894],[121.7438,24.5882],[121.7474,24.5851],[121.7525,24.5821],[121.7569,24.5812],[121.7587,24.5818],[121.7622,24.577],[121.7595,24.5735],[121.7563,24.574],[121.7546,24.5722],[121.752,24.5723],[121.7493,24.5694],[121.7479,24.5655],[121.7437,24.5677],[121.7357,24.5662],[121.7308,24.5702],[121.7267,24.5727],[121.7255,24.5761],[121.7236,24.5773],[121.7223,24.5748],[121.7189,24.5722],[121.7154,24.5729],[121.7147,24.5744],[121.711,24.5757],[121.7047,24.5811],[121.7022,24.5794],[121.6982,24.579],[121.6887,24.5732],[121.6878,24.5699],[121.6851,24.5663],[121.6847,24.5644],[121.6797,24.561],[121.6763,24.5616],[121.6727,24.561],[121.6662,24.5616],[121.6665,24.5578],[121.6684,24.5572],[121.6673,24.5527],[121.6653,24.5494],[121.666,24.546],[121.6635,24.5373],[121.6636,24.5335],[121.6618,24.525],[121.6594,24.5236],[121.6581,24.5205],[121.6566,24.511],[121.6547,24.5099],[121.6475,24.5033],[121.6395,24.5032],[121.6365,24.5022],[121.6346,24.4992],[121.6308,24.498],[121.629,24.4921],[121.6262,24.4881],[121.624,24.4863],[121.6249,24.4819],[121.6214,24.4776],[121.6206,24.4715],[121.6215,24.4675],[121.6188,24.4669],[121.6179,24.4629],[121.6147,24.4619],[121.6132,24.4634],[121.6095,24.4643],[121.6061,24.4639],[121.5971,24.4653],[121.5923,24.4668],[121.5885,24.4705],[121.5866,24.4699],[121.5851,24.4647],[121.5874,24.4613],[121.5862,24.4576],[121.5834,24.4565],[121.5823,24.454],[121.577,24.455],[121.5741,24.4596],[121.5688,24.4587],[121.5582,24.4594],[121.555,24.4617],[121.548,24.4623],[121.5454,24.4635],[121.5351,24.461],[121.5302,24.4611],[121.5206,24.4586],[121.5197,24.4575],[121.5151,24.4582],[121.5125,24.4573],[121.5075,24.4574],[121.5054,24.4586],[121.4986,24.4578],[121.4964,24.4584],[121.493,24.4563],[121.4842,24.4531],[121.4812,24.4495],[121.4786,24.4452],[121.476,24.4427],[121.4712,24.4423],[121.4685,24.4366],[121.4589,24.4293],[121.4589,24.4237],[121.4581,24.4198],[121.4581,24.4146],[121.4497,24.4096],[121.4474,24.4089],[121.4433,24.4041],[121.4418,24.4005],[121.4433,24.3986],[121.443,24.3959],[121.4388,24.392],[121.4384,24.3855],[121.4373,24.3833],[121.4419,24.3738],[121.4434,24.3748],[121.4471,24.374],[121.451,24.3655],[121.4531,24.3645],[121.4613,24.3579],[121.4651,24.3555],[121.4731,24.3527],[121.4751,24.3513],[121.4788,24.352],[121.4809,24.3492],[121.4857,24.3481],[121.4904,24.3444],[121.4922,24.3421],[121.4983,24.3392],[121.5043,24.343],[121.5077,24.3432],[121.51,24.3411],[121.5175,24.341],[121.5218,24.343],[121.5255,24.3422],[121.5277,24.3392],[121.531,24.3385],[121.5334,24.337],[121.5356,24.3374],[121.5404,24.336],[121.5442,24.3378],[121.5483,24.3364],[121.5566,24.3305],[121.5578,24.3259],[121.5602,24.3227],[121.5634,24.3222],[121.5663,24.3193],[121.5717,24.3181],[121.5753,24.3197],[121.5788,24.3181],[121.582,24.3179],[121.5883,24.3156],[121.5893,24.3138],[121.5937,24.3164],[121.5967,24.3164],[121.6008,24.3149],[121.6053,24.3103],[121.6069,24.313],[121.6053,24.3152],[121.6047,24.3182],[121.6013,24.3203],[121.6009,24.3239],[121.5966,24.3282],[121.5957,24.3316],[121.5967,24.3333],[121.5994,24.3335],[121.6004,24.3314],[121.6038,24.3291],[121.6064,24.3302],[121.6078,24.3355],[121.6131,24.3356],[121.6152,24.3333],[121.6185,24.3345],[121.6161,24.3374],[121.6166,24.3408],[121.6181,24.3449],[121.6204,24.3452],[121.6227,24.3395],[121.6261,24.3403],[121.6279,24.3385],[121.6266,24.3363],[121.6286,24.3337],[121.633,24.3351],[121.6329,24.3399],[121.6315,24.3422],[121.6318,24.3445],[121.6346,24.3445],[121.6358,24.3463],[121.6347,24.3486],[121.6269,24.3495],[121.6264,24.3547],[121.6222,24.3567],[121.6208,24.3626],[121.6216,24.3664],[121.626,24.3692],[121.6305,24.3705],[121.6312,24.366],[121.6341,24.3665],[121.6348,24.364],[121.6373,24.3631],[121.6404,24.3593],[121.64,24.3581],[121.6438,24.3536],[121.6486,24.3496],[121.6507,24.351],[121.65,24.3549],[121.6478,24.3578],[121.6509,24.3597],[121.6538,24.3556],[121.6533,24.3525],[121.6575,24.3529],[121.6605,24.3513],[121.6633,24.3527],[121.664,24.3491],[121.6665,24.3475],[121.6694,24.3429],[121.6729,24.3438],[121.6735,24.3398],[121.6759,24.3375],[121.6838,24.3407],[121.6869,24.3388],[121.6872,24.3351],[121.6886,24.3336],[121.6936,24.3349],[121.6976,24.3342],[121.7055,24.3295],[121.7135,24.3269],[121.7235,24.3255],[121.7288,24.3257],[121.735,24.3231],[121.74,24.3236],[121.7445,24.3229],[121.7591,24.3142],[121.7696,24.3132],[121.7738,24.3145],[121.7738,24.3165],[121.7708,24.3317],[121.7715,24.3391],[121.7777,24.3545],[121.7804,24.3599],[121.7825,24.3629],[121.7844,24.3696],[121.7872,24.3735],[121.7874,24.3846],[121.7882,24.3895],[121.7884,24.3956],[121.7894,24.4034],[121.7932,24.4167],[121.7993,24.4314],[121.7961,24.4323],[121.7917,24.437],[121.791,24.4394],[121.7873,24.4418],[121.7854,24.4467],[121.7818,24.4522],[121.7792,24.4552],[121.7808,24.4576],[121.7852,24.4593],[121.7876,24.4591],[121.7908,24.4618],[121.8034,24.4654],[121.8071,24.468],[121.8088,24.4702],[121.8108,24.4693],[121.8141,24.4718],[121.8196,24.4791],[121.8202,24.4831],[121.8193,24.4917],[121.8229,24.4925],[121.8259,24.497],[121.8256,24.5005],[121.8293,24.5074],[121.8289,24.5139],[121.8297,24.5162],[121.8355,24.5227],[121.838,24.5279],[121.8406,24.5302],[121.8465,24.5314],[121.8489,24.537],[121.8455,24.5392],[121.8437,24.5426],[121.8396,24.5432],[121.8348,24.5507],[121.8313,24.5526],[121.8265,24.5525],[121.8233,24.5513],[121.8187,24.5534],[121.8147,24.559],[121.814,24.5674],[121.8144,24.573],[121.8129,24.5762],[121.8149,24.5803],[121.8126,24.5828],[121.8111,24.5869],[121.8074,24.5896],[121.8073,24.5922],[121.8002,24.5954],[121.7983,24.5996],[121.7958,24.6013]]]},"properties":{"region_code":"CN-71-9C1F6950AF","parent_region_code":"CN-71-068512FC01","name":"南澳乡","level":"county","has_children":false,"full_path":"中国 / 台湾省 / 宜兰县 / 南澳乡","source_admin_code":null,"osm_relation_id":3449050}}
]}