{"type":"FeatureCollection", "features": [
{"type":"Feature","geometry":{"type":"Polygon","coordinates":[[[120.29,23.4781],[120.2914,23.4815],[120.2848,23.4863],[120.2842,23.4907],[120.2753,23.4914],[120.2655,23.4882],[120.2617,23.4851],[120.2618,23.4781],[120.2558,23.4776],[120.2534,23.4711],[120.2507,23.4704],[120.2473,23.4743],[120.2436,23.4761],[120.2407,23.4758],[120.2384,23.4734],[120.2383,23.4695],[120.2303,23.4673],[120.2263,23.4691],[120.2264,23.4636],[120.2218,23.4629],[120.2217,23.4598],[120.2153,23.4555],[120.2112,23.456],[120.2102,23.4539],[120.2062,23.4529],[120.2095,23.4462],[120.2137,23.4426],[120.218,23.4406],[120.221,23.437],[120.2196,23.434],[120.2195,23.4287],[120.218,23.4268],[120.2185,23.4234],[120.2231,23.4201],[120.2247,23.422],[120.2282,23.4188],[120.2369,23.4241],[120.2376,23.4164],[120.2338,23.4092],[120.2358,23.4076],[120.2429,23.4028],[120.2436,23.4001],[120.2469,23.3978],[120.2581,23.3946],[120.2597,23.4039],[120.2629,23.408],[120.2674,23.409],[120.2674,23.4174],[120.2722,23.4225],[120.2737,23.4186],[120.2769,23.4184],[120.28,23.4216],[120.2832,23.4265],[120.2818,23.4273],[120.282,23.4324],[120.2774,23.4313],[120.2697,23.431],[120.2697,23.4478],[120.2756,23.4482],[120.2813,23.4499],[120.2809,23.4465],[120.2853,23.4443],[120.2894,23.4434],[120.2913,23.4456],[120.2923,23.4487],[120.2895,23.4525],[120.2947,23.4668],[120.2895,23.4677],[120.2903,23.4732],[120.29,23.4781]]]},"properties":{"region_code":"CN-71-E24AD3220C","parent_region_code":"CN-71-6F11402DB0","name":"朴子市","level":"county","has_children":false,"full_path":"中国 / 台湾省 / 嘉义县 / 朴子市","source_admin_code":null,"osm_relation_id":2850256}},
{"type":"Feature","geometry":{"type":"Polygon","coordinates":[[[120.2913,23.4456],[120.2915,23.4377],[120.293,23.4345],[120.3032,23.4363],[120.3077,23.4365],[120.3114,23.4382],[120.3143,23.4372],[120.3202,23.4372],[120.3244,23.4345],[120.3314,23.433],[120.334,23.4298],[120.3387,23.4302],[120.3424,23.4289],[120.3511,23.4313],[120.3537,23.4304],[120.356,23.4345],[120.3536,23.4353],[120.3549,23.4421],[120.3518,23.4439],[120.3539,23.4494],[120.3511,23.4524],[120.3582,23.4549],[120.3556,23.4588],[120.362,23.4611],[120.3742,23.4632],[120.3791,23.4646],[120.3801,23.4586],[120.3843,23.4584],[120.3844,23.4613],[120.3897,23.4625],[120.3941,23.4625],[120.3942,23.4664],[120.3993,23.471],[120.3988,23.478],[120.3944,23.4808],[120.3933,23.4837],[120.3947,23.4907],[120.3898,23.4914],[120.3892,23.4972],[120.39,23.4994],[120.395,23.5008],[120.3993,23.4988],[120.401,23.5019],[120.4058,23.5038],[120.4088,23.5066],[120.4071,23.5106],[120.4041,23.5111],[120.3931,23.5066],[120.3889,23.5071],[120.3879,23.5091],[120.3888,23.516],[120.3802,23.5147],[120.3779,23.5053],[120.3711,23.5021],[120.3682,23.5048],[120.368,23.5095],[120.3642,23.514],[120.3607,23.5124],[120.3564,23.5126],[120.3532,23.5101],[120.3511,23.505],[120.3469,23.5063],[120.3426,23.5057],[120.3347,23.5083],[120.3259,23.5058],[120.3203,23.4999],[120.3138,23.5004],[120.3138,23.4978],[120.3201,23.4951],[120.3208,23.4934],[120.3146,23.4888],[120.3149,23.4832],[120.3079,23.4756],[120.3035,23.4788],[120.29,23.4781],[120.2903,23.4732],[120.2895,23.4677],[120.2947,23.4668],[120.2895,23.4525],[120.2923,23.4487],[120.2913,23.4456]]]},"properties":{"region_code":"CN-71-85B1283C99","parent_region_code":"CN-71-6F11402DB0","name":"太保市","level":"county","has_children":false,"full_path":"中国 / 台湾省 / 嘉义县 / 太保市","source_admin_code":null,"osm_relation_id":2848200}},
{"type":"Feature","geometry":{"type":"Polygon","coordinates":[[[120.5334,23.5968],[120.5295,23.5998],[120.5281,23.6028],[120.5176,23.6111],[120.515,23.6152],[120.5103,23.6193],[120.5064,23.6262],[120.5077,23.6303],[120.5038,23.6353],[120.4993,23.6351],[120.4934,23.6331],[120.4891,23.6359],[120.4881,23.6315],[120.4859,23.6306],[120.4787,23.6327],[120.4775,23.6299],[120.4737,23.631],[120.4603,23.6293],[120.454,23.6263],[120.4528,23.6308],[120.45,23.6294],[120.4446,23.6305],[120.4411,23.6259],[120.4318,23.6215],[120.4299,23.6184],[120.425,23.618],[120.4223,23.6191],[120.4201,23.6252],[120.4168,23.6228],[120.4138,23.6224],[120.4143,23.6188],[120.411,23.6139],[120.4071,23.6114],[120.4052,23.6073],[120.4077,23.6063],[120.4081,23.6022],[120.4147,23.6015],[120.4169,23.6052],[120.4244,23.6058],[120.4275,23.6048],[120.4263,23.6004],[120.4259,23.5937],[120.4303,23.5913],[120.437,23.5917],[120.445,23.5944],[120.4487,23.5933],[120.4491,23.5894],[120.4538,23.5873],[120.4561,23.5825],[120.4587,23.5784],[120.4644,23.5826],[120.4699,23.5809],[120.4695,23.5765],[120.4747,23.5766],[120.4768,23.5748],[120.4817,23.5675],[120.4838,23.5662],[120.4902,23.5682],[120.4947,23.567],[120.4957,23.564],[120.502,23.5641],[120.5019,23.5604],[120.4995,23.5573],[120.5071,23.5549],[120.5091,23.5574],[120.5124,23.5559],[120.5105,23.5509],[120.5164,23.5516],[120.5192,23.555],[120.5188,23.557],[120.5273,23.5615],[120.5314,23.5604],[120.5314,23.5665],[120.5358,23.5689],[120.5316,23.5733],[120.5301,23.5799],[120.5253,23.5829],[120.5248,23.586],[120.5336,23.5917],[120.5318,23.5956],[120.5334,23.5968]]]},"properties":{"region_code":"CN-71-48DC6B2DC2","parent_region_code":"CN-71-6F11402DB0","name":"大林镇","level":"county","has_children":false,"full_path":"中国 / 台湾省 / 嘉义县 / 大林镇","source_admin_code":null,"osm_relation_id":2798138}},
{"type":"Feature","geometry":{"type":"Polygon","coordinates":[[[120.2062,23.4529],[120.1968,23.4494],[120.1973,23.447],[120.2014,23.4439],[120.2063,23.4419],[120.205,23.4373],[120.2076,23.4323],[120.2063,23.4271],[120.2072,23.4245],[120.1998,23.4184],[120.1934,23.4217],[120.1904,23.4156],[120.188,23.4232],[120.1846,23.4206],[120.1817,23.4208],[120.1767,23.4175],[120.1739,23.4106],[120.1712,23.4076],[120.166,23.4048],[120.16,23.4054],[120.1577,23.4037],[120.1509,23.3958],[120.1216,23.3961],[120.1216,23.356],[120.1153,23.3418],[120.1324,23.3297],[120.137,23.328],[120.1485,23.3197],[120.1486,23.3144],[120.1542,23.3131],[120.1556,23.3104],[120.1626,23.31],[120.1672,23.3099],[120.1713,23.3121],[120.1726,23.317],[120.1767,23.3188],[120.1797,23.3214],[120.1808,23.3255],[120.1785,23.3298],[120.1803,23.3347],[120.1794,23.338],[120.1761,23.3418],[120.1826,23.3486],[120.1893,23.3615],[120.1966,23.3652],[120.1999,23.3714],[120.2055,23.3766],[120.2074,23.3799],[120.212,23.3811],[120.2194,23.3777],[120.2211,23.3804],[120.2271,23.3816],[120.2309,23.3867],[120.2267,23.3894],[120.2272,23.3941],[120.2302,23.399],[120.2361,23.4016],[120.2308,23.4038],[120.2358,23.4076],[120.2338,23.4092],[120.2376,23.4164],[120.2369,23.4241],[120.2282,23.4188],[120.2247,23.422],[120.2231,23.4201],[120.2185,23.4234],[120.218,23.4268],[120.2195,23.4287],[120.2196,23.434],[120.221,23.437],[120.218,23.4406],[120.2137,23.4426],[120.2095,23.4462],[120.2062,23.4529]]]},"properties":{"region_code":"CN-71-B1A3166154","parent_region_code":"CN-71-6F11402DB0","name":"布袋镇","level":"county","has_children":false,"full_path":"中国 / 台湾省 / 嘉义县 / 布袋镇","source_admin_code":null,"osm_relation_id":2894897}},
{"type":"Feature","geometry":{"type":"Polygon","coordinates":[[[120.4088,23.5066],[120.4083,23.4988],[120.4119,23.499],[120.4134,23.5024],[120.4171,23.5055],[120.4245,23.5062],[120.4277,23.5092],[120.4332,23.5089],[120.4326,23.5134],[120.435,23.5171],[120.4389,23.5122],[120.442,23.5136],[120.4406,23.5182],[120.4441,23.5172],[120.448,23.5181],[120.4534,23.5159],[120.4569,23.5157],[120.4561,23.5121],[120.46,23.5072],[120.4622,23.5016],[120.4642,23.4991],[120.4676,23.4988],[120.4702,23.5003],[120.4708,23.5038],[120.4748,23.5068],[120.478,23.505],[120.4832,23.5054],[120.4878,23.5103],[120.4961,23.5212],[120.4956,23.5264],[120.4977,23.5269],[120.4967,23.5313],[120.4985,23.5351],[120.5038,23.5379],[120.5038,23.5405],[120.507,23.5473],[120.5101,23.5463],[120.5101,23.5435],[120.5147,23.543],[120.5181,23.5473],[120.5192,23.5506],[120.5164,23.5516],[120.5105,23.5509],[120.5124,23.5559],[120.5091,23.5574],[120.5071,23.5549],[120.4995,23.5573],[120.5019,23.5604],[120.502,23.5641],[120.4957,23.564],[120.4947,23.567],[120.4902,23.5682],[120.4838,23.5662],[120.4817,23.5675],[120.4768,23.5748],[120.4747,23.5766],[120.4695,23.5765],[120.4699,23.5809],[120.4644,23.5826],[120.4587,23.5784],[120.4561,23.5825],[120.4504,23.5829],[120.4457,23.5849],[120.4418,23.5844],[120.4398,23.5793],[120.4285,23.5791],[120.4262,23.5797],[120.4181,23.5769],[120.4153,23.5727],[120.4065,23.5702],[120.4032,23.5705],[120.4039,23.5657],[120.4086,23.5627],[120.4083,23.5601],[120.4038,23.562],[120.3993,23.5623],[120.3937,23.5657],[120.3875,23.5655],[120.3838,23.5574],[120.3789,23.556],[120.3791,23.5504],[120.3764,23.5491],[120.3743,23.5389],[120.3759,23.5343],[120.3842,23.5346],[120.3842,23.5316],[120.3943,23.5317],[120.3943,23.5296],[120.4,23.5296],[120.4004,23.5188],[120.3988,23.5144],[120.3959,23.514],[120.3888,23.516],[120.3879,23.5091],[120.3889,23.5071],[120.3931,23.5066],[120.4041,23.5111],[120.4071,23.5106],[120.4088,23.5066]]]},"properties":{"region_code":"CN-71-FCF989A50E","parent_region_code":"CN-71-6F11402DB0","name":"民雄乡","level":"county","has_children":false,"full_path":"中国 / 台湾省 / 嘉义县 / 民雄乡","source_admin_code":null,"osm_relation_id":2797948}},
{"type":"Feature","geometry":{"type":"Polygon","coordinates":[[[120.356,23.4345],[120.3569,23.4318],[120.356,23.4232],[120.3581,23.4193],[120.3545,23.4182],[120.3525,23.4144],[120.3574,23.4084],[120.3558,23.4017],[120.3597,23.4027],[120.3811,23.4034],[120.3927,23.4063],[120.4047,23.4103],[120.4081,23.4134],[120.4109,23.4101],[120.4144,23.4112],[120.4178,23.4088],[120.4193,23.4041],[120.4235,23.4064],[120.4316,23.4078],[120.4321,23.4107],[120.4381,23.4134],[120.4415,23.4132],[120.4445,23.411],[120.4498,23.4093],[120.4528,23.4067],[120.4556,23.4066],[120.465,23.4008],[120.4688,23.4005],[120.4733,23.3981],[120.4794,23.3876],[120.491,23.3955],[120.4952,23.3932],[120.4974,23.3943],[120.4984,23.3991],[120.4974,23.4042],[120.4949,23.4033],[120.4877,23.4087],[120.4828,23.4081],[120.4819,23.4129],[120.4782,23.4168],[120.4791,23.4215],[120.4825,23.4215],[120.4834,23.4239],[120.4891,23.4262],[120.4929,23.4265],[120.4934,23.4323],[120.4882,23.4362],[120.486,23.4389],[120.477,23.4419],[120.4732,23.4422],[120.4646,23.4347],[120.4617,23.429],[120.4572,23.4271],[120.4467,23.4298],[120.4466,23.4324],[120.4437,23.4342],[120.4399,23.4321],[120.4384,23.4361],[120.4395,23.4396],[120.436,23.4442],[120.435,23.4491],[120.4301,23.4526],[120.4293,23.4611],[120.4241,23.4613],[120.4152,23.4603],[120.4121,23.4646],[120.4066,23.4636],[120.3941,23.4625],[120.3897,23.4625],[120.3844,23.4613],[120.3843,23.4584],[120.3801,23.4586],[120.3791,23.4646],[120.3742,23.4632],[120.362,23.4611],[120.3556,23.4588],[120.3582,23.4549],[120.3511,23.4524],[120.3539,23.4494],[120.3518,23.4439],[120.3549,23.4421],[120.3536,23.4353],[120.356,23.4345]]]},"properties":{"region_code":"CN-71-E30D3C0B06","parent_region_code":"CN-71-6F11402DB0","name":"水上乡","level":"county","has_children":false,"full_path":"中国 / 台湾省 / 嘉义县 / 水上乡","source_admin_code":null,"osm_relation_id":2790360}},
{"type":"Feature","geometry":{"type":"Polygon","coordinates":[[[120.4952,23.3932],[120.4992,23.3879],[120.497,23.3844],[120.4945,23.3843],[120.4846,23.3797],[120.483,23.3717],[120.4845,23.3695],[120.4883,23.373],[120.4915,23.3725],[120.5016,23.3678],[120.5045,23.369],[120.5102,23.3633],[120.5124,23.3598],[120.5123,23.3556],[120.508,23.3528],[120.5049,23.3549],[120.5037,23.3513],[120.5051,23.3448],[120.5079,23.343],[120.5103,23.344],[120.5156,23.3437],[120.5185,23.342],[120.5337,23.3365],[120.5416,23.34],[120.5471,23.3398],[120.5472,23.3422],[120.5504,23.343],[120.5569,23.3469],[120.5594,23.3521],[120.5619,23.354],[120.5659,23.3548],[120.5724,23.3601],[120.5747,23.3632],[120.5771,23.3617],[120.5871,23.3618],[120.59,23.3673],[120.5978,23.3707],[120.5988,23.3729],[120.598,23.381],[120.6028,23.3888],[120.6048,23.3957],[120.6017,23.3975],[120.6024,23.4052],[120.6042,23.4105],[120.6012,23.4145],[120.6031,23.4169],[120.6012,23.4247],[120.5949,23.4298],[120.5944,23.4359],[120.59,23.4411],[120.5842,23.4419],[120.5809,23.4445],[120.5751,23.445],[120.5662,23.4504],[120.5598,23.4502],[120.5428,23.4533],[120.5321,23.4526],[120.5271,23.4512],[120.5234,23.4515],[120.5172,23.4495],[120.508,23.4527],[120.4952,23.4529],[120.4894,23.4524],[120.4768,23.462],[120.4687,23.4616],[120.4648,23.4583],[120.4653,23.4558],[120.461,23.4553],[120.4547,23.4503],[120.4529,23.4449],[120.4471,23.4434],[120.4395,23.4396],[120.4384,23.4361],[120.4399,23.4321],[120.4437,23.4342],[120.4466,23.4324],[120.4467,23.4298],[120.4572,23.4271],[120.4617,23.429],[120.4646,23.4347],[120.4732,23.4422],[120.477,23.4419],[120.486,23.4389],[120.4882,23.4362],[120.4934,23.4323],[120.4929,23.4265],[120.4891,23.4262],[120.4834,23.4239],[120.4825,23.4215],[120.4791,23.4215],[120.4782,23.4168],[120.4819,23.4129],[120.4828,23.4081],[120.4877,23.4087],[120.4949,23.4033],[120.4974,23.4042],[120.4984,23.3991],[120.4974,23.3943],[120.4952,23.3932]]]},"properties":{"region_code":"CN-71-C4F50652F8","parent_region_code":"CN-71-6F11402DB0","name":"中埔乡","level":"county","has_children":false,"full_path":"中国 / 台湾省 / 嘉义县 / 中埔乡","source_admin_code":null,"osm_relation_id":2790356}},
{"type":"Feature","geometry":{"type":"Polygon","coordinates":[[[120.4832,23.5054],[120.4847,23.5018],[120.4836,23.4967],[120.4878,23.4919],[120.4981,23.4909],[120.5013,23.4898],[120.5081,23.4827],[120.5123,23.4844],[120.5155,23.4813],[120.5251,23.4804],[120.5301,23.4789],[120.5329,23.4797],[120.5328,23.4856],[120.5346,23.4909],[120.5398,23.4886],[120.5394,23.4858],[120.543,23.4848],[120.5456,23.4811],[120.5431,23.4779],[120.5445,23.4739],[120.5475,23.4712],[120.5523,23.4714],[120.5606,23.4661],[120.5634,23.4714],[120.5659,23.4711],[120.572,23.4665],[120.5736,23.4635],[120.5834,23.4613],[120.5894,23.4624],[120.5934,23.4658],[120.598,23.4649],[120.6042,23.4682],[120.6083,23.4652],[120.6107,23.4684],[120.6123,23.4781],[120.6147,23.4784],[120.6196,23.4844],[120.6187,23.4875],[120.6208,23.4913],[120.6281,23.4923],[120.6294,23.4981],[120.6326,23.4972],[120.6345,23.4949],[120.64,23.4948],[120.6426,23.4915],[120.6392,23.49],[120.6382,23.4815],[120.6423,23.4732],[120.6412,23.4704],[120.6485,23.4659],[120.6463,23.4628],[120.6474,23.4588],[120.6542,23.4528],[120.672,23.4497],[120.6741,23.4499],[120.6769,23.4545],[120.6854,23.4565],[120.6896,23.4621],[120.6899,23.4667],[120.6948,23.4691],[120.6962,23.4713],[120.7006,23.4713],[120.7038,23.4728],[120.706,23.4765],[120.7059,23.4823],[120.7109,23.4943],[120.7161,23.4985],[120.7089,23.5033],[120.7088,23.5103],[120.6994,23.5098],[120.6918,23.5116],[120.6886,23.5084],[120.6851,23.5077],[120.6824,23.509],[120.6781,23.5133],[120.6711,23.5162],[120.6681,23.5195],[120.6607,23.5237],[120.6591,23.5265],[120.659,23.5307],[120.6551,23.5349],[120.6546,23.5417],[120.6513,23.5376],[120.647,23.5361],[120.6412,23.5321],[120.6345,23.5305],[120.6327,23.5334],[120.6285,23.5355],[120.6259,23.5381],[120.6212,23.5396],[120.6167,23.545],[120.6163,23.5473],[120.6104,23.5517],[120.6065,23.5531],[120.6046,23.5502],[120.595,23.5482],[120.595,23.5464],[120.5903,23.5445],[120.5882,23.5417],[120.5827,23.5431],[120.5791,23.5417],[120.5751,23.5419],[120.5709,23.5398],[120.567,23.5433],[120.5589,23.5438],[120.5573,23.5416],[120.5531,23.5448],[120.5503,23.5437],[120.5482,23.5465],[120.5398,23.5461],[120.5367,23.5494],[120.5295,23.548],[120.5271,23.5485],[120.5147,23.543],[120.5101,23.5435],[120.5101,23.5463],[120.507,23.5473],[120.5038,23.5405],[120.5038,23.5379],[120.4985,23.5351],[120.4967,23.5313],[120.4977,23.5269],[120.4956,23.5264],[120.4961,23.5212],[120.4878,23.5103],[120.4832,23.5054]]]},"properties":{"region_code":"CN-71-F51FC169E2","parent_region_code":"CN-71-6F11402DB0","name":"竹崎乡","level":"county","has_children":false,"full_path":"中国 / 台湾省 / 嘉义县 / 竹崎乡","source_admin_code":null,"osm_relation_id":2794566}},
{"type":"Feature","geometry":{"type":"Polygon","coordinates":[[[120.3888,23.516],[120.3959,23.514],[120.3988,23.5144],[120.4004,23.5188],[120.4,23.5296],[120.3943,23.5296],[120.3943,23.5317],[120.3842,23.5316],[120.3842,23.5346],[120.3759,23.5343],[120.3743,23.5389],[120.3764,23.5491],[120.3791,23.5504],[120.3789,23.556],[120.3838,23.5574],[120.3875,23.5655],[120.39,23.5709],[120.3848,23.572],[120.3819,23.5713],[120.3756,23.5721],[120.3753,23.5753],[120.3731,23.5768],[120.3765,23.5805],[120.372,23.5805],[120.3684,23.5833],[120.3706,23.5849],[120.3735,23.5945],[120.3673,23.5941],[120.3603,23.5961],[120.3566,23.594],[120.3431,23.5919],[120.3349,23.593],[120.3337,23.5918],[120.3334,23.5824],[120.3325,23.5782],[120.325,23.5732],[120.3196,23.5724],[120.3119,23.5749],[120.3074,23.5746],[120.3065,23.572],[120.3105,23.5666],[120.3106,23.5645],[120.3057,23.563],[120.3045,23.5566],[120.3109,23.5571],[120.307,23.5483],[120.3105,23.5469],[120.3089,23.5432],[120.3034,23.5388],[120.3091,23.5379],[120.312,23.5339],[120.3089,23.5316],[120.3082,23.5191],[120.3055,23.5182],[120.3054,23.5133],[120.308,23.5132],[120.3165,23.5104],[120.3209,23.5063],[120.3259,23.5058],[120.3347,23.5083],[120.3426,23.5057],[120.3469,23.5063],[120.3511,23.505],[120.3532,23.5101],[120.3564,23.5126],[120.3607,23.5124],[120.3642,23.514],[120.368,23.5095],[120.3682,23.5048],[120.3711,23.5021],[120.3779,23.5053],[120.3802,23.5147],[120.3888,23.516]]]},"properties":{"region_code":"CN-71-F5094C4CD4","parent_region_code":"CN-71-6F11402DB0","name":"新港乡","level":"county","has_children":false,"full_path":"中国 / 台湾省 / 嘉义县 / 新港乡","source_admin_code":null,"osm_relation_id":2861436}},
{"type":"Feature","geometry":{"type":"Polygon","coordinates":[[[120.2263,23.4691],[120.2249,23.4786],[120.2209,23.4822],[120.2159,23.4852],[120.2215,23.4884],[120.2195,23.4934],[120.2144,23.4926],[120.2112,23.4904],[120.2107,23.4963],[120.215,23.5008],[120.2115,23.5019],[120.209,23.5045],[120.2011,23.5076],[120.2018,23.5113],[120.1993,23.513],[120.1957,23.5128],[120.1899,23.5101],[120.1876,23.5106],[120.1804,23.51],[120.1724,23.5147],[120.1665,23.5173],[120.1646,23.5158],[120.1581,23.5159],[120.1467,23.5206],[120.1427,23.5217],[120.1182,23.5229],[120.1066,23.4848],[120.1137,23.4445],[120.1216,23.3961],[120.1509,23.3958],[120.1577,23.4037],[120.16,23.4054],[120.166,23.4048],[120.1712,23.4076],[120.1739,23.4106],[120.1767,23.4175],[120.1817,23.4208],[120.1846,23.4206],[120.188,23.4232],[120.1904,23.4156],[120.1934,23.4217],[120.1998,23.4184],[120.2072,23.4245],[120.2063,23.4271],[120.2076,23.4323],[120.205,23.4373],[120.2063,23.4419],[120.2014,23.4439],[120.1973,23.447],[120.1968,23.4494],[120.2062,23.4529],[120.2102,23.4539],[120.2112,23.456],[120.2153,23.4555],[120.2217,23.4598],[120.2218,23.4629],[120.2264,23.4636],[120.2263,23.4691]]]},"properties":{"region_code":"CN-71-5A9F71A538","parent_region_code":"CN-71-6F11402DB0","name":"东石乡","level":"county","has_children":false,"full_path":"中国 / 台湾省 / 嘉义县 / 东石乡","source_admin_code":null,"osm_relation_id":2894898}},
{"type":"Feature","geometry":{"type":"Polygon","coordinates":[[[120.29,23.4781],[120.3035,23.4788],[120.3079,23.4756],[120.3149,23.4832],[120.3146,23.4888],[120.3208,23.4934],[120.3201,23.4951],[120.3138,23.4978],[120.3138,23.5004],[120.3203,23.4999],[120.3259,23.5058],[120.3209,23.5063],[120.3165,23.5104],[120.308,23.5132],[120.3054,23.5133],[120.3055,23.5182],[120.3082,23.5191],[120.3089,23.5316],[120.312,23.5339],[120.3091,23.5379],[120.3034,23.5388],[120.3089,23.5432],[120.3105,23.5469],[120.307,23.5483],[120.3109,23.5571],[120.3045,23.5566],[120.3057,23.563],[120.2977,23.5645],[120.2933,23.5642],[120.2893,23.5612],[120.2893,23.5566],[120.2909,23.5507],[120.2868,23.5479],[120.2803,23.5459],[120.2761,23.543],[120.2725,23.5313],[120.2678,23.5305],[120.2634,23.5335],[120.2592,23.5416],[120.2561,23.5461],[120.25,23.5459],[120.2432,23.5435],[120.2419,23.5401],[120.2441,23.5326],[120.247,23.5162],[120.2439,23.5108],[120.2386,23.5075],[120.2309,23.5054],[120.223,23.5043],[120.2158,23.5069],[120.205,23.5118],[120.2018,23.5113],[120.2011,23.5076],[120.209,23.5045],[120.2115,23.5019],[120.215,23.5008],[120.2107,23.4963],[120.2112,23.4904],[120.2144,23.4926],[120.2195,23.4934],[120.2215,23.4884],[120.2159,23.4852],[120.2209,23.4822],[120.2249,23.4786],[120.2263,23.4691],[120.2303,23.4673],[120.2383,23.4695],[120.2384,23.4734],[120.2407,23.4758],[120.2436,23.4761],[120.2473,23.4743],[120.2507,23.4704],[120.2534,23.4711],[120.2558,23.4776],[120.2618,23.4781],[120.2617,23.4851],[120.2655,23.4882],[120.2753,23.4914],[120.2842,23.4907],[120.2848,23.4863],[120.2914,23.4815],[120.29,23.4781]]]},"properties":{"region_code":"CN-71-13A802B57C","parent_region_code":"CN-71-6F11402DB0","name":"六脚乡","level":"county","has_children":false,"full_path":"中国 / 台湾省 / 嘉义县 / 六脚乡","source_admin_code":null,"osm_relation_id":2861455}},
{"type":"Feature","geometry":{"type":"Polygon","coordinates":[[[120.5164,23.5516],[120.5192,23.5506],[120.5181,23.5473],[120.5147,23.543],[120.5271,23.5485],[120.5295,23.548],[120.5367,23.5494],[120.5398,23.5461],[120.5482,23.5465],[120.5503,23.5437],[120.5531,23.5448],[120.5573,23.5416],[120.5589,23.5438],[120.567,23.5433],[120.5709,23.5398],[120.5751,23.5419],[120.5791,23.5417],[120.5827,23.5431],[120.5882,23.5417],[120.5903,23.5445],[120.595,23.5464],[120.595,23.5482],[120.6046,23.5502],[120.6065,23.5531],[120.6104,23.5517],[120.6163,23.5473],[120.6167,23.545],[120.6212,23.5396],[120.6259,23.5381],[120.6285,23.5355],[120.6327,23.5334],[120.6345,23.5305],[120.6412,23.5321],[120.647,23.5361],[120.6513,23.5376],[120.6546,23.5417],[120.6551,23.5349],[120.659,23.5307],[120.6591,23.5265],[120.6607,23.5237],[120.6681,23.5195],[120.6711,23.5162],[120.6781,23.5133],[120.6824,23.509],[120.6851,23.5077],[120.6886,23.5084],[120.6918,23.5116],[120.6994,23.5098],[120.7088,23.5103],[120.7089,23.5033],[120.7161,23.4985],[120.7175,23.5012],[120.7178,23.5065],[120.7209,23.5113],[120.7226,23.5118],[120.7233,23.5167],[120.7247,23.5191],[120.7269,23.5289],[120.7299,23.5325],[120.7323,23.5386],[120.7317,23.544],[120.7359,23.5468],[120.7428,23.5488],[120.743,23.5529],[120.7464,23.554],[120.7449,23.5578],[120.7427,23.5587],[120.7402,23.5656],[120.7362,23.5704],[120.7276,23.5704],[120.7244,23.5719],[120.7184,23.5691],[120.716,23.5711],[120.7109,23.5708],[120.709,23.5756],[120.704,23.5749],[120.6989,23.5764],[120.694,23.5765],[120.6866,23.5748],[120.6809,23.5713],[120.6762,23.5705],[120.6738,23.5725],[120.6727,23.5758],[120.6698,23.5784],[120.6608,23.576],[120.656,23.5722],[120.6508,23.5724],[120.6475,23.5766],[120.6435,23.5782],[120.649,23.5827],[120.6493,23.5856],[120.6471,23.5878],[120.6491,23.5926],[120.6456,23.5936],[120.6399,23.5926],[120.6307,23.5899],[120.6258,23.5906],[120.619,23.5842],[120.6154,23.5853],[120.6109,23.5829],[120.6064,23.5842],[120.6,23.5832],[120.5948,23.5854],[120.5898,23.5857],[120.5852,23.583],[120.5813,23.5821],[120.5767,23.5835],[120.5705,23.588],[120.5656,23.5894],[120.5578,23.5892],[120.5566,23.5928],[120.5369,23.5947],[120.5334,23.5968],[120.5318,23.5956],[120.5336,23.5917],[120.5248,23.586],[120.5253,23.5829],[120.5301,23.5799],[120.5316,23.5733],[120.5358,23.5689],[120.5314,23.5665],[120.5314,23.5604],[120.5273,23.5615],[120.5188,23.557],[120.5192,23.555],[120.5164,23.5516]]]},"properties":{"region_code":"CN-71-1FB1BDDC59","parent_region_code":"CN-71-6F11402DB0","name":"梅山乡","level":"county","has_children":false,"full_path":"中国 / 台湾省 / 嘉义县 / 梅山乡","source_admin_code":null,"osm_relation_id":2794597}},
{"type":"Feature","geometry":{"type":"Polygon","coordinates":[[[120.2358,23.4076],[120.2308,23.4038],[120.2361,23.4016],[120.2302,23.399],[120.2272,23.3941],[120.2267,23.3894],[120.2309,23.3867],[120.2271,23.3816],[120.2211,23.3804],[120.2194,23.3777],[120.212,23.3811],[120.2074,23.3799],[120.2055,23.3766],[120.1999,23.3714],[120.1966,23.3652],[120.1893,23.3615],[120.1826,23.3486],[120.1761,23.3418],[120.1794,23.338],[120.1803,23.3347],[120.1785,23.3298],[120.1808,23.3255],[120.1797,23.3214],[120.1767,23.3188],[120.1726,23.317],[120.1713,23.3121],[120.1672,23.3099],[120.1626,23.31],[120.1686,23.3068],[120.1726,23.3019],[120.1757,23.2944],[120.1806,23.2909],[120.1891,23.2902],[120.1894,23.2923],[120.1858,23.297],[120.1884,23.3012],[120.191,23.3007],[120.2008,23.2935],[120.2085,23.2913],[120.2144,23.2924],[120.2208,23.296],[120.2259,23.3033],[120.2283,23.3101],[120.2313,23.3163],[120.2342,23.3196],[120.2379,23.3269],[120.2447,23.3268],[120.2492,23.3289],[120.2564,23.3311],[120.2671,23.3407],[120.2675,23.3447],[120.2609,23.3445],[120.2648,23.3512],[120.2677,23.3535],[120.2705,23.3537],[120.2748,23.3517],[120.2762,23.3482],[120.2814,23.3482],[120.2862,23.3503],[120.2861,23.3539],[120.2838,23.3586],[120.2846,23.3635],[120.2789,23.3693],[120.2743,23.369],[120.273,23.3737],[120.2687,23.3754],[120.2695,23.3805],[120.2696,23.3878],[120.2648,23.3927],[120.2581,23.3946],[120.2469,23.3978],[120.2436,23.4001],[120.2429,23.4028],[120.2358,23.4076]]]},"properties":{"region_code":"CN-71-3F0D151E2D","parent_region_code":"CN-71-6F11402DB0","name":"义竹乡","level":"county","has_children":false,"full_path":"中国 / 台湾省 / 嘉义县 / 义竹乡","source_admin_code":null,"osm_relation_id":2862143}},
{"type":"Feature","geometry":{"type":"Polygon","coordinates":[[[120.2581,23.3946],[120.2648,23.3927],[120.2696,23.3878],[120.2695,23.3805],[120.2687,23.3754],[120.273,23.3737],[120.2743,23.369],[120.2789,23.3693],[120.2846,23.3635],[120.2855,23.3666],[120.2929,23.3754],[120.3036,23.376],[120.311,23.3754],[120.3104,23.3832],[120.3113,23.3861],[120.315,23.3885],[120.3178,23.3884],[120.3217,23.3836],[120.3287,23.3861],[120.3337,23.386],[120.3414,23.395],[120.343,23.3982],[120.3495,23.4013],[120.3558,23.4017],[120.3574,23.4084],[120.3525,23.4144],[120.3545,23.4182],[120.3581,23.4193],[120.356,23.4232],[120.3569,23.4318],[120.356,23.4345],[120.3537,23.4304],[120.3511,23.4313],[120.3424,23.4289],[120.3387,23.4302],[120.334,23.4298],[120.3314,23.433],[120.3244,23.4345],[120.3202,23.4372],[120.3143,23.4372],[120.3114,23.4382],[120.3077,23.4365],[120.3032,23.4363],[120.293,23.4345],[120.2915,23.4377],[120.2913,23.4456],[120.2894,23.4434],[120.2853,23.4443],[120.2809,23.4465],[120.2813,23.4499],[120.2756,23.4482],[120.2697,23.4478],[120.2697,23.431],[120.2774,23.4313],[120.282,23.4324],[120.2818,23.4273],[120.2832,23.4265],[120.28,23.4216],[120.2769,23.4184],[120.2737,23.4186],[120.2722,23.4225],[120.2674,23.4174],[120.2674,23.409],[120.2629,23.408],[120.2597,23.4039],[120.2581,23.3946]]]},"properties":{"region_code":"CN-71-97F986720B","parent_region_code":"CN-71-6F11402DB0","name":"鹿草乡","level":"county","has_children":false,"full_path":"中国 / 台湾省 / 嘉义县 / 鹿草乡","source_admin_code":null,"osm_relation_id":2848201}},
{"type":"Feature","geometry":{"type":"Polygon","coordinates":[[[120.4138,23.6224],[120.4096,23.6252],[120.4067,23.6251],[120.4064,23.6326],[120.4048,23.6342],[120.4009,23.6322],[120.4027,23.6269],[120.3922,23.6236],[120.3866,23.621],[120.3798,23.6099],[120.3706,23.6093],[120.3661,23.6068],[120.3659,23.603],[120.3603,23.5961],[120.3673,23.5941],[120.3735,23.5945],[120.3706,23.5849],[120.3684,23.5833],[120.372,23.5805],[120.3765,23.5805],[120.3731,23.5768],[120.3753,23.5753],[120.3756,23.5721],[120.3819,23.5713],[120.3848,23.572],[120.39,23.5709],[120.3875,23.5655],[120.3937,23.5657],[120.3993,23.5623],[120.4038,23.562],[120.4083,23.5601],[120.4086,23.5627],[120.4039,23.5657],[120.4032,23.5705],[120.4065,23.5702],[120.4153,23.5727],[120.4181,23.5769],[120.4262,23.5797],[120.4285,23.5791],[120.4398,23.5793],[120.4418,23.5844],[120.4457,23.5849],[120.4504,23.5829],[120.4561,23.5825],[120.4538,23.5873],[120.4491,23.5894],[120.4487,23.5933],[120.445,23.5944],[120.437,23.5917],[120.4303,23.5913],[120.4259,23.5937],[120.4263,23.6004],[120.4275,23.6048],[120.4244,23.6058],[120.4169,23.6052],[120.4147,23.6015],[120.4081,23.6022],[120.4077,23.6063],[120.4052,23.6073],[120.4071,23.6114],[120.411,23.6139],[120.4143,23.6188],[120.4138,23.6224]]]},"properties":{"region_code":"CN-71-E61E616726","parent_region_code":"CN-71-6F11402DB0","name":"溪口乡","level":"county","has_children":false,"full_path":"中国 / 台湾省 / 嘉义县 / 溪口乡","source_admin_code":null,"osm_relation_id":2848252}},
{"type":"Feature","geometry":{"type":"Polygon","coordinates":[[[120.5871,23.3618],[120.5899,23.3586],[120.5896,23.3548],[120.5983,23.347],[120.6044,23.3478],[120.6072,23.3468],[120.6083,23.3439],[120.6182,23.3425],[120.6199,23.3398],[120.6258,23.3417],[120.6321,23.3411],[120.6369,23.3461],[120.635,23.3531],[120.639,23.3572],[120.6422,23.3652],[120.6463,23.367],[120.6457,23.3714],[120.6419,23.3768],[120.6431,23.3847],[120.6421,23.3879],[120.6465,23.3915],[120.6478,23.3946],[120.6466,23.4009],[120.6505,23.4011],[120.6537,23.3995],[120.6552,23.4041],[120.6526,23.4075],[120.6524,23.4109],[120.6581,23.409],[120.6605,23.4101],[120.6622,23.4135],[120.6629,23.4205],[120.6665,23.423],[120.6697,23.4287],[120.6732,23.432],[120.6743,23.4361],[120.6775,23.4377],[120.6826,23.4383],[120.6789,23.4449],[120.6741,23.4499],[120.672,23.4497],[120.6542,23.4528],[120.6474,23.4588],[120.6463,23.4628],[120.6485,23.4659],[120.6412,23.4704],[120.6423,23.4732],[120.6382,23.4815],[120.6392,23.49],[120.6426,23.4915],[120.64,23.4948],[120.6345,23.4949],[120.6326,23.4972],[120.6294,23.4981],[120.6281,23.4923],[120.6208,23.4913],[120.6187,23.4875],[120.6196,23.4844],[120.6147,23.4784],[120.6123,23.4781],[120.6107,23.4684],[120.6083,23.4652],[120.6042,23.4682],[120.598,23.4649],[120.5934,23.4658],[120.5894,23.4624],[120.5834,23.4613],[120.5736,23.4635],[120.572,23.4665],[120.5659,23.4711],[120.5634,23.4714],[120.5606,23.4661],[120.5523,23.4714],[120.5475,23.4712],[120.5445,23.4739],[120.5431,23.4779],[120.5456,23.4811],[120.543,23.4848],[120.5394,23.4858],[120.5398,23.4886],[120.5346,23.4909],[120.5328,23.4856],[120.5329,23.4797],[120.5301,23.4789],[120.5251,23.4804],[120.5155,23.4813],[120.5123,23.4844],[120.5081,23.4827],[120.5013,23.4898],[120.501,23.4886],[120.505,23.4788],[120.5093,23.4747],[120.5038,23.4672],[120.4998,23.4654],[120.5007,23.4614],[120.4975,23.4578],[120.4952,23.4529],[120.508,23.4527],[120.5172,23.4495],[120.5234,23.4515],[120.5271,23.4512],[120.5321,23.4526],[120.5428,23.4533],[120.5598,23.4502],[120.5662,23.4504],[120.5751,23.445],[120.5809,23.4445],[120.5842,23.4419],[120.59,23.4411],[120.5944,23.4359],[120.5949,23.4298],[120.6012,23.4247],[120.6031,23.4169],[120.6012,23.4145],[120.6042,23.4105],[120.6024,23.4052],[120.6017,23.3975],[120.6048,23.3957],[120.6028,23.3888],[120.598,23.381],[120.5988,23.3729],[120.5978,23.3707],[120.59,23.3673],[120.5871,23.3618]]]},"properties":{"region_code":"CN-71-0861692084","parent_region_code":"CN-71-6F11402DB0","name":"番路乡","level":"county","has_children":false,"full_path":"中国 / 台湾省 / 嘉义县 / 番路乡","source_admin_code":null,"osm_relation_id":2790444}},
{"type":"Feature","geometry":{"type":"Polygon","coordinates":[[[120.6741,23.4499],[120.6789,23.4449],[120.6826,23.4383],[120.6775,23.4377],[120.6743,23.4361],[120.6732,23.432],[120.6697,23.4287],[120.6665,23.423],[120.6629,23.4205],[120.6622,23.4135],[120.6605,23.4101],[120.6581,23.409],[120.6524,23.4109],[120.6526,23.4075],[120.6552,23.4041],[120.6537,23.3995],[120.6505,23.4011],[120.6466,23.4009],[120.6478,23.3946],[120.6465,23.3915],[120.6421,23.3879],[120.6431,23.3847],[120.6419,23.3768],[120.6457,23.3714],[120.6463,23.367],[120.6463,23.3641],[120.6494,23.3588],[120.6569,23.357],[120.6585,23.3522],[120.6608,23.3502],[120.6629,23.3429],[120.659,23.3396],[120.6564,23.3353],[120.6555,23.3301],[120.6561,23.3268],[120.6585,23.3232],[120.6583,23.3129],[120.6552,23.309],[120.6539,23.3042],[120.6541,23.2994],[120.652,23.2911],[120.6554,23.292],[120.658,23.2959],[120.6649,23.2932],[120.6671,23.2941],[120.6715,23.29],[120.6736,23.2911],[120.6783,23.2888],[120.6935,23.2845],[120.6996,23.2845],[120.7035,23.2901],[120.7024,23.2939],[120.7037,23.3004],[120.7067,23.3046],[120.7127,23.3086],[120.7163,23.3076],[120.7208,23.3083],[120.7306,23.3056],[120.7303,23.311],[120.7328,23.3142],[120.739,23.3165],[120.7404,23.3204],[120.7482,23.3221],[120.7533,23.3282],[120.7522,23.3304],[120.758,23.3348],[120.7573,23.3392],[120.7582,23.3443],[120.7645,23.3417],[120.7683,23.3438],[120.7735,23.3419],[120.7768,23.3435],[120.7837,23.3425],[120.7885,23.3482],[120.7885,23.3529],[120.7918,23.3535],[120.7917,23.3566],[120.7968,23.3577],[120.7977,23.3601],[120.8047,23.3672],[120.8134,23.3694],[120.8167,23.3714],[120.8212,23.3705],[120.8252,23.3716],[120.8293,23.3767],[120.8294,23.3834],[120.8307,23.3863],[120.8348,23.3877],[120.8369,23.3935],[120.8406,23.3945],[120.8384,23.398],[120.8441,23.4043],[120.8446,23.4078],[120.8494,23.4121],[120.8495,23.4201],[120.8545,23.4231],[120.8565,23.4219],[120.8593,23.425],[120.8645,23.4239],[120.8663,23.4261],[120.87,23.4268],[120.8718,23.4296],[120.8814,23.4328],[120.8839,23.4362],[120.8866,23.4348],[120.8907,23.4425],[120.8917,23.4465],[120.8956,23.4465],[120.8962,23.4504],[120.9024,23.4542],[120.9058,23.4533],[120.9099,23.4578],[120.9204,23.4588],[120.9262,23.4575],[120.9269,23.4559],[120.9351,23.4591],[120.9366,23.4637],[120.9404,23.463],[120.9483,23.4641],[120.9558,23.4672],[120.9474,23.4671],[120.9415,23.4698],[120.9373,23.4731],[120.9341,23.4728],[120.9308,23.4706],[120.9265,23.473],[120.9175,23.4757],[120.9147,23.4747],[120.9102,23.4762],[120.902,23.4761],[120.8996,23.4754],[120.8867,23.4756],[120.8841,23.473],[120.8807,23.4676],[120.8734,23.4684],[120.8634,23.4736],[120.8564,23.4734],[120.85,23.4722],[120.8424,23.4733],[120.8394,23.4712],[120.8324,23.4751],[120.83,23.4805],[120.8271,23.4831],[120.8252,23.4901],[120.8254,23.495],[120.8229,23.4995],[120.8241,23.504],[120.8232,23.5109],[120.8196,23.5153],[120.8181,23.5235],[120.8109,23.5345],[120.8086,23.5362],[120.8083,23.5436],[120.8116,23.5511],[120.816,23.5533],[120.814,23.5554],[120.8207,23.5626],[120.8199,23.5645],[120.8219,23.571],[120.8196,23.575],[120.8213,23.5812],[120.8255,23.5864],[120.8199,23.5904],[120.8169,23.5956],[120.8186,23.5983],[120.8139,23.601],[120.8099,23.5988],[120.8051,23.5986],[120.8038,23.5968],[120.7946,23.5974],[120.791,23.6009],[120.7839,23.6007],[120.7776,23.6024],[120.7735,23.6056],[120.7703,23.606],[120.7694,23.6084],[120.7638,23.6125],[120.7582,23.6125],[120.7547,23.6145],[120.7507,23.6143],[120.7492,23.6122],[120.7417,23.6124],[120.7381,23.6098],[120.7313,23.6107],[120.727,23.6076],[120.7249,23.6036],[120.7285,23.5995],[120.7326,23.5973],[120.73,23.5932],[120.7326,23.5895],[120.7339,23.5846],[120.7321,23.5772],[120.7351,23.5751],[120.7362,23.5704],[120.7402,23.5656],[120.7427,23.5587],[120.7449,23.5578],[120.7464,23.554],[120.743,23.5529],[120.7428,23.5488],[120.7359,23.5468],[120.7317,23.544],[120.7323,23.5386],[120.7299,23.5325],[120.7269,23.5289],[120.7247,23.5191],[120.7233,23.5167],[120.7226,23.5118],[120.7209,23.5113],[120.7178,23.5065],[120.7175,23.5012],[120.7161,23.4985],[120.7109,23.4943],[120.7059,23.4823],[120.706,23.4765],[120.7038,23.4728],[120.7006,23.4713],[120.6962,23.4713],[120.6948,23.4691],[120.6899,23.4667],[120.6896,23.4621],[120.6854,23.4565],[120.6769,23.4545],[120.6741,23.4499]]]},"properties":{"region_code":"CN-71-F5CE9620C2","parent_region_code":"CN-71-6F11402DB0","name":"阿里山乡","level":"county","has_children":false,"full_path":"中国 / 台湾省 / 嘉义县 / 阿里山乡","source_admin_code":null,"osm_relation_id":2790541}},
{"type":"Feature","geometry":{"type":"Polygon","coordinates":[[[120.5337,23.3365],[120.5368,23.3333],[120.54,23.3279],[120.532,23.3211],[120.5316,23.318],[120.5225,23.3118],[120.5239,23.3027],[120.526,23.2971],[120.5261,23.2925],[120.5218,23.2879],[120.523,23.2843],[120.521,23.2798],[120.5223,23.2742],[120.5205,23.2717],[120.5261,23.2665],[120.5295,23.2578],[120.532,23.2554],[120.5305,23.249],[120.5243,23.2421],[120.519,23.2393],[120.5264,23.2311],[120.5297,23.2325],[120.5317,23.2299],[120.5416,23.2278],[120.5489,23.2236],[120.5553,23.2174],[120.5614,23.2174],[120.5651,23.2209],[120.5724,23.2178],[120.5749,23.2177],[120.5783,23.2148],[120.5802,23.2195],[120.5867,23.2242],[120.5902,23.234],[120.5939,23.2394],[120.5965,23.235],[120.5973,23.229],[120.6028,23.2261],[120.6065,23.2258],[120.6098,23.2226],[120.6129,23.224],[120.6168,23.2235],[120.6186,23.2257],[120.625,23.2273],[120.6283,23.2294],[120.639,23.2279],[120.6431,23.2255],[120.6496,23.2283],[120.6509,23.2379],[120.6481,23.2443],[120.6485,23.249],[120.6422,23.2567],[120.6421,23.2609],[120.6407,23.2664],[120.6385,23.2689],[120.6412,23.2715],[120.6406,23.2736],[120.6432,23.276],[120.6423,23.2797],[120.644,23.2824],[120.6419,23.2878],[120.6437,23.2894],[120.6421,23.2925],[120.6434,23.2956],[120.6465,23.2974],[120.6499,23.2924],[120.652,23.2911],[120.6541,23.2994],[120.6539,23.3042],[120.6552,23.309],[120.6583,23.3129],[120.6585,23.3232],[120.6561,23.3268],[120.6555,23.3301],[120.6564,23.3353],[120.659,23.3396],[120.6629,23.3429],[120.6608,23.3502],[120.6585,23.3522],[120.6569,23.357],[120.6494,23.3588],[120.6463,23.3641],[120.6463,23.367],[120.6422,23.3652],[120.639,23.3572],[120.635,23.3531],[120.6369,23.3461],[120.6321,23.3411],[120.6258,23.3417],[120.6199,23.3398],[120.6182,23.3425],[120.6083,23.3439],[120.6072,23.3468],[120.6044,23.3478],[120.5983,23.347],[120.5896,23.3548],[120.5899,23.3586],[120.5871,23.3618],[120.5771,23.3617],[120.5747,23.3632],[120.5724,23.3601],[120.5659,23.3548],[120.5619,23.354],[120.5594,23.3521],[120.5569,23.3469],[120.5504,23.343],[120.5472,23.3422],[120.5471,23.3398],[120.5416,23.34],[120.5337,23.3365]]]},"properties":{"region_code":"CN-71-63A6661D89","parent_region_code":"CN-71-6F11402DB0","name":"大埔乡","level":"county","has_children":false,"full_path":"中国 / 台湾省 / 嘉义县 / 大埔乡","source_admin_code":null,"osm_relation_id":2259133}}
]}