{"type":"FeatureCollection", "features": [
{"type":"Feature","geometry":{"type":"Polygon","coordinates":[[[118.3092,24.4375],[118.3092,24.4328],[118.309,24.4312],[118.3081,24.4308],[118.3085,24.4296],[118.3093,24.4293],[118.3102,24.4298],[118.3109,24.4281],[118.3105,24.4273],[118.3086,24.4261],[118.3073,24.4259],[118.3055,24.4265],[118.3045,24.4263],[118.3022,24.4247],[118.2973,24.4247],[118.2866,24.4248],[118.2866,24.4246],[118.2976,24.4245],[118.2991,24.4242],[118.2991,24.4224],[118.2981,24.4224],[118.2981,24.4181],[118.2951,24.4183],[118.2894,24.4183],[118.2888,24.416],[118.2866,24.416],[118.2863,24.4155],[118.2846,24.4152],[118.2817,24.4155],[118.2799,24.4151],[118.279,24.4153],[118.2783,24.4132],[118.2801,24.4121],[118.2804,24.4112],[118.2837,24.4095],[118.2848,24.4085],[118.2852,24.4075],[118.2865,24.407],[118.2907,24.4044],[118.2913,24.4032],[118.2907,24.4022],[118.2928,24.4014],[118.2934,24.4008],[118.2955,24.3994],[118.2955,24.3985],[118.2963,24.398],[118.2959,24.396],[118.2976,24.396],[118.2999,24.3964],[118.3021,24.3965],[118.3041,24.3962],[118.3055,24.3955],[118.3063,24.3946],[118.3062,24.3937],[118.3073,24.3932],[118.3076,24.3924],[118.3085,24.3923],[118.3092,24.3904],[118.311,24.39],[118.3121,24.3906],[118.3132,24.3906],[118.3138,24.39],[118.315,24.39],[118.3159,24.3897],[118.3161,24.3889],[118.3182,24.3886],[118.3198,24.3871],[118.32,24.3861],[118.3222,24.3858],[118.3228,24.3866],[118.3237,24.3869],[118.3249,24.388],[118.3278,24.3873],[118.3287,24.3885],[118.3296,24.3881],[118.3305,24.3884],[118.3317,24.3902],[118.3315,24.3914],[118.3322,24.392],[118.3335,24.3938],[118.3339,24.3949],[118.3346,24.3951],[118.335,24.3987],[118.3359,24.4024],[118.3372,24.4029],[118.3376,24.4046],[118.3398,24.4086],[118.3416,24.4102],[118.3422,24.4105],[118.3429,24.4125],[118.3374,24.4168],[118.3346,24.4191],[118.3292,24.414],[118.3272,24.418],[118.3266,24.4198],[118.3253,24.4218],[118.3254,24.4253],[118.3251,24.4261],[118.3265,24.4262],[118.3286,24.4261],[118.3304,24.4325],[118.329,24.4328],[118.328,24.4327],[118.325,24.4328],[118.3265,24.4343],[118.3247,24.4354],[118.3244,24.4352],[118.323,24.4365],[118.3264,24.4401],[118.3283,24.4413],[118.3258,24.4441],[118.3251,24.4435],[118.3236,24.4449],[118.3211,24.4426],[118.32,24.4411],[118.317,24.439],[118.316,24.44],[118.315,24.4395],[118.314,24.4404],[118.3132,24.4398],[118.3125,24.4376],[118.3096,24.4374],[118.3092,24.4375]]]},"properties":{"region_code":"CN-71-1F18B6F167","parent_region_code":"CN-71-60BC8F32B5","name":"金城镇","level":"county","has_children":false,"full_path":"中国 / 台湾省 / 金门县 / 金城镇","source_admin_code":null,"osm_relation_id":3339698}},
{"type":"Feature","geometry":{"type":"MultiPolygon","coordinates":[[[[118.4354,24.5222],[118.439,24.5234],[118.4391,24.5249],[118.4366,24.5241],[118.4348,24.5228],[118.4354,24.5222]]],[[[118.4689,24.4577],[118.468,24.4585],[118.4662,24.4611],[118.4654,24.4627],[118.4655,24.4638],[118.464,24.4677],[118.4641,24.4711],[118.4634,24.4736],[118.4633,24.476],[118.4651,24.477],[118.4652,24.478],[118.4666,24.4794],[118.4677,24.4796],[118.469,24.4804],[118.4685,24.4822],[118.4691,24.4829],[118.4689,24.4837],[118.4658,24.484],[118.4646,24.4838],[118.462,24.4843],[118.4597,24.4859],[118.4586,24.487],[118.4577,24.4888],[118.4564,24.4907],[118.4557,24.4913],[118.4551,24.4928],[118.4552,24.4943],[118.4558,24.4959],[118.4545,24.4982],[118.4534,24.4988],[118.4517,24.4994],[118.4507,24.501],[118.4501,24.5035],[118.4496,24.5047],[118.45,24.5077],[118.4506,24.5099],[118.4501,24.511],[118.4486,24.5115],[118.4459,24.5115],[118.444,24.512],[118.4397,24.5136],[118.4389,24.5136],[118.4357,24.5145],[118.4342,24.5158],[118.4327,24.5184],[118.4316,24.5219],[118.4334,24.5227],[118.4336,24.525],[118.4317,24.5248],[118.4295,24.5253],[118.429,24.526],[118.4293,24.5274],[118.4258,24.5283],[118.4241,24.5277],[118.4218,24.5296],[118.4192,24.5304],[118.4166,24.5294],[118.4145,24.5283],[118.4132,24.5293],[118.4109,24.5306],[118.4113,24.5321],[118.4093,24.534],[118.4073,24.5342],[118.4059,24.5326],[118.4062,24.5313],[118.4074,24.5315],[118.4077,24.5301],[118.4067,24.5283],[118.4056,24.5275],[118.4038,24.5272],[118.4021,24.5281],[118.3994,24.5286],[118.3977,24.5281],[118.3966,24.5265],[118.3965,24.5257],[118.3983,24.5258],[118.3997,24.5255],[118.4003,24.5247],[118.4008,24.5222],[118.3995,24.521],[118.3976,24.5201],[118.3969,24.5196],[118.3943,24.5162],[118.3939,24.5142],[118.392,24.5116],[118.3886,24.5099],[118.3869,24.5098],[118.3845,24.5088],[118.384,24.5081],[118.3837,24.5027],[118.3847,24.4992],[118.3852,24.4956],[118.3857,24.4936],[118.3848,24.4922],[118.3827,24.4919],[118.3807,24.4913],[118.3802,24.4877],[118.3791,24.485],[118.3752,24.4819],[118.372,24.4791],[118.3749,24.4726],[118.3761,24.4704],[118.3787,24.4661],[118.3795,24.4655],[118.3826,24.4615],[118.3838,24.4612],[118.3866,24.4594],[118.3892,24.4604],[118.3906,24.46],[118.3924,24.4589],[118.3943,24.455],[118.3961,24.4537],[118.4032,24.4566],[118.403,24.457],[118.4052,24.4579],[118.4057,24.4593],[118.4098,24.4595],[118.4115,24.4609],[118.4133,24.4618],[118.4139,24.4624],[118.4159,24.4634],[118.4183,24.4634],[118.4189,24.4643],[118.4212,24.4653],[118.4223,24.4669],[118.4234,24.4673],[118.4263,24.4702],[118.4274,24.4705],[118.4286,24.4704],[118.4304,24.4707],[118.433,24.4709],[118.4352,24.4665],[118.4421,24.4587],[118.4462,24.4542],[118.4485,24.4522],[118.4553,24.4467],[118.4567,24.4476],[118.4597,24.4485],[118.4625,24.4505],[118.4638,24.4529],[118.4657,24.4535],[118.4689,24.4577]]]]},"properties":{"region_code":"CN-71-9B23E13297","parent_region_code":"CN-71-60BC8F32B5","name":"金沙镇","level":"county","has_children":false,"full_path":"中国 / 台湾省 / 金门县 / 金沙镇","source_admin_code":null,"osm_relation_id":3339700}},
{"type":"Feature","geometry":{"type":"MultiPolygon","coordinates":[[[[118.458,24.4143],[118.4571,24.4146],[118.4562,24.4143],[118.4562,24.4128],[118.4574,24.4125],[118.4593,24.4127],[118.4592,24.4136],[118.458,24.4143]]],[[[118.4602,24.417],[118.4595,24.4169],[118.459,24.4157],[118.4602,24.4159],[118.4602,24.417]]],[[[118.5037,24.4282],[118.5039,24.4263],[118.5053,24.4265],[118.506,24.4273],[118.5056,24.4282],[118.5037,24.4282]]],[[[118.372,24.4791],[118.3697,24.4774],[118.3658,24.4737],[118.3662,24.4655],[118.3664,24.4617],[118.3669,24.4609],[118.3679,24.4606],[118.3675,24.4595],[118.3678,24.4579],[118.3652,24.4537],[118.3629,24.4513],[118.3622,24.45],[118.3606,24.4484],[118.3603,24.4458],[118.3614,24.4418],[118.3624,24.4406],[118.3638,24.4379],[118.3614,24.4369],[118.361,24.4347],[118.3605,24.4331],[118.3605,24.4322],[118.3593,24.4312],[118.3588,24.4303],[118.3606,24.4265],[118.3624,24.4275],[118.3703,24.431],[118.3728,24.4319],[118.3771,24.4333],[118.3808,24.4342],[118.3866,24.4353],[118.388,24.4347],[118.3907,24.4354],[118.3926,24.4354],[118.3952,24.436],[118.3961,24.4352],[118.4,24.4356],[118.4029,24.4349],[118.4039,24.4338],[118.4045,24.4338],[118.4064,24.4328],[118.4086,24.4318],[118.4091,24.4303],[118.4099,24.4318],[118.411,24.4314],[118.4107,24.4306],[118.4107,24.4288],[118.4126,24.4286],[118.4143,24.4275],[118.4163,24.4277],[118.422,24.426],[118.4251,24.4253],[118.4279,24.4242],[118.4293,24.4229],[118.4312,24.4209],[118.4326,24.4185],[118.4332,24.4166],[118.4317,24.4151],[118.4308,24.4127],[118.4302,24.4123],[118.4291,24.4104],[118.431,24.4095],[118.4301,24.4087],[118.4279,24.4087],[118.4266,24.4093],[118.426,24.409],[118.4269,24.4069],[118.4293,24.4074],[118.4301,24.407],[118.4319,24.4081],[118.4328,24.4076],[118.4353,24.408],[118.4358,24.409],[118.4368,24.4092],[118.4372,24.41],[118.4419,24.4119],[118.4444,24.4122],[118.4464,24.4145],[118.4491,24.416],[118.4501,24.4155],[118.4532,24.4154],[118.4526,24.4164],[118.4559,24.4178],[118.4555,24.4198],[118.4568,24.4204],[118.457,24.4224],[118.4577,24.424],[118.457,24.4252],[118.4573,24.426],[118.4587,24.4258],[118.4605,24.4247],[118.4621,24.425],[118.4626,24.4268],[118.4635,24.4269],[118.4647,24.4279],[118.4652,24.4292],[118.464,24.4298],[118.4661,24.4304],[118.4665,24.4316],[118.4651,24.4322],[118.4638,24.4335],[118.4634,24.4344],[118.4635,24.4359],[118.4621,24.4354],[118.46,24.4366],[118.4604,24.4379],[118.4611,24.4387],[118.4629,24.4382],[118.4622,24.4395],[118.4622,24.4402],[118.4642,24.4416],[118.466,24.4422],[118.4677,24.4421],[118.4684,24.4418],[118.4682,24.4403],[118.4695,24.4397],[118.4709,24.4404],[118.4711,24.4417],[118.4725,24.4413],[118.4723,24.4431],[118.4736,24.4444],[118.4741,24.4464],[118.474,24.447],[118.4742,24.4496],[118.4754,24.45],[118.4775,24.4495],[118.4782,24.4503],[118.4773,24.4514],[118.4767,24.4517],[118.4762,24.4533],[118.4732,24.4536],[118.4721,24.4548],[118.4703,24.4552],[118.4689,24.4577],[118.4657,24.4535],[118.4638,24.4529],[118.4625,24.4505],[118.4597,24.4485],[118.4567,24.4476],[118.4553,24.4467],[118.4485,24.4522],[118.4462,24.4542],[118.4421,24.4587],[118.4352,24.4665],[118.433,24.4709],[118.4304,24.4707],[118.4286,24.4704],[118.4274,24.4705],[118.4263,24.4702],[118.4234,24.4673],[118.4223,24.4669],[118.4212,24.4653],[118.4189,24.4643],[118.4183,24.4634],[118.4159,24.4634],[118.4139,24.4624],[118.4133,24.4618],[118.4115,24.4609],[118.4098,24.4595],[118.4057,24.4593],[118.4052,24.4579],[118.403,24.457],[118.4032,24.4566],[118.3961,24.4537],[118.3943,24.455],[118.3924,24.4589],[118.3906,24.46],[118.3892,24.4604],[118.3866,24.4594],[118.3838,24.4612],[118.3826,24.4615],[118.3795,24.4655],[118.3787,24.4661],[118.3761,24.4704],[118.3749,24.4726],[118.372,24.4791]]]]},"properties":{"region_code":"CN-71-1F9B552922","parent_region_code":"CN-71-60BC8F32B5","name":"金湖镇","level":"county","has_children":false,"full_path":"中国 / 台湾省 / 金门县 / 金湖镇","source_admin_code":null,"osm_relation_id":3339701}},
{"type":"Feature","geometry":{"type":"Polygon","coordinates":[[[118.3429,24.4125],[118.3445,24.415],[118.3463,24.4171],[118.348,24.4184],[118.3506,24.4207],[118.3535,24.4227],[118.3591,24.4259],[118.3606,24.4265],[118.3588,24.4303],[118.3593,24.4312],[118.3605,24.4322],[118.3605,24.4331],[118.361,24.4347],[118.3614,24.4369],[118.3638,24.4379],[118.3624,24.4406],[118.3614,24.4418],[118.3603,24.4458],[118.3606,24.4484],[118.3622,24.45],[118.3629,24.4513],[118.3652,24.4537],[118.3678,24.4579],[118.3675,24.4595],[118.3679,24.4606],[118.3669,24.4609],[118.3664,24.4617],[118.3662,24.4655],[118.3658,24.4737],[118.3647,24.4727],[118.3631,24.4717],[118.3618,24.4717],[118.3595,24.4712],[118.3566,24.471],[118.3504,24.4717],[118.3478,24.4731],[118.3465,24.4741],[118.3437,24.4746],[118.3414,24.4743],[118.3387,24.475],[118.3363,24.476],[118.3346,24.477],[118.3313,24.4791],[118.3302,24.48],[118.3289,24.4815],[118.327,24.483],[118.3256,24.4857],[118.3243,24.4877],[118.3226,24.4896],[118.3204,24.4915],[118.3182,24.4932],[118.3156,24.4941],[118.3129,24.4955],[118.3105,24.496],[118.3075,24.4958],[118.3028,24.4947],[118.2998,24.4937],[118.2977,24.4927],[118.2965,24.4919],[118.2945,24.4913],[118.2927,24.4899],[118.292,24.4886],[118.2897,24.486],[118.2866,24.4789],[118.286,24.4771],[118.2862,24.4748],[118.2876,24.4726],[118.2886,24.4715],[118.2884,24.4702],[118.2905,24.4683],[118.2935,24.4667],[118.2961,24.4649],[118.298,24.464],[118.2997,24.4637],[118.3029,24.4617],[118.3018,24.4592],[118.3016,24.4576],[118.3022,24.4566],[118.3029,24.4541],[118.3055,24.4503],[118.3072,24.4472],[118.3081,24.4441],[118.309,24.4421],[118.3093,24.4396],[118.3092,24.4375],[118.3096,24.4374],[118.3125,24.4376],[118.3132,24.4398],[118.314,24.4404],[118.315,24.4395],[118.316,24.44],[118.317,24.439],[118.32,24.4411],[118.3211,24.4426],[118.3236,24.4449],[118.3251,24.4435],[118.3258,24.4441],[118.3283,24.4413],[118.3264,24.4401],[118.323,24.4365],[118.3244,24.4352],[118.3247,24.4354],[118.3265,24.4343],[118.325,24.4328],[118.328,24.4327],[118.329,24.4328],[118.3304,24.4325],[118.3286,24.4261],[118.3265,24.4262],[118.3251,24.4261],[118.3254,24.4253],[118.3253,24.4218],[118.3266,24.4198],[118.3272,24.418],[118.3292,24.414],[118.3346,24.4191],[118.3374,24.4168],[118.3429,24.4125]]]},"properties":{"region_code":"CN-71-8E6F2270A6","parent_region_code":"CN-71-60BC8F32B5","name":"金宁乡","level":"county","has_children":false,"full_path":"中国 / 台湾省 / 金门县 / 金宁乡","source_admin_code":null,"osm_relation_id":3339699}},
{"type":"Feature","geometry":{"type":"MultiPolygon","coordinates":[[[[118.2351,24.1626],[118.2329,24.1632],[118.2329,24.1621],[118.2324,24.1608],[118.2332,24.1604],[118.2346,24.1603],[118.2351,24.1626]]],[[[118.1457,24.3782],[118.1452,24.3785],[118.1442,24.3775],[118.1457,24.377],[118.1457,24.3782]]],[[[118.156,24.3824],[118.1554,24.3832],[118.1536,24.3824],[118.1536,24.3807],[118.1558,24.38],[118.156,24.3789],[118.1571,24.3793],[118.1583,24.379],[118.1606,24.3793],[118.1614,24.3803],[118.1603,24.3808],[118.1583,24.3802],[118.1572,24.3815],[118.157,24.3822],[118.156,24.3824]]],[[[118.1649,24.3888],[118.1639,24.3903],[118.1635,24.3919],[118.1635,24.3931],[118.1647,24.3941],[118.1645,24.3952],[118.1635,24.3957],[118.1625,24.3953],[118.1609,24.3962],[118.1597,24.3946],[118.1586,24.3938],[118.159,24.393],[118.1611,24.3917],[118.1625,24.39],[118.1627,24.3883],[118.1643,24.3868],[118.1657,24.3862],[118.1668,24.3849],[118.1677,24.3847],[118.1712,24.3855],[118.172,24.3859],[118.172,24.3868],[118.1712,24.3876],[118.1714,24.3886],[118.1706,24.3887],[118.1684,24.3879],[118.1667,24.3886],[118.1649,24.3888]]],[[[118.263,24.4226],[118.2628,24.4234],[118.2633,24.4249],[118.2628,24.4262],[118.2641,24.428],[118.2648,24.4284],[118.2646,24.4302],[118.2642,24.4317],[118.2632,24.4332],[118.2634,24.4341],[118.2648,24.4354],[118.2664,24.4361],[118.2672,24.4374],[118.2668,24.4383],[118.2664,24.4403],[118.2668,24.4414],[118.2676,24.4422],[118.2673,24.4434],[118.2655,24.4435],[118.2637,24.4442],[118.2614,24.4455],[118.2595,24.4467],[118.2535,24.4511],[118.2508,24.4527],[118.2499,24.4523],[118.2486,24.4532],[118.2478,24.4528],[118.2467,24.4531],[118.2455,24.4522],[118.2442,24.4522],[118.2445,24.4499],[118.2441,24.4496],[118.2418,24.4489],[118.2386,24.4497],[118.2369,24.4494],[118.2355,24.4498],[118.235,24.4494],[118.2329,24.4493],[118.2324,24.4486],[118.2307,24.4479],[118.2296,24.4466],[118.2297,24.4454],[118.2288,24.4433],[118.2286,24.4401],[118.2287,24.4385],[118.2284,24.4366],[118.2278,24.434],[118.2275,24.4318],[118.2263,24.4288],[118.2263,24.4278],[118.2242,24.4268],[118.2229,24.4265],[118.2199,24.4267],[118.2203,24.4284],[118.222,24.4278],[118.222,24.4288],[118.2201,24.4297],[118.2189,24.4265],[118.2181,24.4265],[118.2171,24.4257],[118.2176,24.424],[118.2193,24.4208],[118.2199,24.4189],[118.2198,24.4174],[118.217,24.4142],[118.2165,24.4132],[118.2157,24.4124],[118.2135,24.4119],[118.2119,24.4127],[118.2116,24.4121],[118.2135,24.4104],[118.2147,24.4096],[118.2176,24.4098],[118.222,24.4089],[118.2236,24.4078],[118.2241,24.4061],[118.225,24.4052],[118.2262,24.4052],[118.2266,24.4066],[118.2301,24.411],[118.2329,24.413],[118.235,24.414],[118.2368,24.4147],[118.2389,24.4149],[118.2415,24.4143],[118.241,24.4119],[118.2421,24.4116],[118.2436,24.4133],[118.2463,24.4143],[118.2473,24.4154],[118.2479,24.4165],[118.2466,24.4164],[118.2459,24.418],[118.2467,24.4205],[118.2476,24.4215],[118.2504,24.4237],[118.2526,24.4247],[118.2547,24.4252],[118.2575,24.4251],[118.2601,24.4243],[118.2605,24.4231],[118.2622,24.4223],[118.263,24.4226]]]]},"properties":{"region_code":"CN-71-116CFC1D7B","parent_region_code":"CN-71-60BC8F32B5","name":"烈屿乡","level":"county","has_children":false,"full_path":"中国 / 台湾省 / 金门县 / 烈屿乡","source_admin_code":null,"osm_relation_id":3339694}},
{"type":"Feature","geometry":{"type":"MultiPolygon","coordinates":[[[[119.4672,24.9815],[119.4681,24.9822],[119.4667,24.9832],[119.466,24.9829],[119.4658,24.9818],[119.4672,24.9815]]],[[[119.4744,24.9799],[119.4749,24.9811],[119.4763,24.9807],[119.4775,24.9813],[119.4764,24.9828],[119.4764,24.9842],[119.4751,24.9844],[119.4744,24.9851],[119.4725,24.9858],[119.4711,24.985],[119.4711,24.9843],[119.4702,24.9841],[119.4692,24.9845],[119.4684,24.9828],[119.4688,24.9822],[119.4702,24.9812],[119.4733,24.9826],[119.4731,24.9812],[119.4733,24.9798],[119.4744,24.9799]]]]},"properties":{"region_code":"CN-71-77031574E6","parent_region_code":"CN-71-60BC8F32B5","name":"乌丘乡","level":"county","has_children":false,"full_path":"中国 / 台湾省 / 金门县 / 乌丘乡","source_admin_code":null,"osm_relation_id":3339702}}
]}